{"type": "FeatureCollection", "features": [{"type": "Feature", "geometry": {"type": "Polygon", "coordinates": [[[-3.5500068, 41.0339046], [-3.5605574, 41.0252869], [-3.5768871, 41.023684], [-3.5729135, 41.0167225], [-3.5754918, 41.0095751], [-3.5821726, 41.0038845], [-3.5813131, 40.9913043], [-3.5848508, 40.985323], [-3.5896373, 40.9821818], [-3.5978787, 40.983896], [-3.6075537, 40.9733688], [-3.6242288, 40.9708206], [-3.6293803, 40.9615473], [-3.6129727, 40.9415591], [-3.5938231, 40.9489338], [-3.5841975, 40.9491217], [-3.5717853, 40.9398852], [-3.5697481, 40.9329023], [-3.5753205, 40.9182032], [-3.5682609, 40.9101176], [-3.5686317, 40.9042074], [-3.5654173, 40.903601], [-3.5624794, 40.9058904], [-3.5446976, 40.9045172], [-3.5462477, 40.9108368], [-3.5395885, 40.9144593], [-3.5422291, 40.9208158], [-3.5510763, 40.9221792], [-3.5553482, 40.9302752], [-3.5540941, 40.9351367], [-3.5632819, 40.9455958], [-3.5622769, 40.9503751], [-3.5657731, 40.9549162], [-3.5577294, 40.957811], [-3.5640523, 40.9719413], [-3.5258396, 40.9867603], [-3.5253239, 40.9891948], [-3.5178838, 40.9894627], [-3.5155397, 40.9937791], [-3.4963811, 40.9947009], [-3.4927962, 41.0130661], [-3.5128931, 41.0220498], [-3.5395727, 41.0250358], [-3.5474625, 41.0283316], [-3.5500068, 41.0339046]]]}, "properties": {"municipio": "Puentes Viejas", "ambito": "PUENTES-VIEJAS-STUB", "clasificacion": "sin-asignar", "calificacion": "sin-asignar", "version": "vigente", "fuente": "STUB — SIT-CAM no publica capa VPLA para este municipio", "fecha_dato": "2026-05-12", "slug": "puentes-viejas"}}]}