{
"type": "FeatureCollection",
"name": "vigente.full",
"features": [
{ "type": "Feature", "properties": { "municipio": "Torres de la Alameda", "clasificacion": "no-urbanizable-protegido", "calificacion": "sin-asignar", "version": "vigente", "fuente": "SIT-CAM WFS — UsoDelSuelo:VPLA_V_CLASIFICACION (https://idem.comunidad.madrid/geosrvg/ows)", "fecha_dato": "2026-05-12", "ambito": "21021", "_raw_CD_SIGLAS": "SNUP", "_raw_DS_CLASIF_GEN": "Suelo No Urbanizable Protegido", "_raw_DS_CLASIF_DET": "Suelo No Urbanizable Parque Natural", "_raw_DS_DOCU": "NORMAS SUBSIDIARIAS", "_raw_DS_LEY": "CM Ley 4/1984, E RDL 1/1992", "_raw_FC_AC": "1993-03-17", "_raw_NM_AREA_M2": 206140.80298752099, "_cam_code": "154" }, "geometry": { "type": "Polygon", "coordinates": [ [ [ -3.3536, 40.3916 ], [ -3.3537, 40.3922 ], [ -3.3543, 40.393 ], [ -3.3556, 40.3958 ], [ -3.3556, 40.3957 ], [ -3.3562, 40.3956 ], [ -3.3589, 40.3953 ], [ -3.3584, 40.3946 ], [ -3.3586, 40.394 ], [ -3.3582, 40.3935 ], [ -3.3566, 40.3921 ], [ -3.3563, 40.3916 ], [ -3.3557, 40.3914 ], [ -3.3556, 40.3907 ], [ -3.355, 40.3902 ], [ -3.3545, 40.3894 ], [ -3.3542, 40.3894 ], [ -3.354, 40.3892 ], [ -3.3539, 40.3885 ], [ -3.3538, 40.3885 ], [ -3.354, 40.388 ], [ -3.354, 40.3876 ], [ -3.3537, 40.3872 ], [ -3.3535, 40.3872 ], [ -3.352, 40.3883 ], [ -3.3518, 40.3891 ], [ -3.3519, 40.3891 ], [ -3.3521, 40.3896 ], [ -3.3528, 40.3901 ], [ -3.353, 40.3906 ], [ -3.353, 40.3911 ], [ -3.3533, 40.3912 ], [ -3.3536, 40.3916 ] ] ] } },
{ "type": "Feature", "properties": { "municipio": "Torres de la Alameda", "clasificacion": "no-urbanizable-protegido", "calificacion": "sin-asignar", "version": "vigente", "fuente": "SIT-CAM WFS — UsoDelSuelo:VPLA_V_CLASIFICACION (https://idem.comunidad.madrid/geosrvg/ows)", "fecha_dato": "2026-05-12", "ambito": "21021", "_raw_CD_SIGLAS": "SNUP", "_raw_DS_CLASIF_GEN": "Suelo No Urbanizable Protegido", "_raw_DS_CLASIF_DET": "Suelo No Urbanizable Especialmente Protegido por su interés agrario", "_raw_DS_DOCU": "NORMAS SUBSIDIARIAS", "_raw_DS_LEY": "CM Ley 4/1984, E RDL 1/1992", "_raw_FC_AC": "1993-03-17", "_raw_NM_AREA_M2": 2064860.35069817, "_cam_code": "154" }, "geometry": { "type": "Polygon", "coordinates": [ [ [ -3.3629, 40.4315 ], [ -3.3642, 40.4324 ], [ -3.3665, 40.4312 ], [ -3.3674, 40.4313 ], [ -3.3675, 40.4316 ], [ -3.3679, 40.4315 ], [ -3.3677, 40.4312 ], [ -3.3696, 40.4306 ], [ -3.3712, 40.4307 ], [ -3.3714, 40.4303 ], [ -3.3714, 40.4298 ], [ -3.3722, 40.4289 ], [ -3.3735, 40.4279 ], [ -3.3745, 40.4276 ], [ -3.3756, 40.4246 ], [ -3.3762, 40.4246 ], [ -3.3784, 40.4223 ], [ -3.3792, 40.4227 ], [ -3.3803, 40.4229 ], [ -3.3815, 40.4227 ], [ -3.3825, 40.4221 ], [ -3.3832, 40.4215 ], [ -3.3839, 40.4205 ], [ -3.3852, 40.4201 ], [ -3.3871, 40.4199 ], [ -3.3892, 40.4192 ], [ -3.3905, 40.419 ], [ -3.3928, 40.4184 ], [ -3.3941, 40.4178 ], [ -3.3961, 40.4166 ], [ -3.3972, 40.4166 ], [ -3.3982, 40.415 ], [ -3.3987, 40.4147 ], [ -3.4005, 40.4143 ], [ -3.4014, 40.4139 ], [ -3.4017, 40.4132 ], [ -3.4023, 40.4126 ], [ -3.4022, 40.412 ], [ -3.4018, 40.411 ], [ -3.4, 40.4076 ], [ -3.3986, 40.4061 ], [ -3.3977, 40.406 ], [ -3.3973, 40.4063 ], [ -3.3966, 40.4065 ], [ -3.396, 40.4072 ], [ -3.3956, 40.4074 ], [ -3.3953, 40.4078 ], [ -3.3953, 40.408 ], [ -3.3932, 40.4097 ], [ -3.393, 40.4097 ], [ -3.3917, 40.4104 ], [ -3.391, 40.4104 ], [ -3.3879, 40.4113 ], [ -3.3866, 40.4125 ], [ -3.386, 40.4134 ], [ -3.3857, 40.4135 ], [ -3.3852, 40.4133 ], [ -3.3851, 40.4134 ], [ -3.3805, 40.4196 ], [ -3.3787, 40.4179 ], [ -3.3782, 40.4184 ], [ -3.3772, 40.4201 ], [ -3.3765, 40.4225 ], [ -3.376, 40.4231 ], [ -3.3728, 40.4244 ], [ -3.3718, 40.4253 ], [ -3.3698, 40.4258 ], [ -3.3687, 40.4271 ], [ -3.368, 40.4277 ], [ -3.3669, 40.4283 ], [ -3.3664, 40.4284 ], [ -3.3661, 40.4288 ], [ -3.3654, 40.4292 ], [ -3.3646, 40.4294 ], [ -3.3638, 40.4301 ], [ -3.3632, 40.4303 ], [ -3.3623, 40.4309 ], [ -3.3614, 40.4308 ], [ -3.3629, 40.4315 ] ] ] } },
{ "type": "Feature", "properties": { "municipio": "Torres de la Alameda", "clasificacion": "no-urbanizable-protegido", "calificacion": "sin-asignar", "version": "vigente", "fuente": "SIT-CAM WFS — UsoDelSuelo:VPLA_V_CLASIFICACION (https://idem.comunidad.madrid/geosrvg/ows)", "fecha_dato": "2026-05-12", "ambito": "21021", "_raw_CD_SIGLAS": "SNUP", "_raw_DS_CLASIF_GEN": "Suelo No Urbanizable Protegido", "_raw_DS_CLASIF_DET": "Suelo No Urbanizable Especialmente Protegido por su interés agrario", "_raw_DS_DOCU": "NORMAS SUBSIDIARIAS", "_raw_DS_LEY": "CM Ley 4/1984, E RDL 1/1992", "_raw_FC_AC": "1993-03-17", "_raw_NM_AREA_M2": 450186.00141410198, "_cam_code": "154" }, "geometry": { "type": "Polygon", "coordinates": [ [ [ -3.4137, 40.4484 ], [ -3.4141, 40.4496 ], [ -3.4145, 40.4498 ], [ -3.4158, 40.4511 ], [ -3.4159, 40.4518 ], [ -3.4158, 40.4525 ], [ -3.4147, 40.4546 ], [ -3.414, 40.4563 ], [ -3.4198, 40.4546 ], [ -3.4202, 40.4551 ], [ -3.4239, 40.4561 ], [ -3.4248, 40.4547 ], [ -3.426, 40.4535 ], [ -3.4265, 40.4532 ], [ -3.4269, 40.4532 ], [ -3.4264, 40.4524 ], [ -3.4264, 40.4521 ], [ -3.4261, 40.4518 ], [ -3.4258, 40.4517 ], [ -3.4256, 40.4517 ], [ -3.4244, 40.4526 ], [ -3.4239, 40.4528 ], [ -3.4231, 40.4527 ], [ -3.4217, 40.4521 ], [ -3.421, 40.452 ], [ -3.421, 40.4519 ], [ -3.4199, 40.4519 ], [ -3.4188, 40.4504 ], [ -3.4188, 40.4496 ], [ -3.4168, 40.4491 ], [ -3.4154, 40.4486 ], [ -3.4137, 40.4484 ] ] ] } },
{ "type": "Feature", "properties": { "municipio": "Torres de la Alameda", "clasificacion": "no-urbanizable-protegido", "calificacion": "sin-asignar", "version": "vigente", "fuente": "SIT-CAM WFS — UsoDelSuelo:VPLA_V_CLASIFICACION (https://idem.comunidad.madrid/geosrvg/ows)", "fecha_dato": "2026-05-12", "ambito": "21021", "_raw_CD_SIGLAS": "SNUP", "_raw_DS_CLASIF_GEN": "Suelo No Urbanizable Protegido", "_raw_DS_CLASIF_DET": "Suelo No Urbanizable Especialmente Protegido por su interés naturalístico", "_raw_DS_DOCU": "NORMAS SUBSIDIARIAS", "_raw_DS_LEY": "CM Ley 4/1984, E RDL 1/1992", "_raw_FC_AC": "1993-03-17", "_raw_NM_AREA_M2": 2603298.1369536002, "_cam_code": "154" }, "geometry": { "type": "Polygon", "coordinates": [ [ [ -3.3563, 40.3916 ], [ -3.3566, 40.3921 ], [ -3.3582, 40.3935 ], [ -3.3586, 40.394 ], [ -3.3584, 40.3946 ], [ -3.3587, 40.395 ], [ -3.3603, 40.3946 ], [ -3.3619, 40.3939 ], [ -3.3626, 40.3934 ], [ -3.3627, 40.3921 ], [ -3.3639, 40.3904 ], [ -3.3641, 40.3894 ], [ -3.3649, 40.3896 ], [ -3.368, 40.3893 ], [ -3.3684, 40.3888 ], [ -3.368, 40.3878 ], [ -3.3699, 40.3867 ], [ -3.3705, 40.3862 ], [ -3.3721, 40.3857 ], [ -3.3745, 40.3858 ], [ -3.3752, 40.3855 ], [ -3.3759, 40.3854 ], [ -3.3764, 40.3848 ], [ -3.3765, 40.384 ], [ -3.376, 40.3834 ], [ -3.3755, 40.3831 ], [ -3.375, 40.3823 ], [ -3.3742, 40.3816 ], [ -3.3731, 40.3811 ], [ -3.3718, 40.3799 ], [ -3.3708, 40.3796 ], [ -3.3703, 40.3792 ], [ -3.37, 40.3784 ], [ -3.3698, 40.3768 ], [ -3.3699, 40.3762 ], [ -3.3704, 40.3758 ], [ -3.371, 40.3759 ], [ -3.3714, 40.3762 ], [ -3.3723, 40.3786 ], [ -3.3727, 40.3789 ], [ -3.3735, 40.3789 ], [ -3.3748, 40.3795 ], [ -3.3756, 40.3795 ], [ -3.375, 40.3786 ], [ -3.3714, 40.3749 ], [ -3.3687, 40.3732 ], [ -3.3655, 40.3716 ], [ -3.3637, 40.3715 ], [ -3.3623, 40.3705 ], [ -3.3605, 40.3709 ], [ -3.3602, 40.3708 ], [ -3.3595, 40.3705 ], [ -3.3572, 40.3691 ], [ -3.3576, 40.3701 ], [ -3.357, 40.3712 ], [ -3.3564, 40.3718 ], [ -3.3559, 40.3721 ], [ -3.3543, 40.3726 ], [ -3.3542, 40.3728 ], [ -3.3542, 40.3733 ], [ -3.3546, 40.3741 ], [ -3.3546, 40.3746 ], [ -3.3544, 40.3752 ], [ -3.3549, 40.3763 ], [ -3.3553, 40.3765 ], [ -3.3562, 40.3765 ], [ -3.3576, 40.376 ], [ -3.3583, 40.3753 ], [ -3.3586, 40.3752 ], [ -3.3591, 40.3753 ], [ -3.3594, 40.3755 ], [ -3.3593, 40.3764 ], [ -3.3596, 40.3769 ], [ -3.3601, 40.3772 ], [ -3.3612, 40.3772 ], [ -3.3616, 40.3774 ], [ -3.3618, 40.3777 ], [ -3.3618, 40.3781 ], [ -3.361, 40.3788 ], [ -3.3607, 40.3793 ], [ -3.3612, 40.3799 ], [ -3.3623, 40.3803 ], [ -3.3626, 40.3807 ], [ -3.3627, 40.3812 ], [ -3.3623, 40.3821 ], [ -3.3615, 40.3831 ], [ -3.361, 40.3834 ], [ -3.3609, 40.3838 ], [ -3.3611, 40.3844 ], [ -3.3616, 40.3847 ], [ -3.362, 40.3852 ], [ -3.3617, 40.3857 ], [ -3.3613, 40.386 ], [ -3.3608, 40.386 ], [ -3.3601, 40.3857 ], [ -3.3595, 40.3857 ], [ -3.3581, 40.386 ], [ -3.3573, 40.3859 ], [ -3.3559, 40.3851 ], [ -3.3555, 40.3852 ], [ -3.355, 40.3856 ], [ -3.3553, 40.3866 ], [ -3.3559, 40.3877 ], [ -3.3553, 40.3882 ], [ -3.3542, 40.3876 ], [ -3.354, 40.3876 ], [ -3.354, 40.388 ], [ -3.3538, 40.3885 ], [ -3.3539, 40.3885 ], [ -3.354, 40.3892 ], [ -3.3542, 40.3894 ], [ -3.3545, 40.3894 ], [ -3.355, 40.3902 ], [ -3.3556, 40.3907 ], [ -3.3557, 40.3914 ], [ -3.3563, 40.3916 ] ] ] } },
{ "type": "Feature", "properties": { "municipio": "Torres de la Alameda", "clasificacion": "no-urbanizable-protegido", "calificacion": "sin-asignar", "version": "vigente", "fuente": "SIT-CAM WFS — UsoDelSuelo:VPLA_V_CLASIFICACION (https://idem.comunidad.madrid/geosrvg/ows)", "fecha_dato": "2026-05-12", "ambito": "21021", "_raw_CD_SIGLAS": "SNUP", "_raw_DS_CLASIF_GEN": "Suelo No Urbanizable Protegido", "_raw_DS_CLASIF_DET": "Suelo No Urbanizable Especialmente Protegido de cauces y riberas", "_raw_DS_DOCU": "NORMAS SUBSIDIARIAS", "_raw_DS_LEY": "CM Ley 4/1984, E RDL 1/1992", "_raw_FC_AC": "1993-03-17", "_raw_NM_AREA_M2": 45351.850616158197, "_cam_code": "154" }, "geometry": { "type": "Polygon", "coordinates": [ [ [ -3.3852, 40.4133 ], [ -3.3857, 40.4135 ], [ -3.386, 40.4134 ], [ -3.3866, 40.4125 ], [ -3.3881, 40.4112 ], [ -3.391, 40.4104 ], [ -3.3917, 40.4104 ], [ -3.393, 40.4097 ], [ -3.3932, 40.4097 ], [ -3.3953, 40.408 ], [ -3.3953, 40.4078 ], [ -3.3956, 40.4074 ], [ -3.396, 40.4072 ], [ -3.3966, 40.4065 ], [ -3.3973, 40.4063 ], [ -3.3977, 40.406 ], [ -3.3986, 40.4061 ], [ -3.3983, 40.4057 ], [ -3.3976, 40.4057 ], [ -3.3963, 40.4063 ], [ -3.396, 40.4066 ], [ -3.3959, 40.4069 ], [ -3.3954, 40.4071 ], [ -3.3952, 40.4075 ], [ -3.395, 40.4076 ], [ -3.395, 40.4079 ], [ -3.3946, 40.4081 ], [ -3.3929, 40.4095 ], [ -3.3917, 40.41 ], [ -3.3902, 40.4103 ], [ -3.3878, 40.411 ], [ -3.3871, 40.4115 ], [ -3.3868, 40.412 ], [ -3.3862, 40.4125 ], [ -3.3861, 40.4128 ], [ -3.3857, 40.4132 ], [ -3.3854, 40.4131 ], [ -3.3852, 40.4133 ] ] ] } },
{ "type": "Feature", "properties": { "municipio": "Torres de la Alameda", "clasificacion": "no-urbanizable-protegido", "calificacion": "sin-asignar", "version": "vigente", "fuente": "SIT-CAM WFS — UsoDelSuelo:VPLA_V_CLASIFICACION (https://idem.comunidad.madrid/geosrvg/ows)", "fecha_dato": "2026-05-12", "ambito": "21021", "_raw_CD_SIGLAS": "SNUP", "_raw_DS_CLASIF_GEN": "Suelo No Urbanizable Protegido", "_raw_DS_CLASIF_DET": "Suelo No Urbanizable Especialmente Protegido de cauces y riberas", "_raw_DS_DOCU": "NORMAS SUBSIDIARIAS", "_raw_DS_LEY": "CM Ley 4/1984, E RDL 1/1992", "_raw_FC_AC": "1993-03-17", "_raw_NM_AREA_M2": 93323.213472739895, "_cam_code": "154" }, "geometry": { "type": "Polygon", "coordinates": [ [ [ -3.3298, 40.4146 ], [ -3.3338, 40.415 ], [ -3.3348, 40.4148 ], [ -3.3354, 40.4144 ], [ -3.3361, 40.4143 ], [ -3.337, 40.4139 ], [ -3.3376, 40.4138 ], [ -3.3432, 40.4135 ], [ -3.344, 40.4133 ], [ -3.3445, 40.413 ], [ -3.3451, 40.413 ], [ -3.3463, 40.4123 ], [ -3.3477, 40.4124 ], [ -3.3489, 40.4118 ], [ -3.3495, 40.4119 ], [ -3.3497, 40.4118 ], [ -3.35, 40.412 ], [ -3.3513, 40.4121 ], [ -3.353, 40.4117 ], [ -3.3541, 40.4117 ], [ -3.3551, 40.4114 ], [ -3.356, 40.4113 ], [ -3.3572, 40.4114 ], [ -3.3579, 40.4113 ], [ -3.359, 40.4114 ], [ -3.3598, 40.4112 ], [ -3.3636, 40.4113 ], [ -3.3635, 40.411 ], [ -3.3584, 40.4111 ], [ -3.3583, 40.411 ], [ -3.3577, 40.4111 ], [ -3.356, 40.411 ], [ -3.3542, 40.4114 ], [ -3.3535, 40.4114 ], [ -3.3512, 40.4118 ], [ -3.3511, 40.4119 ], [ -3.35, 40.4116 ], [ -3.3491, 40.4116 ], [ -3.349, 40.4115 ], [ -3.3476, 40.4121 ], [ -3.3467, 40.412 ], [ -3.3461, 40.4121 ], [ -3.3453, 40.4126 ], [ -3.3443, 40.4128 ], [ -3.3436, 40.4131 ], [ -3.3396, 40.4135 ], [ -3.3373, 40.4135 ], [ -3.3358, 40.4141 ], [ -3.3352, 40.4142 ], [ -3.3347, 40.4145 ], [ -3.3336, 40.4147 ], [ -3.3282, 40.4143 ], [ -3.3282, 40.4146 ], [ -3.3298, 40.4146 ] ] ] } },
{ "type": "Feature", "properties": { "municipio": "Torres de la Alameda", "clasificacion": "no-urbanizable-protegido", "calificacion": "sin-asignar", "version": "vigente", "fuente": "SIT-CAM WFS — UsoDelSuelo:VPLA_V_CLASIFICACION (https://idem.comunidad.madrid/geosrvg/ows)", "fecha_dato": "2026-05-12", "ambito": "21021", "_raw_CD_SIGLAS": "SNUP", "_raw_DS_CLASIF_GEN": "Suelo No Urbanizable Protegido", "_raw_DS_CLASIF_DET": "Suelo No Urbanizable Especialmente Protegido de cauces y riberas", "_raw_DS_DOCU": "NORMAS SUBSIDIARIAS", "_raw_DS_LEY": "CM Ley 4/1984, E RDL 1/1992", "_raw_FC_AC": "1993-03-17", "_raw_NM_AREA_M2": 46817.288804526601, "_cam_code": "154" }, "geometry": { "type": "Polygon", "coordinates": [ [ [ -3.3757, 40.4149 ], [ -3.3771, 40.4155 ], [ -3.3778, 40.4161 ], [ -3.3779, 40.4164 ], [ -3.3783, 40.4165 ], [ -3.3785, 40.4162 ], [ -3.3782, 40.4161 ], [ -3.3772, 40.4153 ], [ -3.3761, 40.4149 ], [ -3.3758, 40.4146 ], [ -3.3754, 40.4146 ], [ -3.3748, 40.4143 ], [ -3.3741, 40.4143 ], [ -3.3738, 40.4145 ], [ -3.3738, 40.4147 ], [ -3.3725, 40.4148 ], [ -3.3716, 40.4145 ], [ -3.3714, 40.4142 ], [ -3.371, 40.414 ], [ -3.3701, 40.4141 ], [ -3.3692, 40.4138 ], [ -3.3683, 40.4134 ], [ -3.368, 40.4129 ], [ -3.3668, 40.4122 ], [ -3.3666, 40.4122 ], [ -3.3656, 40.4113 ], [ -3.3652, 40.4112 ], [ -3.3649, 40.4109 ], [ -3.3641, 40.4107 ], [ -3.3637, 40.4109 ], [ -3.3637, 40.4112 ], [ -3.3641, 40.4111 ], [ -3.3641, 40.411 ], [ -3.3655, 40.4116 ], [ -3.3663, 40.4124 ], [ -3.3666, 40.4124 ], [ -3.3677, 40.4131 ], [ -3.3684, 40.4138 ], [ -3.3692, 40.4141 ], [ -3.3699, 40.4143 ], [ -3.371, 40.4143 ], [ -3.3715, 40.4148 ], [ -3.3724, 40.4151 ], [ -3.3739, 40.415 ], [ -3.3742, 40.4148 ], [ -3.3742, 40.4146 ], [ -3.3746, 40.4146 ], [ -3.3751, 40.4149 ], [ -3.3757, 40.4149 ] ] ] } },
{ "type": "Feature", "properties": { "municipio": "Torres de la Alameda", "clasificacion": "no-urbanizable-protegido", "calificacion": "sin-asignar", "version": "vigente", "fuente": "SIT-CAM WFS — UsoDelSuelo:VPLA_V_CLASIFICACION (https://idem.comunidad.madrid/geosrvg/ows)", "fecha_dato": "2026-05-12", "ambito": "21021", "_raw_CD_SIGLAS": "SNUP", "_raw_DS_CLASIF_GEN": "Suelo No Urbanizable Protegido", "_raw_DS_CLASIF_DET": "Suelo No Urbanizable Especialmente Protegido de cauces y riberas", "_raw_DS_DOCU": "NORMAS SUBSIDIARIAS", "_raw_DS_LEY": "CM Ley 4/1984, E RDL 1/1992", "_raw_FC_AC": "1993-03-17", "_raw_NM_AREA_M2": 119199.988825515, "_cam_code": "154" }, "geometry": { "type": "Polygon", "coordinates": [ [ [ -3.3782, 40.4174 ], [ -3.377, 40.4189 ], [ -3.3766, 40.4198 ], [ -3.3762, 40.4217 ], [ -3.3755, 40.4227 ], [ -3.3728, 40.4238 ], [ -3.3711, 40.425 ], [ -3.3699, 40.4252 ], [ -3.3679, 40.4271 ], [ -3.366, 40.4281 ], [ -3.3652, 40.4288 ], [ -3.3639, 40.4293 ], [ -3.3625, 40.4303 ], [ -3.362, 40.4305 ], [ -3.3608, 40.4305 ], [ -3.3614, 40.4308 ], [ -3.3623, 40.4309 ], [ -3.3632, 40.4303 ], [ -3.3638, 40.4301 ], [ -3.3646, 40.4294 ], [ -3.3654, 40.4292 ], [ -3.3661, 40.4288 ], [ -3.3664, 40.4284 ], [ -3.3669, 40.4283 ], [ -3.368, 40.4277 ], [ -3.3687, 40.4271 ], [ -3.3698, 40.4258 ], [ -3.3718, 40.4253 ], [ -3.3728, 40.4244 ], [ -3.376, 40.4231 ], [ -3.3765, 40.4225 ], [ -3.3772, 40.4201 ], [ -3.3782, 40.4184 ], [ -3.3787, 40.4179 ], [ -3.3782, 40.4174 ] ] ] } },
{ "type": "Feature", "properties": { "municipio": "Torres de la Alameda", "clasificacion": "no-urbanizable-protegido", "calificacion": "sin-asignar", "version": "vigente", "fuente": "SIT-CAM WFS — UsoDelSuelo:VPLA_V_CLASIFICACION (https://idem.comunidad.madrid/geosrvg/ows)", "fecha_dato": "2026-05-12", "ambito": "21021", "_raw_CD_SIGLAS": "SNUP", "_raw_DS_CLASIF_GEN": "Suelo No Urbanizable Protegido", "_raw_DS_CLASIF_DET": "Suelo No Urbanizable Especialmente Protegido por su interés agrario", "_raw_DS_DOCU": "NORMAS SUBSIDIARIAS", "_raw_DS_LEY": "CM Ley 4/1984, E RDL 1/1992", "_raw_FC_AC": "1993-03-17", "_raw_NM_AREA_M2": 198679.213543569, "_cam_code": "154" }, "geometry": { "type": "Polygon", "coordinates": [ [ [ -3.3969, 40.4043 ], [ -3.3916, 40.407 ], [ -3.3904, 40.4087 ], [ -3.3888, 40.4094 ], [ -3.3871, 40.4115 ], [ -3.3878, 40.411 ], [ -3.3902, 40.4103 ], [ -3.3917, 40.41 ], [ -3.3929, 40.4095 ], [ -3.3946, 40.4081 ], [ -3.395, 40.4079 ], [ -3.395, 40.4076 ], [ -3.3952, 40.4075 ], [ -3.3954, 40.4071 ], [ -3.3959, 40.4069 ], [ -3.396, 40.4066 ], [ -3.3963, 40.4063 ], [ -3.3976, 40.4057 ], [ -3.3983, 40.4057 ], [ -3.3969, 40.4043 ] ] ] } },
{ "type": "Feature", "properties": { "municipio": "Torres de la Alameda", "clasificacion": "no-urbanizable-protegido", "calificacion": "sin-asignar", "version": "vigente", "fuente": "SIT-CAM WFS — UsoDelSuelo:VPLA_V_CLASIFICACION (https://idem.comunidad.madrid/geosrvg/ows)", "fecha_dato": "2026-05-12", "ambito": "21021", "_raw_CD_SIGLAS": "SNUP", "_raw_DS_CLASIF_GEN": "Suelo No Urbanizable Protegido", "_raw_DS_CLASIF_DET": "Suelo No Urbanizable Especialmente Protegido por su interés agrario", "_raw_DS_DOCU": "NORMAS SUBSIDIARIAS", "_raw_DS_LEY": "CM Ley 4/1984, E RDL 1/1992", "_raw_FC_AC": "1993-03-17", "_raw_NM_AREA_M2": 2375536.7838840201, "_cam_code": "154" }, "geometry": { "type": "Polygon", "coordinates": [ [ [ -3.3282, 40.4143 ], [ -3.3336, 40.4147 ], [ -3.3347, 40.4145 ], [ -3.3352, 40.4142 ], [ -3.3358, 40.4141 ], [ -3.3373, 40.4135 ], [ -3.3396, 40.4135 ], [ -3.3436, 40.4131 ], [ -3.3443, 40.4128 ], [ -3.3453, 40.4126 ], [ -3.3461, 40.4121 ], [ -3.3465, 40.412 ], [ -3.3476, 40.4121 ], [ -3.349, 40.4115 ], [ -3.3491, 40.4116 ], [ -3.35, 40.4116 ], [ -3.3511, 40.4119 ], [ -3.3512, 40.4118 ], [ -3.3535, 40.4114 ], [ -3.3542, 40.4114 ], [ -3.356, 40.411 ], [ -3.357, 40.4111 ], [ -3.3583, 40.411 ], [ -3.357, 40.4097 ], [ -3.356, 40.4066 ], [ -3.3571, 40.4058 ], [ -3.3579, 40.4045 ], [ -3.358, 40.4042 ], [ -3.3579, 40.4034 ], [ -3.3561, 40.402 ], [ -3.3543, 40.4 ], [ -3.3544, 40.4 ], [ -3.3539, 40.3996 ], [ -3.3526, 40.3993 ], [ -3.3519, 40.399 ], [ -3.3506, 40.3988 ], [ -3.3497, 40.3984 ], [ -3.3493, 40.398 ], [ -3.3482, 40.3953 ], [ -3.3479, 40.395 ], [ -3.3478, 40.394 ], [ -3.3472, 40.3936 ], [ -3.3469, 40.3925 ], [ -3.3465, 40.3925 ], [ -3.3458, 40.3936 ], [ -3.3438, 40.3948 ], [ -3.3427, 40.3957 ], [ -3.3416, 40.396 ], [ -3.3383, 40.3958 ], [ -3.3372, 40.395 ], [ -3.3362, 40.394 ], [ -3.3358, 40.3939 ], [ -3.3356, 40.3941 ], [ -3.336, 40.3954 ], [ -3.3361, 40.3963 ], [ -3.3345, 40.3984 ], [ -3.3338, 40.399 ], [ -3.3339, 40.3993 ], [ -3.3365, 40.3987 ], [ -3.3372, 40.3987 ], [ -3.3388, 40.3998 ], [ -3.3393, 40.3998 ], [ -3.3402, 40.3996 ], [ -3.3409, 40.399 ], [ -3.3416, 40.3989 ], [ -3.3428, 40.3999 ], [ -3.3441, 40.3998 ], [ -3.3451, 40.3999 ], [ -3.3457, 40.4003 ], [ -3.3459, 40.4011 ], [ -3.3455, 40.4019 ], [ -3.3451, 40.4023 ], [ -3.3452, 40.4035 ], [ -3.3457, 40.4045 ], [ -3.347, 40.4057 ], [ -3.3468, 40.4063 ], [ -3.3462, 40.4066 ], [ -3.3436, 40.4065 ], [ -3.3431, 40.4067 ], [ -3.342, 40.4073 ], [ -3.3394, 40.4104 ], [ -3.3366, 40.4127 ], [ -3.3353, 40.4133 ], [ -3.3342, 40.4134 ], [ -3.3324, 40.414 ], [ -3.3311, 40.4135 ], [ -3.3303, 40.413 ], [ -3.3295, 40.412 ], [ -3.3284, 40.4092 ], [ -3.3269, 40.4085 ], [ -3.3281, 40.4129 ], [ -3.3282, 40.4143 ] ] ] } },
{ "type": "Feature", "properties": { "municipio": "Torres de la Alameda", "clasificacion": "no-urbanizable-protegido", "calificacion": "sin-asignar", "version": "vigente", "fuente": "SIT-CAM WFS — UsoDelSuelo:VPLA_V_CLASIFICACION (https://idem.comunidad.madrid/geosrvg/ows)", "fecha_dato": "2026-05-12", "ambito": "21021", "_raw_CD_SIGLAS": "SNUP", "_raw_DS_CLASIF_GEN": "Suelo No Urbanizable Protegido", "_raw_DS_CLASIF_DET": "Suelo No Urbanizable Especialmente Protegido por su interés agrario", "_raw_DS_DOCU": "NORMAS SUBSIDIARIAS", "_raw_DS_LEY": "CM Ley 4/1984, E RDL 1/1992", "_raw_FC_AC": "1993-03-17", "_raw_NM_AREA_M2": 254305.10134483999, "_cam_code": "154" }, "geometry": { "type": "Polygon", "coordinates": [ [ [ -3.376, 40.4147 ], [ -3.3761, 40.4149 ], [ -3.3772, 40.4153 ], [ -3.3782, 40.4161 ], [ -3.3785, 40.4162 ], [ -3.3798, 40.4145 ], [ -3.3789, 40.4141 ], [ -3.3781, 40.4141 ], [ -3.3755, 40.4137 ], [ -3.3753, 40.4143 ], [ -3.3751, 40.4143 ], [ -3.3749, 40.4144 ], [ -3.3748, 40.4143 ], [ -3.3747, 40.4141 ], [ -3.3742, 40.4137 ], [ -3.3718, 40.4121 ], [ -3.3667, 40.4096 ], [ -3.3663, 40.4093 ], [ -3.366, 40.4094 ], [ -3.3649, 40.4109 ], [ -3.3652, 40.4112 ], [ -3.3656, 40.4113 ], [ -3.3666, 40.4122 ], [ -3.3668, 40.4122 ], [ -3.368, 40.4129 ], [ -3.3683, 40.4134 ], [ -3.3692, 40.4138 ], [ -3.3701, 40.4141 ], [ -3.371, 40.414 ], [ -3.3714, 40.4142 ], [ -3.3716, 40.4145 ], [ -3.3725, 40.4148 ], [ -3.3738, 40.4147 ], [ -3.3738, 40.4145 ], [ -3.3741, 40.4143 ], [ -3.3748, 40.4143 ], [ -3.3751, 40.4145 ], [ -3.3754, 40.4146 ], [ -3.376, 40.4147 ] ] ] } },
{ "type": "Feature", "properties": { "municipio": "Torres de la Alameda", "clasificacion": "no-urbanizable-protegido", "calificacion": "sin-asignar", "version": "vigente", "fuente": "SIT-CAM WFS — UsoDelSuelo:VPLA_V_CLASIFICACION (https://idem.comunidad.madrid/geosrvg/ows)", "fecha_dato": "2026-05-12", "ambito": "21021", "_raw_CD_SIGLAS": "SNUP", "_raw_DS_CLASIF_GEN": "Suelo No Urbanizable Protegido", "_raw_DS_CLASIF_DET": "Suelo No Urbanizable Especialmente Protegido por su interés agrario", "_raw_DS_DOCU": "NORMAS SUBSIDIARIAS", "_raw_DS_LEY": "CM Ley 4/1984, E RDL 1/1992", "_raw_FC_AC": "1993-03-17", "_raw_NM_AREA_M2": 4380588.5736228498, "_cam_code": "154" }, "geometry": { "type": "Polygon", "coordinates": [ [ [ -3.3469, 40.4206 ], [ -3.3472, 40.4213 ], [ -3.3469, 40.4226 ], [ -3.346, 40.4232 ], [ -3.3486, 40.4238 ], [ -3.3515, 40.4251 ], [ -3.3576, 40.4288 ], [ -3.3594, 40.4295 ], [ -3.3608, 40.4305 ], [ -3.362, 40.4305 ], [ -3.3633, 40.4298 ], [ -3.3639, 40.4293 ], [ -3.3652, 40.4288 ], [ -3.366, 40.4281 ], [ -3.3679, 40.4271 ], [ -3.3699, 40.4252 ], [ -3.3711, 40.425 ], [ -3.3728, 40.4238 ], [ -3.3755, 40.4227 ], [ -3.3762, 40.4217 ], [ -3.3766, 40.4198 ], [ -3.377, 40.4189 ], [ -3.3776, 40.418 ], [ -3.3782, 40.4174 ], [ -3.3778, 40.417 ], [ -3.3783, 40.4165 ], [ -3.3779, 40.4164 ], [ -3.3778, 40.4161 ], [ -3.3771, 40.4155 ], [ -3.3757, 40.4149 ], [ -3.3751, 40.4149 ], [ -3.3746, 40.4146 ], [ -3.3742, 40.4146 ], [ -3.3742, 40.4148 ], [ -3.3739, 40.415 ], [ -3.3724, 40.4151 ], [ -3.3715, 40.4148 ], [ -3.371, 40.4143 ], [ -3.3699, 40.4143 ], [ -3.3684, 40.4138 ], [ -3.3677, 40.4131 ], [ -3.3666, 40.4124 ], [ -3.3663, 40.4124 ], [ -3.3655, 40.4116 ], [ -3.3641, 40.411 ], [ -3.3641, 40.4111 ], [ -3.3637, 40.4112 ], [ -3.3637, 40.4109 ], [ -3.3635, 40.411 ], [ -3.3636, 40.4113 ], [ -3.3598, 40.4112 ], [ -3.359, 40.4114 ], [ -3.356, 40.4113 ], [ -3.3551, 40.4114 ], [ -3.3541, 40.4117 ], [ -3.353, 40.4117 ], [ -3.3513, 40.4121 ], [ -3.35, 40.412 ], [ -3.3497, 40.4118 ], [ -3.3495, 40.4119 ], [ -3.3489, 40.4118 ], [ -3.3477, 40.4124 ], [ -3.3463, 40.4123 ], [ -3.3451, 40.413 ], [ -3.3445, 40.413 ], [ -3.344, 40.4133 ], [ -3.3432, 40.4135 ], [ -3.3376, 40.4138 ], [ -3.337, 40.4139 ], [ -3.3361, 40.4143 ], [ -3.3354, 40.4144 ], [ -3.3348, 40.4148 ], [ -3.3338, 40.415 ], [ -3.3298, 40.4146 ], [ -3.3282, 40.4146 ], [ -3.3284, 40.4166 ], [ -3.3293, 40.4175 ], [ -3.33, 40.4178 ], [ -3.3312, 40.4179 ], [ -3.3316, 40.4178 ], [ -3.3321, 40.4174 ], [ -3.3327, 40.4174 ], [ -3.3333, 40.4181 ], [ -3.3348, 40.4181 ], [ -3.3361, 40.4177 ], [ -3.3386, 40.4174 ], [ -3.3397, 40.4175 ], [ -3.3409, 40.4177 ], [ -3.3443, 40.4186 ], [ -3.3463, 40.4197 ], [ -3.3469, 40.4206 ] ], [ [ -3.3704, 40.4173 ], [ -3.3707, 40.4178 ], [ -3.3717, 40.4182 ], [ -3.3708, 40.4188 ], [ -3.3698, 40.4191 ], [ -3.3684, 40.4202 ], [ -3.3681, 40.4203 ], [ -3.3672, 40.4197 ], [ -3.3671, 40.4195 ], [ -3.3655, 40.4188 ], [ -3.3641, 40.4189 ], [ -3.3635, 40.4186 ], [ -3.3633, 40.4202 ], [ -3.3616, 40.4202 ], [ -3.3631, 40.4185 ], [ -3.3625, 40.418 ], [ -3.3623, 40.418 ], [ -3.3612, 40.4173 ], [ -3.3601, 40.4164 ], [ -3.359, 40.4167 ], [ -3.359, 40.4169 ], [ -3.3576, 40.4172 ], [ -3.3562, 40.418 ], [ -3.3556, 40.4181 ], [ -3.3552, 40.418 ], [ -3.3549, 40.4179 ], [ -3.3548, 40.4176 ], [ -3.3549, 40.4172 ], [ -3.3559, 40.4167 ], [ -3.3568, 40.4159 ], [ -3.3572, 40.4158 ], [ -3.3576, 40.4159 ], [ -3.3577, 40.4156 ], [ -3.3585, 40.4151 ], [ -3.3589, 40.4151 ], [ -3.3593, 40.4154 ], [ -3.3605, 40.4156 ], [ -3.3616, 40.415 ], [ -3.3622, 40.415 ], [ -3.3629, 40.414 ], [ -3.364, 40.4143 ], [ -3.3637, 40.417 ], [ -3.3634, 40.4181 ], [ -3.3639, 40.4181 ], [ -3.3639, 40.418 ], [ -3.3647, 40.4179 ], [ -3.3647, 40.4178 ], [ -3.3658, 40.4178 ], [ -3.3664, 40.4183 ], [ -3.3673, 40.4183 ], [ -3.3684, 40.4192 ], [ -3.3685, 40.4196 ], [ -3.3701, 40.4174 ], [ -3.3704, 40.4173 ] ] ] } },
{ "type": "Feature", "properties": { "municipio": "Torres de la Alameda", "clasificacion": "no-urbanizable-protegido", "calificacion": "sin-asignar", "version": "vigente", "fuente": "SIT-CAM WFS — UsoDelSuelo:VPLA_V_CLASIFICACION (https://idem.comunidad.madrid/geosrvg/ows)", "fecha_dato": "2026-05-12", "ambito": "21021", "_raw_CD_SIGLAS": "SNUP", "_raw_DS_CLASIF_GEN": "Suelo No Urbanizable Protegido", "_raw_DS_CLASIF_DET": "Suelo No Urbanizable Especialmente Protegido por su interés naturalístico", "_raw_DS_DOCU": "NORMAS SUBSIDIARIAS", "_raw_DS_LEY": "CM Ley 4/1984, E RDL 1/1992", "_raw_FC_AC": "1993-03-17", "_raw_NM_AREA_M2": 5610085.1606107801, "_cam_code": "154" }, "geometry": { "type": "Polygon", "coordinates": [ [ [ -3.3266, 40.4083 ], [ -3.3284, 40.4092 ], [ -3.3295, 40.412 ], [ -3.3303, 40.413 ], [ -3.3311, 40.4135 ], [ -3.3324, 40.414 ], [ -3.3342, 40.4134 ], [ -3.3353, 40.4133 ], [ -3.3366, 40.4127 ], [ -3.3394, 40.4104 ], [ -3.342, 40.4073 ], [ -3.3431, 40.4067 ], [ -3.3436, 40.4065 ], [ -3.3462, 40.4066 ], [ -3.3468, 40.4063 ], [ -3.347, 40.4057 ], [ -3.3457, 40.4045 ], [ -3.3452, 40.4035 ], [ -3.3451, 40.4023 ], [ -3.3455, 40.4019 ], [ -3.3459, 40.4011 ], [ -3.3457, 40.4003 ], [ -3.3451, 40.3999 ], [ -3.3441, 40.3998 ], [ -3.3428, 40.3999 ], [ -3.3416, 40.3989 ], [ -3.3409, 40.399 ], [ -3.3402, 40.3996 ], [ -3.3393, 40.3998 ], [ -3.3388, 40.3998 ], [ -3.3372, 40.3987 ], [ -3.3365, 40.3987 ], [ -3.3339, 40.3993 ], [ -3.3338, 40.399 ], [ -3.3345, 40.3984 ], [ -3.3361, 40.3963 ], [ -3.336, 40.3954 ], [ -3.3356, 40.3941 ], [ -3.3358, 40.3939 ], [ -3.3362, 40.394 ], [ -3.3372, 40.395 ], [ -3.3383, 40.3958 ], [ -3.3416, 40.396 ], [ -3.3427, 40.3957 ], [ -3.3444, 40.3944 ], [ -3.3451, 40.3941 ], [ -3.3458, 40.3936 ], [ -3.3465, 40.3925 ], [ -3.3469, 40.3925 ], [ -3.3472, 40.3936 ], [ -3.3478, 40.394 ], [ -3.3478, 40.3939 ], [ -3.3483, 40.3941 ], [ -3.3496, 40.3938 ], [ -3.3509, 40.3943 ], [ -3.3518, 40.3944 ], [ -3.3523, 40.3943 ], [ -3.3544, 40.3933 ], [ -3.3537, 40.3922 ], [ -3.3536, 40.3916 ], [ -3.3533, 40.3912 ], [ -3.353, 40.3911 ], [ -3.353, 40.3906 ], [ -3.3528, 40.3901 ], [ -3.3523, 40.3898 ], [ -3.3519, 40.3891 ], [ -3.3518, 40.3891 ], [ -3.352, 40.3883 ], [ -3.3514, 40.3885 ], [ -3.3506, 40.3885 ], [ -3.3499, 40.3882 ], [ -3.3498, 40.3879 ], [ -3.3484, 40.3873 ], [ -3.3486, 40.3866 ], [ -3.3482, 40.3852 ], [ -3.3477, 40.3848 ], [ -3.3472, 40.385 ], [ -3.347, 40.3855 ], [ -3.3467, 40.3858 ], [ -3.3461, 40.386 ], [ -3.3448, 40.3872 ], [ -3.3436, 40.3871 ], [ -3.3431, 40.3869 ], [ -3.3429, 40.3866 ], [ -3.3429, 40.3861 ], [ -3.3425, 40.3853 ], [ -3.3421, 40.3852 ], [ -3.342, 40.3871 ], [ -3.3422, 40.3878 ], [ -3.342, 40.3883 ], [ -3.3415, 40.3885 ], [ -3.3406, 40.3883 ], [ -3.3397, 40.3878 ], [ -3.3389, 40.387 ], [ -3.3383, 40.3871 ], [ -3.3379, 40.3873 ], [ -3.3373, 40.3893 ], [ -3.3364, 40.3895 ], [ -3.3345, 40.3885 ], [ -3.3338, 40.3879 ], [ -3.3327, 40.3873 ], [ -3.3325, 40.3869 ], [ -3.3325, 40.3863 ], [ -3.3335, 40.3851 ], [ -3.333, 40.3847 ], [ -3.332, 40.3853 ], [ -3.3315, 40.3854 ], [ -3.331, 40.3853 ], [ -3.3305, 40.3845 ], [ -3.3303, 40.3838 ], [ -3.3298, 40.3834 ], [ -3.3293, 40.3834 ], [ -3.3287, 40.3837 ], [ -3.3284, 40.3855 ], [ -3.327, 40.386 ], [ -3.3253, 40.3849 ], [ -3.3241, 40.3849 ], [ -3.3212, 40.3868 ], [ -3.3217, 40.3875 ], [ -3.3234, 40.3882 ], [ -3.325, 40.3897 ], [ -3.3226, 40.3952 ], [ -3.3203, 40.3957 ], [ -3.3157, 40.399 ], [ -3.3122, 40.4006 ], [ -3.317, 40.404 ], [ -3.3176, 40.4042 ], [ -3.319, 40.4042 ], [ -3.3199, 40.4044 ], [ -3.3227, 40.4044 ], [ -3.3228, 40.4043 ], [ -3.324, 40.406 ], [ -3.325, 40.407 ], [ -3.3259, 40.4075 ], [ -3.3261, 40.4075 ], [ -3.3266, 40.4083 ] ] ] } },
{ "type": "Feature", "properties": { "municipio": "Torres de la Alameda", "clasificacion": "no-urbanizable-protegido", "calificacion": "sin-asignar", "version": "vigente", "fuente": "SIT-CAM WFS — UsoDelSuelo:VPLA_V_CLASIFICACION (https://idem.comunidad.madrid/geosrvg/ows)", "fecha_dato": "2026-05-12", "ambito": "21021", "_raw_CD_SIGLAS": "SNUP", "_raw_DS_CLASIF_GEN": "Suelo No Urbanizable Protegido", "_raw_DS_CLASIF_DET": "Suelo No Urbanizable Especialmente Protegido por su interés naturalístico", "_raw_DS_DOCU": "NORMAS SUBSIDIARIAS", "_raw_DS_LEY": "CM Ley 4/1984, E RDL 1/1992", "_raw_FC_AC": "1993-03-17", "_raw_NM_AREA_M2": 632756.18378322502, "_cam_code": "154" }, "geometry": { "type": "Polygon", "coordinates": [ [ [ -3.3302, 40.42 ], [ -3.3323, 40.4217 ], [ -3.3324, 40.4226 ], [ -3.3318, 40.4234 ], [ -3.3315, 40.4236 ], [ -3.3323, 40.4231 ], [ -3.3351, 40.4222 ], [ -3.3364, 40.4216 ], [ -3.3386, 40.4214 ], [ -3.3397, 40.421 ], [ -3.3431, 40.4223 ], [ -3.346, 40.4232 ], [ -3.3469, 40.4226 ], [ -3.3472, 40.4215 ], [ -3.347, 40.4208 ], [ -3.3463, 40.4197 ], [ -3.3457, 40.4193 ], [ -3.3443, 40.4186 ], [ -3.3409, 40.4177 ], [ -3.3386, 40.4174 ], [ -3.3361, 40.4177 ], [ -3.3348, 40.4181 ], [ -3.3333, 40.4181 ], [ -3.3327, 40.4174 ], [ -3.3321, 40.4174 ], [ -3.3316, 40.4178 ], [ -3.3305, 40.4179 ], [ -3.3293, 40.4175 ], [ -3.3284, 40.4166 ], [ -3.3286, 40.4172 ], [ -3.3302, 40.42 ] ] ] } },
{ "type": "Feature", "properties": { "municipio": "Torres de la Alameda", "clasificacion": "no-urbanizable-protegido", "calificacion": "sin-asignar", "version": "vigente", "fuente": "SIT-CAM WFS — UsoDelSuelo:VPLA_V_CLASIFICACION (https://idem.comunidad.madrid/geosrvg/ows)", "fecha_dato": "2026-05-12", "ambito": "21021", "_raw_CD_SIGLAS": "SNUP", "_raw_DS_CLASIF_GEN": "Suelo No Urbanizable Protegido", "_raw_DS_CLASIF_DET": "Suelo No Urbanizable Especialmente Protegido por su interés naturalístico", "_raw_DS_DOCU": "NORMAS SUBSIDIARIAS", "_raw_DS_LEY": "CM Ley 4/1984, E RDL 1/1992", "_raw_FC_AC": "1993-03-17", "_raw_NM_AREA_M2": 1182956.1687805401, "_cam_code": "154" }, "geometry": { "type": "Polygon", "coordinates": [ [ [ -3.4087, 40.4535 ], [ -3.414, 40.4563 ], [ -3.4147, 40.4546 ], [ -3.4158, 40.4525 ], [ -3.4159, 40.4518 ], [ -3.4158, 40.4511 ], [ -3.4145, 40.4498 ], [ -3.4141, 40.4496 ], [ -3.4137, 40.4484 ], [ -3.4126, 40.4479 ], [ -3.4116, 40.4477 ], [ -3.41, 40.4476 ], [ -3.4091, 40.4477 ], [ -3.4082, 40.448 ], [ -3.4069, 40.448 ], [ -3.4038, 40.4476 ], [ -3.4031, 40.4473 ], [ -3.4021, 40.4459 ], [ -3.4021, 40.4455 ], [ -3.4027, 40.4444 ], [ -3.4026, 40.4435 ], [ -3.4021, 40.4431 ], [ -3.4005, 40.441 ], [ -3.3999, 40.4406 ], [ -3.3993, 40.4404 ], [ -3.3983, 40.4407 ], [ -3.398, 40.4419 ], [ -3.3964, 40.4433 ], [ -3.3944, 40.4441 ], [ -3.3937, 40.4448 ], [ -3.3904, 40.446 ], [ -3.3902, 40.4466 ], [ -3.4042, 40.4502 ], [ -3.4047, 40.4507 ], [ -3.4062, 40.4507 ], [ -3.4069, 40.4516 ], [ -3.4073, 40.4524 ], [ -3.4075, 40.4526 ], [ -3.4084, 40.4529 ], [ -3.4086, 40.4531 ], [ -3.4087, 40.4535 ] ] ] } },
{ "type": "Feature", "properties": { "municipio": "Torres de la Alameda", "clasificacion": "urbano-consolidado", "calificacion": "sin-asignar", "version": "vigente", "fuente": "SIT-CAM WFS — UsoDelSuelo:VPLA_V_CLASIFICACION (https://idem.comunidad.madrid/geosrvg/ows)", "fecha_dato": "2026-05-12", "ambito": "21021", "_raw_CD_SIGLAS": "SU", "_raw_DS_CLASIF_GEN": "Suelo Urbano", "_raw_DS_CLASIF_DET": "Suelo Urbano", "_raw_DS_DOCU": "NORMAS SUBSIDIARIAS", "_raw_DS_LEY": "CM Ley 4/1984, E RDL 1/1992", "_raw_FC_AC": "1993-03-17", "_raw_NM_AREA_M2": 63618.8193749489, "_cam_code": "154" }, "geometry": { "type": "Polygon", "coordinates": [ [ [ -3.3763, 40.43 ], [ -3.3761, 40.4311 ], [ -3.3765, 40.4313 ], [ -3.3775, 40.4323 ], [ -3.3791, 40.4311 ], [ -3.3791, 40.4306 ], [ -3.3789, 40.4302 ], [ -3.3786, 40.4301 ], [ -3.3786, 40.43 ], [ -3.3785, 40.4301 ], [ -3.3782, 40.43 ], [ -3.3779, 40.429 ], [ -3.3773, 40.4286 ], [ -3.3759, 40.4295 ], [ -3.3763, 40.43 ] ] ] } },
{ "type": "Feature", "properties": { "municipio": "Torres de la Alameda", "clasificacion": "urbano-consolidado", "calificacion": "sin-asignar", "version": "vigente", "fuente": "SIT-CAM WFS — UsoDelSuelo:VPLA_V_CLASIFICACION (https://idem.comunidad.madrid/geosrvg/ows)", "fecha_dato": "2026-05-12", "ambito": "21021", "_raw_CD_SIGLAS": "SU", "_raw_DS_CLASIF_GEN": "Suelo Urbano", "_raw_DS_CLASIF_DET": "Suelo Urbano", "_raw_DS_DOCU": "NORMAS SUBSIDIARIAS", "_raw_DS_LEY": "CM Ley 4/1984, E RDL 1/1992", "_raw_FC_AC": "1993-03-17", "_raw_NM_AREA_M2": 1683182.92361678, "_cam_code": "154" }, "geometry": { "type": "Polygon", "coordinates": [ [ [ -3.3744, 40.4139 ], [ -3.3749, 40.4144 ], [ -3.3753, 40.4143 ], [ -3.3755, 40.4137 ], [ -3.3777, 40.414 ], [ -3.3777, 40.4137 ], [ -3.3769, 40.4134 ], [ -3.3763, 40.4099 ], [ -3.3762, 40.4084 ], [ -3.3761, 40.4083 ], [ -3.3746, 40.4081 ], [ -3.3694, 40.407 ], [ -3.3692, 40.4064 ], [ -3.3686, 40.4062 ], [ -3.3683, 40.4046 ], [ -3.3684, 40.4045 ], [ -3.3683, 40.4045 ], [ -3.3681, 40.403 ], [ -3.368, 40.403 ], [ -3.3681, 40.4029 ], [ -3.368, 40.4028 ], [ -3.3679, 40.4029 ], [ -3.366, 40.4031 ], [ -3.3658, 40.4012 ], [ -3.3644, 40.4013 ], [ -3.3644, 40.4015 ], [ -3.364, 40.4016 ], [ -3.3628, 40.4017 ], [ -3.3624, 40.3991 ], [ -3.3629, 40.3987 ], [ -3.3637, 40.3977 ], [ -3.3621, 40.3971 ], [ -3.362, 40.3968 ], [ -3.3622, 40.3962 ], [ -3.3621, 40.3961 ], [ -3.3594, 40.3952 ], [ -3.3556, 40.3957 ], [ -3.3571, 40.3986 ], [ -3.3564, 40.399 ], [ -3.3562, 40.399 ], [ -3.3559, 40.3992 ], [ -3.3559, 40.3994 ], [ -3.3543, 40.4 ], [ -3.3561, 40.402 ], [ -3.3579, 40.4034 ], [ -3.358, 40.4042 ], [ -3.3579, 40.4045 ], [ -3.3571, 40.4058 ], [ -3.356, 40.4066 ], [ -3.357, 40.4097 ], [ -3.3584, 40.4111 ], [ -3.3635, 40.411 ], [ -3.3637, 40.4109 ], [ -3.3636, 40.4108 ], [ -3.3636, 40.4102 ], [ -3.364, 40.4092 ], [ -3.3653, 40.4094 ], [ -3.3663, 40.4093 ], [ -3.3667, 40.4096 ], [ -3.3718, 40.4121 ], [ -3.3744, 40.4139 ] ] ] } },
{ "type": "Feature", "properties": { "municipio": "Torres de la Alameda", "clasificacion": "urbano-consolidado", "calificacion": "sin-asignar", "version": "vigente", "fuente": "SIT-CAM WFS — UsoDelSuelo:VPLA_V_CLASIFICACION (https://idem.comunidad.madrid/geosrvg/ows)", "fecha_dato": "2026-05-12", "ambito": "21021", "_raw_CD_SIGLAS": "SU", "_raw_DS_CLASIF_GEN": "Suelo Urbano", "_raw_DS_CLASIF_DET": "Suelo Urbano", "_raw_DS_DOCU": "NORMAS SUBSIDIARIAS", "_raw_DS_LEY": "CM Ley 4/1984, E RDL 1/1992", "_raw_FC_AC": "1993-03-17", "_raw_NM_AREA_M2": 24876.118169514801, "_cam_code": "154" }, "geometry": { "type": "Polygon", "coordinates": [ [ [ -3.3649, 40.4109 ], [ -3.366, 40.4094 ], [ -3.364, 40.4092 ], [ -3.3636, 40.4102 ], [ -3.3636, 40.4108 ], [ -3.3637, 40.4109 ], [ -3.3641, 40.4107 ], [ -3.3649, 40.4109 ] ] ] } },
{ "type": "Feature", "properties": { "municipio": "Torres de la Alameda", "clasificacion": "urbanizable-no-sectorizado", "calificacion": "sin-asignar", "version": "vigente", "fuente": "SIT-CAM WFS — UsoDelSuelo:VPLA_V_CLASIFICACION (https://idem.comunidad.madrid/geosrvg/ows)", "fecha_dato": "2026-05-12", "ambito": "21021", "_raw_CD_SIGLAS": "SUBNS", "_raw_DS_CLASIF_GEN": "Suelo No Urbanizable Común", "_raw_DS_CLASIF_DET": "Suelo No Urbanizable Común", "_raw_DS_DOCU": "NORMAS SUBSIDIARIAS", "_raw_DS_LEY": "CM Ley 4/1984, E RDL 1/1992", "_raw_FC_AC": "1993-03-17", "_raw_NM_AREA_M2": 360262.18618737097, "_cam_code": "154" }, "geometry": { "type": "Polygon", "coordinates": [ [ [ -3.3519, 40.399 ], [ -3.3526, 40.3993 ], [ -3.3539, 40.3996 ], [ -3.3544, 40.4 ], [ -3.3559, 40.3994 ], [ -3.3559, 40.3992 ], [ -3.3562, 40.399 ], [ -3.3564, 40.399 ], [ -3.3571, 40.3986 ], [ -3.3544, 40.3933 ], [ -3.3523, 40.3943 ], [ -3.3518, 40.3944 ], [ -3.3509, 40.3943 ], [ -3.3496, 40.3938 ], [ -3.3483, 40.3941 ], [ -3.3478, 40.3939 ], [ -3.3479, 40.395 ], [ -3.3482, 40.3953 ], [ -3.3493, 40.398 ], [ -3.3497, 40.3984 ], [ -3.3506, 40.3988 ], [ -3.3519, 40.399 ] ] ] } },
{ "type": "Feature", "properties": { "municipio": "Torres de la Alameda", "clasificacion": "urbanizable-no-sectorizado", "calificacion": "sin-asignar", "version": "vigente", "fuente": "SIT-CAM WFS — UsoDelSuelo:VPLA_V_CLASIFICACION (https://idem.comunidad.madrid/geosrvg/ows)", "fecha_dato": "2026-05-12", "ambito": "21021", "_raw_CD_SIGLAS": "SUBNS", "_raw_DS_CLASIF_GEN": "Suelo No Urbanizable Común", "_raw_DS_CLASIF_DET": "Suelo No Urbanizable Común", "_raw_DS_DOCU": "NORMAS SUBSIDIARIAS", "_raw_DS_LEY": "CM Ley 4/1984, E RDL 1/1992", "_raw_FC_AC": "1993-03-17", "_raw_NM_AREA_M2": 5032760.5069131302, "_cam_code": "154" }, "geometry": { "type": "Polygon", "coordinates": [ [ [ -3.3854, 40.4131 ], [ -3.3857, 40.4132 ], [ -3.3861, 40.4128 ], [ -3.3862, 40.4125 ], [ -3.3868, 40.412 ], [ -3.3888, 40.4094 ], [ -3.3904, 40.4087 ], [ -3.3916, 40.407 ], [ -3.3969, 40.4043 ], [ -3.3921, 40.3997 ], [ -3.3891, 40.3954 ], [ -3.3846, 40.3899 ], [ -3.3807, 40.3871 ], [ -3.3789, 40.3835 ], [ -3.3765, 40.381 ], [ -3.3762, 40.3803 ], [ -3.3756, 40.3795 ], [ -3.3748, 40.3795 ], [ -3.3735, 40.3789 ], [ -3.3727, 40.3789 ], [ -3.3723, 40.3786 ], [ -3.3714, 40.3762 ], [ -3.371, 40.3759 ], [ -3.3704, 40.3758 ], [ -3.3699, 40.3762 ], [ -3.3698, 40.3768 ], [ -3.37, 40.3784 ], [ -3.3703, 40.3792 ], [ -3.3708, 40.3796 ], [ -3.3718, 40.3799 ], [ -3.3731, 40.3811 ], [ -3.3742, 40.3816 ], [ -3.375, 40.3823 ], [ -3.3755, 40.3831 ], [ -3.376, 40.3834 ], [ -3.3765, 40.384 ], [ -3.3764, 40.3848 ], [ -3.3759, 40.3854 ], [ -3.3752, 40.3855 ], [ -3.3745, 40.3858 ], [ -3.3721, 40.3857 ], [ -3.3705, 40.3862 ], [ -3.3699, 40.3867 ], [ -3.368, 40.3878 ], [ -3.3684, 40.3888 ], [ -3.368, 40.3893 ], [ -3.3649, 40.3896 ], [ -3.3641, 40.3894 ], [ -3.3639, 40.3904 ], [ -3.3627, 40.3921 ], [ -3.3626, 40.3934 ], [ -3.3619, 40.3939 ], [ -3.3603, 40.3946 ], [ -3.3587, 40.395 ], [ -3.3589, 40.3953 ], [ -3.3594, 40.3952 ], [ -3.3624, 40.3962 ], [ -3.3708, 40.4012 ], [ -3.3714, 40.4017 ], [ -3.3719, 40.4024 ], [ -3.3726, 40.4077 ], [ -3.3781, 40.4087 ], [ -3.3845, 40.4094 ], [ -3.385, 40.4096 ], [ -3.386, 40.4095 ], [ -3.3883, 40.4088 ], [ -3.3885, 40.4091 ], [ -3.3883, 40.4095 ], [ -3.3873, 40.4105 ], [ -3.3854, 40.4131 ] ] ] } },
{ "type": "Feature", "properties": { "municipio": "Torres de la Alameda", "clasificacion": "urbanizable-no-sectorizado", "calificacion": "sin-asignar", "version": "vigente", "fuente": "SIT-CAM WFS — UsoDelSuelo:VPLA_V_CLASIFICACION (https://idem.comunidad.madrid/geosrvg/ows)", "fecha_dato": "2026-05-12", "ambito": "21021", "_raw_CD_SIGLAS": "SUBNS", "_raw_DS_CLASIF_GEN": "Suelo No Urbanizable Común", "_raw_DS_CLASIF_DET": "Suelo No Urbanizable Común", "_raw_DS_DOCU": "NORMAS SUBSIDIARIAS", "_raw_DS_LEY": "CM Ley 4/1984, E RDL 1/1992", "_raw_FC_AC": "1993-03-17", "_raw_NM_AREA_M2": 260105.25201232999, "_cam_code": "154" }, "geometry": { "type": "Polygon", "coordinates": [ [ [ -3.3672, 40.4197 ], [ -3.3681, 40.4203 ], [ -3.3684, 40.4202 ], [ -3.3698, 40.4191 ], [ -3.3708, 40.4188 ], [ -3.3717, 40.4182 ], [ -3.3707, 40.4178 ], [ -3.3704, 40.4173 ], [ -3.3701, 40.4174 ], [ -3.3685, 40.4196 ], [ -3.3684, 40.4192 ], [ -3.3673, 40.4183 ], [ -3.3664, 40.4183 ], [ -3.3658, 40.4178 ], [ -3.3647, 40.4178 ], [ -3.3647, 40.4179 ], [ -3.3639, 40.418 ], [ -3.3639, 40.4181 ], [ -3.3634, 40.4181 ], [ -3.3637, 40.417 ], [ -3.364, 40.4143 ], [ -3.3629, 40.414 ], [ -3.3622, 40.415 ], [ -3.3616, 40.415 ], [ -3.3605, 40.4156 ], [ -3.3593, 40.4154 ], [ -3.3589, 40.4151 ], [ -3.3585, 40.4151 ], [ -3.3577, 40.4156 ], [ -3.3576, 40.4159 ], [ -3.3572, 40.4158 ], [ -3.3568, 40.4159 ], [ -3.3559, 40.4167 ], [ -3.3549, 40.4172 ], [ -3.3548, 40.4176 ], [ -3.3549, 40.4179 ], [ -3.3552, 40.418 ], [ -3.3556, 40.4181 ], [ -3.3562, 40.418 ], [ -3.3576, 40.4172 ], [ -3.359, 40.4169 ], [ -3.359, 40.4167 ], [ -3.3601, 40.4164 ], [ -3.3612, 40.4173 ], [ -3.3623, 40.418 ], [ -3.3625, 40.418 ], [ -3.3631, 40.4185 ], [ -3.3616, 40.4202 ], [ -3.3633, 40.4202 ], [ -3.3635, 40.4186 ], [ -3.3641, 40.4189 ], [ -3.3655, 40.4188 ], [ -3.3671, 40.4195 ], [ -3.3672, 40.4197 ] ] ] } },
{ "type": "Feature", "properties": { "municipio": "Torres de la Alameda", "clasificacion": "urbanizable-no-sectorizado", "calificacion": "sin-asignar", "version": "vigente", "fuente": "SIT-CAM WFS — UsoDelSuelo:VPLA_V_CLASIFICACION (https://idem.comunidad.madrid/geosrvg/ows)", "fecha_dato": "2026-05-12", "ambito": "21021", "_raw_CD_SIGLAS": "SUBNS", "_raw_DS_CLASIF_GEN": "Suelo No Urbanizable Común", "_raw_DS_CLASIF_DET": "Suelo No Urbanizable Común", "_raw_DS_DOCU": "NORMAS SUBSIDIARIAS", "_raw_DS_LEY": "CM Ley 4/1984, E RDL 1/1992", "_raw_FC_AC": "1993-03-17", "_raw_NM_AREA_M2": 10126771.7525358, "_cam_code": "154" }, "geometry": { "type": "Polygon", "coordinates": [ [ [ -3.4116, 40.4477 ], [ -3.4126, 40.4479 ], [ -3.4137, 40.4484 ], [ -3.4154, 40.4486 ], [ -3.4168, 40.4491 ], [ -3.4188, 40.4496 ], [ -3.4186, 40.4469 ], [ -3.4195, 40.446 ], [ -3.4208, 40.4462 ], [ -3.4229, 40.4424 ], [ -3.4211, 40.4405 ], [ -3.4173, 40.4372 ], [ -3.4141, 40.4369 ], [ -3.4129, 40.4358 ], [ -3.4136, 40.4355 ], [ -3.4142, 40.4333 ], [ -3.4145, 40.4314 ], [ -3.4131, 40.4288 ], [ -3.4106, 40.4267 ], [ -3.4119, 40.4258 ], [ -3.409, 40.4234 ], [ -3.4071, 40.4213 ], [ -3.4053, 40.4172 ], [ -3.403, 40.4147 ], [ -3.4023, 40.4126 ], [ -3.4017, 40.4132 ], [ -3.4014, 40.4139 ], [ -3.4005, 40.4143 ], [ -3.3987, 40.4147 ], [ -3.3982, 40.415 ], [ -3.3972, 40.4166 ], [ -3.3961, 40.4166 ], [ -3.3941, 40.4178 ], [ -3.3928, 40.4184 ], [ -3.3905, 40.419 ], [ -3.3892, 40.4192 ], [ -3.3871, 40.4199 ], [ -3.3852, 40.4201 ], [ -3.3839, 40.4205 ], [ -3.3832, 40.4215 ], [ -3.3825, 40.4221 ], [ -3.3815, 40.4227 ], [ -3.3803, 40.4229 ], [ -3.3792, 40.4227 ], [ -3.3784, 40.4223 ], [ -3.3762, 40.4246 ], [ -3.3756, 40.4246 ], [ -3.3745, 40.4276 ], [ -3.3735, 40.4279 ], [ -3.3722, 40.4289 ], [ -3.3714, 40.4298 ], [ -3.3714, 40.4303 ], [ -3.3712, 40.4307 ], [ -3.3696, 40.4306 ], [ -3.3677, 40.4312 ], [ -3.3679, 40.4315 ], [ -3.3675, 40.4316 ], [ -3.3674, 40.4313 ], [ -3.3665, 40.4312 ], [ -3.3642, 40.4324 ], [ -3.367, 40.4344 ], [ -3.3692, 40.4353 ], [ -3.3712, 40.4365 ], [ -3.3723, 40.437 ], [ -3.3757, 40.4392 ], [ -3.3778, 40.4402 ], [ -3.3848, 40.444 ], [ -3.3887, 40.4464 ], [ -3.3893, 40.4463 ], [ -3.3902, 40.4466 ], [ -3.3904, 40.446 ], [ -3.3937, 40.4448 ], [ -3.3944, 40.4441 ], [ -3.3964, 40.4433 ], [ -3.398, 40.4419 ], [ -3.3983, 40.4407 ], [ -3.3993, 40.4404 ], [ -3.3999, 40.4406 ], [ -3.4005, 40.441 ], [ -3.4021, 40.4431 ], [ -3.4026, 40.4435 ], [ -3.4027, 40.4444 ], [ -3.4021, 40.4455 ], [ -3.4021, 40.4459 ], [ -3.4031, 40.4473 ], [ -3.4038, 40.4476 ], [ -3.4069, 40.448 ], [ -3.4082, 40.448 ], [ -3.4091, 40.4477 ], [ -3.41, 40.4476 ], [ -3.4116, 40.4477 ] ], [ [ -3.3786, 40.4301 ], [ -3.3789, 40.4302 ], [ -3.3791, 40.4306 ], [ -3.3791, 40.4311 ], [ -3.3775, 40.4323 ], [ -3.3765, 40.4313 ], [ -3.3761, 40.4311 ], [ -3.3763, 40.4305 ], [ -3.3763, 40.43 ], [ -3.3759, 40.4295 ], [ -3.3773, 40.4286 ], [ -3.3779, 40.429 ], [ -3.3782, 40.43 ], [ -3.3785, 40.4301 ], [ -3.3786, 40.43 ], [ -3.3786, 40.4301 ] ] ] } },
{ "type": "Feature", "properties": { "municipio": "Torres de la Alameda", "clasificacion": "urbanizable-no-sectorizado", "calificacion": "sin-asignar", "version": "vigente", "fuente": "SIT-CAM WFS — UsoDelSuelo:VPLA_V_CLASIFICACION (https://idem.comunidad.madrid/geosrvg/ows)", "fecha_dato": "2026-05-12", "ambito": "21021", "_raw_CD_SIGLAS": "SUBNS", "_raw_DS_CLASIF_GEN": "Suelo No Urbanizable Común", "_raw_DS_CLASIF_DET": "Suelo No Urbanizable Común", "_raw_DS_DOCU": "NORMAS SUBSIDIARIAS", "_raw_DS_LEY": "CM Ley 4/1984, E RDL 1/1992", "_raw_FC_AC": "1993-03-17", "_raw_NM_AREA_M2": 4419063.6510089096, "_cam_code": "154" }, "geometry": { "type": "Polygon", "coordinates": [ [ [ -3.3327, 40.3873 ], [ -3.3338, 40.3879 ], [ -3.3345, 40.3885 ], [ -3.3364, 40.3895 ], [ -3.3373, 40.3893 ], [ -3.3379, 40.3873 ], [ -3.3383, 40.3871 ], [ -3.3389, 40.387 ], [ -3.3397, 40.3878 ], [ -3.3406, 40.3883 ], [ -3.3415, 40.3885 ], [ -3.342, 40.3883 ], [ -3.3422, 40.3878 ], [ -3.342, 40.3871 ], [ -3.3421, 40.3852 ], [ -3.3425, 40.3853 ], [ -3.3429, 40.3861 ], [ -3.3429, 40.3866 ], [ -3.3431, 40.3869 ], [ -3.3436, 40.3871 ], [ -3.3448, 40.3872 ], [ -3.3461, 40.386 ], [ -3.3467, 40.3858 ], [ -3.347, 40.3855 ], [ -3.3472, 40.385 ], [ -3.3477, 40.3848 ], [ -3.3482, 40.3852 ], [ -3.3486, 40.3866 ], [ -3.3484, 40.3873 ], [ -3.3498, 40.3879 ], [ -3.3499, 40.3882 ], [ -3.3506, 40.3885 ], [ -3.3514, 40.3885 ], [ -3.352, 40.3883 ], [ -3.3535, 40.3872 ], [ -3.3537, 40.3872 ], [ -3.354, 40.3876 ], [ -3.3542, 40.3876 ], [ -3.3553, 40.3882 ], [ -3.3559, 40.3877 ], [ -3.355, 40.3858 ], [ -3.355, 40.3856 ], [ -3.3555, 40.3852 ], [ -3.3559, 40.3851 ], [ -3.3573, 40.3859 ], [ -3.3581, 40.386 ], [ -3.3595, 40.3857 ], [ -3.3601, 40.3857 ], [ -3.3608, 40.386 ], [ -3.3613, 40.386 ], [ -3.3617, 40.3857 ], [ -3.362, 40.3852 ], [ -3.3616, 40.3847 ], [ -3.3611, 40.3844 ], [ -3.3609, 40.3838 ], [ -3.361, 40.3834 ], [ -3.3615, 40.3831 ], [ -3.3623, 40.3821 ], [ -3.3627, 40.3812 ], [ -3.3626, 40.3807 ], [ -3.3623, 40.3803 ], [ -3.3612, 40.3799 ], [ -3.3607, 40.3793 ], [ -3.361, 40.3788 ], [ -3.3618, 40.3781 ], [ -3.3618, 40.3777 ], [ -3.3616, 40.3774 ], [ -3.3612, 40.3772 ], [ -3.3601, 40.3772 ], [ -3.3596, 40.3769 ], [ -3.3593, 40.3764 ], [ -3.3594, 40.3755 ], [ -3.3591, 40.3753 ], [ -3.3586, 40.3752 ], [ -3.3583, 40.3753 ], [ -3.3576, 40.376 ], [ -3.3562, 40.3765 ], [ -3.3553, 40.3765 ], [ -3.3549, 40.3763 ], [ -3.3544, 40.3752 ], [ -3.3546, 40.3746 ], [ -3.3546, 40.3741 ], [ -3.3542, 40.3733 ], [ -3.3542, 40.3728 ], [ -3.3543, 40.3726 ], [ -3.3559, 40.3721 ], [ -3.3564, 40.3718 ], [ -3.357, 40.3712 ], [ -3.3576, 40.3701 ], [ -3.3572, 40.3691 ], [ -3.3553, 40.368 ], [ -3.3538, 40.3679 ], [ -3.3526, 40.3665 ], [ -3.3504, 40.3682 ], [ -3.3476, 40.3696 ], [ -3.3444, 40.3724 ], [ -3.3414, 40.3748 ], [ -3.3371, 40.3771 ], [ -3.3335, 40.3778 ], [ -3.3321, 40.3777 ], [ -3.3269, 40.3789 ], [ -3.3239, 40.3811 ], [ -3.3196, 40.384 ], [ -3.3212, 40.3868 ], [ -3.3241, 40.3849 ], [ -3.3253, 40.3849 ], [ -3.327, 40.386 ], [ -3.3284, 40.3855 ], [ -3.3287, 40.3837 ], [ -3.3293, 40.3834 ], [ -3.3298, 40.3834 ], [ -3.3303, 40.3838 ], [ -3.3305, 40.3845 ], [ -3.331, 40.3853 ], [ -3.3315, 40.3854 ], [ -3.332, 40.3853 ], [ -3.333, 40.3847 ], [ -3.3335, 40.3851 ], [ -3.3325, 40.3863 ], [ -3.3325, 40.3869 ], [ -3.3327, 40.3873 ] ] ] } },
{ "type": "Feature", "properties": { "municipio": "Torres de la Alameda", "clasificacion": "urbanizable-sectorizado", "calificacion": "sin-asignar", "version": "vigente", "fuente": "SIT-CAM WFS — UsoDelSuelo:VPLA_V_CLASIFICACION (https://idem.comunidad.madrid/geosrvg/ows)", "fecha_dato": "2026-05-12", "ambito": "21021", "_raw_CD_SIGLAS": "SUBS", "_raw_DS_CLASIF_GEN": "Suelo Apto Para Urbanizar", "_raw_DS_CLASIF_DET": "Suelo Urbanizable (apto para urbanizar)", "_raw_DS_DOCU": "NORMAS SUBSIDIARIAS", "_raw_DS_LEY": "CM Ley 4/1984, E RDL 1/1992", "_raw_FC_AC": "1993-03-17", "_raw_NM_AREA_M2": 655383.40272875899, "_cam_code": "154" }, "geometry": { "type": "Polygon", "coordinates": [ [ [ -3.3763, 40.4098 ], [ -3.3769, 40.4134 ], [ -3.3777, 40.4137 ], [ -3.3777, 40.414 ], [ -3.3789, 40.4141 ], [ -3.3798, 40.4145 ], [ -3.3778, 40.417 ], [ -3.3805, 40.4196 ], [ -3.3869, 40.411 ], [ -3.3883, 40.4095 ], [ -3.3885, 40.4091 ], [ -3.3883, 40.4088 ], [ -3.3881, 40.4088 ], [ -3.386, 40.4095 ], [ -3.385, 40.4096 ], [ -3.3845, 40.4094 ], [ -3.3781, 40.4087 ], [ -3.3761, 40.4083 ], [ -3.3762, 40.4084 ], [ -3.3763, 40.4098 ] ] ] } },
{ "type": "Feature", "properties": { "municipio": "Torres de la Alameda", "clasificacion": "urbanizable-sectorizado", "calificacion": "sin-asignar", "version": "vigente", "fuente": "SIT-CAM WFS — UsoDelSuelo:VPLA_V_CLASIFICACION (https://idem.comunidad.madrid/geosrvg/ows)", "fecha_dato": "2026-05-12", "ambito": "21021", "_raw_CD_SIGLAS": "SUBS", "_raw_DS_CLASIF_GEN": "Suelo Apto Para Urbanizar", "_raw_DS_CLASIF_DET": "Suelo Urbanizable (apto para urbanizar)", "_raw_DS_DOCU": "NORMAS SUBSIDIARIAS", "_raw_DS_LEY": "CM Ley 4/1984, E RDL 1/1992", "_raw_FC_AC": "1993-03-17", "_raw_NM_AREA_M2": 440353.31032623898, "_cam_code": "154" }, "geometry": { "type": "Polygon", "coordinates": [ [ [ -3.368, 40.4028 ], [ -3.3686, 40.4062 ], [ -3.3692, 40.4064 ], [ -3.3694, 40.407 ], [ -3.3726, 40.4077 ], [ -3.3719, 40.4024 ], [ -3.3714, 40.4017 ], [ -3.3708, 40.4012 ], [ -3.3624, 40.3962 ], [ -3.3622, 40.3962 ], [ -3.362, 40.3968 ], [ -3.3621, 40.3971 ], [ -3.3637, 40.3977 ], [ -3.3629, 40.3987 ], [ -3.3624, 40.3991 ], [ -3.3628, 40.4017 ], [ -3.364, 40.4016 ], [ -3.3644, 40.4015 ], [ -3.3644, 40.4013 ], [ -3.3658, 40.4012 ], [ -3.366, 40.4031 ], [ -3.3679, 40.4029 ], [ -3.368, 40.4028 ] ] ] } }
]
}
