{
"type": "FeatureCollection",
"name": "vigente.full",
"features": [
{ "type": "Feature", "properties": { "municipio": "Fresno de Torote", "clasificacion": "no-urbanizable-protegido", "calificacion": "sin-asignar", "version": "vigente", "fuente": "SIT-CAM WFS — UsoDelSuelo:VPLA_V_CLASIFICACION (https://idem.comunidad.madrid/geosrvg/ows)", "fecha_dato": "2026-05-12", "ambito": "66245", "_raw_CD_SIGLAS": "SNUP", "_raw_DS_CLASIF_GEN": "Suelo No Urbanizable Protegido", "_raw_DS_CLASIF_DET": "Suelo No Urbanizable de Protección Vías Pecuarias", "_raw_DS_DOCU": "PLAN GENERAL", "_raw_DS_LEY": "CM Ley 9/2001, E Ley 6/1998", "_raw_FC_AC": "2006-09-07", "_raw_NM_AREA_M2": 510772.462652869, "_cam_code": "057" }, "geometry": { "type": "Polygon", "coordinates": [ [ [ -3.4142, 40.6444 ], [ -3.4151, 40.6447 ], [ -3.4207, 40.6415 ], [ -3.4225, 40.6403 ], [ -3.4227, 40.6399 ], [ -3.4234, 40.6395 ], [ -3.426, 40.6369 ], [ -3.4275, 40.6351 ], [ -3.4276, 40.6341 ], [ -3.4275, 40.6335 ], [ -3.4305, 40.6306 ], [ -3.4309, 40.6301 ], [ -3.4309, 40.6299 ], [ -3.432, 40.6285 ], [ -3.433, 40.6276 ], [ -3.4345, 40.6267 ], [ -3.4383, 40.6226 ], [ -3.4389, 40.6225 ], [ -3.4416, 40.621 ], [ -3.4416, 40.6193 ], [ -3.4412, 40.6186 ], [ -3.4421, 40.6175 ], [ -3.442, 40.6114 ], [ -3.4399, 40.6096 ], [ -3.4418, 40.6058 ], [ -3.4429, 40.6052 ], [ -3.4437, 40.6039 ], [ -3.4427, 40.6 ], [ -3.4439, 40.5979 ], [ -3.4412, 40.5941 ], [ -3.4396, 40.5933 ], [ -3.4429, 40.5979 ], [ -3.4417, 40.5999 ], [ -3.4428, 40.6038 ], [ -3.4422, 40.6048 ], [ -3.4411, 40.6054 ], [ -3.4389, 40.6097 ], [ -3.4411, 40.6117 ], [ -3.4412, 40.6173 ], [ -3.4402, 40.6186 ], [ -3.4407, 40.6194 ], [ -3.4408, 40.6207 ], [ -3.4385, 40.6219 ], [ -3.4378, 40.622 ], [ -3.4338, 40.6262 ], [ -3.432, 40.6272 ], [ -3.4313, 40.6279 ], [ -3.4313, 40.6281 ], [ -3.4308, 40.6288 ], [ -3.4301, 40.6294 ], [ -3.4299, 40.6303 ], [ -3.4294, 40.6309 ], [ -3.4292, 40.6314 ], [ -3.4288, 40.6316 ], [ -3.4288, 40.6317 ], [ -3.428, 40.632 ], [ -3.4272, 40.6328 ], [ -3.4267, 40.633 ], [ -3.4266, 40.6334 ], [ -3.4267, 40.6348 ], [ -3.4252, 40.6366 ], [ -3.4218, 40.6399 ], [ -3.4201, 40.641 ], [ -3.4201, 40.6411 ], [ -3.4142, 40.6444 ] ] ] } },
{ "type": "Feature", "properties": { "municipio": "Fresno de Torote", "clasificacion": "no-urbanizable-protegido", "calificacion": "sin-asignar", "version": "vigente", "fuente": "SIT-CAM WFS — UsoDelSuelo:VPLA_V_CLASIFICACION (https://idem.comunidad.madrid/geosrvg/ows)", "fecha_dato": "2026-05-12", "ambito": "66245", "_raw_CD_SIGLAS": "SNUP", "_raw_DS_CLASIF_GEN": "Suelo No Urbanizable Protegido", "_raw_DS_CLASIF_DET": "Suelo no Urbanizable de Protección Faunístico", "_raw_DS_DOCU": "PLAN GENERAL", "_raw_DS_LEY": "CM Ley 9/2001, E Ley 6/1998", "_raw_FC_AC": "2006-09-07", "_raw_NM_AREA_M2": 93287.626621286705, "_cam_code": "057" }, "geometry": { "type": "Polygon", "coordinates": [ [ [ -3.4345, 40.6267 ], [ -3.4369, 40.6271 ], [ -3.4378, 40.6266 ], [ -3.4385, 40.6259 ], [ -3.4389, 40.6248 ], [ -3.4389, 40.6242 ], [ -3.4392, 40.6232 ], [ -3.4381, 40.6228 ], [ -3.4345, 40.6267 ] ] ] } },
{ "type": "Feature", "properties": { "municipio": "Fresno de Torote", "clasificacion": "no-urbanizable-protegido", "calificacion": "sin-asignar", "version": "vigente", "fuente": "SIT-CAM WFS — UsoDelSuelo:VPLA_V_CLASIFICACION (https://idem.comunidad.madrid/geosrvg/ows)", "fecha_dato": "2026-05-12", "ambito": "66245", "_raw_CD_SIGLAS": "SNUP", "_raw_DS_CLASIF_GEN": "Suelo No Urbanizable Protegido", "_raw_DS_CLASIF_DET": "Suelo no Urbanizable de Protección Faunístico", "_raw_DS_DOCU": "PLAN GENERAL", "_raw_DS_LEY": "CM Ley 9/2001, E Ley 6/1998", "_raw_FC_AC": "2006-09-07", "_raw_NM_AREA_M2": 3142739.0375096598, "_cam_code": "057" }, "geometry": { "type": "Polygon", "coordinates": [ [ [ -3.4285, 40.6048 ], [ -3.4297, 40.6049 ], [ -3.432, 40.6054 ], [ -3.4327, 40.6048 ], [ -3.4337, 40.6044 ], [ -3.4346, 40.6044 ], [ -3.4354, 40.6046 ], [ -3.4358, 40.6043 ], [ -3.4375, 40.602 ], [ -3.4363, 40.601 ], [ -3.4356, 40.6006 ], [ -3.4357, 40.5998 ], [ -3.4355, 40.5992 ], [ -3.4349, 40.5985 ], [ -3.4336, 40.5961 ], [ -3.4324, 40.596 ], [ -3.4321, 40.5963 ], [ -3.4325, 40.5949 ], [ -3.4323, 40.5943 ], [ -3.4314, 40.593 ], [ -3.431, 40.5921 ], [ -3.4308, 40.592 ], [ -3.4302, 40.5921 ], [ -3.4297, 40.5928 ], [ -3.4306, 40.5914 ], [ -3.4309, 40.5914 ], [ -3.4311, 40.5911 ], [ -3.4314, 40.5901 ], [ -3.4316, 40.5899 ], [ -3.4318, 40.5899 ], [ -3.4327, 40.5902 ], [ -3.4342, 40.5917 ], [ -3.4338, 40.5918 ], [ -3.4345, 40.594 ], [ -3.4352, 40.5945 ], [ -3.4356, 40.5946 ], [ -3.4364, 40.5942 ], [ -3.4359, 40.5917 ], [ -3.4359, 40.5911 ], [ -3.4361, 40.5907 ], [ -3.4361, 40.5903 ], [ -3.4363, 40.5901 ], [ -3.4352, 40.5886 ], [ -3.4342, 40.5888 ], [ -3.4328, 40.5868 ], [ -3.4297, 40.5852 ], [ -3.428, 40.5855 ], [ -3.4259, 40.5847 ], [ -3.4223, 40.5823 ], [ -3.4182, 40.5807 ], [ -3.4168, 40.582 ], [ -3.4164, 40.5827 ], [ -3.4167, 40.5835 ], [ -3.4184, 40.5914 ], [ -3.4184, 40.5939 ], [ -3.4179, 40.5956 ], [ -3.4166, 40.5982 ], [ -3.4159, 40.5991 ], [ -3.4178, 40.6003 ], [ -3.42, 40.6013 ], [ -3.4226, 40.6028 ], [ -3.4243, 40.6036 ], [ -3.4239, 40.6042 ], [ -3.4248, 40.6044 ], [ -3.4256, 40.6042 ], [ -3.4262, 40.6043 ], [ -3.4257, 40.6046 ], [ -3.4259, 40.6048 ], [ -3.4267, 40.6048 ], [ -3.4273, 40.6051 ], [ -3.428, 40.6051 ], [ -3.4285, 40.6048 ] ] ] } },
{ "type": "Feature", "properties": { "municipio": "Fresno de Torote", "clasificacion": "no-urbanizable-protegido", "calificacion": "sin-asignar", "version": "vigente", "fuente": "SIT-CAM WFS — UsoDelSuelo:VPLA_V_CLASIFICACION (https://idem.comunidad.madrid/geosrvg/ows)", "fecha_dato": "2026-05-12", "ambito": "66245", "_raw_CD_SIGLAS": "SNUP", "_raw_DS_CLASIF_GEN": "Suelo No Urbanizable Protegido", "_raw_DS_CLASIF_DET": "Suelo no Urbanizable de Protección Agrícola", "_raw_DS_DOCU": "PLAN GENERAL", "_raw_DS_LEY": "CM Ley 9/2001, E Ley 6/1998", "_raw_FC_AC": "2006-09-07", "_raw_NM_AREA_M2": 299144.35490743001, "_cam_code": "057" }, "geometry": { "type": "Polygon", "coordinates": [ [ [ -3.3917, 40.6209 ], [ -3.3923, 40.6208 ], [ -3.3936, 40.6211 ], [ -3.3952, 40.6189 ], [ -3.3954, 40.6181 ], [ -3.3951, 40.6176 ], [ -3.3952, 40.6171 ], [ -3.3949, 40.6158 ], [ -3.3942, 40.6161 ], [ -3.3938, 40.6177 ], [ -3.3936, 40.6176 ], [ -3.3936, 40.6173 ], [ -3.3934, 40.617 ], [ -3.3931, 40.6169 ], [ -3.3928, 40.6164 ], [ -3.3926, 40.6164 ], [ -3.3925, 40.616 ], [ -3.3911, 40.6156 ], [ -3.3908, 40.6154 ], [ -3.3893, 40.6151 ], [ -3.3879, 40.6146 ], [ -3.3875, 40.6146 ], [ -3.3874, 40.6144 ], [ -3.3873, 40.6145 ], [ -3.3853, 40.614 ], [ -3.3844, 40.6135 ], [ -3.3839, 40.613 ], [ -3.383, 40.6124 ], [ -3.382, 40.6121 ], [ -3.382, 40.6124 ], [ -3.3828, 40.6129 ], [ -3.3826, 40.6132 ], [ -3.382, 40.6135 ], [ -3.3929, 40.6194 ], [ -3.3917, 40.6209 ] ] ] } },
{ "type": "Feature", "properties": { "municipio": "Fresno de Torote", "clasificacion": "no-urbanizable-protegido", "calificacion": "sin-asignar", "version": "vigente", "fuente": "SIT-CAM WFS — UsoDelSuelo:VPLA_V_CLASIFICACION (https://idem.comunidad.madrid/geosrvg/ows)", "fecha_dato": "2026-05-12", "ambito": "66245", "_raw_CD_SIGLAS": "SNUP", "_raw_DS_CLASIF_GEN": "Suelo No Urbanizable Protegido", "_raw_DS_CLASIF_DET": "Suelo no Urbanizable de Protección Agrícola", "_raw_DS_DOCU": "PLAN GENERAL", "_raw_DS_LEY": "CM Ley 9/2001, E Ley 6/1998", "_raw_FC_AC": "2006-09-07", "_raw_NM_AREA_M2": 113529.00315459599, "_cam_code": "057" }, "geometry": { "type": "Polygon", "coordinates": [ [ [ -3.3917, 40.6209 ], [ -3.3886, 40.6217 ], [ -3.3864, 40.6231 ], [ -3.386, 40.6238 ], [ -3.3849, 40.6247 ], [ -3.3857, 40.6259 ], [ -3.3861, 40.626 ], [ -3.3864, 40.6259 ], [ -3.3881, 40.625 ], [ -3.3885, 40.6245 ], [ -3.3892, 40.624 ], [ -3.3892, 40.6236 ], [ -3.3894, 40.6231 ], [ -3.39, 40.6225 ], [ -3.3901, 40.6221 ], [ -3.3909, 40.6213 ], [ -3.3918, 40.6211 ], [ -3.3917, 40.6209 ] ] ] } },
{ "type": "Feature", "properties": { "municipio": "Fresno de Torote", "clasificacion": "no-urbanizable-protegido", "calificacion": "sin-asignar", "version": "vigente", "fuente": "SIT-CAM WFS — UsoDelSuelo:VPLA_V_CLASIFICACION (https://idem.comunidad.madrid/geosrvg/ows)", "fecha_dato": "2026-05-12", "ambito": "66245", "_raw_CD_SIGLAS": "SNUP", "_raw_DS_CLASIF_GEN": "Suelo No Urbanizable Protegido", "_raw_DS_CLASIF_DET": "Suelo no Urbanizable de Protección Etnográfico", "_raw_DS_DOCU": "PLAN GENERAL", "_raw_DS_LEY": "CM Ley 9/2001, E Ley 6/1998", "_raw_FC_AC": "2006-09-07", "_raw_NM_AREA_M2": 4043.3394572163002, "_cam_code": "057" }, "geometry": { "type": "Polygon", "coordinates": [ [ [ -3.4091, 40.5853 ], [ -3.4099, 40.5856 ], [ -3.4102, 40.5853 ], [ -3.4093, 40.5848 ], [ -3.4092, 40.5853 ], [ -3.4091, 40.5853 ] ] ] } },
{ "type": "Feature", "properties": { "municipio": "Fresno de Torote", "clasificacion": "no-urbanizable-protegido", "calificacion": "sin-asignar", "version": "vigente", "fuente": "SIT-CAM WFS — UsoDelSuelo:VPLA_V_CLASIFICACION (https://idem.comunidad.madrid/geosrvg/ows)", "fecha_dato": "2026-05-12", "ambito": "66245", "_raw_CD_SIGLAS": "SNUP", "_raw_DS_CLASIF_GEN": "Suelo No Urbanizable Protegido", "_raw_DS_CLASIF_DET": "Suelo no Urbanizable de Protección Etnográfico", "_raw_DS_DOCU": "PLAN GENERAL", "_raw_DS_LEY": "CM Ley 9/2001, E Ley 6/1998", "_raw_FC_AC": "2006-09-07", "_raw_NM_AREA_M2": 23703.096918204599, "_cam_code": "057" }, "geometry": { "type": "Polygon", "coordinates": [ [ [ -3.408, 40.5897 ], [ -3.4085, 40.5896 ], [ -3.4087, 40.5892 ], [ -3.4087, 40.5888 ], [ -3.4092, 40.5884 ], [ -3.4092, 40.5882 ], [ -3.4095, 40.5879 ], [ -3.4093, 40.5876 ], [ -3.4089, 40.5875 ], [ -3.4087, 40.587 ], [ -3.4074, 40.5895 ], [ -3.408, 40.5897 ] ] ] } },
{ "type": "Feature", "properties": { "municipio": "Fresno de Torote", "clasificacion": "no-urbanizable-protegido", "calificacion": "sin-asignar", "version": "vigente", "fuente": "SIT-CAM WFS — UsoDelSuelo:VPLA_V_CLASIFICACION (https://idem.comunidad.madrid/geosrvg/ows)", "fecha_dato": "2026-05-12", "ambito": "66245", "_raw_CD_SIGLAS": "SNUP", "_raw_DS_CLASIF_GEN": "Suelo No Urbanizable Protegido", "_raw_DS_CLASIF_DET": "Suelo no Urbanizable de Protección Agrícola", "_raw_DS_DOCU": "PLAN GENERAL", "_raw_DS_LEY": "CM Ley 9/2001, E Ley 6/1998", "_raw_FC_AC": "2006-09-07", "_raw_NM_AREA_M2": 3198203.1101199598, "_cam_code": "057" }, "geometry": { "type": "Polygon", "coordinates": [ [ [ -3.3836, 40.6099 ], [ -3.3839, 40.6096 ], [ -3.3853, 40.6095 ], [ -3.3859, 40.6093 ], [ -3.3861, 40.609 ], [ -3.3861, 40.6087 ], [ -3.3858, 40.6084 ], [ -3.3851, 40.6084 ], [ -3.3846, 40.6086 ], [ -3.3841, 40.6086 ], [ -3.3832, 40.6082 ], [ -3.3833, 40.6077 ], [ -3.3848, 40.6069 ], [ -3.385, 40.6063 ], [ -3.3855, 40.6063 ], [ -3.3858, 40.606 ], [ -3.3858, 40.6057 ], [ -3.3855, 40.6055 ], [ -3.3855, 40.6053 ], [ -3.3864, 40.6052 ], [ -3.387, 40.6048 ], [ -3.3878, 40.6051 ], [ -3.3883, 40.6049 ], [ -3.3883, 40.6045 ], [ -3.388, 40.604 ], [ -3.388, 40.6037 ], [ -3.3871, 40.603 ], [ -3.3873, 40.6028 ], [ -3.3885, 40.6029 ], [ -3.3888, 40.6027 ], [ -3.3888, 40.6025 ], [ -3.3878, 40.6019 ], [ -3.3885, 40.6015 ], [ -3.3887, 40.6008 ], [ -3.3891, 40.6009 ], [ -3.3897, 40.6007 ], [ -3.3909, 40.5993 ], [ -3.3911, 40.5992 ], [ -3.3915, 40.5993 ], [ -3.3915, 40.5994 ], [ -3.392, 40.5993 ], [ -3.3924, 40.5985 ], [ -3.3935, 40.5975 ], [ -3.3936, 40.5966 ], [ -3.3939, 40.5957 ], [ -3.3945, 40.5947 ], [ -3.3948, 40.5945 ], [ -3.395, 40.5937 ], [ -3.394, 40.5926 ], [ -3.3939, 40.592 ], [ -3.3949, 40.5907 ], [ -3.3951, 40.5903 ], [ -3.3951, 40.5898 ], [ -3.3964, 40.5892 ], [ -3.3966, 40.589 ], [ -3.3979, 40.5868 ], [ -3.3984, 40.5854 ], [ -3.3985, 40.5854 ], [ -3.3986, 40.5845 ], [ -3.3976, 40.584 ], [ -3.3977, 40.5837 ], [ -3.3984, 40.5832 ], [ -3.3984, 40.5829 ], [ -3.3989, 40.5823 ], [ -3.3991, 40.5817 ], [ -3.3996, 40.5812 ], [ -3.3997, 40.5809 ], [ -3.3999, 40.581 ], [ -3.4006, 40.58 ], [ -3.4012, 40.5797 ], [ -3.4014, 40.5794 ], [ -3.4015, 40.5785 ], [ -3.4017, 40.5782 ], [ -3.4007, 40.5768 ], [ -3.4005, 40.5769 ], [ -3.3976, 40.5771 ], [ -3.3955, 40.5746 ], [ -3.3946, 40.573 ], [ -3.393, 40.5715 ], [ -3.3913, 40.5719 ], [ -3.3905, 40.5728 ], [ -3.3885, 40.5745 ], [ -3.3882, 40.576 ], [ -3.3886, 40.5769 ], [ -3.3894, 40.5774 ], [ -3.3886, 40.5783 ], [ -3.3893, 40.579 ], [ -3.3876, 40.5799 ], [ -3.3858, 40.5801 ], [ -3.3831, 40.5828 ], [ -3.3825, 40.5844 ], [ -3.3815, 40.5846 ], [ -3.3837, 40.587 ], [ -3.3822, 40.5888 ], [ -3.3835, 40.5896 ], [ -3.3847, 40.5894 ], [ -3.3855, 40.5912 ], [ -3.3856, 40.5926 ], [ -3.3848, 40.5939 ], [ -3.3839, 40.5946 ], [ -3.3837, 40.596 ], [ -3.3844, 40.5974 ], [ -3.3846, 40.5974 ], [ -3.385, 40.5984 ], [ -3.3843, 40.599 ], [ -3.3842, 40.5993 ], [ -3.3835, 40.6 ], [ -3.384, 40.6005 ], [ -3.3837, 40.6013 ], [ -3.3843, 40.6017 ], [ -3.3849, 40.603 ], [ -3.3857, 40.6041 ], [ -3.3845, 40.6045 ], [ -3.3816, 40.6061 ], [ -3.3813, 40.6064 ], [ -3.3825, 40.607 ], [ -3.3822, 40.6082 ], [ -3.3836, 40.6099 ] ] ] } },
{ "type": "Feature", "properties": { "municipio": "Fresno de Torote", "clasificacion": "no-urbanizable-protegido", "calificacion": "sin-asignar", "version": "vigente", "fuente": "SIT-CAM WFS — UsoDelSuelo:VPLA_V_CLASIFICACION (https://idem.comunidad.madrid/geosrvg/ows)", "fecha_dato": "2026-05-12", "ambito": "66245", "_raw_CD_SIGLAS": "SNUP", "_raw_DS_CLASIF_GEN": "Suelo No Urbanizable Protegido", "_raw_DS_CLASIF_DET": "Suelo no Urbanizable de Protección Agrícola", "_raw_DS_DOCU": "PLAN GENERAL", "_raw_DS_LEY": "CM Ley 9/2001, E Ley 6/1998", "_raw_FC_AC": "2006-09-07", "_raw_NM_AREA_M2": 17906.764610196002, "_cam_code": "057" }, "geometry": { "type": "Polygon", "coordinates": [ [ [ -3.3965, 40.6128 ], [ -3.3963, 40.6131 ], [ -3.3963, 40.6135 ], [ -3.3964, 40.6135 ], [ -3.3963, 40.6141 ], [ -3.3976, 40.6135 ], [ -3.3978, 40.613 ], [ -3.3979, 40.6121 ], [ -3.3976, 40.612 ], [ -3.3974, 40.6123 ], [ -3.3974, 40.6122 ], [ -3.3969, 40.6125 ], [ -3.397, 40.6126 ], [ -3.3969, 40.6127 ], [ -3.3965, 40.6128 ] ] ] } },
{ "type": "Feature", "properties": { "municipio": "Fresno de Torote", "clasificacion": "no-urbanizable-protegido", "calificacion": "sin-asignar", "version": "vigente", "fuente": "SIT-CAM WFS — UsoDelSuelo:VPLA_V_CLASIFICACION (https://idem.comunidad.madrid/geosrvg/ows)", "fecha_dato": "2026-05-12", "ambito": "66245", "_raw_CD_SIGLAS": "SNUP", "_raw_DS_CLASIF_GEN": "Suelo No Urbanizable Protegido", "_raw_DS_CLASIF_DET": "Suelo no Urbanizable de Protección Agrícola", "_raw_DS_DOCU": "PLAN GENERAL", "_raw_DS_LEY": "CM Ley 9/2001, E Ley 6/1998", "_raw_FC_AC": "2006-09-07", "_raw_NM_AREA_M2": 1241714.3886717099, "_cam_code": "057" }, "geometry": { "type": "Polygon", "coordinates": [ [ [ -3.3909, 40.615 ], [ -3.3915, 40.6151 ], [ -3.3915, 40.6154 ], [ -3.3927, 40.6157 ], [ -3.393, 40.616 ], [ -3.393, 40.6162 ], [ -3.3932, 40.6163 ], [ -3.3932, 40.6166 ], [ -3.3937, 40.6168 ], [ -3.394, 40.6158 ], [ -3.3949, 40.6153 ], [ -3.3953, 40.6146 ], [ -3.3953, 40.6144 ], [ -3.3957, 40.614 ], [ -3.3959, 40.6129 ], [ -3.3961, 40.6127 ], [ -3.3955, 40.6124 ], [ -3.3949, 40.6124 ], [ -3.395, 40.6123 ], [ -3.3957, 40.6123 ], [ -3.396, 40.6125 ], [ -3.3963, 40.6125 ], [ -3.3963, 40.6126 ], [ -3.3968, 40.6124 ], [ -3.3972, 40.612 ], [ -3.3972, 40.6121 ], [ -3.3974, 40.6121 ], [ -3.3976, 40.6118 ], [ -3.3978, 40.6118 ], [ -3.3978, 40.6116 ], [ -3.3981, 40.6115 ], [ -3.398, 40.6113 ], [ -3.3969, 40.611 ], [ -3.3984, 40.6108 ], [ -3.399, 40.6109 ], [ -3.3999, 40.6098 ], [ -3.4007, 40.6095 ], [ -3.4016, 40.6096 ], [ -3.4023, 40.6092 ], [ -3.4024, 40.609 ], [ -3.4024, 40.6068 ], [ -3.4022, 40.6063 ], [ -3.4022, 40.6057 ], [ -3.402, 40.605 ], [ -3.4022, 40.604 ], [ -3.402, 40.6034 ], [ -3.3997, 40.6042 ], [ -3.3972, 40.6039 ], [ -3.3962, 40.6036 ], [ -3.3943, 40.6035 ], [ -3.3929, 40.6027 ], [ -3.3917, 40.6023 ], [ -3.3912, 40.602 ], [ -3.3903, 40.6018 ], [ -3.3895, 40.6014 ], [ -3.3891, 40.602 ], [ -3.3892, 40.6024 ], [ -3.3906, 40.6035 ], [ -3.391, 40.6043 ], [ -3.3916, 40.6048 ], [ -3.3916, 40.6052 ], [ -3.3898, 40.6055 ], [ -3.3898, 40.606 ], [ -3.3896, 40.6062 ], [ -3.3892, 40.6064 ], [ -3.3888, 40.6063 ], [ -3.3886, 40.6065 ], [ -3.3879, 40.6067 ], [ -3.3879, 40.6068 ], [ -3.3884, 40.6072 ], [ -3.3888, 40.6073 ], [ -3.3893, 40.6079 ], [ -3.3897, 40.6089 ], [ -3.3899, 40.6089 ], [ -3.3903, 40.6092 ], [ -3.3911, 40.6093 ], [ -3.3919, 40.6098 ], [ -3.3928, 40.6099 ], [ -3.3931, 40.6101 ], [ -3.3936, 40.6101 ], [ -3.394, 40.6103 ], [ -3.3932, 40.6105 ], [ -3.3927, 40.6103 ], [ -3.3921, 40.6103 ], [ -3.392, 40.6101 ], [ -3.3916, 40.6099 ], [ -3.3896, 40.6094 ], [ -3.3895, 40.6106 ], [ -3.389, 40.6112 ], [ -3.3892, 40.6119 ], [ -3.3891, 40.6122 ], [ -3.3887, 40.6122 ], [ -3.3885, 40.6124 ], [ -3.3863, 40.6114 ], [ -3.3845, 40.6118 ], [ -3.3843, 40.6121 ], [ -3.3843, 40.6125 ], [ -3.3853, 40.6137 ], [ -3.3864, 40.6139 ], [ -3.389, 40.6147 ], [ -3.3894, 40.6147 ], [ -3.3901, 40.6151 ], [ -3.3909, 40.615 ] ] ] } },
{ "type": "Feature", "properties": { "municipio": "Fresno de Torote", "clasificacion": "no-urbanizable-protegido", "calificacion": "sin-asignar", "version": "vigente", "fuente": "SIT-CAM WFS — UsoDelSuelo:VPLA_V_CLASIFICACION (https://idem.comunidad.madrid/geosrvg/ows)", "fecha_dato": "2026-05-12", "ambito": "66245", "_raw_CD_SIGLAS": "SNUP", "_raw_DS_CLASIF_GEN": "Suelo No Urbanizable Protegido", "_raw_DS_CLASIF_DET": "Suelo No Urbanizable de Protección Paisajístico", "_raw_DS_DOCU": "PLAN GENERAL", "_raw_DS_LEY": "CM Ley 9/2001, E Ley 6/1998", "_raw_FC_AC": "2006-09-07", "_raw_NM_AREA_M2": 357378.38751026598, "_cam_code": "057" }, "geometry": { "type": "Polygon", "coordinates": [ [ [ -3.4176, 40.5945 ], [ -3.4171, 40.595 ], [ -3.4167, 40.5951 ], [ -3.4165, 40.5953 ], [ -3.4164, 40.596 ], [ -3.4161, 40.5965 ], [ -3.4161, 40.5972 ], [ -3.4159, 40.5984 ], [ -3.4157, 40.5989 ], [ -3.4159, 40.5991 ], [ -3.4166, 40.5982 ], [ -3.4181, 40.595 ], [ -3.4184, 40.5939 ], [ -3.4184, 40.5914 ], [ -3.4167, 40.5835 ], [ -3.4164, 40.5827 ], [ -3.4164, 40.5829 ], [ -3.4156, 40.5828 ], [ -3.414, 40.5832 ], [ -3.4138, 40.5834 ], [ -3.4137, 40.5838 ], [ -3.4139, 40.5847 ], [ -3.4144, 40.5847 ], [ -3.4149, 40.585 ], [ -3.4158, 40.5851 ], [ -3.416, 40.5852 ], [ -3.416, 40.5857 ], [ -3.4155, 40.5852 ], [ -3.4146, 40.5851 ], [ -3.414, 40.5848 ], [ -3.4135, 40.585 ], [ -3.4134, 40.5858 ], [ -3.4136, 40.5864 ], [ -3.4135, 40.587 ], [ -3.4157, 40.5881 ], [ -3.4153, 40.5937 ], [ -3.415, 40.5941 ], [ -3.4165, 40.5946 ], [ -3.4176, 40.5945 ] ] ] } },
{ "type": "Feature", "properties": { "municipio": "Fresno de Torote", "clasificacion": "no-urbanizable-protegido", "calificacion": "sin-asignar", "version": "vigente", "fuente": "SIT-CAM WFS — UsoDelSuelo:VPLA_V_CLASIFICACION (https://idem.comunidad.madrid/geosrvg/ows)", "fecha_dato": "2026-05-12", "ambito": "66245", "_raw_CD_SIGLAS": "SNUP", "_raw_DS_CLASIF_GEN": "Suelo No Urbanizable Protegido", "_raw_DS_CLASIF_DET": "Suelo No Urbanizable de Protección Paisajístico", "_raw_DS_DOCU": "PLAN GENERAL", "_raw_DS_LEY": "CM Ley 9/2001, E Ley 6/1998", "_raw_FC_AC": "2006-09-07", "_raw_NM_AREA_M2": 2468198.9398324299, "_cam_code": "057" }, "geometry": { "type": "Polygon", "coordinates": [ [ [ -3.3905, 40.6009 ], [ -3.3893, 40.6012 ], [ -3.3896, 40.6015 ], [ -3.3929, 40.6027 ], [ -3.3943, 40.6035 ], [ -3.3962, 40.6036 ], [ -3.3972, 40.6039 ], [ -3.3997, 40.6042 ], [ -3.4002, 40.6041 ], [ -3.4026, 40.6031 ], [ -3.4026, 40.6027 ], [ -3.4034, 40.6013 ], [ -3.4055, 40.5993 ], [ -3.4067, 40.5986 ], [ -3.4073, 40.5984 ], [ -3.408, 40.5982 ], [ -3.4086, 40.5984 ], [ -3.4087, 40.598 ], [ -3.4084, 40.5973 ], [ -3.4082, 40.5972 ], [ -3.4081, 40.5967 ], [ -3.4077, 40.596 ], [ -3.4081, 40.5955 ], [ -3.4062, 40.5942 ], [ -3.4033, 40.593 ], [ -3.403, 40.5926 ], [ -3.4018, 40.5925 ], [ -3.4018, 40.5924 ], [ -3.4023, 40.5921 ], [ -3.4044, 40.5923 ], [ -3.4056, 40.5928 ], [ -3.4063, 40.5934 ], [ -3.4064, 40.5927 ], [ -3.4068, 40.592 ], [ -3.407, 40.5909 ], [ -3.4072, 40.5906 ], [ -3.4072, 40.59 ], [ -3.4064, 40.5897 ], [ -3.4058, 40.5903 ], [ -3.4044, 40.5902 ], [ -3.404, 40.5904 ], [ -3.4032, 40.5904 ], [ -3.403, 40.5902 ], [ -3.405, 40.59 ], [ -3.4049, 40.5896 ], [ -3.4051, 40.5894 ], [ -3.4071, 40.5895 ], [ -3.4075, 40.5894 ], [ -3.4076, 40.589 ], [ -3.4087, 40.587 ], [ -3.4069, 40.5865 ], [ -3.407, 40.5863 ], [ -3.4068, 40.5864 ], [ -3.406, 40.5863 ], [ -3.4059, 40.5864 ], [ -3.406, 40.5869 ], [ -3.4059, 40.5869 ], [ -3.4055, 40.5866 ], [ -3.4054, 40.5861 ], [ -3.4055, 40.586 ], [ -3.4061, 40.5861 ], [ -3.4064, 40.5858 ], [ -3.4081, 40.5855 ], [ -3.4084, 40.5853 ], [ -3.4092, 40.5853 ], [ -3.4093, 40.5848 ], [ -3.4102, 40.5853 ], [ -3.4105, 40.5851 ], [ -3.4104, 40.5848 ], [ -3.4094, 40.5847 ], [ -3.4079, 40.5849 ], [ -3.4078, 40.5847 ], [ -3.4082, 40.5845 ], [ -3.4083, 40.5841 ], [ -3.4086, 40.5841 ], [ -3.4089, 40.5844 ], [ -3.4095, 40.5844 ], [ -3.4096, 40.5838 ], [ -3.4102, 40.5839 ], [ -3.4105, 40.5844 ], [ -3.4107, 40.5844 ], [ -3.4108, 40.5839 ], [ -3.4109, 40.5839 ], [ -3.411, 40.5836 ], [ -3.4115, 40.5831 ], [ -3.4122, 40.5827 ], [ -3.4124, 40.5818 ], [ -3.4129, 40.582 ], [ -3.4131, 40.5816 ], [ -3.4134, 40.5815 ], [ -3.4147, 40.5816 ], [ -3.4147, 40.5809 ], [ -3.4139, 40.5798 ], [ -3.4139, 40.5785 ], [ -3.4116, 40.5785 ], [ -3.4107, 40.5777 ], [ -3.4105, 40.5778 ], [ -3.405, 40.5781 ], [ -3.4041, 40.5784 ], [ -3.4038, 40.5787 ], [ -3.4038, 40.579 ], [ -3.4042, 40.5792 ], [ -3.4042, 40.5795 ], [ -3.4039, 40.5799 ], [ -3.4023, 40.5803 ], [ -3.4016, 40.5806 ], [ -3.401, 40.5806 ], [ -3.4011, 40.5809 ], [ -3.4013, 40.581 ], [ -3.402, 40.5808 ], [ -3.4033, 40.5809 ], [ -3.404, 40.5813 ], [ -3.4039, 40.5817 ], [ -3.4035, 40.582 ], [ -3.4027, 40.5819 ], [ -3.4022, 40.5821 ], [ -3.4011, 40.5818 ], [ -3.4009, 40.5816 ], [ -3.4004, 40.5818 ], [ -3.4004, 40.5821 ], [ -3.3997, 40.5831 ], [ -3.4007, 40.5851 ], [ -3.3996, 40.5861 ], [ -3.3995, 40.5869 ], [ -3.3992, 40.5874 ], [ -3.3993, 40.5876 ], [ -3.3987, 40.5877 ], [ -3.3984, 40.5886 ], [ -3.3978, 40.5891 ], [ -3.3971, 40.5894 ], [ -3.3984, 40.5901 ], [ -3.3986, 40.5901 ], [ -3.3987, 40.5903 ], [ -3.3963, 40.5897 ], [ -3.3964, 40.5902 ], [ -3.3967, 40.5904 ], [ -3.3967, 40.5908 ], [ -3.3965, 40.5915 ], [ -3.3961, 40.5922 ], [ -3.3963, 40.5924 ], [ -3.3972, 40.5927 ], [ -3.3971, 40.593 ], [ -3.3972, 40.5939 ], [ -3.3971, 40.5939 ], [ -3.3966, 40.5948 ], [ -3.3964, 40.5955 ], [ -3.3959, 40.5959 ], [ -3.3953, 40.597 ], [ -3.3953, 40.5972 ], [ -3.3952, 40.5972 ], [ -3.3953, 40.5978 ], [ -3.3955, 40.5979 ], [ -3.3953, 40.5988 ], [ -3.3951, 40.599 ], [ -3.3947, 40.5991 ], [ -3.3949, 40.5993 ], [ -3.3945, 40.5992 ], [ -3.3943, 40.5994 ], [ -3.3932, 40.6011 ], [ -3.3922, 40.6009 ], [ -3.3912, 40.6005 ], [ -3.3908, 40.6005 ], [ -3.3906, 40.6006 ], [ -3.3905, 40.6009 ] ] ] } },
{ "type": "Feature", "properties": { "municipio": "Fresno de Torote", "clasificacion": "no-urbanizable-protegido", "calificacion": "sin-asignar", "version": "vigente", "fuente": "SIT-CAM WFS — UsoDelSuelo:VPLA_V_CLASIFICACION (https://idem.comunidad.madrid/geosrvg/ows)", "fecha_dato": "2026-05-12", "ambito": "66245", "_raw_CD_SIGLAS": "SNUP", "_raw_DS_CLASIF_GEN": "Suelo No Urbanizable Protegido", "_raw_DS_CLASIF_DET": "Suelo no Urbanizable de Protección Etnográfico", "_raw_DS_DOCU": "PLAN GENERAL", "_raw_DS_LEY": "CM Ley 9/2001, E Ley 6/1998", "_raw_FC_AC": "2006-09-07", "_raw_NM_AREA_M2": 64439.928393445, "_cam_code": "057" }, "geometry": { "type": "Polygon", "coordinates": [ [ [ -3.4072, 40.59 ], [ -3.4068, 40.592 ], [ -3.4064, 40.5927 ], [ -3.4063, 40.5934 ], [ -3.4073, 40.5938 ], [ -3.4077, 40.5941 ], [ -3.4081, 40.5941 ], [ -3.4082, 40.5933 ], [ -3.4084, 40.5932 ], [ -3.4087, 40.5921 ], [ -3.409, 40.5916 ], [ -3.4089, 40.5916 ], [ -3.4089, 40.5912 ], [ -3.4083, 40.5903 ], [ -3.4072, 40.59 ] ] ] } },
{ "type": "Feature", "properties": { "municipio": "Fresno de Torote", "clasificacion": "no-urbanizable-protegido", "calificacion": "sin-asignar", "version": "vigente", "fuente": "SIT-CAM WFS — UsoDelSuelo:VPLA_V_CLASIFICACION (https://idem.comunidad.madrid/geosrvg/ows)", "fecha_dato": "2026-05-12", "ambito": "66245", "_raw_CD_SIGLAS": "SNUP", "_raw_DS_CLASIF_GEN": "Suelo No Urbanizable Protegido", "_raw_DS_CLASIF_DET": "Suelo no Urbanizable de Protección Etnográfico", "_raw_DS_DOCU": "PLAN GENERAL", "_raw_DS_LEY": "CM Ley 9/2001, E Ley 6/1998", "_raw_FC_AC": "2006-09-07", "_raw_NM_AREA_M2": 266773.581988758, "_cam_code": "057" }, "geometry": { "type": "Polygon", "coordinates": [ [ [ -3.4104, 40.5941 ], [ -3.4103, 40.5961 ], [ -3.4123, 40.5972 ], [ -3.4153, 40.5937 ], [ -3.4154, 40.5928 ], [ -3.4147, 40.5939 ], [ -3.414, 40.5936 ], [ -3.4139, 40.5937 ], [ -3.4136, 40.5936 ], [ -3.4134, 40.5937 ], [ -3.4123, 40.5937 ], [ -3.4122, 40.5938 ], [ -3.4119, 40.5936 ], [ -3.4111, 40.5935 ], [ -3.4118, 40.5922 ], [ -3.4117, 40.5922 ], [ -3.4119, 40.5919 ], [ -3.4118, 40.5918 ], [ -3.4121, 40.5915 ], [ -3.4119, 40.5913 ], [ -3.412, 40.5912 ], [ -3.4122, 40.5913 ], [ -3.4125, 40.5907 ], [ -3.4133, 40.5909 ], [ -3.4128, 40.5915 ], [ -3.4126, 40.592 ], [ -3.414, 40.5926 ], [ -3.4142, 40.5923 ], [ -3.4154, 40.5928 ], [ -3.4157, 40.5882 ], [ -3.4156, 40.588 ], [ -3.4135, 40.587 ], [ -3.4134, 40.588 ], [ -3.413, 40.5883 ], [ -3.4127, 40.5888 ], [ -3.4118, 40.5909 ], [ -3.4114, 40.5913 ], [ -3.4108, 40.5911 ], [ -3.4107, 40.5914 ], [ -3.4104, 40.5917 ], [ -3.4107, 40.5928 ], [ -3.4104, 40.5941 ] ] ] } },
{ "type": "Feature", "properties": { "municipio": "Fresno de Torote", "clasificacion": "no-urbanizable-protegido", "calificacion": "sin-asignar", "version": "vigente", "fuente": "SIT-CAM WFS — UsoDelSuelo:VPLA_V_CLASIFICACION (https://idem.comunidad.madrid/geosrvg/ows)", "fecha_dato": "2026-05-12", "ambito": "66245", "_raw_CD_SIGLAS": "SNUP", "_raw_DS_CLASIF_GEN": "Suelo No Urbanizable Protegido", "_raw_DS_CLASIF_DET": "Suelo No Urbanizable de Protección Paisajístico", "_raw_DS_DOCU": "PLAN GENERAL", "_raw_DS_LEY": "CM Ley 9/2001, E Ley 6/1998", "_raw_FC_AC": "2006-09-07", "_raw_NM_AREA_M2": 678172.95759426104, "_cam_code": "057" }, "geometry": { "type": "Polygon", "coordinates": [ [ [ -3.4055, 40.6087 ], [ -3.408, 40.6107 ], [ -3.4108, 40.6044 ], [ -3.4136, 40.6014 ], [ -3.4112, 40.6004 ], [ -3.4112, 40.6001 ], [ -3.4117, 40.5973 ], [ -3.4121, 40.5977 ], [ -3.4129, 40.5977 ], [ -3.4142, 40.5985 ], [ -3.4144, 40.5983 ], [ -3.4148, 40.5972 ], [ -3.4146, 40.597 ], [ -3.4145, 40.5965 ], [ -3.4147, 40.5955 ], [ -3.4142, 40.595 ], [ -3.4123, 40.5972 ], [ -3.4114, 40.5967 ], [ -3.4106, 40.5965 ], [ -3.4104, 40.5966 ], [ -3.4104, 40.597 ], [ -3.4102, 40.5973 ], [ -3.4101, 40.5978 ], [ -3.4099, 40.5977 ], [ -3.4098, 40.5978 ], [ -3.4097, 40.5985 ], [ -3.4089, 40.5991 ], [ -3.4085, 40.5996 ], [ -3.4081, 40.5995 ], [ -3.4085, 40.5993 ], [ -3.4085, 40.5991 ], [ -3.4081, 40.5991 ], [ -3.408, 40.5993 ], [ -3.4071, 40.5993 ], [ -3.4067, 40.5997 ], [ -3.407, 40.5998 ], [ -3.4068, 40.6 ], [ -3.4076, 40.5999 ], [ -3.4076, 40.6002 ], [ -3.4064, 40.601 ], [ -3.4062, 40.6009 ], [ -3.4067, 40.6004 ], [ -3.406, 40.6006 ], [ -3.4058, 40.6008 ], [ -3.4058, 40.6011 ], [ -3.405, 40.6017 ], [ -3.4034, 40.6036 ], [ -3.4033, 40.604 ], [ -3.4034, 40.6052 ], [ -3.4038, 40.6061 ], [ -3.4036, 40.6072 ], [ -3.4036, 40.6081 ], [ -3.4033, 40.6089 ], [ -3.4041, 40.6083 ], [ -3.4058, 40.6063 ], [ -3.406, 40.6063 ], [ -3.4065, 40.6067 ], [ -3.4067, 40.6067 ], [ -3.407, 40.6071 ], [ -3.4061, 40.6076 ], [ -3.4061, 40.6078 ], [ -3.4055, 40.6087 ] ] ] } },
{ "type": "Feature", "properties": { "municipio": "Fresno de Torote", "clasificacion": "no-urbanizable-protegido", "calificacion": "sin-asignar", "version": "vigente", "fuente": "SIT-CAM WFS — UsoDelSuelo:VPLA_V_CLASIFICACION (https://idem.comunidad.madrid/geosrvg/ows)", "fecha_dato": "2026-05-12", "ambito": "66245", "_raw_CD_SIGLAS": "SNUP", "_raw_DS_CLASIF_GEN": "Suelo No Urbanizable Protegido", "_raw_DS_CLASIF_DET": "Suelo no Urbanizable de Protección Faunístico", "_raw_DS_DOCU": "PLAN GENERAL", "_raw_DS_LEY": "CM Ley 9/2001, E Ley 6/1998", "_raw_FC_AC": "2006-09-07", "_raw_NM_AREA_M2": 237283.72431281299, "_cam_code": "057" }, "geometry": { "type": "Polygon", "coordinates": [ [ [ -3.3791, 40.6245 ], [ -3.3789, 40.6254 ], [ -3.3781, 40.6272 ], [ -3.3782, 40.6274 ], [ -3.3784, 40.6274 ], [ -3.379, 40.6278 ], [ -3.3795, 40.6285 ], [ -3.3808, 40.6292 ], [ -3.3819, 40.6295 ], [ -3.3821, 40.6297 ], [ -3.3831, 40.6294 ], [ -3.3835, 40.6289 ], [ -3.3834, 40.6287 ], [ -3.3835, 40.6279 ], [ -3.3844, 40.627 ], [ -3.3848, 40.6261 ], [ -3.3843, 40.6252 ], [ -3.3822, 40.6242 ], [ -3.3808, 40.6242 ], [ -3.3804, 40.6244 ], [ -3.3794, 40.6239 ], [ -3.379, 40.6242 ], [ -3.3791, 40.6245 ] ] ] } },
{ "type": "Feature", "properties": { "municipio": "Fresno de Torote", "clasificacion": "no-urbanizable-protegido", "calificacion": "sin-asignar", "version": "vigente", "fuente": "SIT-CAM WFS — UsoDelSuelo:VPLA_V_CLASIFICACION (https://idem.comunidad.madrid/geosrvg/ows)", "fecha_dato": "2026-05-12", "ambito": "66245", "_raw_CD_SIGLAS": "SNUP", "_raw_DS_CLASIF_GEN": "Suelo No Urbanizable Protegido", "_raw_DS_CLASIF_DET": "Suelo no Urbanizable de Protección Faunístico", "_raw_DS_DOCU": "PLAN GENERAL", "_raw_DS_LEY": "CM Ley 9/2001, E Ley 6/1998", "_raw_FC_AC": "2006-09-07", "_raw_NM_AREA_M2": 1405.36183046671, "_cam_code": "057" }, "geometry": { "type": "Polygon", "coordinates": [ [ [ -3.4276, 40.634 ], [ -3.4276, 40.6341 ], [ -3.4275, 40.635 ], [ -3.4278, 40.6348 ], [ -3.4276, 40.634 ] ] ] } },
{ "type": "Feature", "properties": { "municipio": "Fresno de Torote", "clasificacion": "no-urbanizable-protegido", "calificacion": "sin-asignar", "version": "vigente", "fuente": "SIT-CAM WFS — UsoDelSuelo:VPLA_V_CLASIFICACION (https://idem.comunidad.madrid/geosrvg/ows)", "fecha_dato": "2026-05-12", "ambito": "66245", "_raw_CD_SIGLAS": "SNUP", "_raw_DS_CLASIF_GEN": "Suelo No Urbanizable Protegido", "_raw_DS_CLASIF_DET": "Suelo no Urbanizable de Protección Faunístico", "_raw_DS_DOCU": "PLAN GENERAL", "_raw_DS_LEY": "CM Ley 9/2001, E Ley 6/1998", "_raw_FC_AC": "2006-09-07", "_raw_NM_AREA_M2": 3249.23249306549, "_cam_code": "057" }, "geometry": { "type": "Polygon", "coordinates": [ [ [ -3.4274, 40.6352 ], [ -3.426, 40.6368 ], [ -3.4273, 40.6358 ], [ -3.4274, 40.6352 ] ] ] } },
{ "type": "Feature", "properties": { "municipio": "Fresno de Torote", "clasificacion": "no-urbanizable-protegido", "calificacion": "sin-asignar", "version": "vigente", "fuente": "SIT-CAM WFS — UsoDelSuelo:VPLA_V_CLASIFICACION (https://idem.comunidad.madrid/geosrvg/ows)", "fecha_dato": "2026-05-12", "ambito": "66245", "_raw_CD_SIGLAS": "SNUP", "_raw_DS_CLASIF_GEN": "Suelo No Urbanizable Protegido", "_raw_DS_CLASIF_DET": "Suelo no Urbanizable de Protección Faunístico", "_raw_DS_DOCU": "PLAN GENERAL", "_raw_DS_LEY": "CM Ley 9/2001, E Ley 6/1998", "_raw_FC_AC": "2006-09-07", "_raw_NM_AREA_M2": 8484026.2110433299, "_cam_code": "057" }, "geometry": { "type": "Polygon", "coordinates": [ [ [ -3.4054, 40.6165 ], [ -3.4028, 40.6225 ], [ -3.404, 40.6228 ], [ -3.4054, 40.6234 ], [ -3.4056, 40.6236 ], [ -3.4058, 40.6236 ], [ -3.4063, 40.6241 ], [ -3.4064, 40.6245 ], [ -3.4065, 40.6245 ], [ -3.407, 40.6287 ], [ -3.4073, 40.63 ], [ -3.4073, 40.6308 ], [ -3.407, 40.6318 ], [ -3.4065, 40.6327 ], [ -3.4064, 40.6327 ], [ -3.4226, 40.6391 ], [ -3.4252, 40.6366 ], [ -3.4267, 40.6348 ], [ -3.4266, 40.6336 ], [ -3.4267, 40.633 ], [ -3.4272, 40.6328 ], [ -3.428, 40.632 ], [ -3.4284, 40.6319 ], [ -3.4292, 40.6314 ], [ -3.4294, 40.6309 ], [ -3.4299, 40.6303 ], [ -3.4301, 40.6294 ], [ -3.4308, 40.6288 ], [ -3.4313, 40.6281 ], [ -3.4313, 40.6279 ], [ -3.432, 40.6272 ], [ -3.4338, 40.6262 ], [ -3.4378, 40.622 ], [ -3.4385, 40.6219 ], [ -3.4408, 40.6207 ], [ -3.4407, 40.6194 ], [ -3.4402, 40.6186 ], [ -3.4412, 40.6173 ], [ -3.4411, 40.6117 ], [ -3.4389, 40.6097 ], [ -3.4411, 40.6054 ], [ -3.4422, 40.6048 ], [ -3.4428, 40.6038 ], [ -3.4417, 40.5999 ], [ -3.4429, 40.5979 ], [ -3.4406, 40.5947 ], [ -3.4403, 40.5946 ], [ -3.4396, 40.5949 ], [ -3.4368, 40.595 ], [ -3.4351, 40.5947 ], [ -3.4348, 40.5948 ], [ -3.435, 40.5953 ], [ -3.4352, 40.5955 ], [ -3.4356, 40.5956 ], [ -3.4351, 40.5959 ], [ -3.4355, 40.5973 ], [ -3.438, 40.5999 ], [ -3.4385, 40.6014 ], [ -3.437, 40.6036 ], [ -3.4365, 40.6046 ], [ -3.4352, 40.6063 ], [ -3.4348, 40.6071 ], [ -3.4346, 40.609 ], [ -3.4347, 40.6102 ], [ -3.4337, 40.6132 ], [ -3.4345, 40.6135 ], [ -3.4343, 40.6149 ], [ -3.4334, 40.617 ], [ -3.4331, 40.6169 ], [ -3.4331, 40.6159 ], [ -3.4333, 40.6156 ], [ -3.4333, 40.6151 ], [ -3.4329, 40.6146 ], [ -3.4318, 40.614 ], [ -3.4319, 40.6154 ], [ -3.4317, 40.6153 ], [ -3.4317, 40.615 ], [ -3.4315, 40.6147 ], [ -3.4316, 40.6143 ], [ -3.4314, 40.6136 ], [ -3.4298, 40.6127 ], [ -3.4306, 40.6117 ], [ -3.4298, 40.611 ], [ -3.4289, 40.6093 ], [ -3.4285, 40.6091 ], [ -3.4272, 40.609 ], [ -3.4263, 40.6086 ], [ -3.4255, 40.6085 ], [ -3.4242, 40.6081 ], [ -3.4204, 40.6082 ], [ -3.4191, 40.6075 ], [ -3.4182, 40.606 ], [ -3.4174, 40.6051 ], [ -3.4163, 40.6044 ], [ -3.4152, 40.6035 ], [ -3.4147, 40.6019 ], [ -3.4136, 40.6014 ], [ -3.4108, 40.6044 ], [ -3.4058, 40.6156 ], [ -3.4059, 40.6159 ], [ -3.406, 40.6159 ], [ -3.406, 40.6162 ], [ -3.4054, 40.6165 ] ] ] } },
{ "type": "Feature", "properties": { "municipio": "Fresno de Torote", "clasificacion": "no-urbanizable-protegido", "calificacion": "sin-asignar", "version": "vigente", "fuente": "SIT-CAM WFS — UsoDelSuelo:VPLA_V_CLASIFICACION (https://idem.comunidad.madrid/geosrvg/ows)", "fecha_dato": "2026-05-12", "ambito": "66245", "_raw_CD_SIGLAS": "SNUP", "_raw_DS_CLASIF_GEN": "Suelo No Urbanizable Protegido", "_raw_DS_CLASIF_DET": "Suelo no Urbanizable de Protección Faunístico", "_raw_DS_DOCU": "PLAN GENERAL", "_raw_DS_LEY": "CM Ley 9/2001, E Ley 6/1998", "_raw_FC_AC": "2006-09-07", "_raw_NM_AREA_M2": 17306.2032265585, "_cam_code": "057" }, "geometry": { "type": "Polygon", "coordinates": [ [ [ -3.426, 40.6369 ], [ -3.4235, 40.6393 ], [ -3.4234, 40.6395 ], [ -3.4238, 40.6393 ], [ -3.4246, 40.6393 ], [ -3.4251, 40.6391 ], [ -3.426, 40.6369 ] ] ] } },
{ "type": "Feature", "properties": { "municipio": "Fresno de Torote", "clasificacion": "no-urbanizable-protegido", "calificacion": "sin-asignar", "version": "vigente", "fuente": "SIT-CAM WFS — UsoDelSuelo:VPLA_V_CLASIFICACION (https://idem.comunidad.madrid/geosrvg/ows)", "fecha_dato": "2026-05-12", "ambito": "66245", "_raw_CD_SIGLAS": "SNUP", "_raw_DS_CLASIF_GEN": "Suelo No Urbanizable Protegido", "_raw_DS_CLASIF_DET": "Suelo no Urbanizable de Protección Monte Preservado", "_raw_DS_DOCU": "PLAN GENERAL", "_raw_DS_LEY": "CM Ley 9/2001, E Ley 6/1998", "_raw_FC_AC": "2006-09-07", "_raw_NM_AREA_M2": 23227.426569576601, "_cam_code": "057" }, "geometry": { "type": "Polygon", "coordinates": [ [ [ -3.4439, 40.5979 ], [ -3.4432, 40.5952 ], [ -3.4412, 40.5941 ], [ -3.4439, 40.5979 ] ] ] } },
{ "type": "Feature", "properties": { "municipio": "Fresno de Torote", "clasificacion": "no-urbanizable-protegido", "calificacion": "sin-asignar", "version": "vigente", "fuente": "SIT-CAM WFS — UsoDelSuelo:VPLA_V_CLASIFICACION (https://idem.comunidad.madrid/geosrvg/ows)", "fecha_dato": "2026-05-12", "ambito": "66245", "_raw_CD_SIGLAS": "SNUP", "_raw_DS_CLASIF_GEN": "Suelo No Urbanizable Protegido", "_raw_DS_CLASIF_DET": "Suelo no Urbanizable de Protección Monte Preservado", "_raw_DS_DOCU": "PLAN GENERAL", "_raw_DS_LEY": "CM Ley 9/2001, E Ley 6/1998", "_raw_FC_AC": "2006-09-07", "_raw_NM_AREA_M2": 1695196.3982528199, "_cam_code": "057" }, "geometry": { "type": "Polygon", "coordinates": [ [ [ -3.4318, 40.614 ], [ -3.4329, 40.6146 ], [ -3.4333, 40.6151 ], [ -3.4333, 40.6156 ], [ -3.4331, 40.6159 ], [ -3.4331, 40.6169 ], [ -3.4334, 40.617 ], [ -3.4343, 40.6149 ], [ -3.4345, 40.6135 ], [ -3.4337, 40.6132 ], [ -3.4347, 40.6102 ], [ -3.4346, 40.609 ], [ -3.4348, 40.6071 ], [ -3.4352, 40.6063 ], [ -3.4365, 40.6046 ], [ -3.437, 40.6036 ], [ -3.4385, 40.6014 ], [ -3.438, 40.5999 ], [ -3.4355, 40.5973 ], [ -3.4351, 40.5959 ], [ -3.4356, 40.5956 ], [ -3.4352, 40.5955 ], [ -3.4349, 40.5952 ], [ -3.4348, 40.5948 ], [ -3.4351, 40.5947 ], [ -3.4368, 40.595 ], [ -3.4396, 40.5949 ], [ -3.4403, 40.5946 ], [ -3.4406, 40.5947 ], [ -3.4396, 40.5933 ], [ -3.4378, 40.5924 ], [ -3.4363, 40.5901 ], [ -3.4361, 40.5903 ], [ -3.4361, 40.5907 ], [ -3.4359, 40.5911 ], [ -3.4359, 40.5917 ], [ -3.4364, 40.5942 ], [ -3.4356, 40.5946 ], [ -3.4352, 40.5945 ], [ -3.4345, 40.594 ], [ -3.4338, 40.5918 ], [ -3.4342, 40.5917 ], [ -3.4327, 40.5902 ], [ -3.4318, 40.5899 ], [ -3.4316, 40.5899 ], [ -3.4314, 40.5901 ], [ -3.4311, 40.5911 ], [ -3.4309, 40.5914 ], [ -3.4306, 40.5914 ], [ -3.4297, 40.5928 ], [ -3.4302, 40.5921 ], [ -3.4308, 40.592 ], [ -3.431, 40.5921 ], [ -3.4314, 40.593 ], [ -3.4323, 40.5943 ], [ -3.4325, 40.5949 ], [ -3.4321, 40.5963 ], [ -3.4324, 40.596 ], [ -3.4336, 40.5961 ], [ -3.4349, 40.5985 ], [ -3.4355, 40.5992 ], [ -3.4357, 40.5998 ], [ -3.4356, 40.6006 ], [ -3.4363, 40.601 ], [ -3.4375, 40.602 ], [ -3.4358, 40.6043 ], [ -3.4354, 40.6046 ], [ -3.4346, 40.6044 ], [ -3.4337, 40.6044 ], [ -3.4327, 40.6048 ], [ -3.4323, 40.6052 ], [ -3.4318, 40.6054 ], [ -3.4297, 40.6049 ], [ -3.4285, 40.6048 ], [ -3.428, 40.6051 ], [ -3.4273, 40.6051 ], [ -3.4267, 40.6048 ], [ -3.4259, 40.6048 ], [ -3.4257, 40.6046 ], [ -3.4262, 40.6043 ], [ -3.4256, 40.6042 ], [ -3.4248, 40.6044 ], [ -3.4239, 40.6042 ], [ -3.4243, 40.6036 ], [ -3.4226, 40.6028 ], [ -3.42, 40.6013 ], [ -3.4178, 40.6003 ], [ -3.4157, 40.5989 ], [ -3.4159, 40.5984 ], [ -3.4161, 40.5972 ], [ -3.4161, 40.5965 ], [ -3.4164, 40.596 ], [ -3.4165, 40.5953 ], [ -3.4167, 40.5951 ], [ -3.4171, 40.595 ], [ -3.4176, 40.5945 ], [ -3.4165, 40.5946 ], [ -3.415, 40.5941 ], [ -3.4142, 40.595 ], [ -3.4147, 40.5955 ], [ -3.4145, 40.5965 ], [ -3.4146, 40.597 ], [ -3.4148, 40.5972 ], [ -3.4144, 40.5983 ], [ -3.4142, 40.5985 ], [ -3.4129, 40.5977 ], [ -3.4121, 40.5977 ], [ -3.4117, 40.5973 ], [ -3.4112, 40.6004 ], [ -3.4147, 40.6019 ], [ -3.4152, 40.6035 ], [ -3.4163, 40.6044 ], [ -3.4174, 40.6051 ], [ -3.4182, 40.606 ], [ -3.4191, 40.6075 ], [ -3.4204, 40.6082 ], [ -3.4242, 40.6081 ], [ -3.4255, 40.6085 ], [ -3.4263, 40.6086 ], [ -3.4272, 40.609 ], [ -3.4285, 40.6091 ], [ -3.4289, 40.6093 ], [ -3.4298, 40.611 ], [ -3.4306, 40.6117 ], [ -3.4298, 40.6127 ], [ -3.4314, 40.6136 ], [ -3.4316, 40.6143 ], [ -3.4315, 40.6147 ], [ -3.4317, 40.615 ], [ -3.4317, 40.6153 ], [ -3.4319, 40.6154 ], [ -3.4318, 40.614 ] ] ] } },
{ "type": "Feature", "properties": { "municipio": "Fresno de Torote", "clasificacion": "no-urbanizable-protegido", "calificacion": "sin-asignar", "version": "vigente", "fuente": "SIT-CAM WFS — UsoDelSuelo:VPLA_V_CLASIFICACION (https://idem.comunidad.madrid/geosrvg/ows)", "fecha_dato": "2026-05-12", "ambito": "66245", "_raw_CD_SIGLAS": "SNUP", "_raw_DS_CLASIF_GEN": "Suelo No Urbanizable Protegido", "_raw_DS_CLASIF_DET": "Suelo no Urbanizable de Protección Monte Preservado", "_raw_DS_DOCU": "PLAN GENERAL", "_raw_DS_LEY": "CM Ley 9/2001, E Ley 6/1998", "_raw_FC_AC": "2006-09-07", "_raw_NM_AREA_M2": 73052.420124624899, "_cam_code": "057" }, "geometry": { "type": "Polygon", "coordinates": [ [ [ -3.4421, 40.6175 ], [ -3.4441, 40.6127 ], [ -3.4441, 40.6116 ], [ -3.4433, 40.6112 ], [ -3.442, 40.6114 ], [ -3.4421, 40.6175 ] ] ] } },
{ "type": "Feature", "properties": { "municipio": "Fresno de Torote", "clasificacion": "no-urbanizable-protegido", "calificacion": "sin-asignar", "version": "vigente", "fuente": "SIT-CAM WFS — UsoDelSuelo:VPLA_V_CLASIFICACION (https://idem.comunidad.madrid/geosrvg/ows)", "fecha_dato": "2026-05-12", "ambito": "66245", "_raw_CD_SIGLAS": "SNUP", "_raw_DS_CLASIF_GEN": "Suelo No Urbanizable Protegido", "_raw_DS_CLASIF_DET": "Suelo no Urbanizable de Protección Monte Preservado", "_raw_DS_DOCU": "PLAN GENERAL", "_raw_DS_LEY": "CM Ley 9/2001, E Ley 6/1998", "_raw_FC_AC": "2006-09-07", "_raw_NM_AREA_M2": 3357.4050608715902, "_cam_code": "057" }, "geometry": { "type": "Polygon", "coordinates": [ [ [ -3.4421, 40.6175 ], [ -3.4412, 40.6186 ], [ -3.4421, 40.6184 ], [ -3.4421, 40.6175 ] ] ] } },
{ "type": "Feature", "properties": { "municipio": "Fresno de Torote", "clasificacion": "no-urbanizable-protegido", "calificacion": "sin-asignar", "version": "vigente", "fuente": "SIT-CAM WFS — UsoDelSuelo:VPLA_V_CLASIFICACION (https://idem.comunidad.madrid/geosrvg/ows)", "fecha_dato": "2026-05-12", "ambito": "66245", "_raw_CD_SIGLAS": "SNUP", "_raw_DS_CLASIF_GEN": "Suelo No Urbanizable Protegido", "_raw_DS_CLASIF_DET": "Suelo no Urbanizable de Protección Monte Preservado", "_raw_DS_DOCU": "PLAN GENERAL", "_raw_DS_LEY": "CM Ley 9/2001, E Ley 6/1998", "_raw_FC_AC": "2006-09-07", "_raw_NM_AREA_M2": 11010.816813686801, "_cam_code": "057" }, "geometry": { "type": "Polygon", "coordinates": [ [ [ -3.4415, 40.6191 ], [ -3.4416, 40.6193 ], [ -3.4416, 40.621 ], [ -3.4423, 40.6206 ], [ -3.4429, 40.62 ], [ -3.4415, 40.6191 ] ] ] } },
{ "type": "Feature", "properties": { "municipio": "Fresno de Torote", "clasificacion": "no-urbanizable-protegido", "calificacion": "sin-asignar", "version": "vigente", "fuente": "SIT-CAM WFS — UsoDelSuelo:VPLA_V_CLASIFICACION (https://idem.comunidad.madrid/geosrvg/ows)", "fecha_dato": "2026-05-12", "ambito": "66245", "_raw_CD_SIGLAS": "SNUP", "_raw_DS_CLASIF_GEN": "Suelo No Urbanizable Protegido", "_raw_DS_CLASIF_DET": "Suelo no Urbanizable de Protección Monte Preservado", "_raw_DS_DOCU": "PLAN GENERAL", "_raw_DS_LEY": "CM Ley 9/2001, E Ley 6/1998", "_raw_FC_AC": "2006-09-07", "_raw_NM_AREA_M2": 3797618.9781748699, "_cam_code": "057" }, "geometry": { "type": "Polygon", "coordinates": [ [ [ -3.3821, 40.6305 ], [ -3.3845, 40.6311 ], [ -3.385, 40.6304 ], [ -3.385, 40.6297 ], [ -3.3852, 40.6293 ], [ -3.3855, 40.6291 ], [ -3.3859, 40.6291 ], [ -3.3855, 40.6297 ], [ -3.3863, 40.6299 ], [ -3.3869, 40.6293 ], [ -3.387, 40.6288 ], [ -3.3874, 40.6286 ], [ -3.3875, 40.6279 ], [ -3.3879, 40.6273 ], [ -3.388, 40.6268 ], [ -3.3882, 40.6265 ], [ -3.3888, 40.6268 ], [ -3.3887, 40.6272 ], [ -3.3888, 40.6273 ], [ -3.3891, 40.6271 ], [ -3.3891, 40.6267 ], [ -3.389, 40.6267 ], [ -3.3886, 40.6257 ], [ -3.3891, 40.6254 ], [ -3.3897, 40.6244 ], [ -3.3905, 40.6236 ], [ -3.3905, 40.623 ], [ -3.3912, 40.6217 ], [ -3.3917, 40.6216 ], [ -3.3918, 40.6214 ], [ -3.3935, 40.6217 ], [ -3.3939, 40.6221 ], [ -3.394, 40.6227 ], [ -3.3945, 40.623 ], [ -3.395, 40.623 ], [ -3.3946, 40.6226 ], [ -3.3948, 40.6215 ], [ -3.3949, 40.6212 ], [ -3.3953, 40.6209 ], [ -3.3956, 40.6209 ], [ -3.3956, 40.6206 ], [ -3.3953, 40.6205 ], [ -3.395, 40.6202 ], [ -3.3959, 40.6189 ], [ -3.3957, 40.6179 ], [ -3.3959, 40.6172 ], [ -3.3957, 40.6169 ], [ -3.3956, 40.6171 ], [ -3.3955, 40.6166 ], [ -3.3957, 40.6152 ], [ -3.396, 40.6149 ], [ -3.3974, 40.6144 ], [ -3.3983, 40.6137 ], [ -3.3984, 40.6133 ], [ -3.3983, 40.612 ], [ -3.3988, 40.6115 ], [ -3.3995, 40.6112 ], [ -3.4, 40.6113 ], [ -3.4012, 40.611 ], [ -3.4021, 40.6106 ], [ -3.4028, 40.61 ], [ -3.4036, 40.6081 ], [ -3.4036, 40.6072 ], [ -3.4038, 40.6061 ], [ -3.4034, 40.6052 ], [ -3.4033, 40.6045 ], [ -3.4034, 40.6036 ], [ -3.405, 40.6017 ], [ -3.4058, 40.6011 ], [ -3.4058, 40.6008 ], [ -3.406, 40.6006 ], [ -3.4067, 40.6004 ], [ -3.4062, 40.6009 ], [ -3.4064, 40.601 ], [ -3.4076, 40.6002 ], [ -3.4076, 40.5999 ], [ -3.4068, 40.6 ], [ -3.407, 40.5998 ], [ -3.4067, 40.5997 ], [ -3.4071, 40.5993 ], [ -3.408, 40.5993 ], [ -3.4081, 40.5991 ], [ -3.4085, 40.5991 ], [ -3.4085, 40.5993 ], [ -3.4081, 40.5995 ], [ -3.4085, 40.5996 ], [ -3.4089, 40.5991 ], [ -3.4097, 40.5985 ], [ -3.4098, 40.5978 ], [ -3.4099, 40.5977 ], [ -3.4101, 40.5978 ], [ -3.4102, 40.5973 ], [ -3.4104, 40.597 ], [ -3.4104, 40.5966 ], [ -3.4106, 40.5965 ], [ -3.4114, 40.5967 ], [ -3.4103, 40.5961 ], [ -3.4103, 40.5948 ], [ -3.4107, 40.5928 ], [ -3.4104, 40.5917 ], [ -3.4107, 40.5914 ], [ -3.4108, 40.5911 ], [ -3.4114, 40.5913 ], [ -3.4118, 40.5909 ], [ -3.4127, 40.5888 ], [ -3.413, 40.5883 ], [ -3.4134, 40.588 ], [ -3.4136, 40.5864 ], [ -3.4134, 40.5858 ], [ -3.4135, 40.585 ], [ -3.414, 40.5848 ], [ -3.4146, 40.5851 ], [ -3.4155, 40.5852 ], [ -3.416, 40.5857 ], [ -3.416, 40.5852 ], [ -3.4158, 40.5851 ], [ -3.4149, 40.585 ], [ -3.4144, 40.5847 ], [ -3.4139, 40.5847 ], [ -3.4137, 40.5838 ], [ -3.4138, 40.5834 ], [ -3.414, 40.5832 ], [ -3.4156, 40.5828 ], [ -3.4164, 40.5829 ], [ -3.4165, 40.5824 ], [ -3.4166, 40.5824 ], [ -3.416, 40.581 ], [ -3.416, 40.5806 ], [ -3.4161, 40.5804 ], [ -3.4164, 40.5804 ], [ -3.4171, 40.5807 ], [ -3.4172, 40.5809 ], [ -3.4173, 40.5804 ], [ -3.4154, 40.5801 ], [ -3.4139, 40.5785 ], [ -3.4139, 40.5798 ], [ -3.4147, 40.5809 ], [ -3.4147, 40.5816 ], [ -3.4134, 40.5815 ], [ -3.4131, 40.5816 ], [ -3.4129, 40.582 ], [ -3.4124, 40.5818 ], [ -3.4122, 40.5827 ], [ -3.4115, 40.5831 ], [ -3.411, 40.5836 ], [ -3.4109, 40.5839 ], [ -3.4108, 40.5839 ], [ -3.4107, 40.5844 ], [ -3.4105, 40.5844 ], [ -3.4102, 40.5839 ], [ -3.4096, 40.5838 ], [ -3.4095, 40.5844 ], [ -3.4089, 40.5844 ], [ -3.4086, 40.5841 ], [ -3.4083, 40.5841 ], [ -3.4082, 40.5845 ], [ -3.4078, 40.5847 ], [ -3.4079, 40.5849 ], [ -3.4094, 40.5847 ], [ -3.4104, 40.5848 ], [ -3.4105, 40.5851 ], [ -3.4099, 40.5856 ], [ -3.4092, 40.5853 ], [ -3.4084, 40.5853 ], [ -3.4081, 40.5855 ], [ -3.4064, 40.5858 ], [ -3.4061, 40.5861 ], [ -3.4058, 40.586 ], [ -3.4054, 40.5861 ], [ -3.4055, 40.5866 ], [ -3.4059, 40.5869 ], [ -3.406, 40.5869 ], [ -3.4059, 40.5868 ], [ -3.406, 40.5863 ], [ -3.4066, 40.5864 ], [ -3.407, 40.5863 ], [ -3.4069, 40.5865 ], [ -3.4087, 40.587 ], [ -3.4089, 40.5875 ], [ -3.4093, 40.5876 ], [ -3.4095, 40.5879 ], [ -3.4092, 40.5882 ], [ -3.4092, 40.5884 ], [ -3.4087, 40.5888 ], [ -3.4087, 40.5892 ], [ -3.4085, 40.5896 ], [ -3.408, 40.5897 ], [ -3.4065, 40.5894 ], [ -3.4051, 40.5894 ], [ -3.4049, 40.5896 ], [ -3.405, 40.59 ], [ -3.403, 40.5902 ], [ -3.4032, 40.5904 ], [ -3.404, 40.5904 ], [ -3.4044, 40.5902 ], [ -3.4058, 40.5903 ], [ -3.4064, 40.5897 ], [ -3.4083, 40.5903 ], [ -3.4089, 40.5912 ], [ -3.4089, 40.5916 ], [ -3.409, 40.5916 ], [ -3.4087, 40.5921 ], [ -3.4084, 40.5932 ], [ -3.4082, 40.5933 ], [ -3.4081, 40.5941 ], [ -3.4077, 40.5941 ], [ -3.4073, 40.5938 ], [ -3.4066, 40.5936 ], [ -3.4056, 40.5928 ], [ -3.4044, 40.5923 ], [ -3.4023, 40.5921 ], [ -3.4018, 40.5925 ], [ -3.403, 40.5926 ], [ -3.4033, 40.593 ], [ -3.4062, 40.5942 ], [ -3.4081, 40.5955 ], [ -3.4077, 40.596 ], [ -3.4081, 40.5967 ], [ -3.4082, 40.5972 ], [ -3.4084, 40.5973 ], [ -3.4087, 40.598 ], [ -3.4087, 40.5983 ], [ -3.4086, 40.5984 ], [ -3.408, 40.5982 ], [ -3.4067, 40.5986 ], [ -3.4055, 40.5993 ], [ -3.4034, 40.6013 ], [ -3.4026, 40.6027 ], [ -3.4026, 40.6031 ], [ -3.402, 40.6034 ], [ -3.4022, 40.604 ], [ -3.402, 40.605 ], [ -3.4022, 40.6057 ], [ -3.4022, 40.6063 ], [ -3.4024, 40.6068 ], [ -3.4024, 40.609 ], [ -3.4023, 40.6092 ], [ -3.4016, 40.6096 ], [ -3.4007, 40.6095 ], [ -3.3999, 40.6098 ], [ -3.399, 40.6109 ], [ -3.3984, 40.6108 ], [ -3.3969, 40.611 ], [ -3.398, 40.6113 ], [ -3.3981, 40.6115 ], [ -3.3978, 40.6116 ], [ -3.3978, 40.6118 ], [ -3.3976, 40.6118 ], [ -3.3974, 40.6121 ], [ -3.3972, 40.6121 ], [ -3.3972, 40.612 ], [ -3.3968, 40.6124 ], [ -3.3963, 40.6126 ], [ -3.3963, 40.6125 ], [ -3.396, 40.6125 ], [ -3.3957, 40.6123 ], [ -3.395, 40.6123 ], [ -3.3949, 40.6124 ], [ -3.3955, 40.6124 ], [ -3.3961, 40.6127 ], [ -3.3959, 40.6129 ], [ -3.3957, 40.614 ], [ -3.3953, 40.6144 ], [ -3.3953, 40.6146 ], [ -3.3949, 40.6153 ], [ -3.394, 40.6158 ], [ -3.3937, 40.6168 ], [ -3.3932, 40.6166 ], [ -3.3932, 40.6163 ], [ -3.393, 40.6162 ], [ -3.393, 40.616 ], [ -3.3927, 40.6157 ], [ -3.3915, 40.6154 ], [ -3.3915, 40.6151 ], [ -3.3911, 40.615 ], [ -3.3901, 40.6151 ], [ -3.3894, 40.6147 ], [ -3.389, 40.6147 ], [ -3.3864, 40.6139 ], [ -3.3853, 40.6137 ], [ -3.3843, 40.6125 ], [ -3.3843, 40.6121 ], [ -3.3845, 40.6118 ], [ -3.3863, 40.6114 ], [ -3.3885, 40.6124 ], [ -3.3887, 40.6122 ], [ -3.3891, 40.6122 ], [ -3.3892, 40.6119 ], [ -3.389, 40.6112 ], [ -3.3895, 40.6106 ], [ -3.3896, 40.6094 ], [ -3.3916, 40.6099 ], [ -3.392, 40.6101 ], [ -3.3921, 40.6103 ], [ -3.3927, 40.6103 ], [ -3.3932, 40.6105 ], [ -3.394, 40.6103 ], [ -3.3936, 40.6101 ], [ -3.3931, 40.6101 ], [ -3.3928, 40.6099 ], [ -3.3919, 40.6098 ], [ -3.3911, 40.6093 ], [ -3.3903, 40.6092 ], [ -3.3899, 40.6089 ], [ -3.3897, 40.6089 ], [ -3.3893, 40.6079 ], [ -3.3888, 40.6073 ], [ -3.3884, 40.6072 ], [ -3.3879, 40.6068 ], [ -3.3879, 40.6067 ], [ -3.3886, 40.6065 ], [ -3.3888, 40.6063 ], [ -3.3892, 40.6064 ], [ -3.3896, 40.6062 ], [ -3.3898, 40.606 ], [ -3.3898, 40.6055 ], [ -3.3916, 40.6052 ], [ -3.3916, 40.6048 ], [ -3.391, 40.6043 ], [ -3.3906, 40.6035 ], [ -3.3892, 40.6024 ], [ -3.3891, 40.602 ], [ -3.3895, 40.6015 ], [ -3.3893, 40.6012 ], [ -3.3905, 40.6009 ], [ -3.3906, 40.6006 ], [ -3.3908, 40.6005 ], [ -3.3912, 40.6005 ], [ -3.3922, 40.6009 ], [ -3.3932, 40.6011 ], [ -3.3943, 40.5994 ], [ -3.3945, 40.5992 ], [ -3.3949, 40.5993 ], [ -3.3947, 40.5991 ], [ -3.3951, 40.599 ], [ -3.3953, 40.5988 ], [ -3.3955, 40.5979 ], [ -3.3953, 40.5978 ], [ -3.3952, 40.5972 ], [ -3.3953, 40.5972 ], [ -3.3953, 40.597 ], [ -3.3959, 40.5959 ], [ -3.3964, 40.5955 ], [ -3.3966, 40.5948 ], [ -3.3971, 40.5939 ], [ -3.3972, 40.5939 ], [ -3.3971, 40.5932 ], [ -3.3972, 40.5927 ], [ -3.3963, 40.5924 ], [ -3.3961, 40.5922 ], [ -3.3965, 40.5915 ], [ -3.3967, 40.5908 ], [ -3.3967, 40.5904 ], [ -3.3964, 40.5902 ], [ -3.3963, 40.5897 ], [ -3.3987, 40.5903 ], [ -3.3986, 40.5901 ], [ -3.3984, 40.5901 ], [ -3.3971, 40.5894 ], [ -3.3978, 40.5891 ], [ -3.3984, 40.5886 ], [ -3.3987, 40.5877 ], [ -3.3993, 40.5876 ], [ -3.3992, 40.5874 ], [ -3.3995, 40.5869 ], [ -3.3996, 40.5861 ], [ -3.4007, 40.5851 ], [ -3.3998, 40.5834 ], [ -3.3997, 40.583 ], [ -3.4, 40.5828 ], [ -3.4004, 40.5821 ], [ -3.4004, 40.5818 ], [ -3.4008, 40.5816 ], [ -3.4021, 40.5821 ], [ -3.4027, 40.5819 ], [ -3.4032, 40.582 ], [ -3.4037, 40.5819 ], [ -3.4039, 40.5817 ], [ -3.404, 40.5813 ], [ -3.4033, 40.5809 ], [ -3.402, 40.5808 ], [ -3.4013, 40.581 ], [ -3.4011, 40.5809 ], [ -3.401, 40.5806 ], [ -3.4016, 40.5806 ], [ -3.4023, 40.5803 ], [ -3.4039, 40.5799 ], [ -3.4042, 40.5795 ], [ -3.4042, 40.5792 ], [ -3.4038, 40.579 ], [ -3.4038, 40.5787 ], [ -3.4041, 40.5784 ], [ -3.405, 40.5781 ], [ -3.4017, 40.5782 ], [ -3.4015, 40.5785 ], [ -3.4014, 40.5794 ], [ -3.4012, 40.5797 ], [ -3.4006, 40.58 ], [ -3.3999, 40.581 ], [ -3.3997, 40.5809 ], [ -3.3996, 40.5812 ], [ -3.3991, 40.5817 ], [ -3.3989, 40.5823 ], [ -3.3984, 40.5829 ], [ -3.3984, 40.5832 ], [ -3.3977, 40.5837 ], [ -3.3976, 40.584 ], [ -3.3986, 40.5845 ], [ -3.3985, 40.5854 ], [ -3.3984, 40.5854 ], [ -3.3979, 40.5868 ], [ -3.3966, 40.589 ], [ -3.3964, 40.5892 ], [ -3.3951, 40.5898 ], [ -3.3951, 40.5903 ], [ -3.3949, 40.5907 ], [ -3.3939, 40.592 ], [ -3.394, 40.5926 ], [ -3.395, 40.5937 ], [ -3.3948, 40.5945 ], [ -3.3945, 40.5947 ], [ -3.3939, 40.5957 ], [ -3.3936, 40.5966 ], [ -3.3935, 40.5975 ], [ -3.3924, 40.5985 ], [ -3.392, 40.5993 ], [ -3.3918, 40.5994 ], [ -3.3915, 40.5994 ], [ -3.3915, 40.5993 ], [ -3.3911, 40.5992 ], [ -3.3909, 40.5993 ], [ -3.3897, 40.6007 ], [ -3.3891, 40.6009 ], [ -3.3887, 40.6008 ], [ -3.3885, 40.6015 ], [ -3.3878, 40.6019 ], [ -3.3888, 40.6025 ], [ -3.3888, 40.6027 ], [ -3.3885, 40.6029 ], [ -3.3873, 40.6028 ], [ -3.3871, 40.603 ], [ -3.388, 40.6037 ], [ -3.388, 40.604 ], [ -3.3883, 40.6045 ], [ -3.3883, 40.6049 ], [ -3.3878, 40.6051 ], [ -3.387, 40.6048 ], [ -3.3864, 40.6052 ], [ -3.3855, 40.6053 ], [ -3.3855, 40.6055 ], [ -3.3858, 40.6057 ], [ -3.3858, 40.606 ], [ -3.3855, 40.6063 ], [ -3.385, 40.6063 ], [ -3.3848, 40.6069 ], [ -3.3845, 40.607 ], [ -3.3842, 40.6073 ], [ -3.3837, 40.6074 ], [ -3.3832, 40.6079 ], [ -3.3832, 40.6082 ], [ -3.3841, 40.6086 ], [ -3.3846, 40.6086 ], [ -3.3851, 40.6084 ], [ -3.3858, 40.6084 ], [ -3.3861, 40.6087 ], [ -3.386, 40.6092 ], [ -3.3853, 40.6095 ], [ -3.3839, 40.6096 ], [ -3.3837, 40.6099 ], [ -3.3836, 40.6098 ], [ -3.3836, 40.6099 ], [ -3.3812, 40.6107 ], [ -3.3809, 40.612 ], [ -3.3763, 40.6137 ], [ -3.3751, 40.6143 ], [ -3.3744, 40.6148 ], [ -3.3736, 40.6159 ], [ -3.3736, 40.616 ], [ -3.3756, 40.6168 ], [ -3.3771, 40.6178 ], [ -3.3768, 40.6184 ], [ -3.3754, 40.6195 ], [ -3.3744, 40.6206 ], [ -3.375, 40.6217 ], [ -3.3753, 40.622 ], [ -3.3734, 40.6239 ], [ -3.3713, 40.6254 ], [ -3.3717, 40.6258 ], [ -3.3725, 40.6262 ], [ -3.3744, 40.6261 ], [ -3.3753, 40.627 ], [ -3.3757, 40.6277 ], [ -3.3768, 40.6287 ], [ -3.3821, 40.6305 ] ], [ [ -3.3977, 40.612 ], [ -3.3979, 40.6121 ], [ -3.3979, 40.6124 ], [ -3.3976, 40.6135 ], [ -3.3963, 40.6141 ], [ -3.3964, 40.6138 ], [ -3.3963, 40.6131 ], [ -3.3965, 40.6128 ], [ -3.3969, 40.6127 ], [ -3.397, 40.6126 ], [ -3.3969, 40.6125 ], [ -3.3974, 40.6122 ], [ -3.3974, 40.6123 ], [ -3.3977, 40.612 ] ], [ [ -3.3858, 40.624 ], [ -3.3864, 40.6231 ], [ -3.3886, 40.6217 ], [ -3.3917, 40.6209 ], [ -3.3918, 40.6211 ], [ -3.3909, 40.6213 ], [ -3.3901, 40.6221 ], [ -3.39, 40.6225 ], [ -3.3894, 40.6231 ], [ -3.3892, 40.6236 ], [ -3.3892, 40.624 ], [ -3.3885, 40.6245 ], [ -3.3877, 40.6253 ], [ -3.3872, 40.6254 ], [ -3.3861, 40.626 ], [ -3.3857, 40.6259 ], [ -3.3849, 40.6247 ], [ -3.3858, 40.624 ] ], [ [ -3.3832, 40.6293 ], [ -3.3821, 40.6297 ], [ -3.3819, 40.6295 ], [ -3.3808, 40.6292 ], [ -3.3795, 40.6285 ], [ -3.379, 40.6278 ], [ -3.3784, 40.6274 ], [ -3.3782, 40.6274 ], [ -3.3781, 40.6272 ], [ -3.3789, 40.6254 ], [ -3.3791, 40.6248 ], [ -3.379, 40.6242 ], [ -3.3792, 40.624 ], [ -3.3795, 40.6239 ], [ -3.3804, 40.6244 ], [ -3.3808, 40.6242 ], [ -3.3822, 40.6242 ], [ -3.3843, 40.6252 ], [ -3.3848, 40.6261 ], [ -3.3844, 40.627 ], [ -3.3835, 40.6279 ], [ -3.3834, 40.6283 ], [ -3.3835, 40.6289 ], [ -3.3832, 40.6293 ] ], [ [ -3.3917, 40.6209 ], [ -3.3929, 40.6194 ], [ -3.382, 40.6135 ], [ -3.3826, 40.6132 ], [ -3.3828, 40.6129 ], [ -3.382, 40.6124 ], [ -3.382, 40.6121 ], [ -3.383, 40.6124 ], [ -3.3839, 40.613 ], [ -3.3844, 40.6135 ], [ -3.3853, 40.614 ], [ -3.3873, 40.6145 ], [ -3.3874, 40.6144 ], [ -3.3875, 40.6146 ], [ -3.3879, 40.6146 ], [ -3.3893, 40.6151 ], [ -3.3908, 40.6154 ], [ -3.3911, 40.6156 ], [ -3.3925, 40.616 ], [ -3.3926, 40.6164 ], [ -3.3928, 40.6164 ], [ -3.3931, 40.6169 ], [ -3.3934, 40.617 ], [ -3.3936, 40.6173 ], [ -3.3936, 40.6176 ], [ -3.3938, 40.6177 ], [ -3.3942, 40.6161 ], [ -3.3949, 40.6158 ], [ -3.3952, 40.6171 ], [ -3.3951, 40.6176 ], [ -3.3954, 40.6181 ], [ -3.3952, 40.6189 ], [ -3.3936, 40.6211 ], [ -3.3923, 40.6208 ], [ -3.3917, 40.6209 ] ] ] } },
{ "type": "Feature", "properties": { "municipio": "Fresno de Torote", "clasificacion": "no-urbanizable-protegido", "calificacion": "sin-asignar", "version": "vigente", "fuente": "SIT-CAM WFS — UsoDelSuelo:VPLA_V_CLASIFICACION (https://idem.comunidad.madrid/geosrvg/ows)", "fecha_dato": "2026-05-12", "ambito": "66245", "_raw_CD_SIGLAS": "SNUP", "_raw_DS_CLASIF_GEN": "Suelo No Urbanizable Protegido", "_raw_DS_CLASIF_DET": "Suelo no Urbanizable de Protección Monte Preservado", "_raw_DS_DOCU": "PLAN GENERAL", "_raw_DS_LEY": "CM Ley 9/2001, E Ley 6/1998", "_raw_FC_AC": "2006-09-07", "_raw_NM_AREA_M2": 157815.10519555499, "_cam_code": "057" }, "geometry": { "type": "Polygon", "coordinates": [ [ [ -3.4174, 40.6452 ], [ -3.4191, 40.6458 ], [ -3.4203, 40.6458 ], [ -3.4214, 40.6443 ], [ -3.4216, 40.6431 ], [ -3.4218, 40.643 ], [ -3.4221, 40.6425 ], [ -3.4222, 40.6406 ], [ -3.4225, 40.6403 ], [ -3.4207, 40.6415 ], [ -3.4151, 40.6447 ], [ -3.4162, 40.6452 ], [ -3.4174, 40.6452 ] ] ] } },
{ "type": "Feature", "properties": { "municipio": "Fresno de Torote", "clasificacion": "no-urbanizable-protegido", "calificacion": "sin-asignar", "version": "vigente", "fuente": "SIT-CAM WFS — UsoDelSuelo:VPLA_V_CLASIFICACION (https://idem.comunidad.madrid/geosrvg/ows)", "fecha_dato": "2026-05-12", "ambito": "66245", "_raw_CD_SIGLAS": "SNUP", "_raw_DS_CLASIF_GEN": "Suelo No Urbanizable Protegido", "_raw_DS_CLASIF_DET": "Suelo No Urbanizable de Protección Paisajístico", "_raw_DS_DOCU": "PLAN GENERAL", "_raw_DS_LEY": "CM Ley 9/2001, E Ley 6/1998", "_raw_FC_AC": "2006-09-07", "_raw_NM_AREA_M2": 20077.402536740399, "_cam_code": "057" }, "geometry": { "type": "Polygon", "coordinates": [ [ [ -3.416, 40.581 ], [ -3.4166, 40.5824 ], [ -3.4168, 40.582 ], [ -3.4182, 40.5807 ], [ -3.4173, 40.5804 ], [ -3.4172, 40.5809 ], [ -3.4169, 40.5806 ], [ -3.4161, 40.5804 ], [ -3.416, 40.581 ] ] ] } },
{ "type": "Feature", "properties": { "municipio": "Fresno de Torote", "clasificacion": "urbanizable-sectorizado", "calificacion": "sin-asignar", "version": "vigente", "fuente": "SIT-CAM WFS — UsoDelSuelo:VPLA_V_CLASIFICACION (https://idem.comunidad.madrid/geosrvg/ows)", "fecha_dato": "2026-05-12", "ambito": "66245", "_raw_CD_SIGLAS": "SUBS", "_raw_DS_CLASIF_GEN": "Suelo Urbanizable Sectorizado", "_raw_DS_CLASIF_DET": "Suelo Urbanizable Sectorizado", "_raw_DS_DOCU": "PLAN GENERAL", "_raw_DS_LEY": "CM Ley 9/2001, E Ley 6/1998", "_raw_FC_AC": "2006-09-07", "_raw_NM_AREA_M2": 1187533.85007447, "_cam_code": "057" }, "geometry": { "type": "Polygon", "coordinates": [ [ [ -3.3868, 40.6327 ], [ -3.3902, 40.6345 ], [ -3.3955, 40.6368 ], [ -3.3968, 40.6372 ], [ -3.3981, 40.6325 ], [ -3.3998, 40.6287 ], [ -3.3989, 40.6279 ], [ -3.3985, 40.6278 ], [ -3.3985, 40.6277 ], [ -3.3981, 40.6275 ], [ -3.3973, 40.6267 ], [ -3.3971, 40.6261 ], [ -3.3962, 40.6255 ], [ -3.3965, 40.6252 ], [ -3.3955, 40.6247 ], [ -3.3956, 40.6247 ], [ -3.3955, 40.6247 ], [ -3.3954, 40.6247 ], [ -3.3956, 40.6244 ], [ -3.395, 40.6241 ], [ -3.394, 40.623 ], [ -3.393, 40.6231 ], [ -3.3924, 40.6215 ], [ -3.3918, 40.6214 ], [ -3.3917, 40.6216 ], [ -3.3912, 40.6217 ], [ -3.3905, 40.623 ], [ -3.3905, 40.6236 ], [ -3.3897, 40.6244 ], [ -3.3891, 40.6254 ], [ -3.3886, 40.6257 ], [ -3.389, 40.6267 ], [ -3.3891, 40.6267 ], [ -3.3891, 40.6271 ], [ -3.3888, 40.6273 ], [ -3.3887, 40.6272 ], [ -3.3888, 40.6268 ], [ -3.3882, 40.6265 ], [ -3.388, 40.6268 ], [ -3.3879, 40.6273 ], [ -3.3875, 40.6279 ], [ -3.3874, 40.6286 ], [ -3.387, 40.6288 ], [ -3.3869, 40.6293 ], [ -3.3863, 40.6299 ], [ -3.3855, 40.6297 ], [ -3.3859, 40.6291 ], [ -3.3855, 40.6291 ], [ -3.3852, 40.6293 ], [ -3.385, 40.6297 ], [ -3.385, 40.6304 ], [ -3.3845, 40.6311 ], [ -3.3868, 40.6327 ] ], [ [ -3.3907, 40.6307 ], [ -3.3912, 40.6309 ], [ -3.391, 40.6314 ], [ -3.3903, 40.631 ], [ -3.3907, 40.6306 ], [ -3.3907, 40.6307 ] ] ] } },
{ "type": "Feature", "properties": { "municipio": "Fresno de Torote", "clasificacion": "urbanizable-sectorizado", "calificacion": "sin-asignar", "version": "vigente", "fuente": "SIT-CAM WFS — UsoDelSuelo:VPLA_V_CLASIFICACION (https://idem.comunidad.madrid/geosrvg/ows)", "fecha_dato": "2026-05-12", "ambito": "66245", "_raw_CD_SIGLAS": "SUBS", "_raw_DS_CLASIF_GEN": "Suelo Urbanizable Sectorizado", "_raw_DS_CLASIF_DET": "Suelo Urbanizable Sectorizado", "_raw_DS_DOCU": "PLAN GENERAL", "_raw_DS_LEY": "CM Ley 9/2001, E Ley 6/1998", "_raw_FC_AC": "2006-09-07", "_raw_NM_AREA_M2": 1699.25800259223, "_cam_code": "057" }, "geometry": { "type": "Polygon", "coordinates": [ [ [ -3.4058, 40.6156 ], [ -3.4057, 40.616 ], [ -3.4056, 40.616 ], [ -3.4054, 40.6165 ], [ -3.406, 40.6162 ], [ -3.406, 40.6159 ], [ -3.4059, 40.6159 ], [ -3.4058, 40.6156 ] ] ] } },
{ "type": "Feature", "properties": { "municipio": "Fresno de Torote", "clasificacion": "urbanizable-sectorizado", "calificacion": "sin-asignar", "version": "vigente", "fuente": "SIT-CAM WFS — UsoDelSuelo:VPLA_V_CLASIFICACION (https://idem.comunidad.madrid/geosrvg/ows)", "fecha_dato": "2026-05-12", "ambito": "66245", "_raw_CD_SIGLAS": "SUBS", "_raw_DS_CLASIF_GEN": "Suelo Urbanizable Sectorizado", "_raw_DS_CLASIF_DET": "Suelo Urbanizable Sectorizado", "_raw_DS_DOCU": "PLAN GENERAL", "_raw_DS_LEY": "CM Ley 9/2001, E Ley 6/1998", "_raw_FC_AC": "2006-09-07", "_raw_NM_AREA_M2": 594898.23233278305, "_cam_code": "057" }, "geometry": { "type": "Polygon", "coordinates": [ [ [ -3.3959, 40.6172 ], [ -3.3957, 40.6179 ], [ -3.3959, 40.6189 ], [ -3.3956, 40.6193 ], [ -3.3967, 40.6196 ], [ -3.3967, 40.6193 ], [ -3.3969, 40.6189 ], [ -3.3969, 40.6183 ], [ -3.397, 40.6183 ], [ -3.397, 40.618 ], [ -3.3974, 40.6176 ], [ -3.3976, 40.6172 ], [ -3.3977, 40.6166 ], [ -3.3988, 40.6155 ], [ -3.4, 40.615 ], [ -3.4003, 40.615 ], [ -3.4015, 40.6157 ], [ -3.4026, 40.6161 ], [ -3.4026, 40.6162 ], [ -3.4031, 40.6164 ], [ -3.4035, 40.6168 ], [ -3.4045, 40.6173 ], [ -3.4048, 40.6176 ], [ -3.4048, 40.6174 ], [ -3.4049, 40.6174 ], [ -3.4052, 40.6165 ], [ -3.4053, 40.6165 ], [ -3.406, 40.6147 ], [ -3.4079, 40.6106 ], [ -3.4055, 40.6087 ], [ -3.4061, 40.6078 ], [ -3.4061, 40.6076 ], [ -3.407, 40.6071 ], [ -3.4069, 40.6069 ], [ -3.406, 40.6064 ], [ -3.406, 40.6063 ], [ -3.4058, 40.6063 ], [ -3.4041, 40.6083 ], [ -3.4033, 40.6089 ], [ -3.4028, 40.61 ], [ -3.4021, 40.6106 ], [ -3.4009, 40.6111 ], [ -3.4, 40.6113 ], [ -3.3995, 40.6112 ], [ -3.3988, 40.6115 ], [ -3.3983, 40.612 ], [ -3.3984, 40.613 ], [ -3.3983, 40.6137 ], [ -3.3974, 40.6144 ], [ -3.396, 40.6149 ], [ -3.3957, 40.6152 ], [ -3.3955, 40.6166 ], [ -3.3956, 40.6171 ], [ -3.3957, 40.6169 ], [ -3.3959, 40.6172 ] ] ] } },
{ "type": "Feature", "properties": { "municipio": "Fresno de Torote", "clasificacion": "urbanizable-sectorizado", "calificacion": "sin-asignar", "version": "vigente", "fuente": "SIT-CAM WFS — UsoDelSuelo:VPLA_V_CLASIFICACION (https://idem.comunidad.madrid/geosrvg/ows)", "fecha_dato": "2026-05-12", "ambito": "66245", "_raw_CD_SIGLAS": "SUBS", "_raw_DS_CLASIF_GEN": "Suelo Urbanizable Sectorizado", "_raw_DS_CLASIF_DET": "Suelo Urbanizable Sectorizado", "_raw_DS_DOCU": "PLAN GENERAL", "_raw_DS_LEY": "CM Ley 9/2001, E Ley 6/1998", "_raw_FC_AC": "2006-09-07", "_raw_NM_AREA_M2": 307461.33146532503, "_cam_code": "057" }, "geometry": { "type": "Polygon", "coordinates": [ [ [ -3.4, 40.6286 ], [ -3.3994, 40.63 ], [ -3.4057, 40.6324 ], [ -3.4064, 40.6328 ], [ -3.407, 40.6318 ], [ -3.4072, 40.6312 ], [ -3.4073, 40.63 ], [ -3.407, 40.6287 ], [ -3.4065, 40.6245 ], [ -3.4064, 40.6245 ], [ -3.4063, 40.6241 ], [ -3.4058, 40.6236 ], [ -3.4056, 40.6236 ], [ -3.4054, 40.6234 ], [ -3.404, 40.6228 ], [ -3.4028, 40.6225 ], [ -3.4021, 40.624 ], [ -3.4046, 40.6252 ], [ -3.4048, 40.6252 ], [ -3.4052, 40.6256 ], [ -3.4054, 40.6264 ], [ -3.4053, 40.6265 ], [ -3.4054, 40.6267 ], [ -3.4054, 40.6271 ], [ -3.4053, 40.6271 ], [ -3.4054, 40.6276 ], [ -3.4061, 40.628 ], [ -3.4051, 40.6288 ], [ -3.4031, 40.6291 ], [ -3.4011, 40.6284 ], [ -3.4003, 40.6285 ], [ -3.4, 40.6286 ] ] ] } },
{ "type": "Feature", "properties": { "municipio": "Fresno de Torote", "clasificacion": "urbano-consolidado", "calificacion": "sin-asignar", "version": "vigente", "fuente": "SIT-CAM WFS — UsoDelSuelo:VPLA_V_CLASIFICACION (https://idem.comunidad.madrid/geosrvg/ows)", "fecha_dato": "2026-05-12", "ambito": "66245", "_raw_CD_SIGLAS": "SUC", "_raw_DS_CLASIF_GEN": "Suelo Urbano Consolidado", "_raw_DS_CLASIF_DET": "Suelo Urbano Consolidado", "_raw_DS_DOCU": "PLAN GENERAL", "_raw_DS_LEY": "CM Ley 9/2001, E Ley 6/1998", "_raw_FC_AC": "2006-09-07", "_raw_NM_AREA_M2": 2370748.4223202099, "_cam_code": "057" }, "geometry": { "type": "Polygon", "coordinates": [ [ [ -3.398, 40.6329 ], [ -3.3968, 40.6372 ], [ -3.3997, 40.6382 ], [ -3.4043, 40.6403 ], [ -3.4045, 40.6403 ], [ -3.4045, 40.6404 ], [ -3.4055, 40.6407 ], [ -3.4101, 40.6427 ], [ -3.4137, 40.6441 ], [ -3.4142, 40.6444 ], [ -3.4201, 40.6411 ], [ -3.4201, 40.641 ], [ -3.4218, 40.6399 ], [ -3.4226, 40.6391 ], [ -3.4064, 40.6327 ], [ -3.4064, 40.6328 ], [ -3.4057, 40.6324 ], [ -3.4014, 40.6308 ], [ -3.4009, 40.6306 ], [ -3.4009, 40.6305 ], [ -3.3994, 40.63 ], [ -3.4, 40.6286 ], [ -3.4003, 40.6285 ], [ -3.4011, 40.6284 ], [ -3.403, 40.6291 ], [ -3.4051, 40.6288 ], [ -3.4049, 40.6279 ], [ -3.4036, 40.6281 ], [ -3.4036, 40.6279 ], [ -3.4001, 40.6284 ], [ -3.4006, 40.6274 ], [ -3.4013, 40.6274 ], [ -3.4013, 40.6272 ], [ -3.4015, 40.6273 ], [ -3.4045, 40.6271 ], [ -3.4043, 40.6269 ], [ -3.4044, 40.6268 ], [ -3.4042, 40.6264 ], [ -3.4037, 40.6258 ], [ -3.4038, 40.6257 ], [ -3.4023, 40.6256 ], [ -3.4015, 40.6253 ], [ -3.4042, 40.6192 ], [ -3.4043, 40.6192 ], [ -3.4056, 40.616 ], [ -3.4057, 40.616 ], [ -3.4062, 40.6149 ], [ -3.408, 40.6107 ], [ -3.4079, 40.6106 ], [ -3.406, 40.6147 ], [ -3.4053, 40.6165 ], [ -3.4052, 40.6165 ], [ -3.4049, 40.6174 ], [ -3.4048, 40.6174 ], [ -3.4048, 40.6176 ], [ -3.4045, 40.6173 ], [ -3.4035, 40.6168 ], [ -3.4031, 40.6164 ], [ -3.4026, 40.6162 ], [ -3.4026, 40.6161 ], [ -3.4015, 40.6157 ], [ -3.4003, 40.615 ], [ -3.4, 40.615 ], [ -3.3988, 40.6155 ], [ -3.3977, 40.6166 ], [ -3.3976, 40.6169 ], [ -3.3977, 40.617 ], [ -3.3977, 40.6177 ], [ -3.3973, 40.6188 ], [ -3.3978, 40.6192 ], [ -3.3977, 40.6195 ], [ -3.3976, 40.6196 ], [ -3.3971, 40.6196 ], [ -3.397, 40.6195 ], [ -3.3967, 40.6196 ], [ -3.3956, 40.6193 ], [ -3.395, 40.6202 ], [ -3.3953, 40.6205 ], [ -3.3956, 40.6206 ], [ -3.3956, 40.6209 ], [ -3.3953, 40.6209 ], [ -3.3949, 40.6212 ], [ -3.3946, 40.6222 ], [ -3.3946, 40.6226 ], [ -3.395, 40.623 ], [ -3.3956, 40.623 ], [ -3.396, 40.6229 ], [ -3.3962, 40.6229 ], [ -3.3964, 40.6229 ], [ -3.3966, 40.6229 ], [ -3.3965, 40.6229 ], [ -3.3963, 40.6235 ], [ -3.3963, 40.6236 ], [ -3.3961, 40.624 ], [ -3.3954, 40.6247 ], [ -3.3955, 40.6247 ], [ -3.3956, 40.6247 ], [ -3.3955, 40.6247 ], [ -3.3965, 40.6252 ], [ -3.3962, 40.6255 ], [ -3.3971, 40.6261 ], [ -3.3973, 40.6267 ], [ -3.3981, 40.6275 ], [ -3.3985, 40.6277 ], [ -3.3985, 40.6278 ], [ -3.3989, 40.6279 ], [ -3.3998, 40.6287 ], [ -3.398, 40.6329 ] ], [ [ -3.4024, 40.6206 ], [ -3.4015, 40.6213 ], [ -3.4012, 40.6217 ], [ -3.4005, 40.6213 ], [ -3.4, 40.6208 ], [ -3.4023, 40.6176 ], [ -3.4044, 40.6182 ], [ -3.4045, 40.6181 ], [ -3.4039, 40.6197 ], [ -3.4035, 40.6204 ], [ -3.4023, 40.6196 ], [ -3.4022, 40.6197 ], [ -3.4024, 40.6199 ], [ -3.4023, 40.6203 ], [ -3.4024, 40.6206 ] ] ] } },
{ "type": "Feature", "properties": { "municipio": "Fresno de Torote", "clasificacion": "urbano-consolidado", "calificacion": "sin-asignar", "version": "vigente", "fuente": "SIT-CAM WFS — UsoDelSuelo:VPLA_V_CLASIFICACION (https://idem.comunidad.madrid/geosrvg/ows)", "fecha_dato": "2026-05-12", "ambito": "66245", "_raw_CD_SIGLAS": "SUC", "_raw_DS_CLASIF_GEN": "Suelo Urbano Consolidado", "_raw_DS_CLASIF_DET": "Suelo Urbano Consolidado", "_raw_DS_DOCU": "PLAN GENERAL", "_raw_DS_LEY": "CM Ley 9/2001, E Ley 6/1998", "_raw_FC_AC": "2006-09-07", "_raw_NM_AREA_M2": 17278.9689321236, "_cam_code": "057" }, "geometry": { "type": "Polygon", "coordinates": [ [ [ -3.394, 40.623 ], [ -3.3946, 40.6237 ], [ -3.3944, 40.6229 ], [ -3.394, 40.6227 ], [ -3.3939, 40.6221 ], [ -3.3935, 40.6217 ], [ -3.3924, 40.6215 ], [ -3.393, 40.6231 ], [ -3.394, 40.623 ] ] ] } },
{ "type": "Feature", "properties": { "municipio": "Fresno de Torote", "clasificacion": "urbano-consolidado", "calificacion": "sin-asignar", "version": "vigente", "fuente": "SIT-CAM WFS — UsoDelSuelo:VPLA_V_CLASIFICACION (https://idem.comunidad.madrid/geosrvg/ows)", "fecha_dato": "2026-05-12", "ambito": "66245", "_raw_CD_SIGLAS": "SUC", "_raw_DS_CLASIF_GEN": "Suelo Urbano Consolidado", "_raw_DS_CLASIF_DET": "Suelo Urbano Consolidado", "_raw_DS_DOCU": "PLAN GENERAL", "_raw_DS_LEY": "CM Ley 9/2001, E Ley 6/1998", "_raw_FC_AC": "2006-09-07", "_raw_NM_AREA_M2": 3264.3775415475402, "_cam_code": "057" }, "geometry": { "type": "Polygon", "coordinates": [ [ [ -3.3903, 40.631 ], [ -3.391, 40.6314 ], [ -3.3912, 40.6309 ], [ -3.3907, 40.6307 ], [ -3.3907, 40.6306 ], [ -3.3903, 40.631 ] ] ] } },
{ "type": "Feature", "properties": { "municipio": "Fresno de Torote", "clasificacion": "urbano-no-consolidado", "calificacion": "sin-asignar", "version": "vigente", "fuente": "SIT-CAM WFS — UsoDelSuelo:VPLA_V_CLASIFICACION (https://idem.comunidad.madrid/geosrvg/ows)", "fecha_dato": "2026-05-12", "ambito": "66245", "_raw_CD_SIGLAS": "SUNC", "_raw_DS_CLASIF_GEN": "Suelo Urbano No Consolidado", "_raw_DS_CLASIF_DET": "Suelo Urbano No Consolidado", "_raw_DS_DOCU": "PLAN GENERAL", "_raw_DS_LEY": "CM Ley 9/2001, E Ley 6/1998", "_raw_FC_AC": "2006-09-07", "_raw_NM_AREA_M2": 57780.969760857297, "_cam_code": "057" }, "geometry": { "type": "Polygon", "coordinates": [ [ [ -3.4136, 40.5936 ], [ -3.4147, 40.5939 ], [ -3.4154, 40.5928 ], [ -3.4142, 40.5923 ], [ -3.414, 40.5926 ], [ -3.4126, 40.592 ], [ -3.4128, 40.5915 ], [ -3.4133, 40.5909 ], [ -3.4125, 40.5907 ], [ -3.4122, 40.5913 ], [ -3.412, 40.5912 ], [ -3.4119, 40.5913 ], [ -3.4121, 40.5915 ], [ -3.4118, 40.5918 ], [ -3.4119, 40.5918 ], [ -3.4117, 40.5922 ], [ -3.4118, 40.5922 ], [ -3.4111, 40.5935 ], [ -3.4119, 40.5936 ], [ -3.4122, 40.5938 ], [ -3.4123, 40.5937 ], [ -3.4134, 40.5937 ], [ -3.4136, 40.5936 ] ] ] } },
{ "type": "Feature", "properties": { "municipio": "Fresno de Torote", "clasificacion": "urbano-no-consolidado", "calificacion": "sin-asignar", "version": "vigente", "fuente": "SIT-CAM WFS — UsoDelSuelo:VPLA_V_CLASIFICACION (https://idem.comunidad.madrid/geosrvg/ows)", "fecha_dato": "2026-05-12", "ambito": "66245", "_raw_CD_SIGLAS": "SUNC", "_raw_DS_CLASIF_GEN": "Suelo Urbano No Consolidado", "_raw_DS_CLASIF_DET": "Suelo Urbano No Consolidado", "_raw_DS_DOCU": "PLAN GENERAL", "_raw_DS_LEY": "CM Ley 9/2001, E Ley 6/1998", "_raw_FC_AC": "2006-09-07", "_raw_NM_AREA_M2": 94363.015745565805, "_cam_code": "057" }, "geometry": { "type": "Polygon", "coordinates": [ [ [ -3.4049, 40.6279 ], [ -3.4051, 40.6288 ], [ -3.4061, 40.628 ], [ -3.4054, 40.6276 ], [ -3.4053, 40.6271 ], [ -3.4054, 40.6271 ], [ -3.4053, 40.6265 ], [ -3.4054, 40.6264 ], [ -3.4052, 40.6256 ], [ -3.4048, 40.6252 ], [ -3.4046, 40.6252 ], [ -3.4021, 40.624 ], [ -3.4015, 40.6253 ], [ -3.4023, 40.6256 ], [ -3.4038, 40.6257 ], [ -3.4037, 40.6258 ], [ -3.4042, 40.6264 ], [ -3.4044, 40.6268 ], [ -3.4043, 40.6269 ], [ -3.4045, 40.6271 ], [ -3.4015, 40.6273 ], [ -3.4013, 40.6272 ], [ -3.4013, 40.6274 ], [ -3.4006, 40.6274 ], [ -3.4001, 40.6284 ], [ -3.4036, 40.6279 ], [ -3.4036, 40.6281 ], [ -3.4047, 40.6279 ], [ -3.4049, 40.6279 ] ] ] } },
{ "type": "Feature", "properties": { "municipio": "Fresno de Torote", "clasificacion": "urbano-no-consolidado", "calificacion": "sin-asignar", "version": "vigente", "fuente": "SIT-CAM WFS — UsoDelSuelo:VPLA_V_CLASIFICACION (https://idem.comunidad.madrid/geosrvg/ows)", "fecha_dato": "2026-05-12", "ambito": "66245", "_raw_CD_SIGLAS": "SUNC", "_raw_DS_CLASIF_GEN": "Suelo Urbano No Consolidado", "_raw_DS_CLASIF_DET": "Suelo Urbano No Consolidado", "_raw_DS_DOCU": "PLAN GENERAL", "_raw_DS_LEY": "CM Ley 9/2001, E Ley 6/1998", "_raw_FC_AC": "2006-09-07", "_raw_NM_AREA_M2": 19614.642814301798, "_cam_code": "057" }, "geometry": { "type": "Polygon", "coordinates": [ [ [ -3.3946, 40.6237 ], [ -3.395, 40.6241 ], [ -3.3957, 40.6244 ], [ -3.3961, 40.624 ], [ -3.3963, 40.6236 ], [ -3.3963, 40.6235 ], [ -3.3965, 40.6229 ], [ -3.3966, 40.6229 ], [ -3.3964, 40.6229 ], [ -3.396, 40.6229 ], [ -3.3956, 40.623 ], [ -3.3945, 40.623 ], [ -3.3944, 40.6229 ], [ -3.3946, 40.6237 ] ] ] } },
{ "type": "Feature", "properties": { "municipio": "Fresno de Torote", "clasificacion": "urbano-no-consolidado", "calificacion": "sin-asignar", "version": "vigente", "fuente": "SIT-CAM WFS — UsoDelSuelo:VPLA_V_CLASIFICACION (https://idem.comunidad.madrid/geosrvg/ows)", "fecha_dato": "2026-05-12", "ambito": "66245", "_raw_CD_SIGLAS": "SUNC", "_raw_DS_CLASIF_GEN": "Suelo Urbano No Consolidado", "_raw_DS_CLASIF_DET": "Suelo Urbano No Consolidado", "_raw_DS_DOCU": "PLAN GENERAL", "_raw_DS_LEY": "CM Ley 9/2001, E Ley 6/1998", "_raw_FC_AC": "2006-09-07", "_raw_NM_AREA_M2": 80860.5248199497, "_cam_code": "057" }, "geometry": { "type": "Polygon", "coordinates": [ [ [ -3.4023, 40.6176 ], [ -3.4, 40.6208 ], [ -3.4005, 40.6213 ], [ -3.4012, 40.6217 ], [ -3.4015, 40.6213 ], [ -3.4024, 40.6206 ], [ -3.4023, 40.6203 ], [ -3.4024, 40.6199 ], [ -3.4022, 40.6197 ], [ -3.4023, 40.6196 ], [ -3.4035, 40.6204 ], [ -3.4039, 40.6197 ], [ -3.4045, 40.6181 ], [ -3.4044, 40.6182 ], [ -3.4023, 40.6176 ] ] ] } },
{ "type": "Feature", "properties": { "municipio": "Fresno de Torote", "clasificacion": "urbano-no-consolidado", "calificacion": "sin-asignar", "version": "vigente", "fuente": "SIT-CAM WFS — UsoDelSuelo:VPLA_V_CLASIFICACION (https://idem.comunidad.madrid/geosrvg/ows)", "fecha_dato": "2026-05-12", "ambito": "66245", "_raw_CD_SIGLAS": "SUNC", "_raw_DS_CLASIF_GEN": "Suelo Urbano No Consolidado", "_raw_DS_CLASIF_DET": "Suelo Urbano No Consolidado", "_raw_DS_DOCU": "PLAN GENERAL", "_raw_DS_LEY": "CM Ley 9/2001, E Ley 6/1998", "_raw_FC_AC": "2006-09-07", "_raw_NM_AREA_M2": 13140.892064715001, "_cam_code": "057" }, "geometry": { "type": "Polygon", "coordinates": [ [ [ -3.397, 40.6195 ], [ -3.3971, 40.6196 ], [ -3.3976, 40.6196 ], [ -3.3978, 40.6193 ], [ -3.3973, 40.6188 ], [ -3.3977, 40.6177 ], [ -3.3977, 40.617 ], [ -3.3976, 40.6169 ], [ -3.3976, 40.6172 ], [ -3.3974, 40.6176 ], [ -3.397, 40.618 ], [ -3.397, 40.6183 ], [ -3.3969, 40.6183 ], [ -3.3969, 40.6189 ], [ -3.3967, 40.6193 ], [ -3.3967, 40.6196 ], [ -3.397, 40.6195 ] ] ] } }
]
}
