{
"type": "FeatureCollection",
"name": "vigente.full",
"features": [
{ "type": "Feature", "properties": { "municipio": "San Martín de la Vega", "clasificacion": "urbano-consolidado", "calificacion": "equipamiento", "version": "vigente", "fuente": "SIT-CAM WFS — UsoDelSuelo:VPLA_V_CLASIFICACION (https://idem.comunidad.madrid/geosrvg/ows)", "fecha_dato": "2026-05-12", "ambito": "31732", "_raw_CD_SIGLAS": "SG", "_raw_DS_CLASIF_GEN": "Sistemas Generales", "_raw_DS_CLASIF_DET": "Equipamiento Comunitario", "_raw_DS_DOCU": "NORMAS SUBSIDIARIAS", "_raw_DS_LEY": "CM Ley 9/1995, E RDL 1/1992", "_raw_FC_AC": "1996-10-29", "_raw_NM_AREA_M2": 5159801.3795693005, "_cam_code": "132" }, "geometry": { "type": "Polygon", "coordinates": [ [ [ -3.624, 40.2392 ], [ -3.6271, 40.2402 ], [ -3.6284, 40.2402 ], [ -3.631, 40.2398 ], [ -3.6324, 40.2394 ], [ -3.6337, 40.2394 ], [ -3.6348, 40.239 ], [ -3.6363, 40.2387 ], [ -3.6379, 40.2387 ], [ -3.6382, 40.2388 ], [ -3.6392, 40.2375 ], [ -3.6393, 40.2371 ], [ -3.6396, 40.2367 ], [ -3.6373, 40.2369 ], [ -3.6314, 40.2378 ], [ -3.6254, 40.2383 ], [ -3.627, 40.2302 ], [ -3.6271, 40.2302 ], [ -3.6275, 40.2283 ], [ -3.6279, 40.2259 ], [ -3.6252, 40.2251 ], [ -3.6162, 40.2249 ], [ -3.6149, 40.2245 ], [ -3.6141, 40.2245 ], [ -3.6138, 40.2244 ], [ -3.6136, 40.2241 ], [ -3.6126, 40.2238 ], [ -3.6092, 40.224 ], [ -3.6063, 40.2253 ], [ -3.6044, 40.2251 ], [ -3.6041, 40.2292 ], [ -3.6023, 40.2308 ], [ -3.6001, 40.2308 ], [ -3.6004, 40.2246 ], [ -3.5934, 40.2241 ], [ -3.5853, 40.2295 ], [ -3.5853, 40.2343 ], [ -3.5767, 40.2344 ], [ -3.5776, 40.2369 ], [ -3.5805, 40.2367 ], [ -3.5828, 40.2363 ], [ -3.5859, 40.236 ], [ -3.5875, 40.2363 ], [ -3.5911, 40.2374 ], [ -3.5926, 40.2377 ], [ -3.5966, 40.2375 ], [ -3.5985, 40.2379 ], [ -3.6006, 40.238 ], [ -3.6016, 40.2377 ], [ -3.6023, 40.2373 ], [ -3.6024, 40.2364 ], [ -3.6027, 40.2362 ], [ -3.6037, 40.2362 ], [ -3.6036, 40.2365 ], [ -3.6046, 40.2367 ], [ -3.6043, 40.2377 ], [ -3.6048, 40.2379 ], [ -3.6055, 40.238 ], [ -3.6082, 40.2379 ], [ -3.6107, 40.2385 ], [ -3.6143, 40.2381 ], [ -3.6177, 40.2379 ], [ -3.6179, 40.2378 ], [ -3.6188, 40.2379 ], [ -3.6196, 40.2382 ], [ -3.6221, 40.2385 ], [ -3.6234, 40.2391 ], [ -3.624, 40.2392 ] ] ] } },
{ "type": "Feature", "properties": { "municipio": "San Martín de la Vega", "clasificacion": "no-urbanizable-protegido", "calificacion": "sin-asignar", "version": "vigente", "fuente": "SIT-CAM WFS — UsoDelSuelo:VPLA_V_CLASIFICACION (https://idem.comunidad.madrid/geosrvg/ows)", "fecha_dato": "2026-05-12", "ambito": "249", "_raw_CD_SIGLAS": "SNUP", "_raw_DS_CLASIF_GEN": "Suelo No Urbanizable Protegido", "_raw_DS_CLASIF_DET": "Suelo No Urbanizable Especialmente Protegido. De Explotación Ordenada de Recursos Naturales, con Uso Residencial Permisible", "_raw_DS_DOCU": "PLAN DE ORDENACION DE NUCLEO DE POBLACION", "_raw_DS_LEY": "CM Ley 4/1984, E RD 1346/1976", "_raw_FC_AC": "1988-12-20", "_raw_NM_AREA_M2": 545495.56539210002, "_cam_code": "132" }, "geometry": { "type": "Polygon", "coordinates": [ [ [ -3.5329, 40.2429 ], [ -3.5336, 40.2431 ], [ -3.5335, 40.2431 ], [ -3.5337, 40.2433 ], [ -3.5337, 40.2435 ], [ -3.5341, 40.2437 ], [ -3.5352, 40.2441 ], [ -3.5361, 40.2446 ], [ -3.5366, 40.2445 ], [ -3.5366, 40.2436 ], [ -3.5364, 40.243 ], [ -3.5364, 40.2424 ], [ -3.5363, 40.2424 ], [ -3.536, 40.2412 ], [ -3.535, 40.2388 ], [ -3.535, 40.2381 ], [ -3.5351, 40.2381 ], [ -3.5354, 40.2369 ], [ -3.5355, 40.2369 ], [ -3.5355, 40.2362 ], [ -3.535, 40.2359 ], [ -3.535, 40.2357 ], [ -3.5342, 40.2345 ], [ -3.5338, 40.2347 ], [ -3.5336, 40.2344 ], [ -3.5323, 40.2351 ], [ -3.5315, 40.2352 ], [ -3.5315, 40.2353 ], [ -3.5311, 40.2355 ], [ -3.5302, 40.2356 ], [ -3.5302, 40.2354 ], [ -3.5295, 40.2355 ], [ -3.529, 40.2357 ], [ -3.529, 40.2361 ], [ -3.5288, 40.2362 ], [ -3.528, 40.2363 ], [ -3.5278, 40.2362 ], [ -3.5267, 40.2362 ], [ -3.5262, 40.2363 ], [ -3.5265, 40.2396 ], [ -3.5274, 40.2398 ], [ -3.5285, 40.2397 ], [ -3.5286, 40.2399 ], [ -3.5292, 40.2401 ], [ -3.5293, 40.2404 ], [ -3.5295, 40.2404 ], [ -3.5299, 40.2409 ], [ -3.5304, 40.2409 ], [ -3.5307, 40.2414 ], [ -3.5314, 40.2416 ], [ -3.5316, 40.2419 ], [ -3.5327, 40.2426 ], [ -3.5329, 40.2429 ] ] ] } },
{ "type": "Feature", "properties": { "municipio": "San Martín de la Vega", "clasificacion": "no-urbanizable-protegido", "calificacion": "sin-asignar", "version": "vigente", "fuente": "SIT-CAM WFS — UsoDelSuelo:VPLA_V_CLASIFICACION (https://idem.comunidad.madrid/geosrvg/ows)", "fecha_dato": "2026-05-12", "ambito": "31732", "_raw_CD_SIGLAS": "SNUP", "_raw_DS_CLASIF_GEN": "Suelo No Urbanizable Protegido", "_raw_DS_CLASIF_DET": "Suelo No Urbanizable Especialmente Protegido. Con Destino Agrario, Forestal, Recreativo, Educativo y/o Equipamientos Ambientales y/o Usos Especiales", "_raw_DS_DOCU": "NORMAS SUBSIDIARIAS", "_raw_DS_LEY": "CM Ley 9/1995, E RDL 1/1992", "_raw_FC_AC": "1996-10-29", "_raw_NM_AREA_M2": 43911.924141069598, "_cam_code": "132" }, "geometry": { "type": "Polygon", "coordinates": [ [ [ -3.6284, 40.2634 ], [ -3.6283, 40.2634 ], [ -3.6283, 40.2635 ], [ -3.6282, 40.2635 ], [ -3.628, 40.2635 ], [ -3.6277, 40.2636 ], [ -3.6269, 40.2643 ], [ -3.626, 40.2643 ], [ -3.626, 40.2644 ], [ -3.6253, 40.2645 ], [ -3.6245, 40.2649 ], [ -3.6239, 40.2655 ], [ -3.6225, 40.2664 ], [ -3.626, 40.2658 ], [ -3.6284, 40.2634 ] ] ] } },
{ "type": "Feature", "properties": { "municipio": "San Martín de la Vega", "clasificacion": "no-urbanizable-protegido", "calificacion": "sin-asignar", "version": "vigente", "fuente": "SIT-CAM WFS — UsoDelSuelo:VPLA_V_CLASIFICACION (https://idem.comunidad.madrid/geosrvg/ows)", "fecha_dato": "2026-05-12", "ambito": "31732", "_raw_CD_SIGLAS": "SNUP", "_raw_DS_CLASIF_GEN": "Suelo No Urbanizable Protegido", "_raw_DS_CLASIF_DET": "Suelo No Urbanizable Especialmente Protegido. Con Destino Agrario, Forestal, Recreativo, Educativo y/o Equipamientos Ambientales y/o Usos Especiales", "_raw_DS_DOCU": "NORMAS SUBSIDIARIAS", "_raw_DS_LEY": "CM Ley 9/1995, E RDL 1/1992", "_raw_FC_AC": "1996-10-29", "_raw_NM_AREA_M2": 203971.99362256299, "_cam_code": "132" }, "geometry": { "type": "Polygon", "coordinates": [ [ [ -3.5631, 40.2757 ], [ -3.5636, 40.2766 ], [ -3.5646, 40.2793 ], [ -3.5632, 40.2795 ], [ -3.5634, 40.2799 ], [ -3.5655, 40.2803 ], [ -3.5659, 40.2815 ], [ -3.5689, 40.2813 ], [ -3.5694, 40.2804 ], [ -3.5678, 40.2789 ], [ -3.5677, 40.2787 ], [ -3.5678, 40.2776 ], [ -3.5652, 40.2764 ], [ -3.5651, 40.2761 ], [ -3.5656, 40.2749 ], [ -3.5636, 40.2744 ], [ -3.5631, 40.2757 ] ] ] } },
{ "type": "Feature", "properties": { "municipio": "San Martín de la Vega", "clasificacion": "no-urbanizable-protegido", "calificacion": "sin-asignar", "version": "vigente", "fuente": "SIT-CAM WFS — UsoDelSuelo:VPLA_V_CLASIFICACION (https://idem.comunidad.madrid/geosrvg/ows)", "fecha_dato": "2026-05-12", "ambito": "31732", "_raw_CD_SIGLAS": "SNUP", "_raw_DS_CLASIF_GEN": "Suelo No Urbanizable Protegido", "_raw_DS_CLASIF_DET": "Suelo No Urbanizable Especialmente Protegido. Con Destino Agrario, Forestal, Recreativo, Educativo y/o Equipamientos Ambientales y/o Usos Especiales", "_raw_DS_DOCU": "NORMAS SUBSIDIARIAS", "_raw_DS_LEY": "CM Ley 9/1995, E RDL 1/1992", "_raw_FC_AC": "1996-10-29", "_raw_NM_AREA_M2": 131638.888525863, "_cam_code": "132" }, "geometry": { "type": "Polygon", "coordinates": [ [ [ -3.5173, 40.2914 ], [ -3.5194, 40.2938 ], [ -3.5195, 40.2942 ], [ -3.5198, 40.2943 ], [ -3.5216, 40.2943 ], [ -3.5225, 40.294 ], [ -3.5226, 40.2938 ], [ -3.5227, 40.2935 ], [ -3.5226, 40.293 ], [ -3.522, 40.2925 ], [ -3.5214, 40.2924 ], [ -3.5215, 40.292 ], [ -3.5214, 40.2907 ], [ -3.5212, 40.2903 ], [ -3.5207, 40.2898 ], [ -3.5173, 40.2914 ] ] ] } },
{ "type": "Feature", "properties": { "municipio": "San Martín de la Vega", "clasificacion": "no-urbanizable-protegido", "calificacion": "sin-asignar", "version": "vigente", "fuente": "SIT-CAM WFS — UsoDelSuelo:VPLA_V_CLASIFICACION (https://idem.comunidad.madrid/geosrvg/ows)", "fecha_dato": "2026-05-12", "ambito": "31732", "_raw_CD_SIGLAS": "SNUP", "_raw_DS_CLASIF_GEN": "Suelo No Urbanizable Protegido", "_raw_DS_CLASIF_DET": "Suelo No Urbanizable Especialmente Protegido. De Explotación Ordenada de Recursos Naturales", "_raw_DS_DOCU": "NORMAS SUBSIDIARIAS", "_raw_DS_LEY": "CM Ley 9/1995, E RDL 1/1992", "_raw_FC_AC": "1996-10-29", "_raw_NM_AREA_M2": 13376413.3146105, "_cam_code": "132" }, "geometry": { "type": "Polygon", "coordinates": [ [ [ -3.591, 40.2619 ], [ -3.5932, 40.2648 ], [ -3.595, 40.2652 ], [ -3.5954, 40.2657 ], [ -3.5959, 40.2671 ], [ -3.5975, 40.2679 ], [ -3.5977, 40.2687 ], [ -3.5994, 40.271 ], [ -3.5998, 40.272 ], [ -3.603, 40.2711 ], [ -3.6121, 40.2692 ], [ -3.6129, 40.2686 ], [ -3.6147, 40.2684 ], [ -3.6148, 40.2678 ], [ -3.6226, 40.2664 ], [ -3.623, 40.266 ], [ -3.6239, 40.2655 ], [ -3.6245, 40.2649 ], [ -3.6253, 40.2645 ], [ -3.626, 40.2644 ], [ -3.626, 40.2643 ], [ -3.6269, 40.2643 ], [ -3.6277, 40.2636 ], [ -3.6287, 40.2633 ], [ -3.6294, 40.2625 ], [ -3.6312, 40.261 ], [ -3.6325, 40.2595 ], [ -3.6327, 40.2582 ], [ -3.6336, 40.2561 ], [ -3.6337, 40.2542 ], [ -3.6338, 40.2541 ], [ -3.6337, 40.2527 ], [ -3.6341, 40.2514 ], [ -3.6341, 40.2509 ], [ -3.6346, 40.2501 ], [ -3.6345, 40.2498 ], [ -3.6351, 40.2476 ], [ -3.635, 40.2472 ], [ -3.6355, 40.2462 ], [ -3.6362, 40.2436 ], [ -3.6374, 40.2403 ], [ -3.6382, 40.2388 ], [ -3.6379, 40.2387 ], [ -3.6363, 40.2387 ], [ -3.6348, 40.239 ], [ -3.6337, 40.2394 ], [ -3.6324, 40.2394 ], [ -3.631, 40.2398 ], [ -3.6293, 40.2401 ], [ -3.6271, 40.2402 ], [ -3.6234, 40.2391 ], [ -3.6221, 40.2385 ], [ -3.6196, 40.2382 ], [ -3.6188, 40.2379 ], [ -3.6179, 40.2378 ], [ -3.6177, 40.2379 ], [ -3.6143, 40.2381 ], [ -3.6105, 40.2385 ], [ -3.6082, 40.2379 ], [ -3.6055, 40.238 ], [ -3.6023, 40.2373 ], [ -3.6017, 40.2391 ], [ -3.6015, 40.239 ], [ -3.6014, 40.2387 ], [ -3.6011, 40.2386 ], [ -3.5996, 40.2384 ], [ -3.5985, 40.2385 ], [ -3.5974, 40.2389 ], [ -3.5958, 40.2391 ], [ -3.5959, 40.2378 ], [ -3.5961, 40.2375 ], [ -3.5926, 40.2377 ], [ -3.5911, 40.2374 ], [ -3.5875, 40.2363 ], [ -3.5859, 40.236 ], [ -3.5828, 40.2363 ], [ -3.5805, 40.2367 ], [ -3.5777, 40.2369 ], [ -3.5777, 40.2374 ], [ -3.5776, 40.2375 ], [ -3.5777, 40.2381 ], [ -3.578, 40.2387 ], [ -3.5781, 40.2387 ], [ -3.5781, 40.2389 ], [ -3.5784, 40.2392 ], [ -3.5785, 40.2396 ], [ -3.5788, 40.2399 ], [ -3.5789, 40.2403 ], [ -3.579, 40.2403 ], [ -3.5795, 40.2413 ], [ -3.5796, 40.2413 ], [ -3.5796, 40.2415 ], [ -3.5799, 40.2418 ], [ -3.58, 40.2422 ], [ -3.5803, 40.2425 ], [ -3.5803, 40.2427 ], [ -3.5804, 40.2427 ], [ -3.5804, 40.2429 ], [ -3.5808, 40.2434 ], [ -3.5809, 40.2438 ], [ -3.5811, 40.2439 ], [ -3.5812, 40.2443 ], [ -3.5815, 40.2446 ], [ -3.5815, 40.2448 ], [ -3.5816, 40.2448 ], [ -3.5817, 40.2452 ], [ -3.582, 40.2455 ], [ -3.582, 40.2457 ], [ -3.5821, 40.2457 ], [ -3.5824, 40.2464 ], [ -3.5825, 40.2464 ], [ -3.5825, 40.2466 ], [ -3.5828, 40.2469 ], [ -3.5828, 40.2471 ], [ -3.5829, 40.2471 ], [ -3.5829, 40.2473 ], [ -3.583, 40.2473 ], [ -3.5832, 40.2477 ], [ -3.5833, 40.2481 ], [ -3.5834, 40.2481 ], [ -3.5842, 40.2503 ], [ -3.5871, 40.253 ], [ -3.5876, 40.2536 ], [ -3.5877, 40.2566 ], [ -3.5879, 40.2578 ], [ -3.5905, 40.2604 ], [ -3.5907, 40.2607 ], [ -3.5908, 40.2615 ], [ -3.591, 40.2619 ] ] ] } },
{ "type": "Feature", "properties": { "municipio": "San Martín de la Vega", "clasificacion": "no-urbanizable-protegido", "calificacion": "sin-asignar", "version": "vigente", "fuente": "SIT-CAM WFS — UsoDelSuelo:VPLA_V_CLASIFICACION (https://idem.comunidad.madrid/geosrvg/ows)", "fecha_dato": "2026-05-12", "ambito": "31732", "_raw_CD_SIGLAS": "SNUP", "_raw_DS_CLASIF_GEN": "Suelo No Urbanizable Protegido", "_raw_DS_CLASIF_DET": "Suelo No Urbanizable Especialmente Protegido. De Explotación Ordenada de Recursos Naturales", "_raw_DS_DOCU": "NORMAS SUBSIDIARIAS", "_raw_DS_LEY": "CM Ley 9/1995, E RDL 1/1992", "_raw_FC_AC": "1996-10-29", "_raw_NM_AREA_M2": 12552292.194792001, "_cam_code": "132" }, "geometry": { "type": "Polygon", "coordinates": [ [ [ -3.5449, 40.2858 ], [ -3.5435, 40.2868 ], [ -3.5431, 40.2877 ], [ -3.5434, 40.2895 ], [ -3.5438, 40.2903 ], [ -3.5439, 40.2908 ], [ -3.5451, 40.2909 ], [ -3.5441, 40.2938 ], [ -3.5466, 40.2947 ], [ -3.5473, 40.2936 ], [ -3.5478, 40.2931 ], [ -3.549, 40.2929 ], [ -3.5504, 40.2911 ], [ -3.5515, 40.2879 ], [ -3.5516, 40.2879 ], [ -3.5517, 40.2875 ], [ -3.5518, 40.2875 ], [ -3.5521, 40.2864 ], [ -3.5522, 40.2864 ], [ -3.5527, 40.285 ], [ -3.553, 40.2847 ], [ -3.5544, 40.2824 ], [ -3.558, 40.2757 ], [ -3.558, 40.2747 ], [ -3.5581, 40.2747 ], [ -3.5581, 40.2745 ], [ -3.5587, 40.2734 ], [ -3.5587, 40.2727 ], [ -3.5584, 40.2717 ], [ -3.5584, 40.2711 ], [ -3.5594, 40.2682 ], [ -3.5589, 40.2649 ], [ -3.5593, 40.2631 ], [ -3.559, 40.2606 ], [ -3.5592, 40.2599 ], [ -3.5598, 40.2599 ], [ -3.5599, 40.259 ], [ -3.5595, 40.2587 ], [ -3.5611, 40.2569 ], [ -3.5632, 40.2538 ], [ -3.5634, 40.2531 ], [ -3.5633, 40.2514 ], [ -3.5643, 40.2483 ], [ -3.5658, 40.2446 ], [ -3.5672, 40.2431 ], [ -3.5675, 40.243 ], [ -3.5679, 40.2425 ], [ -3.5681, 40.2425 ], [ -3.5684, 40.2421 ], [ -3.5687, 40.242 ], [ -3.5689, 40.2417 ], [ -3.5693, 40.2415 ], [ -3.5696, 40.2411 ], [ -3.5704, 40.2406 ], [ -3.5719, 40.2391 ], [ -3.5721, 40.2384 ], [ -3.5722, 40.2384 ], [ -3.5725, 40.2377 ], [ -3.5734, 40.2374 ], [ -3.5738, 40.2369 ], [ -3.5743, 40.2368 ], [ -3.5743, 40.2367 ], [ -3.5751, 40.2366 ], [ -3.5751, 40.2365 ], [ -3.5755, 40.2365 ], [ -3.5755, 40.2364 ], [ -3.576, 40.2364 ], [ -3.576, 40.2363 ], [ -3.5773, 40.2362 ], [ -3.5767, 40.2344 ], [ -3.5755, 40.2319 ], [ -3.5754, 40.2319 ], [ -3.5753, 40.2314 ], [ -3.5752, 40.2314 ], [ -3.575, 40.2307 ], [ -3.5748, 40.2305 ], [ -3.5745, 40.2295 ], [ -3.5743, 40.2293 ], [ -3.5741, 40.2286 ], [ -3.574, 40.2286 ], [ -3.574, 40.2283 ], [ -3.5737, 40.2279 ], [ -3.5737, 40.2276 ], [ -3.5736, 40.2276 ], [ -3.5735, 40.2272 ], [ -3.5734, 40.2272 ], [ -3.5734, 40.2269 ], [ -3.5732, 40.2267 ], [ -3.5726, 40.225 ], [ -3.5724, 40.2248 ], [ -3.5722, 40.2241 ], [ -3.5721, 40.2241 ], [ -3.5721, 40.2238 ], [ -3.5719, 40.2236 ], [ -3.5714, 40.2222 ], [ -3.5713, 40.2222 ], [ -3.5709, 40.2207 ], [ -3.5708, 40.2207 ], [ -3.5708, 40.2204 ], [ -3.5707, 40.2204 ], [ -3.5701, 40.218 ], [ -3.57, 40.218 ], [ -3.57, 40.2177 ], [ -3.5699, 40.2177 ], [ -3.5695, 40.2156 ], [ -3.5687, 40.2156 ], [ -3.5685, 40.2163 ], [ -3.5674, 40.2179 ], [ -3.5656, 40.2169 ], [ -3.5639, 40.2182 ], [ -3.5632, 40.2146 ], [ -3.5633, 40.2116 ], [ -3.5634, 40.2109 ], [ -3.5628, 40.2116 ], [ -3.5626, 40.2116 ], [ -3.5626, 40.2117 ], [ -3.5619, 40.2121 ], [ -3.5617, 40.2121 ], [ -3.5617, 40.2122 ], [ -3.5614, 40.2122 ], [ -3.5612, 40.2124 ], [ -3.5608, 40.2125 ], [ -3.5608, 40.2126 ], [ -3.5606, 40.2126 ], [ -3.5603, 40.2129 ], [ -3.56, 40.2136 ], [ -3.5593, 40.2143 ], [ -3.5591, 40.2148 ], [ -3.558, 40.2148 ], [ -3.5569, 40.2155 ], [ -3.5568, 40.2159 ], [ -3.556, 40.2164 ], [ -3.5553, 40.2172 ], [ -3.5537, 40.2181 ], [ -3.5523, 40.2191 ], [ -3.551, 40.2193 ], [ -3.5494, 40.2209 ], [ -3.5492, 40.2209 ], [ -3.5488, 40.2213 ], [ -3.5488, 40.2216 ], [ -3.5489, 40.2216 ], [ -3.549, 40.2223 ], [ -3.5491, 40.2223 ], [ -3.5493, 40.2236 ], [ -3.5485, 40.2245 ], [ -3.5483, 40.2245 ], [ -3.5481, 40.2247 ], [ -3.548, 40.2251 ], [ -3.5479, 40.2251 ], [ -3.5479, 40.2254 ], [ -3.5478, 40.2254 ], [ -3.5477, 40.2262 ], [ -3.5475, 40.2264 ], [ -3.5475, 40.2266 ], [ -3.5473, 40.2267 ], [ -3.5473, 40.2269 ], [ -3.5469, 40.2271 ], [ -3.5468, 40.2273 ], [ -3.5466, 40.2273 ], [ -3.5462, 40.2277 ], [ -3.546, 40.2277 ], [ -3.5455, 40.2282 ], [ -3.545, 40.2291 ], [ -3.5448, 40.2292 ], [ -3.5447, 40.2295 ], [ -3.5449, 40.2301 ], [ -3.5451, 40.2303 ], [ -3.545, 40.2305 ], [ -3.5435, 40.2297 ], [ -3.5432, 40.2298 ], [ -3.5432, 40.23 ], [ -3.5429, 40.2302 ], [ -3.5425, 40.2309 ], [ -3.5416, 40.2316 ], [ -3.541, 40.2332 ], [ -3.5407, 40.2352 ], [ -3.5411, 40.2355 ], [ -3.5411, 40.2358 ], [ -3.5413, 40.2359 ], [ -3.5417, 40.2369 ], [ -3.5424, 40.2376 ], [ -3.5427, 40.2377 ], [ -3.543, 40.238 ], [ -3.5436, 40.2381 ], [ -3.5436, 40.2382 ], [ -3.5448, 40.2388 ], [ -3.5449, 40.239 ], [ -3.5456, 40.2394 ], [ -3.5466, 40.2405 ], [ -3.5471, 40.2415 ], [ -3.5473, 40.2422 ], [ -3.5471, 40.2433 ], [ -3.5472, 40.2441 ], [ -3.5477, 40.2448 ], [ -3.548, 40.245 ], [ -3.5484, 40.2457 ], [ -3.5487, 40.2459 ], [ -3.5489, 40.2464 ], [ -3.5488, 40.2465 ], [ -3.5489, 40.2474 ], [ -3.5487, 40.2482 ], [ -3.548, 40.2493 ], [ -3.5461, 40.2508 ], [ -3.5442, 40.2517 ], [ -3.5428, 40.253 ], [ -3.5427, 40.2537 ], [ -3.5431, 40.2553 ], [ -3.543, 40.2577 ], [ -3.5425, 40.258 ], [ -3.5419, 40.2577 ], [ -3.5413, 40.2582 ], [ -3.5402, 40.2619 ], [ -3.5404, 40.2633 ], [ -3.5413, 40.2646 ], [ -3.5422, 40.2655 ], [ -3.5443, 40.2675 ], [ -3.5446, 40.2675 ], [ -3.5453, 40.2679 ], [ -3.5465, 40.2693 ], [ -3.5476, 40.2698 ], [ -3.5489, 40.2699 ], [ -3.5505, 40.2697 ], [ -3.5508, 40.27 ], [ -3.5503, 40.2739 ], [ -3.5505, 40.2756 ], [ -3.5508, 40.2767 ], [ -3.5515, 40.278 ], [ -3.5487, 40.2783 ], [ -3.5492, 40.2794 ], [ -3.5503, 40.2802 ], [ -3.5513, 40.2804 ], [ -3.5535, 40.2805 ], [ -3.5529, 40.2826 ], [ -3.5526, 40.283 ], [ -3.5522, 40.2842 ], [ -3.5513, 40.2851 ], [ -3.5502, 40.2854 ], [ -3.5474, 40.2854 ], [ -3.5449, 40.2858 ] ] ] } },
{ "type": "Feature", "properties": { "municipio": "San Martín de la Vega", "clasificacion": "no-urbanizable-protegido", "calificacion": "sin-asignar", "version": "vigente", "fuente": "SIT-CAM WFS — UsoDelSuelo:VPLA_V_CLASIFICACION (https://idem.comunidad.madrid/geosrvg/ows)", "fecha_dato": "2026-05-12", "ambito": "31732", "_raw_CD_SIGLAS": "SNUP", "_raw_DS_CLASIF_GEN": "Suelo No Urbanizable Protegido", "_raw_DS_CLASIF_DET": "Suelo No Urbanizable Especialmente Protegido. De Explotación Ordenada de Recursos Naturales", "_raw_DS_DOCU": "NORMAS SUBSIDIARIAS", "_raw_DS_LEY": "CM Ley 9/1995, E RDL 1/1992", "_raw_FC_AC": "1996-10-29", "_raw_NM_AREA_M2": 16419513.031203199, "_cam_code": "132" }, "geometry": { "type": "Polygon", "coordinates": [ [ [ -3.546, 40.2033 ], [ -3.5453, 40.2034 ], [ -3.5466, 40.2041 ], [ -3.5457, 40.2075 ], [ -3.5465, 40.2085 ], [ -3.5464, 40.2102 ], [ -3.5468, 40.2119 ], [ -3.5464, 40.2134 ], [ -3.5437, 40.2152 ], [ -3.5429, 40.2156 ], [ -3.5405, 40.2184 ], [ -3.5387, 40.2218 ], [ -3.5372, 40.2255 ], [ -3.5351, 40.2284 ], [ -3.534, 40.2306 ], [ -3.5337, 40.2298 ], [ -3.531, 40.2273 ], [ -3.5297, 40.2274 ], [ -3.5296, 40.227 ], [ -3.5298, 40.2262 ], [ -3.5299, 40.2248 ], [ -3.5289, 40.2258 ], [ -3.5275, 40.2267 ], [ -3.5267, 40.2266 ], [ -3.5265, 40.2261 ], [ -3.5266, 40.2253 ], [ -3.5271, 40.2248 ], [ -3.5273, 40.2244 ], [ -3.527, 40.224 ], [ -3.5267, 40.2241 ], [ -3.5266, 40.2246 ], [ -3.5254, 40.225 ], [ -3.5251, 40.2255 ], [ -3.5246, 40.2272 ], [ -3.5269, 40.2286 ], [ -3.53, 40.2321 ], [ -3.5308, 40.2322 ], [ -3.5323, 40.2329 ], [ -3.5338, 40.2347 ], [ -3.5342, 40.2345 ], [ -3.5343, 40.2346 ], [ -3.535, 40.2357 ], [ -3.535, 40.2359 ], [ -3.5355, 40.2362 ], [ -3.5355, 40.2369 ], [ -3.5354, 40.2369 ], [ -3.5351, 40.2381 ], [ -3.535, 40.2381 ], [ -3.535, 40.2388 ], [ -3.536, 40.2412 ], [ -3.5363, 40.2424 ], [ -3.5364, 40.2424 ], [ -3.5364, 40.243 ], [ -3.5366, 40.2436 ], [ -3.5366, 40.2445 ], [ -3.5361, 40.2446 ], [ -3.5337, 40.2435 ], [ -3.5337, 40.2433 ], [ -3.5335, 40.2431 ], [ -3.5336, 40.2431 ], [ -3.5329, 40.2429 ], [ -3.5327, 40.2426 ], [ -3.5316, 40.2419 ], [ -3.5314, 40.2416 ], [ -3.5307, 40.2414 ], [ -3.5304, 40.2409 ], [ -3.5299, 40.2409 ], [ -3.5295, 40.2404 ], [ -3.5293, 40.2404 ], [ -3.5292, 40.2401 ], [ -3.5286, 40.2399 ], [ -3.5285, 40.2397 ], [ -3.5274, 40.2398 ], [ -3.5265, 40.2396 ], [ -3.5262, 40.2363 ], [ -3.5248, 40.2368 ], [ -3.5241, 40.2377 ], [ -3.5216, 40.2382 ], [ -3.5212, 40.2389 ], [ -3.5223, 40.2396 ], [ -3.5231, 40.2397 ], [ -3.5245, 40.2405 ], [ -3.5248, 40.2419 ], [ -3.5248, 40.2444 ], [ -3.5245, 40.2463 ], [ -3.5237, 40.2476 ], [ -3.5238, 40.2481 ], [ -3.5244, 40.2485 ], [ -3.5248, 40.2495 ], [ -3.524, 40.2496 ], [ -3.5233, 40.249 ], [ -3.5214, 40.2478 ], [ -3.5211, 40.2484 ], [ -3.521, 40.252 ], [ -3.5208, 40.2527 ], [ -3.5199, 40.2528 ], [ -3.5194, 40.2518 ], [ -3.5186, 40.2516 ], [ -3.5167, 40.2519 ], [ -3.5142, 40.2512 ], [ -3.5147, 40.2517 ], [ -3.5146, 40.252 ], [ -3.5122, 40.252 ], [ -3.5111, 40.2514 ], [ -3.51, 40.2512 ], [ -3.5116, 40.2528 ], [ -3.5111, 40.2534 ], [ -3.51, 40.2537 ], [ -3.5105, 40.2538 ], [ -3.5143, 40.2536 ], [ -3.5162, 40.2542 ], [ -3.517, 40.2553 ], [ -3.5169, 40.2562 ], [ -3.5163, 40.2575 ], [ -3.5166, 40.258 ], [ -3.5173, 40.2582 ], [ -3.5184, 40.2578 ], [ -3.5198, 40.2576 ], [ -3.5207, 40.2577 ], [ -3.5213, 40.2587 ], [ -3.5203, 40.2593 ], [ -3.5196, 40.2593 ], [ -3.518, 40.2589 ], [ -3.5179, 40.2615 ], [ -3.5209, 40.2614 ], [ -3.5211, 40.2676 ], [ -3.5196, 40.2691 ], [ -3.5187, 40.2716 ], [ -3.5161, 40.2731 ], [ -3.5155, 40.2729 ], [ -3.5147, 40.2736 ], [ -3.5152, 40.2739 ], [ -3.515, 40.2747 ], [ -3.5138, 40.2748 ], [ -3.5123, 40.276 ], [ -3.5113, 40.2759 ], [ -3.5092, 40.2724 ], [ -3.5084, 40.2735 ], [ -3.5074, 40.274 ], [ -3.5063, 40.2738 ], [ -3.5021, 40.2697 ], [ -3.5015, 40.2688 ], [ -3.5005, 40.2686 ], [ -3.5, 40.2678 ], [ -3.4998, 40.2677 ], [ -3.4992, 40.2678 ], [ -3.4985, 40.2676 ], [ -3.4985, 40.2667 ], [ -3.4979, 40.2668 ], [ -3.4974, 40.2658 ], [ -3.497, 40.2654 ], [ -3.497, 40.2649 ], [ -3.4963, 40.2646 ], [ -3.4959, 40.2646 ], [ -3.4953, 40.2641 ], [ -3.4955, 40.2631 ], [ -3.495, 40.263 ], [ -3.4948, 40.2631 ], [ -3.4944, 40.2621 ], [ -3.4934, 40.2616 ], [ -3.494, 40.2626 ], [ -3.4939, 40.2632 ], [ -3.4929, 40.2643 ], [ -3.4934, 40.2645 ], [ -3.4936, 40.266 ], [ -3.493, 40.2664 ], [ -3.4938, 40.2666 ], [ -3.4948, 40.2673 ], [ -3.4951, 40.2677 ], [ -3.4947, 40.2687 ], [ -3.4947, 40.2691 ], [ -3.494, 40.2697 ], [ -3.4946, 40.2699 ], [ -3.4957, 40.2694 ], [ -3.4965, 40.2696 ], [ -3.4978, 40.2711 ], [ -3.4985, 40.271 ], [ -3.5013, 40.2733 ], [ -3.5043, 40.2746 ], [ -3.5058, 40.2758 ], [ -3.5062, 40.2769 ], [ -3.5055, 40.2782 ], [ -3.5047, 40.2786 ], [ -3.5051, 40.2793 ], [ -3.5079, 40.282 ], [ -3.5115, 40.2852 ], [ -3.5155, 40.2896 ], [ -3.5173, 40.2914 ], [ -3.5207, 40.2898 ], [ -3.5212, 40.2903 ], [ -3.5214, 40.2907 ], [ -3.5215, 40.2912 ], [ -3.5214, 40.2924 ], [ -3.522, 40.2925 ], [ -3.5227, 40.2932 ], [ -3.5225, 40.294 ], [ -3.5216, 40.2943 ], [ -3.5209, 40.2943 ], [ -3.5219, 40.2944 ], [ -3.5244, 40.2955 ], [ -3.5265, 40.2932 ], [ -3.5294, 40.2929 ], [ -3.5311, 40.293 ], [ -3.5322, 40.2936 ], [ -3.535, 40.2928 ], [ -3.5382, 40.2913 ], [ -3.5402, 40.2902 ], [ -3.5424, 40.2906 ], [ -3.542, 40.2883 ], [ -3.5425, 40.2864 ], [ -3.5438, 40.285 ], [ -3.5457, 40.2818 ], [ -3.5468, 40.2817 ], [ -3.5481, 40.2805 ], [ -3.5471, 40.2795 ], [ -3.545, 40.2753 ], [ -3.5426, 40.2711 ], [ -3.5419, 40.271 ], [ -3.5378, 40.2696 ], [ -3.5388, 40.2681 ], [ -3.5387, 40.2669 ], [ -3.5382, 40.266 ], [ -3.5372, 40.2647 ], [ -3.5371, 40.2642 ], [ -3.5371, 40.2614 ], [ -3.5375, 40.2585 ], [ -3.5383, 40.2562 ], [ -3.5394, 40.2547 ], [ -3.5401, 40.254 ], [ -3.5424, 40.2522 ], [ -3.5427, 40.2517 ], [ -3.5431, 40.2495 ], [ -3.5432, 40.2473 ], [ -3.5435, 40.245 ], [ -3.5441, 40.2431 ], [ -3.5443, 40.2419 ], [ -3.5442, 40.2403 ], [ -3.5434, 40.2393 ], [ -3.5407, 40.2376 ], [ -3.5394, 40.237 ], [ -3.5381, 40.235 ], [ -3.5378, 40.2342 ], [ -3.5378, 40.233 ], [ -3.5381, 40.2324 ], [ -3.5403, 40.2298 ], [ -3.5418, 40.2283 ], [ -3.5438, 40.2267 ], [ -3.544, 40.2261 ], [ -3.5445, 40.2256 ], [ -3.5453, 40.2239 ], [ -3.5455, 40.2234 ], [ -3.5457, 40.222 ], [ -3.5464, 40.2204 ], [ -3.5476, 40.2182 ], [ -3.5485, 40.2171 ], [ -3.5498, 40.2163 ], [ -3.5509, 40.2159 ], [ -3.5525, 40.2158 ], [ -3.5544, 40.2152 ], [ -3.5566, 40.2139 ], [ -3.5585, 40.2117 ], [ -3.5598, 40.2097 ], [ -3.5603, 40.2084 ], [ -3.5604, 40.2068 ], [ -3.5602, 40.2056 ], [ -3.5594, 40.2045 ], [ -3.5592, 40.2044 ], [ -3.5589, 40.2032 ], [ -3.5586, 40.2029 ], [ -3.5586, 40.2026 ], [ -3.5584, 40.2025 ], [ -3.5582, 40.2016 ], [ -3.5581, 40.2016 ], [ -3.558, 40.2013 ], [ -3.558, 40.201 ], [ -3.5579, 40.201 ], [ -3.558, 40.1993 ], [ -3.5586, 40.1983 ], [ -3.5587, 40.198 ], [ -3.5586, 40.1979 ], [ -3.5588, 40.1978 ], [ -3.5589, 40.1972 ], [ -3.5587, 40.197 ], [ -3.5585, 40.1962 ], [ -3.5584, 40.1952 ], [ -3.5581, 40.1945 ], [ -3.558, 40.1934 ], [ -3.5574, 40.1928 ], [ -3.5573, 40.1925 ], [ -3.5572, 40.1927 ], [ -3.5562, 40.193 ], [ -3.5523, 40.1952 ], [ -3.5507, 40.1993 ], [ -3.5491, 40.2003 ], [ -3.55, 40.2008 ], [ -3.556, 40.2011 ], [ -3.5558, 40.2014 ], [ -3.5558, 40.2027 ], [ -3.5555, 40.2032 ], [ -3.5554, 40.2047 ], [ -3.5558, 40.2056 ], [ -3.5558, 40.206 ], [ -3.5556, 40.2062 ], [ -3.5541, 40.207 ], [ -3.554, 40.2073 ], [ -3.5486, 40.2068 ], [ -3.5494, 40.206 ], [ -3.5499, 40.2057 ], [ -3.5501, 40.2048 ], [ -3.546, 40.2034 ], [ -3.546, 40.2033 ] ], [ [ -3.5325, 40.2295 ], [ -3.5327, 40.2295 ], [ -3.5331, 40.2301 ], [ -3.5335, 40.2304 ], [ -3.5334, 40.231 ], [ -3.5331, 40.2313 ], [ -3.5332, 40.2321 ], [ -3.5313, 40.2321 ], [ -3.531, 40.2322 ], [ -3.531, 40.2321 ], [ -3.5305, 40.2321 ], [ -3.5305, 40.232 ], [ -3.53, 40.2321 ], [ -3.5299, 40.2304 ], [ -3.5298, 40.2303 ], [ -3.5298, 40.229 ], [ -3.5307, 40.2291 ], [ -3.532, 40.2294 ], [ -3.532, 40.2295 ], [ -3.5325, 40.2295 ] ] ] } },
{ "type": "Feature", "properties": { "municipio": "San Martín de la Vega", "clasificacion": "no-urbanizable-protegido", "calificacion": "sin-asignar", "version": "vigente", "fuente": "SIT-CAM WFS — UsoDelSuelo:VPLA_V_CLASIFICACION (https://idem.comunidad.madrid/geosrvg/ows)", "fecha_dato": "2026-05-12", "ambito": "31732", "_raw_CD_SIGLAS": "SNUP", "_raw_DS_CLASIF_GEN": "Suelo No Urbanizable Protegido", "_raw_DS_CLASIF_DET": "Suelo No Urbanizable Especialmente Protegido. Degradadas a Regenerar", "_raw_DS_DOCU": "NORMAS SUBSIDIARIAS", "_raw_DS_LEY": "CM Ley 9/1995, E RDL 1/1992", "_raw_FC_AC": "1996-10-29", "_raw_NM_AREA_M2": 7239442.1997748399, "_cam_code": "132" }, "geometry": { "type": "Polygon", "coordinates": [ [ [ -3.58, 40.2746 ], [ -3.5838, 40.2752 ], [ -3.5838, 40.2753 ], [ -3.5861, 40.2762 ], [ -3.5865, 40.276 ], [ -3.5876, 40.2758 ], [ -3.5878, 40.2756 ], [ -3.5889, 40.2751 ], [ -3.589, 40.2737 ], [ -3.5892, 40.2735 ], [ -3.5893, 40.2729 ], [ -3.5896, 40.2722 ], [ -3.5901, 40.2714 ], [ -3.5926, 40.2663 ], [ -3.5931, 40.2656 ], [ -3.5939, 40.265 ], [ -3.5932, 40.2648 ], [ -3.5928, 40.2644 ], [ -3.591, 40.2619 ], [ -3.5908, 40.2615 ], [ -3.5907, 40.2607 ], [ -3.5905, 40.2604 ], [ -3.5879, 40.2578 ], [ -3.5877, 40.2566 ], [ -3.5876, 40.2536 ], [ -3.5875, 40.2536 ], [ -3.5875, 40.2534 ], [ -3.5842, 40.2503 ], [ -3.5834, 40.2481 ], [ -3.5833, 40.2481 ], [ -3.5832, 40.2477 ], [ -3.583, 40.2473 ], [ -3.5829, 40.2473 ], [ -3.5829, 40.2471 ], [ -3.5828, 40.2471 ], [ -3.5828, 40.2469 ], [ -3.5825, 40.2466 ], [ -3.5825, 40.2464 ], [ -3.5824, 40.2464 ], [ -3.5821, 40.2457 ], [ -3.582, 40.2457 ], [ -3.582, 40.2455 ], [ -3.5817, 40.2452 ], [ -3.5815, 40.2446 ], [ -3.5812, 40.2443 ], [ -3.5811, 40.2439 ], [ -3.5809, 40.2438 ], [ -3.5809, 40.2436 ], [ -3.5808, 40.2436 ], [ -3.5808, 40.2434 ], [ -3.5804, 40.2429 ], [ -3.5803, 40.2425 ], [ -3.58, 40.2422 ], [ -3.5799, 40.2418 ], [ -3.5796, 40.2415 ], [ -3.5796, 40.2413 ], [ -3.5795, 40.2413 ], [ -3.5792, 40.2406 ], [ -3.5789, 40.2403 ], [ -3.5788, 40.2399 ], [ -3.5785, 40.2396 ], [ -3.5784, 40.2392 ], [ -3.5781, 40.2389 ], [ -3.5781, 40.2387 ], [ -3.578, 40.2387 ], [ -3.5777, 40.2381 ], [ -3.5777, 40.2378 ], [ -3.5776, 40.2378 ], [ -3.5777, 40.2369 ], [ -3.5776, 40.2369 ], [ -3.5773, 40.2362 ], [ -3.576, 40.2363 ], [ -3.576, 40.2364 ], [ -3.5755, 40.2364 ], [ -3.5755, 40.2365 ], [ -3.574, 40.2368 ], [ -3.5734, 40.2374 ], [ -3.5725, 40.2377 ], [ -3.5722, 40.2384 ], [ -3.5721, 40.2384 ], [ -3.5719, 40.2391 ], [ -3.5704, 40.2406 ], [ -3.5696, 40.2411 ], [ -3.5693, 40.2415 ], [ -3.5689, 40.2417 ], [ -3.5687, 40.242 ], [ -3.5684, 40.2421 ], [ -3.5681, 40.2425 ], [ -3.5679, 40.2425 ], [ -3.5675, 40.243 ], [ -3.5672, 40.2431 ], [ -3.566, 40.2443 ], [ -3.5657, 40.245 ], [ -3.5656, 40.245 ], [ -3.5653, 40.246 ], [ -3.5651, 40.2462 ], [ -3.5649, 40.247 ], [ -3.5648, 40.247 ], [ -3.5638, 40.2497 ], [ -3.5633, 40.2514 ], [ -3.5634, 40.2531 ], [ -3.5632, 40.2538 ], [ -3.5611, 40.2569 ], [ -3.5595, 40.2587 ], [ -3.5599, 40.259 ], [ -3.5598, 40.2599 ], [ -3.5601, 40.26 ], [ -3.5606, 40.2605 ], [ -3.5608, 40.261 ], [ -3.5615, 40.2615 ], [ -3.5619, 40.2628 ], [ -3.5621, 40.2629 ], [ -3.5622, 40.2632 ], [ -3.5629, 40.264 ], [ -3.5646, 40.2654 ], [ -3.5653, 40.2658 ], [ -3.5662, 40.2661 ], [ -3.5662, 40.2662 ], [ -3.5664, 40.2662 ], [ -3.5667, 40.2665 ], [ -3.567, 40.2666 ], [ -3.5678, 40.2674 ], [ -3.5685, 40.2684 ], [ -3.5704, 40.2695 ], [ -3.5706, 40.2695 ], [ -3.5708, 40.2698 ], [ -3.5717, 40.2701 ], [ -3.5721, 40.2701 ], [ -3.5723, 40.2704 ], [ -3.5733, 40.2708 ], [ -3.5769, 40.2729 ], [ -3.5775, 40.2737 ], [ -3.5788, 40.2746 ], [ -3.58, 40.2746 ] ] ] } },
{ "type": "Feature", "properties": { "municipio": "San Martín de la Vega", "clasificacion": "no-urbanizable-protegido", "calificacion": "sin-asignar", "version": "vigente", "fuente": "SIT-CAM WFS — UsoDelSuelo:VPLA_V_CLASIFICACION (https://idem.comunidad.madrid/geosrvg/ows)", "fecha_dato": "2026-05-12", "ambito": "31732", "_raw_CD_SIGLAS": "SNUP", "_raw_DS_CLASIF_GEN": "Suelo No Urbanizable Protegido", "_raw_DS_CLASIF_DET": "Suelo No Urbanizable Especialmente Protegido. Reserva Integral", "_raw_DS_DOCU": "NORMAS SUBSIDIARIAS", "_raw_DS_LEY": "CM Ley 9/1995, E RDL 1/1992", "_raw_FC_AC": "1996-10-29", "_raw_NM_AREA_M2": 2500675.1876908801, "_cam_code": "132" }, "geometry": { "type": "Polygon", "coordinates": [ [ [ -3.5466, 40.2947 ], [ -3.5487, 40.2956 ], [ -3.5505, 40.297 ], [ -3.5537, 40.2961 ], [ -3.5536, 40.296 ], [ -3.5536, 40.2951 ], [ -3.5541, 40.2947 ], [ -3.556, 40.2946 ], [ -3.556, 40.2947 ], [ -3.5566, 40.2948 ], [ -3.5583, 40.2936 ], [ -3.5617, 40.2922 ], [ -3.5628, 40.2908 ], [ -3.5647, 40.2919 ], [ -3.5681, 40.2888 ], [ -3.5708, 40.2875 ], [ -3.5709, 40.2871 ], [ -3.571, 40.2871 ], [ -3.571, 40.2863 ], [ -3.5712, 40.2861 ], [ -3.5712, 40.2855 ], [ -3.5713, 40.2855 ], [ -3.5715, 40.2844 ], [ -3.5716, 40.2844 ], [ -3.5716, 40.2838 ], [ -3.572, 40.2836 ], [ -3.572, 40.2834 ], [ -3.5716, 40.2833 ], [ -3.5712, 40.2829 ], [ -3.5707, 40.282 ], [ -3.5707, 40.2817 ], [ -3.5703, 40.2813 ], [ -3.5701, 40.2808 ], [ -3.5694, 40.2804 ], [ -3.5689, 40.2813 ], [ -3.5659, 40.2815 ], [ -3.5655, 40.2803 ], [ -3.5634, 40.2799 ], [ -3.5632, 40.2795 ], [ -3.5646, 40.2793 ], [ -3.5636, 40.2766 ], [ -3.5631, 40.2757 ], [ -3.5592, 40.2762 ], [ -3.5589, 40.2765 ], [ -3.5586, 40.2766 ], [ -3.5582, 40.2765 ], [ -3.558, 40.2756 ], [ -3.5568, 40.2781 ], [ -3.5563, 40.2788 ], [ -3.5563, 40.279 ], [ -3.5557, 40.2799 ], [ -3.5544, 40.2824 ], [ -3.553, 40.2847 ], [ -3.5527, 40.285 ], [ -3.5522, 40.2864 ], [ -3.5521, 40.2864 ], [ -3.5518, 40.2875 ], [ -3.5517, 40.2875 ], [ -3.5516, 40.2879 ], [ -3.5515, 40.2879 ], [ -3.5504, 40.2911 ], [ -3.549, 40.2929 ], [ -3.5478, 40.2931 ], [ -3.5473, 40.2936 ], [ -3.5466, 40.2947 ] ] ] } },
{ "type": "Feature", "properties": { "municipio": "San Martín de la Vega", "clasificacion": "no-urbanizable-protegido", "calificacion": "sin-asignar", "version": "vigente", "fuente": "SIT-CAM WFS — UsoDelSuelo:VPLA_V_CLASIFICACION (https://idem.comunidad.madrid/geosrvg/ows)", "fecha_dato": "2026-05-12", "ambito": "31732", "_raw_CD_SIGLAS": "SNUP", "_raw_DS_CLASIF_GEN": "Suelo No Urbanizable Protegido", "_raw_DS_CLASIF_DET": "Suelo No Urbanizable Especialmente Protegido. Reserva Natural", "_raw_DS_DOCU": "NORMAS SUBSIDIARIAS", "_raw_DS_LEY": "CM Ley 9/1995, E RDL 1/1992", "_raw_FC_AC": "1996-10-29", "_raw_NM_AREA_M2": 54102.039337010203, "_cam_code": "132" }, "geometry": { "type": "Polygon", "coordinates": [ [ [ -3.5996, 40.2384 ], [ -3.6014, 40.2387 ], [ -3.6015, 40.239 ], [ -3.6017, 40.2391 ], [ -3.6023, 40.2373 ], [ -3.6016, 40.2377 ], [ -3.6006, 40.238 ], [ -3.5985, 40.2379 ], [ -3.5966, 40.2375 ], [ -3.5961, 40.2375 ], [ -3.5959, 40.2378 ], [ -3.5958, 40.2391 ], [ -3.5974, 40.2389 ], [ -3.5985, 40.2385 ], [ -3.5996, 40.2384 ] ] ] } },
{ "type": "Feature", "properties": { "municipio": "San Martín de la Vega", "clasificacion": "no-urbanizable-protegido", "calificacion": "sin-asignar", "version": "vigente", "fuente": "SIT-CAM WFS — UsoDelSuelo:VPLA_V_CLASIFICACION (https://idem.comunidad.madrid/geosrvg/ows)", "fecha_dato": "2026-05-12", "ambito": "31732", "_raw_CD_SIGLAS": "SNUP", "_raw_DS_CLASIF_GEN": "Suelo No Urbanizable Protegido", "_raw_DS_CLASIF_DET": "Suelo No Urbanizable Especialmente Protegido. Reserva Natural", "_raw_DS_DOCU": "NORMAS SUBSIDIARIAS", "_raw_DS_LEY": "CM Ley 9/1995, E RDL 1/1992", "_raw_FC_AC": "1996-10-29", "_raw_NM_AREA_M2": 21173423.315401498, "_cam_code": "132" }, "geometry": { "type": "Polygon", "coordinates": [ [ [ -3.4951, 40.2711 ], [ -3.497, 40.2718 ], [ -3.4975, 40.2718 ], [ -3.4982, 40.2721 ], [ -3.4987, 40.2726 ], [ -3.4987, 40.2732 ], [ -3.4995, 40.2737 ], [ -3.5005, 40.2753 ], [ -3.5017, 40.276 ], [ -3.5019, 40.276 ], [ -3.502, 40.2766 ], [ -3.5039, 40.2768 ], [ -3.5039, 40.2774 ], [ -3.5047, 40.2786 ], [ -3.5055, 40.2782 ], [ -3.5062, 40.2769 ], [ -3.5058, 40.2758 ], [ -3.5043, 40.2746 ], [ -3.5013, 40.2733 ], [ -3.4985, 40.271 ], [ -3.4978, 40.2711 ], [ -3.4965, 40.2696 ], [ -3.4957, 40.2694 ], [ -3.4946, 40.2699 ], [ -3.494, 40.2697 ], [ -3.4947, 40.2691 ], [ -3.4947, 40.2687 ], [ -3.4951, 40.2677 ], [ -3.4948, 40.2673 ], [ -3.4938, 40.2666 ], [ -3.493, 40.2664 ], [ -3.4936, 40.266 ], [ -3.4934, 40.2645 ], [ -3.4929, 40.2643 ], [ -3.4939, 40.2632 ], [ -3.494, 40.2626 ], [ -3.4934, 40.2616 ], [ -3.4944, 40.2621 ], [ -3.4948, 40.2631 ], [ -3.495, 40.263 ], [ -3.4955, 40.2631 ], [ -3.4953, 40.2641 ], [ -3.4959, 40.2646 ], [ -3.4963, 40.2646 ], [ -3.497, 40.2649 ], [ -3.497, 40.2654 ], [ -3.4974, 40.2658 ], [ -3.4979, 40.2668 ], [ -3.4985, 40.2667 ], [ -3.4985, 40.2676 ], [ -3.4992, 40.2678 ], [ -3.4998, 40.2677 ], [ -3.5, 40.2678 ], [ -3.5005, 40.2686 ], [ -3.5015, 40.2688 ], [ -3.5021, 40.2697 ], [ -3.5063, 40.2738 ], [ -3.5074, 40.274 ], [ -3.5084, 40.2735 ], [ -3.5092, 40.2724 ], [ -3.5113, 40.2759 ], [ -3.5123, 40.276 ], [ -3.5138, 40.2748 ], [ -3.515, 40.2747 ], [ -3.5152, 40.2739 ], [ -3.5147, 40.2736 ], [ -3.5155, 40.2729 ], [ -3.5161, 40.2731 ], [ -3.5187, 40.2716 ], [ -3.5196, 40.2691 ], [ -3.5211, 40.2676 ], [ -3.5209, 40.2614 ], [ -3.5179, 40.2615 ], [ -3.518, 40.2589 ], [ -3.5196, 40.2593 ], [ -3.5203, 40.2593 ], [ -3.5213, 40.2587 ], [ -3.5207, 40.2577 ], [ -3.5198, 40.2576 ], [ -3.5184, 40.2578 ], [ -3.5173, 40.2582 ], [ -3.5166, 40.258 ], [ -3.5163, 40.2575 ], [ -3.5169, 40.2562 ], [ -3.517, 40.2553 ], [ -3.5162, 40.2542 ], [ -3.5143, 40.2536 ], [ -3.5105, 40.2538 ], [ -3.51, 40.2537 ], [ -3.5111, 40.2534 ], [ -3.5116, 40.2528 ], [ -3.51, 40.2512 ], [ -3.5111, 40.2514 ], [ -3.5122, 40.252 ], [ -3.5146, 40.252 ], [ -3.5147, 40.2517 ], [ -3.5142, 40.2512 ], [ -3.5167, 40.2519 ], [ -3.5186, 40.2516 ], [ -3.5194, 40.2518 ], [ -3.5199, 40.2528 ], [ -3.5208, 40.2527 ], [ -3.521, 40.252 ], [ -3.5211, 40.2484 ], [ -3.5214, 40.2478 ], [ -3.5233, 40.249 ], [ -3.524, 40.2496 ], [ -3.5248, 40.2495 ], [ -3.5244, 40.2485 ], [ -3.5238, 40.2481 ], [ -3.5237, 40.2476 ], [ -3.5245, 40.2463 ], [ -3.5248, 40.2444 ], [ -3.5248, 40.2419 ], [ -3.5245, 40.2405 ], [ -3.5231, 40.2397 ], [ -3.5223, 40.2396 ], [ -3.5212, 40.2389 ], [ -3.5216, 40.2382 ], [ -3.5241, 40.2377 ], [ -3.5248, 40.2368 ], [ -3.5262, 40.2363 ], [ -3.5267, 40.2362 ], [ -3.5278, 40.2362 ], [ -3.5279, 40.2363 ], [ -3.5288, 40.2362 ], [ -3.529, 40.2361 ], [ -3.529, 40.2357 ], [ -3.5292, 40.2356 ], [ -3.5299, 40.2354 ], [ -3.5302, 40.2354 ], [ -3.5302, 40.2356 ], [ -3.5311, 40.2355 ], [ -3.5315, 40.2353 ], [ -3.5315, 40.2352 ], [ -3.5323, 40.2351 ], [ -3.5336, 40.2344 ], [ -3.5323, 40.2329 ], [ -3.5308, 40.2322 ], [ -3.53, 40.2321 ], [ -3.5269, 40.2286 ], [ -3.5246, 40.2272 ], [ -3.5251, 40.2255 ], [ -3.5254, 40.225 ], [ -3.5266, 40.2246 ], [ -3.5267, 40.2241 ], [ -3.527, 40.224 ], [ -3.5273, 40.2244 ], [ -3.5271, 40.2248 ], [ -3.5266, 40.2253 ], [ -3.5265, 40.2261 ], [ -3.5267, 40.2266 ], [ -3.5275, 40.2267 ], [ -3.5289, 40.2258 ], [ -3.5299, 40.2248 ], [ -3.5298, 40.2262 ], [ -3.5296, 40.227 ], [ -3.5297, 40.2274 ], [ -3.531, 40.2273 ], [ -3.5337, 40.2298 ], [ -3.534, 40.2306 ], [ -3.5351, 40.2284 ], [ -3.5372, 40.2255 ], [ -3.5387, 40.2218 ], [ -3.5405, 40.2184 ], [ -3.5429, 40.2156 ], [ -3.5437, 40.2152 ], [ -3.5464, 40.2134 ], [ -3.5468, 40.2119 ], [ -3.5464, 40.2102 ], [ -3.5465, 40.2085 ], [ -3.5457, 40.2075 ], [ -3.5466, 40.2041 ], [ -3.5453, 40.2034 ], [ -3.546, 40.2033 ], [ -3.5464, 40.2017 ], [ -3.5466, 40.2015 ], [ -3.5485, 40.2007 ], [ -3.5507, 40.1993 ], [ -3.5523, 40.1952 ], [ -3.5511, 40.1951 ], [ -3.5496, 40.1958 ], [ -3.5455, 40.1969 ], [ -3.5424, 40.1965 ], [ -3.54, 40.1956 ], [ -3.5376, 40.1955 ], [ -3.5368, 40.1951 ], [ -3.5353, 40.1947 ], [ -3.534, 40.1953 ], [ -3.5308, 40.1954 ], [ -3.5287, 40.1967 ], [ -3.5253, 40.1981 ], [ -3.5247, 40.1977 ], [ -3.5239, 40.1985 ], [ -3.5235, 40.1993 ], [ -3.5227, 40.2004 ], [ -3.5224, 40.2005 ], [ -3.5211, 40.2016 ], [ -3.5208, 40.2025 ], [ -3.5182, 40.2038 ], [ -3.5152, 40.2055 ], [ -3.5139, 40.2072 ], [ -3.513, 40.2077 ], [ -3.5112, 40.2095 ], [ -3.5107, 40.2102 ], [ -3.5104, 40.211 ], [ -3.5101, 40.2113 ], [ -3.51, 40.2116 ], [ -3.5089, 40.2129 ], [ -3.5073, 40.2138 ], [ -3.506, 40.214 ], [ -3.5054, 40.2146 ], [ -3.5046, 40.215 ], [ -3.5038, 40.2156 ], [ -3.5022, 40.2158 ], [ -3.5007, 40.2166 ], [ -3.4989, 40.2167 ], [ -3.4983, 40.217 ], [ -3.4983, 40.218 ], [ -3.4976, 40.2192 ], [ -3.4976, 40.2205 ], [ -3.4993, 40.2222 ], [ -3.4994, 40.2231 ], [ -3.4997, 40.2241 ], [ -3.5009, 40.2254 ], [ -3.5007, 40.2265 ], [ -3.5013, 40.2283 ], [ -3.5021, 40.2293 ], [ -3.5043, 40.2337 ], [ -3.5045, 40.2349 ], [ -3.5049, 40.2361 ], [ -3.5045, 40.2373 ], [ -3.5052, 40.2382 ], [ -3.5058, 40.2393 ], [ -3.5043, 40.2407 ], [ -3.5047, 40.2423 ], [ -3.5033, 40.2425 ], [ -3.5025, 40.2437 ], [ -3.5011, 40.2453 ], [ -3.4997, 40.2462 ], [ -3.4993, 40.2469 ], [ -3.4998, 40.2478 ], [ -3.5021, 40.2485 ], [ -3.5023, 40.2502 ], [ -3.5032, 40.2506 ], [ -3.5028, 40.2522 ], [ -3.5019, 40.2525 ], [ -3.5025, 40.2542 ], [ -3.5004, 40.2561 ], [ -3.4978, 40.2543 ], [ -3.4961, 40.2534 ], [ -3.4951, 40.2517 ], [ -3.4921, 40.2511 ], [ -3.4912, 40.2528 ], [ -3.4903, 40.2537 ], [ -3.487, 40.253 ], [ -3.4857, 40.2531 ], [ -3.485, 40.2544 ], [ -3.4828, 40.2566 ], [ -3.4827, 40.2569 ], [ -3.4847, 40.2582 ], [ -3.4853, 40.2595 ], [ -3.4861, 40.2605 ], [ -3.4861, 40.2613 ], [ -3.4868, 40.2634 ], [ -3.4884, 40.2647 ], [ -3.4886, 40.2654 ], [ -3.489, 40.2661 ], [ -3.4892, 40.2669 ], [ -3.4896, 40.2674 ], [ -3.4898, 40.2679 ], [ -3.4907, 40.2684 ], [ -3.4917, 40.2685 ], [ -3.4917, 40.2696 ], [ -3.493, 40.2711 ], [ -3.494, 40.2713 ], [ -3.4951, 40.2711 ] ] ] } },
{ "type": "Feature", "properties": { "municipio": "San Martín de la Vega", "clasificacion": "no-urbanizable-protegido", "calificacion": "sin-asignar", "version": "vigente", "fuente": "SIT-CAM WFS — UsoDelSuelo:VPLA_V_CLASIFICACION (https://idem.comunidad.madrid/geosrvg/ows)", "fecha_dato": "2026-05-12", "ambito": "31732", "_raw_CD_SIGLAS": "SNUP", "_raw_DS_CLASIF_GEN": "Suelo No Urbanizable Protegido", "_raw_DS_CLASIF_DET": "Suelo No Urbanizable Especialmente Protegido. Reserva Natural", "_raw_DS_DOCU": "NORMAS SUBSIDIARIAS", "_raw_DS_LEY": "CM Ley 9/1995, E RDL 1/1992", "_raw_FC_AC": "1996-10-29", "_raw_NM_AREA_M2": 4742864.4423278105, "_cam_code": "132" }, "geometry": { "type": "Polygon", "coordinates": [ [ [ -3.5741, 40.2877 ], [ -3.5749, 40.2876 ], [ -3.5753, 40.2881 ], [ -3.5758, 40.2881 ], [ -3.5769, 40.2873 ], [ -3.5771, 40.2873 ], [ -3.5788, 40.2864 ], [ -3.5805, 40.287 ], [ -3.581, 40.287 ], [ -3.5812, 40.2864 ], [ -3.5812, 40.2858 ], [ -3.5823, 40.2853 ], [ -3.5828, 40.2853 ], [ -3.5829, 40.2854 ], [ -3.5837, 40.2853 ], [ -3.585, 40.2846 ], [ -3.5858, 40.2852 ], [ -3.5875, 40.2848 ], [ -3.588, 40.2843 ], [ -3.5918, 40.2838 ], [ -3.5929, 40.2844 ], [ -3.5942, 40.2855 ], [ -3.5959, 40.2853 ], [ -3.5966, 40.285 ], [ -3.5961, 40.2792 ], [ -3.5962, 40.2762 ], [ -3.5948, 40.2742 ], [ -3.5966, 40.2736 ], [ -3.5975, 40.2729 ], [ -3.5995, 40.2721 ], [ -3.5998, 40.2721 ], [ -3.5994, 40.271 ], [ -3.5977, 40.2687 ], [ -3.5975, 40.2679 ], [ -3.5959, 40.2671 ], [ -3.5954, 40.2657 ], [ -3.595, 40.2652 ], [ -3.5939, 40.265 ], [ -3.5931, 40.2656 ], [ -3.5926, 40.2663 ], [ -3.5901, 40.2714 ], [ -3.5896, 40.2722 ], [ -3.5893, 40.2729 ], [ -3.5892, 40.2735 ], [ -3.589, 40.2737 ], [ -3.5889, 40.2751 ], [ -3.5878, 40.2756 ], [ -3.5876, 40.2758 ], [ -3.5865, 40.276 ], [ -3.5861, 40.2762 ], [ -3.5834, 40.2751 ], [ -3.5821, 40.275 ], [ -3.58, 40.2746 ], [ -3.5788, 40.2746 ], [ -3.5775, 40.2737 ], [ -3.5769, 40.2729 ], [ -3.5733, 40.2708 ], [ -3.5723, 40.2704 ], [ -3.5721, 40.2701 ], [ -3.5717, 40.2701 ], [ -3.5708, 40.2698 ], [ -3.5706, 40.2695 ], [ -3.5704, 40.2695 ], [ -3.5685, 40.2684 ], [ -3.5678, 40.2674 ], [ -3.567, 40.2666 ], [ -3.5664, 40.2663 ], [ -3.5664, 40.2662 ], [ -3.5662, 40.2662 ], [ -3.5662, 40.2661 ], [ -3.5653, 40.2658 ], [ -3.5646, 40.2654 ], [ -3.5631, 40.2642 ], [ -3.5622, 40.2632 ], [ -3.5621, 40.2629 ], [ -3.5619, 40.2628 ], [ -3.5615, 40.2615 ], [ -3.5608, 40.261 ], [ -3.5606, 40.2605 ], [ -3.5601, 40.26 ], [ -3.5592, 40.2599 ], [ -3.559, 40.2606 ], [ -3.5593, 40.2631 ], [ -3.5589, 40.2649 ], [ -3.5594, 40.2682 ], [ -3.5584, 40.2711 ], [ -3.5584, 40.2717 ], [ -3.5587, 40.2727 ], [ -3.5587, 40.2734 ], [ -3.5581, 40.2745 ], [ -3.5581, 40.2747 ], [ -3.558, 40.2747 ], [ -3.558, 40.2756 ], [ -3.5582, 40.2765 ], [ -3.5586, 40.2766 ], [ -3.5589, 40.2765 ], [ -3.5592, 40.2762 ], [ -3.5631, 40.2757 ], [ -3.5636, 40.2744 ], [ -3.5656, 40.2749 ], [ -3.5651, 40.2761 ], [ -3.5652, 40.2764 ], [ -3.5678, 40.2776 ], [ -3.5677, 40.2787 ], [ -3.5678, 40.2789 ], [ -3.5692, 40.2803 ], [ -3.5701, 40.2808 ], [ -3.5703, 40.2813 ], [ -3.5707, 40.2817 ], [ -3.5707, 40.282 ], [ -3.5712, 40.2829 ], [ -3.5716, 40.2833 ], [ -3.572, 40.2834 ], [ -3.572, 40.2836 ], [ -3.5716, 40.2838 ], [ -3.5716, 40.2844 ], [ -3.5715, 40.2844 ], [ -3.5713, 40.2855 ], [ -3.5712, 40.2855 ], [ -3.5712, 40.2861 ], [ -3.571, 40.2863 ], [ -3.571, 40.2871 ], [ -3.5709, 40.2871 ], [ -3.5708, 40.2875 ], [ -3.5715, 40.2871 ], [ -3.573, 40.2879 ], [ -3.5734, 40.288 ], [ -3.574, 40.288 ], [ -3.5741, 40.2877 ] ] ] } },
{ "type": "Feature", "properties": { "municipio": "San Martín de la Vega", "clasificacion": "no-urbanizable-protegido", "calificacion": "sin-asignar", "version": "vigente", "fuente": "SIT-CAM WFS — UsoDelSuelo:VPLA_V_CLASIFICACION (https://idem.comunidad.madrid/geosrvg/ows)", "fecha_dato": "2026-05-12", "ambito": "31732", "_raw_CD_SIGLAS": "SNUP", "_raw_DS_CLASIF_GEN": "Suelo No Urbanizable Protegido", "_raw_DS_CLASIF_DET": "Suelo No Urbanizable Especialmente Protegido. Reserva Natural", "_raw_DS_DOCU": "NORMAS SUBSIDIARIAS", "_raw_DS_LEY": "CM Ley 9/1995, E RDL 1/1992", "_raw_FC_AC": "1996-10-29", "_raw_NM_AREA_M2": 3574690.1722521, "_cam_code": "132" }, "geometry": { "type": "Polygon", "coordinates": [ [ [ -3.5642, 40.2071 ], [ -3.5642, 40.2066 ], [ -3.5638, 40.2062 ], [ -3.5635, 40.2056 ], [ -3.5631, 40.2052 ], [ -3.5628, 40.2051 ], [ -3.5616, 40.2039 ], [ -3.5609, 40.2029 ], [ -3.5605, 40.201 ], [ -3.5605, 40.199 ], [ -3.5601, 40.1983 ], [ -3.5597, 40.1969 ], [ -3.5596, 40.1959 ], [ -3.5595, 40.1941 ], [ -3.5596, 40.1896 ], [ -3.558, 40.191 ], [ -3.5573, 40.1925 ], [ -3.5574, 40.1928 ], [ -3.558, 40.1934 ], [ -3.5581, 40.1945 ], [ -3.5584, 40.1952 ], [ -3.5585, 40.1962 ], [ -3.5587, 40.197 ], [ -3.5589, 40.1972 ], [ -3.5588, 40.1978 ], [ -3.5586, 40.1979 ], [ -3.5587, 40.1979 ], [ -3.5586, 40.1983 ], [ -3.558, 40.1993 ], [ -3.5579, 40.201 ], [ -3.558, 40.201 ], [ -3.5581, 40.2016 ], [ -3.5582, 40.2016 ], [ -3.5584, 40.2025 ], [ -3.5586, 40.2026 ], [ -3.5586, 40.2029 ], [ -3.5589, 40.2032 ], [ -3.5592, 40.2044 ], [ -3.5594, 40.2045 ], [ -3.5602, 40.2056 ], [ -3.5604, 40.2068 ], [ -3.5603, 40.2084 ], [ -3.5598, 40.2097 ], [ -3.5585, 40.2117 ], [ -3.5566, 40.2139 ], [ -3.5544, 40.2152 ], [ -3.5525, 40.2158 ], [ -3.5509, 40.2159 ], [ -3.5498, 40.2163 ], [ -3.5485, 40.2171 ], [ -3.5476, 40.2182 ], [ -3.5464, 40.2204 ], [ -3.5457, 40.222 ], [ -3.5455, 40.2234 ], [ -3.5453, 40.2239 ], [ -3.5445, 40.2256 ], [ -3.544, 40.2261 ], [ -3.5438, 40.2267 ], [ -3.5418, 40.2283 ], [ -3.5403, 40.2298 ], [ -3.5381, 40.2324 ], [ -3.5378, 40.233 ], [ -3.5378, 40.2342 ], [ -3.5381, 40.235 ], [ -3.5394, 40.237 ], [ -3.5407, 40.2376 ], [ -3.5434, 40.2393 ], [ -3.5442, 40.2403 ], [ -3.5443, 40.2413 ], [ -3.5441, 40.2431 ], [ -3.5435, 40.245 ], [ -3.5432, 40.2473 ], [ -3.5431, 40.2495 ], [ -3.5427, 40.2517 ], [ -3.5424, 40.2522 ], [ -3.5401, 40.254 ], [ -3.5394, 40.2547 ], [ -3.5383, 40.2562 ], [ -3.5375, 40.2585 ], [ -3.5371, 40.2614 ], [ -3.5371, 40.2642 ], [ -3.5372, 40.2647 ], [ -3.5382, 40.266 ], [ -3.5387, 40.2669 ], [ -3.5388, 40.2681 ], [ -3.5378, 40.2696 ], [ -3.5419, 40.271 ], [ -3.5426, 40.2711 ], [ -3.545, 40.2753 ], [ -3.5471, 40.2795 ], [ -3.5481, 40.2805 ], [ -3.5468, 40.2817 ], [ -3.5457, 40.2818 ], [ -3.5438, 40.285 ], [ -3.5425, 40.2864 ], [ -3.542, 40.2883 ], [ -3.5424, 40.2906 ], [ -3.5439, 40.2908 ], [ -3.5438, 40.2903 ], [ -3.5434, 40.2895 ], [ -3.5431, 40.2877 ], [ -3.5435, 40.2868 ], [ -3.5449, 40.2858 ], [ -3.5474, 40.2854 ], [ -3.5502, 40.2854 ], [ -3.5513, 40.2851 ], [ -3.5522, 40.2842 ], [ -3.5526, 40.283 ], [ -3.5529, 40.2826 ], [ -3.5535, 40.2805 ], [ -3.5513, 40.2804 ], [ -3.5503, 40.2802 ], [ -3.5492, 40.2794 ], [ -3.5487, 40.2783 ], [ -3.5515, 40.278 ], [ -3.5508, 40.2767 ], [ -3.5505, 40.2756 ], [ -3.5503, 40.2739 ], [ -3.5508, 40.27 ], [ -3.5505, 40.2697 ], [ -3.5489, 40.2699 ], [ -3.5476, 40.2698 ], [ -3.5465, 40.2693 ], [ -3.5453, 40.2679 ], [ -3.5446, 40.2675 ], [ -3.5443, 40.2675 ], [ -3.5422, 40.2655 ], [ -3.5413, 40.2646 ], [ -3.5404, 40.2633 ], [ -3.5402, 40.2619 ], [ -3.5413, 40.2582 ], [ -3.5419, 40.2577 ], [ -3.5425, 40.258 ], [ -3.543, 40.2577 ], [ -3.5431, 40.2553 ], [ -3.5427, 40.2537 ], [ -3.5428, 40.253 ], [ -3.5442, 40.2517 ], [ -3.5461, 40.2508 ], [ -3.548, 40.2493 ], [ -3.5487, 40.2482 ], [ -3.5489, 40.2474 ], [ -3.5488, 40.2467 ], [ -3.5489, 40.2464 ], [ -3.5487, 40.2459 ], [ -3.5484, 40.2457 ], [ -3.548, 40.245 ], [ -3.5477, 40.2448 ], [ -3.5472, 40.2441 ], [ -3.5471, 40.2433 ], [ -3.5473, 40.2422 ], [ -3.5471, 40.2415 ], [ -3.5466, 40.2405 ], [ -3.5456, 40.2394 ], [ -3.5453, 40.2393 ], [ -3.5448, 40.2388 ], [ -3.5436, 40.2382 ], [ -3.5436, 40.2381 ], [ -3.543, 40.238 ], [ -3.5427, 40.2377 ], [ -3.5424, 40.2376 ], [ -3.5417, 40.2369 ], [ -3.5413, 40.2359 ], [ -3.5411, 40.2358 ], [ -3.5411, 40.2355 ], [ -3.5407, 40.2352 ], [ -3.5411, 40.2328 ], [ -3.5412, 40.2328 ], [ -3.5412, 40.2325 ], [ -3.5413, 40.2325 ], [ -3.5416, 40.2316 ], [ -3.5425, 40.2309 ], [ -3.5429, 40.2302 ], [ -3.5432, 40.23 ], [ -3.5432, 40.2298 ], [ -3.5435, 40.2297 ], [ -3.545, 40.2305 ], [ -3.5451, 40.2303 ], [ -3.5449, 40.2301 ], [ -3.5447, 40.2295 ], [ -3.5448, 40.2292 ], [ -3.545, 40.2291 ], [ -3.5455, 40.2282 ], [ -3.546, 40.2277 ], [ -3.5462, 40.2277 ], [ -3.5466, 40.2273 ], [ -3.5468, 40.2273 ], [ -3.5469, 40.2271 ], [ -3.5473, 40.2269 ], [ -3.5473, 40.2267 ], [ -3.5475, 40.2266 ], [ -3.5475, 40.2264 ], [ -3.5477, 40.2262 ], [ -3.5478, 40.2254 ], [ -3.5479, 40.2254 ], [ -3.5479, 40.2251 ], [ -3.548, 40.2251 ], [ -3.5481, 40.2247 ], [ -3.5483, 40.2245 ], [ -3.5485, 40.2245 ], [ -3.5493, 40.2236 ], [ -3.5491, 40.2223 ], [ -3.549, 40.2223 ], [ -3.5489, 40.2216 ], [ -3.5488, 40.2216 ], [ -3.5488, 40.2213 ], [ -3.5492, 40.2209 ], [ -3.5494, 40.2209 ], [ -3.551, 40.2193 ], [ -3.5523, 40.2191 ], [ -3.5537, 40.2181 ], [ -3.5553, 40.2172 ], [ -3.556, 40.2164 ], [ -3.5568, 40.2159 ], [ -3.5569, 40.2155 ], [ -3.558, 40.2148 ], [ -3.5591, 40.2148 ], [ -3.5593, 40.2143 ], [ -3.56, 40.2136 ], [ -3.5603, 40.2129 ], [ -3.5606, 40.2126 ], [ -3.5621, 40.212 ], [ -3.5626, 40.2116 ], [ -3.5628, 40.2116 ], [ -3.5634, 40.211 ], [ -3.5636, 40.2092 ], [ -3.5642, 40.2071 ] ] ] } },
{ "type": "Feature", "properties": { "municipio": "San Martín de la Vega", "clasificacion": "no-urbanizable-protegido", "calificacion": "sin-asignar", "version": "vigente", "fuente": "SIT-CAM WFS — UsoDelSuelo:VPLA_V_CLASIFICACION (https://idem.comunidad.madrid/geosrvg/ows)", "fecha_dato": "2026-05-12", "ambito": "31732", "_raw_CD_SIGLAS": "SNUP", "_raw_DS_CLASIF_GEN": "Suelo No Urbanizable Protegido", "_raw_DS_CLASIF_DET": "Suelo No Urbanizable Especialmente Protegido. Reserva Natural", "_raw_DS_DOCU": "NORMAS SUBSIDIARIAS", "_raw_DS_LEY": "CM Ley 9/1995, E RDL 1/1992", "_raw_FC_AC": "1996-10-29", "_raw_NM_AREA_M2": 25152.631901220098, "_cam_code": "132" }, "geometry": { "type": "Polygon", "coordinates": [ [ [ -3.5552, 40.2946 ], [ -3.5545, 40.2946 ], [ -3.5545, 40.2947 ], [ -3.5539, 40.2948 ], [ -3.5536, 40.2951 ], [ -3.5536, 40.296 ], [ -3.5537, 40.2961 ], [ -3.5552, 40.2957 ], [ -3.5566, 40.2948 ], [ -3.556, 40.2947 ], [ -3.556, 40.2946 ], [ -3.5552, 40.2946 ] ] ] } },
{ "type": "Feature", "properties": { "municipio": "San Martín de la Vega", "clasificacion": "no-urbanizable-protegido", "calificacion": "sin-asignar", "version": "vigente", "fuente": "SIT-CAM WFS — UsoDelSuelo:VPLA_V_CLASIFICACION (https://idem.comunidad.madrid/geosrvg/ows)", "fecha_dato": "2026-05-12", "ambito": "31732", "_raw_CD_SIGLAS": "SNUP", "_raw_DS_CLASIF_GEN": "Suelo No Urbanizable Protegido", "_raw_DS_CLASIF_DET": "Suelo No Urbanizable Especialmente Protegido. De Explotación Ordenada de Recursos Naturales", "_raw_DS_DOCU": "NORMAS SUBSIDIARIAS", "_raw_DS_LEY": "CM Ley 9/1995, E RDL 1/1992", "_raw_FC_AC": "1996-10-29", "_raw_NM_AREA_M2": 18928.857572875299, "_cam_code": "132" }, "geometry": { "type": "Polygon", "coordinates": [ [ [ -3.5915, 40.2016 ], [ -3.5897, 40.2027 ], [ -3.5895, 40.2029 ], [ -3.5895, 40.2032 ], [ -3.5905, 40.203 ], [ -3.5905, 40.2029 ], [ -3.5911, 40.2028 ], [ -3.5913, 40.2026 ], [ -3.5917, 40.2025 ], [ -3.5922, 40.202 ], [ -3.5923, 40.2014 ], [ -3.5922, 40.2013 ], [ -3.5921, 40.2015 ], [ -3.5915, 40.2016 ] ] ] } },
{ "type": "Feature", "properties": { "municipio": "San Martín de la Vega", "clasificacion": "no-urbanizable-protegido", "calificacion": "sin-asignar", "version": "vigente", "fuente": "SIT-CAM WFS — UsoDelSuelo:VPLA_V_CLASIFICACION (https://idem.comunidad.madrid/geosrvg/ows)", "fecha_dato": "2026-05-12", "ambito": "31732", "_raw_CD_SIGLAS": "SNUP", "_raw_DS_CLASIF_GEN": "Suelo No Urbanizable Protegido", "_raw_DS_CLASIF_DET": "Suelo No Urbanizable Especialmente Protegido. De Explotación Ordenada de Recursos Naturales", "_raw_DS_DOCU": "NORMAS SUBSIDIARIAS", "_raw_DS_LEY": "CM Ley 9/1995, E RDL 1/1992", "_raw_FC_AC": "1996-10-29", "_raw_NM_AREA_M2": 122813.280765352, "_cam_code": "132" }, "geometry": { "type": "Polygon", "coordinates": [ [ [ -3.5832, 40.2021 ], [ -3.5834, 40.2021 ], [ -3.5828, 40.2041 ], [ -3.5846, 40.2045 ], [ -3.5881, 40.2035 ], [ -3.5898, 40.2018 ], [ -3.5915, 40.2016 ], [ -3.5856, 40.2018 ], [ -3.5832, 40.2021 ] ] ] } },
{ "type": "Feature", "properties": { "municipio": "San Martín de la Vega", "clasificacion": "no-urbanizable-protegido", "calificacion": "sin-asignar", "version": "vigente", "fuente": "SIT-CAM WFS — UsoDelSuelo:VPLA_V_CLASIFICACION (https://idem.comunidad.madrid/geosrvg/ows)", "fecha_dato": "2026-05-12", "ambito": "31732", "_raw_CD_SIGLAS": "SNUP", "_raw_DS_CLASIF_GEN": "Suelo No Urbanizable Protegido", "_raw_DS_CLASIF_DET": "Suelo No Urbanizable Especialmente Protegido. De Explotación Ordenada de Recursos Naturales", "_raw_DS_DOCU": "NORMAS SUBSIDIARIAS", "_raw_DS_LEY": "CM Ley 9/1995, E RDL 1/1992", "_raw_FC_AC": "1996-10-29", "_raw_NM_AREA_M2": 370594.648597683, "_cam_code": "132" }, "geometry": { "type": "Polygon", "coordinates": [ [ [ -3.5658, 40.2105 ], [ -3.5656, 40.2145 ], [ -3.5664, 40.2145 ], [ -3.567, 40.2137 ], [ -3.567, 40.2134 ], [ -3.5668, 40.213 ], [ -3.567, 40.2118 ], [ -3.5673, 40.2111 ], [ -3.5676, 40.2109 ], [ -3.5682, 40.2101 ], [ -3.5682, 40.21 ], [ -3.5675, 40.2101 ], [ -3.5674, 40.21 ], [ -3.5675, 40.2097 ], [ -3.5685, 40.2097 ], [ -3.5684, 40.2095 ], [ -3.5688, 40.2094 ], [ -3.5688, 40.2093 ], [ -3.5685, 40.2089 ], [ -3.5679, 40.2087 ], [ -3.5681, 40.2084 ], [ -3.5678, 40.2084 ], [ -3.5672, 40.208 ], [ -3.5668, 40.208 ], [ -3.5669, 40.2079 ], [ -3.5668, 40.2077 ], [ -3.5671, 40.2075 ], [ -3.5673, 40.2071 ], [ -3.5677, 40.2073 ], [ -3.5679, 40.207 ], [ -3.568, 40.2071 ], [ -3.5681, 40.207 ], [ -3.568, 40.207 ], [ -3.5681, 40.207 ], [ -3.5681, 40.2067 ], [ -3.5683, 40.2064 ], [ -3.5682, 40.2062 ], [ -3.5686, 40.2059 ], [ -3.5691, 40.205 ], [ -3.5694, 40.205 ], [ -3.5694, 40.2046 ], [ -3.5708, 40.2049 ], [ -3.5708, 40.205 ], [ -3.5713, 40.205 ], [ -3.5716, 40.2047 ], [ -3.5724, 40.2044 ], [ -3.5728, 40.2046 ], [ -3.5722, 40.2052 ], [ -3.5722, 40.2055 ], [ -3.5726, 40.2057 ], [ -3.5774, 40.2059 ], [ -3.5773, 40.2069 ], [ -3.5797, 40.2062 ], [ -3.5788, 40.2044 ], [ -3.581, 40.2042 ], [ -3.5818, 40.2022 ], [ -3.5817, 40.2023 ], [ -3.5786, 40.2026 ], [ -3.5749, 40.2032 ], [ -3.5696, 40.2044 ], [ -3.5688, 40.2047 ], [ -3.5681, 40.2052 ], [ -3.567, 40.2066 ], [ -3.5667, 40.2072 ], [ -3.566, 40.2094 ], [ -3.5658, 40.2105 ] ] ] } },
{ "type": "Feature", "properties": { "municipio": "San Martín de la Vega", "clasificacion": "no-urbanizable-protegido", "calificacion": "sin-asignar", "version": "vigente", "fuente": "SIT-CAM WFS — UsoDelSuelo:VPLA_V_CLASIFICACION (https://idem.comunidad.madrid/geosrvg/ows)", "fecha_dato": "2026-05-12", "ambito": "31732", "_raw_CD_SIGLAS": "SNUP", "_raw_DS_CLASIF_GEN": "Suelo No Urbanizable Protegido", "_raw_DS_CLASIF_DET": "Suelo No Urbanizable Especialmente Protegido. De Explotación Ordenada de Recursos Naturales", "_raw_DS_DOCU": "NORMAS SUBSIDIARIAS", "_raw_DS_LEY": "CM Ley 9/1995, E RDL 1/1992", "_raw_FC_AC": "1996-10-29", "_raw_NM_AREA_M2": 2541238.7755085598, "_cam_code": "132" }, "geometry": { "type": "Polygon", "coordinates": [ [ [ -3.5932, 40.1999 ], [ -3.5929, 40.1995 ], [ -3.5924, 40.1981 ], [ -3.5923, 40.1981 ], [ -3.5916, 40.1964 ], [ -3.5913, 40.1963 ], [ -3.5855, 40.1952 ], [ -3.5851, 40.1953 ], [ -3.5847, 40.1951 ], [ -3.5843, 40.1951 ], [ -3.5823, 40.1946 ], [ -3.5808, 40.1944 ], [ -3.5793, 40.194 ], [ -3.5775, 40.1938 ], [ -3.5722, 40.1927 ], [ -3.5659, 40.1917 ], [ -3.5609, 40.1902 ], [ -3.5605, 40.1899 ], [ -3.5602, 40.1899 ], [ -3.5602, 40.1898 ], [ -3.5596, 40.1896 ], [ -3.5595, 40.191 ], [ -3.5596, 40.1959 ], [ -3.5597, 40.1969 ], [ -3.5601, 40.1983 ], [ -3.5605, 40.199 ], [ -3.5605, 40.201 ], [ -3.5609, 40.2029 ], [ -3.5616, 40.2039 ], [ -3.5628, 40.2051 ], [ -3.5631, 40.2052 ], [ -3.5635, 40.2056 ], [ -3.5638, 40.2062 ], [ -3.5642, 40.2066 ], [ -3.5642, 40.2071 ], [ -3.5648, 40.2059 ], [ -3.566, 40.2044 ], [ -3.5669, 40.2036 ], [ -3.5706, 40.2022 ], [ -3.5776, 40.2009 ], [ -3.5825, 40.2003 ], [ -3.5904, 40.1998 ], [ -3.5932, 40.1999 ] ] ] } },
{ "type": "Feature", "properties": { "municipio": "San Martín de la Vega", "clasificacion": "no-urbanizable-protegido", "calificacion": "sin-asignar", "version": "vigente", "fuente": "SIT-CAM WFS — UsoDelSuelo:VPLA_V_CLASIFICACION (https://idem.comunidad.madrid/geosrvg/ows)", "fecha_dato": "2026-05-12", "ambito": "31732", "_raw_CD_SIGLAS": "SNUP", "_raw_DS_CLASIF_GEN": "Suelo No Urbanizable Protegido", "_raw_DS_CLASIF_DET": "Suelo No Urbanizable Especialmente Protegido. De Explotación Ordenada de Recursos Naturales.Trazado Orientativo Área de Reserva Circunvalación Sur", "_raw_DS_DOCU": "NORMAS SUBSIDIARIAS", "_raw_DS_LEY": "CM Ley 9/1995, E RDL 1/1992", "_raw_FC_AC": "1996-10-29", "_raw_NM_AREA_M2": 735157.98005634197, "_cam_code": "132" }, "geometry": { "type": "Polygon", "coordinates": [ [ [ -3.5642, 40.2071 ], [ -3.5641, 40.2094 ], [ -3.5645, 40.2098 ], [ -3.5645, 40.21 ], [ -3.5634, 40.2109 ], [ -3.5632, 40.2146 ], [ -3.5639, 40.2182 ], [ -3.5657, 40.2168 ], [ -3.5656, 40.2135 ], [ -3.5658, 40.2105 ], [ -3.566, 40.2094 ], [ -3.5667, 40.2072 ], [ -3.567, 40.2066 ], [ -3.5681, 40.2052 ], [ -3.5688, 40.2047 ], [ -3.5696, 40.2044 ], [ -3.5749, 40.2032 ], [ -3.5786, 40.2026 ], [ -3.5817, 40.2023 ], [ -3.582, 40.2019 ], [ -3.5832, 40.2021 ], [ -3.5856, 40.2018 ], [ -3.5917, 40.2016 ], [ -3.5921, 40.2015 ], [ -3.5923, 40.2012 ], [ -3.593, 40.2013 ], [ -3.5931, 40.2015 ], [ -3.594, 40.2016 ], [ -3.5942, 40.2018 ], [ -3.5932, 40.1999 ], [ -3.5925, 40.1999 ], [ -3.5924, 40.1998 ], [ -3.5845, 40.2001 ], [ -3.5798, 40.2006 ], [ -3.5758, 40.2012 ], [ -3.5706, 40.2022 ], [ -3.5669, 40.2036 ], [ -3.566, 40.2044 ], [ -3.5648, 40.2059 ], [ -3.5642, 40.2071 ] ] ] } },
{ "type": "Feature", "properties": { "municipio": "San Martín de la Vega", "clasificacion": "no-urbanizable-protegido", "calificacion": "sin-asignar", "version": "vigente", "fuente": "SIT-CAM WFS — UsoDelSuelo:VPLA_V_CLASIFICACION (https://idem.comunidad.madrid/geosrvg/ows)", "fecha_dato": "2026-05-12", "ambito": "31732", "_raw_CD_SIGLAS": "SNUP", "_raw_DS_CLASIF_GEN": "Suelo No Urbanizable Protegido", "_raw_DS_CLASIF_DET": "Suelo No Urbanizable Especialmente Protegido. Reserva Natural. Trazado Orientativo Área de Reserva Circunvalación Sur", "_raw_DS_DOCU": "NORMAS SUBSIDIARIAS", "_raw_DS_LEY": "CM Ley 9/1995, E RDL 1/1992", "_raw_FC_AC": "1996-10-29", "_raw_NM_AREA_M2": 13898.1686665464, "_cam_code": "132" }, "geometry": { "type": "Polygon", "coordinates": [ [ [ -3.5642, 40.2071 ], [ -3.5636, 40.2092 ], [ -3.5634, 40.2109 ], [ -3.5645, 40.21 ], [ -3.5645, 40.2098 ], [ -3.5641, 40.2094 ], [ -3.5642, 40.2071 ] ] ] } },
{ "type": "Feature", "properties": { "municipio": "San Martín de la Vega", "clasificacion": "no-urbanizable-protegido", "calificacion": "sin-asignar", "version": "vigente", "fuente": "SIT-CAM WFS — UsoDelSuelo:VPLA_V_CLASIFICACION (https://idem.comunidad.madrid/geosrvg/ows)", "fecha_dato": "2026-05-12", "ambito": "249", "_raw_CD_SIGLAS": "SNUP", "_raw_DS_CLASIF_GEN": "Suelo No Urbanizable Protegido", "_raw_DS_CLASIF_DET": "Suelo No Urbanizable Especialmente Protegido. De Explotación Ordenada de Recursos Naturales, con Uso Residencial Permisible", "_raw_DS_DOCU": "PLAN DE ORDENACION DE NUCLEO DE POBLACION", "_raw_DS_LEY": "CM Ley 4/1984, E RD 1346/1976", "_raw_FC_AC": "1988-12-20", "_raw_NM_AREA_M2": 87361.492356311704, "_cam_code": "132" }, "geometry": { "type": "Polygon", "coordinates": [ [ [ -3.5304, 40.232 ], [ -3.5305, 40.2321 ], [ -3.531, 40.2321 ], [ -3.531, 40.2322 ], [ -3.5313, 40.2321 ], [ -3.5332, 40.2321 ], [ -3.5331, 40.2313 ], [ -3.5334, 40.231 ], [ -3.5335, 40.2304 ], [ -3.5331, 40.2301 ], [ -3.5327, 40.2295 ], [ -3.532, 40.2295 ], [ -3.532, 40.2294 ], [ -3.5307, 40.2291 ], [ -3.5298, 40.229 ], [ -3.5298, 40.2303 ], [ -3.5299, 40.2304 ], [ -3.53, 40.2321 ], [ -3.5304, 40.232 ] ] ] } },
{ "type": "Feature", "properties": { "municipio": "San Martín de la Vega", "clasificacion": "urbano-consolidado", "calificacion": "sin-asignar", "version": "vigente", "fuente": "SIT-CAM WFS — UsoDelSuelo:VPLA_V_CLASIFICACION (https://idem.comunidad.madrid/geosrvg/ows)", "fecha_dato": "2026-05-12", "ambito": "31732", "_raw_CD_SIGLAS": "SU", "_raw_DS_CLASIF_GEN": "Suelo Urbano", "_raw_DS_CLASIF_DET": "Suelo Urbano con Uso Residencial", "_raw_DS_DOCU": "NORMAS SUBSIDIARIAS", "_raw_DS_LEY": "CM Ley 9/1995, E RDL 1/1992", "_raw_FC_AC": "1996-10-29", "_raw_NM_AREA_M2": 16673.7426255256, "_cam_code": "132" }, "geometry": { "type": "Polygon", "coordinates": [ [ [ -3.589, 40.2156 ], [ -3.59, 40.2166 ], [ -3.5902, 40.2164 ], [ -3.5905, 40.2164 ], [ -3.5903, 40.2162 ], [ -3.5903, 40.216 ], [ -3.5908, 40.2158 ], [ -3.5914, 40.2159 ], [ -3.5919, 40.2157 ], [ -3.5919, 40.2154 ], [ -3.591, 40.2154 ], [ -3.5909, 40.2153 ], [ -3.5908, 40.2154 ], [ -3.5908, 40.2153 ], [ -3.5907, 40.2154 ], [ -3.5897, 40.2153 ], [ -3.5898, 40.2155 ], [ -3.589, 40.2154 ], [ -3.589, 40.2156 ] ] ] } },
{ "type": "Feature", "properties": { "municipio": "San Martín de la Vega", "clasificacion": "urbano-consolidado", "calificacion": "sin-asignar", "version": "vigente", "fuente": "SIT-CAM WFS — UsoDelSuelo:VPLA_V_CLASIFICACION (https://idem.comunidad.madrid/geosrvg/ows)", "fecha_dato": "2026-05-12", "ambito": "31732", "_raw_CD_SIGLAS": "SU", "_raw_DS_CLASIF_GEN": "Suelo Urbano", "_raw_DS_CLASIF_DET": "Suelo Urbano con Uso Residencial", "_raw_DS_DOCU": "NORMAS SUBSIDIARIAS", "_raw_DS_LEY": "CM Ley 9/1995, E RDL 1/1992", "_raw_FC_AC": "1996-10-29", "_raw_NM_AREA_M2": 1749629.4793288601, "_cam_code": "132" }, "geometry": { "type": "Polygon", "coordinates": [ [ [ -3.5864, 40.218 ], [ -3.5881, 40.2185 ], [ -3.5881, 40.2178 ], [ -3.5882, 40.2177 ], [ -3.5883, 40.2167 ], [ -3.5885, 40.2166 ], [ -3.5885, 40.2156 ], [ -3.5886, 40.2156 ], [ -3.5883, 40.2154 ], [ -3.5883, 40.2152 ], [ -3.5885, 40.2151 ], [ -3.5881, 40.2149 ], [ -3.5886, 40.2144 ], [ -3.5868, 40.2135 ], [ -3.5864, 40.2135 ], [ -3.5854, 40.2131 ], [ -3.5854, 40.2126 ], [ -3.5859, 40.2121 ], [ -3.5862, 40.212 ], [ -3.5862, 40.2118 ], [ -3.5859, 40.2115 ], [ -3.5857, 40.2115 ], [ -3.5851, 40.212 ], [ -3.5849, 40.2134 ], [ -3.5852, 40.2136 ], [ -3.5852, 40.2138 ], [ -3.5845, 40.2137 ], [ -3.5844, 40.2134 ], [ -3.5845, 40.2134 ], [ -3.5825, 40.2129 ], [ -3.5829, 40.2121 ], [ -3.5818, 40.2119 ], [ -3.5822, 40.2105 ], [ -3.5818, 40.2095 ], [ -3.5816, 40.2093 ], [ -3.5817, 40.2093 ], [ -3.5821, 40.2078 ], [ -3.5853, 40.2083 ], [ -3.5855, 40.208 ], [ -3.5862, 40.2075 ], [ -3.5869, 40.2066 ], [ -3.5871, 40.2066 ], [ -3.5873, 40.2064 ], [ -3.5889, 40.2043 ], [ -3.5892, 40.2041 ], [ -3.5892, 40.2042 ], [ -3.59, 40.204 ], [ -3.5895, 40.2032 ], [ -3.5895, 40.2029 ], [ -3.5901, 40.2024 ], [ -3.5915, 40.2016 ], [ -3.5898, 40.2018 ], [ -3.5881, 40.2035 ], [ -3.5846, 40.2045 ], [ -3.5828, 40.2041 ], [ -3.5834, 40.2021 ], [ -3.582, 40.2019 ], [ -3.5818, 40.2021 ], [ -3.581, 40.2042 ], [ -3.5788, 40.2044 ], [ -3.5797, 40.2062 ], [ -3.5773, 40.2069 ], [ -3.5774, 40.2059 ], [ -3.5726, 40.2057 ], [ -3.5722, 40.2055 ], [ -3.5722, 40.2052 ], [ -3.5728, 40.2046 ], [ -3.5724, 40.2044 ], [ -3.5716, 40.2047 ], [ -3.5713, 40.205 ], [ -3.5708, 40.205 ], [ -3.5708, 40.2049 ], [ -3.5694, 40.2046 ], [ -3.5694, 40.205 ], [ -3.5691, 40.205 ], [ -3.5686, 40.2059 ], [ -3.5682, 40.2062 ], [ -3.5683, 40.2064 ], [ -3.5681, 40.2067 ], [ -3.5681, 40.207 ], [ -3.568, 40.2071 ], [ -3.5679, 40.207 ], [ -3.5677, 40.2073 ], [ -3.5673, 40.2071 ], [ -3.5671, 40.2075 ], [ -3.5668, 40.2077 ], [ -3.5669, 40.2078 ], [ -3.5668, 40.208 ], [ -3.5672, 40.208 ], [ -3.5678, 40.2084 ], [ -3.5681, 40.2084 ], [ -3.5679, 40.2087 ], [ -3.5685, 40.2089 ], [ -3.5688, 40.2093 ], [ -3.5688, 40.2094 ], [ -3.5684, 40.2095 ], [ -3.5685, 40.2097 ], [ -3.5675, 40.2097 ], [ -3.5674, 40.21 ], [ -3.5675, 40.2101 ], [ -3.5682, 40.21 ], [ -3.5682, 40.2101 ], [ -3.5676, 40.2109 ], [ -3.5673, 40.2111 ], [ -3.567, 40.2118 ], [ -3.5668, 40.2127 ], [ -3.567, 40.2137 ], [ -3.5664, 40.2145 ], [ -3.5656, 40.2145 ], [ -3.5657, 40.2163 ], [ -3.5657, 40.2168 ], [ -3.5656, 40.2169 ], [ -3.567, 40.2177 ], [ -3.5674, 40.2179 ], [ -3.5685, 40.2163 ], [ -3.5687, 40.2156 ], [ -3.5696, 40.2156 ], [ -3.5696, 40.2152 ], [ -3.5697, 40.2152 ], [ -3.5698, 40.2148 ], [ -3.5702, 40.2143 ], [ -3.5703, 40.2137 ], [ -3.5704, 40.2137 ], [ -3.5707, 40.2122 ], [ -3.571, 40.2122 ], [ -3.5713, 40.2123 ], [ -3.5714, 40.2126 ], [ -3.5725, 40.2127 ], [ -3.573, 40.213 ], [ -3.5737, 40.2131 ], [ -3.5749, 40.2136 ], [ -3.5755, 40.2137 ], [ -3.5755, 40.2138 ], [ -3.5759, 40.2139 ], [ -3.5761, 40.2136 ], [ -3.5763, 40.2136 ], [ -3.5766, 40.2138 ], [ -3.5792, 40.2147 ], [ -3.5794, 40.2145 ], [ -3.5795, 40.2141 ], [ -3.5796, 40.2141 ], [ -3.5836, 40.2155 ], [ -3.5845, 40.2157 ], [ -3.5846, 40.2158 ], [ -3.5845, 40.2158 ], [ -3.5844, 40.2166 ], [ -3.5838, 40.2181 ], [ -3.584, 40.2181 ], [ -3.584, 40.2182 ], [ -3.5855, 40.2182 ], [ -3.5859, 40.218 ], [ -3.5864, 40.218 ] ] ] } },
{ "type": "Feature", "properties": { "municipio": "San Martín de la Vega", "clasificacion": "urbano-consolidado", "calificacion": "sin-asignar", "version": "vigente", "fuente": "SIT-CAM WFS — UsoDelSuelo:VPLA_V_CLASIFICACION (https://idem.comunidad.madrid/geosrvg/ows)", "fecha_dato": "2026-05-12", "ambito": "31732", "_raw_CD_SIGLAS": "SU", "_raw_DS_CLASIF_GEN": "Suelo Urbano", "_raw_DS_CLASIF_DET": "Suelo Urbano con Uso Productivo", "_raw_DS_DOCU": "NORMAS SUBSIDIARIAS", "_raw_DS_LEY": "CM Ley 9/1995, E RDL 1/1992", "_raw_FC_AC": "1996-10-29", "_raw_NM_AREA_M2": 1510268.05120233, "_cam_code": "132" }, "geometry": { "type": "Polygon", "coordinates": [ [ [ -3.6279, 40.2259 ], [ -3.6254, 40.2383 ], [ -3.6314, 40.2378 ], [ -3.6373, 40.2369 ], [ -3.6396, 40.2367 ], [ -3.6402, 40.2353 ], [ -3.6416, 40.2328 ], [ -3.6436, 40.2297 ], [ -3.6437, 40.2297 ], [ -3.6437, 40.2294 ], [ -3.6431, 40.2288 ], [ -3.6422, 40.2285 ], [ -3.6411, 40.2274 ], [ -3.6402, 40.227 ], [ -3.6398, 40.227 ], [ -3.6398, 40.2269 ], [ -3.6371, 40.2269 ], [ -3.6333, 40.2271 ], [ -3.6332, 40.227 ], [ -3.6321, 40.2269 ], [ -3.6287, 40.2259 ], [ -3.6279, 40.2259 ] ] ] } },
{ "type": "Feature", "properties": { "municipio": "San Martín de la Vega", "clasificacion": "urbanizable-no-sectorizado", "calificacion": "sin-asignar", "version": "vigente", "fuente": "SIT-CAM WFS — UsoDelSuelo:VPLA_V_CLASIFICACION (https://idem.comunidad.madrid/geosrvg/ows)", "fecha_dato": "2026-05-12", "ambito": "248", "_raw_CD_SIGLAS": "SUBNS", "_raw_DS_CLASIF_GEN": "Suelo No Urbanizable Común", "_raw_DS_CLASIF_DET": "Suelo No Urbanizable Común", "_raw_DS_DOCU": "PLAN DE ORDENACION DE NUCLEO DE POBLACION", "_raw_DS_LEY": "CM Ley 4/1984, E RD 1346/1976", "_raw_FC_AC": "1988-12-20", "_raw_NM_AREA_M2": 448468.977663317, "_cam_code": "132" }, "geometry": { "type": "Polygon", "coordinates": [ [ [ -3.5485, 40.2007 ], [ -3.5476, 40.201 ], [ -3.5464, 40.2017 ], [ -3.546, 40.2034 ], [ -3.5501, 40.2048 ], [ -3.5499, 40.2057 ], [ -3.5494, 40.206 ], [ -3.5486, 40.2068 ], [ -3.554, 40.2073 ], [ -3.5541, 40.207 ], [ -3.5553, 40.2064 ], [ -3.5558, 40.206 ], [ -3.5558, 40.2056 ], [ -3.5554, 40.2047 ], [ -3.5555, 40.2032 ], [ -3.5558, 40.2027 ], [ -3.5558, 40.2014 ], [ -3.556, 40.2011 ], [ -3.55, 40.2008 ], [ -3.5491, 40.2003 ], [ -3.5485, 40.2007 ] ] ] } },
{ "type": "Feature", "properties": { "municipio": "San Martín de la Vega", "clasificacion": "urbanizable-no-sectorizado", "calificacion": "sin-asignar", "version": "vigente", "fuente": "SIT-CAM WFS — UsoDelSuelo:VPLA_V_CLASIFICACION (https://idem.comunidad.madrid/geosrvg/ows)", "fecha_dato": "2026-05-12", "ambito": "31732", "_raw_CD_SIGLAS": "SUBNS", "_raw_DS_CLASIF_GEN": "Suelo No Urbanizable Común", "_raw_DS_CLASIF_DET": "Suelo No Urbanizable Común Grado 1", "_raw_DS_DOCU": "NORMAS SUBSIDIARIAS", "_raw_DS_LEY": "CM Ley 9/1995, E RDL 1/1992", "_raw_FC_AC": "1996-10-29", "_raw_NM_AREA_M2": 3449905.44975308, "_cam_code": "132" }, "geometry": { "type": "Polygon", "coordinates": [ [ [ -3.5718, 40.2231 ], [ -3.5725, 40.225 ], [ -3.5726, 40.225 ], [ -3.5727, 40.2255 ], [ -3.5728, 40.2255 ], [ -3.5729, 40.226 ], [ -3.5731, 40.2262 ], [ -3.5732, 40.2267 ], [ -3.5734, 40.2269 ], [ -3.5734, 40.2272 ], [ -3.5735, 40.2272 ], [ -3.5736, 40.2276 ], [ -3.5737, 40.2276 ], [ -3.5737, 40.2279 ], [ -3.574, 40.2283 ], [ -3.574, 40.2286 ], [ -3.5742, 40.2288 ], [ -3.5743, 40.2293 ], [ -3.5745, 40.2295 ], [ -3.5748, 40.2305 ], [ -3.575, 40.2307 ], [ -3.5751, 40.2312 ], [ -3.5753, 40.2314 ], [ -3.5754, 40.2319 ], [ -3.5755, 40.2319 ], [ -3.5767, 40.2344 ], [ -3.5771, 40.2344 ], [ -3.5853, 40.2343 ], [ -3.5853, 40.2295 ], [ -3.5934, 40.2241 ], [ -3.6004, 40.2246 ], [ -3.6001, 40.2308 ], [ -3.6023, 40.2308 ], [ -3.6041, 40.2292 ], [ -3.6044, 40.2251 ], [ -3.6063, 40.2253 ], [ -3.6092, 40.224 ], [ -3.6126, 40.2238 ], [ -3.6116, 40.2233 ], [ -3.6103, 40.2229 ], [ -3.6098, 40.2225 ], [ -3.6088, 40.2221 ], [ -3.6074, 40.2212 ], [ -3.6072, 40.2212 ], [ -3.6066, 40.2206 ], [ -3.6054, 40.2206 ], [ -3.5945, 40.2187 ], [ -3.5945, 40.2186 ], [ -3.5942, 40.2186 ], [ -3.5942, 40.2189 ], [ -3.5935, 40.2199 ], [ -3.5931, 40.2202 ], [ -3.5929, 40.2202 ], [ -3.5929, 40.2203 ], [ -3.5927, 40.2203 ], [ -3.5927, 40.2204 ], [ -3.5898, 40.221 ], [ -3.5898, 40.2211 ], [ -3.5882, 40.2215 ], [ -3.5882, 40.2216 ], [ -3.5877, 40.2216 ], [ -3.5877, 40.2217 ], [ -3.5855, 40.2217 ], [ -3.5854, 40.2216 ], [ -3.5845, 40.2216 ], [ -3.5844, 40.2215 ], [ -3.5825, 40.2214 ], [ -3.5823, 40.2212 ], [ -3.5825, 40.2211 ], [ -3.5826, 40.2208 ], [ -3.5827, 40.2194 ], [ -3.5838, 40.218 ], [ -3.5805, 40.2175 ], [ -3.58, 40.2168 ], [ -3.5783, 40.2162 ], [ -3.5782, 40.2155 ], [ -3.5767, 40.2151 ], [ -3.5768, 40.2156 ], [ -3.5774, 40.2165 ], [ -3.5749, 40.2161 ], [ -3.5749, 40.216 ], [ -3.5746, 40.216 ], [ -3.5751, 40.2152 ], [ -3.575, 40.2151 ], [ -3.5704, 40.2136 ], [ -3.5702, 40.2143 ], [ -3.5698, 40.2148 ], [ -3.5697, 40.2152 ], [ -3.5696, 40.2152 ], [ -3.5696, 40.2156 ], [ -3.5695, 40.2156 ], [ -3.5696, 40.2163 ], [ -3.5697, 40.2163 ], [ -3.5698, 40.2173 ], [ -3.5699, 40.2173 ], [ -3.5699, 40.2177 ], [ -3.57, 40.2177 ], [ -3.57, 40.218 ], [ -3.5701, 40.218 ], [ -3.5706, 40.2197 ], [ -3.5707, 40.2204 ], [ -3.5708, 40.2204 ], [ -3.5708, 40.2207 ], [ -3.5709, 40.2207 ], [ -3.5713, 40.2222 ], [ -3.5715, 40.2224 ], [ -3.5716, 40.2229 ], [ -3.5718, 40.2231 ] ] ] } },
{ "type": "Feature", "properties": { "municipio": "San Martín de la Vega", "clasificacion": "urbanizable-no-sectorizado", "calificacion": "sin-asignar", "version": "vigente", "fuente": "SIT-CAM WFS — UsoDelSuelo:VPLA_V_CLASIFICACION (https://idem.comunidad.madrid/geosrvg/ows)", "fecha_dato": "2026-05-12", "ambito": "31732", "_raw_CD_SIGLAS": "SUBNS", "_raw_DS_CLASIF_GEN": "Suelo No Urbanizable Común", "_raw_DS_CLASIF_DET": "Suelo No Urbanizable Común Grado 1", "_raw_DS_DOCU": "NORMAS SUBSIDIARIAS", "_raw_DS_LEY": "CM Ley 9/1995, E RDL 1/1992", "_raw_FC_AC": "1996-10-29", "_raw_NM_AREA_M2": 22554.876126955998, "_cam_code": "132" }, "geometry": { "type": "Polygon", "coordinates": [ [ [ -3.6027, 40.2362 ], [ -3.6024, 40.2364 ], [ -3.6023, 40.2373 ], [ -3.6043, 40.2377 ], [ -3.6046, 40.2367 ], [ -3.6036, 40.2365 ], [ -3.6037, 40.2362 ], [ -3.6027, 40.2362 ] ] ] } },
{ "type": "Feature", "properties": { "municipio": "San Martín de la Vega", "clasificacion": "urbanizable-no-sectorizado", "calificacion": "sin-asignar", "version": "vigente", "fuente": "SIT-CAM WFS — UsoDelSuelo:VPLA_V_CLASIFICACION (https://idem.comunidad.madrid/geosrvg/ows)", "fecha_dato": "2026-05-12", "ambito": "31732", "_raw_CD_SIGLAS": "SUBNS", "_raw_DS_CLASIF_GEN": "Suelo No Urbanizable Común", "_raw_DS_CLASIF_DET": "Suelo No Urbanizable Común Grado 2", "_raw_DS_DOCU": "NORMAS SUBSIDIARIAS", "_raw_DS_LEY": "CM Ley 9/1995, E RDL 1/1992", "_raw_FC_AC": "1996-10-29", "_raw_NM_AREA_M2": 4367942.9475924298, "_cam_code": "132" }, "geometry": { "type": "Polygon", "coordinates": [ [ [ -3.6333, 40.2271 ], [ -3.6398, 40.2269 ], [ -3.6398, 40.227 ], [ -3.6402, 40.227 ], [ -3.6403, 40.2271 ], [ -3.6403, 40.2271 ], [ -3.6403, 40.2271 ], [ -3.6404, 40.2271 ], [ -3.6405, 40.2271 ], [ -3.6405, 40.2271 ], [ -3.6407, 40.2272 ], [ -3.641, 40.2274 ], [ -3.6411, 40.2274 ], [ -3.6422, 40.2285 ], [ -3.6431, 40.2288 ], [ -3.6437, 40.2294 ], [ -3.6432, 40.2286 ], [ -3.6425, 40.2282 ], [ -3.6425, 40.2281 ], [ -3.6414, 40.2275 ], [ -3.6412, 40.2275 ], [ -3.641, 40.2273 ], [ -3.6409, 40.2273 ], [ -3.6409, 40.2273 ], [ -3.6408, 40.2273 ], [ -3.6408, 40.2272 ], [ -3.6406, 40.2272 ], [ -3.6405, 40.2271 ], [ -3.6401, 40.2269 ], [ -3.6399, 40.2269 ], [ -3.6395, 40.2265 ], [ -3.6347, 40.2237 ], [ -3.6309, 40.2232 ], [ -3.6299, 40.2225 ], [ -3.6279, 40.2214 ], [ -3.6266, 40.2212 ], [ -3.6246, 40.2202 ], [ -3.623, 40.2191 ], [ -3.6217, 40.2179 ], [ -3.6197, 40.2152 ], [ -3.6186, 40.2132 ], [ -3.6175, 40.2117 ], [ -3.6168, 40.2117 ], [ -3.6154, 40.211 ], [ -3.6148, 40.2105 ], [ -3.6144, 40.2097 ], [ -3.6131, 40.2086 ], [ -3.607, 40.2059 ], [ -3.6065, 40.2051 ], [ -3.6059, 40.2045 ], [ -3.6052, 40.2043 ], [ -3.6052, 40.204 ], [ -3.6044, 40.2037 ], [ -3.6039, 40.2037 ], [ -3.6028, 40.2034 ], [ -3.6007, 40.2033 ], [ -3.6002, 40.2031 ], [ -3.5994, 40.203 ], [ -3.5988, 40.2026 ], [ -3.5979, 40.2024 ], [ -3.5974, 40.2024 ], [ -3.5964, 40.2027 ], [ -3.5954, 40.2026 ], [ -3.5952, 40.202 ], [ -3.5942, 40.2019 ], [ -3.594, 40.2016 ], [ -3.5936, 40.2016 ], [ -3.5935, 40.2015 ], [ -3.5935, 40.2015 ], [ -3.5934, 40.2015 ], [ -3.5934, 40.2015 ], [ -3.5933, 40.2015 ], [ -3.5932, 40.2015 ], [ -3.5932, 40.2015 ], [ -3.5931, 40.2015 ], [ -3.5931, 40.2014 ], [ -3.593, 40.2013 ], [ -3.5928, 40.2013 ], [ -3.5936, 40.202 ], [ -3.5944, 40.2032 ], [ -3.595, 40.2054 ], [ -3.5955, 40.2145 ], [ -3.5953, 40.2159 ], [ -3.5943, 40.2186 ], [ -3.6054, 40.2206 ], [ -3.6066, 40.2206 ], [ -3.6072, 40.2212 ], [ -3.6074, 40.2212 ], [ -3.6088, 40.2221 ], [ -3.6098, 40.2225 ], [ -3.6103, 40.2229 ], [ -3.6136, 40.2241 ], [ -3.6138, 40.2244 ], [ -3.6149, 40.2245 ], [ -3.6162, 40.2249 ], [ -3.6252, 40.2251 ], [ -3.6279, 40.2259 ], [ -3.6288, 40.2259 ], [ -3.6306, 40.2265 ], [ -3.6333, 40.2271 ] ] ] } },
{ "type": "Feature", "properties": { "municipio": "San Martín de la Vega", "clasificacion": "urbanizable-no-sectorizado", "calificacion": "sin-asignar", "version": "vigente", "fuente": "SIT-CAM WFS — UsoDelSuelo:VPLA_V_CLASIFICACION (https://idem.comunidad.madrid/geosrvg/ows)", "fecha_dato": "2026-05-12", "ambito": "31732", "_raw_CD_SIGLAS": "SUBNS", "_raw_DS_CLASIF_GEN": "Suelo No Urbanizable Común", "_raw_DS_CLASIF_DET": "Suelo No Urbanizable Común Grado 3", "_raw_DS_DOCU": "NORMAS SUBSIDIARIAS", "_raw_DS_LEY": "CM Ley 9/1995, E RDL 1/1992", "_raw_FC_AC": "1996-10-29", "_raw_NM_AREA_M2": 1482095.6859424899, "_cam_code": "132" }, "geometry": { "type": "Polygon", "coordinates": [ [ [ -3.5855, 40.2217 ], [ -3.5882, 40.2216 ], [ -3.5882, 40.2215 ], [ -3.5885, 40.2215 ], [ -3.5885, 40.2214 ], [ -3.5898, 40.2211 ], [ -3.5898, 40.221 ], [ -3.5924, 40.2205 ], [ -3.5924, 40.2204 ], [ -3.5927, 40.2204 ], [ -3.5927, 40.2203 ], [ -3.5934, 40.22 ], [ -3.5942, 40.2189 ], [ -3.5942, 40.2186 ], [ -3.5943, 40.2186 ], [ -3.5953, 40.2159 ], [ -3.5955, 40.2143 ], [ -3.5949, 40.2048 ], [ -3.5944, 40.2032 ], [ -3.5939, 40.2024 ], [ -3.593, 40.2014 ], [ -3.5926, 40.2013 ], [ -3.5926, 40.2012 ], [ -3.5922, 40.2013 ], [ -3.5923, 40.2018 ], [ -3.5917, 40.2025 ], [ -3.5913, 40.2026 ], [ -3.5911, 40.2028 ], [ -3.5905, 40.2029 ], [ -3.5905, 40.203 ], [ -3.5895, 40.2032 ], [ -3.59, 40.204 ], [ -3.5892, 40.2042 ], [ -3.5892, 40.2041 ], [ -3.5887, 40.2045 ], [ -3.5873, 40.2064 ], [ -3.5871, 40.2066 ], [ -3.5869, 40.2066 ], [ -3.5862, 40.2075 ], [ -3.5854, 40.2081 ], [ -3.5851, 40.2085 ], [ -3.5848, 40.2093 ], [ -3.5848, 40.2104 ], [ -3.5851, 40.211 ], [ -3.5851, 40.2111 ], [ -3.5851, 40.2112 ], [ -3.5851, 40.2113 ], [ -3.5851, 40.2114 ], [ -3.5851, 40.2115 ], [ -3.5851, 40.2116 ], [ -3.5851, 40.2117 ], [ -3.5851, 40.2117 ], [ -3.5851, 40.2117 ], [ -3.5851, 40.2119 ], [ -3.5851, 40.212 ], [ -3.5851, 40.2121 ], [ -3.5857, 40.2115 ], [ -3.5859, 40.2115 ], [ -3.5862, 40.2118 ], [ -3.5862, 40.212 ], [ -3.5859, 40.2121 ], [ -3.5854, 40.2126 ], [ -3.5854, 40.2131 ], [ -3.5864, 40.2135 ], [ -3.5868, 40.2135 ], [ -3.5886, 40.2144 ], [ -3.5881, 40.2149 ], [ -3.5885, 40.2151 ], [ -3.5883, 40.2152 ], [ -3.5883, 40.2154 ], [ -3.5886, 40.2156 ], [ -3.5885, 40.2156 ], [ -3.5885, 40.2166 ], [ -3.5883, 40.2167 ], [ -3.5881, 40.2185 ], [ -3.5866, 40.218 ], [ -3.5859, 40.218 ], [ -3.5855, 40.2182 ], [ -3.584, 40.2182 ], [ -3.5838, 40.218 ], [ -3.5827, 40.2194 ], [ -3.5826, 40.2208 ], [ -3.5823, 40.2213 ], [ -3.5825, 40.2213 ], [ -3.5825, 40.2214 ], [ -3.5834, 40.2214 ], [ -3.5835, 40.2215 ], [ -3.5844, 40.2215 ], [ -3.5845, 40.2216 ], [ -3.5854, 40.2216 ], [ -3.5855, 40.2217 ] ], [ [ -3.5902, 40.2164 ], [ -3.59, 40.2166 ], [ -3.589, 40.2156 ], [ -3.589, 40.2154 ], [ -3.5898, 40.2155 ], [ -3.5897, 40.2153 ], [ -3.5919, 40.2154 ], [ -3.5919, 40.2157 ], [ -3.5917, 40.2158 ], [ -3.5914, 40.2159 ], [ -3.5908, 40.2158 ], [ -3.5903, 40.216 ], [ -3.5903, 40.2162 ], [ -3.5905, 40.2164 ], [ -3.5902, 40.2164 ] ] ] } },
{ "type": "Feature", "properties": { "municipio": "San Martín de la Vega", "clasificacion": "urbanizable-sectorizado", "calificacion": "sin-asignar", "version": "vigente", "fuente": "SIT-CAM WFS — UsoDelSuelo:VPLA_V_CLASIFICACION (https://idem.comunidad.madrid/geosrvg/ows)", "fecha_dato": "2026-05-12", "ambito": "31732", "_raw_CD_SIGLAS": "SUBS", "_raw_DS_CLASIF_GEN": "Suelo Apto Para Urbanizar", "_raw_DS_CLASIF_DET": "Suelo Apto para Urbanizar", "_raw_DS_DOCU": "NORMAS SUBSIDIARIAS", "_raw_DS_LEY": "CM Ley 9/1995, E RDL 1/1992", "_raw_FC_AC": "1996-10-29", "_raw_NM_AREA_M2": 270332.34953862702, "_cam_code": "132" }, "geometry": { "type": "Polygon", "coordinates": [ [ [ -3.5782, 40.2155 ], [ -3.5783, 40.2162 ], [ -3.58, 40.2168 ], [ -3.5805, 40.2175 ], [ -3.5835, 40.218 ], [ -3.5838, 40.218 ], [ -3.584, 40.2177 ], [ -3.5844, 40.2166 ], [ -3.5845, 40.2158 ], [ -3.5846, 40.2158 ], [ -3.5796, 40.2141 ], [ -3.5795, 40.2141 ], [ -3.5794, 40.2145 ], [ -3.5792, 40.2147 ], [ -3.5766, 40.2138 ], [ -3.5763, 40.2136 ], [ -3.5761, 40.2136 ], [ -3.5759, 40.2139 ], [ -3.5737, 40.2131 ], [ -3.573, 40.213 ], [ -3.5725, 40.2127 ], [ -3.5714, 40.2126 ], [ -3.5713, 40.2123 ], [ -3.5707, 40.2122 ], [ -3.5704, 40.2136 ], [ -3.575, 40.2151 ], [ -3.5751, 40.2152 ], [ -3.5746, 40.216 ], [ -3.5774, 40.2165 ], [ -3.5768, 40.2156 ], [ -3.5767, 40.2151 ], [ -3.5782, 40.2155 ] ] ] } },
{ "type": "Feature", "properties": { "municipio": "San Martín de la Vega", "clasificacion": "urbanizable-sectorizado", "calificacion": "sin-asignar", "version": "vigente", "fuente": "SIT-CAM WFS — UsoDelSuelo:VPLA_V_CLASIFICACION (https://idem.comunidad.madrid/geosrvg/ows)", "fecha_dato": "2026-05-12", "ambito": "31732", "_raw_CD_SIGLAS": "SUBS", "_raw_DS_CLASIF_GEN": "Suelo Apto Para Urbanizar", "_raw_DS_CLASIF_DET": "Suelo Apto para Urbanizar", "_raw_DS_DOCU": "NORMAS SUBSIDIARIAS", "_raw_DS_LEY": "CM Ley 9/1995, E RDL 1/1992", "_raw_FC_AC": "1996-10-29", "_raw_NM_AREA_M2": 143077.405376173, "_cam_code": "132" }, "geometry": { "type": "Polygon", "coordinates": [ [ [ -3.5829, 40.2121 ], [ -3.5825, 40.2129 ], [ -3.5845, 40.2134 ], [ -3.5844, 40.2134 ], [ -3.5845, 40.2137 ], [ -3.5852, 40.2138 ], [ -3.5852, 40.2136 ], [ -3.5849, 40.2134 ], [ -3.5851, 40.2121 ], [ -3.5851, 40.211 ], [ -3.5848, 40.2104 ], [ -3.5848, 40.2093 ], [ -3.5851, 40.2085 ], [ -3.5853, 40.2083 ], [ -3.5821, 40.2078 ], [ -3.5817, 40.2093 ], [ -3.5816, 40.2093 ], [ -3.5818, 40.2095 ], [ -3.5822, 40.2105 ], [ -3.5818, 40.2119 ], [ -3.5829, 40.2121 ] ] ] } }
]
}
