{
"type": "FeatureCollection",
"name": "vigente.full",
"features": [
{ "type": "Feature", "properties": { "municipio": "Garganta de los Montes", "clasificacion": "urbano-consolidado", "calificacion": "sin-asignar", "version": "vigente", "fuente": "SIT-CAM WFS — UsoDelSuelo:VPLA_V_CLASIFICACION (https://idem.comunidad.madrid/geosrvg/ows)", "fecha_dato": "2026-05-12", "ambito": "5124", "_raw_CD_SIGLAS": "SU", "_raw_DS_CLASIF_GEN": "Suelo Urbano", "_raw_DS_CLASIF_DET": "Suelo Urbano", "_raw_DS_DOCU": "PROYECTO DE DELIMITACIÓN SUELO URBANO", "_raw_DS_LEY": "E RD 1346/1976", "_raw_FC_AC": "1982-05-11", "_raw_NM_AREA_M2": 72429.982227598695, "_cam_code": "062" }, "geometry": { "type": "Polygon", "coordinates": [ [ [ -3.6866, 40.923 ], [ -3.6868, 40.9231 ], [ -3.6869, 40.9227 ], [ -3.6872, 40.9227 ], [ -3.6871, 40.9224 ], [ -3.6875, 40.9222 ], [ -3.6881, 40.9224 ], [ -3.6881, 40.9225 ], [ -3.6882, 40.9224 ], [ -3.6889, 40.9225 ], [ -3.6889, 40.9223 ], [ -3.6891, 40.9222 ], [ -3.6895, 40.9222 ], [ -3.6892, 40.9219 ], [ -3.6894, 40.9217 ], [ -3.6898, 40.9217 ], [ -3.6898, 40.9218 ], [ -3.6899, 40.9217 ], [ -3.6898, 40.9214 ], [ -3.6892, 40.9213 ], [ -3.689, 40.9211 ], [ -3.689, 40.9209 ], [ -3.6884, 40.9203 ], [ -3.6883, 40.9204 ], [ -3.6879, 40.9203 ], [ -3.6877, 40.9206 ], [ -3.6879, 40.9207 ], [ -3.6877, 40.9208 ], [ -3.6877, 40.9212 ], [ -3.6866, 40.9213 ], [ -3.6864, 40.9212 ], [ -3.6863, 40.9208 ], [ -3.6861, 40.9209 ], [ -3.686, 40.9215 ], [ -3.6857, 40.9213 ], [ -3.685, 40.9215 ], [ -3.6848, 40.9214 ], [ -3.6845, 40.9215 ], [ -3.6842, 40.9214 ], [ -3.6842, 40.9213 ], [ -3.6839, 40.9216 ], [ -3.6842, 40.9217 ], [ -3.6845, 40.922 ], [ -3.6848, 40.9225 ], [ -3.685, 40.9226 ], [ -3.685, 40.9228 ], [ -3.6863, 40.923 ], [ -3.6863, 40.9231 ], [ -3.6866, 40.923 ] ] ] } },
{ "type": "Feature", "properties": { "municipio": "Garganta de los Montes", "clasificacion": "urbano-consolidado", "calificacion": "sin-asignar", "version": "vigente", "fuente": "SIT-CAM WFS — UsoDelSuelo:VPLA_V_CLASIFICACION (https://idem.comunidad.madrid/geosrvg/ows)", "fecha_dato": "2026-05-12", "ambito": "5124", "_raw_CD_SIGLAS": "SU", "_raw_DS_CLASIF_GEN": "Suelo Urbano", "_raw_DS_CLASIF_DET": "Suelo Urbano", "_raw_DS_DOCU": "PROYECTO DE DELIMITACIÓN SUELO URBANO", "_raw_DS_LEY": "E RD 1346/1976", "_raw_FC_AC": "1982-05-11", "_raw_NM_AREA_M2": 15379.9345790107, "_cam_code": "062" }, "geometry": { "type": "Polygon", "coordinates": [ [ [ -3.6594, 40.944 ], [ -3.6598, 40.9449 ], [ -3.6601, 40.9451 ], [ -3.6606, 40.945 ], [ -3.6607, 40.9446 ], [ -3.6609, 40.9446 ], [ -3.6607, 40.9437 ], [ -3.6603, 40.9435 ], [ -3.6604, 40.9433 ], [ -3.6601, 40.9433 ], [ -3.6601, 40.9435 ], [ -3.6599, 40.9437 ], [ -3.6597, 40.9437 ], [ -3.6596, 40.944 ], [ -3.6594, 40.944 ] ] ] } },
{ "type": "Feature", "properties": { "municipio": "Garganta de los Montes", "clasificacion": "urbanizable-no-sectorizado", "calificacion": "sin-asignar", "version": "vigente", "fuente": "SIT-CAM WFS — UsoDelSuelo:VPLA_V_CLASIFICACION (https://idem.comunidad.madrid/geosrvg/ows)", "fecha_dato": "2026-05-12", "ambito": "5124", "_raw_CD_SIGLAS": "SUBNS", "_raw_DS_CLASIF_GEN": "Suelo No Urbanizable Común", "_raw_DS_CLASIF_DET": "Suelo No Urbanizable Común", "_raw_DS_DOCU": "PROYECTO DE DELIMITACIÓN SUELO URBANO", "_raw_DS_LEY": "E RD 1346/1976", "_raw_FC_AC": "1982-05-11", "_raw_NM_AREA_M2": 40243470.078568898, "_cam_code": "062" }, "geometry": { "type": "Polygon", "coordinates": [ [ [ -3.6597, 40.9754 ], [ -3.6609, 40.9755 ], [ -3.6617, 40.976 ], [ -3.664, 40.9781 ], [ -3.6646, 40.9785 ], [ -3.665, 40.9787 ], [ -3.6659, 40.9786 ], [ -3.667, 40.9779 ], [ -3.6681, 40.9768 ], [ -3.6683, 40.9764 ], [ -3.669, 40.9757 ], [ -3.6695, 40.9755 ], [ -3.6697, 40.9752 ], [ -3.6697, 40.9747 ], [ -3.6695, 40.9744 ], [ -3.6679, 40.9727 ], [ -3.668, 40.9709 ], [ -3.6681, 40.9706 ], [ -3.6685, 40.9702 ], [ -3.6695, 40.9701 ], [ -3.6711, 40.9703 ], [ -3.6719, 40.972 ], [ -3.6721, 40.9722 ], [ -3.6725, 40.9722 ], [ -3.6727, 40.972 ], [ -3.6744, 40.9714 ], [ -3.6743, 40.9706 ], [ -3.6738, 40.9701 ], [ -3.6735, 40.97 ], [ -3.6735, 40.9697 ], [ -3.6746, 40.9685 ], [ -3.676, 40.9678 ], [ -3.6771, 40.9677 ], [ -3.6779, 40.9674 ], [ -3.6779, 40.9673 ], [ -3.6788, 40.9673 ], [ -3.6788, 40.9674 ], [ -3.6792, 40.9675 ], [ -3.6796, 40.9674 ], [ -3.6797, 40.9673 ], [ -3.6797, 40.9668 ], [ -3.6791, 40.9657 ], [ -3.6791, 40.9651 ], [ -3.6792, 40.965 ], [ -3.6798, 40.9647 ], [ -3.6834, 40.9641 ], [ -3.6834, 40.964 ], [ -3.6836, 40.964 ], [ -3.684, 40.9637 ], [ -3.6851, 40.9626 ], [ -3.6852, 40.9624 ], [ -3.6852, 40.9615 ], [ -3.6856, 40.9608 ], [ -3.6856, 40.9598 ], [ -3.686, 40.9588 ], [ -3.6858, 40.9581 ], [ -3.6853, 40.9573 ], [ -3.6853, 40.9568 ], [ -3.6857, 40.9554 ], [ -3.6863, 40.9548 ], [ -3.6874, 40.9543 ], [ -3.6898, 40.9536 ], [ -3.6919, 40.9536 ], [ -3.695, 40.9541 ], [ -3.6956, 40.954 ], [ -3.6963, 40.9534 ], [ -3.6965, 40.953 ], [ -3.6967, 40.9525 ], [ -3.697, 40.9503 ], [ -3.6972, 40.95 ], [ -3.6982, 40.9496 ], [ -3.7003, 40.9494 ], [ -3.7011, 40.9491 ], [ -3.7019, 40.9485 ], [ -3.7036, 40.948 ], [ -3.7069, 40.9479 ], [ -3.7074, 40.9475 ], [ -3.7074, 40.9469 ], [ -3.7068, 40.9461 ], [ -3.7068, 40.9459 ], [ -3.7073, 40.9454 ], [ -3.7093, 40.9448 ], [ -3.7104, 40.9448 ], [ -3.7117, 40.9451 ], [ -3.7125, 40.9451 ], [ -3.7148, 40.9437 ], [ -3.7167, 40.9433 ], [ -3.7171, 40.9428 ], [ -3.7153, 40.9424 ], [ -3.7137, 40.9411 ], [ -3.7133, 40.9402 ], [ -3.7132, 40.9394 ], [ -3.7143, 40.9388 ], [ -3.7166, 40.9379 ], [ -3.7168, 40.9374 ], [ -3.7176, 40.9366 ], [ -3.7189, 40.9357 ], [ -3.7212, 40.9355 ], [ -3.7212, 40.9354 ], [ -3.722, 40.935 ], [ -3.722, 40.9349 ], [ -3.7225, 40.9347 ], [ -3.724, 40.9348 ], [ -3.7245, 40.9349 ], [ -3.7245, 40.935 ], [ -3.7253, 40.935 ], [ -3.7249, 40.9337 ], [ -3.7244, 40.9303 ], [ -3.7244, 40.9285 ], [ -3.7245, 40.9273 ], [ -3.7246, 40.9272 ], [ -3.7212, 40.9242 ], [ -3.72, 40.9227 ], [ -3.7174, 40.9168 ], [ -3.7178, 40.9138 ], [ -3.7174, 40.9106 ], [ -3.7169, 40.9092 ], [ -3.7179, 40.9067 ], [ -3.7185, 40.9057 ], [ -3.7182, 40.904 ], [ -3.7171, 40.9018 ], [ -3.7164, 40.8982 ], [ -3.7154, 40.8963 ], [ -3.7128, 40.8956 ], [ -3.7121, 40.8953 ], [ -3.7099, 40.8925 ], [ -3.7067, 40.8915 ], [ -3.705, 40.8908 ], [ -3.7045, 40.8902 ], [ -3.7016, 40.8888 ], [ -3.7001, 40.8884 ], [ -3.6987, 40.8866 ], [ -3.6973, 40.8844 ], [ -3.6962, 40.8822 ], [ -3.6958, 40.8806 ], [ -3.694, 40.8804 ], [ -3.6929, 40.881 ], [ -3.6915, 40.881 ], [ -3.6895, 40.8818 ], [ -3.681, 40.8854 ], [ -3.6792, 40.8872 ], [ -3.6777, 40.888 ], [ -3.6774, 40.8887 ], [ -3.6769, 40.8894 ], [ -3.6766, 40.8904 ], [ -3.6766, 40.8913 ], [ -3.6765, 40.8913 ], [ -3.6765, 40.8915 ], [ -3.6753, 40.8922 ], [ -3.6695, 40.9067 ], [ -3.6678, 40.9121 ], [ -3.6632, 40.9178 ], [ -3.6629, 40.9184 ], [ -3.6632, 40.9215 ], [ -3.6631, 40.9222 ], [ -3.6626, 40.9229 ], [ -3.6626, 40.9239 ], [ -3.6623, 40.9244 ], [ -3.6547, 40.9281 ], [ -3.651, 40.9325 ], [ -3.6487, 40.9365 ], [ -3.6474, 40.9385 ], [ -3.6462, 40.9428 ], [ -3.6469, 40.9445 ], [ -3.6445, 40.9537 ], [ -3.6479, 40.9557 ], [ -3.6505, 40.9586 ], [ -3.6527, 40.9597 ], [ -3.6541, 40.9595 ], [ -3.654, 40.9624 ], [ -3.6535, 40.963 ], [ -3.6534, 40.9634 ], [ -3.6535, 40.9653 ], [ -3.6525, 40.9682 ], [ -3.6512, 40.9709 ], [ -3.6502, 40.9721 ], [ -3.6498, 40.9724 ], [ -3.6494, 40.973 ], [ -3.649, 40.9733 ], [ -3.6485, 40.974 ], [ -3.648, 40.9749 ], [ -3.6477, 40.9758 ], [ -3.6476, 40.9758 ], [ -3.6475, 40.9765 ], [ -3.648, 40.9768 ], [ -3.6487, 40.977 ], [ -3.6493, 40.977 ], [ -3.6518, 40.9765 ], [ -3.6528, 40.9761 ], [ -3.6558, 40.9741 ], [ -3.6565, 40.9735 ], [ -3.6571, 40.9739 ], [ -3.6571, 40.9757 ], [ -3.657, 40.9764 ], [ -3.6571, 40.9761 ], [ -3.6583, 40.9758 ], [ -3.6588, 40.9755 ], [ -3.6597, 40.9754 ] ], [ [ -3.6601, 40.9451 ], [ -3.6598, 40.9449 ], [ -3.6594, 40.944 ], [ -3.6596, 40.944 ], [ -3.6597, 40.9437 ], [ -3.66, 40.9436 ], [ -3.6601, 40.9433 ], [ -3.6604, 40.9433 ], [ -3.6603, 40.9435 ], [ -3.6607, 40.9437 ], [ -3.6609, 40.9446 ], [ -3.6607, 40.9446 ], [ -3.6606, 40.945 ], [ -3.6601, 40.9451 ] ], [ [ -3.6871, 40.9225 ], [ -3.6872, 40.9227 ], [ -3.6869, 40.9227 ], [ -3.6868, 40.9231 ], [ -3.6867, 40.923 ], [ -3.6863, 40.9231 ], [ -3.6863, 40.923 ], [ -3.685, 40.9228 ], [ -3.685, 40.9226 ], [ -3.6848, 40.9225 ], [ -3.6845, 40.922 ], [ -3.6842, 40.9217 ], [ -3.6839, 40.9216 ], [ -3.6842, 40.9213 ], [ -3.6842, 40.9214 ], [ -3.6845, 40.9215 ], [ -3.6848, 40.9214 ], [ -3.685, 40.9215 ], [ -3.6857, 40.9213 ], [ -3.686, 40.9215 ], [ -3.6861, 40.9209 ], [ -3.6863, 40.9208 ], [ -3.6864, 40.9212 ], [ -3.6866, 40.9213 ], [ -3.6877, 40.9212 ], [ -3.6877, 40.9208 ], [ -3.6879, 40.9207 ], [ -3.6877, 40.9206 ], [ -3.6879, 40.9203 ], [ -3.6882, 40.9203 ], [ -3.6882, 40.9204 ], [ -3.6884, 40.9203 ], [ -3.689, 40.9209 ], [ -3.689, 40.9211 ], [ -3.6892, 40.9213 ], [ -3.6898, 40.9214 ], [ -3.6899, 40.9217 ], [ -3.6898, 40.9218 ], [ -3.6898, 40.9217 ], [ -3.6894, 40.9217 ], [ -3.6892, 40.9219 ], [ -3.6895, 40.9222 ], [ -3.6891, 40.9222 ], [ -3.6889, 40.9223 ], [ -3.6889, 40.9225 ], [ -3.6882, 40.9224 ], [ -3.6881, 40.9225 ], [ -3.6881, 40.9224 ], [ -3.6875, 40.9222 ], [ -3.6872, 40.9223 ], [ -3.6871, 40.9225 ] ] ] } }
]
}
