{
"type": "FeatureCollection",
"name": "vigente.full",
"features": [
{ "type": "Feature", "properties": { "municipio": "Navas del Rey", "clasificacion": "no-urbanizable-protegido", "calificacion": "sin-asignar", "version": "vigente", "fuente": "SIT-CAM WFS — UsoDelSuelo:VPLA_V_CLASIFICACION (https://idem.comunidad.madrid/geosrvg/ows)", "fecha_dato": "2026-05-12", "ambito": "104", "_raw_CD_SIGLAS": "SNUP", "_raw_DS_CLASIF_GEN": "Suelo No Urbanizable Protegido", "_raw_DS_CLASIF_DET": "Suelo No Urbanizable de Especial Protección", "_raw_DS_DOCU": "NORMAS SUBSIDIARIAS", "_raw_DS_LEY": "CM Ley 4/1984, E RD 1346/1976", "_raw_FC_AC": "1985-07-30", "_raw_NM_AREA_M2": 37672729.266693003, "_cam_code": "099" }, "geometry": { "type": "Polygon", "coordinates": [ [ [ -4.2632, 40.4243 ], [ -4.2738, 40.4282 ], [ -4.2782, 40.4281 ], [ -4.2821, 40.4273 ], [ -4.2967, 40.4259 ], [ -4.3043, 40.4238 ], [ -4.3188, 40.4202 ], [ -4.324, 40.4183 ], [ -4.3241, 40.4178 ], [ -4.3246, 40.4172 ], [ -4.3249, 40.4166 ], [ -4.3268, 40.4148 ], [ -4.3269, 40.4142 ], [ -4.3265, 40.413 ], [ -4.3263, 40.4128 ], [ -4.3255, 40.4129 ], [ -4.3249, 40.4128 ], [ -4.3241, 40.4123 ], [ -4.3227, 40.4111 ], [ -4.3212, 40.4105 ], [ -4.3208, 40.4098 ], [ -4.3211, 40.4087 ], [ -4.3215, 40.408 ], [ -4.3228, 40.407 ], [ -4.3229, 40.4066 ], [ -4.3223, 40.4056 ], [ -4.32, 40.4027 ], [ -4.3196, 40.4018 ], [ -4.3185, 40.4009 ], [ -4.3171, 40.4003 ], [ -4.3167, 40.4008 ], [ -4.3161, 40.4011 ], [ -4.3157, 40.4011 ], [ -4.3154, 40.4016 ], [ -4.3151, 40.4017 ], [ -4.3144, 40.4016 ], [ -4.313, 40.4011 ], [ -4.3124, 40.4022 ], [ -4.3109, 40.4018 ], [ -4.3107, 40.4016 ], [ -4.3101, 40.4016 ], [ -4.3094, 40.4021 ], [ -4.3091, 40.402 ], [ -4.3088, 40.4016 ], [ -4.3075, 40.4017 ], [ -4.3071, 40.402 ], [ -4.3062, 40.402 ], [ -4.3061, 40.4019 ], [ -4.3047, 40.402 ], [ -4.3046, 40.4019 ], [ -4.3036, 40.4018 ], [ -4.3027, 40.4012 ], [ -4.3023, 40.4001 ], [ -4.3021, 40.3987 ], [ -4.3021, 40.3985 ], [ -4.3023, 40.3984 ], [ -4.3024, 40.3976 ], [ -4.3028, 40.3966 ], [ -4.3027, 40.3941 ], [ -4.3032, 40.3932 ], [ -4.3033, 40.3932 ], [ -4.3033, 40.393 ], [ -4.304, 40.3926 ], [ -4.3041, 40.3921 ], [ -4.3043, 40.3919 ], [ -4.3041, 40.3913 ], [ -4.3036, 40.3907 ], [ -4.3041, 40.3904 ], [ -4.3042, 40.3902 ], [ -4.3041, 40.3899 ], [ -4.3042, 40.3897 ], [ -4.3042, 40.3889 ], [ -4.3041, 40.3888 ], [ -4.3042, 40.3882 ], [ -4.305, 40.3877 ], [ -4.305, 40.3873 ], [ -4.3053, 40.3869 ], [ -4.3049, 40.3861 ], [ -4.3058, 40.3845 ], [ -4.3058, 40.3836 ], [ -4.3022, 40.3821 ], [ -4.3023, 40.3815 ], [ -4.3025, 40.3814 ], [ -4.3025, 40.3812 ], [ -4.3024, 40.3811 ], [ -4.3019, 40.3811 ], [ -4.3013, 40.3806 ], [ -4.3014, 40.3801 ], [ -4.3016, 40.38 ], [ -4.3016, 40.3796 ], [ -4.3004, 40.379 ], [ -4.2991, 40.3789 ], [ -4.2987, 40.3787 ], [ -4.2986, 40.3785 ], [ -4.2989, 40.3781 ], [ -4.2987, 40.3778 ], [ -4.298, 40.3774 ], [ -4.2979, 40.3771 ], [ -4.2974, 40.377 ], [ -4.2973, 40.3764 ], [ -4.297, 40.3761 ], [ -4.2974, 40.3758 ], [ -4.2982, 40.3759 ], [ -4.2987, 40.3757 ], [ -4.2989, 40.3754 ], [ -4.2988, 40.3748 ], [ -4.299, 40.3746 ], [ -4.299, 40.3744 ], [ -4.2995, 40.3741 ], [ -4.2997, 40.3738 ], [ -4.2997, 40.3732 ], [ -4.2996, 40.3731 ], [ -4.2997, 40.3728 ], [ -4.3, 40.3726 ], [ -4.3009, 40.3726 ], [ -4.3013, 40.3722 ], [ -4.3016, 40.3721 ], [ -4.3016, 40.372 ], [ -4.3014, 40.3721 ], [ -4.3011, 40.372 ], [ -4.3008, 40.3717 ], [ -4.3007, 40.3714 ], [ -4.3013, 40.3711 ], [ -4.3026, 40.3691 ], [ -4.3026, 40.3688 ], [ -4.3021, 40.368 ], [ -4.3019, 40.3672 ], [ -4.3024, 40.3672 ], [ -4.3028, 40.3674 ], [ -4.3029, 40.3678 ], [ -4.3032, 40.3679 ], [ -4.3033, 40.3681 ], [ -4.3034, 40.3689 ], [ -4.3038, 40.3683 ], [ -4.3043, 40.3682 ], [ -4.3044, 40.3678 ], [ -4.3047, 40.3675 ], [ -4.3033, 40.3667 ], [ -4.3023, 40.3665 ], [ -4.2999, 40.3665 ], [ -4.2983, 40.3655 ], [ -4.2978, 40.3648 ], [ -4.2976, 40.364 ], [ -4.2973, 40.3635 ], [ -4.2968, 40.3621 ], [ -4.296, 40.3609 ], [ -4.295, 40.3601 ], [ -4.2928, 40.3594 ], [ -4.2906, 40.3595 ], [ -4.2897, 40.3593 ], [ -4.288, 40.3586 ], [ -4.2863, 40.3575 ], [ -4.2836, 40.3568 ], [ -4.2833, 40.3566 ], [ -4.283, 40.3561 ], [ -4.2829, 40.3546 ], [ -4.2825, 40.3529 ], [ -4.2822, 40.3523 ], [ -4.2822, 40.3515 ], [ -4.2819, 40.3509 ], [ -4.2815, 40.3505 ], [ -4.2802, 40.35 ], [ -4.2767, 40.3498 ], [ -4.2752, 40.3489 ], [ -4.2741, 40.3478 ], [ -4.271, 40.3466 ], [ -4.2699, 40.3455 ], [ -4.2686, 40.3449 ], [ -4.2676, 40.3442 ], [ -4.2659, 40.3435 ], [ -4.2653, 40.343 ], [ -4.2645, 40.3426 ], [ -4.2633, 40.3415 ], [ -4.2623, 40.34 ], [ -4.2619, 40.3396 ], [ -4.2603, 40.3384 ], [ -4.2591, 40.3381 ], [ -4.2575, 40.3382 ], [ -4.2564, 40.338 ], [ -4.2529, 40.3366 ], [ -4.2504, 40.3359 ], [ -4.2497, 40.3352 ], [ -4.2495, 40.3347 ], [ -4.2492, 40.3333 ], [ -4.2491, 40.3318 ], [ -4.2483, 40.3304 ], [ -4.2483, 40.3301 ], [ -4.2476, 40.3294 ], [ -4.2465, 40.3298 ], [ -4.2448, 40.331 ], [ -4.244, 40.3313 ], [ -4.2436, 40.3313 ], [ -4.2434, 40.3312 ], [ -4.243, 40.3305 ], [ -4.2418, 40.3297 ], [ -4.2393, 40.3285 ], [ -4.2364, 40.3265 ], [ -4.2331, 40.3286 ], [ -4.2326, 40.3311 ], [ -4.2318, 40.3326 ], [ -4.2322, 40.3328 ], [ -4.2316, 40.3336 ], [ -4.2316, 40.3362 ], [ -4.2321, 40.3378 ], [ -4.2326, 40.3409 ], [ -4.2322, 40.3428 ], [ -4.2324, 40.3475 ], [ -4.232, 40.3484 ], [ -4.2323, 40.3501 ], [ -4.2322, 40.3511 ], [ -4.2323, 40.3543 ], [ -4.2328, 40.3557 ], [ -4.2341, 40.3575 ], [ -4.2352, 40.3599 ], [ -4.236, 40.3607 ], [ -4.2367, 40.362 ], [ -4.2375, 40.3637 ], [ -4.2376, 40.3644 ], [ -4.237, 40.3673 ], [ -4.2359, 40.3708 ], [ -4.2359, 40.3712 ], [ -4.2353, 40.3733 ], [ -4.2349, 40.3739 ], [ -4.2371, 40.3734 ], [ -4.2398, 40.3718 ], [ -4.2407, 40.3706 ], [ -4.2406, 40.3697 ], [ -4.2409, 40.3691 ], [ -4.2427, 40.368 ], [ -4.2437, 40.3684 ], [ -4.2464, 40.3673 ], [ -4.2474, 40.368 ], [ -4.2482, 40.3688 ], [ -4.25, 40.3696 ], [ -4.2524, 40.3699 ], [ -4.2538, 40.3696 ], [ -4.256, 40.3686 ], [ -4.2606, 40.3659 ], [ -4.2618, 40.3661 ], [ -4.2622, 40.3672 ], [ -4.2626, 40.3672 ], [ -4.2637, 40.3668 ], [ -4.2641, 40.3669 ], [ -4.2642, 40.3678 ], [ -4.2663, 40.3696 ], [ -4.2686, 40.3698 ], [ -4.2697, 40.3709 ], [ -4.2704, 40.3709 ], [ -4.2741, 40.3701 ], [ -4.2744, 40.3701 ], [ -4.2743, 40.3706 ], [ -4.2745, 40.3708 ], [ -4.2762, 40.37 ], [ -4.2774, 40.3697 ], [ -4.2774, 40.37 ], [ -4.2777, 40.3705 ], [ -4.2782, 40.3705 ], [ -4.2814, 40.3697 ], [ -4.2821, 40.3694 ], [ -4.2835, 40.3692 ], [ -4.2846, 40.3687 ], [ -4.2873, 40.3666 ], [ -4.2879, 40.3654 ], [ -4.2879, 40.3639 ], [ -4.2886, 40.3632 ], [ -4.2894, 40.3628 ], [ -4.2905, 40.363 ], [ -4.2912, 40.3633 ], [ -4.2917, 40.3638 ], [ -4.2917, 40.3649 ], [ -4.2924, 40.3652 ], [ -4.293, 40.3652 ], [ -4.2936, 40.3656 ], [ -4.2937, 40.367 ], [ -4.2932, 40.3684 ], [ -4.2933, 40.3706 ], [ -4.2927, 40.3712 ], [ -4.2917, 40.372 ], [ -4.2895, 40.3725 ], [ -4.2882, 40.3723 ], [ -4.2854, 40.3732 ], [ -4.2834, 40.3744 ], [ -4.2819, 40.3749 ], [ -4.2788, 40.3774 ], [ -4.2779, 40.3776 ], [ -4.277, 40.378 ], [ -4.2762, 40.3792 ], [ -4.2761, 40.3803 ], [ -4.2755, 40.381 ], [ -4.2756, 40.3818 ], [ -4.275, 40.3831 ], [ -4.2739, 40.3848 ], [ -4.2731, 40.3851 ], [ -4.2724, 40.3852 ], [ -4.2713, 40.3857 ], [ -4.271, 40.3864 ], [ -4.2703, 40.387 ], [ -4.2687, 40.388 ], [ -4.2683, 40.3881 ], [ -4.268, 40.3885 ], [ -4.2679, 40.3899 ], [ -4.2672, 40.3905 ], [ -4.2665, 40.3909 ], [ -4.2648, 40.3914 ], [ -4.2644, 40.3917 ], [ -4.2641, 40.3923 ], [ -4.2625, 40.3939 ], [ -4.2625, 40.3943 ], [ -4.2618, 40.3949 ], [ -4.2611, 40.3958 ], [ -4.2611, 40.3977 ], [ -4.2604, 40.3985 ], [ -4.2601, 40.3994 ], [ -4.2602, 40.4007 ], [ -4.2604, 40.4014 ], [ -4.259, 40.4014 ], [ -4.2582, 40.4012 ], [ -4.2576, 40.4015 ], [ -4.2577, 40.4019 ], [ -4.2589, 40.4031 ], [ -4.2592, 40.404 ], [ -4.2589, 40.4051 ], [ -4.2566, 40.4077 ], [ -4.2567, 40.4086 ], [ -4.2565, 40.4102 ], [ -4.2615, 40.4163 ], [ -4.2628, 40.4195 ], [ -4.2625, 40.4242 ], [ -4.2632, 40.4243 ] ], [ [ -4.2747, 40.3617 ], [ -4.2745, 40.3609 ], [ -4.2745, 40.3595 ], [ -4.275, 40.3593 ], [ -4.2763, 40.3594 ], [ -4.2765, 40.359 ], [ -4.2772, 40.3586 ], [ -4.2769, 40.3582 ], [ -4.2775, 40.3579 ], [ -4.2779, 40.3579 ], [ -4.2787, 40.3589 ], [ -4.2782, 40.3592 ], [ -4.2785, 40.3596 ], [ -4.2793, 40.3593 ], [ -4.2799, 40.3599 ], [ -4.28, 40.3597 ], [ -4.2804, 40.3596 ], [ -4.2804, 40.3595 ], [ -4.2806, 40.3595 ], [ -4.2806, 40.3596 ], [ -4.2819, 40.3595 ], [ -4.2822, 40.3593 ], [ -4.2826, 40.3601 ], [ -4.283, 40.3601 ], [ -4.283, 40.3607 ], [ -4.2818, 40.3608 ], [ -4.2823, 40.361 ], [ -4.2822, 40.3612 ], [ -4.2823, 40.3612 ], [ -4.282, 40.3616 ], [ -4.2821, 40.3617 ], [ -4.2818, 40.3619 ], [ -4.2806, 40.3617 ], [ -4.2802, 40.3618 ], [ -4.2802, 40.3619 ], [ -4.2798, 40.3619 ], [ -4.279, 40.3623 ], [ -4.2792, 40.3625 ], [ -4.2792, 40.3627 ], [ -4.2799, 40.3632 ], [ -4.2802, 40.3632 ], [ -4.2803, 40.3636 ], [ -4.2802, 40.3637 ], [ -4.2803, 40.3641 ], [ -4.2801, 40.3646 ], [ -4.2794, 40.3654 ], [ -4.2731, 40.3676 ], [ -4.2721, 40.3682 ], [ -4.2704, 40.3686 ], [ -4.2703, 40.368 ], [ -4.2704, 40.3666 ], [ -4.2699, 40.3659 ], [ -4.271, 40.3637 ], [ -4.2712, 40.3638 ], [ -4.2715, 40.3633 ], [ -4.2712, 40.3616 ], [ -4.2709, 40.3617 ], [ -4.2703, 40.3613 ], [ -4.2697, 40.3612 ], [ -4.2693, 40.3606 ], [ -4.2695, 40.3605 ], [ -4.2693, 40.36 ], [ -4.2695, 40.3598 ], [ -4.2708, 40.3598 ], [ -4.271, 40.3599 ], [ -4.2716, 40.3592 ], [ -4.2724, 40.3594 ], [ -4.2731, 40.3601 ], [ -4.2733, 40.36 ], [ -4.2736, 40.3603 ], [ -4.2734, 40.3604 ], [ -4.2737, 40.3614 ], [ -4.2735, 40.3617 ], [ -4.2747, 40.3617 ] ] ] } },
{ "type": "Feature", "properties": { "municipio": "Navas del Rey", "clasificacion": "urbanizable-no-sectorizado", "calificacion": "sin-asignar", "version": "vigente", "fuente": "SIT-CAM WFS — UsoDelSuelo:VPLA_V_CLASIFICACION (https://idem.comunidad.madrid/geosrvg/ows)", "fecha_dato": "2026-05-12", "ambito": "104", "_raw_CD_SIGLAS": "SUBNS", "_raw_DS_CLASIF_GEN": "Suelo No Urbanizable Común", "_raw_DS_CLASIF_DET": "Suelo No Urbanizable", "_raw_DS_DOCU": "NORMAS SUBSIDIARIAS", "_raw_DS_LEY": "CM Ley 4/1984, E RD 1346/1976", "_raw_FC_AC": "1985-07-30", "_raw_NM_AREA_M2": 197427.080784641, "_cam_code": "099" }, "geometry": { "type": "Polygon", "coordinates": [ [ [ -4.285, 40.3712 ], [ -4.2862, 40.3717 ], [ -4.2871, 40.3716 ], [ -4.288, 40.3711 ], [ -4.2882, 40.3711 ], [ -4.2911, 40.3689 ], [ -4.2913, 40.368 ], [ -4.2913, 40.3666 ], [ -4.2911, 40.366 ], [ -4.2899, 40.3651 ], [ -4.2886, 40.3655 ], [ -4.2883, 40.3661 ], [ -4.2882, 40.3671 ], [ -4.2883, 40.3674 ], [ -4.2888, 40.368 ], [ -4.2886, 40.3683 ], [ -4.2881, 40.3681 ], [ -4.2876, 40.3682 ], [ -4.2868, 40.3691 ], [ -4.2851, 40.37 ], [ -4.2848, 40.3707 ], [ -4.2848, 40.371 ], [ -4.285, 40.3712 ] ] ] } },
{ "type": "Feature", "properties": { "municipio": "Navas del Rey", "clasificacion": "urbanizable-no-sectorizado", "calificacion": "sin-asignar", "version": "vigente", "fuente": "SIT-CAM WFS — UsoDelSuelo:VPLA_V_CLASIFICACION (https://idem.comunidad.madrid/geosrvg/ows)", "fecha_dato": "2026-05-12", "ambito": "104", "_raw_CD_SIGLAS": "SUBNS", "_raw_DS_CLASIF_GEN": "Suelo No Urbanizable Común", "_raw_DS_CLASIF_DET": "Suelo No Urbanizable", "_raw_DS_DOCU": "NORMAS SUBSIDIARIAS", "_raw_DS_LEY": "CM Ley 4/1984, E RD 1346/1976", "_raw_FC_AC": "1985-07-30", "_raw_NM_AREA_M2": 11046822.6940441, "_cam_code": "099" }, "geometry": { "type": "Polygon", "coordinates": [ [ [ -4.2531, 40.4053 ], [ -4.2548, 40.408 ], [ -4.2565, 40.4102 ], [ -4.2567, 40.4086 ], [ -4.2566, 40.4077 ], [ -4.2589, 40.4051 ], [ -4.2592, 40.404 ], [ -4.2589, 40.4031 ], [ -4.2577, 40.4019 ], [ -4.2576, 40.4015 ], [ -4.2582, 40.4012 ], [ -4.259, 40.4014 ], [ -4.2604, 40.4014 ], [ -4.2602, 40.4007 ], [ -4.2601, 40.3994 ], [ -4.2604, 40.3985 ], [ -4.2611, 40.3977 ], [ -4.2611, 40.3958 ], [ -4.2618, 40.3949 ], [ -4.2625, 40.3943 ], [ -4.2625, 40.3939 ], [ -4.2629, 40.3934 ], [ -4.2641, 40.3923 ], [ -4.2644, 40.3917 ], [ -4.2648, 40.3914 ], [ -4.2665, 40.3909 ], [ -4.2672, 40.3905 ], [ -4.2679, 40.3899 ], [ -4.268, 40.3885 ], [ -4.2683, 40.3881 ], [ -4.2687, 40.388 ], [ -4.2703, 40.387 ], [ -4.271, 40.3864 ], [ -4.2713, 40.3857 ], [ -4.2724, 40.3852 ], [ -4.2731, 40.3851 ], [ -4.2739, 40.3848 ], [ -4.275, 40.3831 ], [ -4.2756, 40.3818 ], [ -4.2755, 40.381 ], [ -4.2761, 40.3803 ], [ -4.2762, 40.3792 ], [ -4.277, 40.378 ], [ -4.2779, 40.3776 ], [ -4.2788, 40.3774 ], [ -4.2819, 40.3749 ], [ -4.2834, 40.3744 ], [ -4.2854, 40.3732 ], [ -4.2882, 40.3723 ], [ -4.2895, 40.3725 ], [ -4.2917, 40.372 ], [ -4.2927, 40.3712 ], [ -4.2933, 40.3706 ], [ -4.2932, 40.3684 ], [ -4.2937, 40.367 ], [ -4.2936, 40.3656 ], [ -4.293, 40.3652 ], [ -4.2924, 40.3652 ], [ -4.2917, 40.3649 ], [ -4.2917, 40.3638 ], [ -4.2912, 40.3633 ], [ -4.2905, 40.363 ], [ -4.2894, 40.3628 ], [ -4.2886, 40.3632 ], [ -4.2879, 40.3639 ], [ -4.2879, 40.3654 ], [ -4.2873, 40.3666 ], [ -4.2846, 40.3687 ], [ -4.2835, 40.3692 ], [ -4.2821, 40.3694 ], [ -4.2814, 40.3697 ], [ -4.2782, 40.3705 ], [ -4.2777, 40.3705 ], [ -4.2774, 40.37 ], [ -4.2774, 40.3697 ], [ -4.2762, 40.37 ], [ -4.2745, 40.3708 ], [ -4.2743, 40.3706 ], [ -4.2744, 40.3701 ], [ -4.2741, 40.3701 ], [ -4.2704, 40.3709 ], [ -4.2697, 40.3709 ], [ -4.2686, 40.3698 ], [ -4.2663, 40.3696 ], [ -4.2642, 40.3678 ], [ -4.2641, 40.3669 ], [ -4.2637, 40.3668 ], [ -4.2626, 40.3672 ], [ -4.2622, 40.3672 ], [ -4.2618, 40.3661 ], [ -4.2606, 40.3659 ], [ -4.256, 40.3686 ], [ -4.2538, 40.3696 ], [ -4.2524, 40.3699 ], [ -4.25, 40.3696 ], [ -4.2482, 40.3688 ], [ -4.2474, 40.368 ], [ -4.2464, 40.3673 ], [ -4.2437, 40.3684 ], [ -4.2427, 40.368 ], [ -4.2409, 40.3691 ], [ -4.2406, 40.3697 ], [ -4.2407, 40.3706 ], [ -4.2398, 40.3718 ], [ -4.2371, 40.3734 ], [ -4.2349, 40.3739 ], [ -4.2324, 40.3774 ], [ -4.23, 40.3803 ], [ -4.2288, 40.3837 ], [ -4.2276, 40.3882 ], [ -4.2313, 40.3913 ], [ -4.2335, 40.3924 ], [ -4.2411, 40.3957 ], [ -4.2434, 40.3953 ], [ -4.2464, 40.3958 ], [ -4.2501, 40.4012 ], [ -4.2531, 40.4053 ] ], [ [ -4.2882, 40.3711 ], [ -4.2871, 40.3716 ], [ -4.2862, 40.3717 ], [ -4.285, 40.3712 ], [ -4.2848, 40.371 ], [ -4.2848, 40.3707 ], [ -4.2851, 40.37 ], [ -4.2868, 40.3691 ], [ -4.2876, 40.3682 ], [ -4.2881, 40.3681 ], [ -4.2886, 40.3683 ], [ -4.2888, 40.368 ], [ -4.2883, 40.3674 ], [ -4.2882, 40.3671 ], [ -4.2883, 40.3661 ], [ -4.2886, 40.3655 ], [ -4.2899, 40.3651 ], [ -4.2911, 40.366 ], [ -4.2913, 40.3666 ], [ -4.2913, 40.368 ], [ -4.2911, 40.3689 ], [ -4.2882, 40.3711 ] ], [ [ -4.2479, 40.3912 ], [ -4.2443, 40.3876 ], [ -4.2438, 40.3868 ], [ -4.2436, 40.3867 ], [ -4.2429, 40.3855 ], [ -4.2416, 40.3842 ], [ -4.2417, 40.3842 ], [ -4.2416, 40.3839 ], [ -4.2417, 40.3837 ], [ -4.2404, 40.3834 ], [ -4.2407, 40.3828 ], [ -4.2414, 40.3825 ], [ -4.242, 40.3824 ], [ -4.2425, 40.3827 ], [ -4.2428, 40.3834 ], [ -4.2433, 40.384 ], [ -4.2444, 40.3843 ], [ -4.2444, 40.3844 ], [ -4.2449, 40.3844 ], [ -4.2468, 40.3848 ], [ -4.2468, 40.3844 ], [ -4.248, 40.384 ], [ -4.2487, 40.3839 ], [ -4.249, 40.3838 ], [ -4.249, 40.3837 ], [ -4.2491, 40.3838 ], [ -4.2491, 40.3837 ], [ -4.2499, 40.3835 ], [ -4.2499, 40.3834 ], [ -4.2503, 40.3842 ], [ -4.2504, 40.3842 ], [ -4.2508, 40.3835 ], [ -4.2515, 40.3827 ], [ -4.2518, 40.3827 ], [ -4.2518, 40.3823 ], [ -4.2531, 40.3821 ], [ -4.2536, 40.3821 ], [ -4.2537, 40.3823 ], [ -4.2549, 40.3817 ], [ -4.2551, 40.3819 ], [ -4.2559, 40.3816 ], [ -4.2563, 40.3824 ], [ -4.2565, 40.3823 ], [ -4.2566, 40.3825 ], [ -4.2563, 40.3826 ], [ -4.2563, 40.3834 ], [ -4.2565, 40.3835 ], [ -4.2567, 40.3839 ], [ -4.2567, 40.3841 ], [ -4.2565, 40.3843 ], [ -4.2565, 40.3847 ], [ -4.2566, 40.3846 ], [ -4.2567, 40.3847 ], [ -4.2566, 40.3848 ], [ -4.2567, 40.3859 ], [ -4.2564, 40.3866 ], [ -4.2559, 40.3873 ], [ -4.2557, 40.3883 ], [ -4.255, 40.3893 ], [ -4.2554, 40.3897 ], [ -4.2551, 40.39 ], [ -4.2547, 40.3897 ], [ -4.2543, 40.3899 ], [ -4.2543, 40.39 ], [ -4.253, 40.3904 ], [ -4.2519, 40.3906 ], [ -4.2507, 40.3905 ], [ -4.2479, 40.3912 ] ] ] } },
{ "type": "Feature", "properties": { "municipio": "Navas del Rey", "clasificacion": "urbanizable-no-sectorizado", "calificacion": "sin-asignar", "version": "vigente", "fuente": "SIT-CAM WFS — UsoDelSuelo:VPLA_V_CLASIFICACION (https://idem.comunidad.madrid/geosrvg/ows)", "fecha_dato": "2026-05-12", "ambito": "104", "_raw_CD_SIGLAS": "SUBNS", "_raw_DS_CLASIF_GEN": "Suelo No Urbanizable Común", "_raw_DS_CLASIF_DET": "Suelo No Urbanizable", "_raw_DS_DOCU": "NORMAS SUBSIDIARIAS", "_raw_DS_LEY": "CM Ley 4/1984, E RD 1346/1976", "_raw_FC_AC": "1985-07-30", "_raw_NM_AREA_M2": 383911.46510156902, "_cam_code": "099" }, "geometry": { "type": "Polygon", "coordinates": [ [ [ -4.2715, 40.3633 ], [ -4.2712, 40.3638 ], [ -4.271, 40.3637 ], [ -4.2699, 40.3659 ], [ -4.2704, 40.3666 ], [ -4.2703, 40.368 ], [ -4.2704, 40.3686 ], [ -4.2721, 40.3682 ], [ -4.2731, 40.3676 ], [ -4.2794, 40.3654 ], [ -4.2801, 40.3646 ], [ -4.2795, 40.3648 ], [ -4.2787, 40.3645 ], [ -4.2786, 40.3647 ], [ -4.2783, 40.3647 ], [ -4.2783, 40.3645 ], [ -4.2781, 40.3645 ], [ -4.2779, 40.3642 ], [ -4.2771, 40.364 ], [ -4.2776, 40.3634 ], [ -4.2775, 40.3631 ], [ -4.2776, 40.3626 ], [ -4.2774, 40.3624 ], [ -4.277, 40.3624 ], [ -4.277, 40.3623 ], [ -4.2779, 40.3618 ], [ -4.2776, 40.3613 ], [ -4.2774, 40.3604 ], [ -4.2764, 40.3608 ], [ -4.2763, 40.361 ], [ -4.276, 40.3607 ], [ -4.2756, 40.3607 ], [ -4.2758, 40.3614 ], [ -4.2756, 40.3614 ], [ -4.2751, 40.3618 ], [ -4.275, 40.3617 ], [ -4.275, 40.3618 ], [ -4.2749, 40.3617 ], [ -4.2735, 40.3617 ], [ -4.2733, 40.3619 ], [ -4.2731, 40.3619 ], [ -4.2731, 40.3621 ], [ -4.2724, 40.3631 ], [ -4.2715, 40.3633 ] ] ] } },
{ "type": "Feature", "properties": { "municipio": "Navas del Rey", "clasificacion": "urbano-consolidado", "calificacion": "sin-asignar", "version": "vigente", "fuente": "SIT-CAM WFS — UsoDelSuelo:VPLA_V_CLASIFICACION (https://idem.comunidad.madrid/geosrvg/ows)", "fecha_dato": "2026-05-12", "ambito": "104", "_raw_CD_SIGLAS": "SUC", "_raw_DS_CLASIF_GEN": "Suelo Urbano Consolidado", "_raw_DS_CLASIF_DET": "Suelo Urbano", "_raw_DS_DOCU": "NORMAS SUBSIDIARIAS", "_raw_DS_LEY": "CM Ley 4/1984, E RD 1346/1976", "_raw_FC_AC": "1985-07-30", "_raw_NM_AREA_M2": 94911.4839023354, "_cam_code": "099" }, "geometry": { "type": "Polygon", "coordinates": [ [ [ -4.2733, 40.3619 ], [ -4.2737, 40.3614 ], [ -4.2734, 40.3604 ], [ -4.2736, 40.3603 ], [ -4.2733, 40.36 ], [ -4.2731, 40.3601 ], [ -4.2724, 40.3594 ], [ -4.2716, 40.3592 ], [ -4.271, 40.3599 ], [ -4.2708, 40.3598 ], [ -4.2695, 40.3598 ], [ -4.2693, 40.36 ], [ -4.2695, 40.3605 ], [ -4.2693, 40.3606 ], [ -4.2697, 40.3612 ], [ -4.2703, 40.3613 ], [ -4.2709, 40.3617 ], [ -4.2712, 40.3616 ], [ -4.2715, 40.3633 ], [ -4.2724, 40.3631 ], [ -4.2731, 40.3621 ], [ -4.2731, 40.3619 ], [ -4.2733, 40.3619 ] ] ] } },
{ "type": "Feature", "properties": { "municipio": "Navas del Rey", "clasificacion": "urbano-consolidado", "calificacion": "sin-asignar", "version": "vigente", "fuente": "SIT-CAM WFS — UsoDelSuelo:VPLA_V_CLASIFICACION (https://idem.comunidad.madrid/geosrvg/ows)", "fecha_dato": "2026-05-12", "ambito": "104", "_raw_CD_SIGLAS": "SUC", "_raw_DS_CLASIF_GEN": "Suelo Urbano Consolidado", "_raw_DS_CLASIF_DET": "Suelo Urbano", "_raw_DS_DOCU": "NORMAS SUBSIDIARIAS", "_raw_DS_LEY": "CM Ley 4/1984, E RD 1346/1976", "_raw_FC_AC": "1985-07-30", "_raw_NM_AREA_M2": 832946.88470772596, "_cam_code": "099" }, "geometry": { "type": "Polygon", "coordinates": [ [ [ -4.2443, 40.3876 ], [ -4.2479, 40.3912 ], [ -4.2507, 40.3905 ], [ -4.2519, 40.3906 ], [ -4.253, 40.3904 ], [ -4.2543, 40.39 ], [ -4.2543, 40.3899 ], [ -4.2547, 40.3897 ], [ -4.2551, 40.39 ], [ -4.2554, 40.3897 ], [ -4.255, 40.3893 ], [ -4.2557, 40.3883 ], [ -4.2559, 40.3873 ], [ -4.2564, 40.3866 ], [ -4.2567, 40.3859 ], [ -4.2566, 40.3848 ], [ -4.2567, 40.3847 ], [ -4.2566, 40.3846 ], [ -4.2565, 40.3847 ], [ -4.2565, 40.3843 ], [ -4.2567, 40.3841 ], [ -4.2567, 40.3839 ], [ -4.2565, 40.3835 ], [ -4.2563, 40.3834 ], [ -4.2563, 40.3826 ], [ -4.2566, 40.3825 ], [ -4.2565, 40.3823 ], [ -4.2563, 40.3824 ], [ -4.2559, 40.3816 ], [ -4.2551, 40.3819 ], [ -4.2549, 40.3817 ], [ -4.2537, 40.3823 ], [ -4.2536, 40.3821 ], [ -4.2518, 40.3823 ], [ -4.2518, 40.3827 ], [ -4.2515, 40.3827 ], [ -4.2508, 40.3835 ], [ -4.2504, 40.3842 ], [ -4.2503, 40.3842 ], [ -4.2499, 40.3834 ], [ -4.2499, 40.3835 ], [ -4.2491, 40.3837 ], [ -4.2491, 40.3838 ], [ -4.249, 40.3837 ], [ -4.249, 40.3838 ], [ -4.2487, 40.3839 ], [ -4.248, 40.384 ], [ -4.2468, 40.3844 ], [ -4.2468, 40.3848 ], [ -4.2449, 40.3844 ], [ -4.2444, 40.3844 ], [ -4.2444, 40.3843 ], [ -4.2433, 40.384 ], [ -4.2428, 40.3834 ], [ -4.2425, 40.3827 ], [ -4.242, 40.3824 ], [ -4.2414, 40.3825 ], [ -4.2407, 40.3828 ], [ -4.2404, 40.3834 ], [ -4.2417, 40.3837 ], [ -4.2416, 40.3838 ], [ -4.2417, 40.3842 ], [ -4.2416, 40.3842 ], [ -4.2429, 40.3855 ], [ -4.2436, 40.3867 ], [ -4.2438, 40.3868 ], [ -4.2443, 40.3876 ] ] ] } },
{ "type": "Feature", "properties": { "municipio": "Navas del Rey", "clasificacion": "urbano-consolidado", "calificacion": "sin-asignar", "version": "vigente", "fuente": "SIT-CAM WFS — UsoDelSuelo:VPLA_V_CLASIFICACION (https://idem.comunidad.madrid/geosrvg/ows)", "fecha_dato": "2026-05-12", "ambito": "104", "_raw_CD_SIGLAS": "SUC", "_raw_DS_CLASIF_GEN": "Suelo Urbano Consolidado", "_raw_DS_CLASIF_DET": "Suelo Urbano", "_raw_DS_DOCU": "NORMAS SUBSIDIARIAS", "_raw_DS_LEY": "CM Ley 4/1984, E RD 1346/1976", "_raw_FC_AC": "1985-07-30", "_raw_NM_AREA_M2": 49456.000053054398, "_cam_code": "099" }, "geometry": { "type": "Polygon", "coordinates": [ [ [ -4.3034, 40.3689 ], [ -4.3033, 40.3681 ], [ -4.3032, 40.3679 ], [ -4.3029, 40.3678 ], [ -4.3028, 40.3674 ], [ -4.3024, 40.3672 ], [ -4.3019, 40.3672 ], [ -4.3021, 40.368 ], [ -4.3026, 40.3688 ], [ -4.3026, 40.3691 ], [ -4.3013, 40.3711 ], [ -4.3007, 40.3714 ], [ -4.3008, 40.3717 ], [ -4.3011, 40.372 ], [ -4.3014, 40.3721 ], [ -4.3017, 40.372 ], [ -4.3018, 40.3717 ], [ -4.3024, 40.3711 ], [ -4.3029, 40.3709 ], [ -4.3033, 40.3705 ], [ -4.3035, 40.3702 ], [ -4.3035, 40.3698 ], [ -4.3033, 40.3697 ], [ -4.3032, 40.3692 ], [ -4.3034, 40.3689 ] ] ] } },
{ "type": "Feature", "properties": { "municipio": "Navas del Rey", "clasificacion": "urbano-consolidado", "calificacion": "sin-asignar", "version": "vigente", "fuente": "SIT-CAM WFS — UsoDelSuelo:VPLA_V_CLASIFICACION (https://idem.comunidad.madrid/geosrvg/ows)", "fecha_dato": "2026-05-12", "ambito": "104", "_raw_CD_SIGLAS": "SUC", "_raw_DS_CLASIF_GEN": "Suelo Urbano Consolidado", "_raw_DS_CLASIF_DET": "Suelo Urbano", "_raw_DS_DOCU": "NORMAS SUBSIDIARIAS", "_raw_DS_LEY": "CM Ley 4/1984, E RD 1346/1976", "_raw_FC_AC": "1985-07-30", "_raw_NM_AREA_M2": 235498.45203397199, "_cam_code": "099" }, "geometry": { "type": "Polygon", "coordinates": [ [ [ -4.2747, 40.3617 ], [ -4.2751, 40.3618 ], [ -4.2756, 40.3614 ], [ -4.2758, 40.3614 ], [ -4.2756, 40.3607 ], [ -4.276, 40.3607 ], [ -4.2763, 40.361 ], [ -4.2764, 40.3608 ], [ -4.2774, 40.3604 ], [ -4.2776, 40.3613 ], [ -4.2779, 40.3618 ], [ -4.277, 40.3623 ], [ -4.277, 40.3624 ], [ -4.2774, 40.3624 ], [ -4.2776, 40.3626 ], [ -4.2775, 40.3627 ], [ -4.2776, 40.3634 ], [ -4.2771, 40.364 ], [ -4.2779, 40.3642 ], [ -4.2781, 40.3645 ], [ -4.2783, 40.3645 ], [ -4.2783, 40.3647 ], [ -4.2786, 40.3647 ], [ -4.2787, 40.3645 ], [ -4.2795, 40.3648 ], [ -4.2801, 40.3646 ], [ -4.2803, 40.3641 ], [ -4.2802, 40.3637 ], [ -4.2803, 40.3636 ], [ -4.2802, 40.3632 ], [ -4.2799, 40.3632 ], [ -4.2792, 40.3627 ], [ -4.2792, 40.3625 ], [ -4.279, 40.3623 ], [ -4.2798, 40.3619 ], [ -4.2802, 40.3619 ], [ -4.2802, 40.3618 ], [ -4.2806, 40.3617 ], [ -4.2818, 40.3619 ], [ -4.2821, 40.3617 ], [ -4.282, 40.3616 ], [ -4.2823, 40.3612 ], [ -4.2822, 40.3612 ], [ -4.2823, 40.361 ], [ -4.2818, 40.3608 ], [ -4.283, 40.3607 ], [ -4.283, 40.3601 ], [ -4.2826, 40.3601 ], [ -4.2822, 40.3593 ], [ -4.2819, 40.3595 ], [ -4.2806, 40.3596 ], [ -4.2806, 40.3595 ], [ -4.2804, 40.3595 ], [ -4.2804, 40.3596 ], [ -4.28, 40.3597 ], [ -4.2799, 40.3599 ], [ -4.2793, 40.3593 ], [ -4.2785, 40.3596 ], [ -4.2782, 40.3592 ], [ -4.2787, 40.3589 ], [ -4.2779, 40.3579 ], [ -4.2775, 40.3579 ], [ -4.2769, 40.3582 ], [ -4.2772, 40.3586 ], [ -4.2765, 40.359 ], [ -4.2763, 40.3594 ], [ -4.275, 40.3593 ], [ -4.2745, 40.3595 ], [ -4.2745, 40.3609 ], [ -4.2747, 40.3617 ] ] ] } }
]
}
