{
"type": "FeatureCollection",
"name": "vigente.full",
"features": [
{ "type": "Feature", "properties": { "municipio": "Titulcia", "clasificacion": "no-urbanizable-protegido", "calificacion": "sin-asignar", "version": "vigente", "fuente": "SIT-CAM WFS — UsoDelSuelo:VPLA_V_CLASIFICACION (https://idem.comunidad.madrid/geosrvg/ows)", "fecha_dato": "2026-05-12", "ambito": "41779", "_raw_CD_SIGLAS": "SNUP", "_raw_DS_CLASIF_GEN": "Suelo No Urbanizable Protegido", "_raw_DS_CLASIF_DET": "Suelo No Urbanizable protegido Parque Regional Zona B", "_raw_DS_DOCU": "NORMAS SUBSIDIARIAS", "_raw_DS_LEY": "CM Ley 9/1995, E RDL 1/1992", "_raw_FC_AC": "2000-03-02", "_raw_NM_AREA_M2": 555635.04371894896, "_cam_code": "147" }, "geometry": { "type": "Polygon", "coordinates": [ [ [ -3.5598, 40.1606 ], [ -3.5594, 40.1606 ], [ -3.5588, 40.1603 ], [ -3.5583, 40.1603 ], [ -3.5581, 40.1605 ], [ -3.5575, 40.1607 ], [ -3.5558, 40.1606 ], [ -3.5559, 40.161 ], [ -3.5563, 40.1614 ], [ -3.5563, 40.162 ], [ -3.556, 40.1626 ], [ -3.5559, 40.1632 ], [ -3.5561, 40.1644 ], [ -3.556, 40.1648 ], [ -3.5556, 40.1651 ], [ -3.5555, 40.1654 ], [ -3.5555, 40.1663 ], [ -3.555, 40.1668 ], [ -3.5541, 40.1681 ], [ -3.5537, 40.1684 ], [ -3.5531, 40.1684 ], [ -3.5519, 40.1688 ], [ -3.5515, 40.1698 ], [ -3.5563, 40.1712 ], [ -3.5574, 40.1705 ], [ -3.5588, 40.1705 ], [ -3.5588, 40.1706 ], [ -3.5593, 40.1706 ], [ -3.5595, 40.1708 ], [ -3.5598, 40.1707 ], [ -3.5602, 40.1708 ], [ -3.5607, 40.1702 ], [ -3.5609, 40.1696 ], [ -3.5617, 40.1688 ], [ -3.562, 40.1682 ], [ -3.5615, 40.1675 ], [ -3.5606, 40.1669 ], [ -3.5604, 40.1655 ], [ -3.5605, 40.1643 ], [ -3.5601, 40.1627 ], [ -3.5598, 40.1606 ] ] ] } },
{ "type": "Feature", "properties": { "municipio": "Titulcia", "clasificacion": "no-urbanizable-protegido", "calificacion": "sin-asignar", "version": "vigente", "fuente": "SIT-CAM WFS — UsoDelSuelo:VPLA_V_CLASIFICACION (https://idem.comunidad.madrid/geosrvg/ows)", "fecha_dato": "2026-05-12", "ambito": "41779", "_raw_CD_SIGLAS": "SNUP", "_raw_DS_CLASIF_GEN": "Suelo No Urbanizable Protegido", "_raw_DS_CLASIF_DET": "Suelo No Urbanizable protegido Parque Regional Zona B", "_raw_DS_DOCU": "NORMAS SUBSIDIARIAS", "_raw_DS_LEY": "CM Ley 9/1995, E RDL 1/1992", "_raw_FC_AC": "2000-03-02", "_raw_NM_AREA_M2": 722568.18396883097, "_cam_code": "147" }, "geometry": { "type": "Polygon", "coordinates": [ [ [ -3.5563, 40.1602 ], [ -3.5578, 40.1603 ], [ -3.5581, 40.1599 ], [ -3.5589, 40.1599 ], [ -3.5599, 40.1603 ], [ -3.5603, 40.159 ], [ -3.5611, 40.1577 ], [ -3.5617, 40.1556 ], [ -3.5624, 40.1546 ], [ -3.5642, 40.1492 ], [ -3.5664, 40.1465 ], [ -3.5677, 40.1453 ], [ -3.5694, 40.1443 ], [ -3.571, 40.1436 ], [ -3.5723, 40.1427 ], [ -3.5731, 40.1416 ], [ -3.5727, 40.1405 ], [ -3.5727, 40.1396 ], [ -3.5726, 40.1395 ], [ -3.5728, 40.1392 ], [ -3.5726, 40.1392 ], [ -3.5726, 40.1391 ], [ -3.5729, 40.1388 ], [ -3.5728, 40.1387 ], [ -3.5724, 40.1387 ], [ -3.5723, 40.1391 ], [ -3.5722, 40.139 ], [ -3.5721, 40.1391 ], [ -3.5722, 40.1396 ], [ -3.5719, 40.1397 ], [ -3.5714, 40.1402 ], [ -3.5715, 40.1404 ], [ -3.5711, 40.1408 ], [ -3.5708, 40.1409 ], [ -3.5712, 40.141 ], [ -3.5712, 40.1411 ], [ -3.5695, 40.1433 ], [ -3.5692, 40.1431 ], [ -3.5679, 40.1427 ], [ -3.5673, 40.1419 ], [ -3.567, 40.1408 ], [ -3.5663, 40.1415 ], [ -3.5655, 40.143 ], [ -3.5649, 40.1439 ], [ -3.5643, 40.1445 ], [ -3.5628, 40.1468 ], [ -3.5622, 40.1483 ], [ -3.5614, 40.1493 ], [ -3.5596, 40.151 ], [ -3.5582, 40.1544 ], [ -3.5584, 40.1551 ], [ -3.5574, 40.1563 ], [ -3.5573, 40.1568 ], [ -3.5568, 40.1577 ], [ -3.5569, 40.1586 ], [ -3.5558, 40.1603 ], [ -3.5563, 40.1602 ] ] ] } },
{ "type": "Feature", "properties": { "municipio": "Titulcia", "clasificacion": "no-urbanizable-protegido", "calificacion": "sin-asignar", "version": "vigente", "fuente": "SIT-CAM WFS — UsoDelSuelo:VPLA_V_CLASIFICACION (https://idem.comunidad.madrid/geosrvg/ows)", "fecha_dato": "2026-05-12", "ambito": "41779", "_raw_CD_SIGLAS": "SNUP", "_raw_DS_CLASIF_GEN": "Suelo No Urbanizable Protegido", "_raw_DS_CLASIF_DET": "Suelo No Urbanizable Protegido Reserva Arqueológica", "_raw_DS_DOCU": "NORMAS SUBSIDIARIAS", "_raw_DS_LEY": "CM Ley 9/1995, E RDL 1/1992", "_raw_FC_AC": "2000-03-02", "_raw_NM_AREA_M2": 45427.118658817002, "_cam_code": "147" }, "geometry": { "type": "Polygon", "coordinates": [ [ [ -3.5711, 40.1412 ], [ -3.5706, 40.1407 ], [ -3.5699, 40.1409 ], [ -3.5698, 40.1409 ], [ -3.5698, 40.1407 ], [ -3.5697, 40.1408 ], [ -3.5697, 40.1407 ], [ -3.5695, 40.1408 ], [ -3.5695, 40.1407 ], [ -3.568, 40.1412 ], [ -3.5679, 40.1414 ], [ -3.5676, 40.1414 ], [ -3.5676, 40.1415 ], [ -3.5677, 40.1418 ], [ -3.5682, 40.1424 ], [ -3.5695, 40.1428 ], [ -3.5697, 40.143 ], [ -3.5711, 40.1412 ] ] ] } },
{ "type": "Feature", "properties": { "municipio": "Titulcia", "clasificacion": "no-urbanizable-protegido", "calificacion": "sin-asignar", "version": "vigente", "fuente": "SIT-CAM WFS — UsoDelSuelo:VPLA_V_CLASIFICACION (https://idem.comunidad.madrid/geosrvg/ows)", "fecha_dato": "2026-05-12", "ambito": "41779", "_raw_CD_SIGLAS": "SNUP", "_raw_DS_CLASIF_GEN": "Suelo No Urbanizable Protegido", "_raw_DS_CLASIF_DET": "Suelo No Urbanizable protegido Parque Regional Zona B", "_raw_DS_DOCU": "NORMAS SUBSIDIARIAS", "_raw_DS_LEY": "CM Ley 9/1995, E RDL 1/1992", "_raw_FC_AC": "2000-03-02", "_raw_NM_AREA_M2": 488971.37097861402, "_cam_code": "147" }, "geometry": { "type": "Polygon", "coordinates": [ [ [ -3.5588, 40.15 ], [ -3.5566, 40.1504 ], [ -3.556, 40.1509 ], [ -3.5556, 40.1516 ], [ -3.5518, 40.1532 ], [ -3.5486, 40.1556 ], [ -3.5498, 40.1568 ], [ -3.5511, 40.1574 ], [ -3.5527, 40.1586 ], [ -3.5555, 40.1599 ], [ -3.5564, 40.1587 ], [ -3.5565, 40.1581 ], [ -3.5563, 40.1577 ], [ -3.557, 40.1562 ], [ -3.5576, 40.1556 ], [ -3.5579, 40.155 ], [ -3.5577, 40.1544 ], [ -3.5578, 40.154 ], [ -3.558, 40.1538 ], [ -3.5586, 40.1525 ], [ -3.5592, 40.1509 ], [ -3.5606, 40.1495 ], [ -3.5588, 40.15 ] ] ] } },
{ "type": "Feature", "properties": { "municipio": "Titulcia", "clasificacion": "no-urbanizable-protegido", "calificacion": "sin-asignar", "version": "vigente", "fuente": "SIT-CAM WFS — UsoDelSuelo:VPLA_V_CLASIFICACION (https://idem.comunidad.madrid/geosrvg/ows)", "fecha_dato": "2026-05-12", "ambito": "41779", "_raw_CD_SIGLAS": "SNUP", "_raw_DS_CLASIF_GEN": "Suelo No Urbanizable Protegido", "_raw_DS_CLASIF_DET": "Suelo No Urbanizable Protegido Z.E.P.A.", "_raw_DS_DOCU": "NORMAS SUBSIDIARIAS", "_raw_DS_LEY": "CM Ley 9/1995, E RDL 1/1992", "_raw_FC_AC": "2000-03-02", "_raw_NM_AREA_M2": 217268.23869226899, "_cam_code": "147" }, "geometry": { "type": "Polygon", "coordinates": [ [ [ -3.5482, 40.1561 ], [ -3.5467, 40.1564 ], [ -3.5468, 40.1566 ], [ -3.5459, 40.1568 ], [ -3.5457, 40.156 ], [ -3.5465, 40.1558 ], [ -3.5466, 40.156 ], [ -3.5484, 40.1557 ], [ -3.5472, 40.1545 ], [ -3.5464, 40.1535 ], [ -3.5448, 40.1498 ], [ -3.5447, 40.1492 ], [ -3.5425, 40.1502 ], [ -3.5417, 40.151 ], [ -3.542, 40.1511 ], [ -3.5426, 40.1516 ], [ -3.543, 40.1526 ], [ -3.5436, 40.1532 ], [ -3.5441, 40.1544 ], [ -3.5441, 40.1556 ], [ -3.5452, 40.1563 ], [ -3.546, 40.1574 ], [ -3.5459, 40.1587 ], [ -3.5455, 40.1599 ], [ -3.5472, 40.1575 ], [ -3.5476, 40.1573 ], [ -3.5482, 40.1561 ] ] ] } },
{ "type": "Feature", "properties": { "municipio": "Titulcia", "clasificacion": "no-urbanizable-protegido", "calificacion": "sin-asignar", "version": "vigente", "fuente": "SIT-CAM WFS — UsoDelSuelo:VPLA_V_CLASIFICACION (https://idem.comunidad.madrid/geosrvg/ows)", "fecha_dato": "2026-05-12", "ambito": "41779", "_raw_CD_SIGLAS": "SNUP", "_raw_DS_CLASIF_GEN": "Suelo No Urbanizable Protegido", "_raw_DS_CLASIF_DET": "Suelo No Urbanizable protegido Parque Regional Zona A", "_raw_DS_DOCU": "NORMAS SUBSIDIARIAS", "_raw_DS_LEY": "CM Ley 9/1995, E RDL 1/1992", "_raw_FC_AC": "2000-03-02", "_raw_NM_AREA_M2": 146307.24165658699, "_cam_code": "147" }, "geometry": { "type": "Polygon", "coordinates": [ [ [ -3.5691, 40.1485 ], [ -3.5711, 40.1484 ], [ -3.5727, 40.1481 ], [ -3.5737, 40.1477 ], [ -3.5752, 40.1467 ], [ -3.5755, 40.1463 ], [ -3.5759, 40.145 ], [ -3.5762, 40.1445 ], [ -3.5762, 40.1437 ], [ -3.5759, 40.1432 ], [ -3.5755, 40.1429 ], [ -3.5746, 40.1445 ], [ -3.5735, 40.1452 ], [ -3.5722, 40.1457 ], [ -3.5721, 40.1459 ], [ -3.5694, 40.1475 ], [ -3.5691, 40.1485 ] ] ] } },
{ "type": "Feature", "properties": { "municipio": "Titulcia", "clasificacion": "no-urbanizable-protegido", "calificacion": "sin-asignar", "version": "vigente", "fuente": "SIT-CAM WFS — UsoDelSuelo:VPLA_V_CLASIFICACION (https://idem.comunidad.madrid/geosrvg/ows)", "fecha_dato": "2026-05-12", "ambito": "41779", "_raw_CD_SIGLAS": "SNUP", "_raw_DS_CLASIF_GEN": "Suelo No Urbanizable Protegido", "_raw_DS_CLASIF_DET": "Suelo No Urbanizable Protegido Vias Pecuarias", "_raw_DS_DOCU": "NORMAS SUBSIDIARIAS", "_raw_DS_LEY": "CM Ley 9/1995, E RDL 1/1992", "_raw_FC_AC": "2000-03-02", "_raw_NM_AREA_M2": 10641.434726666301, "_cam_code": "147" }, "geometry": { "type": "Polygon", "coordinates": [ [ [ -3.5637, 40.1621 ], [ -3.5632, 40.1623 ], [ -3.5632, 40.162 ], [ -3.5623, 40.162 ], [ -3.5624, 40.1631 ], [ -3.5633, 40.1631 ], [ -3.5633, 40.1624 ], [ -3.5637, 40.1623 ], [ -3.5637, 40.1621 ] ] ] } },
{ "type": "Feature", "properties": { "municipio": "Titulcia", "clasificacion": "no-urbanizable-protegido", "calificacion": "sin-asignar", "version": "vigente", "fuente": "SIT-CAM WFS — UsoDelSuelo:VPLA_V_CLASIFICACION (https://idem.comunidad.madrid/geosrvg/ows)", "fecha_dato": "2026-05-12", "ambito": "41779", "_raw_CD_SIGLAS": "SNUP", "_raw_DS_CLASIF_GEN": "Suelo No Urbanizable Protegido", "_raw_DS_CLASIF_DET": "Suelo No Urbanizable Protegido Vias Pecuarias", "_raw_DS_DOCU": "NORMAS SUBSIDIARIAS", "_raw_DS_LEY": "CM Ley 9/1995, E RDL 1/1992", "_raw_FC_AC": "2000-03-02", "_raw_NM_AREA_M2": 78123.230813353395, "_cam_code": "147" }, "geometry": { "type": "Polygon", "coordinates": [ [ [ -3.5766, 40.1281 ], [ -3.5739, 40.1307 ], [ -3.5736, 40.1311 ], [ -3.5734, 40.1321 ], [ -3.5723, 40.1336 ], [ -3.572, 40.1342 ], [ -3.5714, 40.1346 ], [ -3.5719, 40.1344 ], [ -3.5724, 40.1344 ], [ -3.5739, 40.132 ], [ -3.574, 40.1312 ], [ -3.5769, 40.1285 ], [ -3.5778, 40.1273 ], [ -3.5787, 40.1257 ], [ -3.5784, 40.1253 ], [ -3.5768, 40.1279 ], [ -3.5742, 40.1281 ], [ -3.573, 40.1276 ], [ -3.5713, 40.1276 ], [ -3.5682, 40.1268 ], [ -3.5655, 40.1255 ], [ -3.5635, 40.1254 ], [ -3.5616, 40.1259 ], [ -3.5593, 40.1256 ], [ -3.5576, 40.1252 ], [ -3.5576, 40.1254 ], [ -3.558, 40.1255 ], [ -3.5616, 40.1261 ], [ -3.5635, 40.1256 ], [ -3.5654, 40.1257 ], [ -3.5668, 40.1263 ], [ -3.568, 40.127 ], [ -3.5698, 40.1274 ], [ -3.5713, 40.1277 ], [ -3.573, 40.1278 ], [ -3.5741, 40.1283 ], [ -3.5766, 40.1281 ] ] ] } },
{ "type": "Feature", "properties": { "municipio": "Titulcia", "clasificacion": "no-urbanizable-protegido", "calificacion": "sin-asignar", "version": "vigente", "fuente": "SIT-CAM WFS — UsoDelSuelo:VPLA_V_CLASIFICACION (https://idem.comunidad.madrid/geosrvg/ows)", "fecha_dato": "2026-05-12", "ambito": "41779", "_raw_CD_SIGLAS": "SNUP", "_raw_DS_CLASIF_GEN": "Suelo No Urbanizable Protegido", "_raw_DS_CLASIF_DET": "Suelo No Urbanizable protegido Parque Regional Zona D", "_raw_DS_DOCU": "NORMAS SUBSIDIARIAS", "_raw_DS_LEY": "CM Ley 9/1995, E RDL 1/1992", "_raw_FC_AC": "2000-03-02", "_raw_NM_AREA_M2": 448067.60138856102, "_cam_code": "147" }, "geometry": { "type": "Polygon", "coordinates": [ [ [ -3.5784, 40.1253 ], [ -3.575, 40.1217 ], [ -3.5736, 40.1222 ], [ -3.5708, 40.1238 ], [ -3.5667, 40.1246 ], [ -3.5635, 40.1254 ], [ -3.5655, 40.1255 ], [ -3.5682, 40.1268 ], [ -3.5713, 40.1276 ], [ -3.573, 40.1276 ], [ -3.5742, 40.1281 ], [ -3.5768, 40.1279 ], [ -3.5784, 40.1253 ] ] ] } },
{ "type": "Feature", "properties": { "municipio": "Titulcia", "clasificacion": "no-urbanizable-protegido", "calificacion": "sin-asignar", "version": "vigente", "fuente": "SIT-CAM WFS — UsoDelSuelo:VPLA_V_CLASIFICACION (https://idem.comunidad.madrid/geosrvg/ows)", "fecha_dato": "2026-05-12", "ambito": "41779", "_raw_CD_SIGLAS": "SNUP", "_raw_DS_CLASIF_GEN": "Suelo No Urbanizable Protegido", "_raw_DS_CLASIF_DET": "Suelo No Urbanizable protegido Parque Regional Zona D", "_raw_DS_DOCU": "NORMAS SUBSIDIARIAS", "_raw_DS_LEY": "CM Ley 9/1995, E RDL 1/1992", "_raw_FC_AC": "2000-03-02", "_raw_NM_AREA_M2": 684334.89215423202, "_cam_code": "147" }, "geometry": { "type": "Polygon", "coordinates": [ [ [ -3.5563, 40.1324 ], [ -3.557, 40.1324 ], [ -3.5577, 40.1327 ], [ -3.5594, 40.1315 ], [ -3.5601, 40.1312 ], [ -3.5618, 40.131 ], [ -3.5633, 40.1302 ], [ -3.5646, 40.1299 ], [ -3.5652, 40.1302 ], [ -3.566, 40.1299 ], [ -3.5688, 40.1301 ], [ -3.5705, 40.13 ], [ -3.5714, 40.1302 ], [ -3.5724, 40.1302 ], [ -3.5733, 40.13 ], [ -3.5743, 40.1303 ], [ -3.5766, 40.1281 ], [ -3.5741, 40.1283 ], [ -3.573, 40.1278 ], [ -3.5713, 40.1277 ], [ -3.5698, 40.1274 ], [ -3.568, 40.127 ], [ -3.5668, 40.1263 ], [ -3.5654, 40.1257 ], [ -3.5635, 40.1256 ], [ -3.5616, 40.1261 ], [ -3.5576, 40.1254 ], [ -3.557, 40.13 ], [ -3.5563, 40.1324 ] ] ] } },
{ "type": "Feature", "properties": { "municipio": "Titulcia", "clasificacion": "no-urbanizable-protegido", "calificacion": "sin-asignar", "version": "vigente", "fuente": "SIT-CAM WFS — UsoDelSuelo:VPLA_V_CLASIFICACION (https://idem.comunidad.madrid/geosrvg/ows)", "fecha_dato": "2026-05-12", "ambito": "41779", "_raw_CD_SIGLAS": "SNUP", "_raw_DS_CLASIF_GEN": "Suelo No Urbanizable Protegido", "_raw_DS_CLASIF_DET": "Suelo No Urbanizable protegido Parque Regional Zona B", "_raw_DS_DOCU": "NORMAS SUBSIDIARIAS", "_raw_DS_LEY": "CM Ley 9/1995, E RDL 1/1992", "_raw_FC_AC": "2000-03-02", "_raw_NM_AREA_M2": 365926.34543790598, "_cam_code": "147" }, "geometry": { "type": "Polygon", "coordinates": [ [ [ -3.5629, 40.1365 ], [ -3.5647, 40.1365 ], [ -3.5657, 40.1363 ], [ -3.5663, 40.1359 ], [ -3.5675, 40.1354 ], [ -3.5676, 40.1357 ], [ -3.5683, 40.1355 ], [ -3.5695, 40.1355 ], [ -3.5695, 40.1352 ], [ -3.5713, 40.1347 ], [ -3.5719, 40.1343 ], [ -3.5734, 40.1321 ], [ -3.5715, 40.1323 ], [ -3.5712, 40.1322 ], [ -3.5689, 40.1332 ], [ -3.5683, 40.1333 ], [ -3.5678, 40.1333 ], [ -3.5664, 40.1328 ], [ -3.5654, 40.133 ], [ -3.5644, 40.1327 ], [ -3.5642, 40.1323 ], [ -3.5633, 40.1328 ], [ -3.5628, 40.1341 ], [ -3.5623, 40.1345 ], [ -3.5609, 40.1348 ], [ -3.5591, 40.1344 ], [ -3.5579, 40.1348 ], [ -3.5554, 40.1345 ], [ -3.5559, 40.136 ], [ -3.5594, 40.1362 ], [ -3.5604, 40.1361 ], [ -3.5605, 40.136 ], [ -3.5611, 40.1364 ], [ -3.5623, 40.1363 ], [ -3.5629, 40.1365 ] ] ] } },
{ "type": "Feature", "properties": { "municipio": "Titulcia", "clasificacion": "no-urbanizable-protegido", "calificacion": "sin-asignar", "version": "vigente", "fuente": "SIT-CAM WFS — UsoDelSuelo:VPLA_V_CLASIFICACION (https://idem.comunidad.madrid/geosrvg/ows)", "fecha_dato": "2026-05-12", "ambito": "41779", "_raw_CD_SIGLAS": "SNUP", "_raw_DS_CLASIF_GEN": "Suelo No Urbanizable Protegido", "_raw_DS_CLASIF_DET": "Suelo No Urbanizable Protegido Protección de Cauces", "_raw_DS_DOCU": "NORMAS SUBSIDIARIAS", "_raw_DS_LEY": "CM Ley 9/1995, E RDL 1/1992", "_raw_FC_AC": "2000-03-02", "_raw_NM_AREA_M2": 479560.40727918799, "_cam_code": "147" }, "geometry": { "type": "Polygon", "coordinates": [ [ [ -3.5563, 40.1324 ], [ -3.5561, 40.1331 ], [ -3.5547, 40.1325 ], [ -3.5548, 40.1329 ], [ -3.555, 40.1331 ], [ -3.5554, 40.1345 ], [ -3.5579, 40.1348 ], [ -3.5591, 40.1344 ], [ -3.5609, 40.1348 ], [ -3.5623, 40.1345 ], [ -3.5628, 40.1341 ], [ -3.5633, 40.1328 ], [ -3.5642, 40.1323 ], [ -3.5644, 40.1327 ], [ -3.5654, 40.133 ], [ -3.5664, 40.1328 ], [ -3.5678, 40.1333 ], [ -3.5683, 40.1333 ], [ -3.5689, 40.1332 ], [ -3.5712, 40.1322 ], [ -3.5715, 40.1323 ], [ -3.5734, 40.1321 ], [ -3.5736, 40.1311 ], [ -3.5743, 40.1303 ], [ -3.5733, 40.13 ], [ -3.5724, 40.1302 ], [ -3.5714, 40.1302 ], [ -3.5705, 40.13 ], [ -3.5688, 40.1301 ], [ -3.566, 40.1299 ], [ -3.5652, 40.1302 ], [ -3.5646, 40.1299 ], [ -3.5633, 40.1302 ], [ -3.5618, 40.131 ], [ -3.5601, 40.1312 ], [ -3.5594, 40.1315 ], [ -3.5577, 40.1327 ], [ -3.557, 40.1324 ], [ -3.5563, 40.1324 ] ] ] } },
{ "type": "Feature", "properties": { "municipio": "Titulcia", "clasificacion": "no-urbanizable-protegido", "calificacion": "sin-asignar", "version": "vigente", "fuente": "SIT-CAM WFS — UsoDelSuelo:VPLA_V_CLASIFICACION (https://idem.comunidad.madrid/geosrvg/ows)", "fecha_dato": "2026-05-12", "ambito": "41779", "_raw_CD_SIGLAS": "SNUP", "_raw_DS_CLASIF_GEN": "Suelo No Urbanizable Protegido", "_raw_DS_CLASIF_DET": "Suelo No Urbanizable protegido Parque Regional Zona D", "_raw_DS_DOCU": "NORMAS SUBSIDIARIAS", "_raw_DS_LEY": "CM Ley 9/1995, E RDL 1/1992", "_raw_FC_AC": "2000-03-02", "_raw_NM_AREA_M2": 39005.871081085999, "_cam_code": "147" }, "geometry": { "type": "Polygon", "coordinates": [ [ [ -3.5759, 40.1294 ], [ -3.5761, 40.1295 ], [ -3.577, 40.1292 ], [ -3.5773, 40.1293 ], [ -3.5785, 40.1285 ], [ -3.579, 40.1278 ], [ -3.5787, 40.1256 ], [ -3.5778, 40.1273 ], [ -3.5769, 40.1285 ], [ -3.5759, 40.1294 ] ] ] } },
{ "type": "Feature", "properties": { "municipio": "Titulcia", "clasificacion": "no-urbanizable-protegido", "calificacion": "sin-asignar", "version": "vigente", "fuente": "SIT-CAM WFS — UsoDelSuelo:VPLA_V_CLASIFICACION (https://idem.comunidad.madrid/geosrvg/ows)", "fecha_dato": "2026-05-12", "ambito": "41779", "_raw_CD_SIGLAS": "SNUP", "_raw_DS_CLASIF_GEN": "Suelo No Urbanizable Protegido", "_raw_DS_CLASIF_DET": "Suelo No Urbanizable protegido Parque Regional Zona B", "_raw_DS_DOCU": "NORMAS SUBSIDIARIAS", "_raw_DS_LEY": "CM Ley 9/1995, E RDL 1/1992", "_raw_FC_AC": "2000-03-02", "_raw_NM_AREA_M2": 365610.16009142401, "_cam_code": "147" }, "geometry": { "type": "Polygon", "coordinates": [ [ [ -3.5738, 40.1322 ], [ -3.5727, 40.1338 ], [ -3.5726, 40.134 ], [ -3.5724, 40.1344 ], [ -3.5724, 40.1343 ], [ -3.5724, 40.1343 ], [ -3.5727, 40.1344 ], [ -3.5729, 40.1344 ], [ -3.5732, 40.1345 ], [ -3.5741, 40.1354 ], [ -3.5739, 40.1356 ], [ -3.5743, 40.1359 ], [ -3.5737, 40.136 ], [ -3.5739, 40.1365 ], [ -3.5739, 40.1376 ], [ -3.5748, 40.1372 ], [ -3.5789, 40.1363 ], [ -3.5797, 40.136 ], [ -3.5813, 40.1347 ], [ -3.5819, 40.1341 ], [ -3.5821, 40.1337 ], [ -3.5818, 40.1333 ], [ -3.5817, 40.1329 ], [ -3.5813, 40.1326 ], [ -3.5804, 40.1313 ], [ -3.5802, 40.1314 ], [ -3.5794, 40.1313 ], [ -3.5782, 40.1316 ], [ -3.5778, 40.1316 ], [ -3.5769, 40.1313 ], [ -3.5764, 40.1314 ], [ -3.5757, 40.132 ], [ -3.5738, 40.1322 ] ] ] } },
{ "type": "Feature", "properties": { "municipio": "Titulcia", "clasificacion": "no-urbanizable-protegido", "calificacion": "sin-asignar", "version": "vigente", "fuente": "SIT-CAM WFS — UsoDelSuelo:VPLA_V_CLASIFICACION (https://idem.comunidad.madrid/geosrvg/ows)", "fecha_dato": "2026-05-12", "ambito": "41779", "_raw_CD_SIGLAS": "SNUP", "_raw_DS_CLASIF_GEN": "Suelo No Urbanizable Protegido", "_raw_DS_CLASIF_DET": "Suelo No Urbanizable Protegido Protección de Cauces", "_raw_DS_DOCU": "NORMAS SUBSIDIARIAS", "_raw_DS_LEY": "CM Ley 9/1995, E RDL 1/1992", "_raw_FC_AC": "2000-03-02", "_raw_NM_AREA_M2": 1279399.4043940499, "_cam_code": "147" }, "geometry": { "type": "Polygon", "coordinates": [ [ [ -3.5606, 40.1707 ], [ -3.5616, 40.1708 ], [ -3.562, 40.1711 ], [ -3.5625, 40.1705 ], [ -3.5625, 40.1703 ], [ -3.5629, 40.1702 ], [ -3.5636, 40.1694 ], [ -3.5641, 40.1683 ], [ -3.5642, 40.1664 ], [ -3.5639, 40.166 ], [ -3.5636, 40.1648 ], [ -3.5637, 40.1647 ], [ -3.5637, 40.1623 ], [ -3.5633, 40.1624 ], [ -3.5633, 40.1631 ], [ -3.5624, 40.1631 ], [ -3.5623, 40.162 ], [ -3.5632, 40.162 ], [ -3.5632, 40.1623 ], [ -3.5637, 40.1621 ], [ -3.5637, 40.1609 ], [ -3.5631, 40.159 ], [ -3.5631, 40.1584 ], [ -3.5632, 40.158 ], [ -3.5634, 40.1578 ], [ -3.5638, 40.1564 ], [ -3.5649, 40.1555 ], [ -3.5659, 40.1544 ], [ -3.5662, 40.1522 ], [ -3.5658, 40.1513 ], [ -3.5657, 40.1505 ], [ -3.566, 40.1498 ], [ -3.5669, 40.1486 ], [ -3.5676, 40.1484 ], [ -3.5691, 40.1485 ], [ -3.5694, 40.1475 ], [ -3.5721, 40.1459 ], [ -3.5722, 40.1457 ], [ -3.5735, 40.1452 ], [ -3.5746, 40.1445 ], [ -3.5755, 40.1429 ], [ -3.5752, 40.1428 ], [ -3.5743, 40.142 ], [ -3.5741, 40.1415 ], [ -3.5741, 40.1409 ], [ -3.5743, 40.1404 ], [ -3.5751, 40.1394 ], [ -3.5763, 40.1388 ], [ -3.5776, 40.1384 ], [ -3.5787, 40.1376 ], [ -3.5797, 40.1372 ], [ -3.5797, 40.1371 ], [ -3.5809, 40.1367 ], [ -3.5819, 40.136 ], [ -3.5829, 40.135 ], [ -3.5834, 40.1343 ], [ -3.5837, 40.1336 ], [ -3.5839, 40.1325 ], [ -3.5838, 40.1318 ], [ -3.583, 40.131 ], [ -3.583, 40.1306 ], [ -3.5833, 40.1301 ], [ -3.5834, 40.1291 ], [ -3.5837, 40.1285 ], [ -3.582, 40.1287 ], [ -3.5819, 40.1288 ], [ -3.5816, 40.1288 ], [ -3.5814, 40.1286 ], [ -3.581, 40.1286 ], [ -3.5809, 40.1289 ], [ -3.5812, 40.129 ], [ -3.5812, 40.1291 ], [ -3.5808, 40.1294 ], [ -3.5809, 40.1295 ], [ -3.5814, 40.1295 ], [ -3.5814, 40.1297 ], [ -3.5809, 40.1301 ], [ -3.5808, 40.1304 ], [ -3.5806, 40.1304 ], [ -3.5801, 40.1299 ], [ -3.5795, 40.1299 ], [ -3.5796, 40.1295 ], [ -3.5794, 40.1294 ], [ -3.5791, 40.1301 ], [ -3.5791, 40.1306 ], [ -3.5784, 40.1306 ], [ -3.5783, 40.1304 ], [ -3.5787, 40.1301 ], [ -3.5786, 40.13 ], [ -3.5776, 40.1302 ], [ -3.5785, 40.1285 ], [ -3.5773, 40.1293 ], [ -3.577, 40.1292 ], [ -3.5761, 40.1295 ], [ -3.5759, 40.1294 ], [ -3.574, 40.1312 ], [ -3.5738, 40.1322 ], [ -3.5757, 40.132 ], [ -3.5764, 40.1314 ], [ -3.5769, 40.1313 ], [ -3.5778, 40.1316 ], [ -3.5794, 40.1313 ], [ -3.5799, 40.1314 ], [ -3.5804, 40.1313 ], [ -3.5813, 40.1326 ], [ -3.5817, 40.1329 ], [ -3.5818, 40.1333 ], [ -3.5821, 40.1337 ], [ -3.5819, 40.1341 ], [ -3.5813, 40.1347 ], [ -3.5797, 40.136 ], [ -3.5789, 40.1363 ], [ -3.5748, 40.1372 ], [ -3.5739, 40.1376 ], [ -3.574, 40.1378 ], [ -3.5735, 40.1377 ], [ -3.5735, 40.1383 ], [ -3.5731, 40.1393 ], [ -3.5729, 40.1396 ], [ -3.5726, 40.1395 ], [ -3.5727, 40.1405 ], [ -3.5731, 40.1416 ], [ -3.5723, 40.1427 ], [ -3.571, 40.1436 ], [ -3.5694, 40.1443 ], [ -3.5677, 40.1453 ], [ -3.5664, 40.1465 ], [ -3.5642, 40.1492 ], [ -3.5624, 40.1546 ], [ -3.5617, 40.1556 ], [ -3.5611, 40.1577 ], [ -3.5603, 40.159 ], [ -3.5599, 40.1603 ], [ -3.5611, 40.1604 ], [ -3.5612, 40.1602 ], [ -3.5614, 40.1602 ], [ -3.5614, 40.1604 ], [ -3.5616, 40.1606 ], [ -3.5614, 40.1609 ], [ -3.5598, 40.1606 ], [ -3.5601, 40.1627 ], [ -3.5605, 40.1643 ], [ -3.5604, 40.1655 ], [ -3.5606, 40.1669 ], [ -3.5615, 40.1675 ], [ -3.562, 40.1682 ], [ -3.5617, 40.1688 ], [ -3.5609, 40.1696 ], [ -3.5607, 40.1702 ], [ -3.5602, 40.1708 ], [ -3.5604, 40.1709 ], [ -3.5606, 40.1707 ] ] ] } },
{ "type": "Feature", "properties": { "municipio": "Titulcia", "clasificacion": "no-urbanizable-protegido", "calificacion": "sin-asignar", "version": "vigente", "fuente": "SIT-CAM WFS — UsoDelSuelo:VPLA_V_CLASIFICACION (https://idem.comunidad.madrid/geosrvg/ows)", "fecha_dato": "2026-05-12", "ambito": "41779", "_raw_CD_SIGLAS": "SNUP", "_raw_DS_CLASIF_GEN": "Suelo No Urbanizable Protegido", "_raw_DS_CLASIF_DET": "Suelo No Urbanizable Protegido Z.E.P.A.", "_raw_DS_DOCU": "NORMAS SUBSIDIARIAS", "_raw_DS_LEY": "CM Ley 9/1995, E RDL 1/1992", "_raw_FC_AC": "2000-03-02", "_raw_NM_AREA_M2": 1163558.9921868599, "_cam_code": "147" }, "geometry": { "type": "Polygon", "coordinates": [ [ [ -3.5556, 40.1516 ], [ -3.556, 40.1509 ], [ -3.5566, 40.1504 ], [ -3.5588, 40.15 ], [ -3.5606, 40.1495 ], [ -3.5611, 40.1491 ], [ -3.5617, 40.1483 ], [ -3.5629, 40.1458 ], [ -3.5646, 40.1437 ], [ -3.5656, 40.1421 ], [ -3.5659, 40.1413 ], [ -3.5646, 40.1415 ], [ -3.563, 40.1422 ], [ -3.5614, 40.1425 ], [ -3.5559, 40.1439 ], [ -3.552, 40.1461 ], [ -3.547, 40.148 ], [ -3.5449, 40.1491 ], [ -3.5455, 40.1509 ], [ -3.5466, 40.1535 ], [ -3.5486, 40.1556 ], [ -3.5518, 40.1532 ], [ -3.5556, 40.1516 ] ] ] } },
{ "type": "Feature", "properties": { "municipio": "Titulcia", "clasificacion": "no-urbanizable-protegido", "calificacion": "sin-asignar", "version": "vigente", "fuente": "SIT-CAM WFS — UsoDelSuelo:VPLA_V_CLASIFICACION (https://idem.comunidad.madrid/geosrvg/ows)", "fecha_dato": "2026-05-12", "ambito": "41779", "_raw_CD_SIGLAS": "SNUP", "_raw_DS_CLASIF_GEN": "Suelo No Urbanizable Protegido", "_raw_DS_CLASIF_DET": "Suelo No Urbanizable protegido Parque Regional Zona B", "_raw_DS_DOCU": "NORMAS SUBSIDIARIAS", "_raw_DS_LEY": "CM Ley 9/1995, E RDL 1/1992", "_raw_FC_AC": "2000-03-02", "_raw_NM_AREA_M2": 1007294.24581752, "_cam_code": "147" }, "geometry": { "type": "Polygon", "coordinates": [ [ [ -3.5455, 40.1599 ], [ -3.5452, 40.1609 ], [ -3.5455, 40.1622 ], [ -3.5453, 40.1629 ], [ -3.5439, 40.1638 ], [ -3.5445, 40.165 ], [ -3.5447, 40.166 ], [ -3.5474, 40.1688 ], [ -3.549, 40.1694 ], [ -3.5509, 40.1699 ], [ -3.5515, 40.1686 ], [ -3.553, 40.168 ], [ -3.5538, 40.1679 ], [ -3.5543, 40.1671 ], [ -3.5551, 40.1662 ], [ -3.5552, 40.1649 ], [ -3.5556, 40.1646 ], [ -3.5557, 40.1643 ], [ -3.5554, 40.1632 ], [ -3.5555, 40.1625 ], [ -3.5558, 40.1619 ], [ -3.5558, 40.1615 ], [ -3.5555, 40.1611 ], [ -3.5553, 40.1603 ], [ -3.5554, 40.1601 ], [ -3.5526, 40.1587 ], [ -3.551, 40.1575 ], [ -3.5497, 40.157 ], [ -3.5487, 40.1559 ], [ -3.5482, 40.1561 ], [ -3.5476, 40.1573 ], [ -3.5472, 40.1575 ], [ -3.5455, 40.1599 ] ] ] } },
{ "type": "Feature", "properties": { "municipio": "Titulcia", "clasificacion": "no-urbanizable-protegido", "calificacion": "sin-asignar", "version": "vigente", "fuente": "SIT-CAM WFS — UsoDelSuelo:VPLA_V_CLASIFICACION (https://idem.comunidad.madrid/geosrvg/ows)", "fecha_dato": "2026-05-12", "ambito": "41779", "_raw_CD_SIGLAS": "SNUP", "_raw_DS_CLASIF_GEN": "Suelo No Urbanizable Protegido", "_raw_DS_CLASIF_DET": "Suelo No Urbanizable Protegido Vias Pecuarias", "_raw_DS_DOCU": "NORMAS SUBSIDIARIAS", "_raw_DS_LEY": "CM Ley 9/1995, E RDL 1/1992", "_raw_FC_AC": "2000-03-02", "_raw_NM_AREA_M2": 240156.743996668, "_cam_code": "147" }, "geometry": { "type": "Polygon", "coordinates": [ [ [ -3.553, 40.168 ], [ -3.5515, 40.1686 ], [ -3.5509, 40.1699 ], [ -3.551, 40.17 ], [ -3.5515, 40.1698 ], [ -3.5519, 40.1688 ], [ -3.5531, 40.1684 ], [ -3.5537, 40.1684 ], [ -3.5541, 40.1681 ], [ -3.555, 40.1668 ], [ -3.5555, 40.1663 ], [ -3.5555, 40.1654 ], [ -3.5556, 40.1651 ], [ -3.556, 40.1648 ], [ -3.5561, 40.1644 ], [ -3.5559, 40.1632 ], [ -3.556, 40.1626 ], [ -3.5563, 40.162 ], [ -3.5563, 40.1614 ], [ -3.5559, 40.161 ], [ -3.5558, 40.1606 ], [ -3.5575, 40.1607 ], [ -3.5581, 40.1605 ], [ -3.5583, 40.1603 ], [ -3.5588, 40.1603 ], [ -3.5594, 40.1606 ], [ -3.5611, 40.1608 ], [ -3.561, 40.1609 ], [ -3.5614, 40.1609 ], [ -3.5616, 40.1606 ], [ -3.5614, 40.1604 ], [ -3.5614, 40.1602 ], [ -3.5612, 40.1602 ], [ -3.5611, 40.1604 ], [ -3.5604, 40.1604 ], [ -3.5589, 40.1599 ], [ -3.5581, 40.1599 ], [ -3.5578, 40.1603 ], [ -3.5563, 40.1602 ], [ -3.5558, 40.1603 ], [ -3.5569, 40.1586 ], [ -3.5568, 40.1577 ], [ -3.5573, 40.1568 ], [ -3.5574, 40.1563 ], [ -3.5584, 40.1551 ], [ -3.5582, 40.1544 ], [ -3.5596, 40.151 ], [ -3.5614, 40.1493 ], [ -3.5622, 40.1483 ], [ -3.5628, 40.1468 ], [ -3.5643, 40.1445 ], [ -3.5649, 40.1439 ], [ -3.5655, 40.143 ], [ -3.5663, 40.1415 ], [ -3.567, 40.1408 ], [ -3.5673, 40.1419 ], [ -3.5679, 40.1427 ], [ -3.5692, 40.1431 ], [ -3.5695, 40.1433 ], [ -3.5697, 40.143 ], [ -3.5695, 40.1428 ], [ -3.5682, 40.1424 ], [ -3.5677, 40.1418 ], [ -3.5676, 40.1414 ], [ -3.5675, 40.1414 ], [ -3.5674, 40.1404 ], [ -3.5673, 40.1403 ], [ -3.5674, 40.1403 ], [ -3.5677, 40.1397 ], [ -3.5684, 40.1391 ], [ -3.5683, 40.1386 ], [ -3.5674, 40.1395 ], [ -3.5667, 40.1406 ], [ -3.5659, 40.1412 ], [ -3.5656, 40.1421 ], [ -3.5646, 40.1437 ], [ -3.5629, 40.1458 ], [ -3.5615, 40.1486 ], [ -3.5592, 40.1509 ], [ -3.5586, 40.1525 ], [ -3.558, 40.1538 ], [ -3.5578, 40.154 ], [ -3.5577, 40.1544 ], [ -3.5579, 40.155 ], [ -3.5576, 40.1556 ], [ -3.557, 40.1562 ], [ -3.5563, 40.1577 ], [ -3.5565, 40.1581 ], [ -3.5564, 40.1587 ], [ -3.5555, 40.1599 ], [ -3.5527, 40.1586 ], [ -3.5511, 40.1574 ], [ -3.5498, 40.1568 ], [ -3.5466, 40.1535 ], [ -3.5455, 40.1509 ], [ -3.5449, 40.1491 ], [ -3.5449, 40.147 ], [ -3.5447, 40.1453 ], [ -3.5445, 40.145 ], [ -3.5443, 40.1451 ], [ -3.5445, 40.1454 ], [ -3.5446, 40.1462 ], [ -3.5447, 40.1478 ], [ -3.5446, 40.1489 ], [ -3.5448, 40.1498 ], [ -3.5464, 40.1535 ], [ -3.5472, 40.1545 ], [ -3.5484, 40.1557 ], [ -3.5466, 40.156 ], [ -3.5465, 40.1558 ], [ -3.5457, 40.156 ], [ -3.5459, 40.1568 ], [ -3.5468, 40.1566 ], [ -3.5467, 40.1564 ], [ -3.5487, 40.1559 ], [ -3.5497, 40.157 ], [ -3.551, 40.1575 ], [ -3.5526, 40.1587 ], [ -3.5554, 40.1601 ], [ -3.5553, 40.1603 ], [ -3.5555, 40.1611 ], [ -3.5558, 40.1615 ], [ -3.5558, 40.1619 ], [ -3.5555, 40.1625 ], [ -3.5554, 40.1632 ], [ -3.5557, 40.1643 ], [ -3.5556, 40.1646 ], [ -3.5552, 40.1649 ], [ -3.5551, 40.1662 ], [ -3.5543, 40.1671 ], [ -3.5538, 40.1679 ], [ -3.553, 40.168 ] ] ] } },
{ "type": "Feature", "properties": { "municipio": "Titulcia", "clasificacion": "urbanizable-no-sectorizado", "calificacion": "sin-asignar", "version": "vigente", "fuente": "SIT-CAM WFS — UsoDelSuelo:VPLA_V_CLASIFICACION (https://idem.comunidad.madrid/geosrvg/ows)", "fecha_dato": "2026-05-12", "ambito": "41779", "_raw_CD_SIGLAS": "SUBNS", "_raw_DS_CLASIF_GEN": "Suelo No Urbanizable Común", "_raw_DS_CLASIF_DET": "Suelo No Urbanizable Común", "_raw_DS_DOCU": "NORMAS SUBSIDIARIAS", "_raw_DS_LEY": "CM Ley 9/1995, E RDL 1/1992", "_raw_FC_AC": "2000-03-02", "_raw_NM_AREA_M2": 919955.77427038201, "_cam_code": "147" }, "geometry": { "type": "Polygon", "coordinates": [ [ [ -3.5445, 40.145 ], [ -3.5447, 40.1453 ], [ -3.5449, 40.147 ], [ -3.5449, 40.1491 ], [ -3.547, 40.148 ], [ -3.552, 40.1461 ], [ -3.5559, 40.1439 ], [ -3.5614, 40.1425 ], [ -3.5611, 40.1398 ], [ -3.5607, 40.1392 ], [ -3.56, 40.1385 ], [ -3.5612, 40.1378 ], [ -3.5616, 40.1379 ], [ -3.5617, 40.1378 ], [ -3.5626, 40.1378 ], [ -3.5626, 40.1377 ], [ -3.562, 40.1377 ], [ -3.5619, 40.1374 ], [ -3.5625, 40.1369 ], [ -3.5634, 40.1365 ], [ -3.5629, 40.1365 ], [ -3.5623, 40.1363 ], [ -3.5611, 40.1364 ], [ -3.5605, 40.136 ], [ -3.5596, 40.1362 ], [ -3.5559, 40.136 ], [ -3.5559, 40.1364 ], [ -3.5553, 40.1373 ], [ -3.5529, 40.1387 ], [ -3.552, 40.1401 ], [ -3.5512, 40.1417 ], [ -3.5508, 40.1422 ], [ -3.5497, 40.1425 ], [ -3.5483, 40.1431 ], [ -3.5445, 40.145 ] ] ] } },
{ "type": "Feature", "properties": { "municipio": "Titulcia", "clasificacion": "urbanizable-no-sectorizado", "calificacion": "sin-asignar", "version": "vigente", "fuente": "SIT-CAM WFS — UsoDelSuelo:VPLA_V_CLASIFICACION (https://idem.comunidad.madrid/geosrvg/ows)", "fecha_dato": "2026-05-12", "ambito": "41779", "_raw_CD_SIGLAS": "SUBNS", "_raw_DS_CLASIF_GEN": "Suelo No Urbanizable Común", "_raw_DS_CLASIF_DET": "Suelo No Urbanizable Común", "_raw_DS_DOCU": "NORMAS SUBSIDIARIAS", "_raw_DS_LEY": "CM Ley 9/1995, E RDL 1/1992", "_raw_FC_AC": "2000-03-02", "_raw_NM_AREA_M2": 235516.50267255501, "_cam_code": "147" }, "geometry": { "type": "Polygon", "coordinates": [ [ [ -3.5443, 40.1451 ], [ -3.5365, 40.1485 ], [ -3.5354, 40.1491 ], [ -3.5379, 40.1489 ], [ -3.5384, 40.1491 ], [ -3.5395, 40.1499 ], [ -3.5399, 40.15 ], [ -3.5408, 40.1506 ], [ -3.5417, 40.151 ], [ -3.5425, 40.1502 ], [ -3.5447, 40.1492 ], [ -3.5446, 40.1489 ], [ -3.5447, 40.1478 ], [ -3.5446, 40.1462 ], [ -3.5445, 40.1454 ], [ -3.5443, 40.1451 ] ] ] } },
{ "type": "Feature", "properties": { "municipio": "Titulcia", "clasificacion": "urbanizable-sectorizado", "calificacion": "sin-asignar", "version": "vigente", "fuente": "SIT-CAM WFS — UsoDelSuelo:VPLA_V_CLASIFICACION (https://idem.comunidad.madrid/geosrvg/ows)", "fecha_dato": "2026-05-12", "ambito": "41779", "_raw_CD_SIGLAS": "SUBS", "_raw_DS_CLASIF_GEN": "Suelo Apto Para Urbanizar", "_raw_DS_CLASIF_DET": "Suelo Apto para Urbanizar", "_raw_DS_DOCU": "NORMAS SUBSIDIARIAS", "_raw_DS_LEY": "CM Ley 9/1995, E RDL 1/1992", "_raw_FC_AC": "2000-03-02", "_raw_NM_AREA_M2": 235070.310536923, "_cam_code": "147" }, "geometry": { "type": "Polygon", "coordinates": [ [ [ -3.5607, 40.1392 ], [ -3.5611, 40.1398 ], [ -3.5612, 40.1402 ], [ -3.5614, 40.1425 ], [ -3.563, 40.1422 ], [ -3.5646, 40.1415 ], [ -3.5659, 40.1413 ], [ -3.5661, 40.141 ], [ -3.5667, 40.1406 ], [ -3.567, 40.1401 ], [ -3.5666, 40.1387 ], [ -3.5651, 40.1391 ], [ -3.5649, 40.1389 ], [ -3.5645, 40.1375 ], [ -3.5659, 40.1373 ], [ -3.5657, 40.1363 ], [ -3.5647, 40.1365 ], [ -3.5634, 40.1365 ], [ -3.5625, 40.1369 ], [ -3.5619, 40.1374 ], [ -3.5619, 40.1376 ], [ -3.562, 40.1377 ], [ -3.5626, 40.1377 ], [ -3.5626, 40.1378 ], [ -3.5617, 40.1378 ], [ -3.5616, 40.1379 ], [ -3.5612, 40.1378 ], [ -3.56, 40.1385 ], [ -3.5607, 40.1392 ] ] ] } },
{ "type": "Feature", "properties": { "municipio": "Titulcia", "clasificacion": "urbanizable-sectorizado", "calificacion": "sin-asignar", "version": "vigente", "fuente": "SIT-CAM WFS — UsoDelSuelo:VPLA_V_CLASIFICACION (https://idem.comunidad.madrid/geosrvg/ows)", "fecha_dato": "2026-05-12", "ambito": "41779", "_raw_CD_SIGLAS": "SUBS", "_raw_DS_CLASIF_GEN": "Suelo Apto Para Urbanizar", "_raw_DS_CLASIF_DET": "Suelo Apto para Urbanizar Protección Arqueológica Zona B", "_raw_DS_DOCU": "NORMAS SUBSIDIARIAS", "_raw_DS_LEY": "CM Ley 9/1995, E RDL 1/1992", "_raw_FC_AC": "2000-03-02", "_raw_NM_AREA_M2": 35300.732432928198, "_cam_code": "147" }, "geometry": { "type": "Polygon", "coordinates": [ [ [ -3.5676, 40.1371 ], [ -3.5659, 40.1373 ], [ -3.5659, 40.1374 ], [ -3.5661, 40.1379 ], [ -3.5665, 40.1384 ], [ -3.567, 40.14 ], [ -3.5683, 40.1386 ], [ -3.5676, 40.1373 ], [ -3.5676, 40.1371 ] ] ] } },
{ "type": "Feature", "properties": { "municipio": "Titulcia", "clasificacion": "urbanizable-sectorizado", "calificacion": "sin-asignar", "version": "vigente", "fuente": "SIT-CAM WFS — UsoDelSuelo:VPLA_V_CLASIFICACION (https://idem.comunidad.madrid/geosrvg/ows)", "fecha_dato": "2026-05-12", "ambito": "41779", "_raw_CD_SIGLAS": "SUBS", "_raw_DS_CLASIF_GEN": "Suelo Apto Para Urbanizar", "_raw_DS_CLASIF_DET": "Suelo Apto para Urbanizar", "_raw_DS_DOCU": "NORMAS SUBSIDIARIAS", "_raw_DS_LEY": "CM Ley 9/1995, E RDL 1/1992", "_raw_FC_AC": "2000-03-02", "_raw_NM_AREA_M2": 19424.6946124932, "_cam_code": "147" }, "geometry": { "type": "Polygon", "coordinates": [ [ [ -3.5684, 40.1391 ], [ -3.5677, 40.1397 ], [ -3.5674, 40.1403 ], [ -3.5673, 40.1403 ], [ -3.5676, 40.1414 ], [ -3.5679, 40.1414 ], [ -3.5678, 40.1414 ], [ -3.5677, 40.1412 ], [ -3.5677, 40.1411 ], [ -3.5681, 40.1409 ], [ -3.5681, 40.1408 ], [ -3.5692, 40.1405 ], [ -3.5684, 40.1391 ] ] ] } },
{ "type": "Feature", "properties": { "municipio": "Titulcia", "clasificacion": "urbano-no-consolidado", "calificacion": "sin-asignar", "version": "vigente", "fuente": "SIT-CAM WFS — UsoDelSuelo:VPLA_V_CLASIFICACION (https://idem.comunidad.madrid/geosrvg/ows)", "fecha_dato": "2026-05-12", "ambito": "41779", "_raw_CD_SIGLAS": "SUNC", "_raw_DS_CLASIF_GEN": "Suelo Urbano No Consolidado", "_raw_DS_CLASIF_DET": "Suelo Urbano", "_raw_DS_DOCU": "NORMAS SUBSIDIARIAS", "_raw_DS_LEY": "CM Ley 9/1995, E RDL 1/1992", "_raw_FC_AC": "2000-03-02", "_raw_NM_AREA_M2": 2573.0463264722298, "_cam_code": "147" }, "geometry": { "type": "Polygon", "coordinates": [ [ [ -3.5696, 40.1406 ], [ -3.5699, 40.1409 ], [ -3.5706, 40.1407 ], [ -3.5706, 40.1405 ], [ -3.5704, 40.1404 ], [ -3.5696, 40.1406 ] ] ] } },
{ "type": "Feature", "properties": { "municipio": "Titulcia", "clasificacion": "urbano-no-consolidado", "calificacion": "sin-asignar", "version": "vigente", "fuente": "SIT-CAM WFS — UsoDelSuelo:VPLA_V_CLASIFICACION (https://idem.comunidad.madrid/geosrvg/ows)", "fecha_dato": "2026-05-12", "ambito": "41779", "_raw_CD_SIGLAS": "SUNC", "_raw_DS_CLASIF_GEN": "Suelo Urbano No Consolidado", "_raw_DS_CLASIF_DET": "Suelo Urbano", "_raw_DS_DOCU": "NORMAS SUBSIDIARIAS", "_raw_DS_LEY": "CM Ley 9/1995, E RDL 1/1992", "_raw_FC_AC": "2000-03-02", "_raw_NM_AREA_M2": 10548.523541861299, "_cam_code": "147" }, "geometry": { "type": "Polygon", "coordinates": [ [ [ -3.5684, 40.139 ], [ -3.569, 40.1403 ], [ -3.5692, 40.1405 ], [ -3.5695, 40.1404 ], [ -3.569, 40.1384 ], [ -3.5684, 40.139 ] ] ] } },
{ "type": "Feature", "properties": { "municipio": "Titulcia", "clasificacion": "urbano-no-consolidado", "calificacion": "sin-asignar", "version": "vigente", "fuente": "SIT-CAM WFS — UsoDelSuelo:VPLA_V_CLASIFICACION (https://idem.comunidad.madrid/geosrvg/ows)", "fecha_dato": "2026-05-12", "ambito": "41779", "_raw_CD_SIGLAS": "SUNC", "_raw_DS_CLASIF_GEN": "Suelo Urbano No Consolidado", "_raw_DS_CLASIF_DET": "Suelo Urbano", "_raw_DS_DOCU": "NORMAS SUBSIDIARIAS", "_raw_DS_LEY": "CM Ley 9/1995, E RDL 1/1992", "_raw_FC_AC": "2000-03-02", "_raw_NM_AREA_M2": 23795.421538720198, "_cam_code": "147" }, "geometry": { "type": "Polygon", "coordinates": [ [ [ -3.5645, 40.1375 ], [ -3.565, 40.1391 ], [ -3.5666, 40.1387 ], [ -3.5661, 40.1379 ], [ -3.5659, 40.1373 ], [ -3.5645, 40.1375 ] ] ] } },
{ "type": "Feature", "properties": { "municipio": "Titulcia", "clasificacion": "urbano-no-consolidado", "calificacion": "sin-asignar", "version": "vigente", "fuente": "SIT-CAM WFS — UsoDelSuelo:VPLA_V_CLASIFICACION (https://idem.comunidad.madrid/geosrvg/ows)", "fecha_dato": "2026-05-12", "ambito": "41779", "_raw_CD_SIGLAS": "SUNC", "_raw_DS_CLASIF_GEN": "Suelo Urbano No Consolidado", "_raw_DS_CLASIF_DET": "Suelo Urbano", "_raw_DS_DOCU": "NORMAS SUBSIDIARIAS", "_raw_DS_LEY": "CM Ley 9/1995, E RDL 1/1992", "_raw_FC_AC": "2000-03-02", "_raw_NM_AREA_M2": 4588.3363172597201, "_cam_code": "147" }, "geometry": { "type": "Polygon", "coordinates": [ [ [ -3.5683, 40.1369 ], [ -3.5675, 40.1371 ], [ -3.5676, 40.1371 ], [ -3.5678, 40.1377 ], [ -3.5684, 40.1376 ], [ -3.5683, 40.1369 ] ] ] } },
{ "type": "Feature", "properties": { "municipio": "Titulcia", "clasificacion": "urbano-no-consolidado", "calificacion": "sin-asignar", "version": "vigente", "fuente": "SIT-CAM WFS — UsoDelSuelo:VPLA_V_CLASIFICACION (https://idem.comunidad.madrid/geosrvg/ows)", "fecha_dato": "2026-05-12", "ambito": "41779", "_raw_CD_SIGLAS": "SUNC", "_raw_DS_CLASIF_GEN": "Suelo Urbano No Consolidado", "_raw_DS_CLASIF_DET": "Suelo Urbano", "_raw_DS_DOCU": "NORMAS SUBSIDIARIAS", "_raw_DS_LEY": "CM Ley 9/1995, E RDL 1/1992", "_raw_FC_AC": "2000-03-02", "_raw_NM_AREA_M2": 33784.209492225302, "_cam_code": "147" }, "geometry": { "type": "Polygon", "coordinates": [ [ [ -3.5657, 40.1363 ], [ -3.5659, 40.1373 ], [ -3.5664, 40.1372 ], [ -3.5663, 40.1366 ], [ -3.5673, 40.1368 ], [ -3.5675, 40.1369 ], [ -3.5675, 40.1371 ], [ -3.5682, 40.137 ], [ -3.5683, 40.1369 ], [ -3.5682, 40.1362 ], [ -3.5687, 40.1361 ], [ -3.5688, 40.1358 ], [ -3.5688, 40.1359 ], [ -3.5691, 40.1359 ], [ -3.5691, 40.1361 ], [ -3.5694, 40.1361 ], [ -3.5694, 40.136 ], [ -3.5694, 40.1357 ], [ -3.5694, 40.1356 ], [ -3.5694, 40.1355 ], [ -3.5695, 40.1355 ], [ -3.5683, 40.1355 ], [ -3.5676, 40.1357 ], [ -3.5675, 40.1354 ], [ -3.5665, 40.1358 ], [ -3.5657, 40.1363 ] ] ] } },
{ "type": "Feature", "properties": { "municipio": "Titulcia", "clasificacion": "urbano-no-consolidado", "calificacion": "sin-asignar", "version": "vigente", "fuente": "SIT-CAM WFS — UsoDelSuelo:VPLA_V_CLASIFICACION (https://idem.comunidad.madrid/geosrvg/ows)", "fecha_dato": "2026-05-12", "ambito": "41779", "_raw_CD_SIGLAS": "SUNC", "_raw_DS_CLASIF_GEN": "Suelo Urbano No Consolidado", "_raw_DS_CLASIF_DET": "Suelo Urbano", "_raw_DS_DOCU": "NORMAS SUBSIDIARIAS", "_raw_DS_LEY": "CM Ley 9/1995, E RDL 1/1992", "_raw_FC_AC": "2000-03-02", "_raw_NM_AREA_M2": 3938.1104210263802, "_cam_code": "147" }, "geometry": { "type": "Polygon", "coordinates": [ [ [ -3.573, 40.136 ], [ -3.573, 40.1361 ], [ -3.5734, 40.1359 ], [ -3.5734, 40.1355 ], [ -3.5727, 40.1357 ], [ -3.5723, 40.1356 ], [ -3.5721, 40.1359 ], [ -3.573, 40.136 ] ] ] } },
{ "type": "Feature", "properties": { "municipio": "Titulcia", "clasificacion": "urbano-no-consolidado", "calificacion": "sin-asignar", "version": "vigente", "fuente": "SIT-CAM WFS — UsoDelSuelo:VPLA_V_CLASIFICACION (https://idem.comunidad.madrid/geosrvg/ows)", "fecha_dato": "2026-05-12", "ambito": "41779", "_raw_CD_SIGLAS": "SUNC", "_raw_DS_CLASIF_GEN": "Suelo Urbano No Consolidado", "_raw_DS_CLASIF_DET": "Suelo Urbano", "_raw_DS_DOCU": "NORMAS SUBSIDIARIAS", "_raw_DS_LEY": "CM Ley 9/1995, E RDL 1/1992", "_raw_FC_AC": "2000-03-02", "_raw_NM_AREA_M2": 3841.87218876216, "_cam_code": "147" }, "geometry": { "type": "Polygon", "coordinates": [ [ [ -3.5727, 40.135 ], [ -3.5729, 40.135 ], [ -3.573, 40.1353 ], [ -3.5726, 40.1356 ], [ -3.5723, 40.1356 ], [ -3.5727, 40.1357 ], [ -3.5734, 40.1355 ], [ -3.5733, 40.1352 ], [ -3.5729, 40.1349 ], [ -3.5725, 40.1348 ], [ -3.5724, 40.1349 ], [ -3.5724, 40.135 ], [ -3.5727, 40.135 ] ] ] } }
]
}
