{
"type": "FeatureCollection",
"name": "vigente.full",
"features": [
{ "type": "Feature", "properties": { "municipio": "Torremocha de Jarama", "clasificacion": "no-urbanizable-protegido", "calificacion": "sin-asignar", "version": "vigente", "fuente": "SIT-CAM WFS — UsoDelSuelo:VPLA_V_CLASIFICACION (https://idem.comunidad.madrid/geosrvg/ows)", "fecha_dato": "2026-05-12", "ambito": "33233", "_raw_CD_SIGLAS": "SNUP", "_raw_DS_CLASIF_GEN": "Suelo No Urbanizable Protegido", "_raw_DS_CLASIF_DET": "Suelo No Urbanizable Especialmente Protegido por su Interés Paisajístico", "_raw_DS_DOCU": "NORMAS SUBSIDIARIAS", "_raw_DS_LEY": "CM Ley 9/1995, E RD 1346/1976", "_raw_FC_AC": "1997-06-26", "_raw_NM_AREA_M2": 133222.475584709, "_cam_code": "153" }, "geometry": { "type": "MultiPolygon", "coordinates": [ [ [ [ -3.501, 40.8437 ], [ -3.5024, 40.8439 ], [ -3.5036, 40.8449 ], [ -3.5063, 40.8456 ], [ -3.5069, 40.8459 ], [ -3.5075, 40.8465 ], [ -3.5079, 40.8462 ], [ -3.5078, 40.846 ], [ -3.5073, 40.8456 ], [ -3.5071, 40.8456 ], [ -3.5071, 40.8455 ], [ -3.5051, 40.8451 ], [ -3.5037, 40.8445 ], [ -3.5032, 40.844 ], [ -3.5026, 40.8431 ], [ -3.5023, 40.8429 ], [ -3.5013, 40.8433 ], [ -3.5012, 40.8432 ], [ -3.5005, 40.8432 ], [ -3.5006, 40.8431 ], [ -3.4999, 40.8431 ], [ -3.4985, 40.8438 ], [ -3.4982, 40.8438 ], [ -3.498, 40.8432 ], [ -3.4978, 40.843 ], [ -3.4971, 40.843 ], [ -3.4953, 40.8433 ], [ -3.4951, 40.8431 ], [ -3.4943, 40.8429 ], [ -3.4937, 40.8426 ], [ -3.4935, 40.8423 ], [ -3.4931, 40.8424 ], [ -3.4923, 40.8423 ], [ -3.4919, 40.8425 ], [ -3.4916, 40.8425 ], [ -3.4916, 40.8423 ], [ -3.4915, 40.8423 ], [ -3.4916, 40.8425 ], [ -3.4914, 40.8425 ], [ -3.4899, 40.8418 ], [ -3.4884, 40.8417 ], [ -3.4884, 40.8416 ], [ -3.4878, 40.8415 ], [ -3.4872, 40.8409 ], [ -3.4869, 40.8408 ], [ -3.4868, 40.8406 ], [ -3.4862, 40.8409 ], [ -3.4862, 40.841 ], [ -3.4863, 40.8409 ], [ -3.4867, 40.8412 ], [ -3.4871, 40.8412 ], [ -3.4871, 40.8414 ], [ -3.4875, 40.8417 ], [ -3.4897, 40.8419 ], [ -3.4905, 40.8424 ], [ -3.4916, 40.8427 ], [ -3.4914, 40.8429 ], [ -3.4915, 40.843 ], [ -3.4916, 40.8427 ], [ -3.4919, 40.8427 ], [ -3.4925, 40.8424 ], [ -3.4934, 40.8426 ], [ -3.4938, 40.8428 ], [ -3.4937, 40.8428 ], [ -3.4937, 40.843 ], [ -3.4943, 40.8434 ], [ -3.4946, 40.8438 ], [ -3.4957, 40.8441 ], [ -3.4977, 40.8443 ], [ -3.501, 40.8437 ] ] ], [ [ [ -3.4855, 40.8406 ], [ -3.4856, 40.8409 ], [ -3.4861, 40.8409 ], [ -3.4861, 40.8408 ], [ -3.4866, 40.8406 ], [ -3.4861, 40.8406 ], [ -3.4851, 40.8402 ], [ -3.4849, 40.84 ], [ -3.4849, 40.8398 ], [ -3.4846, 40.8397 ], [ -3.4846, 40.8395 ], [ -3.4838, 40.8392 ], [ -3.4836, 40.8388 ], [ -3.483, 40.8384 ], [ -3.483, 40.8385 ], [ -3.483, 40.8384 ], [ -3.4822, 40.8381 ], [ -3.482, 40.8383 ], [ -3.483, 40.8394 ], [ -3.483, 40.8393 ], [ -3.4833, 40.8394 ], [ -3.4836, 40.8392 ], [ -3.484, 40.8397 ], [ -3.4851, 40.8405 ], [ -3.4855, 40.8406 ] ] ], [ [ [ -3.5065, 40.8451 ], [ -3.5078, 40.8453 ], [ -3.5085, 40.8457 ], [ -3.508, 40.8452 ], [ -3.505, 40.8446 ], [ -3.5042, 40.8442 ], [ -3.5028, 40.8431 ], [ -3.5034, 40.8439 ], [ -3.505, 40.8449 ], [ -3.5055, 40.845 ], [ -3.5063, 40.8449 ], [ -3.5065, 40.8451 ] ] ] ] } },
{ "type": "Feature", "properties": { "municipio": "Torremocha de Jarama", "clasificacion": "no-urbanizable-protegido", "calificacion": "sin-asignar", "version": "vigente", "fuente": "SIT-CAM WFS — UsoDelSuelo:VPLA_V_CLASIFICACION (https://idem.comunidad.madrid/geosrvg/ows)", "fecha_dato": "2026-05-12", "ambito": "33233", "_raw_CD_SIGLAS": "SNUP", "_raw_DS_CLASIF_GEN": "Suelo No Urbanizable Protegido", "_raw_DS_CLASIF_DET": "Suelo No Urbanizable Especialmente Protegido por su Interés Ecológico, Paisajístico y Cultural", "_raw_DS_DOCU": "NORMAS SUBSIDIARIAS", "_raw_DS_LEY": "CM Ley 9/1995, E RD 1346/1976", "_raw_FC_AC": "1997-06-26", "_raw_NM_AREA_M2": 571043.94464486605, "_cam_code": "153" }, "geometry": { "type": "Polygon", "coordinates": [ [ [ -3.5218, 40.8498 ], [ -3.5219, 40.8506 ], [ -3.5215, 40.8511 ], [ -3.5204, 40.8518 ], [ -3.5199, 40.8523 ], [ -3.5198, 40.8529 ], [ -3.5199, 40.8529 ], [ -3.5206, 40.854 ], [ -3.5215, 40.8547 ], [ -3.5216, 40.855 ], [ -3.5217, 40.855 ], [ -3.5219, 40.8558 ], [ -3.5224, 40.8561 ], [ -3.5251, 40.8564 ], [ -3.5266, 40.8567 ], [ -3.5279, 40.8581 ], [ -3.5293, 40.8592 ], [ -3.5297, 40.8588 ], [ -3.5301, 40.858 ], [ -3.532, 40.8574 ], [ -3.5286, 40.8525 ], [ -3.5244, 40.8488 ], [ -3.5223, 40.8495 ], [ -3.5219, 40.8494 ], [ -3.5218, 40.8498 ] ] ] } },
{ "type": "Feature", "properties": { "municipio": "Torremocha de Jarama", "clasificacion": "no-urbanizable-protegido", "calificacion": "sin-asignar", "version": "vigente", "fuente": "SIT-CAM WFS — UsoDelSuelo:VPLA_V_CLASIFICACION (https://idem.comunidad.madrid/geosrvg/ows)", "fecha_dato": "2026-05-12", "ambito": "33233", "_raw_CD_SIGLAS": "SNUP", "_raw_DS_CLASIF_GEN": "Suelo No Urbanizable Protegido", "_raw_DS_CLASIF_DET": "Suelo No Urbanizable Especialmente Protegido por su Interés Ecológico, Paisajístico y Cultural", "_raw_DS_DOCU": "NORMAS SUBSIDIARIAS", "_raw_DS_LEY": "CM Ley 9/1995, E RD 1346/1976", "_raw_FC_AC": "1997-06-26", "_raw_NM_AREA_M2": 1376564.8097800601, "_cam_code": "153" }, "geometry": { "type": "Polygon", "coordinates": [ [ [ -3.5291, 40.8593 ], [ -3.5277, 40.8582 ], [ -3.5265, 40.8569 ], [ -3.5261, 40.8568 ], [ -3.5261, 40.8567 ], [ -3.5232, 40.8564 ], [ -3.5217, 40.856 ], [ -3.5214, 40.8549 ], [ -3.5204, 40.8541 ], [ -3.5197, 40.853 ], [ -3.5196, 40.853 ], [ -3.5197, 40.8522 ], [ -3.5202, 40.8517 ], [ -3.5213, 40.851 ], [ -3.5216, 40.8505 ], [ -3.5215, 40.8498 ], [ -3.5217, 40.8494 ], [ -3.521, 40.8489 ], [ -3.5208, 40.8488 ], [ -3.5199, 40.8488 ], [ -3.519, 40.8485 ], [ -3.5187, 40.8482 ], [ -3.5177, 40.8481 ], [ -3.514, 40.8491 ], [ -3.512, 40.8492 ], [ -3.512, 40.8491 ], [ -3.5118, 40.8491 ], [ -3.5118, 40.849 ], [ -3.5116, 40.849 ], [ -3.5114, 40.8488 ], [ -3.511, 40.8481 ], [ -3.5106, 40.847 ], [ -3.5101, 40.8465 ], [ -3.5097, 40.8464 ], [ -3.5097, 40.8463 ], [ -3.5089, 40.8463 ], [ -3.5089, 40.8464 ], [ -3.5082, 40.8467 ], [ -3.5083, 40.8471 ], [ -3.5086, 40.8473 ], [ -3.5088, 40.8477 ], [ -3.5098, 40.8488 ], [ -3.51, 40.8492 ], [ -3.5098, 40.8498 ], [ -3.51, 40.85 ], [ -3.5113, 40.8507 ], [ -3.5121, 40.8517 ], [ -3.5123, 40.8517 ], [ -3.5123, 40.8518 ], [ -3.5138, 40.8517 ], [ -3.5146, 40.8524 ], [ -3.5154, 40.8541 ], [ -3.5147, 40.8548 ], [ -3.5156, 40.8557 ], [ -3.5156, 40.8564 ], [ -3.5162, 40.857 ], [ -3.5162, 40.8572 ], [ -3.5157, 40.858 ], [ -3.515, 40.8588 ], [ -3.515, 40.8591 ], [ -3.5157, 40.8601 ], [ -3.5158, 40.8606 ], [ -3.5176, 40.8624 ], [ -3.5178, 40.8625 ], [ -3.5183, 40.8624 ], [ -3.5187, 40.862 ], [ -3.5197, 40.8622 ], [ -3.5196, 40.8624 ], [ -3.519, 40.8627 ], [ -3.519, 40.863 ], [ -3.5197, 40.8632 ], [ -3.5199, 40.8634 ], [ -3.5199, 40.8636 ], [ -3.5192, 40.8638 ], [ -3.5191, 40.8641 ], [ -3.5201, 40.8647 ], [ -3.52, 40.8657 ], [ -3.5206, 40.8659 ], [ -3.521, 40.8663 ], [ -3.521, 40.8664 ], [ -3.521, 40.8664 ], [ -3.521, 40.8664 ], [ -3.521, 40.8665 ], [ -3.521, 40.8665 ], [ -3.521, 40.8666 ], [ -3.5209, 40.8667 ], [ -3.5209, 40.8666 ], [ -3.5216, 40.8663 ], [ -3.5224, 40.8657 ], [ -3.5225, 40.8652 ], [ -3.5235, 40.8642 ], [ -3.5249, 40.8633 ], [ -3.5266, 40.8616 ], [ -3.5278, 40.8613 ], [ -3.5279, 40.861 ], [ -3.5287, 40.8602 ], [ -3.5285, 40.8598 ], [ -3.5291, 40.8593 ] ] ] } },
{ "type": "Feature", "properties": { "municipio": "Torremocha de Jarama", "clasificacion": "no-urbanizable-protegido", "calificacion": "sin-asignar", "version": "vigente", "fuente": "SIT-CAM WFS — UsoDelSuelo:VPLA_V_CLASIFICACION (https://idem.comunidad.madrid/geosrvg/ows)", "fecha_dato": "2026-05-12", "ambito": "33233", "_raw_CD_SIGLAS": "SNUP", "_raw_DS_CLASIF_GEN": "Suelo No Urbanizable Protegido", "_raw_DS_CLASIF_DET": "Suelo No Urbanizable Especialmente Protegido por su Interés Ecológico, Paisajístico y Cultural", "_raw_DS_DOCU": "NORMAS SUBSIDIARIAS", "_raw_DS_LEY": "CM Ley 9/1995, E RD 1346/1976", "_raw_FC_AC": "1997-06-26", "_raw_NM_AREA_M2": 173236.79190598099, "_cam_code": "153" }, "geometry": { "type": "Polygon", "coordinates": [ [ [ -3.5208, 40.8667 ], [ -3.5206, 40.8669 ], [ -3.5208, 40.8674 ], [ -3.5243, 40.8706 ], [ -3.5251, 40.8721 ], [ -3.5244, 40.8741 ], [ -3.5247, 40.8761 ], [ -3.528, 40.8703 ], [ -3.5282, 40.8695 ], [ -3.5271, 40.8693 ], [ -3.5254, 40.8687 ], [ -3.5251, 40.8688 ], [ -3.5249, 40.8686 ], [ -3.5235, 40.8687 ], [ -3.523, 40.868 ], [ -3.5224, 40.8679 ], [ -3.5218, 40.8674 ], [ -3.5208, 40.8673 ], [ -3.5208, 40.8667 ] ] ] } },
{ "type": "Feature", "properties": { "municipio": "Torremocha de Jarama", "clasificacion": "no-urbanizable-protegido", "calificacion": "sin-asignar", "version": "vigente", "fuente": "SIT-CAM WFS — UsoDelSuelo:VPLA_V_CLASIFICACION (https://idem.comunidad.madrid/geosrvg/ows)", "fecha_dato": "2026-05-12", "ambito": "33233", "_raw_CD_SIGLAS": "SNUP", "_raw_DS_CLASIF_GEN": "Suelo No Urbanizable Protegido", "_raw_DS_CLASIF_DET": "Suelo No Urbanizable Especialmente Protegido por su Interés Agrícola", "_raw_DS_DOCU": "NORMAS SUBSIDIARIAS", "_raw_DS_LEY": "CM Ley 9/1995, E RD 1346/1976", "_raw_FC_AC": "1997-06-26", "_raw_NM_AREA_M2": 3346.9168580532701, "_cam_code": "153" }, "geometry": { "type": "Polygon", "coordinates": [ [ [ -3.5006, 40.8431 ], [ -3.5007, 40.8431 ], [ -3.5012, 40.8421 ], [ -3.5016, 40.8411 ], [ -3.5015, 40.8409 ], [ -3.5006, 40.8431 ] ] ] } },
{ "type": "Feature", "properties": { "municipio": "Torremocha de Jarama", "clasificacion": "no-urbanizable-protegido", "calificacion": "sin-asignar", "version": "vigente", "fuente": "SIT-CAM WFS — UsoDelSuelo:VPLA_V_CLASIFICACION (https://idem.comunidad.madrid/geosrvg/ows)", "fecha_dato": "2026-05-12", "ambito": "33233", "_raw_CD_SIGLAS": "SNUP", "_raw_DS_CLASIF_GEN": "Suelo No Urbanizable Protegido", "_raw_DS_CLASIF_DET": "Suelo No Urbanizable Especialmente Protegido por su Interés Agrícola", "_raw_DS_DOCU": "NORMAS SUBSIDIARIAS", "_raw_DS_LEY": "CM Ley 9/1995, E RD 1346/1976", "_raw_FC_AC": "1997-06-26", "_raw_NM_AREA_M2": 1167.3131039732, "_cam_code": "153" }, "geometry": { "type": "Polygon", "coordinates": [ [ [ -3.5016, 40.8414 ], [ -3.5024, 40.843 ], [ -3.5019, 40.8418 ], [ -3.5016, 40.8414 ] ] ] } },
{ "type": "Feature", "properties": { "municipio": "Torremocha de Jarama", "clasificacion": "no-urbanizable-protegido", "calificacion": "sin-asignar", "version": "vigente", "fuente": "SIT-CAM WFS — UsoDelSuelo:VPLA_V_CLASIFICACION (https://idem.comunidad.madrid/geosrvg/ows)", "fecha_dato": "2026-05-12", "ambito": "33233", "_raw_CD_SIGLAS": "SNUP", "_raw_DS_CLASIF_GEN": "Suelo No Urbanizable Protegido", "_raw_DS_CLASIF_DET": "Suelo No Urbanizable Especialmente Protegido por Afección de Vías Pecuarias", "_raw_DS_DOCU": "NORMAS SUBSIDIARIAS", "_raw_DS_LEY": "CM Ley 9/1995, E RD 1346/1976", "_raw_FC_AC": "1997-06-26", "_raw_NM_AREA_M2": 1324.67179702772, "_cam_code": "153" }, "geometry": { "type": "Polygon", "coordinates": [ [ [ -3.488, 40.8398 ], [ -3.488, 40.8399 ], [ -3.4886, 40.8395 ], [ -3.49, 40.8384 ], [ -3.4903, 40.8381 ], [ -3.49, 40.8384 ], [ -3.4897, 40.8386 ], [ -3.4888, 40.8393 ], [ -3.4883, 40.8397 ], [ -3.488, 40.8398 ] ] ] } },
{ "type": "Feature", "properties": { "municipio": "Torremocha de Jarama", "clasificacion": "no-urbanizable-protegido", "calificacion": "sin-asignar", "version": "vigente", "fuente": "SIT-CAM WFS — UsoDelSuelo:VPLA_V_CLASIFICACION (https://idem.comunidad.madrid/geosrvg/ows)", "fecha_dato": "2026-05-12", "ambito": "33233", "_raw_CD_SIGLAS": "SNUP", "_raw_DS_CLASIF_GEN": "Suelo No Urbanizable Protegido", "_raw_DS_CLASIF_DET": "Suelo No Urbanizable Especialmente Protegido por su Interés Ecológico, Paisajístico y Cultural", "_raw_DS_DOCU": "NORMAS SUBSIDIARIAS", "_raw_DS_LEY": "CM Ley 9/1995, E RD 1346/1976", "_raw_FC_AC": "1997-06-26", "_raw_NM_AREA_M2": 62324.842681525501, "_cam_code": "153" }, "geometry": { "type": "Polygon", "coordinates": [ [ [ -3.502, 40.8403 ], [ -3.5019, 40.8404 ], [ -3.5014, 40.8404 ], [ -3.5014, 40.8405 ], [ -3.5026, 40.8427 ], [ -3.505, 40.8415 ], [ -3.5072, 40.8406 ], [ -3.5064, 40.8407 ], [ -3.5039, 40.8403 ], [ -3.502, 40.8403 ] ] ] } },
{ "type": "Feature", "properties": { "municipio": "Torremocha de Jarama", "clasificacion": "no-urbanizable-protegido", "calificacion": "sin-asignar", "version": "vigente", "fuente": "SIT-CAM WFS — UsoDelSuelo:VPLA_V_CLASIFICACION (https://idem.comunidad.madrid/geosrvg/ows)", "fecha_dato": "2026-05-12", "ambito": "33233", "_raw_CD_SIGLAS": "SNUP", "_raw_DS_CLASIF_GEN": "Suelo No Urbanizable Protegido", "_raw_DS_CLASIF_DET": "Suelo No Urbanizable Especialmente Protegido por su Interés Agrícola", "_raw_DS_DOCU": "NORMAS SUBSIDIARIAS", "_raw_DS_LEY": "CM Ley 9/1995, E RD 1346/1976", "_raw_FC_AC": "1997-06-26", "_raw_NM_AREA_M2": 2200128.3164743101, "_cam_code": "153" }, "geometry": { "type": "Polygon", "coordinates": [ [ [ -3.4741, 40.8542 ], [ -3.4749, 40.8546 ], [ -3.476, 40.8549 ], [ -3.4779, 40.8551 ], [ -3.4774, 40.8549 ], [ -3.4774, 40.8543 ], [ -3.4776, 40.8544 ], [ -3.4786, 40.8533 ], [ -3.4792, 40.8529 ], [ -3.4794, 40.8531 ], [ -3.4797, 40.8529 ], [ -3.4802, 40.8522 ], [ -3.4813, 40.853 ], [ -3.484, 40.8516 ], [ -3.4866, 40.851 ], [ -3.4869, 40.8508 ], [ -3.4927, 40.8515 ], [ -3.4952, 40.8516 ], [ -3.4955, 40.8515 ], [ -3.4964, 40.8508 ], [ -3.4971, 40.8504 ], [ -3.4973, 40.8504 ], [ -3.5019, 40.8469 ], [ -3.5041, 40.8457 ], [ -3.5047, 40.8452 ], [ -3.5036, 40.8449 ], [ -3.5024, 40.8439 ], [ -3.501, 40.8437 ], [ -3.4977, 40.8443 ], [ -3.4966, 40.8442 ], [ -3.4946, 40.8438 ], [ -3.4943, 40.8434 ], [ -3.4937, 40.843 ], [ -3.4933, 40.8443 ], [ -3.4924, 40.844 ], [ -3.4914, 40.8433 ], [ -3.4915, 40.843 ], [ -3.4914, 40.843 ], [ -3.4913, 40.8433 ], [ -3.4884, 40.8423 ], [ -3.4864, 40.8419 ], [ -3.4866, 40.8412 ], [ -3.4867, 40.8412 ], [ -3.4863, 40.8409 ], [ -3.4849, 40.8413 ], [ -3.4791, 40.8414 ], [ -3.478, 40.8416 ], [ -3.4776, 40.8421 ], [ -3.4775, 40.8425 ], [ -3.4772, 40.8428 ], [ -3.4772, 40.843 ], [ -3.4764, 40.8444 ], [ -3.4761, 40.8446 ], [ -3.4753, 40.8446 ], [ -3.4736, 40.8451 ], [ -3.4741, 40.8463 ], [ -3.4741, 40.8468 ], [ -3.4745, 40.8481 ], [ -3.4756, 40.8494 ], [ -3.4761, 40.8498 ], [ -3.4763, 40.8498 ], [ -3.4767, 40.8502 ], [ -3.4767, 40.8519 ], [ -3.4764, 40.8527 ], [ -3.4758, 40.853 ], [ -3.4753, 40.8535 ], [ -3.4745, 40.8538 ], [ -3.4741, 40.8542 ] ] ] } },
{ "type": "Feature", "properties": { "municipio": "Torremocha de Jarama", "clasificacion": "no-urbanizable-protegido", "calificacion": "sin-asignar", "version": "vigente", "fuente": "SIT-CAM WFS — UsoDelSuelo:VPLA_V_CLASIFICACION (https://idem.comunidad.madrid/geosrvg/ows)", "fecha_dato": "2026-05-12", "ambito": "33233", "_raw_CD_SIGLAS": "SNUP", "_raw_DS_CLASIF_GEN": "Suelo No Urbanizable Protegido", "_raw_DS_CLASIF_DET": "Suelo No Urbanizable Especialmente Protegido por su Interés Ecológico, Paisajístico y Cultural", "_raw_DS_DOCU": "NORMAS SUBSIDIARIAS", "_raw_DS_LEY": "CM Ley 9/1995, E RD 1346/1976", "_raw_FC_AC": "1997-06-26", "_raw_NM_AREA_M2": 1583331.4901298201, "_cam_code": "153" }, "geometry": { "type": "Polygon", "coordinates": [ [ [ -3.4826, 40.8148 ], [ -3.4821, 40.8155 ], [ -3.4821, 40.8169 ], [ -3.4828, 40.8181 ], [ -3.4827, 40.8189 ], [ -3.4821, 40.8195 ], [ -3.4813, 40.8198 ], [ -3.4787, 40.8217 ], [ -3.4779, 40.8226 ], [ -3.4769, 40.8247 ], [ -3.4773, 40.8253 ], [ -3.4778, 40.8268 ], [ -3.4778, 40.8276 ], [ -3.4776, 40.8283 ], [ -3.4773, 40.829 ], [ -3.4769, 40.8295 ], [ -3.4771, 40.8306 ], [ -3.477, 40.8312 ], [ -3.4773, 40.8317 ], [ -3.4774, 40.8321 ], [ -3.4773, 40.8324 ], [ -3.4784, 40.8329 ], [ -3.4788, 40.8325 ], [ -3.4788, 40.8323 ], [ -3.4787, 40.8323 ], [ -3.4789, 40.8319 ], [ -3.4788, 40.8319 ], [ -3.4788, 40.8306 ], [ -3.4789, 40.8305 ], [ -3.4788, 40.83 ], [ -3.4797, 40.8284 ], [ -3.4797, 40.8278 ], [ -3.4801, 40.8264 ], [ -3.4801, 40.8256 ], [ -3.4807, 40.8253 ], [ -3.48, 40.8246 ], [ -3.4799, 40.8243 ], [ -3.4802, 40.8242 ], [ -3.4809, 40.8236 ], [ -3.4812, 40.8226 ], [ -3.4836, 40.8212 ], [ -3.4851, 40.8207 ], [ -3.486, 40.8202 ], [ -3.4862, 40.8202 ], [ -3.4862, 40.8201 ], [ -3.4864, 40.8201 ], [ -3.4865, 40.8197 ], [ -3.4867, 40.8195 ], [ -3.4866, 40.8192 ], [ -3.4867, 40.8187 ], [ -3.4865, 40.8185 ], [ -3.4865, 40.8182 ], [ -3.4866, 40.8182 ], [ -3.4867, 40.8179 ], [ -3.4867, 40.8174 ], [ -3.4879, 40.8163 ], [ -3.4885, 40.815 ], [ -3.4887, 40.8148 ], [ -3.49, 40.8151 ], [ -3.4915, 40.814 ], [ -3.4923, 40.8138 ], [ -3.4926, 40.8134 ], [ -3.4946, 40.8129 ], [ -3.4941, 40.8122 ], [ -3.4942, 40.8118 ], [ -3.4951, 40.8111 ], [ -3.496, 40.8107 ], [ -3.4973, 40.8104 ], [ -3.4976, 40.8098 ], [ -3.4985, 40.809 ], [ -3.4979, 40.8085 ], [ -3.4972, 40.8075 ], [ -3.4969, 40.8073 ], [ -3.4965, 40.8067 ], [ -3.4958, 40.806 ], [ -3.4956, 40.8056 ], [ -3.4951, 40.8052 ], [ -3.4944, 40.8049 ], [ -3.4941, 40.8046 ], [ -3.4942, 40.8041 ], [ -3.4947, 40.8036 ], [ -3.495, 40.803 ], [ -3.4955, 40.8027 ], [ -3.4959, 40.8017 ], [ -3.4966, 40.801 ], [ -3.497, 40.8008 ], [ -3.4986, 40.8006 ], [ -3.4998, 40.8001 ], [ -3.5009, 40.7999 ], [ -3.5019, 40.7994 ], [ -3.5022, 40.7994 ], [ -3.5027, 40.7991 ], [ -3.5033, 40.799 ], [ -3.5037, 40.7988 ], [ -3.5038, 40.7986 ], [ -3.5044, 40.7984 ], [ -3.5048, 40.798 ], [ -3.5041, 40.7977 ], [ -3.5025, 40.7977 ], [ -3.5014, 40.7988 ], [ -3.5005, 40.7991 ], [ -3.4993, 40.7991 ], [ -3.4972, 40.7983 ], [ -3.4953, 40.797 ], [ -3.4953, 40.7969 ], [ -3.4946, 40.7967 ], [ -3.4934, 40.7973 ], [ -3.4919, 40.7984 ], [ -3.4915, 40.799 ], [ -3.4911, 40.8006 ], [ -3.4907, 40.8014 ], [ -3.4907, 40.8016 ], [ -3.4909, 40.8018 ], [ -3.4921, 40.8021 ], [ -3.4923, 40.8025 ], [ -3.4917, 40.8043 ], [ -3.4919, 40.8063 ], [ -3.4919, 40.8069 ], [ -3.4917, 40.8075 ], [ -3.4913, 40.8077 ], [ -3.491, 40.8086 ], [ -3.4902, 40.8095 ], [ -3.4879, 40.8108 ], [ -3.4867, 40.8118 ], [ -3.4863, 40.8124 ], [ -3.486, 40.8125 ], [ -3.4858, 40.8133 ], [ -3.4852, 40.814 ], [ -3.4844, 40.8145 ], [ -3.4826, 40.8148 ] ] ] } },
{ "type": "Feature", "properties": { "municipio": "Torremocha de Jarama", "clasificacion": "no-urbanizable-protegido", "calificacion": "sin-asignar", "version": "vigente", "fuente": "SIT-CAM WFS — UsoDelSuelo:VPLA_V_CLASIFICACION (https://idem.comunidad.madrid/geosrvg/ows)", "fecha_dato": "2026-05-12", "ambito": "33233", "_raw_CD_SIGLAS": "SNUP", "_raw_DS_CLASIF_GEN": "Suelo No Urbanizable Protegido", "_raw_DS_CLASIF_DET": "Suelo No Urbanizable Especialmente Protegido por su Interés Ecológico, Paisajístico y Cultural", "_raw_DS_DOCU": "NORMAS SUBSIDIARIAS", "_raw_DS_LEY": "CM Ley 9/1995, E RD 1346/1976", "_raw_FC_AC": "1997-06-26", "_raw_NM_AREA_M2": 781712.31676805404, "_cam_code": "153" }, "geometry": { "type": "Polygon", "coordinates": [ [ [ -3.5188, 40.848 ], [ -3.5197, 40.8486 ], [ -3.5208, 40.8487 ], [ -3.522, 40.8493 ], [ -3.5223, 40.8493 ], [ -3.5243, 40.8486 ], [ -3.524, 40.8484 ], [ -3.5212, 40.8446 ], [ -3.5159, 40.8418 ], [ -3.5139, 40.8405 ], [ -3.5068, 40.8441 ], [ -3.5068, 40.8442 ], [ -3.5061, 40.8444 ], [ -3.5056, 40.8447 ], [ -3.508, 40.8452 ], [ -3.509, 40.8461 ], [ -3.51, 40.8462 ], [ -3.5108, 40.8469 ], [ -3.5116, 40.8487 ], [ -3.512, 40.849 ], [ -3.5124, 40.849 ], [ -3.5124, 40.8491 ], [ -3.5139, 40.849 ], [ -3.5179, 40.8479 ], [ -3.5188, 40.848 ] ] ] } },
{ "type": "Feature", "properties": { "municipio": "Torremocha de Jarama", "clasificacion": "no-urbanizable-protegido", "calificacion": "sin-asignar", "version": "vigente", "fuente": "SIT-CAM WFS — UsoDelSuelo:VPLA_V_CLASIFICACION (https://idem.comunidad.madrid/geosrvg/ows)", "fecha_dato": "2026-05-12", "ambito": "33233", "_raw_CD_SIGLAS": "SNUP", "_raw_DS_CLASIF_GEN": "Suelo No Urbanizable Protegido", "_raw_DS_CLASIF_DET": "Suelo No Urbanizable Especialmente Protegido por su Interés Ecológico, Paisajístico y Cultural", "_raw_DS_DOCU": "NORMAS SUBSIDIARIAS", "_raw_DS_LEY": "CM Ley 9/1995, E RD 1346/1976", "_raw_FC_AC": "1997-06-26", "_raw_NM_AREA_M2": 219377.081477145, "_cam_code": "153" }, "geometry": { "type": "Polygon", "coordinates": [ [ [ -3.4973, 40.8504 ], [ -3.4952, 40.8516 ], [ -3.4987, 40.8518 ], [ -3.4994, 40.8511 ], [ -3.5017, 40.8495 ], [ -3.5027, 40.8492 ], [ -3.5034, 40.8485 ], [ -3.5044, 40.8482 ], [ -3.5046, 40.848 ], [ -3.5057, 40.8476 ], [ -3.5067, 40.8467 ], [ -3.5075, 40.8465 ], [ -3.5069, 40.8459 ], [ -3.5063, 40.8456 ], [ -3.5047, 40.8452 ], [ -3.5041, 40.8457 ], [ -3.5019, 40.8469 ], [ -3.4973, 40.8504 ] ] ] } },
{ "type": "Feature", "properties": { "municipio": "Torremocha de Jarama", "clasificacion": "no-urbanizable-protegido", "calificacion": "sin-asignar", "version": "vigente", "fuente": "SIT-CAM WFS — UsoDelSuelo:VPLA_V_CLASIFICACION (https://idem.comunidad.madrid/geosrvg/ows)", "fecha_dato": "2026-05-12", "ambito": "33233", "_raw_CD_SIGLAS": "SNUP", "_raw_DS_CLASIF_GEN": "Suelo No Urbanizable Protegido", "_raw_DS_CLASIF_DET": "Suelo No Urbanizable Especialmente Protegido por su Interés Ecológico, Paisajístico y Cultural", "_raw_DS_DOCU": "NORMAS SUBSIDIARIAS", "_raw_DS_LEY": "CM Ley 9/1995, E RD 1346/1976", "_raw_FC_AC": "1997-06-26", "_raw_NM_AREA_M2": 175779.178178245, "_cam_code": "153" }, "geometry": { "type": "Polygon", "coordinates": [ [ [ -3.4702, 40.8521 ], [ -3.4726, 40.8533 ], [ -3.4728, 40.8536 ], [ -3.4733, 40.8539 ], [ -3.474, 40.8542 ], [ -3.4743, 40.8538 ], [ -3.4751, 40.8535 ], [ -3.4763, 40.8526 ], [ -3.4766, 40.8517 ], [ -3.4766, 40.8507 ], [ -3.4765, 40.8501 ], [ -3.476, 40.8499 ], [ -3.4753, 40.8493 ], [ -3.4744, 40.8481 ], [ -3.474, 40.8471 ], [ -3.4739, 40.846 ], [ -3.4727, 40.8433 ], [ -3.472, 40.8426 ], [ -3.4715, 40.8426 ], [ -3.4708, 40.842 ], [ -3.4702, 40.8423 ], [ -3.4697, 40.8432 ], [ -3.4698, 40.8438 ], [ -3.4701, 40.8445 ], [ -3.4717, 40.8446 ], [ -3.4722, 40.8448 ], [ -3.4725, 40.8453 ], [ -3.4726, 40.8462 ], [ -3.473, 40.8472 ], [ -3.476, 40.8501 ], [ -3.4764, 40.8508 ], [ -3.4764, 40.8512 ], [ -3.4762, 40.8516 ], [ -3.4759, 40.8519 ], [ -3.4753, 40.8522 ], [ -3.471, 40.8516 ], [ -3.4706, 40.8516 ], [ -3.4702, 40.8521 ] ] ] } },
{ "type": "Feature", "properties": { "municipio": "Torremocha de Jarama", "clasificacion": "no-urbanizable-protegido", "calificacion": "sin-asignar", "version": "vigente", "fuente": "SIT-CAM WFS — UsoDelSuelo:VPLA_V_CLASIFICACION (https://idem.comunidad.madrid/geosrvg/ows)", "fecha_dato": "2026-05-12", "ambito": "33233", "_raw_CD_SIGLAS": "SNUP", "_raw_DS_CLASIF_GEN": "Suelo No Urbanizable Protegido", "_raw_DS_CLASIF_DET": "Suelo No Urbanizable Especialmente Protegido por Afección de Cauces, Riberas y Embalses", "_raw_DS_DOCU": "NORMAS SUBSIDIARIAS", "_raw_DS_LEY": "CM Ley 9/1995, E RD 1346/1976", "_raw_FC_AC": "1997-06-26", "_raw_NM_AREA_M2": 19535.260469717301, "_cam_code": "153" }, "geometry": { "type": "Polygon", "coordinates": [ [ [ -3.4972, 40.7983 ], [ -3.4993, 40.7991 ], [ -3.5005, 40.7991 ], [ -3.5014, 40.7988 ], [ -3.5025, 40.7977 ], [ -3.5022, 40.7976 ], [ -3.5012, 40.7986 ], [ -3.5003, 40.7989 ], [ -3.4995, 40.7989 ], [ -3.4974, 40.7981 ], [ -3.4961, 40.7973 ], [ -3.4954, 40.7967 ], [ -3.4951, 40.7966 ], [ -3.4946, 40.7967 ], [ -3.4953, 40.7969 ], [ -3.4953, 40.797 ], [ -3.4972, 40.7983 ] ] ] } },
{ "type": "Feature", "properties": { "municipio": "Torremocha de Jarama", "clasificacion": "no-urbanizable-protegido", "calificacion": "sin-asignar", "version": "vigente", "fuente": "SIT-CAM WFS — UsoDelSuelo:VPLA_V_CLASIFICACION (https://idem.comunidad.madrid/geosrvg/ows)", "fecha_dato": "2026-05-12", "ambito": "33233", "_raw_CD_SIGLAS": "SNUP", "_raw_DS_CLASIF_GEN": "Suelo No Urbanizable Protegido", "_raw_DS_CLASIF_DET": "Suelo No Urbanizable Especialmente Protegido por Afección de Cauces, Riberas y Embalses", "_raw_DS_DOCU": "NORMAS SUBSIDIARIAS", "_raw_DS_LEY": "CM Ley 9/1995, E RD 1346/1976", "_raw_FC_AC": "1997-06-26", "_raw_NM_AREA_M2": 11476.145988300101, "_cam_code": "153" }, "geometry": { "type": "Polygon", "coordinates": [ [ [ -3.4917, 40.8043 ], [ -3.4915, 40.8046 ], [ -3.4913, 40.8077 ], [ -3.4917, 40.8075 ], [ -3.4919, 40.8069 ], [ -3.4917, 40.8043 ] ] ] } },
{ "type": "Feature", "properties": { "municipio": "Torremocha de Jarama", "clasificacion": "no-urbanizable-protegido", "calificacion": "sin-asignar", "version": "vigente", "fuente": "SIT-CAM WFS — UsoDelSuelo:VPLA_V_CLASIFICACION (https://idem.comunidad.madrid/geosrvg/ows)", "fecha_dato": "2026-05-12", "ambito": "33233", "_raw_CD_SIGLAS": "SNUP", "_raw_DS_CLASIF_GEN": "Suelo No Urbanizable Protegido", "_raw_DS_CLASIF_DET": "Suelo No Urbanizable Especialmente Protegido por Afección de Cauces, Riberas y Embalses", "_raw_DS_DOCU": "NORMAS SUBSIDIARIAS", "_raw_DS_LEY": "CM Ley 9/1995, E RD 1346/1976", "_raw_FC_AC": "1997-06-26", "_raw_NM_AREA_M2": 24074.6759103609, "_cam_code": "153" }, "geometry": { "type": "Polygon", "coordinates": [ [ [ -3.486, 40.8126 ], [ -3.4831, 40.8142 ], [ -3.4824, 40.815 ], [ -3.4826, 40.8148 ], [ -3.4844, 40.8145 ], [ -3.4852, 40.814 ], [ -3.4858, 40.8133 ], [ -3.486, 40.8128 ], [ -3.486, 40.8126 ] ] ] } },
{ "type": "Feature", "properties": { "municipio": "Torremocha de Jarama", "clasificacion": "no-urbanizable-protegido", "calificacion": "sin-asignar", "version": "vigente", "fuente": "SIT-CAM WFS — UsoDelSuelo:VPLA_V_CLASIFICACION (https://idem.comunidad.madrid/geosrvg/ows)", "fecha_dato": "2026-05-12", "ambito": "33233", "_raw_CD_SIGLAS": "SNUP", "_raw_DS_CLASIF_GEN": "Suelo No Urbanizable Protegido", "_raw_DS_CLASIF_DET": "Suelo No Urbanizable Especialmente Protegido por Afección de Cauces, Riberas y Embalses", "_raw_DS_DOCU": "NORMAS SUBSIDIARIAS", "_raw_DS_LEY": "CM Ley 9/1995, E RD 1346/1976", "_raw_FC_AC": "1997-06-26", "_raw_NM_AREA_M2": 36848.462429135398, "_cam_code": "153" }, "geometry": { "type": "Polygon", "coordinates": [ [ [ -3.4769, 40.8247 ], [ -3.4768, 40.8255 ], [ -3.4772, 40.8263 ], [ -3.4769, 40.8267 ], [ -3.4767, 40.8275 ], [ -3.4766, 40.8305 ], [ -3.477, 40.8312 ], [ -3.4771, 40.8306 ], [ -3.4769, 40.8295 ], [ -3.4773, 40.829 ], [ -3.4776, 40.8283 ], [ -3.4778, 40.8276 ], [ -3.4778, 40.8268 ], [ -3.4773, 40.8253 ], [ -3.4769, 40.8247 ] ] ] } },
{ "type": "Feature", "properties": { "municipio": "Torremocha de Jarama", "clasificacion": "no-urbanizable-protegido", "calificacion": "sin-asignar", "version": "vigente", "fuente": "SIT-CAM WFS — UsoDelSuelo:VPLA_V_CLASIFICACION (https://idem.comunidad.madrid/geosrvg/ows)", "fecha_dato": "2026-05-12", "ambito": "33233", "_raw_CD_SIGLAS": "SNUP", "_raw_DS_CLASIF_GEN": "Suelo No Urbanizable Protegido", "_raw_DS_CLASIF_DET": "Suelo No Urbanizable Especialmente Protegido por Afección de Cauces, Riberas y Embalses", "_raw_DS_DOCU": "NORMAS SUBSIDIARIAS", "_raw_DS_LEY": "CM Ley 9/1995, E RD 1346/1976", "_raw_FC_AC": "1997-06-26", "_raw_NM_AREA_M2": 9092.9916862181308, "_cam_code": "153" }, "geometry": { "type": "Polygon", "coordinates": [ [ [ -3.4793, 40.8374 ], [ -3.4787, 40.8386 ], [ -3.4784, 40.8388 ], [ -3.4793, 40.8386 ], [ -3.4799, 40.8383 ], [ -3.48, 40.838 ], [ -3.4799, 40.8377 ], [ -3.4793, 40.8374 ] ] ] } },
{ "type": "Feature", "properties": { "municipio": "Torremocha de Jarama", "clasificacion": "no-urbanizable-protegido", "calificacion": "sin-asignar", "version": "vigente", "fuente": "SIT-CAM WFS — UsoDelSuelo:VPLA_V_CLASIFICACION (https://idem.comunidad.madrid/geosrvg/ows)", "fecha_dato": "2026-05-12", "ambito": "33233", "_raw_CD_SIGLAS": "SNUP", "_raw_DS_CLASIF_GEN": "Suelo No Urbanizable Protegido", "_raw_DS_CLASIF_DET": "Suelo No Urbanizable Especialmente Protegido por Afección de Cauces, Riberas y Embalses", "_raw_DS_DOCU": "NORMAS SUBSIDIARIAS", "_raw_DS_LEY": "CM Ley 9/1995, E RD 1346/1976", "_raw_FC_AC": "1997-06-26", "_raw_NM_AREA_M2": 13036.3048556309, "_cam_code": "153" }, "geometry": { "type": "Polygon", "coordinates": [ [ [ -3.4759, 40.8397 ], [ -3.4745, 40.8402 ], [ -3.4715, 40.8413 ], [ -3.4709, 40.8416 ], [ -3.4707, 40.8416 ], [ -3.4702, 40.8423 ], [ -3.4756, 40.8399 ], [ -3.4759, 40.8397 ] ] ] } },
{ "type": "Feature", "properties": { "municipio": "Torremocha de Jarama", "clasificacion": "no-urbanizable-protegido", "calificacion": "sin-asignar", "version": "vigente", "fuente": "SIT-CAM WFS — UsoDelSuelo:VPLA_V_CLASIFICACION (https://idem.comunidad.madrid/geosrvg/ows)", "fecha_dato": "2026-05-12", "ambito": "33233", "_raw_CD_SIGLAS": "SNUP", "_raw_DS_CLASIF_GEN": "Suelo No Urbanizable Protegido", "_raw_DS_CLASIF_DET": "Suelo No Urbanizable Especialmente Protegido por su Interés Ecológico, Paisajístico y Cultural", "_raw_DS_DOCU": "NORMAS SUBSIDIARIAS", "_raw_DS_LEY": "CM Ley 9/1995, E RD 1346/1976", "_raw_FC_AC": "1997-06-26", "_raw_NM_AREA_M2": 219510.32730517801, "_cam_code": "153" }, "geometry": { "type": "Polygon", "coordinates": [ [ [ -3.471, 40.8419 ], [ -3.4716, 40.8425 ], [ -3.472, 40.8425 ], [ -3.4737, 40.8418 ], [ -3.4737, 40.8417 ], [ -3.474, 40.8417 ], [ -3.474, 40.8416 ], [ -3.475, 40.8415 ], [ -3.4752, 40.8416 ], [ -3.4762, 40.8416 ], [ -3.4762, 40.8417 ], [ -3.477, 40.8416 ], [ -3.4786, 40.8404 ], [ -3.4803, 40.8388 ], [ -3.4812, 40.8383 ], [ -3.4822, 40.8382 ], [ -3.4821, 40.8379 ], [ -3.4812, 40.8372 ], [ -3.4808, 40.8365 ], [ -3.4804, 40.8363 ], [ -3.4803, 40.8354 ], [ -3.4808, 40.8344 ], [ -3.4807, 40.834 ], [ -3.4799, 40.834 ], [ -3.4794, 40.8338 ], [ -3.4791, 40.8335 ], [ -3.4772, 40.8327 ], [ -3.4773, 40.8339 ], [ -3.4783, 40.8354 ], [ -3.4787, 40.8357 ], [ -3.4794, 40.8366 ], [ -3.4793, 40.8374 ], [ -3.4799, 40.8377 ], [ -3.48, 40.838 ], [ -3.4799, 40.8383 ], [ -3.4793, 40.8386 ], [ -3.4784, 40.8388 ], [ -3.4781, 40.839 ], [ -3.4759, 40.8397 ], [ -3.471, 40.8419 ] ] ] } },
{ "type": "Feature", "properties": { "municipio": "Torremocha de Jarama", "clasificacion": "no-urbanizable-protegido", "calificacion": "sin-asignar", "version": "vigente", "fuente": "SIT-CAM WFS — UsoDelSuelo:VPLA_V_CLASIFICACION (https://idem.comunidad.madrid/geosrvg/ows)", "fecha_dato": "2026-05-12", "ambito": "33233", "_raw_CD_SIGLAS": "SNUP", "_raw_DS_CLASIF_GEN": "Suelo No Urbanizable Protegido", "_raw_DS_CLASIF_DET": "Suelo No Urbanizable Especialmente Protegido por Afección de Vías Pecuarias", "_raw_DS_DOCU": "NORMAS SUBSIDIARIAS", "_raw_DS_LEY": "CM Ley 9/1995, E RD 1346/1976", "_raw_FC_AC": "1997-06-26", "_raw_NM_AREA_M2": 35093.125486594698, "_cam_code": "153" }, "geometry": { "type": "Polygon", "coordinates": [ [ [ -3.5312, 40.8576 ], [ -3.5303, 40.8579 ], [ -3.5318, 40.8588 ], [ -3.5324, 40.8594 ], [ -3.5329, 40.8602 ], [ -3.5336, 40.8604 ], [ -3.5352, 40.8618 ], [ -3.5354, 40.8619 ], [ -3.5356, 40.8619 ], [ -3.536, 40.862 ], [ -3.5345, 40.8608 ], [ -3.5338, 40.8598 ], [ -3.5335, 40.8597 ], [ -3.5331, 40.859 ], [ -3.5325, 40.8584 ], [ -3.5312, 40.8576 ] ] ] } },
{ "type": "Feature", "properties": { "municipio": "Torremocha de Jarama", "clasificacion": "no-urbanizable-protegido", "calificacion": "sin-asignar", "version": "vigente", "fuente": "SIT-CAM WFS — UsoDelSuelo:VPLA_V_CLASIFICACION (https://idem.comunidad.madrid/geosrvg/ows)", "fecha_dato": "2026-05-12", "ambito": "33233", "_raw_CD_SIGLAS": "SNUP", "_raw_DS_CLASIF_GEN": "Suelo No Urbanizable Protegido", "_raw_DS_CLASIF_DET": "Suelo No Urbanizable Especialmente Protegido por su Interés Paisajístico", "_raw_DS_DOCU": "NORMAS SUBSIDIARIAS", "_raw_DS_LEY": "CM Ley 9/1995, E RD 1346/1976", "_raw_FC_AC": "1997-06-26", "_raw_NM_AREA_M2": 905749.93277514505, "_cam_code": "153" }, "geometry": { "type": "Polygon", "coordinates": [ [ [ -3.5052, 40.8117 ], [ -3.5045, 40.8121 ], [ -3.5043, 40.8126 ], [ -3.5044, 40.8132 ], [ -3.5043, 40.8135 ], [ -3.5041, 40.8138 ], [ -3.5033, 40.8144 ], [ -3.5033, 40.8149 ], [ -3.5028, 40.8161 ], [ -3.5025, 40.8177 ], [ -3.5037, 40.8169 ], [ -3.5048, 40.8166 ], [ -3.5086, 40.8148 ], [ -3.5104, 40.8133 ], [ -3.5109, 40.8132 ], [ -3.5109, 40.8131 ], [ -3.5113, 40.8131 ], [ -3.5115, 40.8129 ], [ -3.5116, 40.812 ], [ -3.5117, 40.812 ], [ -3.5127, 40.8092 ], [ -3.5128, 40.8085 ], [ -3.5127, 40.8062 ], [ -3.513, 40.8054 ], [ -3.5132, 40.8053 ], [ -3.5137, 40.8045 ], [ -3.5142, 40.804 ], [ -3.5143, 40.8037 ], [ -3.5129, 40.8028 ], [ -3.512, 40.8009 ], [ -3.5084, 40.7996 ], [ -3.5081, 40.8003 ], [ -3.5079, 40.802 ], [ -3.5074, 40.8029 ], [ -3.5062, 40.8064 ], [ -3.5056, 40.8075 ], [ -3.5057, 40.8082 ], [ -3.5063, 40.8093 ], [ -3.5064, 40.8114 ], [ -3.5063, 40.8117 ], [ -3.5052, 40.8117 ] ] ] } },
{ "type": "Feature", "properties": { "municipio": "Torremocha de Jarama", "clasificacion": "no-urbanizable-protegido", "calificacion": "sin-asignar", "version": "vigente", "fuente": "SIT-CAM WFS — UsoDelSuelo:VPLA_V_CLASIFICACION (https://idem.comunidad.madrid/geosrvg/ows)", "fecha_dato": "2026-05-12", "ambito": "33233", "_raw_CD_SIGLAS": "SNUP", "_raw_DS_CLASIF_GEN": "Suelo No Urbanizable Protegido", "_raw_DS_CLASIF_DET": "Suelo No Urbanizable Especialmente Protegido por Afección de Caminos Tradicionales", "_raw_DS_DOCU": "NORMAS SUBSIDIARIAS", "_raw_DS_LEY": "CM Ley 9/1995, E RD 1346/1976", "_raw_FC_AC": "1997-06-26", "_raw_NM_AREA_M2": 96368.094319728698, "_cam_code": "153" }, "geometry": { "type": "Polygon", "coordinates": [ [ [ -3.4887, 40.8361 ], [ -3.4889, 40.8362 ], [ -3.4895, 40.8354 ], [ -3.4918, 40.8341 ], [ -3.4924, 40.8327 ], [ -3.4925, 40.8327 ], [ -3.4925, 40.8324 ], [ -3.4926, 40.8324 ], [ -3.4926, 40.8315 ], [ -3.4927, 40.8315 ], [ -3.493, 40.8309 ], [ -3.4934, 40.8306 ], [ -3.4937, 40.83 ], [ -3.494, 40.8298 ], [ -3.4942, 40.8294 ], [ -3.4942, 40.8289 ], [ -3.494, 40.8286 ], [ -3.494, 40.8279 ], [ -3.4942, 40.8274 ], [ -3.4942, 40.8269 ], [ -3.4943, 40.8269 ], [ -3.4944, 40.8265 ], [ -3.4949, 40.8258 ], [ -3.4959, 40.826 ], [ -3.4966, 40.826 ], [ -3.4968, 40.8258 ], [ -3.497, 40.8258 ], [ -3.4972, 40.8255 ], [ -3.4968, 40.8244 ], [ -3.4968, 40.8241 ], [ -3.4967, 40.8241 ], [ -3.4967, 40.8238 ], [ -3.4971, 40.8235 ], [ -3.4976, 40.824 ], [ -3.4983, 40.8236 ], [ -3.4984, 40.8235 ], [ -3.4984, 40.8224 ], [ -3.4999, 40.8216 ], [ -3.5002, 40.8213 ], [ -3.5023, 40.8185 ], [ -3.5026, 40.8176 ], [ -3.5025, 40.8177 ], [ -3.5028, 40.8161 ], [ -3.503, 40.8158 ], [ -3.5033, 40.8146 ], [ -3.5016, 40.8137 ], [ -3.5011, 40.8129 ], [ -3.5011, 40.8126 ], [ -3.5017, 40.812 ], [ -3.5019, 40.8115 ], [ -3.502, 40.8115 ], [ -3.5021, 40.8106 ], [ -3.5024, 40.8096 ], [ -3.503, 40.8088 ], [ -3.5053, 40.8047 ], [ -3.5061, 40.8039 ], [ -3.5071, 40.8014 ], [ -3.5078, 40.8001 ], [ -3.508, 40.7994 ], [ -3.5078, 40.7994 ], [ -3.5075, 40.8 ], [ -3.5059, 40.8038 ], [ -3.5051, 40.8046 ], [ -3.5029, 40.8085 ], [ -3.5024, 40.8091 ], [ -3.5019, 40.8104 ], [ -3.5019, 40.811 ], [ -3.5017, 40.8116 ], [ -3.5009, 40.8125 ], [ -3.5009, 40.8129 ], [ -3.5012, 40.8136 ], [ -3.5021, 40.8143 ], [ -3.5031, 40.8147 ], [ -3.5027, 40.8158 ], [ -3.5021, 40.8184 ], [ -3.5001, 40.8211 ], [ -3.4995, 40.8216 ], [ -3.4982, 40.8223 ], [ -3.4981, 40.8228 ], [ -3.4982, 40.8234 ], [ -3.498, 40.8236 ], [ -3.4977, 40.8237 ], [ -3.4969, 40.8232 ], [ -3.4964, 40.8238 ], [ -3.4969, 40.8252 ], [ -3.4968, 40.8257 ], [ -3.4965, 40.8258 ], [ -3.4951, 40.8257 ], [ -3.495, 40.8256 ], [ -3.4947, 40.8257 ], [ -3.494, 40.8268 ], [ -3.494, 40.8273 ], [ -3.4939, 40.8273 ], [ -3.4937, 40.8282 ], [ -3.494, 40.8293 ], [ -3.4932, 40.8305 ], [ -3.4926, 40.8311 ], [ -3.4925, 40.8315 ], [ -3.4924, 40.8315 ], [ -3.4923, 40.8327 ], [ -3.4922, 40.8327 ], [ -3.4916, 40.834 ], [ -3.4893, 40.8353 ], [ -3.4887, 40.8361 ] ] ] } },
{ "type": "Feature", "properties": { "municipio": "Torremocha de Jarama", "clasificacion": "no-urbanizable-protegido", "calificacion": "sin-asignar", "version": "vigente", "fuente": "SIT-CAM WFS — UsoDelSuelo:VPLA_V_CLASIFICACION (https://idem.comunidad.madrid/geosrvg/ows)", "fecha_dato": "2026-05-12", "ambito": "33233", "_raw_CD_SIGLAS": "SNUP", "_raw_DS_CLASIF_GEN": "Suelo No Urbanizable Protegido", "_raw_DS_CLASIF_DET": "Suelo No Urbanizable Especialmente Protegido por su Interés Agrícola", "_raw_DS_DOCU": "NORMAS SUBSIDIARIAS", "_raw_DS_LEY": "CM Ley 9/1995, E RD 1346/1976", "_raw_FC_AC": "1997-06-26", "_raw_NM_AREA_M2": 3372954.3640208901, "_cam_code": "153" }, "geometry": { "type": "Polygon", "coordinates": [ [ [ -3.5026, 40.8427 ], [ -3.5028, 40.8431 ], [ -3.5042, 40.8442 ], [ -3.505, 40.8446 ], [ -3.5056, 40.8447 ], [ -3.5061, 40.8444 ], [ -3.5068, 40.8442 ], [ -3.5068, 40.8441 ], [ -3.5139, 40.8405 ], [ -3.5121, 40.8388 ], [ -3.5126, 40.8384 ], [ -3.5114, 40.8371 ], [ -3.513, 40.8362 ], [ -3.5119, 40.8346 ], [ -3.5139, 40.8336 ], [ -3.5131, 40.8305 ], [ -3.5128, 40.8301 ], [ -3.5116, 40.8251 ], [ -3.5117, 40.8227 ], [ -3.5104, 40.8219 ], [ -3.5082, 40.8199 ], [ -3.5057, 40.8186 ], [ -3.5058, 40.8161 ], [ -3.5048, 40.8166 ], [ -3.5043, 40.8167 ], [ -3.5043, 40.8168 ], [ -3.5037, 40.8169 ], [ -3.5026, 40.8176 ], [ -3.5023, 40.8185 ], [ -3.5005, 40.8208 ], [ -3.5005, 40.821 ], [ -3.4999, 40.8216 ], [ -3.4984, 40.8224 ], [ -3.4984, 40.8235 ], [ -3.4976, 40.824 ], [ -3.4971, 40.8235 ], [ -3.4967, 40.8238 ], [ -3.4967, 40.8241 ], [ -3.4968, 40.8241 ], [ -3.4968, 40.8244 ], [ -3.4972, 40.8255 ], [ -3.497, 40.8258 ], [ -3.4968, 40.8258 ], [ -3.4966, 40.826 ], [ -3.4959, 40.826 ], [ -3.4949, 40.8258 ], [ -3.4944, 40.8265 ], [ -3.4943, 40.8269 ], [ -3.4942, 40.8269 ], [ -3.4942, 40.8274 ], [ -3.494, 40.8279 ], [ -3.494, 40.8286 ], [ -3.4942, 40.8289 ], [ -3.4942, 40.8294 ], [ -3.494, 40.8298 ], [ -3.4937, 40.83 ], [ -3.4934, 40.8306 ], [ -3.493, 40.8309 ], [ -3.4927, 40.8315 ], [ -3.4926, 40.8315 ], [ -3.4926, 40.8324 ], [ -3.4925, 40.8324 ], [ -3.4925, 40.8327 ], [ -3.4924, 40.8327 ], [ -3.4918, 40.8341 ], [ -3.4895, 40.8354 ], [ -3.4889, 40.8362 ], [ -3.4889, 40.8363 ], [ -3.4895, 40.8365 ], [ -3.4906, 40.836 ], [ -3.4908, 40.8362 ], [ -3.4921, 40.8366 ], [ -3.4928, 40.8364 ], [ -3.4934, 40.8359 ], [ -3.4938, 40.8359 ], [ -3.4941, 40.8357 ], [ -3.4941, 40.8353 ], [ -3.4944, 40.8346 ], [ -3.4951, 40.8343 ], [ -3.4949, 40.834 ], [ -3.4955, 40.8341 ], [ -3.4955, 40.834 ], [ -3.4957, 40.834 ], [ -3.496, 40.8343 ], [ -3.4967, 40.8345 ], [ -3.4979, 40.8344 ], [ -3.4981, 40.8347 ], [ -3.4989, 40.8345 ], [ -3.4998, 40.8346 ], [ -3.4998, 40.8352 ], [ -3.4989, 40.8351 ], [ -3.499, 40.8352 ], [ -3.4979, 40.8358 ], [ -3.4977, 40.836 ], [ -3.4978, 40.8365 ], [ -3.5015, 40.8396 ], [ -3.5021, 40.8399 ], [ -3.5022, 40.8401 ], [ -3.502, 40.8403 ], [ -3.5039, 40.8403 ], [ -3.5064, 40.8407 ], [ -3.5072, 40.8406 ], [ -3.505, 40.8415 ], [ -3.5026, 40.8427 ] ] ] } },
{ "type": "Feature", "properties": { "municipio": "Torremocha de Jarama", "clasificacion": "no-urbanizable-protegido", "calificacion": "sin-asignar", "version": "vigente", "fuente": "SIT-CAM WFS — UsoDelSuelo:VPLA_V_CLASIFICACION (https://idem.comunidad.madrid/geosrvg/ows)", "fecha_dato": "2026-05-12", "ambito": "33233", "_raw_CD_SIGLAS": "SNUP", "_raw_DS_CLASIF_GEN": "Suelo No Urbanizable Protegido", "_raw_DS_CLASIF_DET": "Suelo No Urbanizable Especialmente Protegido por su Interés Agrícola", "_raw_DS_DOCU": "NORMAS SUBSIDIARIAS", "_raw_DS_LEY": "CM Ley 9/1995, E RD 1346/1976", "_raw_FC_AC": "1997-06-26", "_raw_NM_AREA_M2": 45120.921247969098, "_cam_code": "153" }, "geometry": { "type": "Polygon", "coordinates": [ [ [ -3.4888, 40.8363 ], [ -3.487, 40.8389 ], [ -3.488, 40.8395 ], [ -3.4899, 40.8379 ], [ -3.4894, 40.8375 ], [ -3.4902, 40.8368 ], [ -3.4888, 40.8363 ] ] ] } },
{ "type": "Feature", "properties": { "municipio": "Torremocha de Jarama", "clasificacion": "no-urbanizable-protegido", "calificacion": "sin-asignar", "version": "vigente", "fuente": "SIT-CAM WFS — UsoDelSuelo:VPLA_V_CLASIFICACION (https://idem.comunidad.madrid/geosrvg/ows)", "fecha_dato": "2026-05-12", "ambito": "33233", "_raw_CD_SIGLAS": "SNUP", "_raw_DS_CLASIF_GEN": "Suelo No Urbanizable Protegido", "_raw_DS_CLASIF_DET": "Suelo No Urbanizable Especialmente Protegido por su Interés Agrícola", "_raw_DS_DOCU": "NORMAS SUBSIDIARIAS", "_raw_DS_LEY": "CM Ley 9/1995, E RD 1346/1976", "_raw_FC_AC": "1997-06-26", "_raw_NM_AREA_M2": 172880.38918380899, "_cam_code": "153" }, "geometry": { "type": "Polygon", "coordinates": [ [ [ -3.4833, 40.8386 ], [ -3.484, 40.8393 ], [ -3.4866, 40.8356 ], [ -3.4818, 40.8341 ], [ -3.4817, 40.8342 ], [ -3.4807, 40.834 ], [ -3.4808, 40.8344 ], [ -3.4803, 40.8354 ], [ -3.4804, 40.8363 ], [ -3.4808, 40.8365 ], [ -3.4812, 40.8372 ], [ -3.4821, 40.8379 ], [ -3.4823, 40.8382 ], [ -3.4826, 40.8382 ], [ -3.4833, 40.8386 ] ] ] } },
{ "type": "Feature", "properties": { "municipio": "Torremocha de Jarama", "clasificacion": "no-urbanizable-protegido", "calificacion": "sin-asignar", "version": "vigente", "fuente": "SIT-CAM WFS — UsoDelSuelo:VPLA_V_CLASIFICACION (https://idem.comunidad.madrid/geosrvg/ows)", "fecha_dato": "2026-05-12", "ambito": "33233", "_raw_CD_SIGLAS": "SNUP", "_raw_DS_CLASIF_GEN": "Suelo No Urbanizable Protegido", "_raw_DS_CLASIF_DET": "Suelo No Urbanizable Especialmente Protegido por su Interés Agrícola", "_raw_DS_DOCU": "NORMAS SUBSIDIARIAS", "_raw_DS_LEY": "CM Ley 9/1995, E RD 1346/1976", "_raw_FC_AC": "1997-06-26", "_raw_NM_AREA_M2": 249964.36581426, "_cam_code": "153" }, "geometry": { "type": "Polygon", "coordinates": [ [ [ -3.4728, 40.8433 ], [ -3.4735, 40.845 ], [ -3.4754, 40.8445 ], [ -3.4761, 40.8445 ], [ -3.477, 40.8432 ], [ -3.477, 40.843 ], [ -3.4774, 40.8425 ], [ -3.4774, 40.8423 ], [ -3.4781, 40.8415 ], [ -3.4784, 40.8414 ], [ -3.4817, 40.8412 ], [ -3.485, 40.8412 ], [ -3.4859, 40.8409 ], [ -3.4856, 40.8409 ], [ -3.4855, 40.8406 ], [ -3.4853, 40.8406 ], [ -3.4845, 40.8401 ], [ -3.4836, 40.8392 ], [ -3.4833, 40.8394 ], [ -3.483, 40.8393 ], [ -3.483, 40.8394 ], [ -3.482, 40.8383 ], [ -3.4812, 40.8383 ], [ -3.4803, 40.8388 ], [ -3.4786, 40.8404 ], [ -3.477, 40.8416 ], [ -3.4764, 40.8416 ], [ -3.4764, 40.8417 ], [ -3.475, 40.8415 ], [ -3.474, 40.8416 ], [ -3.474, 40.8417 ], [ -3.4737, 40.8417 ], [ -3.4737, 40.8418 ], [ -3.472, 40.8425 ], [ -3.4728, 40.8433 ] ] ] } },
{ "type": "Feature", "properties": { "municipio": "Torremocha de Jarama", "clasificacion": "no-urbanizable-protegido", "calificacion": "sin-asignar", "version": "vigente", "fuente": "SIT-CAM WFS — UsoDelSuelo:VPLA_V_CLASIFICACION (https://idem.comunidad.madrid/geosrvg/ows)", "fecha_dato": "2026-05-12", "ambito": "33233", "_raw_CD_SIGLAS": "SNUP", "_raw_DS_CLASIF_GEN": "Suelo No Urbanizable Protegido", "_raw_DS_CLASIF_DET": "Suelo No Urbanizable Especialmente Protegido por su Interés Agrícola", "_raw_DS_DOCU": "NORMAS SUBSIDIARIAS", "_raw_DS_LEY": "CM Ley 9/1995, E RD 1346/1976", "_raw_FC_AC": "1997-06-26", "_raw_NM_AREA_M2": 3978576.1312719798, "_cam_code": "153" }, "geometry": { "type": "Polygon", "coordinates": [ [ [ -3.4808, 40.8338 ], [ -3.4836, 40.8345 ], [ -3.4839, 40.8346 ], [ -3.4839, 40.8347 ], [ -3.4887, 40.8361 ], [ -3.4893, 40.8353 ], [ -3.4916, 40.834 ], [ -3.4922, 40.8327 ], [ -3.4923, 40.8327 ], [ -3.4924, 40.8315 ], [ -3.4925, 40.8315 ], [ -3.4926, 40.8311 ], [ -3.4932, 40.8305 ], [ -3.494, 40.8293 ], [ -3.4937, 40.8282 ], [ -3.4939, 40.8273 ], [ -3.494, 40.8273 ], [ -3.494, 40.8268 ], [ -3.4947, 40.8257 ], [ -3.495, 40.8256 ], [ -3.4951, 40.8257 ], [ -3.4965, 40.8258 ], [ -3.4969, 40.8256 ], [ -3.4969, 40.8252 ], [ -3.4964, 40.8238 ], [ -3.4969, 40.8232 ], [ -3.4977, 40.8237 ], [ -3.498, 40.8236 ], [ -3.4982, 40.8234 ], [ -3.4981, 40.8228 ], [ -3.4982, 40.8223 ], [ -3.4995, 40.8216 ], [ -3.5001, 40.8211 ], [ -3.5022, 40.8182 ], [ -3.5027, 40.8158 ], [ -3.5031, 40.8147 ], [ -3.5021, 40.8143 ], [ -3.5012, 40.8136 ], [ -3.5009, 40.8129 ], [ -3.5009, 40.8125 ], [ -3.5017, 40.8116 ], [ -3.5019, 40.811 ], [ -3.5019, 40.8104 ], [ -3.5024, 40.8091 ], [ -3.5029, 40.8085 ], [ -3.5051, 40.8046 ], [ -3.5059, 40.8038 ], [ -3.5078, 40.7994 ], [ -3.5048, 40.798 ], [ -3.5044, 40.7984 ], [ -3.5038, 40.7986 ], [ -3.5037, 40.7988 ], [ -3.5033, 40.799 ], [ -3.5027, 40.7991 ], [ -3.5022, 40.7994 ], [ -3.5019, 40.7994 ], [ -3.5009, 40.7999 ], [ -3.4998, 40.8001 ], [ -3.4986, 40.8006 ], [ -3.497, 40.8008 ], [ -3.4966, 40.801 ], [ -3.4959, 40.8017 ], [ -3.4955, 40.8027 ], [ -3.495, 40.803 ], [ -3.4947, 40.8036 ], [ -3.4942, 40.8041 ], [ -3.4941, 40.8046 ], [ -3.4944, 40.8049 ], [ -3.4951, 40.8052 ], [ -3.4956, 40.8056 ], [ -3.4958, 40.806 ], [ -3.4965, 40.8067 ], [ -3.4969, 40.8073 ], [ -3.4972, 40.8075 ], [ -3.4979, 40.8085 ], [ -3.4985, 40.809 ], [ -3.4976, 40.8098 ], [ -3.4973, 40.8104 ], [ -3.496, 40.8107 ], [ -3.4951, 40.8111 ], [ -3.4942, 40.8118 ], [ -3.4941, 40.8122 ], [ -3.4946, 40.8129 ], [ -3.4926, 40.8134 ], [ -3.4923, 40.8138 ], [ -3.4915, 40.814 ], [ -3.49, 40.8151 ], [ -3.4887, 40.8148 ], [ -3.4885, 40.815 ], [ -3.4879, 40.8163 ], [ -3.4867, 40.8174 ], [ -3.4867, 40.8179 ], [ -3.4866, 40.8182 ], [ -3.4865, 40.8182 ], [ -3.4865, 40.8185 ], [ -3.4867, 40.8187 ], [ -3.4866, 40.8192 ], [ -3.4867, 40.8195 ], [ -3.4865, 40.8197 ], [ -3.4864, 40.8201 ], [ -3.4862, 40.8201 ], [ -3.4862, 40.8202 ], [ -3.486, 40.8202 ], [ -3.4851, 40.8207 ], [ -3.4836, 40.8212 ], [ -3.4814, 40.8224 ], [ -3.4812, 40.8226 ], [ -3.4809, 40.8236 ], [ -3.4802, 40.8242 ], [ -3.4799, 40.8243 ], [ -3.48, 40.8246 ], [ -3.4807, 40.8253 ], [ -3.4801, 40.8256 ], [ -3.4801, 40.8264 ], [ -3.4797, 40.8278 ], [ -3.4797, 40.8284 ], [ -3.4788, 40.83 ], [ -3.4789, 40.8301 ], [ -3.4788, 40.8319 ], [ -3.4789, 40.8319 ], [ -3.4788, 40.8322 ], [ -3.4787, 40.8322 ], [ -3.4788, 40.8325 ], [ -3.4784, 40.8329 ], [ -3.4801, 40.8338 ], [ -3.4808, 40.8338 ] ] ] } },
{ "type": "Feature", "properties": { "municipio": "Torremocha de Jarama", "clasificacion": "no-urbanizable-protegido", "calificacion": "sin-asignar", "version": "vigente", "fuente": "SIT-CAM WFS — UsoDelSuelo:VPLA_V_CLASIFICACION (https://idem.comunidad.madrid/geosrvg/ows)", "fecha_dato": "2026-05-12", "ambito": "33233", "_raw_CD_SIGLAS": "SNUP", "_raw_DS_CLASIF_GEN": "Suelo No Urbanizable Protegido", "_raw_DS_CLASIF_DET": "Suelo No Urbanizable Especialmente Protegido por su Interés Agrícola", "_raw_DS_DOCU": "NORMAS SUBSIDIARIAS", "_raw_DS_LEY": "CM Ley 9/1995, E RD 1346/1976", "_raw_FC_AC": "1997-06-26", "_raw_NM_AREA_M2": 293353.32820633001, "_cam_code": "153" }, "geometry": { "type": "Polygon", "coordinates": [ [ [ -3.502, 40.8115 ], [ -3.5017, 40.812 ], [ -3.5012, 40.8124 ], [ -3.5011, 40.8129 ], [ -3.5016, 40.8137 ], [ -3.5022, 40.8141 ], [ -3.5032, 40.8145 ], [ -3.5032, 40.8146 ], [ -3.5043, 40.8135 ], [ -3.5044, 40.8132 ], [ -3.5043, 40.8126 ], [ -3.5047, 40.8119 ], [ -3.5052, 40.8117 ], [ -3.5063, 40.8117 ], [ -3.5064, 40.8114 ], [ -3.5063, 40.8093 ], [ -3.5057, 40.8082 ], [ -3.5056, 40.8075 ], [ -3.5062, 40.8064 ], [ -3.5074, 40.8029 ], [ -3.5079, 40.802 ], [ -3.5081, 40.8003 ], [ -3.5084, 40.7996 ], [ -3.508, 40.7995 ], [ -3.5067, 40.8023 ], [ -3.5061, 40.8039 ], [ -3.5053, 40.8047 ], [ -3.503, 40.8088 ], [ -3.5024, 40.8096 ], [ -3.5021, 40.8106 ], [ -3.502, 40.8115 ] ] ] } },
{ "type": "Feature", "properties": { "municipio": "Torremocha de Jarama", "clasificacion": "no-urbanizable-protegido", "calificacion": "sin-asignar", "version": "vigente", "fuente": "SIT-CAM WFS — UsoDelSuelo:VPLA_V_CLASIFICACION (https://idem.comunidad.madrid/geosrvg/ows)", "fecha_dato": "2026-05-12", "ambito": "33233", "_raw_CD_SIGLAS": "SNUP", "_raw_DS_CLASIF_GEN": "Suelo No Urbanizable Protegido", "_raw_DS_CLASIF_DET": "Suelo No Urbanizable Especialmente Protegido por Afección de Cauces, Riberas y Embalses", "_raw_DS_DOCU": "NORMAS SUBSIDIARIAS", "_raw_DS_LEY": "CM Ley 9/1995, E RD 1346/1976", "_raw_FC_AC": "1997-06-26", "_raw_NM_AREA_M2": 26013.6132876142, "_cam_code": "153" }, "geometry": { "type": "Polygon", "coordinates": [ [ [ -3.4702, 40.8447 ], [ -3.4724, 40.8466 ], [ -3.473, 40.8472 ], [ -3.4726, 40.8462 ], [ -3.4725, 40.8453 ], [ -3.4722, 40.8448 ], [ -3.4717, 40.8446 ], [ -3.4708, 40.8445 ], [ -3.4701, 40.8445 ], [ -3.4702, 40.8447 ] ] ] } },
{ "type": "Feature", "properties": { "municipio": "Torremocha de Jarama", "clasificacion": "no-urbanizable-protegido", "calificacion": "sin-asignar", "version": "vigente", "fuente": "SIT-CAM WFS — UsoDelSuelo:VPLA_V_CLASIFICACION (https://idem.comunidad.madrid/geosrvg/ows)", "fecha_dato": "2026-05-12", "ambito": "33233", "_raw_CD_SIGLAS": "SNUP", "_raw_DS_CLASIF_GEN": "Suelo No Urbanizable Protegido", "_raw_DS_CLASIF_DET": "Suelo No Urbanizable Especialmente Protegido por Afección de Vías Pecuarias", "_raw_DS_DOCU": "NORMAS SUBSIDIARIAS", "_raw_DS_LEY": "CM Ley 9/1995, E RD 1346/1976", "_raw_FC_AC": "1997-06-26", "_raw_NM_AREA_M2": 94721.804289489606, "_cam_code": "153" }, "geometry": { "type": "Polygon", "coordinates": [ [ [ -3.5215, 40.8498 ], [ -3.5216, 40.8505 ], [ -3.5213, 40.851 ], [ -3.5202, 40.8517 ], [ -3.5197, 40.8522 ], [ -3.5196, 40.853 ], [ -3.5197, 40.853 ], [ -3.5204, 40.8541 ], [ -3.5214, 40.8549 ], [ -3.5217, 40.856 ], [ -3.5232, 40.8564 ], [ -3.5261, 40.8567 ], [ -3.5261, 40.8568 ], [ -3.5265, 40.8569 ], [ -3.5284, 40.8588 ], [ -3.5292, 40.8593 ], [ -3.5293, 40.8592 ], [ -3.5279, 40.8581 ], [ -3.5266, 40.8567 ], [ -3.5251, 40.8564 ], [ -3.5224, 40.8561 ], [ -3.5219, 40.8558 ], [ -3.5217, 40.855 ], [ -3.5216, 40.855 ], [ -3.5215, 40.8547 ], [ -3.5206, 40.854 ], [ -3.5199, 40.8529 ], [ -3.5198, 40.8529 ], [ -3.5199, 40.8523 ], [ -3.5204, 40.8518 ], [ -3.5215, 40.8511 ], [ -3.5219, 40.8506 ], [ -3.5218, 40.8501 ], [ -3.5219, 40.8494 ], [ -3.5223, 40.8495 ], [ -3.524, 40.849 ], [ -3.5244, 40.8488 ], [ -3.5243, 40.8486 ], [ -3.5223, 40.8493 ], [ -3.522, 40.8493 ], [ -3.5208, 40.8487 ], [ -3.5197, 40.8486 ], [ -3.5188, 40.848 ], [ -3.5179, 40.8479 ], [ -3.5139, 40.849 ], [ -3.5128, 40.849 ], [ -3.5128, 40.8491 ], [ -3.512, 40.849 ], [ -3.5114, 40.8484 ], [ -3.5108, 40.8469 ], [ -3.51, 40.8462 ], [ -3.509, 40.8461 ], [ -3.5078, 40.8453 ], [ -3.5065, 40.8451 ], [ -3.5063, 40.8449 ], [ -3.5061, 40.845 ], [ -3.505, 40.8449 ], [ -3.5034, 40.8439 ], [ -3.5028, 40.8431 ], [ -3.502, 40.8417 ], [ -3.5017, 40.8409 ], [ -3.5015, 40.8406 ], [ -3.5014, 40.8405 ], [ -3.5014, 40.8404 ], [ -3.5019, 40.8404 ], [ -3.5022, 40.84 ], [ -3.5019, 40.8398 ], [ -3.5018, 40.8403 ], [ -3.5014, 40.8403 ], [ -3.5014, 40.8404 ], [ -3.5014, 40.8404 ], [ -3.5014, 40.8406 ], [ -3.5016, 40.8414 ], [ -3.5019, 40.8418 ], [ -3.5024, 40.843 ], [ -3.5026, 40.8431 ], [ -3.5032, 40.844 ], [ -3.5037, 40.8445 ], [ -3.5051, 40.8451 ], [ -3.5071, 40.8455 ], [ -3.5071, 40.8456 ], [ -3.5073, 40.8456 ], [ -3.5078, 40.846 ], [ -3.5082, 40.8467 ], [ -3.5089, 40.8464 ], [ -3.5089, 40.8463 ], [ -3.5097, 40.8463 ], [ -3.5097, 40.8464 ], [ -3.5101, 40.8465 ], [ -3.5106, 40.847 ], [ -3.511, 40.8481 ], [ -3.5114, 40.8488 ], [ -3.5116, 40.849 ], [ -3.5118, 40.849 ], [ -3.5118, 40.8491 ], [ -3.512, 40.8491 ], [ -3.512, 40.8492 ], [ -3.514, 40.8491 ], [ -3.5177, 40.8481 ], [ -3.5183, 40.8481 ], [ -3.5187, 40.8482 ], [ -3.519, 40.8485 ], [ -3.5199, 40.8488 ], [ -3.5208, 40.8488 ], [ -3.521, 40.8489 ], [ -3.5217, 40.8494 ], [ -3.5215, 40.8498 ] ] ] } },
{ "type": "Feature", "properties": { "municipio": "Torremocha de Jarama", "clasificacion": "no-urbanizable-protegido", "calificacion": "sin-asignar", "version": "vigente", "fuente": "SIT-CAM WFS — UsoDelSuelo:VPLA_V_CLASIFICACION (https://idem.comunidad.madrid/geosrvg/ows)", "fecha_dato": "2026-05-12", "ambito": "33233", "_raw_CD_SIGLAS": "SNUP", "_raw_DS_CLASIF_GEN": "Suelo No Urbanizable Protegido", "_raw_DS_CLASIF_DET": "Suelo No Urbanizable Especialmente Protegido por Afección de Vías Pecuarias", "_raw_DS_DOCU": "NORMAS SUBSIDIARIAS", "_raw_DS_LEY": "CM Ley 9/1995, E RD 1346/1976", "_raw_FC_AC": "1997-06-26", "_raw_NM_AREA_M2": 31199.513785713199, "_cam_code": "153" }, "geometry": { "type": "Polygon", "coordinates": [ [ [ -3.4762, 40.8527 ], [ -3.4751, 40.8535 ], [ -3.4743, 40.8538 ], [ -3.474, 40.8542 ], [ -3.4745, 40.8538 ], [ -3.4753, 40.8535 ], [ -3.4758, 40.853 ], [ -3.4764, 40.8527 ], [ -3.4767, 40.8519 ], [ -3.4767, 40.8502 ], [ -3.4763, 40.8498 ], [ -3.4761, 40.8498 ], [ -3.4756, 40.8494 ], [ -3.4745, 40.8481 ], [ -3.4741, 40.8468 ], [ -3.4741, 40.8463 ], [ -3.4736, 40.8451 ], [ -3.4753, 40.8446 ], [ -3.4761, 40.8446 ], [ -3.4764, 40.8444 ], [ -3.4772, 40.843 ], [ -3.4772, 40.8428 ], [ -3.4775, 40.8425 ], [ -3.4776, 40.8421 ], [ -3.478, 40.8416 ], [ -3.4791, 40.8414 ], [ -3.4849, 40.8413 ], [ -3.4862, 40.841 ], [ -3.4867, 40.8406 ], [ -3.4861, 40.8408 ], [ -3.4861, 40.8409 ], [ -3.485, 40.8412 ], [ -3.4791, 40.8413 ], [ -3.4781, 40.8415 ], [ -3.478, 40.8416 ], [ -3.4779, 40.8417 ], [ -3.4778, 40.8418 ], [ -3.4774, 40.8423 ], [ -3.4774, 40.8425 ], [ -3.4771, 40.8428 ], [ -3.477, 40.8432 ], [ -3.4761, 40.8445 ], [ -3.4754, 40.8445 ], [ -3.4736, 40.845 ], [ -3.4735, 40.845 ], [ -3.4728, 40.8433 ], [ -3.472, 40.8425 ], [ -3.4716, 40.8425 ], [ -3.471, 40.8419 ], [ -3.4708, 40.842 ], [ -3.4715, 40.8426 ], [ -3.472, 40.8426 ], [ -3.4727, 40.8433 ], [ -3.4739, 40.846 ], [ -3.474, 40.8471 ], [ -3.4744, 40.8481 ], [ -3.4753, 40.8493 ], [ -3.476, 40.8499 ], [ -3.4765, 40.8501 ], [ -3.4766, 40.8517 ], [ -3.4762, 40.8527 ] ] ] } },
{ "type": "Feature", "properties": { "municipio": "Torremocha de Jarama", "clasificacion": "no-urbanizable-protegido", "calificacion": "sin-asignar", "version": "vigente", "fuente": "SIT-CAM WFS — UsoDelSuelo:VPLA_V_CLASIFICACION (https://idem.comunidad.madrid/geosrvg/ows)", "fecha_dato": "2026-05-12", "ambito": "33233", "_raw_CD_SIGLAS": "SNUP", "_raw_DS_CLASIF_GEN": "Suelo No Urbanizable Protegido", "_raw_DS_CLASIF_DET": "Suelo No Urbanizable Especialmente Protegido por Afección de Vías Pecuarias", "_raw_DS_DOCU": "NORMAS SUBSIDIARIAS", "_raw_DS_LEY": "CM Ley 9/1995, E RD 1346/1976", "_raw_FC_AC": "1997-06-26", "_raw_NM_AREA_M2": 22014.8648143877, "_cam_code": "153" }, "geometry": { "type": "Polygon", "coordinates": [ [ [ -3.4888, 40.8363 ], [ -3.4903, 40.8368 ], [ -3.4889, 40.8363 ], [ -3.4888, 40.8361 ], [ -3.4839, 40.8347 ], [ -3.4839, 40.8346 ], [ -3.4836, 40.8345 ], [ -3.481, 40.8338 ], [ -3.4801, 40.8338 ], [ -3.4791, 40.8332 ], [ -3.4773, 40.8324 ], [ -3.4772, 40.8327 ], [ -3.4791, 40.8335 ], [ -3.4794, 40.8338 ], [ -3.4799, 40.834 ], [ -3.4809, 40.834 ], [ -3.4817, 40.8342 ], [ -3.4818, 40.8341 ], [ -3.4881, 40.836 ], [ -3.488, 40.8361 ], [ -3.4887, 40.8364 ], [ -3.4888, 40.8363 ] ] ] } },
{ "type": "Feature", "properties": { "municipio": "Torremocha de Jarama", "clasificacion": "no-urbanizable-protegido", "calificacion": "sin-asignar", "version": "vigente", "fuente": "SIT-CAM WFS — UsoDelSuelo:VPLA_V_CLASIFICACION (https://idem.comunidad.madrid/geosrvg/ows)", "fecha_dato": "2026-05-12", "ambito": "33233", "_raw_CD_SIGLAS": "SNUP", "_raw_DS_CLASIF_GEN": "Suelo No Urbanizable Protegido", "_raw_DS_CLASIF_DET": "Suelo No Urbanizable Especialmente Protegido por su Interés Ecológico, Paisajístico y Cultural", "_raw_DS_DOCU": "NORMAS SUBSIDIARIAS", "_raw_DS_LEY": "CM Ley 9/1995, E RD 1346/1976", "_raw_FC_AC": "1997-06-26", "_raw_NM_AREA_M2": 6038.3030359578897, "_cam_code": "153" }, "geometry": { "type": "Polygon", "coordinates": [ [ [ -3.5347, 40.8652 ], [ -3.535, 40.8653 ], [ -3.5354, 40.8647 ], [ -3.5361, 40.8634 ], [ -3.5365, 40.8625 ], [ -3.5365, 40.8624 ], [ -3.5347, 40.8652 ] ] ] } },
{ "type": "Feature", "properties": { "municipio": "Torremocha de Jarama", "clasificacion": "urbano-consolidado", "calificacion": "sin-asignar", "version": "vigente", "fuente": "SIT-CAM WFS — UsoDelSuelo:VPLA_V_CLASIFICACION (https://idem.comunidad.madrid/geosrvg/ows)", "fecha_dato": "2026-05-12", "ambito": "33233", "_raw_CD_SIGLAS": "SU", "_raw_DS_CLASIF_GEN": "Suelo Urbano", "_raw_DS_CLASIF_DET": "Suelo Urbano", "_raw_DS_DOCU": "NORMAS SUBSIDIARIAS", "_raw_DS_LEY": "CM Ley 9/1995, E RD 1346/1976", "_raw_FC_AC": "1997-06-26", "_raw_NM_AREA_M2": 132721.11741989799, "_cam_code": "153" }, "geometry": { "type": "Polygon", "coordinates": [ [ [ -3.4872, 40.8409 ], [ -3.4877, 40.8408 ], [ -3.4878, 40.8409 ], [ -3.488, 40.8408 ], [ -3.4883, 40.8409 ], [ -3.4889, 40.8404 ], [ -3.4886, 40.8401 ], [ -3.488, 40.8399 ], [ -3.488, 40.8398 ], [ -3.4883, 40.8397 ], [ -3.4882, 40.8396 ], [ -3.487, 40.8389 ], [ -3.4887, 40.8364 ], [ -3.488, 40.8361 ], [ -3.4881, 40.836 ], [ -3.4866, 40.8356 ], [ -3.484, 40.8393 ], [ -3.4846, 40.8395 ], [ -3.4846, 40.8397 ], [ -3.4849, 40.8398 ], [ -3.4849, 40.84 ], [ -3.4851, 40.8402 ], [ -3.4861, 40.8406 ], [ -3.4868, 40.8406 ], [ -3.4869, 40.8408 ], [ -3.4872, 40.8409 ] ] ] } },
{ "type": "Feature", "properties": { "municipio": "Torremocha de Jarama", "clasificacion": "urbano-consolidado", "calificacion": "sin-asignar", "version": "vigente", "fuente": "SIT-CAM WFS — UsoDelSuelo:VPLA_V_CLASIFICACION (https://idem.comunidad.madrid/geosrvg/ows)", "fecha_dato": "2026-05-12", "ambito": "33233", "_raw_CD_SIGLAS": "SU", "_raw_DS_CLASIF_GEN": "Suelo Urbano", "_raw_DS_CLASIF_DET": "Suelo Urbano", "_raw_DS_DOCU": "NORMAS SUBSIDIARIAS", "_raw_DS_LEY": "CM Ley 9/1995, E RD 1346/1976", "_raw_FC_AC": "1997-06-26", "_raw_NM_AREA_M2": 48364.256990703798, "_cam_code": "153" }, "geometry": { "type": "Polygon", "coordinates": [ [ [ -3.4774, 40.8543 ], [ -3.4775, 40.855 ], [ -3.4781, 40.8552 ], [ -3.479, 40.8551 ], [ -3.4798, 40.8547 ], [ -3.4798, 40.8542 ], [ -3.4813, 40.853 ], [ -3.4802, 40.8522 ], [ -3.4797, 40.8529 ], [ -3.4794, 40.8531 ], [ -3.4792, 40.8529 ], [ -3.4786, 40.8533 ], [ -3.4776, 40.8544 ], [ -3.4774, 40.8543 ] ] ] } },
{ "type": "Feature", "properties": { "municipio": "Torremocha de Jarama", "clasificacion": "urbano-consolidado", "calificacion": "sin-asignar", "version": "vigente", "fuente": "SIT-CAM WFS — UsoDelSuelo:VPLA_V_CLASIFICACION (https://idem.comunidad.madrid/geosrvg/ows)", "fecha_dato": "2026-05-12", "ambito": "33233", "_raw_CD_SIGLAS": "SU", "_raw_DS_CLASIF_GEN": "Suelo Urbano", "_raw_DS_CLASIF_DET": "Suelo Urbano", "_raw_DS_DOCU": "NORMAS SUBSIDIARIAS", "_raw_DS_LEY": "CM Ley 9/1995, E RD 1346/1976", "_raw_FC_AC": "1997-06-26", "_raw_NM_AREA_M2": 314165.77487177902, "_cam_code": "153" }, "geometry": { "type": "MultiPolygon", "coordinates": [ [ [ [ -3.5006, 40.8431 ], [ -3.5015, 40.8409 ], [ -3.5014, 40.8404 ], [ -3.4975, 40.8409 ], [ -3.4972, 40.8409 ], [ -3.4972, 40.8409 ], [ -3.4972, 40.8409 ], [ -3.497, 40.8409 ], [ -3.4969, 40.8409 ], [ -3.4968, 40.8409 ], [ -3.4965, 40.8409 ], [ -3.4965, 40.8409 ], [ -3.4965, 40.8409 ], [ -3.4963, 40.8409 ], [ -3.4961, 40.8409 ], [ -3.496, 40.8409 ], [ -3.4961, 40.8409 ], [ -3.4964, 40.8409 ], [ -3.4964, 40.8409 ], [ -3.4966, 40.8409 ], [ -3.4966, 40.8408 ], [ -3.4965, 40.8404 ], [ -3.4963, 40.8398 ], [ -3.4963, 40.8396 ], [ -3.496, 40.8393 ], [ -3.4962, 40.8393 ], [ -3.4962, 40.8391 ], [ -3.4949, 40.8391 ], [ -3.4954, 40.8409 ], [ -3.496, 40.8409 ], [ -3.496, 40.841 ], [ -3.4918, 40.841 ], [ -3.4917, 40.8413 ], [ -3.4917, 40.841 ], [ -3.4911, 40.8411 ], [ -3.4894, 40.8409 ], [ -3.4885, 40.841 ], [ -3.4872, 40.8409 ], [ -3.4878, 40.8415 ], [ -3.4884, 40.8416 ], [ -3.4884, 40.8417 ], [ -3.4899, 40.8418 ], [ -3.4914, 40.8425 ], [ -3.4916, 40.8425 ], [ -3.4915, 40.8423 ], [ -3.4916, 40.8423 ], [ -3.4916, 40.8425 ], [ -3.4919, 40.8425 ], [ -3.4923, 40.8423 ], [ -3.493, 40.8424 ], [ -3.4935, 40.8423 ], [ -3.4937, 40.8426 ], [ -3.4943, 40.8429 ], [ -3.4951, 40.8431 ], [ -3.4953, 40.8433 ], [ -3.4971, 40.843 ], [ -3.4978, 40.843 ], [ -3.498, 40.8432 ], [ -3.4982, 40.8438 ], [ -3.4985, 40.8438 ], [ -3.4999, 40.8431 ], [ -3.5006, 40.8431 ] ], [ [ -3.4918, 40.8413 ], [ -3.4916, 40.8422 ], [ -3.4915, 40.8422 ], [ -3.4917, 40.8413 ], [ -3.4918, 40.8413 ] ] ], [ [ [ -3.4915, 40.843 ], [ -3.4914, 40.8433 ], [ -3.4924, 40.844 ], [ -3.4933, 40.8443 ], [ -3.4934, 40.8439 ], [ -3.4935, 40.8439 ], [ -3.4936, 40.8432 ], [ -3.4937, 40.8432 ], [ -3.4937, 40.8428 ], [ -3.4938, 40.8428 ], [ -3.4925, 40.8424 ], [ -3.4919, 40.8427 ], [ -3.4916, 40.8427 ], [ -3.4915, 40.843 ], [ -3.4914, 40.8429 ], [ -3.4916, 40.8427 ], [ -3.4905, 40.8424 ], [ -3.4897, 40.8419 ], [ -3.4894, 40.8418 ], [ -3.4879, 40.8418 ], [ -3.4875, 40.8417 ], [ -3.4871, 40.8414 ], [ -3.4871, 40.8412 ], [ -3.4866, 40.8412 ], [ -3.4864, 40.8419 ], [ -3.4884, 40.8423 ], [ -3.4913, 40.8433 ], [ -3.4914, 40.843 ], [ -3.4915, 40.843 ] ] ], [ [ [ -3.5007, 40.8431 ], [ -3.5005, 40.8432 ], [ -3.5012, 40.8432 ], [ -3.5013, 40.8433 ], [ -3.5023, 40.8429 ], [ -3.5017, 40.8418 ], [ -3.5016, 40.8411 ], [ -3.5012, 40.8421 ], [ -3.5007, 40.8431 ] ] ] ] } },
{ "type": "Feature", "properties": { "municipio": "Torremocha de Jarama", "clasificacion": "urbano-consolidado", "calificacion": "sin-asignar", "version": "vigente", "fuente": "SIT-CAM WFS — UsoDelSuelo:VPLA_V_CLASIFICACION (https://idem.comunidad.madrid/geosrvg/ows)", "fecha_dato": "2026-05-12", "ambito": "33233", "_raw_CD_SIGLAS": "SU", "_raw_DS_CLASIF_GEN": "Suelo Urbano", "_raw_DS_CLASIF_DET": "Suelo Urbano", "_raw_DS_DOCU": "NORMAS SUBSIDIARIAS", "_raw_DS_LEY": "CM Ley 9/1995, E RD 1346/1976", "_raw_FC_AC": "1997-06-26", "_raw_NM_AREA_M2": 278558.10210618901, "_cam_code": "153" }, "geometry": { "type": "Polygon", "coordinates": [ [ [ -3.5014, 40.8404 ], [ -3.5014, 40.8403 ], [ -3.5018, 40.8403 ], [ -3.5019, 40.8398 ], [ -3.5015, 40.8396 ], [ -3.4978, 40.8365 ], [ -3.4977, 40.836 ], [ -3.499, 40.8352 ], [ -3.4989, 40.8351 ], [ -3.4998, 40.8352 ], [ -3.4998, 40.8346 ], [ -3.4995, 40.8345 ], [ -3.4989, 40.8345 ], [ -3.4981, 40.8347 ], [ -3.4979, 40.8344 ], [ -3.4967, 40.8345 ], [ -3.496, 40.8343 ], [ -3.4957, 40.834 ], [ -3.4955, 40.834 ], [ -3.4955, 40.8341 ], [ -3.4949, 40.834 ], [ -3.4951, 40.8343 ], [ -3.4944, 40.8346 ], [ -3.4941, 40.8353 ], [ -3.4941, 40.8357 ], [ -3.4938, 40.8359 ], [ -3.4934, 40.8359 ], [ -3.4928, 40.8364 ], [ -3.4921, 40.8366 ], [ -3.4908, 40.8362 ], [ -3.4906, 40.836 ], [ -3.4895, 40.8365 ], [ -3.4903, 40.8368 ], [ -3.4899, 40.837 ], [ -3.4894, 40.8376 ], [ -3.4904, 40.8382 ], [ -3.4915, 40.8375 ], [ -3.493, 40.8386 ], [ -3.4938, 40.839 ], [ -3.494, 40.8387 ], [ -3.4942, 40.8387 ], [ -3.4946, 40.8384 ], [ -3.4947, 40.8385 ], [ -3.4951, 40.8381 ], [ -3.4958, 40.8377 ], [ -3.4962, 40.8375 ], [ -3.4963, 40.8377 ], [ -3.4965, 40.8375 ], [ -3.4968, 40.8378 ], [ -3.497, 40.8376 ], [ -3.4975, 40.838 ], [ -3.4987, 40.8385 ], [ -3.4974, 40.8397 ], [ -3.4981, 40.8404 ], [ -3.4983, 40.8402 ], [ -3.5002, 40.8393 ], [ -3.5013, 40.8402 ], [ -3.5012, 40.8404 ], [ -3.5014, 40.8404 ] ] ] } },
{ "type": "Feature", "properties": { "municipio": "Torremocha de Jarama", "clasificacion": "urbanizable-no-sectorizado", "calificacion": "sin-asignar", "version": "vigente", "fuente": "SIT-CAM WFS — UsoDelSuelo:VPLA_V_CLASIFICACION (https://idem.comunidad.madrid/geosrvg/ows)", "fecha_dato": "2026-05-12", "ambito": "33233", "_raw_CD_SIGLAS": "SUBNS", "_raw_DS_CLASIF_GEN": "Suelo No Urbanizable Común", "_raw_DS_CLASIF_DET": "Suelo No Urbanizable Común", "_raw_DS_DOCU": "NORMAS SUBSIDIARIAS", "_raw_DS_LEY": "CM Ley 9/1995, E RD 1346/1976", "_raw_FC_AC": "1997-06-26", "_raw_NM_AREA_M2": 259310.56853513501, "_cam_code": "153" }, "geometry": { "type": "MultiPolygon", "coordinates": [ [ [ [ -3.4917, 40.8412 ], [ -3.4917, 40.8413 ], [ -3.4918, 40.841 ], [ -3.496, 40.841 ], [ -3.496, 40.8409 ], [ -3.4954, 40.8409 ], [ -3.4949, 40.8391 ], [ -3.4962, 40.8391 ], [ -3.4962, 40.8393 ], [ -3.496, 40.8393 ], [ -3.4963, 40.8396 ], [ -3.4963, 40.8398 ], [ -3.4965, 40.8404 ], [ -3.4966, 40.8408 ], [ -3.4966, 40.8408 ], [ -3.4966, 40.8409 ], [ -3.4964, 40.8409 ], [ -3.4964, 40.8409 ], [ -3.4961, 40.8409 ], [ -3.496, 40.8409 ], [ -3.4961, 40.8409 ], [ -3.4963, 40.8409 ], [ -3.4965, 40.8409 ], [ -3.4965, 40.8409 ], [ -3.4965, 40.8409 ], [ -3.4968, 40.8409 ], [ -3.4975, 40.8409 ], [ -3.4977, 40.8408 ], [ -3.4996, 40.8407 ], [ -3.5012, 40.8404 ], [ -3.5013, 40.8402 ], [ -3.5002, 40.8393 ], [ -3.4983, 40.8402 ], [ -3.4981, 40.8404 ], [ -3.4974, 40.8397 ], [ -3.4987, 40.8385 ], [ -3.4975, 40.838 ], [ -3.497, 40.8376 ], [ -3.4968, 40.8378 ], [ -3.4965, 40.8375 ], [ -3.4963, 40.8377 ], [ -3.4962, 40.8375 ], [ -3.4951, 40.8381 ], [ -3.4947, 40.8385 ], [ -3.4946, 40.8384 ], [ -3.4942, 40.8387 ], [ -3.494, 40.8387 ], [ -3.4938, 40.839 ], [ -3.493, 40.8386 ], [ -3.4915, 40.8375 ], [ -3.4904, 40.8382 ], [ -3.4903, 40.8381 ], [ -3.49, 40.8384 ], [ -3.489, 40.8392 ], [ -3.4886, 40.8395 ], [ -3.488, 40.8399 ], [ -3.4882, 40.8399 ], [ -3.4889, 40.8403 ], [ -3.4885, 40.8408 ], [ -3.4883, 40.8409 ], [ -3.4881, 40.8408 ], [ -3.4872, 40.8409 ], [ -3.4882, 40.8409 ], [ -3.4882, 40.841 ], [ -3.4894, 40.8409 ], [ -3.4911, 40.8411 ], [ -3.4917, 40.841 ], [ -3.4917, 40.8412 ] ] ], [ [ [ -3.4899, 40.8379 ], [ -3.4893, 40.8385 ], [ -3.488, 40.8395 ], [ -3.4882, 40.8396 ], [ -3.4882, 40.8396 ], [ -3.4883, 40.8397 ], [ -3.4888, 40.8393 ], [ -3.4897, 40.8386 ], [ -3.49, 40.8384 ], [ -3.4903, 40.8381 ], [ -3.4899, 40.8379 ] ] ] ] } },
{ "type": "Feature", "properties": { "municipio": "Torremocha de Jarama", "clasificacion": "urbanizable-no-sectorizado", "calificacion": "sin-asignar", "version": "vigente", "fuente": "SIT-CAM WFS — UsoDelSuelo:VPLA_V_CLASIFICACION (https://idem.comunidad.madrid/geosrvg/ows)", "fecha_dato": "2026-05-12", "ambito": "33233", "_raw_CD_SIGLAS": "SUBNS", "_raw_DS_CLASIF_GEN": "Suelo No Urbanizable Común", "_raw_DS_CLASIF_DET": "Suelo No Urbanizable Común", "_raw_DS_DOCU": "NORMAS SUBSIDIARIAS", "_raw_DS_LEY": "CM Ley 9/1995, E RD 1346/1976", "_raw_FC_AC": "1997-06-26", "_raw_NM_AREA_M2": 871453.66400785197, "_cam_code": "153" }, "geometry": { "type": "Polygon", "coordinates": [ [ [ -3.5352, 40.8618 ], [ -3.5336, 40.8604 ], [ -3.5329, 40.8602 ], [ -3.5324, 40.8594 ], [ -3.5318, 40.8588 ], [ -3.5303, 40.8579 ], [ -3.53, 40.8581 ], [ -3.5297, 40.8588 ], [ -3.5285, 40.8598 ], [ -3.5287, 40.8602 ], [ -3.5279, 40.861 ], [ -3.5278, 40.8613 ], [ -3.5266, 40.8616 ], [ -3.5249, 40.8633 ], [ -3.5235, 40.8642 ], [ -3.5225, 40.8652 ], [ -3.5224, 40.8657 ], [ -3.5216, 40.8663 ], [ -3.5208, 40.8667 ], [ -3.5208, 40.8673 ], [ -3.5218, 40.8674 ], [ -3.5224, 40.8679 ], [ -3.523, 40.868 ], [ -3.5235, 40.8687 ], [ -3.5249, 40.8686 ], [ -3.5251, 40.8688 ], [ -3.5254, 40.8687 ], [ -3.5279, 40.8695 ], [ -3.5282, 40.8695 ], [ -3.5288, 40.8691 ], [ -3.5295, 40.869 ], [ -3.5298, 40.8684 ], [ -3.5306, 40.8683 ], [ -3.5307, 40.8681 ], [ -3.5316, 40.8678 ], [ -3.5316, 40.8677 ], [ -3.5332, 40.8668 ], [ -3.5335, 40.8664 ], [ -3.5341, 40.866 ], [ -3.5365, 40.8625 ], [ -3.536, 40.862 ], [ -3.5352, 40.8618 ] ] ] } },
{ "type": "Feature", "properties": { "municipio": "Torremocha de Jarama", "clasificacion": "urbanizable-no-sectorizado", "calificacion": "sin-asignar", "version": "vigente", "fuente": "SIT-CAM WFS — UsoDelSuelo:VPLA_V_CLASIFICACION (https://idem.comunidad.madrid/geosrvg/ows)", "fecha_dato": "2026-05-12", "ambito": "33233", "_raw_CD_SIGLAS": "SUBNS", "_raw_DS_CLASIF_GEN": "Suelo No Urbanizable Común", "_raw_DS_CLASIF_DET": "Suelo No Urbanizable Común", "_raw_DS_DOCU": "NORMAS SUBSIDIARIAS", "_raw_DS_LEY": "CM Ley 9/1995, E RD 1346/1976", "_raw_FC_AC": "1997-06-26", "_raw_NM_AREA_M2": 9180.1509502421904, "_cam_code": "153" }, "geometry": { "type": "Polygon", "coordinates": [ [ [ -3.532, 40.8574 ], [ -3.5312, 40.8576 ], [ -3.5325, 40.8584 ], [ -3.5331, 40.859 ], [ -3.5335, 40.8597 ], [ -3.5338, 40.8598 ], [ -3.532, 40.8573 ], [ -3.532, 40.8574 ] ] ] } },
{ "type": "Feature", "properties": { "municipio": "Torremocha de Jarama", "clasificacion": "urbanizable-no-sectorizado", "calificacion": "sin-asignar", "version": "vigente", "fuente": "SIT-CAM WFS — UsoDelSuelo:VPLA_V_CLASIFICACION (https://idem.comunidad.madrid/geosrvg/ows)", "fecha_dato": "2026-05-12", "ambito": "33233", "_raw_CD_SIGLAS": "SUBNS", "_raw_DS_CLASIF_GEN": "Suelo No Urbanizable Común", "_raw_DS_CLASIF_DET": "Suelo No Urbanizable Común", "_raw_DS_DOCU": "NORMAS SUBSIDIARIAS", "_raw_DS_LEY": "CM Ley 9/1995, E RD 1346/1976", "_raw_FC_AC": "1997-06-26", "_raw_NM_AREA_M2": 729.77993363317, "_cam_code": "153" }, "geometry": { "type": "Polygon", "coordinates": [ [ [ -3.4917, 40.8413 ], [ -3.4916, 40.8417 ], [ -3.4915, 40.8422 ], [ -3.4916, 40.8422 ], [ -3.4918, 40.8413 ], [ -3.4917, 40.8413 ] ] ] } }
]
}
