{
"type": "FeatureCollection",
"name": "vigente.full",
"features": [
{ "type": "Feature", "properties": { "municipio": "Cadalso de los Vidrios", "clasificacion": "no-urbanizable-protegido", "calificacion": "sin-asignar", "version": "vigente", "fuente": "SIT-CAM WFS — UsoDelSuelo:VPLA_V_CLASIFICACION (https://idem.comunidad.madrid/geosrvg/ows)", "fecha_dato": "2026-05-12", "ambito": "46", "_raw_CD_SIGLAS": "SNUP", "_raw_DS_CLASIF_GEN": "Suelo No Urbanizable Protegido", "_raw_DS_CLASIF_DET": "Suelo No Urbanizable Protegido", "_raw_DS_DOCU": "NORMAS SUBSIDIARIAS", "_raw_DS_LEY": "CM Ley 4/1984, E RD 1346/1976", "_raw_FC_AC": "1985-05-23", "_raw_NM_AREA_M2": 773186.62992584705, "_cam_code": "031" }, "geometry": { "type": "Polygon", "coordinates": [ [ [ -4.4086, 40.3047 ], [ -4.406, 40.3054 ], [ -4.4041, 40.3055 ], [ -4.4005, 40.3063 ], [ -4.3957, 40.3064 ], [ -4.394, 40.3066 ], [ -4.3934, 40.3077 ], [ -4.3946, 40.3085 ], [ -4.3951, 40.3085 ], [ -4.3962, 40.3101 ], [ -4.3967, 40.3102 ], [ -4.4039, 40.3098 ], [ -4.4111, 40.3083 ], [ -4.4103, 40.3064 ], [ -4.4107, 40.3063 ], [ -4.4104, 40.3054 ], [ -4.413, 40.304 ], [ -4.4122, 40.3027 ], [ -4.4108, 40.2997 ], [ -4.4069, 40.3011 ], [ -4.4086, 40.3047 ] ] ] } },
{ "type": "Feature", "properties": { "municipio": "Cadalso de los Vidrios", "clasificacion": "no-urbanizable-protegido", "calificacion": "sin-asignar", "version": "vigente", "fuente": "SIT-CAM WFS — UsoDelSuelo:VPLA_V_CLASIFICACION (https://idem.comunidad.madrid/geosrvg/ows)", "fecha_dato": "2026-05-12", "ambito": "46", "_raw_CD_SIGLAS": "SNUP", "_raw_DS_CLASIF_GEN": "Suelo No Urbanizable Protegido", "_raw_DS_CLASIF_DET": null, "_raw_DS_DOCU": "NORMAS SUBSIDIARIAS", "_raw_DS_LEY": "CM Ley 4/1984, E RD 1346/1976", "_raw_FC_AC": "1985-05-23", "_raw_NM_AREA_M2": 9849234.3508793693, "_cam_code": "031" }, "geometry": { "type": "Polygon", "coordinates": [ [ [ -4.4136, 40.3307 ], [ -4.4185, 40.3323 ], [ -4.4219, 40.3317 ], [ -4.4261, 40.3305 ], [ -4.4274, 40.3306 ], [ -4.4277, 40.3303 ], [ -4.4282, 40.3303 ], [ -4.4282, 40.3304 ], [ -4.4291, 40.3303 ], [ -4.4293, 40.33 ], [ -4.432, 40.3286 ], [ -4.4342, 40.3287 ], [ -4.4317, 40.3269 ], [ -4.4295, 40.3263 ], [ -4.4272, 40.325 ], [ -4.4249, 40.3229 ], [ -4.4246, 40.3222 ], [ -4.4247, 40.3215 ], [ -4.425, 40.3211 ], [ -4.4287, 40.3179 ], [ -4.4297, 40.3174 ], [ -4.4306, 40.3166 ], [ -4.4325, 40.3153 ], [ -4.4324, 40.316 ], [ -4.4326, 40.3169 ], [ -4.4332, 40.3178 ], [ -4.4339, 40.3179 ], [ -4.436, 40.3171 ], [ -4.4381, 40.3161 ], [ -4.441, 40.3153 ], [ -4.443, 40.315 ], [ -4.4443, 40.314 ], [ -4.4452, 40.3136 ], [ -4.4461, 40.313 ], [ -4.4462, 40.3125 ], [ -4.4453, 40.3105 ], [ -4.4448, 40.3101 ], [ -4.444, 40.3102 ], [ -4.4435, 40.3105 ], [ -4.4428, 40.3107 ], [ -4.4427, 40.3112 ], [ -4.4419, 40.3116 ], [ -4.4398, 40.3122 ], [ -4.4395, 40.3125 ], [ -4.4389, 40.3124 ], [ -4.437, 40.3132 ], [ -4.4338, 40.3141 ], [ -4.4336, 40.3129 ], [ -4.4335, 40.3134 ], [ -4.4333, 40.3136 ], [ -4.4324, 40.314 ], [ -4.4321, 40.314 ], [ -4.432, 40.3129 ], [ -4.4317, 40.3128 ], [ -4.4317, 40.3126 ], [ -4.4318, 40.3126 ], [ -4.431, 40.3117 ], [ -4.4305, 40.3114 ], [ -4.4288, 40.3111 ], [ -4.4282, 40.3108 ], [ -4.4261, 40.3107 ], [ -4.4261, 40.3106 ], [ -4.4249, 40.3102 ], [ -4.4239, 40.3097 ], [ -4.4235, 40.309 ], [ -4.4232, 40.3075 ], [ -4.4228, 40.3063 ], [ -4.4227, 40.3051 ], [ -4.4227, 40.3042 ], [ -4.4234, 40.3029 ], [ -4.4233, 40.3018 ], [ -4.4234, 40.2999 ], [ -4.4229, 40.2994 ], [ -4.4207, 40.2981 ], [ -4.42, 40.2978 ], [ -4.4188, 40.2977 ], [ -4.4153, 40.2977 ], [ -4.415, 40.2979 ], [ -4.4145, 40.2986 ], [ -4.4138, 40.2989 ], [ -4.4133, 40.2995 ], [ -4.4132, 40.2999 ], [ -4.4133, 40.301 ], [ -4.4126, 40.3026 ], [ -4.4125, 40.3031 ], [ -4.413, 40.304 ], [ -4.4104, 40.3054 ], [ -4.4107, 40.3063 ], [ -4.4103, 40.3064 ], [ -4.4111, 40.3083 ], [ -4.4039, 40.3098 ], [ -4.3967, 40.3102 ], [ -4.3962, 40.3101 ], [ -4.3951, 40.3085 ], [ -4.3946, 40.3085 ], [ -4.3934, 40.3077 ], [ -4.394, 40.3066 ], [ -4.3957, 40.3064 ], [ -4.4005, 40.3063 ], [ -4.4041, 40.3055 ], [ -4.406, 40.3054 ], [ -4.4086, 40.3047 ], [ -4.4082, 40.304 ], [ -4.4058, 40.304 ], [ -4.4042, 40.3042 ], [ -4.402, 40.3041 ], [ -4.4011, 40.3042 ], [ -4.4001, 40.3045 ], [ -4.3961, 40.3049 ], [ -4.3952, 40.3051 ], [ -4.3939, 40.305 ], [ -4.3914, 40.3055 ], [ -4.3887, 40.3049 ], [ -4.3879, 40.305 ], [ -4.3873, 40.3054 ], [ -4.3866, 40.3056 ], [ -4.3846, 40.3055 ], [ -4.3834, 40.3056 ], [ -4.3832, 40.3058 ], [ -4.3832, 40.306 ], [ -4.3825, 40.3067 ], [ -4.3816, 40.3073 ], [ -4.3818, 40.3076 ], [ -4.3817, 40.3079 ], [ -4.3825, 40.308 ], [ -4.3829, 40.3082 ], [ -4.3835, 40.3086 ], [ -4.3835, 40.3088 ], [ -4.3833, 40.3088 ], [ -4.3828, 40.3093 ], [ -4.3829, 40.3096 ], [ -4.3826, 40.3098 ], [ -4.3824, 40.3103 ], [ -4.3822, 40.3105 ], [ -4.382, 40.3105 ], [ -4.3818, 40.3109 ], [ -4.3813, 40.3111 ], [ -4.3813, 40.3115 ], [ -4.381, 40.312 ], [ -4.3813, 40.3124 ], [ -4.3813, 40.3127 ], [ -4.3809, 40.313 ], [ -4.3803, 40.3132 ], [ -4.3799, 40.3136 ], [ -4.3797, 40.3136 ], [ -4.3793, 40.314 ], [ -4.3789, 40.3141 ], [ -4.3785, 40.3144 ], [ -4.3785, 40.3147 ], [ -4.3783, 40.3148 ], [ -4.3783, 40.3152 ], [ -4.3786, 40.3161 ], [ -4.3791, 40.3166 ], [ -4.3791, 40.3169 ], [ -4.3789, 40.3171 ], [ -4.379, 40.3175 ], [ -4.3801, 40.3183 ], [ -4.3827, 40.3196 ], [ -4.387, 40.3204 ], [ -4.3917, 40.3227 ], [ -4.3959, 40.324 ], [ -4.4066, 40.3294 ], [ -4.4136, 40.3307 ] ], [ [ -4.4112, 40.3179 ], [ -4.402, 40.3179 ], [ -4.402, 40.3176 ], [ -4.3975, 40.3169 ], [ -4.3972, 40.3144 ], [ -4.4065, 40.3133 ], [ -4.4067, 40.3153 ], [ -4.411, 40.3153 ], [ -4.4112, 40.3179 ] ] ] } },
{ "type": "Feature", "properties": { "municipio": "Cadalso de los Vidrios", "clasificacion": "no-urbanizable-protegido", "calificacion": "sin-asignar", "version": "vigente", "fuente": "SIT-CAM WFS — UsoDelSuelo:VPLA_V_CLASIFICACION (https://idem.comunidad.madrid/geosrvg/ows)", "fecha_dato": "2026-05-12", "ambito": "46", "_raw_CD_SIGLAS": "SNUP", "_raw_DS_CLASIF_GEN": "Suelo No Urbanizable Protegido", "_raw_DS_CLASIF_DET": "Suelo No Urbanizable Protegido", "_raw_DS_DOCU": "NORMAS SUBSIDIARIAS", "_raw_DS_LEY": "CM Ley 4/1984, E RD 1346/1976", "_raw_FC_AC": "1985-05-23", "_raw_NM_AREA_M2": 436376.35331388097, "_cam_code": "031" }, "geometry": { "type": "Polygon", "coordinates": [ [ [ -4.3972, 40.3144 ], [ -4.3975, 40.3169 ], [ -4.402, 40.3176 ], [ -4.402, 40.3179 ], [ -4.4112, 40.3179 ], [ -4.411, 40.3153 ], [ -4.4067, 40.3153 ], [ -4.4065, 40.3133 ], [ -4.3972, 40.3144 ] ] ] } },
{ "type": "Feature", "properties": { "municipio": "Cadalso de los Vidrios", "clasificacion": "urbanizable-no-sectorizado", "calificacion": "sin-asignar", "version": "vigente", "fuente": "SIT-CAM WFS — UsoDelSuelo:VPLA_V_CLASIFICACION (https://idem.comunidad.madrid/geosrvg/ows)", "fecha_dato": "2026-05-12", "ambito": "46", "_raw_CD_SIGLAS": "SUBNS", "_raw_DS_CLASIF_GEN": "Suelo No Urbanizable Común", "_raw_DS_CLASIF_DET": "Suelo No Urbanizable de Tolerancia", "_raw_DS_DOCU": "NORMAS SUBSIDIARIAS", "_raw_DS_LEY": "CM Ley 4/1984, E RD 1346/1976", "_raw_FC_AC": "1985-05-23", "_raw_NM_AREA_M2": 784366.05454610602, "_cam_code": "031" }, "geometry": { "type": "Polygon", "coordinates": [ [ [ -4.4444, 40.2998 ], [ -4.4445, 40.3002 ], [ -4.4449, 40.3002 ], [ -4.4448, 40.3001 ], [ -4.4449, 40.3 ], [ -4.4453, 40.2999 ], [ -4.445, 40.2995 ], [ -4.4451, 40.2995 ], [ -4.445, 40.2992 ], [ -4.4455, 40.2992 ], [ -4.4457, 40.2995 ], [ -4.4469, 40.2994 ], [ -4.4469, 40.2998 ], [ -4.4474, 40.2997 ], [ -4.4477, 40.2998 ], [ -4.4483, 40.2992 ], [ -4.4481, 40.2991 ], [ -4.4487, 40.2984 ], [ -4.4504, 40.2977 ], [ -4.4521, 40.2973 ], [ -4.4525, 40.297 ], [ -4.4536, 40.2955 ], [ -4.4538, 40.2951 ], [ -4.4538, 40.2944 ], [ -4.4511, 40.2942 ], [ -4.4488, 40.2934 ], [ -4.4467, 40.2929 ], [ -4.4458, 40.2933 ], [ -4.4453, 40.2938 ], [ -4.445, 40.2939 ], [ -4.4442, 40.2939 ], [ -4.4441, 40.2934 ], [ -4.4437, 40.2935 ], [ -4.4434, 40.2934 ], [ -4.443, 40.2937 ], [ -4.4421, 40.2935 ], [ -4.4419, 40.2933 ], [ -4.441, 40.2934 ], [ -4.4409, 40.2935 ], [ -4.4408, 40.2946 ], [ -4.4409, 40.2951 ], [ -4.4389, 40.2939 ], [ -4.4387, 40.2941 ], [ -4.4389, 40.2948 ], [ -4.4389, 40.2951 ], [ -4.4387, 40.2954 ], [ -4.4379, 40.2957 ], [ -4.4376, 40.296 ], [ -4.4371, 40.296 ], [ -4.4366, 40.2964 ], [ -4.436, 40.2972 ], [ -4.4355, 40.2988 ], [ -4.4349, 40.2991 ], [ -4.4363, 40.2996 ], [ -4.4367, 40.2996 ], [ -4.4384, 40.2993 ], [ -4.4383, 40.2986 ], [ -4.4387, 40.2989 ], [ -4.4388, 40.2988 ], [ -4.4395, 40.2989 ], [ -4.4395, 40.2991 ], [ -4.441, 40.2989 ], [ -4.441, 40.2986 ], [ -4.4415, 40.2986 ], [ -4.4415, 40.2988 ], [ -4.4417, 40.299 ], [ -4.4423, 40.2992 ], [ -4.4423, 40.2993 ], [ -4.4435, 40.3 ], [ -4.4444, 40.2998 ] ] ] } },
{ "type": "Feature", "properties": { "municipio": "Cadalso de los Vidrios", "clasificacion": "urbanizable-no-sectorizado", "calificacion": "sin-asignar", "version": "vigente", "fuente": "SIT-CAM WFS — UsoDelSuelo:VPLA_V_CLASIFICACION (https://idem.comunidad.madrid/geosrvg/ows)", "fecha_dato": "2026-05-12", "ambito": "46", "_raw_CD_SIGLAS": "SUBNS", "_raw_DS_CLASIF_GEN": "Suelo No Urbanizable Común", "_raw_DS_CLASIF_DET": "Suelo No Urbanizable Común", "_raw_DS_DOCU": "NORMAS SUBSIDIARIAS", "_raw_DS_LEY": "CM Ley 4/1984, E RD 1346/1976", "_raw_FC_AC": "1985-05-23", "_raw_NM_AREA_M2": 33098639.929654799, "_cam_code": "031" }, "geometry": { "type": "Polygon", "coordinates": [ [ [ -4.4443, 40.3285 ], [ -4.4459, 40.3294 ], [ -4.4471, 40.3296 ], [ -4.4498, 40.3314 ], [ -4.4518, 40.3325 ], [ -4.4538, 40.3331 ], [ -4.4531, 40.3296 ], [ -4.4532, 40.3248 ], [ -4.4544, 40.3231 ], [ -4.4554, 40.3221 ], [ -4.4562, 40.3208 ], [ -4.4562, 40.3205 ], [ -4.4556, 40.3195 ], [ -4.4566, 40.3193 ], [ -4.4574, 40.3194 ], [ -4.4613, 40.3193 ], [ -4.4629, 40.3188 ], [ -4.4628, 40.3187 ], [ -4.4623, 40.3187 ], [ -4.462, 40.3189 ], [ -4.4617, 40.3189 ], [ -4.4613, 40.3186 ], [ -4.4588, 40.3187 ], [ -4.4586, 40.3188 ], [ -4.4579, 40.3185 ], [ -4.4564, 40.3184 ], [ -4.4553, 40.3186 ], [ -4.4554, 40.3189 ], [ -4.4553, 40.319 ], [ -4.4547, 40.3188 ], [ -4.4543, 40.3185 ], [ -4.4541, 40.3185 ], [ -4.4541, 40.3184 ], [ -4.4538, 40.3184 ], [ -4.4538, 40.3183 ], [ -4.453, 40.3183 ], [ -4.4521, 40.318 ], [ -4.4522, 40.3181 ], [ -4.4513, 40.3176 ], [ -4.4517, 40.3155 ], [ -4.4537, 40.3144 ], [ -4.4534, 40.3133 ], [ -4.4532, 40.3129 ], [ -4.4528, 40.3126 ], [ -4.4525, 40.3116 ], [ -4.4523, 40.3115 ], [ -4.4524, 40.3115 ], [ -4.4518, 40.3081 ], [ -4.4524, 40.308 ], [ -4.4529, 40.3082 ], [ -4.4532, 40.3081 ], [ -4.4557, 40.3082 ], [ -4.4575, 40.3079 ], [ -4.4597, 40.3083 ], [ -4.46, 40.3082 ], [ -4.4605, 40.3083 ], [ -4.4608, 40.308 ], [ -4.4613, 40.3084 ], [ -4.4621, 40.3082 ], [ -4.4625, 40.3086 ], [ -4.4628, 40.3085 ], [ -4.4631, 40.3086 ], [ -4.4644, 40.3086 ], [ -4.4649, 40.309 ], [ -4.4654, 40.309 ], [ -4.4659, 40.3086 ], [ -4.4662, 40.3087 ], [ -4.4662, 40.3085 ], [ -4.4667, 40.3087 ], [ -4.4667, 40.3086 ], [ -4.4673, 40.3084 ], [ -4.4676, 40.3081 ], [ -4.4685, 40.3081 ], [ -4.469, 40.3077 ], [ -4.4701, 40.3075 ], [ -4.4708, 40.3071 ], [ -4.4713, 40.307 ], [ -4.4719, 40.3062 ], [ -4.4732, 40.3057 ], [ -4.4741, 40.3046 ], [ -4.4743, 40.3046 ], [ -4.4752, 40.3041 ], [ -4.4764, 40.3038 ], [ -4.476, 40.3035 ], [ -4.476, 40.3032 ], [ -4.4762, 40.3028 ], [ -4.4755, 40.3023 ], [ -4.4748, 40.3016 ], [ -4.4748, 40.3014 ], [ -4.4756, 40.3003 ], [ -4.4763, 40.2999 ], [ -4.4763, 40.2997 ], [ -4.4771, 40.2991 ], [ -4.4775, 40.2986 ], [ -4.4782, 40.2989 ], [ -4.479, 40.2988 ], [ -4.479, 40.2987 ], [ -4.4802, 40.2984 ], [ -4.4808, 40.2978 ], [ -4.4827, 40.297 ], [ -4.4837, 40.2962 ], [ -4.4841, 40.2961 ], [ -4.4842, 40.2963 ], [ -4.4845, 40.2962 ], [ -4.4862, 40.295 ], [ -4.4862, 40.2946 ], [ -4.4865, 40.294 ], [ -4.4869, 40.2936 ], [ -4.4871, 40.2936 ], [ -4.4874, 40.2932 ], [ -4.4879, 40.2929 ], [ -4.4886, 40.2927 ], [ -4.4899, 40.2915 ], [ -4.4908, 40.2913 ], [ -4.4908, 40.2912 ], [ -4.491, 40.2912 ], [ -4.4914, 40.2909 ], [ -4.4921, 40.2907 ], [ -4.4929, 40.2899 ], [ -4.4939, 40.2892 ], [ -4.4941, 40.2889 ], [ -4.4947, 40.2887 ], [ -4.4947, 40.2888 ], [ -4.4954, 40.2888 ], [ -4.4975, 40.2882 ], [ -4.5024, 40.2849 ], [ -4.5043, 40.2838 ], [ -4.5056, 40.2833 ], [ -4.506, 40.2829 ], [ -4.5065, 40.2827 ], [ -4.5063, 40.2826 ], [ -4.5058, 40.2829 ], [ -4.5039, 40.2827 ], [ -4.5037, 40.2824 ], [ -4.5031, 40.2822 ], [ -4.5027, 40.2817 ], [ -4.5017, 40.2816 ], [ -4.501, 40.2813 ], [ -4.5006, 40.2817 ], [ -4.5002, 40.2817 ], [ -4.4995, 40.2812 ], [ -4.4986, 40.2808 ], [ -4.497, 40.2808 ], [ -4.4967, 40.2806 ], [ -4.4964, 40.2806 ], [ -4.4944, 40.2785 ], [ -4.4914, 40.2784 ], [ -4.4895, 40.2787 ], [ -4.4877, 40.2785 ], [ -4.4844, 40.2788 ], [ -4.4817, 40.2807 ], [ -4.4785, 40.2825 ], [ -4.477, 40.283 ], [ -4.4752, 40.2823 ], [ -4.4681, 40.2805 ], [ -4.466, 40.2796 ], [ -4.4635, 40.2789 ], [ -4.462, 40.2783 ], [ -4.4541, 40.2745 ], [ -4.4525, 40.2739 ], [ -4.45, 40.2732 ], [ -4.4488, 40.2726 ], [ -4.448, 40.272 ], [ -4.4474, 40.271 ], [ -4.4474, 40.2706 ], [ -4.4469, 40.2698 ], [ -4.4437, 40.2668 ], [ -4.4412, 40.2653 ], [ -4.4395, 40.2647 ], [ -4.4384, 40.2637 ], [ -4.435, 40.2593 ], [ -4.4334, 40.2593 ], [ -4.4328, 40.2591 ], [ -4.4326, 40.2587 ], [ -4.4313, 40.2587 ], [ -4.431, 40.259 ], [ -4.4305, 40.2591 ], [ -4.4294, 40.2588 ], [ -4.4285, 40.2581 ], [ -4.4277, 40.2577 ], [ -4.4272, 40.2576 ], [ -4.427, 40.2578 ], [ -4.4268, 40.2586 ], [ -4.4268, 40.259 ], [ -4.4271, 40.2599 ], [ -4.427, 40.2614 ], [ -4.4241, 40.2631 ], [ -4.4212, 40.2644 ], [ -4.42, 40.2651 ], [ -4.418, 40.2673 ], [ -4.4176, 40.2676 ], [ -4.4169, 40.2685 ], [ -4.4152, 40.27 ], [ -4.4141, 40.2701 ], [ -4.4133, 40.271 ], [ -4.4123, 40.2714 ], [ -4.4121, 40.2723 ], [ -4.411, 40.2731 ], [ -4.409, 40.274 ], [ -4.4077, 40.2737 ], [ -4.4065, 40.2759 ], [ -4.4057, 40.2763 ], [ -4.4048, 40.2771 ], [ -4.4044, 40.2777 ], [ -4.4006, 40.2819 ], [ -4.3973, 40.2846 ], [ -4.3946, 40.2862 ], [ -4.3926, 40.2869 ], [ -4.3893, 40.2867 ], [ -4.3845, 40.2883 ], [ -4.3835, 40.289 ], [ -4.384, 40.2895 ], [ -4.3845, 40.2897 ], [ -4.3851, 40.2902 ], [ -4.3852, 40.2913 ], [ -4.3848, 40.2929 ], [ -4.3849, 40.2935 ], [ -4.3848, 40.2936 ], [ -4.3848, 40.2944 ], [ -4.3846, 40.2953 ], [ -4.3835, 40.2983 ], [ -4.383, 40.2992 ], [ -4.383, 40.2995 ], [ -4.3843, 40.3001 ], [ -4.3848, 40.3002 ], [ -4.3859, 40.3008 ], [ -4.3862, 40.3007 ], [ -4.387, 40.301 ], [ -4.3872, 40.3012 ], [ -4.3863, 40.3022 ], [ -4.3853, 40.303 ], [ -4.3851, 40.3033 ], [ -4.3851, 40.3037 ], [ -4.3846, 40.3043 ], [ -4.384, 40.3047 ], [ -4.384, 40.305 ], [ -4.3837, 40.3051 ], [ -4.3834, 40.3056 ], [ -4.3839, 40.3055 ], [ -4.3866, 40.3056 ], [ -4.3873, 40.3054 ], [ -4.3879, 40.305 ], [ -4.3887, 40.3049 ], [ -4.3914, 40.3055 ], [ -4.3939, 40.305 ], [ -4.3952, 40.3051 ], [ -4.3961, 40.3049 ], [ -4.4001, 40.3045 ], [ -4.4011, 40.3042 ], [ -4.402, 40.3041 ], [ -4.4042, 40.3042 ], [ -4.4058, 40.304 ], [ -4.4082, 40.304 ], [ -4.4076, 40.3024 ], [ -4.4069, 40.3011 ], [ -4.4108, 40.2997 ], [ -4.4125, 40.3032 ], [ -4.4126, 40.3026 ], [ -4.4133, 40.301 ], [ -4.4132, 40.3006 ], [ -4.4133, 40.2995 ], [ -4.4138, 40.2989 ], [ -4.4145, 40.2986 ], [ -4.415, 40.2979 ], [ -4.4153, 40.2977 ], [ -4.42, 40.2978 ], [ -4.4229, 40.2994 ], [ -4.4234, 40.2999 ], [ -4.4233, 40.3018 ], [ -4.4234, 40.3029 ], [ -4.4227, 40.3042 ], [ -4.4228, 40.3063 ], [ -4.4232, 40.3075 ], [ -4.4235, 40.309 ], [ -4.4239, 40.3097 ], [ -4.4249, 40.3102 ], [ -4.4261, 40.3106 ], [ -4.4265, 40.3104 ], [ -4.4268, 40.31 ], [ -4.4285, 40.3098 ], [ -4.4289, 40.3094 ], [ -4.4289, 40.3092 ], [ -4.4297, 40.3085 ], [ -4.432, 40.3074 ], [ -4.431, 40.3068 ], [ -4.4318, 40.3066 ], [ -4.4315, 40.3057 ], [ -4.4303, 40.3053 ], [ -4.4303, 40.3052 ], [ -4.431, 40.305 ], [ -4.4319, 40.3041 ], [ -4.4326, 40.3036 ], [ -4.4323, 40.3034 ], [ -4.4325, 40.3032 ], [ -4.4323, 40.3026 ], [ -4.4331, 40.3025 ], [ -4.4335, 40.3022 ], [ -4.4334, 40.3018 ], [ -4.433, 40.3015 ], [ -4.4333, 40.301 ], [ -4.433, 40.3008 ], [ -4.4316, 40.3009 ], [ -4.4315, 40.3006 ], [ -4.4317, 40.3001 ], [ -4.4316, 40.3 ], [ -4.4315, 40.299 ], [ -4.4327, 40.299 ], [ -4.4336, 40.2994 ], [ -4.434, 40.2993 ], [ -4.4343, 40.2988 ], [ -4.4349, 40.2991 ], [ -4.4355, 40.2988 ], [ -4.436, 40.2972 ], [ -4.4366, 40.2964 ], [ -4.4371, 40.296 ], [ -4.4376, 40.296 ], [ -4.4379, 40.2957 ], [ -4.4387, 40.2954 ], [ -4.4389, 40.2951 ], [ -4.4387, 40.2941 ], [ -4.4389, 40.2939 ], [ -4.4409, 40.2951 ], [ -4.4408, 40.2946 ], [ -4.4409, 40.2935 ], [ -4.441, 40.2934 ], [ -4.4419, 40.2933 ], [ -4.4421, 40.2935 ], [ -4.4428, 40.2937 ], [ -4.443, 40.2937 ], [ -4.4434, 40.2934 ], [ -4.4437, 40.2935 ], [ -4.4441, 40.2934 ], [ -4.4442, 40.2939 ], [ -4.445, 40.2939 ], [ -4.4453, 40.2938 ], [ -4.4458, 40.2933 ], [ -4.4467, 40.2929 ], [ -4.4488, 40.2934 ], [ -4.4511, 40.2942 ], [ -4.4538, 40.2944 ], [ -4.4538, 40.2951 ], [ -4.4525, 40.297 ], [ -4.4521, 40.2973 ], [ -4.4504, 40.2977 ], [ -4.4487, 40.2984 ], [ -4.4481, 40.2991 ], [ -4.4483, 40.2992 ], [ -4.4477, 40.2998 ], [ -4.4479, 40.2999 ], [ -4.4476, 40.3004 ], [ -4.448, 40.3006 ], [ -4.4482, 40.3013 ], [ -4.4484, 40.3015 ], [ -4.4489, 40.3016 ], [ -4.449, 40.3019 ], [ -4.4503, 40.3017 ], [ -4.4502, 40.3015 ], [ -4.4503, 40.3014 ], [ -4.4509, 40.3014 ], [ -4.4512, 40.3018 ], [ -4.4533, 40.3024 ], [ -4.4531, 40.3027 ], [ -4.4531, 40.3038 ], [ -4.4529, 40.3041 ], [ -4.4516, 40.3043 ], [ -4.4514, 40.3045 ], [ -4.4499, 40.3047 ], [ -4.4497, 40.3047 ], [ -4.4497, 40.3046 ], [ -4.4474, 40.3045 ], [ -4.4469, 40.3046 ], [ -4.4469, 40.3047 ], [ -4.4466, 40.3047 ], [ -4.4466, 40.3046 ], [ -4.4459, 40.3048 ], [ -4.4449, 40.3048 ], [ -4.4449, 40.3051 ], [ -4.4443, 40.3051 ], [ -4.4443, 40.3053 ], [ -4.4434, 40.3061 ], [ -4.4424, 40.3064 ], [ -4.4421, 40.3053 ], [ -4.4406, 40.3057 ], [ -4.4399, 40.3056 ], [ -4.4399, 40.3052 ], [ -4.4403, 40.3047 ], [ -4.4404, 40.3043 ], [ -4.4402, 40.3043 ], [ -4.44, 40.3049 ], [ -4.4397, 40.3052 ], [ -4.4391, 40.3051 ], [ -4.4387, 40.3031 ], [ -4.4376, 40.3032 ], [ -4.437, 40.3036 ], [ -4.4373, 40.3038 ], [ -4.4373, 40.3051 ], [ -4.4355, 40.3051 ], [ -4.4352, 40.306 ], [ -4.4349, 40.306 ], [ -4.4337, 40.3065 ], [ -4.4334, 40.3065 ], [ -4.4342, 40.3081 ], [ -4.4344, 40.3082 ], [ -4.4359, 40.3104 ], [ -4.4349, 40.3111 ], [ -4.4339, 40.3122 ], [ -4.4336, 40.3129 ], [ -4.4338, 40.3141 ], [ -4.437, 40.3132 ], [ -4.4389, 40.3124 ], [ -4.4395, 40.3125 ], [ -4.4398, 40.3122 ], [ -4.4419, 40.3116 ], [ -4.4427, 40.3112 ], [ -4.4428, 40.3107 ], [ -4.4435, 40.3105 ], [ -4.444, 40.3102 ], [ -4.4448, 40.3101 ], [ -4.4453, 40.3105 ], [ -4.4459, 40.3117 ], [ -4.4462, 40.3125 ], [ -4.4461, 40.313 ], [ -4.4452, 40.3136 ], [ -4.4443, 40.314 ], [ -4.443, 40.315 ], [ -4.441, 40.3153 ], [ -4.4381, 40.3161 ], [ -4.436, 40.3171 ], [ -4.4339, 40.3179 ], [ -4.4332, 40.3178 ], [ -4.4326, 40.3169 ], [ -4.4324, 40.316 ], [ -4.4325, 40.3153 ], [ -4.4306, 40.3166 ], [ -4.4297, 40.3174 ], [ -4.4287, 40.3179 ], [ -4.425, 40.3211 ], [ -4.4247, 40.3215 ], [ -4.4246, 40.3222 ], [ -4.4249, 40.3229 ], [ -4.4272, 40.325 ], [ -4.4295, 40.3263 ], [ -4.4317, 40.3269 ], [ -4.4342, 40.3287 ], [ -4.4426, 40.3282 ], [ -4.4443, 40.3285 ] ] ] } },
{ "type": "Feature", "properties": { "municipio": "Cadalso de los Vidrios", "clasificacion": "urbanizable-sectorizado", "calificacion": "sin-asignar", "version": "vigente", "fuente": "SIT-CAM WFS — UsoDelSuelo:VPLA_V_CLASIFICACION (https://idem.comunidad.madrid/geosrvg/ows)", "fecha_dato": "2026-05-12", "ambito": "46", "_raw_CD_SIGLAS": "SUBS", "_raw_DS_CLASIF_GEN": "Suelo Urbanizable", "_raw_DS_CLASIF_DET": "Suelo Urbanizable", "_raw_DS_DOCU": "NORMAS SUBSIDIARIAS", "_raw_DS_LEY": "CM Ley 4/1984, E RD 1346/1976", "_raw_FC_AC": "1985-05-23", "_raw_NM_AREA_M2": 13638.351607553501, "_cam_code": "031" }, "geometry": { "type": "Polygon", "coordinates": [ [ [ -4.4404, 40.3041 ], [ -4.4403, 40.3047 ], [ -4.4399, 40.3052 ], [ -4.4399, 40.3056 ], [ -4.4406, 40.3057 ], [ -4.4416, 40.3054 ], [ -4.4407, 40.3043 ], [ -4.4404, 40.3041 ] ] ] } },
{ "type": "Feature", "properties": { "municipio": "Cadalso de los Vidrios", "clasificacion": "urbanizable-sectorizado", "calificacion": "sin-asignar", "version": "vigente", "fuente": "SIT-CAM WFS — UsoDelSuelo:VPLA_V_CLASIFICACION (https://idem.comunidad.madrid/geosrvg/ows)", "fecha_dato": "2026-05-12", "ambito": "46", "_raw_CD_SIGLAS": "SUBS", "_raw_DS_CLASIF_GEN": "Suelo Urbanizable", "_raw_DS_CLASIF_DET": "Suelo Urbanizable", "_raw_DS_DOCU": "NORMAS SUBSIDIARIAS", "_raw_DS_LEY": "CM Ley 4/1984, E RD 1346/1976", "_raw_FC_AC": "1985-05-23", "_raw_NM_AREA_M2": 40610.811195071597, "_cam_code": "031" }, "geometry": { "type": "Polygon", "coordinates": [ [ [ -4.4387, 40.3031 ], [ -4.4391, 40.3051 ], [ -4.4397, 40.3052 ], [ -4.44, 40.3049 ], [ -4.4402, 40.3043 ], [ -4.4396, 40.3041 ], [ -4.4397, 40.3038 ], [ -4.4395, 40.3038 ], [ -4.4391, 40.3032 ], [ -4.4392, 40.3031 ], [ -4.4391, 40.3029 ], [ -4.4395, 40.3026 ], [ -4.4398, 40.3028 ], [ -4.4399, 40.3023 ], [ -4.4394, 40.302 ], [ -4.4393, 40.3021 ], [ -4.4393, 40.302 ], [ -4.4389, 40.3018 ], [ -4.4379, 40.3024 ], [ -4.4367, 40.3027 ], [ -4.437, 40.3036 ], [ -4.4376, 40.3032 ], [ -4.4387, 40.3031 ] ] ] } },
{ "type": "Feature", "properties": { "municipio": "Cadalso de los Vidrios", "clasificacion": "urbanizable-sectorizado", "calificacion": "sin-asignar", "version": "vigente", "fuente": "SIT-CAM WFS — UsoDelSuelo:VPLA_V_CLASIFICACION (https://idem.comunidad.madrid/geosrvg/ows)", "fecha_dato": "2026-05-12", "ambito": "46", "_raw_CD_SIGLAS": "SUBS", "_raw_DS_CLASIF_GEN": "Suelo Urbanizable", "_raw_DS_CLASIF_DET": "Suelo Urbanizable", "_raw_DS_DOCU": "NORMAS SUBSIDIARIAS", "_raw_DS_LEY": "CM Ley 4/1984, E RD 1346/1976", "_raw_FC_AC": "1985-05-23", "_raw_NM_AREA_M2": 31246.212817362099, "_cam_code": "031" }, "geometry": { "type": "Polygon", "coordinates": [ [ [ -4.4462, 40.3027 ], [ -4.4446, 40.303 ], [ -4.4446, 40.3037 ], [ -4.4449, 40.3048 ], [ -4.4459, 40.3048 ], [ -4.4466, 40.3046 ], [ -4.4463, 40.3031 ], [ -4.4462, 40.3031 ], [ -4.4462, 40.3027 ] ] ] } },
{ "type": "Feature", "properties": { "municipio": "Cadalso de los Vidrios", "clasificacion": "urbano-consolidado", "calificacion": "sin-asignar", "version": "vigente", "fuente": "SIT-CAM WFS — UsoDelSuelo:VPLA_V_CLASIFICACION (https://idem.comunidad.madrid/geosrvg/ows)", "fecha_dato": "2026-05-12", "ambito": "46", "_raw_CD_SIGLAS": "SUC", "_raw_DS_CLASIF_GEN": "Suelo Urbano", "_raw_DS_CLASIF_DET": "Suelo Urbano", "_raw_DS_DOCU": "NORMAS SUBSIDIARIAS", "_raw_DS_LEY": "CM Ley 4/1984, E RD 1346/1976", "_raw_FC_AC": "1985-05-23", "_raw_NM_AREA_M2": 855784.61845300405, "_cam_code": "031" }, "geometry": { "type": "Polygon", "coordinates": [ [ [ -4.4318, 40.3066 ], [ -4.431, 40.3068 ], [ -4.432, 40.3074 ], [ -4.4323, 40.3073 ], [ -4.4329, 40.3067 ], [ -4.4349, 40.306 ], [ -4.4352, 40.306 ], [ -4.4355, 40.3051 ], [ -4.4373, 40.3051 ], [ -4.4373, 40.3038 ], [ -4.437, 40.3036 ], [ -4.4367, 40.3027 ], [ -4.4379, 40.3024 ], [ -4.4389, 40.3018 ], [ -4.4393, 40.302 ], [ -4.4393, 40.3021 ], [ -4.4394, 40.302 ], [ -4.4399, 40.3023 ], [ -4.4398, 40.3028 ], [ -4.4395, 40.3026 ], [ -4.4391, 40.3029 ], [ -4.4392, 40.3031 ], [ -4.4391, 40.3032 ], [ -4.4395, 40.3038 ], [ -4.4397, 40.3038 ], [ -4.4396, 40.3041 ], [ -4.4402, 40.3043 ], [ -4.4404, 40.3043 ], [ -4.4404, 40.3041 ], [ -4.4407, 40.3043 ], [ -4.4416, 40.3054 ], [ -4.4421, 40.3053 ], [ -4.4424, 40.3064 ], [ -4.443, 40.3063 ], [ -4.4437, 40.3059 ], [ -4.4443, 40.3053 ], [ -4.4443, 40.3051 ], [ -4.4449, 40.3051 ], [ -4.4449, 40.3047 ], [ -4.4446, 40.3037 ], [ -4.4446, 40.303 ], [ -4.4462, 40.3027 ], [ -4.4466, 40.3047 ], [ -4.4474, 40.3045 ], [ -4.4497, 40.3046 ], [ -4.4497, 40.3047 ], [ -4.4499, 40.3047 ], [ -4.4514, 40.3045 ], [ -4.4516, 40.3043 ], [ -4.4529, 40.3041 ], [ -4.4531, 40.3038 ], [ -4.4531, 40.3027 ], [ -4.4533, 40.3024 ], [ -4.4512, 40.3018 ], [ -4.4509, 40.3014 ], [ -4.4503, 40.3014 ], [ -4.4502, 40.3015 ], [ -4.4503, 40.3017 ], [ -4.449, 40.3019 ], [ -4.4489, 40.3016 ], [ -4.4484, 40.3015 ], [ -4.4482, 40.3013 ], [ -4.448, 40.3006 ], [ -4.4476, 40.3004 ], [ -4.4479, 40.2999 ], [ -4.4476, 40.2997 ], [ -4.4469, 40.2998 ], [ -4.4469, 40.2994 ], [ -4.4458, 40.2995 ], [ -4.446, 40.2998 ], [ -4.4453, 40.3002 ], [ -4.4454, 40.2999 ], [ -4.4449, 40.3 ], [ -4.4448, 40.3001 ], [ -4.4449, 40.3002 ], [ -4.4445, 40.3002 ], [ -4.4444, 40.2998 ], [ -4.4435, 40.3 ], [ -4.4423, 40.2993 ], [ -4.4423, 40.2992 ], [ -4.4417, 40.299 ], [ -4.4415, 40.2988 ], [ -4.4415, 40.2986 ], [ -4.441, 40.2986 ], [ -4.441, 40.2989 ], [ -4.4398, 40.2991 ], [ -4.4395, 40.2991 ], [ -4.4395, 40.2989 ], [ -4.439, 40.2988 ], [ -4.4387, 40.2989 ], [ -4.4383, 40.2986 ], [ -4.4384, 40.2993 ], [ -4.4367, 40.2996 ], [ -4.436, 40.2995 ], [ -4.4343, 40.2988 ], [ -4.434, 40.2993 ], [ -4.4336, 40.2994 ], [ -4.4338, 40.3002 ], [ -4.4343, 40.2997 ], [ -4.4344, 40.299 ], [ -4.4345, 40.299 ], [ -4.4354, 40.2994 ], [ -4.4353, 40.2998 ], [ -4.4346, 40.2997 ], [ -4.4349, 40.3005 ], [ -4.4348, 40.3006 ], [ -4.4337, 40.3006 ], [ -4.4333, 40.3007 ], [ -4.4333, 40.3008 ], [ -4.433, 40.3008 ], [ -4.4333, 40.301 ], [ -4.433, 40.3015 ], [ -4.4334, 40.3018 ], [ -4.4335, 40.3022 ], [ -4.4331, 40.3025 ], [ -4.4323, 40.3026 ], [ -4.4325, 40.303 ], [ -4.4325, 40.3032 ], [ -4.4323, 40.3034 ], [ -4.4326, 40.3036 ], [ -4.4319, 40.3041 ], [ -4.431, 40.305 ], [ -4.4303, 40.3052 ], [ -4.4303, 40.3053 ], [ -4.4315, 40.3057 ], [ -4.4318, 40.3066 ] ], [ [ -4.4344, 40.3035 ], [ -4.4346, 40.304 ], [ -4.4333, 40.3044 ], [ -4.4331, 40.3041 ], [ -4.4331, 40.3039 ], [ -4.4334, 40.3037 ], [ -4.4344, 40.3035 ] ], [ [ -4.434, 40.3035 ], [ -4.4337, 40.3031 ], [ -4.4333, 40.3032 ], [ -4.4341, 40.3024 ], [ -4.4345, 40.3022 ], [ -4.4349, 40.3031 ], [ -4.435, 40.3031 ], [ -4.434, 40.3035 ] ], [ [ -4.4378, 40.3023 ], [ -4.4374, 40.3016 ], [ -4.4374, 40.3014 ], [ -4.4373, 40.3014 ], [ -4.4385, 40.3013 ], [ -4.4384, 40.3019 ], [ -4.4378, 40.3023 ] ], [ [ -4.4397, 40.3006 ], [ -4.4393, 40.3007 ], [ -4.4391, 40.3005 ], [ -4.439, 40.2999 ], [ -4.4384, 40.3001 ], [ -4.4384, 40.3 ], [ -4.438, 40.2998 ], [ -4.4381, 40.2995 ], [ -4.4394, 40.2993 ], [ -4.4397, 40.3006 ] ], [ [ -4.4406, 40.2996 ], [ -4.4413, 40.2994 ], [ -4.4414, 40.2996 ], [ -4.4412, 40.2998 ], [ -4.4406, 40.3 ], [ -4.4407, 40.3 ], [ -4.4405, 40.3001 ], [ -4.4406, 40.3003 ], [ -4.4405, 40.3004 ], [ -4.4401, 40.3005 ], [ -4.4399, 40.3 ], [ -4.4405, 40.2995 ], [ -4.4406, 40.2996 ] ] ] } },
{ "type": "Feature", "properties": { "municipio": "Cadalso de los Vidrios", "clasificacion": "urbano-consolidado", "calificacion": "sin-asignar", "version": "vigente", "fuente": "SIT-CAM WFS — UsoDelSuelo:VPLA_V_CLASIFICACION (https://idem.comunidad.madrid/geosrvg/ows)", "fecha_dato": "2026-05-12", "ambito": "46", "_raw_CD_SIGLAS": "SUC", "_raw_DS_CLASIF_GEN": "Suelo Urbano", "_raw_DS_CLASIF_DET": "Suelo Urbano", "_raw_DS_DOCU": "NORMAS SUBSIDIARIAS", "_raw_DS_LEY": "CM Ley 4/1984, E RD 1346/1976", "_raw_FC_AC": "1985-05-23", "_raw_NM_AREA_M2": 283844.56232226302, "_cam_code": "031" }, "geometry": { "type": "Polygon", "coordinates": [ [ [ -4.432, 40.3129 ], [ -4.4321, 40.314 ], [ -4.4324, 40.314 ], [ -4.4333, 40.3136 ], [ -4.4335, 40.3134 ], [ -4.4335, 40.3131 ], [ -4.4339, 40.3122 ], [ -4.4349, 40.3111 ], [ -4.4359, 40.3104 ], [ -4.4344, 40.3082 ], [ -4.4342, 40.3081 ], [ -4.4334, 40.3065 ], [ -4.4327, 40.3068 ], [ -4.4323, 40.3073 ], [ -4.4297, 40.3085 ], [ -4.4289, 40.3092 ], [ -4.4289, 40.3094 ], [ -4.4285, 40.3098 ], [ -4.4268, 40.31 ], [ -4.4265, 40.3104 ], [ -4.4261, 40.3106 ], [ -4.4261, 40.3107 ], [ -4.427, 40.3108 ], [ -4.4282, 40.3108 ], [ -4.4288, 40.3111 ], [ -4.4305, 40.3114 ], [ -4.431, 40.3117 ], [ -4.4318, 40.3126 ], [ -4.4317, 40.3126 ], [ -4.4317, 40.3128 ], [ -4.432, 40.3129 ] ] ] } },
{ "type": "Feature", "properties": { "municipio": "Cadalso de los Vidrios", "clasificacion": "urbano-consolidado", "calificacion": "sin-asignar", "version": "vigente", "fuente": "SIT-CAM WFS — UsoDelSuelo:VPLA_V_CLASIFICACION (https://idem.comunidad.madrid/geosrvg/ows)", "fecha_dato": "2026-05-12", "ambito": "46", "_raw_CD_SIGLAS": "SUC", "_raw_DS_CLASIF_GEN": "Suelo Urbano", "_raw_DS_CLASIF_DET": "Suelo Urbano", "_raw_DS_DOCU": "NORMAS SUBSIDIARIAS", "_raw_DS_LEY": "CM Ley 4/1984, E RD 1346/1976", "_raw_FC_AC": "1985-05-23", "_raw_NM_AREA_M2": 1583655.2337769701, "_cam_code": "031" }, "geometry": { "type": "Polygon", "coordinates": [ [ [ -4.465, 40.3184 ], [ -4.4673, 40.3202 ], [ -4.4725, 40.3203 ], [ -4.472, 40.3187 ], [ -4.4707, 40.3177 ], [ -4.4695, 40.3174 ], [ -4.4686, 40.3175 ], [ -4.4686, 40.3178 ], [ -4.4671, 40.3172 ], [ -4.4671, 40.3173 ], [ -4.4666, 40.3175 ], [ -4.4662, 40.3173 ], [ -4.4664, 40.317 ], [ -4.4663, 40.3167 ], [ -4.4664, 40.3162 ], [ -4.4671, 40.3154 ], [ -4.4671, 40.3149 ], [ -4.4683, 40.315 ], [ -4.4684, 40.3151 ], [ -4.4689, 40.315 ], [ -4.4688, 40.3147 ], [ -4.4689, 40.3136 ], [ -4.4686, 40.3133 ], [ -4.4679, 40.313 ], [ -4.4674, 40.3124 ], [ -4.4673, 40.3118 ], [ -4.467, 40.3112 ], [ -4.4669, 40.3096 ], [ -4.4661, 40.3086 ], [ -4.4657, 40.3087 ], [ -4.4654, 40.309 ], [ -4.4649, 40.309 ], [ -4.4644, 40.3086 ], [ -4.4631, 40.3086 ], [ -4.4628, 40.3085 ], [ -4.4625, 40.3086 ], [ -4.4621, 40.3082 ], [ -4.4613, 40.3084 ], [ -4.4608, 40.308 ], [ -4.4605, 40.3083 ], [ -4.46, 40.3082 ], [ -4.4597, 40.3083 ], [ -4.4575, 40.3079 ], [ -4.4557, 40.3082 ], [ -4.4551, 40.3081 ], [ -4.454, 40.3082 ], [ -4.4532, 40.3081 ], [ -4.4529, 40.3082 ], [ -4.4524, 40.308 ], [ -4.4518, 40.3081 ], [ -4.4524, 40.3115 ], [ -4.4523, 40.3115 ], [ -4.4525, 40.3116 ], [ -4.4528, 40.3126 ], [ -4.4532, 40.3129 ], [ -4.4534, 40.3133 ], [ -4.4537, 40.3144 ], [ -4.4517, 40.3155 ], [ -4.4513, 40.3176 ], [ -4.4522, 40.3181 ], [ -4.4521, 40.318 ], [ -4.453, 40.3183 ], [ -4.4538, 40.3183 ], [ -4.4538, 40.3184 ], [ -4.4541, 40.3184 ], [ -4.4541, 40.3185 ], [ -4.4543, 40.3185 ], [ -4.4547, 40.3188 ], [ -4.4553, 40.319 ], [ -4.4554, 40.3189 ], [ -4.4553, 40.3186 ], [ -4.4564, 40.3184 ], [ -4.4579, 40.3185 ], [ -4.4586, 40.3188 ], [ -4.4588, 40.3187 ], [ -4.4613, 40.3186 ], [ -4.4617, 40.3189 ], [ -4.462, 40.3189 ], [ -4.4623, 40.3187 ], [ -4.4631, 40.3188 ], [ -4.4638, 40.3185 ], [ -4.465, 40.3184 ] ] ] } },
{ "type": "Feature", "properties": { "municipio": "Cadalso de los Vidrios", "clasificacion": "urbano-no-consolidado", "calificacion": "sin-asignar", "version": "vigente", "fuente": "SIT-CAM WFS — UsoDelSuelo:VPLA_V_CLASIFICACION (https://idem.comunidad.madrid/geosrvg/ows)", "fecha_dato": "2026-05-12", "ambito": "46", "_raw_CD_SIGLAS": "SUNC", "_raw_DS_CLASIF_GEN": "Suelo Urbano", "_raw_DS_CLASIF_DET": "Suelo Urbano", "_raw_DS_DOCU": "NORMAS SUBSIDIARIAS", "_raw_DS_LEY": "CM Ley 4/1984, E RD 1346/1976", "_raw_FC_AC": "1985-05-23", "_raw_NM_AREA_M2": 4750.5132673611097, "_cam_code": "031" }, "geometry": { "type": "Polygon", "coordinates": [ [ [ -4.445, 40.2995 ], [ -4.4454, 40.2999 ], [ -4.4453, 40.3002 ], [ -4.446, 40.2998 ], [ -4.4455, 40.2992 ], [ -4.445, 40.2992 ], [ -4.4451, 40.2995 ], [ -4.445, 40.2995 ] ] ] } },
{ "type": "Feature", "properties": { "municipio": "Cadalso de los Vidrios", "clasificacion": "urbano-no-consolidado", "calificacion": "sin-asignar", "version": "vigente", "fuente": "SIT-CAM WFS — UsoDelSuelo:VPLA_V_CLASIFICACION (https://idem.comunidad.madrid/geosrvg/ows)", "fecha_dato": "2026-05-12", "ambito": "46", "_raw_CD_SIGLAS": "SUNC", "_raw_DS_CLASIF_GEN": "Suelo Urbano", "_raw_DS_CLASIF_DET": "Suelo Urbano", "_raw_DS_DOCU": "NORMAS SUBSIDIARIAS", "_raw_DS_LEY": "CM Ley 4/1984, E RD 1346/1976", "_raw_FC_AC": "1985-05-23", "_raw_NM_AREA_M2": 7183.4686769738501, "_cam_code": "031" }, "geometry": { "type": "Polygon", "coordinates": [ [ [ -4.4344, 40.3035 ], [ -4.4334, 40.3037 ], [ -4.4331, 40.3039 ], [ -4.4331, 40.3041 ], [ -4.4333, 40.3044 ], [ -4.4346, 40.304 ], [ -4.4344, 40.3035 ] ] ] } },
{ "type": "Feature", "properties": { "municipio": "Cadalso de los Vidrios", "clasificacion": "urbano-no-consolidado", "calificacion": "sin-asignar", "version": "vigente", "fuente": "SIT-CAM WFS — UsoDelSuelo:VPLA_V_CLASIFICACION (https://idem.comunidad.madrid/geosrvg/ows)", "fecha_dato": "2026-05-12", "ambito": "46", "_raw_CD_SIGLAS": "SUNC", "_raw_DS_CLASIF_GEN": "Suelo Urbano", "_raw_DS_CLASIF_DET": "Suelo Urbano", "_raw_DS_DOCU": "NORMAS SUBSIDIARIAS", "_raw_DS_LEY": "CM Ley 4/1984, E RD 1346/1976", "_raw_FC_AC": "1985-05-23", "_raw_NM_AREA_M2": 9655.5022470505191, "_cam_code": "031" }, "geometry": { "type": "Polygon", "coordinates": [ [ [ -4.4338, 40.3032 ], [ -4.4339, 40.3035 ], [ -4.4341, 40.3035 ], [ -4.435, 40.3031 ], [ -4.4349, 40.3031 ], [ -4.4345, 40.3022 ], [ -4.4341, 40.3024 ], [ -4.4333, 40.3032 ], [ -4.4335, 40.3031 ], [ -4.4338, 40.3032 ] ] ] } },
{ "type": "Feature", "properties": { "municipio": "Cadalso de los Vidrios", "clasificacion": "urbano-no-consolidado", "calificacion": "sin-asignar", "version": "vigente", "fuente": "SIT-CAM WFS — UsoDelSuelo:VPLA_V_CLASIFICACION (https://idem.comunidad.madrid/geosrvg/ows)", "fecha_dato": "2026-05-12", "ambito": "46", "_raw_CD_SIGLAS": "SUNC", "_raw_DS_CLASIF_GEN": "Suelo Urbano", "_raw_DS_CLASIF_DET": "Suelo Urbano", "_raw_DS_DOCU": "NORMAS SUBSIDIARIAS", "_raw_DS_LEY": "CM Ley 4/1984, E RD 1346/1976", "_raw_FC_AC": "1985-05-23", "_raw_NM_AREA_M2": 6921.6455629825396, "_cam_code": "031" }, "geometry": { "type": "Polygon", "coordinates": [ [ [ -4.4385, 40.3013 ], [ -4.4373, 40.3014 ], [ -4.4374, 40.3014 ], [ -4.4374, 40.3016 ], [ -4.4378, 40.3023 ], [ -4.438, 40.3021 ], [ -4.4382, 40.3021 ], [ -4.4385, 40.3017 ], [ -4.4385, 40.3013 ] ] ] } },
{ "type": "Feature", "properties": { "municipio": "Cadalso de los Vidrios", "clasificacion": "urbano-no-consolidado", "calificacion": "sin-asignar", "version": "vigente", "fuente": "SIT-CAM WFS — UsoDelSuelo:VPLA_V_CLASIFICACION (https://idem.comunidad.madrid/geosrvg/ows)", "fecha_dato": "2026-05-12", "ambito": "46", "_raw_CD_SIGLAS": "SUNC", "_raw_DS_CLASIF_GEN": "Suelo Urbano", "_raw_DS_CLASIF_DET": "Suelo Urbano", "_raw_DS_DOCU": "NORMAS SUBSIDIARIAS", "_raw_DS_LEY": "CM Ley 4/1984, E RD 1346/1976", "_raw_FC_AC": "1985-05-23", "_raw_NM_AREA_M2": 46467.2493825333, "_cam_code": "031" }, "geometry": { "type": "Polygon", "coordinates": [ [ [ -4.4316, 40.3009 ], [ -4.4333, 40.3008 ], [ -4.4333, 40.3007 ], [ -4.4337, 40.3006 ], [ -4.4348, 40.3006 ], [ -4.4349, 40.3005 ], [ -4.4346, 40.2997 ], [ -4.4353, 40.2998 ], [ -4.4354, 40.2994 ], [ -4.4344, 40.299 ], [ -4.4343, 40.2997 ], [ -4.4338, 40.3002 ], [ -4.4337, 40.2995 ], [ -4.4335, 40.2993 ], [ -4.4327, 40.299 ], [ -4.4315, 40.299 ], [ -4.4316, 40.3 ], [ -4.4317, 40.3001 ], [ -4.4315, 40.3006 ], [ -4.4316, 40.3009 ] ] ] } },
{ "type": "Feature", "properties": { "municipio": "Cadalso de los Vidrios", "clasificacion": "urbano-no-consolidado", "calificacion": "sin-asignar", "version": "vigente", "fuente": "SIT-CAM WFS — UsoDelSuelo:VPLA_V_CLASIFICACION (https://idem.comunidad.madrid/geosrvg/ows)", "fecha_dato": "2026-05-12", "ambito": "46", "_raw_CD_SIGLAS": "SUNC", "_raw_DS_CLASIF_GEN": "Suelo Urbano", "_raw_DS_CLASIF_DET": "Suelo Urbano", "_raw_DS_DOCU": "NORMAS SUBSIDIARIAS", "_raw_DS_LEY": "CM Ley 4/1984, E RD 1346/1976", "_raw_FC_AC": "1985-05-23", "_raw_NM_AREA_M2": 10759.127573150799, "_cam_code": "031" }, "geometry": { "type": "Polygon", "coordinates": [ [ [ -4.439, 40.2999 ], [ -4.4391, 40.3005 ], [ -4.4393, 40.3007 ], [ -4.4397, 40.3006 ], [ -4.4394, 40.2993 ], [ -4.4381, 40.2995 ], [ -4.4381, 40.2997 ], [ -4.438, 40.2997 ], [ -4.4384, 40.3001 ], [ -4.439, 40.2999 ] ] ] } },
{ "type": "Feature", "properties": { "municipio": "Cadalso de los Vidrios", "clasificacion": "urbano-no-consolidado", "calificacion": "sin-asignar", "version": "vigente", "fuente": "SIT-CAM WFS — UsoDelSuelo:VPLA_V_CLASIFICACION (https://idem.comunidad.madrid/geosrvg/ows)", "fecha_dato": "2026-05-12", "ambito": "46", "_raw_CD_SIGLAS": "SUNC", "_raw_DS_CLASIF_GEN": "Suelo Urbano", "_raw_DS_CLASIF_DET": "Suelo Urbano", "_raw_DS_DOCU": "NORMAS SUBSIDIARIAS", "_raw_DS_LEY": "CM Ley 4/1984, E RD 1346/1976", "_raw_FC_AC": "1985-05-23", "_raw_NM_AREA_M2": 6878.9859415806104, "_cam_code": "031" }, "geometry": { "type": "Polygon", "coordinates": [ [ [ -4.4401, 40.3005 ], [ -4.4405, 40.3004 ], [ -4.4406, 40.3003 ], [ -4.4405, 40.3001 ], [ -4.4407, 40.3 ], [ -4.4406, 40.3 ], [ -4.4412, 40.2998 ], [ -4.4414, 40.2996 ], [ -4.4413, 40.2994 ], [ -4.4406, 40.2996 ], [ -4.4405, 40.2995 ], [ -4.4399, 40.3 ], [ -4.4401, 40.2998 ], [ -4.4399, 40.3 ], [ -4.4401, 40.3005 ] ] ] } }
]
}
