{
"type": "FeatureCollection",
"name": "vigente.full",
"features": [
{ "type": "Feature", "properties": { "municipio": "Redueña", "clasificacion": "no-urbanizable-protegido", "calificacion": "sin-asignar", "version": "vigente", "fuente": "SIT-CAM WFS — UsoDelSuelo:VPLA_V_CLASIFICACION (https://idem.comunidad.madrid/geosrvg/ows)", "fecha_dato": "2026-05-12", "ambito": "56130", "_raw_CD_SIGLAS": "SNUP", "_raw_DS_CLASIF_GEN": "Suelo No Urbanizable Protegido", "_raw_DS_CLASIF_DET": "Suelo no Urbanizable Especialmente Protegido por su interés Agropecuario", "_raw_DS_DOCU": "NORMAS SUBSIDIARIAS", "_raw_DS_LEY": "CM Ley 9/2001, E Ley 6/1998", "_raw_FC_AC": "2004-02-24", "_raw_NM_AREA_M2": 9626.8873564302503, "_cam_code": "121" }, "geometry": { "type": "Polygon", "coordinates": [ [ [ -3.5955, 40.8021 ], [ -3.6006, 40.8023 ], [ -3.6012, 40.8024 ], [ -3.6017, 40.8026 ], [ -3.6003, 40.802 ], [ -3.5967, 40.8021 ], [ -3.5953, 40.8019 ], [ -3.5945, 40.8016 ], [ -3.5938, 40.8011 ], [ -3.5945, 40.8018 ], [ -3.5955, 40.8021 ] ] ] } },
{ "type": "Feature", "properties": { "municipio": "Redueña", "clasificacion": "no-urbanizable-protegido", "calificacion": "sin-asignar", "version": "vigente", "fuente": "SIT-CAM WFS — UsoDelSuelo:VPLA_V_CLASIFICACION (https://idem.comunidad.madrid/geosrvg/ows)", "fecha_dato": "2026-05-12", "ambito": "56130", "_raw_CD_SIGLAS": "SNUP", "_raw_DS_CLASIF_GEN": "Suelo No Urbanizable Protegido", "_raw_DS_CLASIF_DET": "Suelo no Urbanizable Especialmente Protegido por su interés Forestal", "_raw_DS_DOCU": "NORMAS SUBSIDIARIAS", "_raw_DS_LEY": "CM Ley 9/2001, E Ley 6/1998", "_raw_FC_AC": "2004-02-24", "_raw_NM_AREA_M2": 49444.507628165702, "_cam_code": "121" }, "geometry": { "type": "Polygon", "coordinates": [ [ [ -3.5834, 40.7939 ], [ -3.5844, 40.794 ], [ -3.5857, 40.7945 ], [ -3.5862, 40.7945 ], [ -3.5874, 40.7943 ], [ -3.5881, 40.794 ], [ -3.5887, 40.7935 ], [ -3.5878, 40.793 ], [ -3.5868, 40.7928 ], [ -3.5834, 40.7938 ], [ -3.5828, 40.794 ], [ -3.5828, 40.7941 ], [ -3.5834, 40.7939 ] ] ] } },
{ "type": "Feature", "properties": { "municipio": "Redueña", "clasificacion": "no-urbanizable-protegido", "calificacion": "sin-asignar", "version": "vigente", "fuente": "SIT-CAM WFS — UsoDelSuelo:VPLA_V_CLASIFICACION (https://idem.comunidad.madrid/geosrvg/ows)", "fecha_dato": "2026-05-12", "ambito": "56130", "_raw_CD_SIGLAS": "SNUP", "_raw_DS_CLASIF_GEN": "Suelo No Urbanizable Protegido", "_raw_DS_CLASIF_DET": "Suelo no Urbanizable Especialmente Protegido por su interés Forestal", "_raw_DS_DOCU": "NORMAS SUBSIDIARIAS", "_raw_DS_LEY": "CM Ley 9/2001, E Ley 6/1998", "_raw_FC_AC": "2004-02-24", "_raw_NM_AREA_M2": 61570.386220444001, "_cam_code": "121" }, "geometry": { "type": "Polygon", "coordinates": [ [ [ -3.5757, 40.7939 ], [ -3.5768, 40.7946 ], [ -3.5777, 40.7949 ], [ -3.5783, 40.7949 ], [ -3.5792, 40.7946 ], [ -3.5798, 40.7942 ], [ -3.5806, 40.7941 ], [ -3.5816, 40.7942 ], [ -3.5807, 40.7938 ], [ -3.5805, 40.7935 ], [ -3.5801, 40.7933 ], [ -3.5794, 40.7932 ], [ -3.5783, 40.7934 ], [ -3.5753, 40.793 ], [ -3.5754, 40.7935 ], [ -3.5757, 40.7939 ] ] ] } },
{ "type": "Feature", "properties": { "municipio": "Redueña", "clasificacion": "no-urbanizable-protegido", "calificacion": "sin-asignar", "version": "vigente", "fuente": "SIT-CAM WFS — UsoDelSuelo:VPLA_V_CLASIFICACION (https://idem.comunidad.madrid/geosrvg/ows)", "fecha_dato": "2026-05-12", "ambito": "56130", "_raw_CD_SIGLAS": "SNUP", "_raw_DS_CLASIF_GEN": "Suelo No Urbanizable Protegido", "_raw_DS_CLASIF_DET": "Suelo no Urbanizable Especialmente Protegido por su interés Forestal", "_raw_DS_DOCU": "NORMAS SUBSIDIARIAS", "_raw_DS_LEY": "CM Ley 9/2001, E Ley 6/1998", "_raw_FC_AC": "2004-02-24", "_raw_NM_AREA_M2": 5251.1416321549996, "_cam_code": "121" }, "geometry": { "type": "Polygon", "coordinates": [ [ [ -3.5935, 40.7973 ], [ -3.5935, 40.7991 ], [ -3.5937, 40.7998 ], [ -3.5937, 40.8012 ], [ -3.5942, 40.8017 ], [ -3.5945, 40.8018 ], [ -3.5938, 40.8012 ], [ -3.5939, 40.8001 ], [ -3.5935, 40.7973 ] ] ] } },
{ "type": "Feature", "properties": { "municipio": "Redueña", "clasificacion": "no-urbanizable-protegido", "calificacion": "sin-asignar", "version": "vigente", "fuente": "SIT-CAM WFS — UsoDelSuelo:VPLA_V_CLASIFICACION (https://idem.comunidad.madrid/geosrvg/ows)", "fecha_dato": "2026-05-12", "ambito": "56130", "_raw_CD_SIGLAS": "SNUP", "_raw_DS_CLASIF_GEN": "Suelo No Urbanizable Protegido", "_raw_DS_CLASIF_DET": "Suelo no Urbanizable Especialmente Protegido por su interés Forestal", "_raw_DS_DOCU": "NORMAS SUBSIDIARIAS", "_raw_DS_LEY": "CM Ley 9/2001, E Ley 6/1998", "_raw_FC_AC": "2004-02-24", "_raw_NM_AREA_M2": 11972.314877618899, "_cam_code": "121" }, "geometry": { "type": "Polygon", "coordinates": [ [ [ -3.585, 40.8015 ], [ -3.5845, 40.8017 ], [ -3.586, 40.8036 ], [ -3.586, 40.8031 ], [ -3.5856, 40.8017 ], [ -3.5855, 40.8015 ], [ -3.585, 40.8015 ] ] ] } },
{ "type": "Feature", "properties": { "municipio": "Redueña", "clasificacion": "no-urbanizable-protegido", "calificacion": "sin-asignar", "version": "vigente", "fuente": "SIT-CAM WFS — UsoDelSuelo:VPLA_V_CLASIFICACION (https://idem.comunidad.madrid/geosrvg/ows)", "fecha_dato": "2026-05-12", "ambito": "56130", "_raw_CD_SIGLAS": "SNUP", "_raw_DS_CLASIF_GEN": "Suelo No Urbanizable Protegido", "_raw_DS_CLASIF_DET": "Suelo no Urbanizable Especialmente Protegido Cauces y Riberas", "_raw_DS_DOCU": "NORMAS SUBSIDIARIAS", "_raw_DS_LEY": "CM Ley 9/2001, E Ley 6/1998", "_raw_FC_AC": "2004-02-24", "_raw_NM_AREA_M2": 3500.6636726144202, "_cam_code": "121" }, "geometry": { "type": "Polygon", "coordinates": [ [ [ -3.6043, 40.8046 ], [ -3.6039, 40.805 ], [ -3.6043, 40.8054 ], [ -3.6048, 40.8051 ], [ -3.6043, 40.8046 ] ] ] } },
{ "type": "Feature", "properties": { "municipio": "Redueña", "clasificacion": "no-urbanizable-protegido", "calificacion": "sin-asignar", "version": "vigente", "fuente": "SIT-CAM WFS — UsoDelSuelo:VPLA_V_CLASIFICACION (https://idem.comunidad.madrid/geosrvg/ows)", "fecha_dato": "2026-05-12", "ambito": "56130", "_raw_CD_SIGLAS": "SNUP", "_raw_DS_CLASIF_GEN": "Suelo No Urbanizable Protegido", "_raw_DS_CLASIF_DET": "Suelo no Urbanizable Especialmente Protegido Cauces y Riberas", "_raw_DS_DOCU": "NORMAS SUBSIDIARIAS", "_raw_DS_LEY": "CM Ley 9/2001, E Ley 6/1998", "_raw_FC_AC": "2004-02-24", "_raw_NM_AREA_M2": 934.62171141061197, "_cam_code": "121" }, "geometry": { "type": "Polygon", "coordinates": [ [ [ -3.6039, 40.8051 ], [ -3.6038, 40.8057 ], [ -3.6042, 40.8054 ], [ -3.6039, 40.8051 ] ] ] } },
{ "type": "Feature", "properties": { "municipio": "Redueña", "clasificacion": "no-urbanizable-protegido", "calificacion": "sin-asignar", "version": "vigente", "fuente": "SIT-CAM WFS — UsoDelSuelo:VPLA_V_CLASIFICACION (https://idem.comunidad.madrid/geosrvg/ows)", "fecha_dato": "2026-05-12", "ambito": "56130", "_raw_CD_SIGLAS": "SNUP", "_raw_DS_CLASIF_GEN": "Suelo No Urbanizable Protegido", "_raw_DS_CLASIF_DET": "Suelo no Urbanizable Especialmente Protegido Cauces y Riberas", "_raw_DS_DOCU": "NORMAS SUBSIDIARIAS", "_raw_DS_LEY": "CM Ley 9/2001, E Ley 6/1998", "_raw_FC_AC": "2004-02-24", "_raw_NM_AREA_M2": 71370.170870188696, "_cam_code": "121" }, "geometry": { "type": "Polygon", "coordinates": [ [ [ -3.5992, 40.8077 ], [ -3.5987, 40.8084 ], [ -3.5983, 40.8097 ], [ -3.5974, 40.8101 ], [ -3.5968, 40.8112 ], [ -3.5965, 40.8113 ], [ -3.5964, 40.8116 ], [ -3.5955, 40.8126 ], [ -3.5949, 40.8127 ], [ -3.5958, 40.8131 ], [ -3.5993, 40.8136 ], [ -3.6004, 40.8139 ], [ -3.5992, 40.8135 ], [ -3.5971, 40.8132 ], [ -3.5964, 40.8128 ], [ -3.5975, 40.8117 ], [ -3.5978, 40.8117 ], [ -3.5981, 40.811 ], [ -3.5989, 40.8104 ], [ -3.5993, 40.8104 ], [ -3.5999, 40.8099 ], [ -3.5998, 40.8088 ], [ -3.6, 40.8081 ], [ -3.5996, 40.8078 ], [ -3.5992, 40.8077 ] ] ] } },
{ "type": "Feature", "properties": { "municipio": "Redueña", "clasificacion": "no-urbanizable-protegido", "calificacion": "sin-asignar", "version": "vigente", "fuente": "SIT-CAM WFS — UsoDelSuelo:VPLA_V_CLASIFICACION (https://idem.comunidad.madrid/geosrvg/ows)", "fecha_dato": "2026-05-12", "ambito": "56130", "_raw_CD_SIGLAS": "SNUP", "_raw_DS_CLASIF_GEN": "Suelo No Urbanizable Protegido", "_raw_DS_CLASIF_DET": "Suelo no Urbanizable Especialmente Protegido Cauces y Riberas", "_raw_DS_DOCU": "NORMAS SUBSIDIARIAS", "_raw_DS_LEY": "CM Ley 9/2001, E Ley 6/1998", "_raw_FC_AC": "2004-02-24", "_raw_NM_AREA_M2": 14411.6498569582, "_cam_code": "121" }, "geometry": { "type": "Polygon", "coordinates": [ [ [ -3.5946, 40.8135 ], [ -3.595, 40.8147 ], [ -3.5953, 40.8151 ], [ -3.5962, 40.8157 ], [ -3.5963, 40.8154 ], [ -3.5958, 40.8151 ], [ -3.5952, 40.814 ], [ -3.5953, 40.8139 ], [ -3.5952, 40.8134 ], [ -3.5958, 40.8133 ], [ -3.5952, 40.8131 ], [ -3.5943, 40.8132 ], [ -3.594, 40.8134 ], [ -3.594, 40.8136 ], [ -3.5942, 40.8135 ], [ -3.5946, 40.8135 ] ] ] } },
{ "type": "Feature", "properties": { "municipio": "Redueña", "clasificacion": "no-urbanizable-protegido", "calificacion": "sin-asignar", "version": "vigente", "fuente": "SIT-CAM WFS — UsoDelSuelo:VPLA_V_CLASIFICACION (https://idem.comunidad.madrid/geosrvg/ows)", "fecha_dato": "2026-05-12", "ambito": "56130", "_raw_CD_SIGLAS": "SNUP", "_raw_DS_CLASIF_GEN": "Suelo No Urbanizable Protegido", "_raw_DS_CLASIF_DET": "Suelo no Urbanizable Especialmente Protegido Cauces y Riberas", "_raw_DS_DOCU": "NORMAS SUBSIDIARIAS", "_raw_DS_LEY": "CM Ley 9/2001, E Ley 6/1998", "_raw_FC_AC": "2004-02-24", "_raw_NM_AREA_M2": 7140.36821068883, "_cam_code": "121" }, "geometry": { "type": "Polygon", "coordinates": [ [ [ -3.5997, 40.8141 ], [ -3.6024, 40.815 ], [ -3.6034, 40.8156 ], [ -3.6037, 40.816 ], [ -3.6037, 40.8159 ], [ -3.604, 40.8158 ], [ -3.604, 40.8155 ], [ -3.6038, 40.8155 ], [ -3.6038, 40.8153 ], [ -3.6011, 40.8144 ], [ -3.6003, 40.8142 ], [ -3.5997, 40.8141 ] ] ] } },
{ "type": "Feature", "properties": { "municipio": "Redueña", "clasificacion": "no-urbanizable-protegido", "calificacion": "sin-asignar", "version": "vigente", "fuente": "SIT-CAM WFS — UsoDelSuelo:VPLA_V_CLASIFICACION (https://idem.comunidad.madrid/geosrvg/ows)", "fecha_dato": "2026-05-12", "ambito": "56130", "_raw_CD_SIGLAS": "SNUP", "_raw_DS_CLASIF_GEN": "Suelo No Urbanizable Protegido", "_raw_DS_CLASIF_DET": "Suelo no Urbanizable Especialmente Protegido Cauces y Riberas", "_raw_DS_DOCU": "NORMAS SUBSIDIARIAS", "_raw_DS_LEY": "CM Ley 9/2001, E Ley 6/1998", "_raw_FC_AC": "2004-02-24", "_raw_NM_AREA_M2": 10649.862505520699, "_cam_code": "121" }, "geometry": { "type": "Polygon", "coordinates": [ [ [ -3.5928, 40.8142 ], [ -3.5915, 40.8144 ], [ -3.5903, 40.8153 ], [ -3.5887, 40.8161 ], [ -3.5882, 40.8167 ], [ -3.5888, 40.8162 ], [ -3.5899, 40.816 ], [ -3.5904, 40.8157 ], [ -3.5908, 40.8151 ], [ -3.5928, 40.8142 ] ] ] } },
{ "type": "Feature", "properties": { "municipio": "Redueña", "clasificacion": "no-urbanizable-protegido", "calificacion": "sin-asignar", "version": "vigente", "fuente": "SIT-CAM WFS — UsoDelSuelo:VPLA_V_CLASIFICACION (https://idem.comunidad.madrid/geosrvg/ows)", "fecha_dato": "2026-05-12", "ambito": "56130", "_raw_CD_SIGLAS": "SNUP", "_raw_DS_CLASIF_GEN": "Suelo No Urbanizable Protegido", "_raw_DS_CLASIF_DET": "Suelo no Urbanizable Especialmente Protegido Cauces y Riberas", "_raw_DS_DOCU": "NORMAS SUBSIDIARIAS", "_raw_DS_LEY": "CM Ley 9/2001, E Ley 6/1998", "_raw_FC_AC": "2004-02-24", "_raw_NM_AREA_M2": 129758.42495057599, "_cam_code": "121" }, "geometry": { "type": "Polygon", "coordinates": [ [ [ -3.5736, 40.8195 ], [ -3.5737, 40.8197 ], [ -3.5754, 40.8199 ], [ -3.5765, 40.8203 ], [ -3.5773, 40.8204 ], [ -3.5804, 40.8196 ], [ -3.5806, 40.8193 ], [ -3.5812, 40.819 ], [ -3.5821, 40.8183 ], [ -3.5842, 40.8175 ], [ -3.586, 40.8178 ], [ -3.5871, 40.8175 ], [ -3.5869, 40.8167 ], [ -3.5866, 40.817 ], [ -3.5846, 40.8169 ], [ -3.5818, 40.8176 ], [ -3.5812, 40.8175 ], [ -3.5796, 40.8189 ], [ -3.5792, 40.8189 ], [ -3.5778, 40.8195 ], [ -3.5774, 40.8195 ], [ -3.5763, 40.8187 ], [ -3.5735, 40.8183 ], [ -3.5732, 40.8193 ], [ -3.5736, 40.8195 ] ] ] } },
{ "type": "Feature", "properties": { "municipio": "Redueña", "clasificacion": "no-urbanizable-protegido", "calificacion": "sin-asignar", "version": "vigente", "fuente": "SIT-CAM WFS — UsoDelSuelo:VPLA_V_CLASIFICACION (https://idem.comunidad.madrid/geosrvg/ows)", "fecha_dato": "2026-05-12", "ambito": "56130", "_raw_CD_SIGLAS": "SNUP", "_raw_DS_CLASIF_GEN": "Suelo No Urbanizable Protegido", "_raw_DS_CLASIF_DET": "Suelo no Urbanizable Especialmente Protegido por su interés Agropecuario", "_raw_DS_DOCU": "NORMAS SUBSIDIARIAS", "_raw_DS_LEY": "CM Ley 9/2001, E Ley 6/1998", "_raw_FC_AC": "2004-02-24", "_raw_NM_AREA_M2": 9267.1693944602303, "_cam_code": "121" }, "geometry": { "type": "Polygon", "coordinates": [ [ [ -3.595, 40.8021 ], [ -3.5973, 40.8026 ], [ -3.6002, 40.8023 ], [ -3.5966, 40.8023 ], [ -3.595, 40.8021 ] ] ] } },
{ "type": "Feature", "properties": { "municipio": "Redueña", "clasificacion": "no-urbanizable-protegido", "calificacion": "sin-asignar", "version": "vigente", "fuente": "SIT-CAM WFS — UsoDelSuelo:VPLA_V_CLASIFICACION (https://idem.comunidad.madrid/geosrvg/ows)", "fecha_dato": "2026-05-12", "ambito": "56130", "_raw_CD_SIGLAS": "SNUP", "_raw_DS_CLASIF_GEN": "Suelo No Urbanizable Protegido", "_raw_DS_CLASIF_DET": "Suelo no Urbanizable Especialmente Protegido por su interés Agropecuario", "_raw_DS_DOCU": "NORMAS SUBSIDIARIAS", "_raw_DS_LEY": "CM Ley 9/2001, E Ley 6/1998", "_raw_FC_AC": "2004-02-24", "_raw_NM_AREA_M2": 11169.377572445201, "_cam_code": "121" }, "geometry": { "type": "Polygon", "coordinates": [ [ [ -3.6048, 40.8051 ], [ -3.6043, 40.8054 ], [ -3.6046, 40.8056 ], [ -3.6051, 40.8067 ], [ -3.6059, 40.8064 ], [ -3.6048, 40.8051 ] ] ] } },
{ "type": "Feature", "properties": { "municipio": "Redueña", "clasificacion": "no-urbanizable-protegido", "calificacion": "sin-asignar", "version": "vigente", "fuente": "SIT-CAM WFS — UsoDelSuelo:VPLA_V_CLASIFICACION (https://idem.comunidad.madrid/geosrvg/ows)", "fecha_dato": "2026-05-12", "ambito": "56130", "_raw_CD_SIGLAS": "SNUP", "_raw_DS_CLASIF_GEN": "Suelo No Urbanizable Protegido", "_raw_DS_CLASIF_DET": "Suelo no Urbanizable Especialmente Protegido por su interés Forestal", "_raw_DS_DOCU": "NORMAS SUBSIDIARIAS", "_raw_DS_LEY": "CM Ley 9/2001, E Ley 6/1998", "_raw_FC_AC": "2004-02-24", "_raw_NM_AREA_M2": 29358.568968257001, "_cam_code": "121" }, "geometry": { "type": "Polygon", "coordinates": [ [ [ -3.6113, 40.8092 ], [ -3.6118, 40.8092 ], [ -3.6124, 40.8098 ], [ -3.6123, 40.8092 ], [ -3.6119, 40.809 ], [ -3.6102, 40.8087 ], [ -3.6097, 40.8084 ], [ -3.6088, 40.8085 ], [ -3.6065, 40.8081 ], [ -3.6058, 40.8075 ], [ -3.6054, 40.8075 ], [ -3.6065, 40.8084 ], [ -3.6073, 40.8086 ], [ -3.6079, 40.8089 ], [ -3.6095, 40.8092 ], [ -3.6113, 40.8092 ] ] ] } },
{ "type": "Feature", "properties": { "municipio": "Redueña", "clasificacion": "no-urbanizable-protegido", "calificacion": "sin-asignar", "version": "vigente", "fuente": "SIT-CAM WFS — UsoDelSuelo:VPLA_V_CLASIFICACION (https://idem.comunidad.madrid/geosrvg/ows)", "fecha_dato": "2026-05-12", "ambito": "56130", "_raw_CD_SIGLAS": "SNUP", "_raw_DS_CLASIF_GEN": "Suelo No Urbanizable Protegido", "_raw_DS_CLASIF_DET": "Suelo no Urbanizable Especialmente Protegido por su interés Forestal", "_raw_DS_DOCU": "NORMAS SUBSIDIARIAS", "_raw_DS_LEY": "CM Ley 9/2001, E Ley 6/1998", "_raw_FC_AC": "2004-02-24", "_raw_NM_AREA_M2": 133534.68576507899, "_cam_code": "121" }, "geometry": { "type": "Polygon", "coordinates": [ [ [ -3.587, 40.805 ], [ -3.5869, 40.8049 ], [ -3.5871, 40.8051 ], [ -3.5873, 40.8053 ], [ -3.5876, 40.8056 ], [ -3.588, 40.8062 ], [ -3.5887, 40.8068 ], [ -3.5888, 40.8072 ], [ -3.5867, 40.8078 ], [ -3.586, 40.8085 ], [ -3.5859, 40.8088 ], [ -3.586, 40.8099 ], [ -3.5862, 40.8105 ], [ -3.5864, 40.8107 ], [ -3.5843, 40.8104 ], [ -3.5838, 40.8102 ], [ -3.5839, 40.8088 ], [ -3.5842, 40.8076 ], [ -3.585, 40.8056 ], [ -3.587, 40.805 ] ] ] } },
{ "type": "Feature", "properties": { "municipio": "Redueña", "clasificacion": "no-urbanizable-protegido", "calificacion": "sin-asignar", "version": "vigente", "fuente": "SIT-CAM WFS — UsoDelSuelo:VPLA_V_CLASIFICACION (https://idem.comunidad.madrid/geosrvg/ows)", "fecha_dato": "2026-05-12", "ambito": "56130", "_raw_CD_SIGLAS": "SNUP", "_raw_DS_CLASIF_GEN": "Suelo No Urbanizable Protegido", "_raw_DS_CLASIF_DET": "Suelo no Urbanizable Especialmente Protegido por su interés Forestal", "_raw_DS_DOCU": "NORMAS SUBSIDIARIAS", "_raw_DS_LEY": "CM Ley 9/2001, E Ley 6/1998", "_raw_FC_AC": "2004-02-24", "_raw_NM_AREA_M2": 957905.33921566606, "_cam_code": "121" }, "geometry": { "type": "Polygon", "coordinates": [ [ [ -3.5896, 40.8072 ], [ -3.5903, 40.8073 ], [ -3.5924, 40.8095 ], [ -3.5925, 40.8103 ], [ -3.5928, 40.811 ], [ -3.5934, 40.8114 ], [ -3.594, 40.8115 ], [ -3.5937, 40.8097 ], [ -3.5935, 40.8091 ], [ -3.5929, 40.8081 ], [ -3.593, 40.807 ], [ -3.5927, 40.8057 ], [ -3.5928, 40.8051 ], [ -3.5931, 40.8047 ], [ -3.5935, 40.8046 ], [ -3.5949, 40.8048 ], [ -3.5958, 40.8056 ], [ -3.5965, 40.8069 ], [ -3.5984, 40.807 ], [ -3.5986, 40.8076 ], [ -3.5997, 40.8079 ], [ -3.6002, 40.8074 ], [ -3.6, 40.8068 ], [ -3.6002, 40.8066 ], [ -3.6005, 40.8064 ], [ -3.601, 40.8064 ], [ -3.6021, 40.8059 ], [ -3.6024, 40.8062 ], [ -3.6024, 40.8068 ], [ -3.6034, 40.807 ], [ -3.6037, 40.8068 ], [ -3.6039, 40.8051 ], [ -3.6034, 40.8043 ], [ -3.6027, 40.8037 ], [ -3.6011, 40.8027 ], [ -3.6002, 40.8023 ], [ -3.5973, 40.8026 ], [ -3.595, 40.8021 ], [ -3.5942, 40.8017 ], [ -3.5936, 40.8012 ], [ -3.5936, 40.7998 ], [ -3.5933, 40.7983 ], [ -3.5934, 40.7974 ], [ -3.5938, 40.7963 ], [ -3.5929, 40.7964 ], [ -3.5916, 40.7972 ], [ -3.5909, 40.7979 ], [ -3.5895, 40.7983 ], [ -3.5884, 40.7991 ], [ -3.5878, 40.7999 ], [ -3.5874, 40.8009 ], [ -3.587, 40.8012 ], [ -3.5858, 40.8015 ], [ -3.5862, 40.803 ], [ -3.5862, 40.8039 ], [ -3.5864, 40.8042 ], [ -3.5867, 40.8046 ], [ -3.5871, 40.8048 ], [ -3.5878, 40.8055 ], [ -3.5882, 40.8061 ], [ -3.5889, 40.8068 ], [ -3.589, 40.8071 ], [ -3.5892, 40.807 ], [ -3.5896, 40.8072 ] ] ] } },
{ "type": "Feature", "properties": { "municipio": "Redueña", "clasificacion": "no-urbanizable-protegido", "calificacion": "sin-asignar", "version": "vigente", "fuente": "SIT-CAM WFS — UsoDelSuelo:VPLA_V_CLASIFICACION (https://idem.comunidad.madrid/geosrvg/ows)", "fecha_dato": "2026-05-12", "ambito": "56130", "_raw_CD_SIGLAS": "SNUP", "_raw_DS_CLASIF_GEN": "Suelo No Urbanizable Protegido", "_raw_DS_CLASIF_DET": "Suelo no Urbanizable Especialmente Protegido por su interés Forestal", "_raw_DS_DOCU": "NORMAS SUBSIDIARIAS", "_raw_DS_LEY": "CM Ley 9/2001, E Ley 6/1998", "_raw_FC_AC": "2004-02-24", "_raw_NM_AREA_M2": 4238.8409657284301, "_cam_code": "121" }, "geometry": { "type": "Polygon", "coordinates": [ [ [ -3.5938, 40.8117 ], [ -3.5937, 40.812 ], [ -3.5939, 40.8122 ], [ -3.5949, 40.8127 ], [ -3.5952, 40.8127 ], [ -3.5938, 40.8117 ] ] ] } },
{ "type": "Feature", "properties": { "municipio": "Redueña", "clasificacion": "no-urbanizable-protegido", "calificacion": "sin-asignar", "version": "vigente", "fuente": "SIT-CAM WFS — UsoDelSuelo:VPLA_V_CLASIFICACION (https://idem.comunidad.madrid/geosrvg/ows)", "fecha_dato": "2026-05-12", "ambito": "56130", "_raw_CD_SIGLAS": "SNUP", "_raw_DS_CLASIF_GEN": "Suelo No Urbanizable Protegido", "_raw_DS_CLASIF_DET": "Suelo no Urbanizable Especialmente Protegido por su interés Forestal", "_raw_DS_DOCU": "NORMAS SUBSIDIARIAS", "_raw_DS_LEY": "CM Ley 9/2001, E Ley 6/1998", "_raw_FC_AC": "2004-02-24", "_raw_NM_AREA_M2": 153927.60646910901, "_cam_code": "121" }, "geometry": { "type": "Polygon", "coordinates": [ [ [ -3.5869, 40.8167 ], [ -3.5871, 40.8175 ], [ -3.5882, 40.8167 ], [ -3.5887, 40.8161 ], [ -3.5903, 40.8153 ], [ -3.5915, 40.8144 ], [ -3.5928, 40.8142 ], [ -3.5939, 40.8137 ], [ -3.5939, 40.8132 ], [ -3.5936, 40.8122 ], [ -3.593, 40.8128 ], [ -3.5919, 40.8133 ], [ -3.5904, 40.8133 ], [ -3.5891, 40.8131 ], [ -3.5889, 40.814 ], [ -3.5876, 40.8147 ], [ -3.5859, 40.8159 ], [ -3.5849, 40.8164 ], [ -3.5839, 40.8166 ], [ -3.5834, 40.8165 ], [ -3.5828, 40.8166 ], [ -3.5824, 40.8169 ], [ -3.5823, 40.8175 ], [ -3.5846, 40.8169 ], [ -3.5866, 40.817 ], [ -3.5869, 40.8167 ] ] ] } },
{ "type": "Feature", "properties": { "municipio": "Redueña", "clasificacion": "no-urbanizable-protegido", "calificacion": "sin-asignar", "version": "vigente", "fuente": "SIT-CAM WFS — UsoDelSuelo:VPLA_V_CLASIFICACION (https://idem.comunidad.madrid/geosrvg/ows)", "fecha_dato": "2026-05-12", "ambito": "56130", "_raw_CD_SIGLAS": "SNUP", "_raw_DS_CLASIF_GEN": "Suelo No Urbanizable Protegido", "_raw_DS_CLASIF_DET": "Suelo no Urbanizable Especialmente Protegido por su interés Forestal", "_raw_DS_DOCU": "NORMAS SUBSIDIARIAS", "_raw_DS_LEY": "CM Ley 9/2001, E Ley 6/1998", "_raw_FC_AC": "2004-02-24", "_raw_NM_AREA_M2": 18230.649431616101, "_cam_code": "121" }, "geometry": { "type": "Polygon", "coordinates": [ [ [ -3.6006, 40.8023 ], [ -3.6028, 40.8036 ], [ -3.6035, 40.8043 ], [ -3.6039, 40.805 ], [ -3.6043, 40.8046 ], [ -3.6039, 40.8037 ], [ -3.6032, 40.8031 ], [ -3.6012, 40.8024 ], [ -3.6006, 40.8023 ] ] ] } },
{ "type": "Feature", "properties": { "municipio": "Redueña", "clasificacion": "no-urbanizable-protegido", "calificacion": "sin-asignar", "version": "vigente", "fuente": "SIT-CAM WFS — UsoDelSuelo:VPLA_V_CLASIFICACION (https://idem.comunidad.madrid/geosrvg/ows)", "fecha_dato": "2026-05-12", "ambito": "56130", "_raw_CD_SIGLAS": "SNUP", "_raw_DS_CLASIF_GEN": "Suelo No Urbanizable Protegido", "_raw_DS_CLASIF_DET": "Suelo no Urbanizable Especialmente Protegido por su interés Agropecuario", "_raw_DS_DOCU": "NORMAS SUBSIDIARIAS", "_raw_DS_LEY": "CM Ley 9/2001, E Ley 6/1998", "_raw_FC_AC": "2004-02-24", "_raw_NM_AREA_M2": 7094.9232898032697, "_cam_code": "121" }, "geometry": { "type": "Polygon", "coordinates": [ [ [ -3.6046, 40.8068 ], [ -3.605, 40.8068 ], [ -3.6042, 40.8054 ], [ -3.6038, 40.8057 ], [ -3.6037, 40.8066 ], [ -3.6041, 40.806 ], [ -3.6046, 40.8068 ] ] ] } },
{ "type": "Feature", "properties": { "municipio": "Redueña", "clasificacion": "no-urbanizable-protegido", "calificacion": "sin-asignar", "version": "vigente", "fuente": "SIT-CAM WFS — UsoDelSuelo:VPLA_V_CLASIFICACION (https://idem.comunidad.madrid/geosrvg/ows)", "fecha_dato": "2026-05-12", "ambito": "56130", "_raw_CD_SIGLAS": "SNUP", "_raw_DS_CLASIF_GEN": "Suelo No Urbanizable Protegido", "_raw_DS_CLASIF_DET": "Suelo no Urbanizable Especialmente Protegido por su interés Agropecuario", "_raw_DS_DOCU": "NORMAS SUBSIDIARIAS", "_raw_DS_LEY": "CM Ley 9/2001, E Ley 6/1998", "_raw_FC_AC": "2004-02-24", "_raw_NM_AREA_M2": 2676.6146955341601, "_cam_code": "121" }, "geometry": { "type": "Polygon", "coordinates": [ [ [ -3.6053, 40.8074 ], [ -3.6051, 40.8071 ], [ -3.6044, 40.8072 ], [ -3.6041, 40.8068 ], [ -3.6041, 40.807 ], [ -3.6039, 40.8071 ], [ -3.6048, 40.8074 ], [ -3.6053, 40.8074 ] ] ] } },
{ "type": "Feature", "properties": { "municipio": "Redueña", "clasificacion": "no-urbanizable-protegido", "calificacion": "sin-asignar", "version": "vigente", "fuente": "SIT-CAM WFS — UsoDelSuelo:VPLA_V_CLASIFICACION (https://idem.comunidad.madrid/geosrvg/ows)", "fecha_dato": "2026-05-12", "ambito": "56130", "_raw_CD_SIGLAS": "SNUP", "_raw_DS_CLASIF_GEN": "Suelo No Urbanizable Protegido", "_raw_DS_CLASIF_DET": "Suelo no Urbanizable Especialmente Protegido por su interés Agropecuario", "_raw_DS_DOCU": "NORMAS SUBSIDIARIAS", "_raw_DS_LEY": "CM Ley 9/2001, E Ley 6/1998", "_raw_FC_AC": "2004-02-24", "_raw_NM_AREA_M2": 25412.716544805298, "_cam_code": "121" }, "geometry": { "type": "Polygon", "coordinates": [ [ [ -3.6053, 40.8071 ], [ -3.6054, 40.8075 ], [ -3.6058, 40.8075 ], [ -3.6065, 40.8081 ], [ -3.6088, 40.8085 ], [ -3.6097, 40.8084 ], [ -3.6083, 40.8078 ], [ -3.6075, 40.8076 ], [ -3.6065, 40.8071 ], [ -3.6062, 40.8067 ], [ -3.6053, 40.8071 ] ] ] } },
{ "type": "Feature", "properties": { "municipio": "Redueña", "clasificacion": "no-urbanizable-protegido", "calificacion": "sin-asignar", "version": "vigente", "fuente": "SIT-CAM WFS — UsoDelSuelo:VPLA_V_CLASIFICACION (https://idem.comunidad.madrid/geosrvg/ows)", "fecha_dato": "2026-05-12", "ambito": "56130", "_raw_CD_SIGLAS": "SNUP", "_raw_DS_CLASIF_GEN": "Suelo No Urbanizable Protegido", "_raw_DS_CLASIF_DET": "Suelo no Urbanizable Especialmente Protegido por su interés Agropecuario", "_raw_DS_DOCU": "NORMAS SUBSIDIARIAS", "_raw_DS_LEY": "CM Ley 9/2001, E Ley 6/1998", "_raw_FC_AC": "2004-02-24", "_raw_NM_AREA_M2": 313886.80170952302, "_cam_code": "121" }, "geometry": { "type": "Polygon", "coordinates": [ [ [ -3.5952, 40.8127 ], [ -3.5955, 40.8126 ], [ -3.5964, 40.8116 ], [ -3.5965, 40.8113 ], [ -3.5968, 40.8112 ], [ -3.5974, 40.8101 ], [ -3.5983, 40.8097 ], [ -3.5987, 40.8084 ], [ -3.5992, 40.8077 ], [ -3.5986, 40.8076 ], [ -3.5984, 40.807 ], [ -3.5965, 40.8069 ], [ -3.5958, 40.8056 ], [ -3.5949, 40.8048 ], [ -3.5935, 40.8046 ], [ -3.5931, 40.8047 ], [ -3.5928, 40.8051 ], [ -3.5927, 40.8057 ], [ -3.593, 40.807 ], [ -3.5929, 40.8081 ], [ -3.5935, 40.8091 ], [ -3.5937, 40.8097 ], [ -3.594, 40.8115 ], [ -3.5934, 40.8114 ], [ -3.5928, 40.811 ], [ -3.5925, 40.8103 ], [ -3.5924, 40.8095 ], [ -3.5903, 40.8073 ], [ -3.5896, 40.8072 ], [ -3.5892, 40.807 ], [ -3.589, 40.8071 ], [ -3.5903, 40.8089 ], [ -3.5909, 40.8092 ], [ -3.5909, 40.8094 ], [ -3.5922, 40.8103 ], [ -3.5927, 40.811 ], [ -3.5937, 40.812 ], [ -3.5938, 40.8117 ], [ -3.5952, 40.8127 ] ] ] } },
{ "type": "Feature", "properties": { "municipio": "Redueña", "clasificacion": "no-urbanizable-protegido", "calificacion": "sin-asignar", "version": "vigente", "fuente": "SIT-CAM WFS — UsoDelSuelo:VPLA_V_CLASIFICACION (https://idem.comunidad.madrid/geosrvg/ows)", "fecha_dato": "2026-05-12", "ambito": "56130", "_raw_CD_SIGLAS": "SNUP", "_raw_DS_CLASIF_GEN": "Suelo No Urbanizable Protegido", "_raw_DS_CLASIF_DET": "Suelo no Urbanizable Especialmente Protegido por su interés Agropecuario", "_raw_DS_DOCU": "NORMAS SUBSIDIARIAS", "_raw_DS_LEY": "CM Ley 9/2001, E Ley 6/1998", "_raw_FC_AC": "2004-02-24", "_raw_NM_AREA_M2": 36072.721894189199, "_cam_code": "121" }, "geometry": { "type": "Polygon", "coordinates": [ [ [ -3.5946, 40.8135 ], [ -3.594, 40.8136 ], [ -3.595, 40.816 ], [ -3.5966, 40.8169 ], [ -3.5972, 40.8174 ], [ -3.5979, 40.8177 ], [ -3.5981, 40.8174 ], [ -3.5978, 40.8173 ], [ -3.5975, 40.8168 ], [ -3.5967, 40.816 ], [ -3.5953, 40.8151 ], [ -3.595, 40.8147 ], [ -3.5946, 40.8135 ] ] ] } },
{ "type": "Feature", "properties": { "municipio": "Redueña", "clasificacion": "no-urbanizable-protegido", "calificacion": "sin-asignar", "version": "vigente", "fuente": "SIT-CAM WFS — UsoDelSuelo:VPLA_V_CLASIFICACION (https://idem.comunidad.madrid/geosrvg/ows)", "fecha_dato": "2026-05-12", "ambito": "56130", "_raw_CD_SIGLAS": "SNUP", "_raw_DS_CLASIF_GEN": "Suelo No Urbanizable Protegido", "_raw_DS_CLASIF_DET": "Suelo no Urbanizable Especialmente Protegido por su interés Forestal", "_raw_DS_DOCU": "NORMAS SUBSIDIARIAS", "_raw_DS_LEY": "CM Ley 9/2001, E Ley 6/1998", "_raw_FC_AC": "2004-02-24", "_raw_NM_AREA_M2": 802664.44599394395, "_cam_code": "121" }, "geometry": { "type": "Polygon", "coordinates": [ [ [ -3.6094, 40.8179 ], [ -3.6115, 40.8184 ], [ -3.6119, 40.818 ], [ -3.6126, 40.8182 ], [ -3.6133, 40.8172 ], [ -3.6136, 40.8165 ], [ -3.6136, 40.8155 ], [ -3.6138, 40.8147 ], [ -3.6137, 40.8138 ], [ -3.6134, 40.8129 ], [ -3.6134, 40.8124 ], [ -3.6131, 40.8119 ], [ -3.6125, 40.8099 ], [ -3.612, 40.8096 ], [ -3.6118, 40.8093 ], [ -3.6109, 40.8092 ], [ -3.6095, 40.8093 ], [ -3.6078, 40.809 ], [ -3.6073, 40.8087 ], [ -3.6065, 40.8085 ], [ -3.6053, 40.8076 ], [ -3.6053, 40.8074 ], [ -3.6048, 40.8074 ], [ -3.6039, 40.8071 ], [ -3.6036, 40.8074 ], [ -3.602, 40.8071 ], [ -3.6019, 40.8063 ], [ -3.6005, 40.8069 ], [ -3.6007, 40.8074 ], [ -3.6005, 40.8078 ], [ -3.6002, 40.808 ], [ -3.6005, 40.8081 ], [ -3.601, 40.8089 ], [ -3.6005, 40.8093 ], [ -3.5999, 40.8103 ], [ -3.6, 40.8104 ], [ -3.5998, 40.8115 ], [ -3.6002, 40.8125 ], [ -3.6004, 40.8126 ], [ -3.601, 40.8125 ], [ -3.6015, 40.8126 ], [ -3.6025, 40.8131 ], [ -3.6032, 40.813 ], [ -3.6039, 40.8131 ], [ -3.6045, 40.8134 ], [ -3.6058, 40.8136 ], [ -3.6081, 40.8146 ], [ -3.6099, 40.8164 ], [ -3.6103, 40.817 ], [ -3.6105, 40.8177 ], [ -3.6096, 40.8176 ], [ -3.6094, 40.8179 ] ] ] } },
{ "type": "Feature", "properties": { "municipio": "Redueña", "clasificacion": "no-urbanizable-protegido", "calificacion": "sin-asignar", "version": "vigente", "fuente": "SIT-CAM WFS — UsoDelSuelo:VPLA_V_CLASIFICACION (https://idem.comunidad.madrid/geosrvg/ows)", "fecha_dato": "2026-05-12", "ambito": "56130", "_raw_CD_SIGLAS": "SNUP", "_raw_DS_CLASIF_GEN": "Suelo No Urbanizable Protegido", "_raw_DS_CLASIF_DET": "Suelo no Urbanizable Especialmente Protegido por su interés Forestal", "_raw_DS_DOCU": "NORMAS SUBSIDIARIAS", "_raw_DS_LEY": "CM Ley 9/2001, E Ley 6/1998", "_raw_FC_AC": "2004-02-24", "_raw_NM_AREA_M2": 210107.30614677299, "_cam_code": "121" }, "geometry": { "type": "Polygon", "coordinates": [ [ [ -3.5979, 40.8236 ], [ -3.5976, 40.8239 ], [ -3.5973, 40.824 ], [ -3.5987, 40.8243 ], [ -3.6014, 40.8244 ], [ -3.6019, 40.8236 ], [ -3.6022, 40.8235 ], [ -3.6026, 40.8238 ], [ -3.6027, 40.8242 ], [ -3.6041, 40.8234 ], [ -3.6043, 40.8231 ], [ -3.6043, 40.8225 ], [ -3.604, 40.8218 ], [ -3.6061, 40.8203 ], [ -3.606, 40.8199 ], [ -3.6056, 40.8194 ], [ -3.6047, 40.8188 ], [ -3.6043, 40.8187 ], [ -3.6035, 40.8188 ], [ -3.6031, 40.8192 ], [ -3.603, 40.82 ], [ -3.6029, 40.8201 ], [ -3.6028, 40.82 ], [ -3.6023, 40.8205 ], [ -3.6025, 40.8205 ], [ -3.6023, 40.8207 ], [ -3.6021, 40.8213 ], [ -3.6017, 40.8215 ], [ -3.6015, 40.8214 ], [ -3.6003, 40.8214 ], [ -3.5999, 40.8216 ], [ -3.5994, 40.8223 ], [ -3.599, 40.8225 ], [ -3.5986, 40.8223 ], [ -3.5979, 40.823 ], [ -3.5979, 40.8236 ] ] ] } },
{ "type": "Feature", "properties": { "municipio": "Redueña", "clasificacion": "no-urbanizable-protegido", "calificacion": "sin-asignar", "version": "vigente", "fuente": "SIT-CAM WFS — UsoDelSuelo:VPLA_V_CLASIFICACION (https://idem.comunidad.madrid/geosrvg/ows)", "fecha_dato": "2026-05-12", "ambito": "56130", "_raw_CD_SIGLAS": "SNUP", "_raw_DS_CLASIF_GEN": "Suelo No Urbanizable Protegido", "_raw_DS_CLASIF_DET": "Suelo no Urbanizable Especialmente Protegido por su interés Forestal", "_raw_DS_DOCU": "NORMAS SUBSIDIARIAS", "_raw_DS_LEY": "CM Ley 9/2001, E Ley 6/1998", "_raw_FC_AC": "2004-02-24", "_raw_NM_AREA_M2": 273030.36985896999, "_cam_code": "121" }, "geometry": { "type": "Polygon", "coordinates": [ [ [ -3.5824, 40.8324 ], [ -3.5868, 40.8338 ], [ -3.5884, 40.8327 ], [ -3.5905, 40.8315 ], [ -3.5914, 40.8308 ], [ -3.5925, 40.8297 ], [ -3.5932, 40.8294 ], [ -3.5948, 40.829 ], [ -3.5947, 40.829 ], [ -3.5947, 40.8286 ], [ -3.5968, 40.8273 ], [ -3.5976, 40.8265 ], [ -3.5974, 40.8251 ], [ -3.597, 40.825 ], [ -3.5963, 40.8255 ], [ -3.5954, 40.8256 ], [ -3.595, 40.8261 ], [ -3.5944, 40.8264 ], [ -3.5925, 40.8278 ], [ -3.5898, 40.8293 ], [ -3.5869, 40.8313 ], [ -3.5864, 40.8322 ], [ -3.5859, 40.8326 ], [ -3.5856, 40.8326 ], [ -3.5845, 40.8322 ], [ -3.5825, 40.8323 ], [ -3.5824, 40.8324 ] ] ] } },
{ "type": "Feature", "properties": { "municipio": "Redueña", "clasificacion": "no-urbanizable-protegido", "calificacion": "sin-asignar", "version": "vigente", "fuente": "SIT-CAM WFS — UsoDelSuelo:VPLA_V_CLASIFICACION (https://idem.comunidad.madrid/geosrvg/ows)", "fecha_dato": "2026-05-12", "ambito": "56130", "_raw_CD_SIGLAS": "SNUP", "_raw_DS_CLASIF_GEN": "Suelo No Urbanizable Protegido", "_raw_DS_CLASIF_DET": "Suelo no Urbanizable Especialmente Protegido por su interés Forestal", "_raw_DS_DOCU": "NORMAS SUBSIDIARIAS", "_raw_DS_LEY": "CM Ley 9/2001, E Ley 6/1998", "_raw_FC_AC": "2004-02-24", "_raw_NM_AREA_M2": 20003.991523619901, "_cam_code": "121" }, "geometry": { "type": "Polygon", "coordinates": [ [ [ -3.594, 40.8294 ], [ -3.5933, 40.8295 ], [ -3.5926, 40.8298 ], [ -3.5915, 40.8309 ], [ -3.5906, 40.8316 ], [ -3.5885, 40.8328 ], [ -3.5869, 40.8339 ], [ -3.5871, 40.834 ], [ -3.5879, 40.8335 ], [ -3.594, 40.8294 ] ] ] } },
{ "type": "Feature", "properties": { "municipio": "Redueña", "clasificacion": "no-urbanizable-protegido", "calificacion": "sin-asignar", "version": "vigente", "fuente": "SIT-CAM WFS — UsoDelSuelo:VPLA_V_CLASIFICACION (https://idem.comunidad.madrid/geosrvg/ows)", "fecha_dato": "2026-05-12", "ambito": "56130", "_raw_CD_SIGLAS": "SNUP", "_raw_DS_CLASIF_GEN": "Suelo No Urbanizable Protegido", "_raw_DS_CLASIF_DET": "Suelo no Urbanizable Especialmente Protegido por su interés Forestal", "_raw_DS_DOCU": "NORMAS SUBSIDIARIAS", "_raw_DS_LEY": "CM Ley 9/2001, E Ley 6/1998", "_raw_FC_AC": "2004-02-24", "_raw_NM_AREA_M2": 29633.455385917201, "_cam_code": "121" }, "geometry": { "type": "Polygon", "coordinates": [ [ [ -3.6163, 40.8391 ], [ -3.6158, 40.8393 ], [ -3.6157, 40.8402 ], [ -3.6153, 40.8403 ], [ -3.6151, 40.8405 ], [ -3.6145, 40.8415 ], [ -3.6166, 40.8411 ], [ -3.6171, 40.8391 ], [ -3.6163, 40.8391 ] ] ] } },
{ "type": "Feature", "properties": { "municipio": "Redueña", "clasificacion": "no-urbanizable-protegido", "calificacion": "sin-asignar", "version": "vigente", "fuente": "SIT-CAM WFS — UsoDelSuelo:VPLA_V_CLASIFICACION (https://idem.comunidad.madrid/geosrvg/ows)", "fecha_dato": "2026-05-12", "ambito": "56130", "_raw_CD_SIGLAS": "SNUP", "_raw_DS_CLASIF_GEN": "Suelo No Urbanizable Protegido", "_raw_DS_CLASIF_DET": "Suelo no Urbanizable Especialmente Protegido por su interés Forestal", "_raw_DS_DOCU": "NORMAS SUBSIDIARIAS", "_raw_DS_LEY": "CM Ley 9/2001, E Ley 6/1998", "_raw_FC_AC": "2004-02-24", "_raw_NM_AREA_M2": 429743.3395765, "_cam_code": "121" }, "geometry": { "type": "Polygon", "coordinates": [ [ [ -3.5957, 40.8293 ], [ -3.5959, 40.83 ], [ -3.5959, 40.8313 ], [ -3.5978, 40.8344 ], [ -3.5992, 40.8361 ], [ -3.6018, 40.8382 ], [ -3.6024, 40.8393 ], [ -3.604, 40.8409 ], [ -3.6046, 40.8417 ], [ -3.6046, 40.8419 ], [ -3.6047, 40.8419 ], [ -3.6046, 40.8421 ], [ -3.6047, 40.8422 ], [ -3.6072, 40.8425 ], [ -3.6081, 40.8423 ], [ -3.6061, 40.8421 ], [ -3.6054, 40.8414 ], [ -3.604, 40.8395 ], [ -3.6022, 40.8374 ], [ -3.6017, 40.8366 ], [ -3.6015, 40.8356 ], [ -3.6011, 40.8349 ], [ -3.6016, 40.8339 ], [ -3.6019, 40.8337 ], [ -3.6019, 40.8332 ], [ -3.6016, 40.833 ], [ -3.5988, 40.8323 ], [ -3.5992, 40.8317 ], [ -3.6, 40.8309 ], [ -3.6005, 40.8309 ], [ -3.6008, 40.8299 ], [ -3.6007, 40.8296 ], [ -3.6034, 40.8297 ], [ -3.6032, 40.8294 ], [ -3.6023, 40.8288 ], [ -3.6005, 40.8287 ], [ -3.6005, 40.828 ], [ -3.6008, 40.8278 ], [ -3.6017, 40.8261 ], [ -3.6017, 40.8259 ], [ -3.6003, 40.8263 ], [ -3.5977, 40.8275 ], [ -3.5975, 40.8282 ], [ -3.5967, 40.8288 ], [ -3.5957, 40.8293 ] ] ] } },
{ "type": "Feature", "properties": { "municipio": "Redueña", "clasificacion": "no-urbanizable-protegido", "calificacion": "sin-asignar", "version": "vigente", "fuente": "SIT-CAM WFS — UsoDelSuelo:VPLA_V_CLASIFICACION (https://idem.comunidad.madrid/geosrvg/ows)", "fecha_dato": "2026-05-12", "ambito": "56130", "_raw_CD_SIGLAS": "SNUP", "_raw_DS_CLASIF_GEN": "Suelo No Urbanizable Protegido", "_raw_DS_CLASIF_DET": "Suelo no Urbanizable Especialmente Protegido por su interés Agropecuario", "_raw_DS_DOCU": "NORMAS SUBSIDIARIAS", "_raw_DS_LEY": "CM Ley 9/2001, E Ley 6/1998", "_raw_FC_AC": "2004-02-24", "_raw_NM_AREA_M2": 269003.53350777703, "_cam_code": "121" }, "geometry": { "type": "Polygon", "coordinates": [ [ [ -3.6094, 40.8179 ], [ -3.6096, 40.8176 ], [ -3.6105, 40.8177 ], [ -3.6103, 40.817 ], [ -3.6099, 40.8164 ], [ -3.6081, 40.8146 ], [ -3.6058, 40.8136 ], [ -3.6045, 40.8134 ], [ -3.6039, 40.8131 ], [ -3.6032, 40.813 ], [ -3.6025, 40.8131 ], [ -3.6015, 40.8126 ], [ -3.601, 40.8125 ], [ -3.6004, 40.8126 ], [ -3.6002, 40.8125 ], [ -3.5998, 40.8115 ], [ -3.6, 40.8104 ], [ -3.5999, 40.8103 ], [ -3.6005, 40.8093 ], [ -3.601, 40.8089 ], [ -3.6005, 40.8081 ], [ -3.6002, 40.808 ], [ -3.6001, 40.8082 ], [ -3.6, 40.8081 ], [ -3.5998, 40.8088 ], [ -3.5999, 40.8099 ], [ -3.5993, 40.8104 ], [ -3.5989, 40.8104 ], [ -3.5981, 40.811 ], [ -3.5978, 40.8117 ], [ -3.5975, 40.8117 ], [ -3.5964, 40.8128 ], [ -3.5971, 40.8132 ], [ -3.598, 40.8134 ], [ -3.5992, 40.8135 ], [ -3.6008, 40.814 ], [ -3.6014, 40.8139 ], [ -3.6018, 40.8143 ], [ -3.6024, 40.8145 ], [ -3.6026, 40.8147 ], [ -3.6036, 40.8148 ], [ -3.6051, 40.8152 ], [ -3.6053, 40.8146 ], [ -3.6057, 40.8148 ], [ -3.6056, 40.8153 ], [ -3.6058, 40.8155 ], [ -3.6061, 40.8164 ], [ -3.6065, 40.8164 ], [ -3.6071, 40.8171 ], [ -3.608, 40.8175 ], [ -3.6094, 40.8179 ] ] ] } },
{ "type": "Feature", "properties": { "municipio": "Redueña", "clasificacion": "no-urbanizable-protegido", "calificacion": "sin-asignar", "version": "vigente", "fuente": "SIT-CAM WFS — UsoDelSuelo:VPLA_V_CLASIFICACION (https://idem.comunidad.madrid/geosrvg/ows)", "fecha_dato": "2026-05-12", "ambito": "56130", "_raw_CD_SIGLAS": "SNUP", "_raw_DS_CLASIF_GEN": "Suelo No Urbanizable Protegido", "_raw_DS_CLASIF_DET": "Suelo no Urbanizable Especialmente Protegido por su interés Agropecuario", "_raw_DS_DOCU": "NORMAS SUBSIDIARIAS", "_raw_DS_LEY": "CM Ley 9/2001, E Ley 6/1998", "_raw_FC_AC": "2004-02-24", "_raw_NM_AREA_M2": 18993.663847430402, "_cam_code": "121" }, "geometry": { "type": "Polygon", "coordinates": [ [ [ -3.6124, 40.8098 ], [ -3.6128, 40.81 ], [ -3.6134, 40.8107 ], [ -3.6135, 40.8113 ], [ -3.6138, 40.812 ], [ -3.614, 40.8141 ], [ -3.6142, 40.8147 ], [ -3.6142, 40.8155 ], [ -3.6134, 40.818 ], [ -3.6138, 40.8177 ], [ -3.6144, 40.8154 ], [ -3.6141, 40.8129 ], [ -3.6133, 40.8098 ], [ -3.6123, 40.8092 ], [ -3.6124, 40.8098 ] ] ] } },
{ "type": "Feature", "properties": { "municipio": "Redueña", "clasificacion": "no-urbanizable-protegido", "calificacion": "sin-asignar", "version": "vigente", "fuente": "SIT-CAM WFS — UsoDelSuelo:VPLA_V_CLASIFICACION (https://idem.comunidad.madrid/geosrvg/ows)", "fecha_dato": "2026-05-12", "ambito": "56130", "_raw_CD_SIGLAS": "SNUP", "_raw_DS_CLASIF_GEN": "Suelo No Urbanizable Protegido", "_raw_DS_CLASIF_DET": "Suelo no Urbanizable Especialmente Protegido por su interés Agropecuario", "_raw_DS_DOCU": "NORMAS SUBSIDIARIAS", "_raw_DS_LEY": "CM Ley 9/2001, E Ley 6/1998", "_raw_FC_AC": "2004-02-24", "_raw_NM_AREA_M2": 30412.242099718002, "_cam_code": "121" }, "geometry": { "type": "Polygon", "coordinates": [ [ [ -3.6119, 40.818 ], [ -3.6115, 40.8184 ], [ -3.6126, 40.8184 ], [ -3.6131, 40.8181 ], [ -3.6136, 40.8172 ], [ -3.6141, 40.8155 ], [ -3.6137, 40.812 ], [ -3.6131, 40.8104 ], [ -3.6125, 40.8099 ], [ -3.6131, 40.8119 ], [ -3.6134, 40.8124 ], [ -3.6134, 40.8129 ], [ -3.6137, 40.8138 ], [ -3.6138, 40.8147 ], [ -3.6136, 40.8155 ], [ -3.6136, 40.8165 ], [ -3.6133, 40.8172 ], [ -3.6126, 40.8182 ], [ -3.6119, 40.818 ] ] ] } },
{ "type": "Feature", "properties": { "municipio": "Redueña", "clasificacion": "no-urbanizable-protegido", "calificacion": "sin-asignar", "version": "vigente", "fuente": "SIT-CAM WFS — UsoDelSuelo:VPLA_V_CLASIFICACION (https://idem.comunidad.madrid/geosrvg/ows)", "fecha_dato": "2026-05-12", "ambito": "56130", "_raw_CD_SIGLAS": "SNUP", "_raw_DS_CLASIF_GEN": "Suelo No Urbanizable Protegido", "_raw_DS_CLASIF_DET": "Suelo no Urbanizable Especialmente Protegido por su interés Agropecuario", "_raw_DS_DOCU": "NORMAS SUBSIDIARIAS", "_raw_DS_LEY": "CM Ley 9/2001, E Ley 6/1998", "_raw_FC_AC": "2004-02-24", "_raw_NM_AREA_M2": 1240938.0699636401, "_cam_code": "121" }, "geometry": { "type": "Polygon", "coordinates": [ [ [ -3.5763, 40.8187 ], [ -3.5774, 40.8195 ], [ -3.5778, 40.8195 ], [ -3.5792, 40.8189 ], [ -3.5796, 40.8189 ], [ -3.5812, 40.8175 ], [ -3.5818, 40.8176 ], [ -3.5823, 40.8175 ], [ -3.5823, 40.8174 ], [ -3.5816, 40.8173 ], [ -3.5816, 40.8171 ], [ -3.5807, 40.8176 ], [ -3.58, 40.817 ], [ -3.5797, 40.8162 ], [ -3.5868, 40.8132 ], [ -3.5888, 40.8127 ], [ -3.5889, 40.814 ], [ -3.5891, 40.8131 ], [ -3.5904, 40.8133 ], [ -3.5919, 40.8133 ], [ -3.593, 40.8128 ], [ -3.5935, 40.8122 ], [ -3.5921, 40.8105 ], [ -3.5906, 40.8093 ], [ -3.5894, 40.8086 ], [ -3.5894, 40.8078 ], [ -3.5888, 40.8072 ], [ -3.5867, 40.8078 ], [ -3.586, 40.8085 ], [ -3.5859, 40.8088 ], [ -3.586, 40.8099 ], [ -3.5862, 40.8105 ], [ -3.5864, 40.8107 ], [ -3.5843, 40.8104 ], [ -3.5838, 40.8102 ], [ -3.5839, 40.8088 ], [ -3.5842, 40.8077 ], [ -3.5828, 40.8072 ], [ -3.5823, 40.8068 ], [ -3.5823, 40.8063 ], [ -3.5828, 40.806 ], [ -3.5831, 40.8056 ], [ -3.5824, 40.8056 ], [ -3.5815, 40.8049 ], [ -3.5798, 40.8061 ], [ -3.5768, 40.8076 ], [ -3.5766, 40.8081 ], [ -3.5763, 40.8081 ], [ -3.5764, 40.8085 ], [ -3.5763, 40.8096 ], [ -3.5759, 40.8106 ], [ -3.5744, 40.8158 ], [ -3.5735, 40.8183 ], [ -3.5763, 40.8187 ] ] ] } },
{ "type": "Feature", "properties": { "municipio": "Redueña", "clasificacion": "no-urbanizable-protegido", "calificacion": "sin-asignar", "version": "vigente", "fuente": "SIT-CAM WFS — UsoDelSuelo:VPLA_V_CLASIFICACION (https://idem.comunidad.madrid/geosrvg/ows)", "fecha_dato": "2026-05-12", "ambito": "56130", "_raw_CD_SIGLAS": "SNUP", "_raw_DS_CLASIF_GEN": "Suelo No Urbanizable Protegido", "_raw_DS_CLASIF_DET": "Suelo no Urbanizable Especialmente Protegido por su interés Agropecuario", "_raw_DS_DOCU": "NORMAS SUBSIDIARIAS", "_raw_DS_LEY": "CM Ley 9/2001, E Ley 6/1998", "_raw_FC_AC": "2004-02-24", "_raw_NM_AREA_M2": 2693183.30777113, "_cam_code": "121" }, "geometry": { "type": "Polygon", "coordinates": [ [ [ -3.5845, 40.8322 ], [ -3.5856, 40.8326 ], [ -3.5859, 40.8326 ], [ -3.5864, 40.8322 ], [ -3.5869, 40.8313 ], [ -3.5898, 40.8293 ], [ -3.5925, 40.8278 ], [ -3.5944, 40.8264 ], [ -3.595, 40.8261 ], [ -3.5954, 40.8256 ], [ -3.5963, 40.8255 ], [ -3.597, 40.825 ], [ -3.5974, 40.8251 ], [ -3.5976, 40.8265 ], [ -3.601, 40.8254 ], [ -3.6015, 40.8251 ], [ -3.6021, 40.825 ], [ -3.603, 40.8245 ], [ -3.6037, 40.8239 ], [ -3.6046, 40.8235 ], [ -3.6046, 40.823 ], [ -3.6048, 40.8224 ], [ -3.6069, 40.821 ], [ -3.6108, 40.8192 ], [ -3.6125, 40.8187 ], [ -3.6111, 40.8185 ], [ -3.6079, 40.8177 ], [ -3.607, 40.8172 ], [ -3.6063, 40.8166 ], [ -3.606, 40.8166 ], [ -3.6059, 40.8167 ], [ -3.6063, 40.8171 ], [ -3.6062, 40.8172 ], [ -3.6058, 40.8174 ], [ -3.6055, 40.8172 ], [ -3.6053, 40.8173 ], [ -3.6047, 40.8183 ], [ -3.6043, 40.8184 ], [ -3.6043, 40.8185 ], [ -3.6036, 40.8185 ], [ -3.6033, 40.8187 ], [ -3.6034, 40.8188 ], [ -3.6043, 40.8187 ], [ -3.6051, 40.819 ], [ -3.606, 40.8199 ], [ -3.6061, 40.8203 ], [ -3.604, 40.8218 ], [ -3.6043, 40.8225 ], [ -3.6043, 40.8231 ], [ -3.6041, 40.8234 ], [ -3.6027, 40.8242 ], [ -3.6026, 40.8238 ], [ -3.6021, 40.8235 ], [ -3.6019, 40.8236 ], [ -3.6014, 40.8244 ], [ -3.5987, 40.8243 ], [ -3.5973, 40.824 ], [ -3.5976, 40.8239 ], [ -3.5979, 40.8236 ], [ -3.5979, 40.823 ], [ -3.5982, 40.8226 ], [ -3.5986, 40.8223 ], [ -3.599, 40.8225 ], [ -3.5995, 40.8222 ], [ -3.5997, 40.8218 ], [ -3.5988, 40.8207 ], [ -3.5984, 40.8204 ], [ -3.5997, 40.8197 ], [ -3.6002, 40.8191 ], [ -3.5983, 40.8181 ], [ -3.5981, 40.8183 ], [ -3.5976, 40.8179 ], [ -3.5978, 40.8177 ], [ -3.5972, 40.8175 ], [ -3.5965, 40.8169 ], [ -3.5959, 40.8167 ], [ -3.5949, 40.8161 ], [ -3.594, 40.8142 ], [ -3.5939, 40.8137 ], [ -3.5908, 40.8151 ], [ -3.5904, 40.8157 ], [ -3.5899, 40.816 ], [ -3.5888, 40.8162 ], [ -3.5871, 40.8175 ], [ -3.586, 40.8178 ], [ -3.5842, 40.8175 ], [ -3.5821, 40.8183 ], [ -3.5812, 40.819 ], [ -3.5806, 40.8193 ], [ -3.5804, 40.8196 ], [ -3.5773, 40.8204 ], [ -3.5765, 40.8203 ], [ -3.5754, 40.8199 ], [ -3.5737, 40.8197 ], [ -3.5736, 40.8195 ], [ -3.5732, 40.8193 ], [ -3.5727, 40.8209 ], [ -3.5737, 40.8211 ], [ -3.5748, 40.8217 ], [ -3.5759, 40.8221 ], [ -3.5775, 40.8221 ], [ -3.5785, 40.8276 ], [ -3.5798, 40.8316 ], [ -3.5824, 40.8324 ], [ -3.5825, 40.8323 ], [ -3.5845, 40.8322 ] ] ] } },
{ "type": "Feature", "properties": { "municipio": "Redueña", "clasificacion": "no-urbanizable-protegido", "calificacion": "sin-asignar", "version": "vigente", "fuente": "SIT-CAM WFS — UsoDelSuelo:VPLA_V_CLASIFICACION (https://idem.comunidad.madrid/geosrvg/ows)", "fecha_dato": "2026-05-12", "ambito": "56130", "_raw_CD_SIGLAS": "SNUP", "_raw_DS_CLASIF_GEN": "Suelo No Urbanizable Protegido", "_raw_DS_CLASIF_DET": "Suelo no Urbanizable Especialmente Protegido por su interés Agropecuario", "_raw_DS_DOCU": "NORMAS SUBSIDIARIAS", "_raw_DS_LEY": "CM Ley 9/2001, E Ley 6/1998", "_raw_FC_AC": "2004-02-24", "_raw_NM_AREA_M2": 2147514.7499882202, "_cam_code": "121" }, "geometry": { "type": "Polygon", "coordinates": [ [ [ -3.6008, 40.8299 ], [ -3.6005, 40.8309 ], [ -3.6, 40.8309 ], [ -3.5992, 40.8317 ], [ -3.5988, 40.8323 ], [ -3.6016, 40.833 ], [ -3.6019, 40.8332 ], [ -3.6019, 40.8337 ], [ -3.6016, 40.8339 ], [ -3.6011, 40.8348 ], [ -3.6015, 40.8356 ], [ -3.6017, 40.8366 ], [ -3.6022, 40.8374 ], [ -3.604, 40.8395 ], [ -3.6054, 40.8414 ], [ -3.6061, 40.8421 ], [ -3.6081, 40.8423 ], [ -3.6133, 40.8418 ], [ -3.6145, 40.8415 ], [ -3.6151, 40.8405 ], [ -3.6153, 40.8403 ], [ -3.6157, 40.8402 ], [ -3.6158, 40.8393 ], [ -3.6163, 40.8391 ], [ -3.6171, 40.8391 ], [ -3.617, 40.8381 ], [ -3.6175, 40.8372 ], [ -3.6178, 40.8357 ], [ -3.6173, 40.8355 ], [ -3.6166, 40.835 ], [ -3.6158, 40.8342 ], [ -3.6156, 40.8342 ], [ -3.6152, 40.8339 ], [ -3.6149, 40.8334 ], [ -3.6149, 40.8331 ], [ -3.6148, 40.8331 ], [ -3.6145, 40.8325 ], [ -3.6141, 40.8322 ], [ -3.6132, 40.8298 ], [ -3.6095, 40.8244 ], [ -3.6083, 40.8221 ], [ -3.609, 40.8211 ], [ -3.6132, 40.8187 ], [ -3.6109, 40.8194 ], [ -3.6062, 40.8216 ], [ -3.605, 40.8224 ], [ -3.6049, 40.8237 ], [ -3.6047, 40.8243 ], [ -3.6036, 40.8251 ], [ -3.6017, 40.8259 ], [ -3.6017, 40.8261 ], [ -3.6008, 40.8278 ], [ -3.6005, 40.828 ], [ -3.6005, 40.8287 ], [ -3.6023, 40.8288 ], [ -3.6032, 40.8294 ], [ -3.6034, 40.8297 ], [ -3.6007, 40.8296 ], [ -3.6008, 40.8299 ] ] ] } },
{ "type": "Feature", "properties": { "municipio": "Redueña", "clasificacion": "no-urbanizable-protegido", "calificacion": "sin-asignar", "version": "vigente", "fuente": "SIT-CAM WFS — UsoDelSuelo:VPLA_V_CLASIFICACION (https://idem.comunidad.madrid/geosrvg/ows)", "fecha_dato": "2026-05-12", "ambito": "56130", "_raw_CD_SIGLAS": "SNUP", "_raw_DS_CLASIF_GEN": "Suelo No Urbanizable Protegido", "_raw_DS_CLASIF_DET": "Suelo no Urbanizable Especialmente Protegido por su interés Forestal", "_raw_DS_DOCU": "NORMAS SUBSIDIARIAS", "_raw_DS_LEY": "CM Ley 9/2001, E Ley 6/1998", "_raw_FC_AC": "2004-02-24", "_raw_NM_AREA_M2": 226635.62683873301, "_cam_code": "121" }, "geometry": { "type": "Polygon", "coordinates": [ [ [ -3.5802, 40.7931 ], [ -3.5811, 40.7935 ], [ -3.5825, 40.7936 ], [ -3.5833, 40.7935 ], [ -3.5868, 40.7925 ], [ -3.588, 40.7927 ], [ -3.5887, 40.7931 ], [ -3.5888, 40.7927 ], [ -3.5887, 40.7922 ], [ -3.5882, 40.792 ], [ -3.5851, 40.7919 ], [ -3.5845, 40.7912 ], [ -3.584, 40.7909 ], [ -3.5832, 40.7909 ], [ -3.5825, 40.7912 ], [ -3.5816, 40.7913 ], [ -3.5802, 40.7913 ], [ -3.5802, 40.7914 ], [ -3.5798, 40.7915 ], [ -3.5788, 40.7916 ], [ -3.5779, 40.7915 ], [ -3.577, 40.7909 ], [ -3.5769, 40.7907 ], [ -3.5764, 40.7906 ], [ -3.5764, 40.7905 ], [ -3.5747, 40.7906 ], [ -3.574, 40.7909 ], [ -3.5752, 40.7927 ], [ -3.5772, 40.793 ], [ -3.5802, 40.7931 ] ] ] } },
{ "type": "Feature", "properties": { "municipio": "Redueña", "clasificacion": "no-urbanizable-protegido", "calificacion": "sin-asignar", "version": "vigente", "fuente": "SIT-CAM WFS — UsoDelSuelo:VPLA_V_CLASIFICACION (https://idem.comunidad.madrid/geosrvg/ows)", "fecha_dato": "2026-05-12", "ambito": "56130", "_raw_CD_SIGLAS": "SNUP", "_raw_DS_CLASIF_GEN": "Suelo No Urbanizable Protegido", "_raw_DS_CLASIF_DET": "Suelo no Urbanizable Especialmente Protegido por su interés Paisajístico", "_raw_DS_DOCU": "NORMAS SUBSIDIARIAS", "_raw_DS_LEY": "CM Ley 9/2001, E Ley 6/1998", "_raw_FC_AC": "2004-02-24", "_raw_NM_AREA_M2": 441581.80433086603, "_cam_code": "121" }, "geometry": { "type": "Polygon", "coordinates": [ [ [ -3.5831, 40.7947 ], [ -3.5838, 40.7954 ], [ -3.5842, 40.7965 ], [ -3.5847, 40.7972 ], [ -3.5846, 40.7976 ], [ -3.5848, 40.7984 ], [ -3.5846, 40.799 ], [ -3.5853, 40.7999 ], [ -3.5858, 40.8015 ], [ -3.587, 40.8012 ], [ -3.5874, 40.8009 ], [ -3.5878, 40.7999 ], [ -3.5884, 40.7991 ], [ -3.5895, 40.7983 ], [ -3.5909, 40.7979 ], [ -3.5916, 40.7972 ], [ -3.5929, 40.7964 ], [ -3.5938, 40.7963 ], [ -3.5943, 40.7944 ], [ -3.5939, 40.7941 ], [ -3.5923, 40.7937 ], [ -3.5913, 40.7938 ], [ -3.5887, 40.7935 ], [ -3.5881, 40.794 ], [ -3.5874, 40.7943 ], [ -3.5862, 40.7945 ], [ -3.5857, 40.7945 ], [ -3.5844, 40.794 ], [ -3.5834, 40.7939 ], [ -3.5828, 40.7941 ], [ -3.5827, 40.7943 ], [ -3.5827, 40.7945 ], [ -3.5831, 40.7947 ] ] ] } },
{ "type": "Feature", "properties": { "municipio": "Redueña", "clasificacion": "no-urbanizable-protegido", "calificacion": "sin-asignar", "version": "vigente", "fuente": "SIT-CAM WFS — UsoDelSuelo:VPLA_V_CLASIFICACION (https://idem.comunidad.madrid/geosrvg/ows)", "fecha_dato": "2026-05-12", "ambito": "56130", "_raw_CD_SIGLAS": "SNUP", "_raw_DS_CLASIF_GEN": "Suelo No Urbanizable Protegido", "_raw_DS_CLASIF_DET": "Suelo no Urbanizable Especialmente Protegido por su interés Paisajístico", "_raw_DS_DOCU": "NORMAS SUBSIDIARIAS", "_raw_DS_LEY": "CM Ley 9/2001, E Ley 6/1998", "_raw_FC_AC": "2004-02-24", "_raw_NM_AREA_M2": 2843.7658079396701, "_cam_code": "121" }, "geometry": { "type": "Polygon", "coordinates": [ [ [ -3.5861, 40.8039 ], [ -3.5862, 40.8042 ], [ -3.586, 40.8048 ], [ -3.5867, 40.8046 ], [ -3.5861, 40.8039 ] ] ] } },
{ "type": "Feature", "properties": { "municipio": "Redueña", "clasificacion": "no-urbanizable-protegido", "calificacion": "sin-asignar", "version": "vigente", "fuente": "SIT-CAM WFS — UsoDelSuelo:VPLA_V_CLASIFICACION (https://idem.comunidad.madrid/geosrvg/ows)", "fecha_dato": "2026-05-12", "ambito": "56130", "_raw_CD_SIGLAS": "SNUP", "_raw_DS_CLASIF_GEN": "Suelo No Urbanizable Protegido", "_raw_DS_CLASIF_DET": "Suelo no Urbanizable Especialmente Protegido por su interés Paisajístico", "_raw_DS_DOCU": "NORMAS SUBSIDIARIAS", "_raw_DS_LEY": "CM Ley 9/2001, E Ley 6/1998", "_raw_FC_AC": "2004-02-24", "_raw_NM_AREA_M2": 637428.28462302499, "_cam_code": "121" }, "geometry": { "type": "Polygon", "coordinates": [ [ [ -3.5822, 40.8052 ], [ -3.5826, 40.8054 ], [ -3.583, 40.8054 ], [ -3.5831, 40.8051 ], [ -3.5837, 40.8054 ], [ -3.585, 40.8052 ], [ -3.5858, 40.8049 ], [ -3.5858, 40.8046 ], [ -3.586, 40.8042 ], [ -3.5859, 40.8039 ], [ -3.586, 40.8036 ], [ -3.5845, 40.8017 ], [ -3.585, 40.8015 ], [ -3.5855, 40.8015 ], [ -3.5851, 40.8 ], [ -3.5843, 40.7991 ], [ -3.5846, 40.7982 ], [ -3.5843, 40.7974 ], [ -3.5844, 40.7972 ], [ -3.584, 40.7966 ], [ -3.5838, 40.7958 ], [ -3.5831, 40.795 ], [ -3.5816, 40.7942 ], [ -3.5806, 40.7941 ], [ -3.5798, 40.7942 ], [ -3.5792, 40.7946 ], [ -3.5783, 40.7949 ], [ -3.5777, 40.7949 ], [ -3.5768, 40.7946 ], [ -3.5757, 40.7939 ], [ -3.5754, 40.7935 ], [ -3.5754, 40.7941 ], [ -3.5773, 40.7964 ], [ -3.5781, 40.7981 ], [ -3.5775, 40.8001 ], [ -3.5777, 40.8016 ], [ -3.5788, 40.8017 ], [ -3.5796, 40.8022 ], [ -3.5797, 40.8024 ], [ -3.58, 40.8025 ], [ -3.5802, 40.8028 ], [ -3.5801, 40.8031 ], [ -3.5807, 40.8033 ], [ -3.5813, 40.8044 ], [ -3.5822, 40.8052 ] ] ] } },
{ "type": "Feature", "properties": { "municipio": "Redueña", "clasificacion": "no-urbanizable-protegido", "calificacion": "sin-asignar", "version": "vigente", "fuente": "SIT-CAM WFS — UsoDelSuelo:VPLA_V_CLASIFICACION (https://idem.comunidad.madrid/geosrvg/ows)", "fecha_dato": "2026-05-12", "ambito": "56130", "_raw_CD_SIGLAS": "SNUP", "_raw_DS_CLASIF_GEN": "Suelo No Urbanizable Protegido", "_raw_DS_CLASIF_DET": "Suelo no Urbanizable Especialmente Protegido por su interés Paisajístico", "_raw_DS_DOCU": "NORMAS SUBSIDIARIAS", "_raw_DS_LEY": "CM Ley 9/2001, E Ley 6/1998", "_raw_FC_AC": "2004-02-24", "_raw_NM_AREA_M2": 38786.854977225397, "_cam_code": "121" }, "geometry": { "type": "Polygon", "coordinates": [ [ [ -3.583, 40.8058 ], [ -3.5823, 40.8063 ], [ -3.5823, 40.8068 ], [ -3.5828, 40.8072 ], [ -3.5842, 40.8077 ], [ -3.585, 40.8056 ], [ -3.587, 40.805 ], [ -3.5867, 40.8048 ], [ -3.5839, 40.8058 ], [ -3.5831, 40.8056 ], [ -3.583, 40.8058 ] ] ] } },
{ "type": "Feature", "properties": { "municipio": "Redueña", "clasificacion": "no-urbanizable-protegido", "calificacion": "sin-asignar", "version": "vigente", "fuente": "SIT-CAM WFS — UsoDelSuelo:VPLA_V_CLASIFICACION (https://idem.comunidad.madrid/geosrvg/ows)", "fecha_dato": "2026-05-12", "ambito": "56130", "_raw_CD_SIGLAS": "SNUP", "_raw_DS_CLASIF_GEN": "Suelo No Urbanizable Protegido", "_raw_DS_CLASIF_DET": "Suelo no Urbanizable Especialmente Protegido por su interés Paisajístico", "_raw_DS_DOCU": "NORMAS SUBSIDIARIAS", "_raw_DS_LEY": "CM Ley 9/2001, E Ley 6/1998", "_raw_FC_AC": "2004-02-24", "_raw_NM_AREA_M2": 312568.99379592401, "_cam_code": "121" }, "geometry": { "type": "Polygon", "coordinates": [ [ [ -3.5922, 40.7934 ], [ -3.5941, 40.7938 ], [ -3.5944, 40.7941 ], [ -3.5945, 40.7936 ], [ -3.5959, 40.791 ], [ -3.5924, 40.7906 ], [ -3.5907, 40.79 ], [ -3.5851, 40.7898 ], [ -3.5848, 40.7896 ], [ -3.5848, 40.7897 ], [ -3.5845, 40.7897 ], [ -3.5836, 40.7894 ], [ -3.5822, 40.7899 ], [ -3.5816, 40.7905 ], [ -3.5807, 40.7907 ], [ -3.5804, 40.7912 ], [ -3.5802, 40.7913 ], [ -3.5816, 40.7913 ], [ -3.5825, 40.7912 ], [ -3.5832, 40.7909 ], [ -3.584, 40.7909 ], [ -3.5845, 40.7912 ], [ -3.5851, 40.7919 ], [ -3.587, 40.7919 ], [ -3.5882, 40.792 ], [ -3.5887, 40.7922 ], [ -3.5888, 40.7927 ], [ -3.5887, 40.7931 ], [ -3.5891, 40.7933 ], [ -3.5907, 40.7933 ], [ -3.5913, 40.7935 ], [ -3.5922, 40.7934 ] ] ] } },
{ "type": "Feature", "properties": { "municipio": "Redueña", "clasificacion": "no-urbanizable-protegido", "calificacion": "sin-asignar", "version": "vigente", "fuente": "SIT-CAM WFS — UsoDelSuelo:VPLA_V_CLASIFICACION (https://idem.comunidad.madrid/geosrvg/ows)", "fecha_dato": "2026-05-12", "ambito": "56130", "_raw_CD_SIGLAS": "SNUP", "_raw_DS_CLASIF_GEN": "Suelo No Urbanizable Protegido", "_raw_DS_CLASIF_DET": "Suelo no Urbanizable Especialmente Protegido por su interés Paisajístico", "_raw_DS_DOCU": "NORMAS SUBSIDIARIAS", "_raw_DS_LEY": "CM Ley 9/2001, E Ley 6/1998", "_raw_FC_AC": "2004-02-24", "_raw_NM_AREA_M2": 151227.29076566701, "_cam_code": "121" }, "geometry": { "type": "Polygon", "coordinates": [ [ [ -3.5779, 40.8024 ], [ -3.5772, 40.8042 ], [ -3.5762, 40.8075 ], [ -3.5763, 40.8081 ], [ -3.5766, 40.8081 ], [ -3.5768, 40.8076 ], [ -3.5798, 40.8061 ], [ -3.5816, 40.8049 ], [ -3.5811, 40.8045 ], [ -3.5807, 40.8037 ], [ -3.5799, 40.8031 ], [ -3.5799, 40.8028 ], [ -3.5796, 40.8025 ], [ -3.5784, 40.8018 ], [ -3.5778, 40.8018 ], [ -3.5779, 40.8024 ] ] ] } },
{ "type": "Feature", "properties": { "municipio": "Redueña", "clasificacion": "no-urbanizable-protegido", "calificacion": "sin-asignar", "version": "vigente", "fuente": "SIT-CAM WFS — UsoDelSuelo:VPLA_V_CLASIFICACION (https://idem.comunidad.madrid/geosrvg/ows)", "fecha_dato": "2026-05-12", "ambito": "56130", "_raw_CD_SIGLAS": "SNUP", "_raw_DS_CLASIF_GEN": "Suelo No Urbanizable Protegido", "_raw_DS_CLASIF_DET": "Suelo no Urbanizable Especialmente Protegido Vías Pecuarias", "_raw_DS_DOCU": "NORMAS SUBSIDIARIAS", "_raw_DS_LEY": "CM Ley 9/2001, E Ley 6/1998", "_raw_FC_AC": "2004-02-24", "_raw_NM_AREA_M2": 400257.21782696602, "_cam_code": "121" }, "geometry": { "type": "Polygon", "coordinates": [ [ [ -3.5932, 40.8294 ], [ -3.5925, 40.8297 ], [ -3.5914, 40.8308 ], [ -3.5905, 40.8315 ], [ -3.5884, 40.8327 ], [ -3.5868, 40.8338 ], [ -3.5869, 40.8339 ], [ -3.5885, 40.8328 ], [ -3.5906, 40.8316 ], [ -3.5915, 40.8309 ], [ -3.5926, 40.8298 ], [ -3.5933, 40.8295 ], [ -3.5949, 40.8291 ], [ -3.5953, 40.8291 ], [ -3.5957, 40.8293 ], [ -3.5967, 40.8288 ], [ -3.5975, 40.8282 ], [ -3.5977, 40.8275 ], [ -3.6003, 40.8263 ], [ -3.6015, 40.826 ], [ -3.6036, 40.8251 ], [ -3.6047, 40.8243 ], [ -3.6049, 40.8237 ], [ -3.605, 40.8224 ], [ -3.6062, 40.8216 ], [ -3.6109, 40.8194 ], [ -3.6132, 40.8187 ], [ -3.6138, 40.8177 ], [ -3.6134, 40.818 ], [ -3.6142, 40.8155 ], [ -3.6142, 40.8147 ], [ -3.614, 40.8141 ], [ -3.6138, 40.812 ], [ -3.6135, 40.8113 ], [ -3.6134, 40.8107 ], [ -3.6128, 40.81 ], [ -3.6121, 40.8096 ], [ -3.6118, 40.8092 ], [ -3.6088, 40.8091 ], [ -3.6065, 40.8084 ], [ -3.6054, 40.8075 ], [ -3.6053, 40.8071 ], [ -3.6062, 40.8067 ], [ -3.6059, 40.8064 ], [ -3.6051, 40.8067 ], [ -3.6046, 40.8056 ], [ -3.6039, 40.805 ], [ -3.6035, 40.8043 ], [ -3.6028, 40.8036 ], [ -3.6006, 40.8023 ], [ -3.5955, 40.8021 ], [ -3.5942, 40.8017 ], [ -3.5937, 40.8012 ], [ -3.5937, 40.7998 ], [ -3.5935, 40.7991 ], [ -3.5935, 40.7972 ], [ -3.5933, 40.7983 ], [ -3.5936, 40.7998 ], [ -3.5936, 40.8012 ], [ -3.5942, 40.8017 ], [ -3.595, 40.8021 ], [ -3.5955, 40.8022 ], [ -3.6002, 40.8023 ], [ -3.6007, 40.8025 ], [ -3.6021, 40.8033 ], [ -3.6034, 40.8043 ], [ -3.6039, 40.8051 ], [ -3.6044, 40.8056 ], [ -3.605, 40.8068 ], [ -3.6046, 40.8068 ], [ -3.6041, 40.806 ], [ -3.6037, 40.8066 ], [ -3.6037, 40.8068 ], [ -3.6034, 40.807 ], [ -3.6024, 40.8068 ], [ -3.6024, 40.8062 ], [ -3.6021, 40.8059 ], [ -3.601, 40.8064 ], [ -3.6005, 40.8064 ], [ -3.6002, 40.8066 ], [ -3.6, 40.8068 ], [ -3.6002, 40.8074 ], [ -3.5997, 40.8079 ], [ -3.6001, 40.8082 ], [ -3.6007, 40.8074 ], [ -3.6005, 40.8069 ], [ -3.6019, 40.8063 ], [ -3.602, 40.8071 ], [ -3.6036, 40.8074 ], [ -3.6041, 40.807 ], [ -3.6041, 40.8068 ], [ -3.6044, 40.8072 ], [ -3.6051, 40.8071 ], [ -3.6053, 40.8076 ], [ -3.6059, 40.8081 ], [ -3.6065, 40.8085 ], [ -3.6073, 40.8087 ], [ -3.6078, 40.809 ], [ -3.6095, 40.8093 ], [ -3.6109, 40.8092 ], [ -3.6118, 40.8093 ], [ -3.612, 40.8096 ], [ -3.6131, 40.8104 ], [ -3.6133, 40.8108 ], [ -3.6137, 40.812 ], [ -3.6141, 40.8155 ], [ -3.6136, 40.8172 ], [ -3.6131, 40.8181 ], [ -3.6126, 40.8184 ], [ -3.6112, 40.8184 ], [ -3.608, 40.8175 ], [ -3.6071, 40.8171 ], [ -3.6065, 40.8164 ], [ -3.6061, 40.8164 ], [ -3.6058, 40.8155 ], [ -3.6056, 40.8153 ], [ -3.6057, 40.8148 ], [ -3.6053, 40.8146 ], [ -3.6051, 40.8152 ], [ -3.6036, 40.8148 ], [ -3.6026, 40.8147 ], [ -3.6024, 40.8145 ], [ -3.6018, 40.8143 ], [ -3.6014, 40.8139 ], [ -3.6008, 40.814 ], [ -3.5993, 40.8136 ], [ -3.5954, 40.813 ], [ -3.5939, 40.8122 ], [ -3.5927, 40.811 ], [ -3.5922, 40.8103 ], [ -3.5909, 40.8094 ], [ -3.5909, 40.8092 ], [ -3.5903, 40.8089 ], [ -3.589, 40.8071 ], [ -3.5889, 40.8068 ], [ -3.5871, 40.8048 ], [ -3.5867, 40.8046 ], [ -3.586, 40.8048 ], [ -3.5862, 40.8042 ], [ -3.5861, 40.8039 ], [ -3.5862, 40.8039 ], [ -3.5862, 40.803 ], [ -3.5853, 40.7999 ], [ -3.5846, 40.799 ], [ -3.5848, 40.7984 ], [ -3.5846, 40.7976 ], [ -3.5847, 40.7972 ], [ -3.5842, 40.7965 ], [ -3.5838, 40.7954 ], [ -3.5835, 40.795 ], [ -3.5827, 40.7945 ], [ -3.5828, 40.794 ], [ -3.5868, 40.7928 ], [ -3.5878, 40.793 ], [ -3.5889, 40.7936 ], [ -3.59, 40.7936 ], [ -3.5913, 40.7938 ], [ -3.5923, 40.7937 ], [ -3.5939, 40.7941 ], [ -3.5943, 40.7944 ], [ -3.5944, 40.7941 ], [ -3.5941, 40.7938 ], [ -3.5929, 40.7935 ], [ -3.5922, 40.7934 ], [ -3.5913, 40.7935 ], [ -3.5907, 40.7933 ], [ -3.5891, 40.7933 ], [ -3.588, 40.7927 ], [ -3.5872, 40.7925 ], [ -3.5868, 40.7925 ], [ -3.5833, 40.7935 ], [ -3.5825, 40.7936 ], [ -3.5811, 40.7935 ], [ -3.5802, 40.7931 ], [ -3.5794, 40.793 ], [ -3.5785, 40.7931 ], [ -3.5752, 40.7927 ], [ -3.5753, 40.793 ], [ -3.5783, 40.7934 ], [ -3.5794, 40.7932 ], [ -3.5801, 40.7933 ], [ -3.5805, 40.7935 ], [ -3.5807, 40.7938 ], [ -3.5831, 40.795 ], [ -3.5836, 40.7955 ], [ -3.5838, 40.7958 ], [ -3.584, 40.7966 ], [ -3.5844, 40.7972 ], [ -3.5843, 40.7974 ], [ -3.5846, 40.7982 ], [ -3.5843, 40.7991 ], [ -3.5851, 40.8 ], [ -3.586, 40.8031 ], [ -3.5859, 40.8039 ], [ -3.586, 40.8042 ], [ -3.5858, 40.8046 ], [ -3.5858, 40.8049 ], [ -3.5846, 40.8053 ], [ -3.5837, 40.8054 ], [ -3.5831, 40.8051 ], [ -3.583, 40.8054 ], [ -3.5826, 40.8054 ], [ -3.5822, 40.8052 ], [ -3.5813, 40.8044 ], [ -3.5807, 40.8033 ], [ -3.5801, 40.8031 ], [ -3.5802, 40.8028 ], [ -3.5796, 40.8022 ], [ -3.5785, 40.8016 ], [ -3.5777, 40.8016 ], [ -3.5778, 40.8018 ], [ -3.5787, 40.8019 ], [ -3.5796, 40.8025 ], [ -3.5799, 40.8028 ], [ -3.5799, 40.8031 ], [ -3.5807, 40.8037 ], [ -3.5811, 40.8045 ], [ -3.5824, 40.8056 ], [ -3.5831, 40.8056 ], [ -3.5839, 40.8058 ], [ -3.586, 40.805 ], [ -3.5867, 40.8048 ], [ -3.5869, 40.8049 ], [ -3.5876, 40.8056 ], [ -3.588, 40.8062 ], [ -3.5887, 40.8068 ], [ -3.5888, 40.8072 ], [ -3.5894, 40.8078 ], [ -3.5894, 40.8086 ], [ -3.5906, 40.8093 ], [ -3.5921, 40.8105 ], [ -3.5925, 40.8111 ], [ -3.5936, 40.8122 ], [ -3.5939, 40.8132 ], [ -3.594, 40.8142 ], [ -3.5949, 40.8161 ], [ -3.5959, 40.8167 ], [ -3.5965, 40.8169 ], [ -3.5972, 40.8175 ], [ -3.5978, 40.8177 ], [ -3.5979, 40.8178 ], [ -3.5981, 40.8179 ], [ -3.5984, 40.8182 ], [ -3.5995, 40.8188 ], [ -3.6002, 40.8191 ], [ -3.6002, 40.8192 ], [ -3.6004, 40.8192 ], [ -3.6005, 40.8193 ], [ -3.6007, 40.8194 ], [ -3.6008, 40.8195 ], [ -3.6011, 40.8197 ], [ -3.6014, 40.8199 ], [ -3.6016, 40.82 ], [ -3.6022, 40.8205 ], [ -3.6024, 40.8206 ], [ -3.6025, 40.8205 ], [ -3.6023, 40.8205 ], [ -3.6013, 40.8197 ], [ -3.6011, 40.8197 ], [ -3.6009, 40.8196 ], [ -3.6005, 40.8193 ], [ -3.6003, 40.8191 ], [ -3.5985, 40.8182 ], [ -3.5979, 40.8177 ], [ -3.5972, 40.8174 ], [ -3.5966, 40.8169 ], [ -3.5951, 40.8161 ], [ -3.5942, 40.8142 ], [ -3.594, 40.8134 ], [ -3.5943, 40.8132 ], [ -3.5952, 40.8131 ], [ -3.5979, 40.814 ], [ -3.5995, 40.814 ], [ -3.6011, 40.8144 ], [ -3.6037, 40.8153 ], [ -3.6039, 40.8151 ], [ -3.605, 40.8153 ], [ -3.6061, 40.8165 ], [ -3.606, 40.8166 ], [ -3.6063, 40.8166 ], [ -3.607, 40.8172 ], [ -3.6079, 40.8177 ], [ -3.6111, 40.8185 ], [ -3.6125, 40.8187 ], [ -3.6108, 40.8192 ], [ -3.6069, 40.821 ], [ -3.6048, 40.8224 ], [ -3.6046, 40.823 ], [ -3.6046, 40.8235 ], [ -3.6037, 40.8239 ], [ -3.603, 40.8245 ], [ -3.6021, 40.825 ], [ -3.6015, 40.8251 ], [ -3.601, 40.8254 ], [ -3.5974, 40.8266 ], [ -3.5968, 40.8273 ], [ -3.5947, 40.8286 ], [ -3.5947, 40.829 ], [ -3.5948, 40.829 ], [ -3.5932, 40.8294 ] ] ] } },
{ "type": "Feature", "properties": { "municipio": "Redueña", "clasificacion": "urbanizable-sectorizado", "calificacion": "sin-asignar", "version": "vigente", "fuente": "SIT-CAM WFS — UsoDelSuelo:VPLA_V_CLASIFICACION (https://idem.comunidad.madrid/geosrvg/ows)", "fecha_dato": "2026-05-12", "ambito": "56130", "_raw_CD_SIGLAS": "SUBS", "_raw_DS_CLASIF_GEN": "Suelo Apto Para Urbanizar", "_raw_DS_CLASIF_DET": "Suelo Apto para Urbanizar", "_raw_DS_DOCU": "NORMAS SUBSIDIARIAS", "_raw_DS_LEY": "CM Ley 9/2001, E Ley 6/1998", "_raw_FC_AC": "2004-02-24", "_raw_NM_AREA_M2": 113917.3523955, "_cam_code": "121" }, "geometry": { "type": "Polygon", "coordinates": [ [ [ -3.5998, 40.8169 ], [ -3.6007, 40.8167 ], [ -3.6008, 40.8163 ], [ -3.6009, 40.8163 ], [ -3.6009, 40.8161 ], [ -3.6011, 40.8159 ], [ -3.6016, 40.8161 ], [ -3.6013, 40.8158 ], [ -3.6016, 40.8157 ], [ -3.6016, 40.8156 ], [ -3.601, 40.8151 ], [ -3.5991, 40.815 ], [ -3.5988, 40.8148 ], [ -3.5989, 40.8145 ], [ -3.599, 40.8146 ], [ -3.5993, 40.8142 ], [ -3.5998, 40.8145 ], [ -3.6002, 40.8142 ], [ -3.5995, 40.814 ], [ -3.5979, 40.814 ], [ -3.5962, 40.8135 ], [ -3.5962, 40.8134 ], [ -3.5959, 40.8133 ], [ -3.5952, 40.8134 ], [ -3.5953, 40.8138 ], [ -3.5952, 40.814 ], [ -3.5958, 40.8151 ], [ -3.5964, 40.8155 ], [ -3.597, 40.8155 ], [ -3.5972, 40.8157 ], [ -3.5972, 40.816 ], [ -3.598, 40.8166 ], [ -3.5992, 40.8169 ], [ -3.5996, 40.8168 ], [ -3.5998, 40.8169 ] ] ] } },
{ "type": "Feature", "properties": { "municipio": "Redueña", "clasificacion": "urbanizable-sectorizado", "calificacion": "sin-asignar", "version": "vigente", "fuente": "SIT-CAM WFS — UsoDelSuelo:VPLA_V_CLASIFICACION (https://idem.comunidad.madrid/geosrvg/ows)", "fecha_dato": "2026-05-12", "ambito": "56130", "_raw_CD_SIGLAS": "SUBS", "_raw_DS_CLASIF_GEN": "Suelo Apto Para Urbanizar", "_raw_DS_CLASIF_DET": "Suelo Apto para Urbanizar", "_raw_DS_DOCU": "NORMAS SUBSIDIARIAS", "_raw_DS_LEY": "CM Ley 9/2001, E Ley 6/1998", "_raw_FC_AC": "2004-02-24", "_raw_NM_AREA_M2": 161890.63262007499, "_cam_code": "121" }, "geometry": { "type": "Polygon", "coordinates": [ [ [ -3.58, 40.817 ], [ -3.5807, 40.8176 ], [ -3.5816, 40.8171 ], [ -3.5816, 40.8173 ], [ -3.5818, 40.8174 ], [ -3.5823, 40.8174 ], [ -3.5824, 40.8169 ], [ -3.5828, 40.8166 ], [ -3.5834, 40.8165 ], [ -3.5839, 40.8166 ], [ -3.5849, 40.8164 ], [ -3.5859, 40.8159 ], [ -3.5876, 40.8147 ], [ -3.5889, 40.814 ], [ -3.5888, 40.8127 ], [ -3.5868, 40.8132 ], [ -3.5797, 40.8162 ], [ -3.58, 40.817 ] ] ] } },
{ "type": "Feature", "properties": { "municipio": "Redueña", "clasificacion": "urbanizable-sectorizado", "calificacion": "sin-asignar", "version": "vigente", "fuente": "SIT-CAM WFS — UsoDelSuelo:VPLA_V_CLASIFICACION (https://idem.comunidad.madrid/geosrvg/ows)", "fecha_dato": "2026-05-12", "ambito": "56130", "_raw_CD_SIGLAS": "SUBS", "_raw_DS_CLASIF_GEN": "Suelo Apto Para Urbanizar", "_raw_DS_CLASIF_DET": "Suelo Apto para Urbanizar", "_raw_DS_DOCU": "NORMAS SUBSIDIARIAS", "_raw_DS_LEY": "CM Ley 9/2001, E Ley 6/1998", "_raw_FC_AC": "2004-02-24", "_raw_NM_AREA_M2": 32392.169659183201, "_cam_code": "121" }, "geometry": { "type": "Polygon", "coordinates": [ [ [ -3.6017, 40.8176 ], [ -3.6035, 40.8186 ], [ -3.6036, 40.8185 ], [ -3.6043, 40.8185 ], [ -3.6043, 40.8184 ], [ -3.6047, 40.8183 ], [ -3.6053, 40.8173 ], [ -3.6055, 40.8172 ], [ -3.6046, 40.817 ], [ -3.6043, 40.8171 ], [ -3.6039, 40.817 ], [ -3.6027, 40.8173 ], [ -3.6024, 40.8175 ], [ -3.6018, 40.8173 ], [ -3.6017, 40.8176 ] ] ] } },
{ "type": "Feature", "properties": { "municipio": "Redueña", "clasificacion": "urbanizable-sectorizado", "calificacion": "sin-asignar", "version": "vigente", "fuente": "SIT-CAM WFS — UsoDelSuelo:VPLA_V_CLASIFICACION (https://idem.comunidad.madrid/geosrvg/ows)", "fecha_dato": "2026-05-12", "ambito": "56130", "_raw_CD_SIGLAS": "SUBS", "_raw_DS_CLASIF_GEN": "Suelo Apto Para Urbanizar", "_raw_DS_CLASIF_DET": "Suelo Apto para Urbanizar", "_raw_DS_DOCU": "NORMAS SUBSIDIARIAS", "_raw_DS_LEY": "CM Ley 9/2001, E Ley 6/1998", "_raw_FC_AC": "2004-02-24", "_raw_NM_AREA_M2": 41465.523431775502, "_cam_code": "121" }, "geometry": { "type": "Polygon", "coordinates": [ [ [ -3.6001, 40.819 ], [ -3.6011, 40.8182 ], [ -3.6017, 40.8175 ], [ -3.6015, 40.8172 ], [ -3.6011, 40.817 ], [ -3.5989, 40.8172 ], [ -3.5984, 40.8174 ], [ -3.5979, 40.8178 ], [ -3.6001, 40.819 ] ] ] } },
{ "type": "Feature", "properties": { "municipio": "Redueña", "clasificacion": "urbanizable-sectorizado", "calificacion": "sin-asignar", "version": "vigente", "fuente": "SIT-CAM WFS — UsoDelSuelo:VPLA_V_CLASIFICACION (https://idem.comunidad.madrid/geosrvg/ows)", "fecha_dato": "2026-05-12", "ambito": "56130", "_raw_CD_SIGLAS": "SUBS", "_raw_DS_CLASIF_GEN": "Suelo Apto Para Urbanizar", "_raw_DS_CLASIF_DET": "Suelo Apto para Urbanizar", "_raw_DS_DOCU": "NORMAS SUBSIDIARIAS", "_raw_DS_LEY": "CM Ley 9/2001, E Ley 6/1998", "_raw_FC_AC": "2004-02-24", "_raw_NM_AREA_M2": 43485.862918695202, "_cam_code": "121" }, "geometry": { "type": "Polygon", "coordinates": [ [ [ -3.5988, 40.8207 ], [ -3.5997, 40.8218 ], [ -3.6003, 40.8214 ], [ -3.6015, 40.8214 ], [ -3.6017, 40.8215 ], [ -3.6021, 40.8213 ], [ -3.6024, 40.8206 ], [ -3.6011, 40.8197 ], [ -3.6005, 40.8203 ], [ -3.6002, 40.8204 ], [ -3.5994, 40.8198 ], [ -3.5984, 40.8204 ], [ -3.5988, 40.8207 ] ] ] } },
{ "type": "Feature", "properties": { "municipio": "Redueña", "clasificacion": "urbano-consolidado", "calificacion": "sin-asignar", "version": "vigente", "fuente": "SIT-CAM WFS — UsoDelSuelo:VPLA_V_CLASIFICACION (https://idem.comunidad.madrid/geosrvg/ows)", "fecha_dato": "2026-05-12", "ambito": "56130", "_raw_CD_SIGLAS": "SUC", "_raw_DS_CLASIF_GEN": "Suelo Urbano Consolidado", "_raw_DS_CLASIF_DET": "Suelo Urbano Consolidado", "_raw_DS_DOCU": "NORMAS SUBSIDIARIAS", "_raw_DS_LEY": "CM Ley 9/2001, E Ley 6/1998", "_raw_FC_AC": "2004-02-24", "_raw_NM_AREA_M2": 127233.384238463, "_cam_code": "121" }, "geometry": { "type": "Polygon", "coordinates": [ [ [ -3.6001, 40.819 ], [ -3.6018, 40.8201 ], [ -3.602, 40.8198 ], [ -3.6024, 40.8198 ], [ -3.6029, 40.8201 ], [ -3.603, 40.8198 ], [ -3.6021, 40.8191 ], [ -3.6028, 40.8186 ], [ -3.6031, 40.8187 ], [ -3.6034, 40.8186 ], [ -3.6022, 40.8178 ], [ -3.6017, 40.8176 ], [ -3.6018, 40.8173 ], [ -3.602, 40.8174 ], [ -3.6024, 40.8175 ], [ -3.6027, 40.8173 ], [ -3.6039, 40.817 ], [ -3.6043, 40.8171 ], [ -3.6046, 40.817 ], [ -3.6055, 40.8172 ], [ -3.6058, 40.8174 ], [ -3.6063, 40.8171 ], [ -3.6059, 40.8167 ], [ -3.6061, 40.8165 ], [ -3.605, 40.8153 ], [ -3.6039, 40.8151 ], [ -3.6038, 40.8155 ], [ -3.604, 40.8155 ], [ -3.604, 40.8158 ], [ -3.6037, 40.8159 ], [ -3.6037, 40.816 ], [ -3.6034, 40.8156 ], [ -3.6022, 40.8149 ], [ -3.6002, 40.8142 ], [ -3.5998, 40.8145 ], [ -3.5993, 40.8142 ], [ -3.599, 40.8146 ], [ -3.5989, 40.8145 ], [ -3.5988, 40.8148 ], [ -3.5989, 40.8149 ], [ -3.5991, 40.815 ], [ -3.601, 40.8151 ], [ -3.6016, 40.8156 ], [ -3.6022, 40.8159 ], [ -3.6019, 40.8164 ], [ -3.6011, 40.8162 ], [ -3.601, 40.8164 ], [ -3.6013, 40.8165 ], [ -3.6012, 40.8168 ], [ -3.6016, 40.8169 ], [ -3.6018, 40.8173 ], [ -3.6011, 40.8169 ], [ -3.6006, 40.8168 ], [ -3.6003, 40.8168 ], [ -3.5998, 40.8171 ], [ -3.6011, 40.817 ], [ -3.6017, 40.8174 ], [ -3.6012, 40.8181 ], [ -3.6001, 40.819 ] ], [ [ -3.6025, 40.8174 ], [ -3.6018, 40.8173 ], [ -3.6019, 40.8169 ], [ -3.6021, 40.8167 ], [ -3.6028, 40.8167 ], [ -3.6029, 40.8166 ], [ -3.6029, 40.8168 ], [ -3.6031, 40.817 ], [ -3.6026, 40.8172 ], [ -3.6027, 40.8173 ], [ -3.6025, 40.8174 ] ] ] } },
{ "type": "Feature", "properties": { "municipio": "Redueña", "clasificacion": "urbano-consolidado", "calificacion": "sin-asignar", "version": "vigente", "fuente": "SIT-CAM WFS — UsoDelSuelo:VPLA_V_CLASIFICACION (https://idem.comunidad.madrid/geosrvg/ows)", "fecha_dato": "2026-05-12", "ambito": "56130", "_raw_CD_SIGLAS": "SUC", "_raw_DS_CLASIF_GEN": "Suelo Urbano Consolidado", "_raw_DS_CLASIF_DET": "Suelo Urbano Consolidado", "_raw_DS_DOCU": "NORMAS SUBSIDIARIAS", "_raw_DS_LEY": "CM Ley 9/2001, E Ley 6/1998", "_raw_FC_AC": "2004-02-24", "_raw_NM_AREA_M2": 1574.3831359951901, "_cam_code": "121" }, "geometry": { "type": "Polygon", "coordinates": [ [ [ -3.5978, 40.8177 ], [ -3.5976, 40.8179 ], [ -3.5981, 40.8183 ], [ -3.5983, 40.8181 ], [ -3.5978, 40.8177 ] ] ] } },
{ "type": "Feature", "properties": { "municipio": "Redueña", "clasificacion": "urbano-no-consolidado", "calificacion": "sin-asignar", "version": "vigente", "fuente": "SIT-CAM WFS — UsoDelSuelo:VPLA_V_CLASIFICACION (https://idem.comunidad.madrid/geosrvg/ows)", "fecha_dato": "2026-05-12", "ambito": "56130", "_raw_CD_SIGLAS": "SUNC", "_raw_DS_CLASIF_GEN": "Suelo Urbano No Consolidado", "_raw_DS_CLASIF_DET": "Suelo Urbano No Consolidado", "_raw_DS_DOCU": "NORMAS SUBSIDIARIAS", "_raw_DS_LEY": "CM Ley 9/2001, E Ley 6/1998", "_raw_FC_AC": "2004-02-24", "_raw_NM_AREA_M2": 29559.4216373085, "_cam_code": "121" }, "geometry": { "type": "Polygon", "coordinates": [ [ [ -3.5967, 40.816 ], [ -3.5978, 40.8173 ], [ -3.5981, 40.8174 ], [ -3.5979, 40.8178 ], [ -3.5986, 40.8173 ], [ -3.5996, 40.8172 ], [ -3.5996, 40.8171 ], [ -3.5999, 40.8171 ], [ -3.6003, 40.8168 ], [ -3.6011, 40.8169 ], [ -3.6018, 40.8173 ], [ -3.6016, 40.8169 ], [ -3.6012, 40.8168 ], [ -3.6013, 40.8165 ], [ -3.601, 40.8164 ], [ -3.6011, 40.8162 ], [ -3.6019, 40.8164 ], [ -3.6022, 40.8159 ], [ -3.6016, 40.8156 ], [ -3.6016, 40.8157 ], [ -3.6013, 40.8158 ], [ -3.6016, 40.8161 ], [ -3.6011, 40.8159 ], [ -3.6009, 40.8161 ], [ -3.6009, 40.8163 ], [ -3.6008, 40.8163 ], [ -3.6007, 40.8167 ], [ -3.5992, 40.8169 ], [ -3.5976, 40.8164 ], [ -3.5972, 40.816 ], [ -3.5972, 40.8157 ], [ -3.597, 40.8155 ], [ -3.5964, 40.8155 ], [ -3.5963, 40.8154 ], [ -3.5962, 40.8157 ], [ -3.5967, 40.816 ] ] ] } },
{ "type": "Feature", "properties": { "municipio": "Redueña", "clasificacion": "urbano-no-consolidado", "calificacion": "sin-asignar", "version": "vigente", "fuente": "SIT-CAM WFS — UsoDelSuelo:VPLA_V_CLASIFICACION (https://idem.comunidad.madrid/geosrvg/ows)", "fecha_dato": "2026-05-12", "ambito": "56130", "_raw_CD_SIGLAS": "SUNC", "_raw_DS_CLASIF_GEN": "Suelo Urbano No Consolidado", "_raw_DS_CLASIF_DET": "Suelo Urbano No Consolidado", "_raw_DS_DOCU": "NORMAS SUBSIDIARIAS", "_raw_DS_LEY": "CM Ley 9/2001, E Ley 6/1998", "_raw_FC_AC": "2004-02-24", "_raw_NM_AREA_M2": 3415.11873245282, "_cam_code": "121" }, "geometry": { "type": "Polygon", "coordinates": [ [ [ -3.6019, 40.8199 ], [ -3.6018, 40.8201 ], [ -3.6023, 40.8205 ], [ -3.6028, 40.82 ], [ -3.6026, 40.82 ], [ -3.6024, 40.8198 ], [ -3.6019, 40.8199 ] ] ] } },
{ "type": "Feature", "properties": { "municipio": "Redueña", "clasificacion": "urbano-no-consolidado", "calificacion": "sin-asignar", "version": "vigente", "fuente": "SIT-CAM WFS — UsoDelSuelo:VPLA_V_CLASIFICACION (https://idem.comunidad.madrid/geosrvg/ows)", "fecha_dato": "2026-05-12", "ambito": "56130", "_raw_CD_SIGLAS": "SUNC", "_raw_DS_CLASIF_GEN": "Suelo Urbano No Consolidado", "_raw_DS_CLASIF_DET": "Suelo Urbano No Consolidado", "_raw_DS_DOCU": "NORMAS SUBSIDIARIAS", "_raw_DS_LEY": "CM Ley 9/2001, E Ley 6/1998", "_raw_FC_AC": "2004-02-24", "_raw_NM_AREA_M2": 10334.5513375023, "_cam_code": "121" }, "geometry": { "type": "Polygon", "coordinates": [ [ [ -3.6002, 40.8191 ], [ -3.5997, 40.8197 ], [ -3.5994, 40.8198 ], [ -3.6002, 40.8204 ], [ -3.6005, 40.8203 ], [ -3.6011, 40.8198 ], [ -3.6004, 40.8192 ], [ -3.6002, 40.8192 ], [ -3.6002, 40.8191 ] ] ] } },
{ "type": "Feature", "properties": { "municipio": "Redueña", "clasificacion": "urbano-no-consolidado", "calificacion": "sin-asignar", "version": "vigente", "fuente": "SIT-CAM WFS — UsoDelSuelo:VPLA_V_CLASIFICACION (https://idem.comunidad.madrid/geosrvg/ows)", "fecha_dato": "2026-05-12", "ambito": "56130", "_raw_CD_SIGLAS": "SUNC", "_raw_DS_CLASIF_GEN": "Suelo Urbano No Consolidado", "_raw_DS_CLASIF_DET": "Suelo Urbano No Consolidado", "_raw_DS_DOCU": "NORMAS SUBSIDIARIAS", "_raw_DS_LEY": "CM Ley 9/2001, E Ley 6/1998", "_raw_FC_AC": "2004-02-24", "_raw_NM_AREA_M2": 7462.13971001758, "_cam_code": "121" }, "geometry": { "type": "Polygon", "coordinates": [ [ [ -3.6026, 40.8187 ], [ -3.6021, 40.8191 ], [ -3.6028, 40.8196 ], [ -3.603, 40.8199 ], [ -3.6031, 40.8198 ], [ -3.6031, 40.8192 ], [ -3.6035, 40.8188 ], [ -3.6032, 40.8186 ], [ -3.6031, 40.8187 ], [ -3.603, 40.8186 ], [ -3.6026, 40.8187 ] ] ] } },
{ "type": "Feature", "properties": { "municipio": "Redueña", "clasificacion": "urbano-no-consolidado", "calificacion": "sin-asignar", "version": "vigente", "fuente": "SIT-CAM WFS — UsoDelSuelo:VPLA_V_CLASIFICACION (https://idem.comunidad.madrid/geosrvg/ows)", "fecha_dato": "2026-05-12", "ambito": "56130", "_raw_CD_SIGLAS": "SUNC", "_raw_DS_CLASIF_GEN": "Suelo Urbano No Consolidado", "_raw_DS_CLASIF_DET": "Suelo Urbano No Consolidado", "_raw_DS_DOCU": "NORMAS SUBSIDIARIAS", "_raw_DS_LEY": "CM Ley 9/2001, E Ley 6/1998", "_raw_FC_AC": "2004-02-24", "_raw_NM_AREA_M2": 5439.8041167159699, "_cam_code": "121" }, "geometry": { "type": "Polygon", "coordinates": [ [ [ -3.602, 40.8168 ], [ -3.6018, 40.8173 ], [ -3.602, 40.8174 ], [ -3.6025, 40.8174 ], [ -3.6027, 40.8173 ], [ -3.6026, 40.8172 ], [ -3.6031, 40.817 ], [ -3.6029, 40.8168 ], [ -3.6029, 40.8166 ], [ -3.602, 40.8168 ] ] ] } }
]
}
