{
"type": "FeatureCollection",
"name": "vigente.full",
"features": [
{ "type": "Feature", "properties": { "municipio": "Torrelaguna", "clasificacion": "urbano-consolidado", "calificacion": "equipamiento", "version": "vigente", "fuente": "SIT-CAM WFS — UsoDelSuelo:VPLA_V_CLASIFICACION (https://idem.comunidad.madrid/geosrvg/ows)", "fecha_dato": "2026-05-12", "ambito": "25849", "_raw_CD_SIGLAS": "SG", "_raw_DS_CLASIF_GEN": "Sistemas Generales", "_raw_DS_CLASIF_DET": "Sistemas Generales de Infraestructura", "_raw_DS_DOCU": "NORMAS SUBSIDIARIAS", "_raw_DS_LEY": "CM Ley 4/1984, E RD 1346/1976", "_raw_FC_AC": "1994-11-10", "_raw_NM_AREA_M2": 7513.4719595450597, "_cam_code": "151" }, "geometry": { "type": "Polygon", "coordinates": [ [ [ -3.5377, 40.8124 ], [ -3.5379, 40.8123 ], [ -3.538, 40.8124 ], [ -3.5388, 40.8119 ], [ -3.5382, 40.8114 ], [ -3.5377, 40.8116 ], [ -3.5373, 40.8118 ], [ -3.5377, 40.8124 ] ] ] } },
{ "type": "Feature", "properties": { "municipio": "Torrelaguna", "clasificacion": "urbano-consolidado", "calificacion": "equipamiento", "version": "vigente", "fuente": "SIT-CAM WFS — UsoDelSuelo:VPLA_V_CLASIFICACION (https://idem.comunidad.madrid/geosrvg/ows)", "fecha_dato": "2026-05-12", "ambito": "25849", "_raw_CD_SIGLAS": "SG", "_raw_DS_CLASIF_GEN": "Sistemas Generales", "_raw_DS_CLASIF_DET": "Sistemas Generales de Infraestructura", "_raw_DS_DOCU": "NORMAS SUBSIDIARIAS", "_raw_DS_LEY": "CM Ley 4/1984, E RD 1346/1976", "_raw_FC_AC": "1994-11-10", "_raw_NM_AREA_M2": 89397.051280615502, "_cam_code": "151" }, "geometry": { "type": "Polygon", "coordinates": [ [ [ -3.5629, 40.8208 ], [ -3.5649, 40.8212 ], [ -3.5659, 40.8221 ], [ -3.5664, 40.8229 ], [ -3.5678, 40.8218 ], [ -3.5677, 40.8215 ], [ -3.5675, 40.8215 ], [ -3.5672, 40.8212 ], [ -3.566, 40.8205 ], [ -3.566, 40.8204 ], [ -3.5634, 40.8188 ], [ -3.5626, 40.8192 ], [ -3.5617, 40.8203 ], [ -3.5612, 40.8206 ], [ -3.5618, 40.8209 ], [ -3.5629, 40.8208 ] ] ] } },
{ "type": "Feature", "properties": { "municipio": "Torrelaguna", "clasificacion": "urbano-consolidado", "calificacion": "equipamiento", "version": "vigente", "fuente": "SIT-CAM WFS — UsoDelSuelo:VPLA_V_CLASIFICACION (https://idem.comunidad.madrid/geosrvg/ows)", "fecha_dato": "2026-05-12", "ambito": "25849", "_raw_CD_SIGLAS": "SG", "_raw_DS_CLASIF_GEN": "Sistemas Generales", "_raw_DS_CLASIF_DET": "Sistemas Generales de Infraestructura", "_raw_DS_DOCU": "NORMAS SUBSIDIARIAS", "_raw_DS_LEY": "CM Ley 4/1984, E RD 1346/1976", "_raw_FC_AC": "1994-11-10", "_raw_NM_AREA_M2": 11328.0242424139, "_cam_code": "151" }, "geometry": { "type": "Polygon", "coordinates": [ [ [ -3.603, 40.842 ], [ -3.6038, 40.8428 ], [ -3.6047, 40.8422 ], [ -3.604, 40.8415 ], [ -3.603, 40.842 ] ] ] } },
{ "type": "Feature", "properties": { "municipio": "Torrelaguna", "clasificacion": "urbano-consolidado", "calificacion": "equipamiento", "version": "vigente", "fuente": "SIT-CAM WFS — UsoDelSuelo:VPLA_V_CLASIFICACION (https://idem.comunidad.madrid/geosrvg/ows)", "fecha_dato": "2026-05-12", "ambito": "25849", "_raw_CD_SIGLAS": "SG", "_raw_DS_CLASIF_GEN": "Sistemas Generales", "_raw_DS_CLASIF_DET": "Sistemas Generales de Infraestructura", "_raw_DS_DOCU": "NORMAS SUBSIDIARIAS", "_raw_DS_LEY": "CM Ley 4/1984, E RD 1346/1976", "_raw_FC_AC": "1994-11-10", "_raw_NM_AREA_M2": 9890.0399648606999, "_cam_code": "151" }, "geometry": { "type": "Polygon", "coordinates": [ [ [ -3.5225, 40.8459 ], [ -3.5237, 40.8454 ], [ -3.5244, 40.8451 ], [ -3.5233, 40.8444 ], [ -3.5225, 40.8459 ] ] ] } },
{ "type": "Feature", "properties": { "municipio": "Torrelaguna", "clasificacion": "urbano-consolidado", "calificacion": "equipamiento", "version": "vigente", "fuente": "SIT-CAM WFS — UsoDelSuelo:VPLA_V_CLASIFICACION (https://idem.comunidad.madrid/geosrvg/ows)", "fecha_dato": "2026-05-12", "ambito": "25849", "_raw_CD_SIGLAS": "SG", "_raw_DS_CLASIF_GEN": "Sistemas Generales", "_raw_DS_CLASIF_DET": "Sistemas Generales de Infraestructuras", "_raw_DS_DOCU": "NORMAS SUBSIDIARIAS", "_raw_DS_LEY": "CM Ley 4/1984, E RD 1346/1976", "_raw_FC_AC": "1994-11-10", "_raw_NM_AREA_M2": 104941.13056905, "_cam_code": "151" }, "geometry": { "type": "Polygon", "coordinates": [ [ [ -3.5788, 40.8337 ], [ -3.5783, 40.8351 ], [ -3.585, 40.8342 ], [ -3.5851, 40.8343 ], [ -3.5861, 40.8336 ], [ -3.5808, 40.8319 ], [ -3.5803, 40.8338 ], [ -3.5801, 40.8341 ], [ -3.5792, 40.834 ], [ -3.5788, 40.8337 ] ] ] } },
{ "type": "Feature", "properties": { "municipio": "Torrelaguna", "clasificacion": "urbano-consolidado", "calificacion": "equipamiento", "version": "vigente", "fuente": "SIT-CAM WFS — UsoDelSuelo:VPLA_V_CLASIFICACION (https://idem.comunidad.madrid/geosrvg/ows)", "fecha_dato": "2026-05-12", "ambito": "25849", "_raw_CD_SIGLAS": "SG", "_raw_DS_CLASIF_GEN": "Sistemas Generales", "_raw_DS_CLASIF_DET": "Sistemas Generales de Infraestructura", "_raw_DS_DOCU": "NORMAS SUBSIDIARIAS", "_raw_DS_LEY": "CM Ley 4/1984, E RD 1346/1976", "_raw_FC_AC": "1994-11-10", "_raw_NM_AREA_M2": 312503.273152554, "_cam_code": "151" }, "geometry": { "type": "Polygon", "coordinates": [ [ [ -3.5629, 40.8362 ], [ -3.5648, 40.8367 ], [ -3.5663, 40.8363 ], [ -3.5719, 40.8362 ], [ -3.5718, 40.836 ], [ -3.5703, 40.8361 ], [ -3.5691, 40.8358 ], [ -3.5687, 40.8356 ], [ -3.5686, 40.8354 ], [ -3.5688, 40.8347 ], [ -3.5658, 40.8342 ], [ -3.565, 40.8317 ], [ -3.5647, 40.8316 ], [ -3.5643, 40.8307 ], [ -3.5643, 40.8298 ], [ -3.5644, 40.8297 ], [ -3.5647, 40.827 ], [ -3.5645, 40.827 ], [ -3.5642, 40.8273 ], [ -3.5638, 40.8282 ], [ -3.5628, 40.8287 ], [ -3.5622, 40.8292 ], [ -3.5611, 40.8291 ], [ -3.5607, 40.8292 ], [ -3.5599, 40.8297 ], [ -3.5604, 40.8318 ], [ -3.5605, 40.8318 ], [ -3.5605, 40.832 ], [ -3.5607, 40.8322 ], [ -3.561, 40.8323 ], [ -3.561, 40.8324 ], [ -3.5615, 40.8325 ], [ -3.5627, 40.8326 ], [ -3.5635, 40.8332 ], [ -3.5636, 40.8335 ], [ -3.5628, 40.8353 ], [ -3.5627, 40.8353 ], [ -3.5627, 40.8357 ], [ -3.5629, 40.8362 ] ] ] } },
{ "type": "Feature", "properties": { "municipio": "Torrelaguna", "clasificacion": "no-urbanizable-protegido", "calificacion": "sin-asignar", "version": "vigente", "fuente": "SIT-CAM WFS — UsoDelSuelo:VPLA_V_CLASIFICACION (https://idem.comunidad.madrid/geosrvg/ows)", "fecha_dato": "2026-05-12", "ambito": "25849", "_raw_CD_SIGLAS": "SNUP", "_raw_DS_CLASIF_GEN": "Suelo No Urbanizable Protegido", "_raw_DS_CLASIF_DET": "Suelo No Urbanizable Especialmente Protegido por su Valor Agrícola", "_raw_DS_DOCU": "NORMAS SUBSIDIARIAS", "_raw_DS_LEY": "CM Ley 4/1984, E RD 1346/1976", "_raw_FC_AC": "1994-11-10", "_raw_NM_AREA_M2": 3638480.7219918999, "_cam_code": "151" }, "geometry": { "type": "Polygon", "coordinates": [ [ [ -3.5633, 40.8188 ], [ -3.5678, 40.8216 ], [ -3.5678, 40.8218 ], [ -3.5665, 40.823 ], [ -3.5674, 40.8232 ], [ -3.5685, 40.8238 ], [ -3.5685, 40.8239 ], [ -3.5687, 40.8239 ], [ -3.5693, 40.8247 ], [ -3.5695, 40.8248 ], [ -3.5696, 40.8251 ], [ -3.57, 40.8254 ], [ -3.5717, 40.825 ], [ -3.5695, 40.8226 ], [ -3.5684, 40.8216 ], [ -3.5655, 40.8196 ], [ -3.5654, 40.8192 ], [ -3.5659, 40.8191 ], [ -3.5695, 40.8204 ], [ -3.5713, 40.8203 ], [ -3.5727, 40.8209 ], [ -3.5739, 40.8173 ], [ -3.5701, 40.8176 ], [ -3.5697, 40.8175 ], [ -3.5689, 40.8167 ], [ -3.5684, 40.8167 ], [ -3.5684, 40.8166 ], [ -3.5673, 40.8166 ], [ -3.5663, 40.817 ], [ -3.5656, 40.8171 ], [ -3.5629, 40.8172 ], [ -3.5625, 40.817 ], [ -3.5625, 40.8169 ], [ -3.5632, 40.8162 ], [ -3.5631, 40.8159 ], [ -3.5619, 40.8156 ], [ -3.5616, 40.8161 ], [ -3.5611, 40.8162 ], [ -3.5605, 40.816 ], [ -3.5602, 40.8154 ], [ -3.5596, 40.8151 ], [ -3.5589, 40.8153 ], [ -3.5582, 40.8153 ], [ -3.5579, 40.8152 ], [ -3.5573, 40.8147 ], [ -3.5566, 40.8147 ], [ -3.5562, 40.8142 ], [ -3.5559, 40.8141 ], [ -3.5553, 40.8141 ], [ -3.5547, 40.8144 ], [ -3.5542, 40.8144 ], [ -3.5535, 40.8141 ], [ -3.5527, 40.8134 ], [ -3.5521, 40.8133 ], [ -3.5516, 40.8129 ], [ -3.5512, 40.8128 ], [ -3.5512, 40.8127 ], [ -3.5501, 40.8124 ], [ -3.5501, 40.8123 ], [ -3.5494, 40.8121 ], [ -3.5487, 40.8117 ], [ -3.5486, 40.8115 ], [ -3.5484, 40.8115 ], [ -3.5479, 40.811 ], [ -3.5476, 40.8105 ], [ -3.5459, 40.8094 ], [ -3.5445, 40.808 ], [ -3.5429, 40.8071 ], [ -3.5419, 40.8055 ], [ -3.5414, 40.8048 ], [ -3.541, 40.8045 ], [ -3.5394, 40.8021 ], [ -3.5371, 40.7996 ], [ -3.5363, 40.7979 ], [ -3.5357, 40.796 ], [ -3.5357, 40.7956 ], [ -3.5336, 40.7901 ], [ -3.5326, 40.789 ], [ -3.5322, 40.788 ], [ -3.5311, 40.7881 ], [ -3.5295, 40.7887 ], [ -3.5275, 40.7883 ], [ -3.5281, 40.789 ], [ -3.528, 40.7897 ], [ -3.5282, 40.7914 ], [ -3.5289, 40.7924 ], [ -3.5297, 40.7945 ], [ -3.5299, 40.7957 ], [ -3.5299, 40.7975 ], [ -3.5298, 40.7975 ], [ -3.5297, 40.798 ], [ -3.5301, 40.7996 ], [ -3.5304, 40.7996 ], [ -3.5307, 40.8 ], [ -3.5305, 40.801 ], [ -3.5308, 40.8022 ], [ -3.531, 40.8024 ], [ -3.5311, 40.8029 ], [ -3.5312, 40.8029 ], [ -3.5313, 40.8037 ], [ -3.5316, 40.804 ], [ -3.5317, 40.8046 ], [ -3.5319, 40.8047 ], [ -3.5324, 40.8061 ], [ -3.5325, 40.8061 ], [ -3.5326, 40.8069 ], [ -3.5327, 40.8069 ], [ -3.5326, 40.808 ], [ -3.5325, 40.8081 ], [ -3.5326, 40.8088 ], [ -3.5329, 40.809 ], [ -3.533, 40.8096 ], [ -3.5334, 40.8101 ], [ -3.5334, 40.8103 ], [ -3.534, 40.8114 ], [ -3.5347, 40.8122 ], [ -3.5352, 40.8125 ], [ -3.5355, 40.8132 ], [ -3.5356, 40.8132 ], [ -3.5356, 40.8134 ], [ -3.5361, 40.8137 ], [ -3.5365, 40.8137 ], [ -3.5377, 40.8125 ], [ -3.538, 40.8124 ], [ -3.5379, 40.8123 ], [ -3.5377, 40.8124 ], [ -3.5373, 40.8118 ], [ -3.5382, 40.8114 ], [ -3.5389, 40.8119 ], [ -3.5384, 40.8138 ], [ -3.5386, 40.8138 ], [ -3.5388, 40.8143 ], [ -3.5394, 40.8147 ], [ -3.5401, 40.8146 ], [ -3.5395, 40.8158 ], [ -3.5394, 40.8163 ], [ -3.5407, 40.8165 ], [ -3.5413, 40.8168 ], [ -3.5417, 40.8176 ], [ -3.5426, 40.8185 ], [ -3.5432, 40.8188 ], [ -3.5435, 40.8192 ], [ -3.5445, 40.8194 ], [ -3.5447, 40.8191 ], [ -3.5448, 40.8186 ], [ -3.5451, 40.8185 ], [ -3.5452, 40.8183 ], [ -3.5456, 40.8183 ], [ -3.5458, 40.8192 ], [ -3.5458, 40.82 ], [ -3.5461, 40.8207 ], [ -3.5472, 40.8211 ], [ -3.548, 40.8211 ], [ -3.5483, 40.8217 ], [ -3.5488, 40.822 ], [ -3.5493, 40.822 ], [ -3.5496, 40.8214 ], [ -3.5499, 40.8211 ], [ -3.5502, 40.8211 ], [ -3.5506, 40.8208 ], [ -3.5508, 40.8204 ], [ -3.5516, 40.8201 ], [ -3.5531, 40.8203 ], [ -3.5545, 40.8201 ], [ -3.5547, 40.8202 ], [ -3.5557, 40.8201 ], [ -3.5577, 40.8205 ], [ -3.5588, 40.8209 ], [ -3.5607, 40.8208 ], [ -3.5616, 40.8204 ], [ -3.5626, 40.8192 ], [ -3.5633, 40.8188 ] ] ] } },
{ "type": "Feature", "properties": { "municipio": "Torrelaguna", "clasificacion": "no-urbanizable-protegido", "calificacion": "sin-asignar", "version": "vigente", "fuente": "SIT-CAM WFS — UsoDelSuelo:VPLA_V_CLASIFICACION (https://idem.comunidad.madrid/geosrvg/ows)", "fecha_dato": "2026-05-12", "ambito": "285", "_raw_CD_SIGLAS": "SNUP", "_raw_DS_CLASIF_GEN": "Suelo No Urbanizable Protegido", "_raw_DS_CLASIF_DET": "Suelo No Urbanizanle Protegido", "_raw_DS_DOCU": "MODIFICACION NORMAS SUBSIDIARIAS", "_raw_DS_LEY": null, "_raw_FC_AC": "1988-12-20", "_raw_NM_AREA_M2": 1443681.3772839, "_cam_code": "151" }, "geometry": { "type": "Polygon", "coordinates": [ [ [ -3.5375, 40.8623 ], [ -3.54, 40.863 ], [ -3.54, 40.8631 ], [ -3.5404, 40.8628 ], [ -3.5411, 40.8617 ], [ -3.5416, 40.8612 ], [ -3.542, 40.8611 ], [ -3.5432, 40.8596 ], [ -3.544, 40.8584 ], [ -3.5439, 40.8583 ], [ -3.544, 40.858 ], [ -3.5442, 40.858 ], [ -3.5454, 40.8568 ], [ -3.5468, 40.855 ], [ -3.545, 40.8544 ], [ -3.5434, 40.8532 ], [ -3.5426, 40.8516 ], [ -3.544, 40.8494 ], [ -3.5443, 40.8487 ], [ -3.5455, 40.8473 ], [ -3.5459, 40.847 ], [ -3.5471, 40.8455 ], [ -3.5466, 40.845 ], [ -3.5466, 40.8448 ], [ -3.5468, 40.8443 ], [ -3.5474, 40.8437 ], [ -3.5474, 40.8433 ], [ -3.5467, 40.8425 ], [ -3.5455, 40.8422 ], [ -3.5455, 40.8418 ], [ -3.5452, 40.8414 ], [ -3.544, 40.841 ], [ -3.543, 40.8404 ], [ -3.5426, 40.8422 ], [ -3.543, 40.8425 ], [ -3.5428, 40.8437 ], [ -3.5433, 40.844 ], [ -3.543, 40.8442 ], [ -3.5431, 40.8446 ], [ -3.5436, 40.8449 ], [ -3.5435, 40.8457 ], [ -3.5432, 40.8463 ], [ -3.5424, 40.8466 ], [ -3.5423, 40.847 ], [ -3.5419, 40.8475 ], [ -3.5413, 40.8481 ], [ -3.541, 40.8481 ], [ -3.5404, 40.8488 ], [ -3.5398, 40.8491 ], [ -3.5392, 40.8492 ], [ -3.5385, 40.85 ], [ -3.5379, 40.8504 ], [ -3.5377, 40.8509 ], [ -3.5367, 40.8512 ], [ -3.5362, 40.8519 ], [ -3.5349, 40.8523 ], [ -3.5335, 40.8539 ], [ -3.5332, 40.8544 ], [ -3.533, 40.8544 ], [ -3.5322, 40.8553 ], [ -3.5311, 40.8561 ], [ -3.5346, 40.8609 ], [ -3.5365, 40.8624 ], [ -3.5375, 40.8623 ] ] ] } },
{ "type": "Feature", "properties": { "municipio": "Torrelaguna", "clasificacion": "no-urbanizable-protegido", "calificacion": "sin-asignar", "version": "vigente", "fuente": "SIT-CAM WFS — UsoDelSuelo:VPLA_V_CLASIFICACION (https://idem.comunidad.madrid/geosrvg/ows)", "fecha_dato": "2026-05-12", "ambito": "25849", "_raw_CD_SIGLAS": "SNUP", "_raw_DS_CLASIF_GEN": "Suelo No Urbanizable Protegido", "_raw_DS_CLASIF_DET": "Suelo No Urbanizable Especialmente Protegido por Razones Ambientales, Forestales, Cauces y Riberas", "_raw_DS_DOCU": "NORMAS SUBSIDIARIAS", "_raw_DS_LEY": "CM Ley 4/1984, E RD 1346/1976", "_raw_FC_AC": "1994-11-10", "_raw_NM_AREA_M2": 12805165.8434802, "_cam_code": "151" }, "geometry": { "type": "Polygon", "coordinates": [ [ [ -3.5514, 40.8576 ], [ -3.5532, 40.8578 ], [ -3.5541, 40.8584 ], [ -3.5549, 40.8585 ], [ -3.5553, 40.8581 ], [ -3.5566, 40.8576 ], [ -3.5568, 40.8573 ], [ -3.5573, 40.8571 ], [ -3.5573, 40.857 ], [ -3.5579, 40.857 ], [ -3.5597, 40.8561 ], [ -3.5644, 40.8543 ], [ -3.5666, 40.8531 ], [ -3.5683, 40.852 ], [ -3.572, 40.8506 ], [ -3.5734, 40.8496 ], [ -3.5746, 40.8496 ], [ -3.5765, 40.8485 ], [ -3.5787, 40.8483 ], [ -3.5845, 40.8473 ], [ -3.5877, 40.8473 ], [ -3.5909, 40.8467 ], [ -3.5964, 40.8462 ], [ -3.5993, 40.8458 ], [ -3.6038, 40.8428 ], [ -3.603, 40.842 ], [ -3.604, 40.8415 ], [ -3.6046, 40.8421 ], [ -3.6047, 40.8419 ], [ -3.6046, 40.8419 ], [ -3.6046, 40.8417 ], [ -3.604, 40.8409 ], [ -3.6024, 40.8393 ], [ -3.6018, 40.8382 ], [ -3.5992, 40.8361 ], [ -3.5978, 40.8344 ], [ -3.5959, 40.8313 ], [ -3.5959, 40.83 ], [ -3.5956, 40.8292 ], [ -3.5949, 40.8291 ], [ -3.594, 40.8294 ], [ -3.5871, 40.834 ], [ -3.5861, 40.8336 ], [ -3.5851, 40.8343 ], [ -3.585, 40.8342 ], [ -3.5783, 40.8351 ], [ -3.5788, 40.8337 ], [ -3.5792, 40.834 ], [ -3.5801, 40.8341 ], [ -3.5803, 40.8338 ], [ -3.5808, 40.8319 ], [ -3.5793, 40.8314 ], [ -3.5781, 40.8307 ], [ -3.5769, 40.8303 ], [ -3.5759, 40.8297 ], [ -3.5736, 40.8279 ], [ -3.5733, 40.8278 ], [ -3.573, 40.8281 ], [ -3.5726, 40.828 ], [ -3.572, 40.8281 ], [ -3.5712, 40.8261 ], [ -3.5698, 40.8253 ], [ -3.5695, 40.8248 ], [ -3.5684, 40.8247 ], [ -3.5668, 40.8238 ], [ -3.5657, 40.8237 ], [ -3.5645, 40.825 ], [ -3.5642, 40.8273 ], [ -3.5645, 40.827 ], [ -3.5647, 40.827 ], [ -3.5644, 40.8297 ], [ -3.5643, 40.8298 ], [ -3.5643, 40.8307 ], [ -3.5647, 40.8316 ], [ -3.565, 40.8317 ], [ -3.5658, 40.8342 ], [ -3.5688, 40.8347 ], [ -3.5686, 40.8354 ], [ -3.5687, 40.8356 ], [ -3.5691, 40.8358 ], [ -3.5703, 40.8361 ], [ -3.5718, 40.836 ], [ -3.5719, 40.8362 ], [ -3.5663, 40.8363 ], [ -3.5648, 40.8367 ], [ -3.5631, 40.8363 ], [ -3.5629, 40.8362 ], [ -3.5627, 40.8357 ], [ -3.5627, 40.8353 ], [ -3.5628, 40.8353 ], [ -3.5636, 40.8335 ], [ -3.5635, 40.8332 ], [ -3.5627, 40.8326 ], [ -3.5615, 40.8325 ], [ -3.561, 40.8324 ], [ -3.561, 40.8323 ], [ -3.5607, 40.8322 ], [ -3.5605, 40.832 ], [ -3.5605, 40.8318 ], [ -3.5604, 40.8318 ], [ -3.5601, 40.8305 ], [ -3.5589, 40.8308 ], [ -3.5567, 40.832 ], [ -3.5562, 40.8321 ], [ -3.5553, 40.832 ], [ -3.5542, 40.8314 ], [ -3.5533, 40.8313 ], [ -3.5522, 40.8314 ], [ -3.5508, 40.8316 ], [ -3.5481, 40.833 ], [ -3.5479, 40.8333 ], [ -3.5471, 40.8332 ], [ -3.5453, 40.8334 ], [ -3.5444, 40.8338 ], [ -3.5431, 40.8341 ], [ -3.5402, 40.8364 ], [ -3.5395, 40.8371 ], [ -3.5384, 40.8378 ], [ -3.5369, 40.8383 ], [ -3.5353, 40.8393 ], [ -3.5344, 40.8396 ], [ -3.5336, 40.8401 ], [ -3.5331, 40.8402 ], [ -3.5321, 40.8399 ], [ -3.5315, 40.8399 ], [ -3.5312, 40.8401 ], [ -3.5312, 40.841 ], [ -3.5296, 40.8418 ], [ -3.5282, 40.8419 ], [ -3.5272, 40.8422 ], [ -3.5264, 40.8427 ], [ -3.5249, 40.843 ], [ -3.5225, 40.8433 ], [ -3.5213, 40.8429 ], [ -3.5193, 40.8429 ], [ -3.5188, 40.8433 ], [ -3.5212, 40.8446 ], [ -3.524, 40.8484 ], [ -3.5286, 40.8525 ], [ -3.5311, 40.8561 ], [ -3.5315, 40.8559 ], [ -3.533, 40.8544 ], [ -3.5332, 40.8544 ], [ -3.5349, 40.8523 ], [ -3.5362, 40.8519 ], [ -3.5367, 40.8512 ], [ -3.5377, 40.8509 ], [ -3.5379, 40.8504 ], [ -3.5385, 40.85 ], [ -3.5392, 40.8492 ], [ -3.5398, 40.8491 ], [ -3.5404, 40.8488 ], [ -3.541, 40.8481 ], [ -3.5413, 40.8481 ], [ -3.5419, 40.8475 ], [ -3.5423, 40.847 ], [ -3.5424, 40.8466 ], [ -3.5432, 40.8463 ], [ -3.5435, 40.8457 ], [ -3.5436, 40.8449 ], [ -3.5431, 40.8446 ], [ -3.543, 40.8442 ], [ -3.5433, 40.844 ], [ -3.5428, 40.8437 ], [ -3.543, 40.8425 ], [ -3.5426, 40.8422 ], [ -3.543, 40.8404 ], [ -3.5441, 40.841 ], [ -3.5452, 40.8414 ], [ -3.5455, 40.8418 ], [ -3.5455, 40.8422 ], [ -3.5467, 40.8425 ], [ -3.5474, 40.8433 ], [ -3.5474, 40.8437 ], [ -3.5468, 40.8443 ], [ -3.5466, 40.8448 ], [ -3.5466, 40.845 ], [ -3.5471, 40.8455 ], [ -3.5459, 40.847 ], [ -3.5455, 40.8473 ], [ -3.5443, 40.8487 ], [ -3.544, 40.8494 ], [ -3.5426, 40.8516 ], [ -3.5434, 40.8532 ], [ -3.545, 40.8544 ], [ -3.5468, 40.855 ], [ -3.5454, 40.8568 ], [ -3.5444, 40.8578 ], [ -3.5455, 40.8572 ], [ -3.5455, 40.8571 ], [ -3.5457, 40.8571 ], [ -3.5466, 40.8562 ], [ -3.5471, 40.8562 ], [ -3.5472, 40.8561 ], [ -3.548, 40.8562 ], [ -3.5485, 40.8566 ], [ -3.5487, 40.857 ], [ -3.5493, 40.8572 ], [ -3.5499, 40.8576 ], [ -3.5514, 40.8576 ] ], [ [ -3.5233, 40.8444 ], [ -3.5244, 40.8451 ], [ -3.5225, 40.8459 ], [ -3.5233, 40.8444 ] ] ] } },
{ "type": "Feature", "properties": { "municipio": "Torrelaguna", "clasificacion": "no-urbanizable-protegido", "calificacion": "sin-asignar", "version": "vigente", "fuente": "SIT-CAM WFS — UsoDelSuelo:VPLA_V_CLASIFICACION (https://idem.comunidad.madrid/geosrvg/ows)", "fecha_dato": "2026-05-12", "ambito": "25849", "_raw_CD_SIGLAS": "SNUP", "_raw_DS_CLASIF_GEN": "Suelo No Urbanizable Protegido", "_raw_DS_CLASIF_DET": "Suelo No Urbanizable Especialmente Protegido por su Valor Agrícola", "_raw_DS_DOCU": "NORMAS SUBSIDIARIAS", "_raw_DS_LEY": "CM Ley 4/1984, E RD 1346/1976", "_raw_FC_AC": "1994-11-10", "_raw_NM_AREA_M2": 586289.07063787105, "_cam_code": "151" }, "geometry": { "type": "Polygon", "coordinates": [ [ [ -3.503, 40.7906 ], [ -3.5026, 40.7912 ], [ -3.5023, 40.7935 ], [ -3.5034, 40.7955 ], [ -3.503, 40.7967 ], [ -3.5025, 40.7974 ], [ -3.5022, 40.7976 ], [ -3.5025, 40.7977 ], [ -3.5041, 40.7977 ], [ -3.508, 40.7994 ], [ -3.5081, 40.7991 ], [ -3.5082, 40.7991 ], [ -3.5083, 40.7986 ], [ -3.509, 40.7979 ], [ -3.5093, 40.7979 ], [ -3.5096, 40.7973 ], [ -3.5105, 40.7968 ], [ -3.5112, 40.7967 ], [ -3.5113, 40.7965 ], [ -3.5107, 40.7955 ], [ -3.5105, 40.7948 ], [ -3.5109, 40.7936 ], [ -3.5108, 40.7931 ], [ -3.5105, 40.7926 ], [ -3.5098, 40.792 ], [ -3.5093, 40.7905 ], [ -3.5079, 40.7904 ], [ -3.5048, 40.7892 ], [ -3.5043, 40.7892 ], [ -3.5039, 40.7898 ], [ -3.503, 40.7906 ] ] ] } },
{ "type": "Feature", "properties": { "municipio": "Torrelaguna", "clasificacion": "urbano-consolidado", "calificacion": "sin-asignar", "version": "vigente", "fuente": "SIT-CAM WFS — UsoDelSuelo:VPLA_V_CLASIFICACION (https://idem.comunidad.madrid/geosrvg/ows)", "fecha_dato": "2026-05-12", "ambito": "25849", "_raw_CD_SIGLAS": "SU", "_raw_DS_CLASIF_GEN": "Suelo Urbano", "_raw_DS_CLASIF_DET": "Suelo Urbano", "_raw_DS_DOCU": "NORMAS SUBSIDIARIAS", "_raw_DS_LEY": "CM Ley 4/1984, E RD 1346/1976", "_raw_FC_AC": "1994-11-10", "_raw_NM_AREA_M2": 1492.8539879093701, "_cam_code": "151" }, "geometry": { "type": "Polygon", "coordinates": [ [ [ -3.5346, 40.8239 ], [ -3.5349, 40.8237 ], [ -3.535, 40.8235 ], [ -3.5347, 40.8234 ], [ -3.5344, 40.8238 ], [ -3.5346, 40.8239 ] ] ] } },
{ "type": "Feature", "properties": { "municipio": "Torrelaguna", "clasificacion": "urbano-consolidado", "calificacion": "sin-asignar", "version": "vigente", "fuente": "SIT-CAM WFS — UsoDelSuelo:VPLA_V_CLASIFICACION (https://idem.comunidad.madrid/geosrvg/ows)", "fecha_dato": "2026-05-12", "ambito": "25849", "_raw_CD_SIGLAS": "SU", "_raw_DS_CLASIF_GEN": "Suelo Urbano", "_raw_DS_CLASIF_DET": "Suelo Urbano", "_raw_DS_DOCU": "NORMAS SUBSIDIARIAS", "_raw_DS_LEY": "CM Ley 4/1984, E RD 1346/1976", "_raw_FC_AC": "1994-11-10", "_raw_NM_AREA_M2": 1758931.0612729499, "_cam_code": "151" }, "geometry": { "type": "Polygon", "coordinates": [ [ [ -3.5343, 40.8329 ], [ -3.5362, 40.8322 ], [ -3.537, 40.8323 ], [ -3.5371, 40.8326 ], [ -3.5373, 40.8326 ], [ -3.5375, 40.8329 ], [ -3.5375, 40.8328 ], [ -3.5378, 40.8328 ], [ -3.5379, 40.8307 ], [ -3.538, 40.8304 ], [ -3.5383, 40.8303 ], [ -3.5383, 40.8297 ], [ -3.5396, 40.8299 ], [ -3.5417, 40.8298 ], [ -3.5417, 40.8301 ], [ -3.5425, 40.8299 ], [ -3.544, 40.831 ], [ -3.5444, 40.832 ], [ -3.5457, 40.832 ], [ -3.5468, 40.8308 ], [ -3.5474, 40.8306 ], [ -3.5474, 40.8305 ], [ -3.5463, 40.8299 ], [ -3.5473, 40.8294 ], [ -3.5458, 40.8277 ], [ -3.5454, 40.8262 ], [ -3.5448, 40.8252 ], [ -3.5452, 40.825 ], [ -3.5452, 40.8248 ], [ -3.5455, 40.8249 ], [ -3.546, 40.8248 ], [ -3.5462, 40.8245 ], [ -3.5456, 40.8244 ], [ -3.5453, 40.8241 ], [ -3.545, 40.824 ], [ -3.5449, 40.8238 ], [ -3.5453, 40.8235 ], [ -3.5453, 40.8231 ], [ -3.5445, 40.8228 ], [ -3.5425, 40.8208 ], [ -3.5396, 40.8191 ], [ -3.539, 40.8185 ], [ -3.5385, 40.8176 ], [ -3.5381, 40.8162 ], [ -3.5381, 40.8157 ], [ -3.5383, 40.8142 ], [ -3.5389, 40.8119 ], [ -3.5387, 40.8119 ], [ -3.5377, 40.8125 ], [ -3.536, 40.8143 ], [ -3.5355, 40.8146 ], [ -3.5356, 40.8146 ], [ -3.5357, 40.8149 ], [ -3.5352, 40.8155 ], [ -3.5351, 40.8162 ], [ -3.5352, 40.8167 ], [ -3.5354, 40.817 ], [ -3.5354, 40.8177 ], [ -3.5348, 40.8179 ], [ -3.5347, 40.8186 ], [ -3.5339, 40.8189 ], [ -3.5346, 40.8198 ], [ -3.5343, 40.8215 ], [ -3.5346, 40.8221 ], [ -3.5347, 40.8221 ], [ -3.5344, 40.8226 ], [ -3.534, 40.8229 ], [ -3.535, 40.8233 ], [ -3.535, 40.8234 ], [ -3.5352, 40.8233 ], [ -3.5353, 40.8234 ], [ -3.5353, 40.8236 ], [ -3.5339, 40.825 ], [ -3.5338, 40.8254 ], [ -3.5341, 40.8261 ], [ -3.5339, 40.8263 ], [ -3.5336, 40.8265 ], [ -3.5333, 40.8264 ], [ -3.5321, 40.8252 ], [ -3.5316, 40.8249 ], [ -3.5306, 40.8238 ], [ -3.5303, 40.8236 ], [ -3.5294, 40.8234 ], [ -3.5285, 40.8228 ], [ -3.5284, 40.8228 ], [ -3.5281, 40.8239 ], [ -3.528, 40.824 ], [ -3.5275, 40.8239 ], [ -3.5271, 40.8246 ], [ -3.526, 40.8242 ], [ -3.526, 40.8241 ], [ -3.5258, 40.8241 ], [ -3.5252, 40.8246 ], [ -3.5261, 40.8249 ], [ -3.5261, 40.825 ], [ -3.5264, 40.825 ], [ -3.5264, 40.8251 ], [ -3.527, 40.8253 ], [ -3.527, 40.8254 ], [ -3.5272, 40.8254 ], [ -3.5274, 40.8256 ], [ -3.5278, 40.8257 ], [ -3.528, 40.8259 ], [ -3.5279, 40.826 ], [ -3.5284, 40.8262 ], [ -3.5283, 40.8264 ], [ -3.5278, 40.8265 ], [ -3.528, 40.827 ], [ -3.5276, 40.8271 ], [ -3.5276, 40.8273 ], [ -3.5285, 40.8272 ], [ -3.5287, 40.8276 ], [ -3.5282, 40.828 ], [ -3.529, 40.8287 ], [ -3.5284, 40.8289 ], [ -3.5282, 40.8291 ], [ -3.5294, 40.8301 ], [ -3.5305, 40.8308 ], [ -3.5306, 40.831 ], [ -3.5312, 40.831 ], [ -3.5317, 40.8312 ], [ -3.5319, 40.8319 ], [ -3.5318, 40.8326 ], [ -3.5337, 40.832 ], [ -3.5338, 40.8323 ], [ -3.5343, 40.8329 ] ] ] } },
{ "type": "Feature", "properties": { "municipio": "Torrelaguna", "clasificacion": "urbanizable-no-sectorizado", "calificacion": "sin-asignar", "version": "vigente", "fuente": "SIT-CAM WFS — UsoDelSuelo:VPLA_V_CLASIFICACION (https://idem.comunidad.madrid/geosrvg/ows)", "fecha_dato": "2026-05-12", "ambito": "25849", "_raw_CD_SIGLAS": "SUBNS", "_raw_DS_CLASIF_GEN": "Suelo No Urbanizable Común", "_raw_DS_CLASIF_DET": "Suelo No Urbanizable de Reserva", "_raw_DS_DOCU": "NORMAS SUBSIDIARIAS", "_raw_DS_LEY": "CM Ley 4/1984, E RD 1346/1976", "_raw_FC_AC": "1994-11-10", "_raw_NM_AREA_M2": 142597.149014222, "_cam_code": "151" }, "geometry": { "type": "Polygon", "coordinates": [ [ [ -3.5378, 40.8328 ], [ -3.5377, 40.8328 ], [ -3.5377, 40.8331 ], [ -3.5393, 40.833 ], [ -3.5394, 40.8328 ], [ -3.5399, 40.8327 ], [ -3.5401, 40.8329 ], [ -3.5415, 40.8322 ], [ -3.5419, 40.8322 ], [ -3.5423, 40.832 ], [ -3.5429, 40.8319 ], [ -3.5444, 40.832 ], [ -3.5444, 40.8319 ], [ -3.5441, 40.8312 ], [ -3.544, 40.8312 ], [ -3.544, 40.831 ], [ -3.5425, 40.8299 ], [ -3.5417, 40.8301 ], [ -3.5417, 40.8298 ], [ -3.5396, 40.8299 ], [ -3.5383, 40.8297 ], [ -3.5383, 40.8303 ], [ -3.538, 40.8304 ], [ -3.5379, 40.8307 ], [ -3.5378, 40.8328 ] ] ] } },
{ "type": "Feature", "properties": { "municipio": "Torrelaguna", "clasificacion": "urbanizable-no-sectorizado", "calificacion": "sin-asignar", "version": "vigente", "fuente": "SIT-CAM WFS — UsoDelSuelo:VPLA_V_CLASIFICACION (https://idem.comunidad.madrid/geosrvg/ows)", "fecha_dato": "2026-05-12", "ambito": "25849", "_raw_CD_SIGLAS": "SUBNS", "_raw_DS_CLASIF_GEN": "Suelo No Urbanizable Común", "_raw_DS_CLASIF_DET": "Suelo No Urbanizable Común", "_raw_DS_DOCU": "NORMAS SUBSIDIARIAS", "_raw_DS_LEY": "CM Ley 4/1984, E RD 1346/1976", "_raw_FC_AC": "1994-11-10", "_raw_NM_AREA_M2": 8486337.1712450199, "_cam_code": "151" }, "geometry": { "type": "Polygon", "coordinates": [ [ [ -3.5673, 40.8166 ], [ -3.5689, 40.8167 ], [ -3.5697, 40.8175 ], [ -3.5701, 40.8176 ], [ -3.5739, 40.8173 ], [ -3.5759, 40.8106 ], [ -3.5763, 40.8096 ], [ -3.5764, 40.8085 ], [ -3.5762, 40.8075 ], [ -3.5772, 40.8042 ], [ -3.5779, 40.8024 ], [ -3.5775, 40.8001 ], [ -3.5781, 40.7981 ], [ -3.5773, 40.7964 ], [ -3.5754, 40.7941 ], [ -3.5754, 40.7931 ], [ -3.574, 40.7909 ], [ -3.5658, 40.7901 ], [ -3.5611, 40.7907 ], [ -3.5591, 40.7917 ], [ -3.5577, 40.792 ], [ -3.5524, 40.7898 ], [ -3.5512, 40.79 ], [ -3.5503, 40.7904 ], [ -3.545, 40.7892 ], [ -3.5375, 40.7886 ], [ -3.5367, 40.7892 ], [ -3.5345, 40.7895 ], [ -3.5334, 40.7898 ], [ -3.5342, 40.7916 ], [ -3.5349, 40.7937 ], [ -3.5357, 40.7956 ], [ -3.5357, 40.796 ], [ -3.5363, 40.7979 ], [ -3.5371, 40.7996 ], [ -3.5394, 40.8021 ], [ -3.541, 40.8045 ], [ -3.5414, 40.8048 ], [ -3.5419, 40.8055 ], [ -3.5429, 40.8071 ], [ -3.545, 40.8084 ], [ -3.5459, 40.8094 ], [ -3.5476, 40.8105 ], [ -3.5484, 40.8115 ], [ -3.5486, 40.8115 ], [ -3.5487, 40.8117 ], [ -3.5494, 40.8121 ], [ -3.5512, 40.8127 ], [ -3.5512, 40.8128 ], [ -3.5516, 40.8129 ], [ -3.5521, 40.8133 ], [ -3.5527, 40.8134 ], [ -3.5535, 40.8141 ], [ -3.5542, 40.8144 ], [ -3.5547, 40.8144 ], [ -3.5553, 40.8141 ], [ -3.5559, 40.8141 ], [ -3.5562, 40.8142 ], [ -3.5566, 40.8147 ], [ -3.5573, 40.8147 ], [ -3.5579, 40.8152 ], [ -3.5582, 40.8153 ], [ -3.5589, 40.8153 ], [ -3.5596, 40.8151 ], [ -3.5602, 40.8154 ], [ -3.5605, 40.816 ], [ -3.5611, 40.8162 ], [ -3.5616, 40.8161 ], [ -3.5619, 40.8156 ], [ -3.5631, 40.8159 ], [ -3.5632, 40.8162 ], [ -3.5625, 40.8169 ], [ -3.5625, 40.817 ], [ -3.5629, 40.8172 ], [ -3.5656, 40.8171 ], [ -3.5663, 40.817 ], [ -3.5673, 40.8166 ] ] ] } },
{ "type": "Feature", "properties": { "municipio": "Torrelaguna", "clasificacion": "urbanizable-no-sectorizado", "calificacion": "sin-asignar", "version": "vigente", "fuente": "SIT-CAM WFS — UsoDelSuelo:VPLA_V_CLASIFICACION (https://idem.comunidad.madrid/geosrvg/ows)", "fecha_dato": "2026-05-12", "ambito": "25849", "_raw_CD_SIGLAS": "SUBNS", "_raw_DS_CLASIF_GEN": "Suelo No Urbanizable Común", "_raw_DS_CLASIF_DET": "Suelo No Urbanizable Común", "_raw_DS_DOCU": "NORMAS SUBSIDIARIAS", "_raw_DS_LEY": "CM Ley 4/1984, E RD 1346/1976", "_raw_FC_AC": "1994-11-10", "_raw_NM_AREA_M2": 607286.27316278603, "_cam_code": "151" }, "geometry": { "type": "Polygon", "coordinates": [ [ [ -3.5736, 40.8279 ], [ -3.5759, 40.8297 ], [ -3.5769, 40.8303 ], [ -3.5781, 40.8307 ], [ -3.5798, 40.8316 ], [ -3.5785, 40.8276 ], [ -3.5775, 40.8221 ], [ -3.5759, 40.8221 ], [ -3.5748, 40.8217 ], [ -3.5737, 40.8211 ], [ -3.5729, 40.821 ], [ -3.5713, 40.8203 ], [ -3.5695, 40.8204 ], [ -3.5659, 40.8191 ], [ -3.5654, 40.8192 ], [ -3.5655, 40.8196 ], [ -3.5684, 40.8216 ], [ -3.5695, 40.8226 ], [ -3.5717, 40.825 ], [ -3.57, 40.8254 ], [ -3.5712, 40.8261 ], [ -3.5717, 40.8272 ], [ -3.5719, 40.828 ], [ -3.572, 40.8281 ], [ -3.5726, 40.828 ], [ -3.573, 40.8281 ], [ -3.5733, 40.8278 ], [ -3.5736, 40.8279 ] ] ] } },
{ "type": "Feature", "properties": { "municipio": "Torrelaguna", "clasificacion": "urbanizable-no-sectorizado", "calificacion": "sin-asignar", "version": "vigente", "fuente": "SIT-CAM WFS — UsoDelSuelo:VPLA_V_CLASIFICACION (https://idem.comunidad.madrid/geosrvg/ows)", "fecha_dato": "2026-05-12", "ambito": "25849", "_raw_CD_SIGLAS": "SUBNS", "_raw_DS_CLASIF_GEN": "Suelo No Urbanizable Común", "_raw_DS_CLASIF_DET": "Suelo No Urbanizable Común", "_raw_DS_DOCU": "NORMAS SUBSIDIARIAS", "_raw_DS_LEY": "CM Ley 4/1984, E RD 1346/1976", "_raw_FC_AC": "1994-11-10", "_raw_NM_AREA_M2": 12834460.2135159, "_cam_code": "151" }, "geometry": { "type": "Polygon", "coordinates": [ [ [ -3.5188, 40.8433 ], [ -3.5193, 40.8429 ], [ -3.5213, 40.8429 ], [ -3.5225, 40.8433 ], [ -3.5249, 40.843 ], [ -3.5264, 40.8427 ], [ -3.5272, 40.8422 ], [ -3.5282, 40.8419 ], [ -3.5296, 40.8418 ], [ -3.5312, 40.841 ], [ -3.5312, 40.8401 ], [ -3.5315, 40.8399 ], [ -3.5321, 40.8399 ], [ -3.5331, 40.8402 ], [ -3.5336, 40.8401 ], [ -3.5344, 40.8396 ], [ -3.5353, 40.8393 ], [ -3.5369, 40.8383 ], [ -3.5384, 40.8378 ], [ -3.5395, 40.8371 ], [ -3.5402, 40.8364 ], [ -3.5431, 40.8341 ], [ -3.5444, 40.8338 ], [ -3.5453, 40.8334 ], [ -3.5471, 40.8332 ], [ -3.5479, 40.8333 ], [ -3.5481, 40.833 ], [ -3.5508, 40.8316 ], [ -3.5533, 40.8313 ], [ -3.5542, 40.8314 ], [ -3.5553, 40.832 ], [ -3.556, 40.8321 ], [ -3.5567, 40.832 ], [ -3.5589, 40.8308 ], [ -3.5601, 40.8305 ], [ -3.5599, 40.8297 ], [ -3.5607, 40.8292 ], [ -3.5611, 40.8291 ], [ -3.5622, 40.8292 ], [ -3.5628, 40.8287 ], [ -3.5638, 40.8282 ], [ -3.5642, 40.8273 ], [ -3.5645, 40.825 ], [ -3.5655, 40.8238 ], [ -3.5657, 40.8237 ], [ -3.5668, 40.8238 ], [ -3.5684, 40.8247 ], [ -3.5694, 40.8248 ], [ -3.5687, 40.8239 ], [ -3.5685, 40.8239 ], [ -3.5685, 40.8238 ], [ -3.5674, 40.8232 ], [ -3.5665, 40.823 ], [ -3.5662, 40.8227 ], [ -3.5659, 40.8221 ], [ -3.5649, 40.8212 ], [ -3.5633, 40.8208 ], [ -3.5618, 40.8209 ], [ -3.5611, 40.8206 ], [ -3.5611, 40.8207 ], [ -3.5607, 40.8208 ], [ -3.5588, 40.8209 ], [ -3.5577, 40.8205 ], [ -3.5557, 40.8201 ], [ -3.5552, 40.8202 ], [ -3.5545, 40.8201 ], [ -3.5535, 40.8203 ], [ -3.5516, 40.8201 ], [ -3.5508, 40.8204 ], [ -3.5506, 40.8208 ], [ -3.5502, 40.8211 ], [ -3.5499, 40.8211 ], [ -3.5496, 40.8214 ], [ -3.5493, 40.822 ], [ -3.5485, 40.8219 ], [ -3.548, 40.8211 ], [ -3.5472, 40.8211 ], [ -3.5461, 40.8207 ], [ -3.5458, 40.82 ], [ -3.5458, 40.8192 ], [ -3.5456, 40.8183 ], [ -3.5452, 40.8183 ], [ -3.5451, 40.8185 ], [ -3.5448, 40.8186 ], [ -3.5447, 40.8191 ], [ -3.5445, 40.8194 ], [ -3.5435, 40.8192 ], [ -3.5432, 40.8188 ], [ -3.5426, 40.8185 ], [ -3.5417, 40.8176 ], [ -3.5413, 40.8168 ], [ -3.5407, 40.8165 ], [ -3.5394, 40.8163 ], [ -3.5395, 40.8158 ], [ -3.5401, 40.8146 ], [ -3.5394, 40.8147 ], [ -3.5388, 40.8143 ], [ -3.5386, 40.8138 ], [ -3.5384, 40.8138 ], [ -3.5381, 40.8162 ], [ -3.5383, 40.8171 ], [ -3.5384, 40.8171 ], [ -3.5385, 40.8176 ], [ -3.539, 40.8185 ], [ -3.5399, 40.8193 ], [ -3.5425, 40.8208 ], [ -3.5445, 40.8228 ], [ -3.5453, 40.8231 ], [ -3.5453, 40.8235 ], [ -3.5471, 40.824 ], [ -3.5466, 40.8257 ], [ -3.5466, 40.8262 ], [ -3.5467, 40.8265 ], [ -3.547, 40.8267 ], [ -3.5478, 40.8268 ], [ -3.548, 40.8276 ], [ -3.5485, 40.8287 ], [ -3.5493, 40.8289 ], [ -3.5491, 40.829 ], [ -3.5489, 40.831 ], [ -3.548, 40.8306 ], [ -3.5474, 40.8305 ], [ -3.5472, 40.8307 ], [ -3.5468, 40.8308 ], [ -3.5457, 40.832 ], [ -3.5429, 40.8319 ], [ -3.5419, 40.8322 ], [ -3.5415, 40.8322 ], [ -3.5401, 40.8329 ], [ -3.5399, 40.8327 ], [ -3.5394, 40.8328 ], [ -3.5393, 40.833 ], [ -3.5384, 40.8331 ], [ -3.5377, 40.8331 ], [ -3.5377, 40.8328 ], [ -3.5375, 40.8328 ], [ -3.5375, 40.8329 ], [ -3.5373, 40.8326 ], [ -3.5371, 40.8326 ], [ -3.537, 40.8323 ], [ -3.5362, 40.8322 ], [ -3.5343, 40.8329 ], [ -3.5338, 40.8323 ], [ -3.5337, 40.832 ], [ -3.5318, 40.8326 ], [ -3.5319, 40.8319 ], [ -3.5317, 40.8312 ], [ -3.5312, 40.831 ], [ -3.5306, 40.831 ], [ -3.5305, 40.8308 ], [ -3.5294, 40.8301 ], [ -3.5282, 40.8291 ], [ -3.5284, 40.8289 ], [ -3.529, 40.8287 ], [ -3.5282, 40.828 ], [ -3.5287, 40.8276 ], [ -3.5285, 40.8272 ], [ -3.5276, 40.8273 ], [ -3.5276, 40.8271 ], [ -3.528, 40.827 ], [ -3.5278, 40.8265 ], [ -3.5283, 40.8264 ], [ -3.5284, 40.8262 ], [ -3.5279, 40.826 ], [ -3.528, 40.8259 ], [ -3.5278, 40.8257 ], [ -3.5274, 40.8256 ], [ -3.5272, 40.8254 ], [ -3.527, 40.8254 ], [ -3.527, 40.8253 ], [ -3.5264, 40.8251 ], [ -3.5264, 40.825 ], [ -3.5261, 40.825 ], [ -3.5261, 40.8249 ], [ -3.5252, 40.8246 ], [ -3.5258, 40.8241 ], [ -3.5271, 40.8246 ], [ -3.5275, 40.8239 ], [ -3.528, 40.824 ], [ -3.5281, 40.8239 ], [ -3.5284, 40.8228 ], [ -3.5294, 40.8234 ], [ -3.5302, 40.8236 ], [ -3.5305, 40.8232 ], [ -3.5306, 40.8233 ], [ -3.5311, 40.8228 ], [ -3.5323, 40.8225 ], [ -3.5329, 40.8227 ], [ -3.5336, 40.8227 ], [ -3.534, 40.8229 ], [ -3.5344, 40.8226 ], [ -3.5347, 40.8222 ], [ -3.5343, 40.8215 ], [ -3.5346, 40.8198 ], [ -3.5339, 40.8189 ], [ -3.5347, 40.8186 ], [ -3.5348, 40.8179 ], [ -3.5354, 40.8177 ], [ -3.5354, 40.817 ], [ -3.5351, 40.8163 ], [ -3.5352, 40.8155 ], [ -3.5357, 40.8149 ], [ -3.5356, 40.8146 ], [ -3.5355, 40.8146 ], [ -3.536, 40.8143 ], [ -3.5365, 40.8137 ], [ -3.5361, 40.8137 ], [ -3.5356, 40.8134 ], [ -3.5356, 40.8132 ], [ -3.5355, 40.8132 ], [ -3.5352, 40.8125 ], [ -3.5347, 40.8122 ], [ -3.534, 40.8114 ], [ -3.5334, 40.8103 ], [ -3.5334, 40.8101 ], [ -3.533, 40.8096 ], [ -3.5329, 40.809 ], [ -3.5326, 40.8088 ], [ -3.5325, 40.8081 ], [ -3.5326, 40.808 ], [ -3.5327, 40.8069 ], [ -3.5326, 40.8069 ], [ -3.5325, 40.8061 ], [ -3.5324, 40.8061 ], [ -3.5319, 40.8047 ], [ -3.5317, 40.8046 ], [ -3.5316, 40.804 ], [ -3.5313, 40.8037 ], [ -3.5312, 40.8029 ], [ -3.5311, 40.8029 ], [ -3.531, 40.8024 ], [ -3.5308, 40.8022 ], [ -3.5305, 40.801 ], [ -3.5307, 40.8 ], [ -3.5304, 40.7996 ], [ -3.5301, 40.7996 ], [ -3.5299, 40.7989 ], [ -3.5297, 40.798 ], [ -3.5298, 40.7975 ], [ -3.5299, 40.7975 ], [ -3.5299, 40.7957 ], [ -3.5297, 40.7945 ], [ -3.5289, 40.7924 ], [ -3.5282, 40.7914 ], [ -3.528, 40.7897 ], [ -3.5281, 40.789 ], [ -3.5275, 40.7883 ], [ -3.5237, 40.7875 ], [ -3.5215, 40.7876 ], [ -3.5186, 40.7883 ], [ -3.5126, 40.7889 ], [ -3.5116, 40.7885 ], [ -3.5093, 40.7905 ], [ -3.5098, 40.792 ], [ -3.5105, 40.7926 ], [ -3.5108, 40.7931 ], [ -3.5109, 40.7936 ], [ -3.5105, 40.7948 ], [ -3.5107, 40.7955 ], [ -3.5113, 40.7965 ], [ -3.5112, 40.7967 ], [ -3.5105, 40.7968 ], [ -3.5096, 40.7973 ], [ -3.5093, 40.7979 ], [ -3.509, 40.7979 ], [ -3.5083, 40.7986 ], [ -3.508, 40.7995 ], [ -3.512, 40.8009 ], [ -3.5129, 40.8028 ], [ -3.5143, 40.8037 ], [ -3.5142, 40.804 ], [ -3.5137, 40.8045 ], [ -3.5132, 40.8053 ], [ -3.513, 40.8054 ], [ -3.5127, 40.8062 ], [ -3.5128, 40.8072 ], [ -3.5127, 40.8092 ], [ -3.5117, 40.812 ], [ -3.5116, 40.812 ], [ -3.5115, 40.8129 ], [ -3.5113, 40.8131 ], [ -3.5109, 40.8131 ], [ -3.5109, 40.8132 ], [ -3.5104, 40.8133 ], [ -3.5086, 40.8148 ], [ -3.5058, 40.8161 ], [ -3.5057, 40.8186 ], [ -3.5082, 40.8199 ], [ -3.5104, 40.8219 ], [ -3.5117, 40.8227 ], [ -3.5116, 40.8251 ], [ -3.5128, 40.8301 ], [ -3.5131, 40.8305 ], [ -3.5139, 40.8336 ], [ -3.5119, 40.8346 ], [ -3.513, 40.8362 ], [ -3.5114, 40.8371 ], [ -3.5126, 40.8384 ], [ -3.5121, 40.8388 ], [ -3.5135, 40.8402 ], [ -3.5146, 40.841 ], [ -3.5188, 40.8433 ] ] ] } },
{ "type": "Feature", "properties": { "municipio": "Torrelaguna", "clasificacion": "urbanizable-no-sectorizado", "calificacion": "sin-asignar", "version": "vigente", "fuente": "SIT-CAM WFS — UsoDelSuelo:VPLA_V_CLASIFICACION (https://idem.comunidad.madrid/geosrvg/ows)", "fecha_dato": "2026-05-12", "ambito": "25849", "_raw_CD_SIGLAS": "SUBNS", "_raw_DS_CLASIF_GEN": "Suelo No Urbanizable Común", "_raw_DS_CLASIF_DET": "Suelo No Urbanizable de Reserva", "_raw_DS_DOCU": "NORMAS SUBSIDIARIAS", "_raw_DS_LEY": "CM Ley 4/1984, E RD 1346/1976", "_raw_FC_AC": "1994-11-10", "_raw_NM_AREA_M2": 121639.696826962, "_cam_code": "151" }, "geometry": { "type": "Polygon", "coordinates": [ [ [ -3.5473, 40.8305 ], [ -3.5489, 40.831 ], [ -3.5491, 40.829 ], [ -3.5493, 40.8289 ], [ -3.5485, 40.8287 ], [ -3.548, 40.8276 ], [ -3.5478, 40.8268 ], [ -3.5476, 40.8267 ], [ -3.5473, 40.8268 ], [ -3.5467, 40.8265 ], [ -3.5466, 40.8257 ], [ -3.5471, 40.824 ], [ -3.5452, 40.8235 ], [ -3.5449, 40.8238 ], [ -3.545, 40.824 ], [ -3.5453, 40.8241 ], [ -3.5456, 40.8244 ], [ -3.5462, 40.8245 ], [ -3.546, 40.8248 ], [ -3.5458, 40.8249 ], [ -3.5452, 40.8248 ], [ -3.5452, 40.825 ], [ -3.5448, 40.8252 ], [ -3.5454, 40.8262 ], [ -3.5458, 40.8277 ], [ -3.5473, 40.8294 ], [ -3.5463, 40.8299 ], [ -3.5473, 40.8305 ] ] ] } },
{ "type": "Feature", "properties": { "municipio": "Torrelaguna", "clasificacion": "urbanizable-sectorizado", "calificacion": "sin-asignar", "version": "vigente", "fuente": "SIT-CAM WFS — UsoDelSuelo:VPLA_V_CLASIFICACION (https://idem.comunidad.madrid/geosrvg/ows)", "fecha_dato": "2026-05-12", "ambito": "25849", "_raw_CD_SIGLAS": "SUBS", "_raw_DS_CLASIF_GEN": "Suelo Apto Para Urbanizar", "_raw_DS_CLASIF_DET": "Suelo Apto para Urbanizar", "_raw_DS_DOCU": "NORMAS SUBSIDIARIAS", "_raw_DS_LEY": "CM Ley 4/1984, E RD 1346/1976", "_raw_FC_AC": "1994-11-10", "_raw_NM_AREA_M2": 94263.223066370905, "_cam_code": "151" }, "geometry": { "type": "Polygon", "coordinates": [ [ [ -3.5307, 40.8239 ], [ -3.5316, 40.8249 ], [ -3.5321, 40.8252 ], [ -3.5333, 40.8264 ], [ -3.5336, 40.8265 ], [ -3.5341, 40.8261 ], [ -3.5338, 40.8254 ], [ -3.534, 40.8248 ], [ -3.5353, 40.8236 ], [ -3.5353, 40.8234 ], [ -3.5352, 40.8233 ], [ -3.535, 40.8234 ], [ -3.535, 40.8233 ], [ -3.5336, 40.8227 ], [ -3.5329, 40.8227 ], [ -3.5323, 40.8225 ], [ -3.5311, 40.8228 ], [ -3.5306, 40.8233 ], [ -3.5305, 40.8232 ], [ -3.5302, 40.8236 ], [ -3.5307, 40.8239 ] ], [ [ -3.5347, 40.8234 ], [ -3.535, 40.8236 ], [ -3.5348, 40.8238 ], [ -3.5346, 40.8239 ], [ -3.5344, 40.8238 ], [ -3.5347, 40.8234 ] ] ] } }
]
}
