{"type": "FeatureCollection", "features": [{"type": "Feature", "geometry": {"type": "Polygon", "coordinates": [[[-3.6293803, 40.9615473], [-3.644458, 40.9536995], [-3.6474501, 40.9384761], [-3.6546929, 40.9281343], [-3.6625507, 40.9239393], [-3.6753309, 40.8921962], [-3.6633897, 40.8894041], [-3.6504234, 40.8797478], [-3.6149433, 40.8832227], [-3.5993405, 40.8886671], [-3.6025705, 40.8944463], [-3.5736525, 40.901234], [-3.5682759, 40.9055333], [-3.5682609, 40.9101176], [-3.5753205, 40.9182032], [-3.5697481, 40.9329023], [-3.5717853, 40.9398852], [-3.5841975, 40.9491217], [-3.5938231, 40.9489338], [-3.6129727, 40.9415591], [-3.6293803, 40.9615473]]]}, "properties": {"municipio": "Lozoyuela-Navas-Sieteiglesias", "ambito": "LOZOYUELA-NAVAS-SIETEIGLESIAS-STUB", "clasificacion": "sin-asignar", "calificacion": "sin-asignar", "version": "vigente", "fuente": "STUB — SIT-CAM no publica capa VPLA para este municipio", "fecha_dato": "2026-05-12", "slug": "lozoyuela-navas-sieteiglesias"}}]}