{
"type": "FeatureCollection",
"name": "vigente.full",
"features": [
{ "type": "Feature", "properties": { "municipio": "Las Rozas de Madrid", "clasificacion": "no-urbanizable-protegido", "calificacion": "sin-asignar", "version": "vigente", "fuente": "SIT-CAM WFS — UsoDelSuelo:VPLA_V_CLASIFICACION (https://idem.comunidad.madrid/geosrvg/ows)", "fecha_dato": "2026-05-12", "ambito": "25925", "_raw_CD_SIGLAS": "SNUP", "_raw_DS_CLASIF_GEN": "Suelo No Urbanizable Protegido", "_raw_DS_CLASIF_DET": "Suelo No Urbanizable Especialmente Protegido. Parque Regional del Río Guadarrama", "_raw_DS_DOCU": "PLAN GENERAL", "_raw_DS_LEY": "CM Ley 4/1984, E RDL 1/1992", "_raw_FC_AC": "1994-12-01", "_raw_NM_AREA_M2": 1179590.4758658099, "_cam_code": "127" }, "geometry": { "type": "Polygon", "coordinates": [ [ [ -3.9391, 40.5277 ], [ -3.9397, 40.5282 ], [ -3.9389, 40.5303 ], [ -3.939, 40.531 ], [ -3.9395, 40.532 ], [ -3.941, 40.5331 ], [ -3.9426, 40.5336 ], [ -3.9426, 40.5337 ], [ -3.9434, 40.5342 ], [ -3.9458, 40.5355 ], [ -3.9465, 40.536 ], [ -3.9466, 40.5362 ], [ -3.9471, 40.5364 ], [ -3.9475, 40.5371 ], [ -3.9477, 40.5372 ], [ -3.9476, 40.5368 ], [ -3.9471, 40.536 ], [ -3.9455, 40.5353 ], [ -3.9452, 40.535 ], [ -3.9444, 40.5346 ], [ -3.9431, 40.5333 ], [ -3.9421, 40.5329 ], [ -3.9413, 40.5323 ], [ -3.9404, 40.5315 ], [ -3.94, 40.5309 ], [ -3.94, 40.5307 ], [ -3.9396, 40.5303 ], [ -3.9396, 40.5297 ], [ -3.9398, 40.5294 ], [ -3.9397, 40.5285 ], [ -3.9399, 40.5279 ], [ -3.939, 40.5264 ], [ -3.9389, 40.5255 ], [ -3.9402, 40.5228 ], [ -3.9404, 40.521 ], [ -3.9399, 40.5204 ], [ -3.9396, 40.5196 ], [ -3.9396, 40.5189 ], [ -3.9399, 40.5181 ], [ -3.9404, 40.5174 ], [ -3.9421, 40.516 ], [ -3.9422, 40.5151 ], [ -3.9418, 40.514 ], [ -3.9412, 40.5131 ], [ -3.9405, 40.5125 ], [ -3.9392, 40.5125 ], [ -3.938, 40.5122 ], [ -3.9374, 40.5116 ], [ -3.9379, 40.5109 ], [ -3.9397, 40.5097 ], [ -3.9401, 40.5093 ], [ -3.9402, 40.509 ], [ -3.9401, 40.5085 ], [ -3.9398, 40.5082 ], [ -3.9393, 40.508 ], [ -3.9389, 40.508 ], [ -3.9383, 40.5085 ], [ -3.9369, 40.5091 ], [ -3.9369, 40.5092 ], [ -3.9366, 40.5091 ], [ -3.936, 40.5091 ], [ -3.9359, 40.5092 ], [ -3.9357, 40.5091 ], [ -3.9355, 40.5089 ], [ -3.9356, 40.5086 ], [ -3.9355, 40.508 ], [ -3.9356, 40.5078 ], [ -3.9354, 40.5077 ], [ -3.935, 40.5069 ], [ -3.9349, 40.5057 ], [ -3.9343, 40.5049 ], [ -3.9344, 40.5042 ], [ -3.9348, 40.5038 ], [ -3.9348, 40.5029 ], [ -3.9351, 40.5027 ], [ -3.9351, 40.5025 ], [ -3.935, 40.5021 ], [ -3.9345, 40.5015 ], [ -3.9338, 40.5011 ], [ -3.9336, 40.4999 ], [ -3.933, 40.4995 ], [ -3.9321, 40.4995 ], [ -3.932, 40.4991 ], [ -3.9316, 40.499 ], [ -3.9316, 40.4989 ], [ -3.9313, 40.4989 ], [ -3.9311, 40.4991 ], [ -3.9302, 40.4991 ], [ -3.9301, 40.4993 ], [ -3.9294, 40.4993 ], [ -3.9292, 40.4992 ], [ -3.9278, 40.4992 ], [ -3.9276, 40.4989 ], [ -3.9269, 40.4987 ], [ -3.9269, 40.4988 ], [ -3.9266, 40.4989 ], [ -3.9266, 40.4994 ], [ -3.9274, 40.4993 ], [ -3.9276, 40.4995 ], [ -3.9294, 40.4995 ], [ -3.9294, 40.4996 ], [ -3.93, 40.4997 ], [ -3.93, 40.4996 ], [ -3.9311, 40.4994 ], [ -3.9311, 40.4993 ], [ -3.9317, 40.4997 ], [ -3.9324, 40.5005 ], [ -3.9322, 40.5007 ], [ -3.9319, 40.5021 ], [ -3.9325, 40.5035 ], [ -3.9336, 40.5046 ], [ -3.934, 40.5058 ], [ -3.9337, 40.5066 ], [ -3.9334, 40.5068 ], [ -3.9336, 40.5069 ], [ -3.9332, 40.5071 ], [ -3.9331, 40.5073 ], [ -3.9332, 40.5076 ], [ -3.9329, 40.5078 ], [ -3.9328, 40.5081 ], [ -3.932, 40.5084 ], [ -3.9322, 40.5087 ], [ -3.9309, 40.5097 ], [ -3.9314, 40.5094 ], [ -3.932, 40.5093 ], [ -3.9323, 40.5097 ], [ -3.9324, 40.5109 ], [ -3.9326, 40.5113 ], [ -3.9329, 40.5117 ], [ -3.9346, 40.5131 ], [ -3.9348, 40.5136 ], [ -3.9349, 40.5154 ], [ -3.9352, 40.516 ], [ -3.9355, 40.5163 ], [ -3.935, 40.5168 ], [ -3.9365, 40.5179 ], [ -3.937, 40.5184 ], [ -3.9371, 40.5187 ], [ -3.9371, 40.5194 ], [ -3.9372, 40.5194 ], [ -3.9354, 40.5195 ], [ -3.9354, 40.5203 ], [ -3.9358, 40.5209 ], [ -3.9346, 40.521 ], [ -3.9342, 40.5224 ], [ -3.9354, 40.5234 ], [ -3.9354, 40.5236 ], [ -3.9356, 40.5238 ], [ -3.9356, 40.5259 ], [ -3.9357, 40.5261 ], [ -3.9356, 40.5269 ], [ -3.9357, 40.5272 ], [ -3.9368, 40.5283 ], [ -3.9371, 40.5279 ], [ -3.9385, 40.5273 ], [ -3.9386, 40.5267 ], [ -3.9391, 40.5277 ] ] ] } },
{ "type": "Feature", "properties": { "municipio": "Las Rozas de Madrid", "clasificacion": "no-urbanizable-protegido", "calificacion": "sin-asignar", "version": "vigente", "fuente": "SIT-CAM WFS — UsoDelSuelo:VPLA_V_CLASIFICACION (https://idem.comunidad.madrid/geosrvg/ows)", "fecha_dato": "2026-05-12", "ambito": "25925", "_raw_CD_SIGLAS": "SNUP", "_raw_DS_CLASIF_GEN": "Suelo No Urbanizable Protegido", "_raw_DS_CLASIF_DET": "Suelo No Urbanizable Especialmente Protegido", "_raw_DS_DOCU": "PLAN GENERAL", "_raw_DS_LEY": "CM Ley 4/1984, E RDL 1/1992", "_raw_FC_AC": "1994-12-01", "_raw_NM_AREA_M2": 1854677.5921346601, "_cam_code": "127" }, "geometry": { "type": "Polygon", "coordinates": [ [ [ -3.9047, 40.5557 ], [ -3.9046, 40.5562 ], [ -3.9034, 40.5567 ], [ -3.9033, 40.5571 ], [ -3.9033, 40.5577 ], [ -3.9036, 40.5577 ], [ -3.9037, 40.558 ], [ -3.9042, 40.558 ], [ -3.9043, 40.5583 ], [ -3.9056, 40.5582 ], [ -3.9079, 40.5575 ], [ -3.9079, 40.5574 ], [ -3.9082, 40.5574 ], [ -3.9082, 40.5573 ], [ -3.9084, 40.5573 ], [ -3.9091, 40.5569 ], [ -3.9096, 40.5564 ], [ -3.9117, 40.5555 ], [ -3.9154, 40.5556 ], [ -3.9164, 40.5564 ], [ -3.9171, 40.5561 ], [ -3.9173, 40.5558 ], [ -3.9178, 40.5556 ], [ -3.9182, 40.5552 ], [ -3.9196, 40.5544 ], [ -3.9226, 40.5551 ], [ -3.9225, 40.5558 ], [ -3.9224, 40.5558 ], [ -3.9224, 40.5565 ], [ -3.9246, 40.5565 ], [ -3.925, 40.5561 ], [ -3.9253, 40.5554 ], [ -3.9254, 40.5554 ], [ -3.9254, 40.5552 ], [ -3.9255, 40.5552 ], [ -3.9256, 40.5545 ], [ -3.9252, 40.5544 ], [ -3.9252, 40.5543 ], [ -3.9241, 40.5541 ], [ -3.9241, 40.554 ], [ -3.9239, 40.554 ], [ -3.9239, 40.5537 ], [ -3.9247, 40.5531 ], [ -3.9259, 40.553 ], [ -3.9261, 40.5528 ], [ -3.926, 40.5523 ], [ -3.9242, 40.5515 ], [ -3.9248, 40.5509 ], [ -3.9326, 40.5506 ], [ -3.9332, 40.5508 ], [ -3.9335, 40.5511 ], [ -3.9339, 40.5519 ], [ -3.9344, 40.5522 ], [ -3.935, 40.5518 ], [ -3.935, 40.5515 ], [ -3.9347, 40.5513 ], [ -3.9346, 40.5499 ], [ -3.9355, 40.5495 ], [ -3.9367, 40.5484 ], [ -3.937, 40.5484 ], [ -3.9381, 40.5488 ], [ -3.9386, 40.5487 ], [ -3.9397, 40.5489 ], [ -3.9403, 40.5485 ], [ -3.9404, 40.5483 ], [ -3.9407, 40.5482 ], [ -3.941, 40.5485 ], [ -3.9414, 40.5485 ], [ -3.9415, 40.5483 ], [ -3.9418, 40.5483 ], [ -3.9423, 40.5479 ], [ -3.9425, 40.5479 ], [ -3.9438, 40.5492 ], [ -3.9438, 40.5494 ], [ -3.9435, 40.5498 ], [ -3.9438, 40.5502 ], [ -3.9438, 40.5506 ], [ -3.9453, 40.5513 ], [ -3.9457, 40.5497 ], [ -3.9457, 40.5484 ], [ -3.946, 40.5467 ], [ -3.9459, 40.5467 ], [ -3.9458, 40.5472 ], [ -3.9448, 40.5469 ], [ -3.9454, 40.5452 ], [ -3.9454, 40.5443 ], [ -3.9442, 40.5429 ], [ -3.9437, 40.542 ], [ -3.9422, 40.5403 ], [ -3.9412, 40.5387 ], [ -3.9412, 40.5389 ], [ -3.941, 40.539 ], [ -3.9409, 40.5393 ], [ -3.9411, 40.5395 ], [ -3.9411, 40.54 ], [ -3.9404, 40.5408 ], [ -3.9393, 40.5413 ], [ -3.939, 40.5416 ], [ -3.9387, 40.5422 ], [ -3.9383, 40.5422 ], [ -3.938, 40.5426 ], [ -3.9374, 40.5425 ], [ -3.9377, 40.5442 ], [ -3.9375, 40.5444 ], [ -3.9375, 40.5447 ], [ -3.9364, 40.5459 ], [ -3.9367, 40.5466 ], [ -3.9367, 40.547 ], [ -3.935, 40.5483 ], [ -3.9343, 40.5492 ], [ -3.9341, 40.5492 ], [ -3.9341, 40.5493 ], [ -3.9314, 40.5498 ], [ -3.9306, 40.5493 ], [ -3.929, 40.5487 ], [ -3.9283, 40.5482 ], [ -3.9269, 40.5475 ], [ -3.9263, 40.548 ], [ -3.9266, 40.5483 ], [ -3.9274, 40.5486 ], [ -3.9273, 40.5491 ], [ -3.9159, 40.5498 ], [ -3.9144, 40.5498 ], [ -3.9142, 40.5499 ], [ -3.9127, 40.5499 ], [ -3.9134, 40.5515 ], [ -3.9046, 40.5528 ], [ -3.904, 40.5537 ], [ -3.9041, 40.5543 ], [ -3.9046, 40.5543 ], [ -3.9047, 40.554 ], [ -3.9056, 40.5543 ], [ -3.9053, 40.5548 ], [ -3.9043, 40.5547 ], [ -3.9042, 40.5548 ], [ -3.9047, 40.5548 ], [ -3.9046, 40.5552 ], [ -3.9048, 40.5552 ], [ -3.9047, 40.5556 ], [ -3.9045, 40.5556 ], [ -3.9047, 40.5557 ] ] ] } },
{ "type": "Feature", "properties": { "municipio": "Las Rozas de Madrid", "clasificacion": "no-urbanizable-protegido", "calificacion": "sin-asignar", "version": "vigente", "fuente": "SIT-CAM WFS — UsoDelSuelo:VPLA_V_CLASIFICACION (https://idem.comunidad.madrid/geosrvg/ows)", "fecha_dato": "2026-05-12", "ambito": "25925", "_raw_CD_SIGLAS": "SNUP", "_raw_DS_CLASIF_GEN": "Suelo No Urbanizable Protegido", "_raw_DS_CLASIF_DET": "Suelo No Urbanizable Especialmente Protegido", "_raw_DS_DOCU": "PLAN GENERAL", "_raw_DS_LEY": "CM Ley 4/1984, E RDL 1/1992", "_raw_FC_AC": "1994-12-01", "_raw_NM_AREA_M2": 144539.10906118, "_cam_code": "127" }, "geometry": { "type": "Polygon", "coordinates": [ [ [ -3.9066, 40.5625 ], [ -3.909, 40.5636 ], [ -3.9085, 40.5642 ], [ -3.9091, 40.5644 ], [ -3.91, 40.5633 ], [ -3.9114, 40.5622 ], [ -3.9126, 40.5615 ], [ -3.9146, 40.5606 ], [ -3.9137, 40.5605 ], [ -3.9117, 40.5606 ], [ -3.9071, 40.5616 ], [ -3.9053, 40.5616 ], [ -3.904, 40.5613 ], [ -3.903, 40.5609 ], [ -3.9041, 40.562 ], [ -3.9061, 40.5631 ], [ -3.9066, 40.5625 ] ] ] } },
{ "type": "Feature", "properties": { "municipio": "Las Rozas de Madrid", "clasificacion": "no-urbanizable-protegido", "calificacion": "sin-asignar", "version": "vigente", "fuente": "SIT-CAM WFS — UsoDelSuelo:VPLA_V_CLASIFICACION (https://idem.comunidad.madrid/geosrvg/ows)", "fecha_dato": "2026-05-12", "ambito": "25925", "_raw_CD_SIGLAS": "SNUP", "_raw_DS_CLASIF_GEN": "Suelo No Urbanizable Protegido", "_raw_DS_CLASIF_DET": "Suelo No Urbanizable Especialmente Protegido", "_raw_DS_DOCU": "PLAN GENERAL", "_raw_DS_LEY": "CM Ley 4/1984, E RDL 1/1992", "_raw_FC_AC": "1994-12-01", "_raw_NM_AREA_M2": 153324.85152000701, "_cam_code": "127" }, "geometry": { "type": "Polygon", "coordinates": [ [ [ -3.8871, 40.5664 ], [ -3.8879, 40.5682 ], [ -3.888, 40.5689 ], [ -3.8889, 40.5709 ], [ -3.8884, 40.5722 ], [ -3.8858, 40.5741 ], [ -3.8856, 40.5745 ], [ -3.886, 40.5745 ], [ -3.8872, 40.574 ], [ -3.889, 40.5735 ], [ -3.8892, 40.5732 ], [ -3.8905, 40.5727 ], [ -3.891, 40.5717 ], [ -3.8909, 40.5714 ], [ -3.8905, 40.5713 ], [ -3.8901, 40.5707 ], [ -3.8909, 40.5698 ], [ -3.8905, 40.5694 ], [ -3.8899, 40.5693 ], [ -3.8893, 40.569 ], [ -3.8893, 40.5689 ], [ -3.8882, 40.5687 ], [ -3.8882, 40.5676 ], [ -3.8889, 40.567 ], [ -3.8895, 40.567 ], [ -3.8895, 40.5671 ], [ -3.8895, 40.567 ], [ -3.8895, 40.5668 ], [ -3.8899, 40.5665 ], [ -3.8899, 40.5663 ], [ -3.8891, 40.5665 ], [ -3.8883, 40.5652 ], [ -3.8856, 40.5653 ], [ -3.8871, 40.5664 ] ] ] } },
{ "type": "Feature", "properties": { "municipio": "Las Rozas de Madrid", "clasificacion": "no-urbanizable-protegido", "calificacion": "sin-asignar", "version": "vigente", "fuente": "SIT-CAM WFS — UsoDelSuelo:VPLA_V_CLASIFICACION (https://idem.comunidad.madrid/geosrvg/ows)", "fecha_dato": "2026-05-12", "ambito": "25925", "_raw_CD_SIGLAS": "SNUP", "_raw_DS_CLASIF_GEN": "Suelo No Urbanizable Protegido", "_raw_DS_CLASIF_DET": "Suelo No Urbanizable Especialmente Protegido. Ley del Parque Regional de la Cuenca Alta del Manzanares", "_raw_DS_DOCU": "PLAN GENERAL", "_raw_DS_LEY": "CM Ley 4/1984, E RDL 1/1992", "_raw_FC_AC": "1994-12-01", "_raw_NM_AREA_M2": 17819730.3275869, "_cam_code": "127" }, "geometry": { "type": "Polygon", "coordinates": [ [ [ -3.8821, 40.5596 ], [ -3.8848, 40.5608 ], [ -3.885, 40.5611 ], [ -3.885, 40.5609 ], [ -3.8866, 40.5603 ], [ -3.8875, 40.5601 ], [ -3.8877, 40.5604 ], [ -3.8888, 40.56 ], [ -3.8888, 40.5599 ], [ -3.8911, 40.5592 ], [ -3.8908, 40.5587 ], [ -3.8909, 40.5576 ], [ -3.8908, 40.5567 ], [ -3.8905, 40.5561 ], [ -3.8896, 40.5559 ], [ -3.8896, 40.5544 ], [ -3.8874, 40.555 ], [ -3.8873, 40.5552 ], [ -3.8868, 40.5555 ], [ -3.8862, 40.5557 ], [ -3.8859, 40.5554 ], [ -3.8857, 40.5549 ], [ -3.8853, 40.5548 ], [ -3.8848, 40.555 ], [ -3.8845, 40.5548 ], [ -3.8847, 40.5545 ], [ -3.887, 40.5537 ], [ -3.8866, 40.5505 ], [ -3.8876, 40.5497 ], [ -3.8873, 40.5495 ], [ -3.8874, 40.5493 ], [ -3.8878, 40.5493 ], [ -3.8878, 40.5494 ], [ -3.8881, 40.5495 ], [ -3.889, 40.5484 ], [ -3.8907, 40.5468 ], [ -3.8916, 40.5455 ], [ -3.8908, 40.5437 ], [ -3.8898, 40.5424 ], [ -3.8894, 40.5414 ], [ -3.889, 40.5411 ], [ -3.8888, 40.5406 ], [ -3.889, 40.5405 ], [ -3.8888, 40.5402 ], [ -3.8885, 40.5389 ], [ -3.8878, 40.5375 ], [ -3.8875, 40.5381 ], [ -3.8852, 40.5383 ], [ -3.8849, 40.5382 ], [ -3.8845, 40.5374 ], [ -3.8828, 40.5335 ], [ -3.8854, 40.5324 ], [ -3.8834, 40.5285 ], [ -3.8825, 40.526 ], [ -3.8832, 40.5258 ], [ -3.8827, 40.5243 ], [ -3.88, 40.5198 ], [ -3.8763, 40.512 ], [ -3.875, 40.5099 ], [ -3.8743, 40.5084 ], [ -3.8737, 40.5064 ], [ -3.8732, 40.5055 ], [ -3.8717, 40.505 ], [ -3.8697, 40.5041 ], [ -3.8653, 40.5024 ], [ -3.8552, 40.497 ], [ -3.859, 40.4943 ], [ -3.8596, 40.4945 ], [ -3.8582, 40.4933 ], [ -3.8593, 40.4926 ], [ -3.86, 40.4925 ], [ -3.8607, 40.4922 ], [ -3.8614, 40.4914 ], [ -3.8627, 40.4905 ], [ -3.8645, 40.4899 ], [ -3.8628, 40.4883 ], [ -3.855, 40.4841 ], [ -3.8535, 40.4831 ], [ -3.8519, 40.4814 ], [ -3.851, 40.4808 ], [ -3.8393, 40.4763 ], [ -3.8374, 40.4758 ], [ -3.8364, 40.4807 ], [ -3.8366, 40.481 ], [ -3.8363, 40.4813 ], [ -3.8363, 40.4817 ], [ -3.8359, 40.4821 ], [ -3.8351, 40.4826 ], [ -3.8342, 40.4841 ], [ -3.8336, 40.4855 ], [ -3.8333, 40.4859 ], [ -3.8332, 40.4876 ], [ -3.8334, 40.4897 ], [ -3.8337, 40.4904 ], [ -3.8337, 40.4908 ], [ -3.8339, 40.491 ], [ -3.8342, 40.4919 ], [ -3.8344, 40.4936 ], [ -3.8346, 40.4943 ], [ -3.8357, 40.4953 ], [ -3.8394, 40.4994 ], [ -3.8387, 40.5028 ], [ -3.8377, 40.5042 ], [ -3.8371, 40.5059 ], [ -3.8492, 40.509 ], [ -3.8497, 40.5089 ], [ -3.8497, 40.5088 ], [ -3.8526, 40.5097 ], [ -3.8526, 40.51 ], [ -3.8529, 40.5105 ], [ -3.8537, 40.5114 ], [ -3.854, 40.512 ], [ -3.8534, 40.5146 ], [ -3.8523, 40.5155 ], [ -3.8519, 40.5168 ], [ -3.8517, 40.5169 ], [ -3.8513, 40.5177 ], [ -3.8518, 40.5183 ], [ -3.8533, 40.5194 ], [ -3.8544, 40.5214 ], [ -3.8543, 40.525 ], [ -3.8562, 40.5269 ], [ -3.8578, 40.5279 ], [ -3.8578, 40.5283 ], [ -3.8579, 40.5283 ], [ -3.8584, 40.5296 ], [ -3.8581, 40.5301 ], [ -3.8597, 40.5314 ], [ -3.8606, 40.5329 ], [ -3.8613, 40.5333 ], [ -3.8621, 40.5341 ], [ -3.8627, 40.5344 ], [ -3.863, 40.5347 ], [ -3.8639, 40.5375 ], [ -3.8639, 40.5393 ], [ -3.8642, 40.5395 ], [ -3.8644, 40.5399 ], [ -3.8651, 40.542 ], [ -3.8656, 40.5425 ], [ -3.8656, 40.5432 ], [ -3.8672, 40.5454 ], [ -3.8688, 40.5467 ], [ -3.8694, 40.5474 ], [ -3.8691, 40.5483 ], [ -3.8692, 40.5483 ], [ -3.8704, 40.5506 ], [ -3.8725, 40.5527 ], [ -3.8728, 40.5533 ], [ -3.8731, 40.5547 ], [ -3.873, 40.5553 ], [ -3.8732, 40.5561 ], [ -3.8738, 40.5575 ], [ -3.8752, 40.5581 ], [ -3.8754, 40.5588 ], [ -3.8789, 40.5596 ], [ -3.8821, 40.5596 ] ] ] } },
{ "type": "Feature", "properties": { "municipio": "Las Rozas de Madrid", "clasificacion": "no-urbanizable-protegido", "calificacion": "sin-asignar", "version": "vigente", "fuente": "SIT-CAM WFS — UsoDelSuelo:VPLA_V_CLASIFICACION (https://idem.comunidad.madrid/geosrvg/ows)", "fecha_dato": "2026-05-12", "ambito": "25925", "_raw_CD_SIGLAS": "SNUP_A", "_raw_DS_CLASIF_GEN": "Suelo No Urbanizable Protegido (APLAZADO)", "_raw_DS_CLASIF_DET": "Suelo No Urbanizable Especialmente Protegido. Ley del Parque Regional de la Cuenca Alta del Manzanares", "_raw_DS_DOCU": "PLAN GENERAL", "_raw_DS_LEY": "CM Ley 4/1984, E RDL 1/1992", "_raw_FC_AC": "1994-12-01", "_raw_NM_AREA_M2": 38402.947456479997, "_cam_code": "127" }, "geometry": { "type": "Polygon", "coordinates": [ [ [ -3.8905, 40.5561 ], [ -3.8908, 40.5567 ], [ -3.8908, 40.5571 ], [ -3.8909, 40.5571 ], [ -3.8908, 40.5587 ], [ -3.8911, 40.5592 ], [ -3.8928, 40.5585 ], [ -3.8934, 40.5584 ], [ -3.8928, 40.5575 ], [ -3.8925, 40.5576 ], [ -3.8925, 40.5575 ], [ -3.8917, 40.5572 ], [ -3.8917, 40.5573 ], [ -3.8915, 40.5573 ], [ -3.8916, 40.5571 ], [ -3.8913, 40.5571 ], [ -3.8914, 40.5567 ], [ -3.8916, 40.5566 ], [ -3.8916, 40.5563 ], [ -3.8905, 40.5561 ] ] ] } },
{ "type": "Feature", "properties": { "municipio": "Las Rozas de Madrid", "clasificacion": "urbano-consolidado", "calificacion": "sin-asignar", "version": "vigente", "fuente": "SIT-CAM WFS — UsoDelSuelo:VPLA_V_CLASIFICACION (https://idem.comunidad.madrid/geosrvg/ows)", "fecha_dato": "2026-05-12", "ambito": "25925", "_raw_CD_SIGLAS": "SU", "_raw_DS_CLASIF_GEN": "Suelo Urbano (INCORPORADO)", "_raw_DS_CLASIF_DET": "Suelo Urbano", "_raw_DS_DOCU": "PLAN GENERAL", "_raw_DS_LEY": "CM Ley 4/1984, E RDL 1/1992", "_raw_FC_AC": "1994-12-01", "_raw_NM_AREA_M2": 15973.777216463001, "_cam_code": "127" }, "geometry": { "type": "Polygon", "coordinates": [ [ [ -3.8757, 40.4941 ], [ -3.8761, 40.4938 ], [ -3.8763, 40.494 ], [ -3.8764, 40.4937 ], [ -3.8771, 40.4932 ], [ -3.8765, 40.4927 ], [ -3.8762, 40.493 ], [ -3.8757, 40.4928 ], [ -3.8756, 40.4931 ], [ -3.8747, 40.4927 ], [ -3.8749, 40.493 ], [ -3.8748, 40.493 ], [ -3.8754, 40.4932 ], [ -3.875, 40.4937 ], [ -3.8757, 40.4941 ] ] ] } },
{ "type": "Feature", "properties": { "municipio": "Las Rozas de Madrid", "clasificacion": "urbano-consolidado", "calificacion": "sin-asignar", "version": "vigente", "fuente": "SIT-CAM WFS — UsoDelSuelo:VPLA_V_CLASIFICACION (https://idem.comunidad.madrid/geosrvg/ows)", "fecha_dato": "2026-05-12", "ambito": "25925", "_raw_CD_SIGLAS": "SU", "_raw_DS_CLASIF_GEN": "Suelo Urbano (INCORPORADO)", "_raw_DS_CLASIF_DET": "Suelo Urbano", "_raw_DS_DOCU": "PLAN GENERAL", "_raw_DS_LEY": "CM Ley 4/1984, E RDL 1/1992", "_raw_FC_AC": "1994-12-01", "_raw_NM_AREA_M2": 341316.87475851201, "_cam_code": "127" }, "geometry": { "type": "Polygon", "coordinates": [ [ [ -3.9033, 40.5115 ], [ -3.9048, 40.5121 ], [ -3.9053, 40.5125 ], [ -3.9053, 40.5124 ], [ -3.9058, 40.5122 ], [ -3.9059, 40.5117 ], [ -3.9061, 40.5117 ], [ -3.9061, 40.5116 ], [ -3.9064, 40.5117 ], [ -3.9064, 40.5118 ], [ -3.9068, 40.5117 ], [ -3.9068, 40.5111 ], [ -3.9069, 40.511 ], [ -3.908, 40.511 ], [ -3.9087, 40.5108 ], [ -3.9089, 40.5105 ], [ -3.9092, 40.5105 ], [ -3.9106, 40.5087 ], [ -3.91, 40.5082 ], [ -3.9097, 40.5081 ], [ -3.9091, 40.5085 ], [ -3.9086, 40.5086 ], [ -3.9078, 40.5078 ], [ -3.9071, 40.5074 ], [ -3.9069, 40.5069 ], [ -3.9082, 40.5047 ], [ -3.9056, 40.5034 ], [ -3.9056, 40.5037 ], [ -3.9055, 40.5037 ], [ -3.9055, 40.5057 ], [ -3.9032, 40.5079 ], [ -3.9017, 40.5086 ], [ -3.9025, 40.5097 ], [ -3.9023, 40.5098 ], [ -3.9021, 40.5103 ], [ -3.9033, 40.5115 ] ] ] } },
{ "type": "Feature", "properties": { "municipio": "Las Rozas de Madrid", "clasificacion": "urbano-consolidado", "calificacion": "sin-asignar", "version": "vigente", "fuente": "SIT-CAM WFS — UsoDelSuelo:VPLA_V_CLASIFICACION (https://idem.comunidad.madrid/geosrvg/ows)", "fecha_dato": "2026-05-12", "ambito": "25925", "_raw_CD_SIGLAS": "SU", "_raw_DS_CLASIF_GEN": "Suelo Urbano", "_raw_DS_CLASIF_DET": "Suelo Urbano", "_raw_DS_DOCU": "PLAN GENERAL", "_raw_DS_LEY": "CM Ley 4/1984, E RDL 1/1992", "_raw_FC_AC": "1994-12-01", "_raw_NM_AREA_M2": 10041284.012499901, "_cam_code": "127" }, "geometry": { "type": "Polygon", "coordinates": [ [ [ -3.8882, 40.5677 ], [ -3.8882, 40.5687 ], [ -3.8893, 40.5689 ], [ -3.8893, 40.569 ], [ -3.8899, 40.5693 ], [ -3.8905, 40.5694 ], [ -3.8909, 40.5698 ], [ -3.8901, 40.5707 ], [ -3.8905, 40.5713 ], [ -3.8909, 40.5714 ], [ -3.891, 40.5716 ], [ -3.892, 40.5711 ], [ -3.8929, 40.5704 ], [ -3.894, 40.5699 ], [ -3.8956, 40.5676 ], [ -3.8964, 40.568 ], [ -3.8968, 40.5676 ], [ -3.8984, 40.5671 ], [ -3.9012, 40.5654 ], [ -3.9053, 40.5634 ], [ -3.9056, 40.5636 ], [ -3.9068, 40.5639 ], [ -3.9088, 40.5647 ], [ -3.909, 40.5644 ], [ -3.9085, 40.5642 ], [ -3.909, 40.5636 ], [ -3.9066, 40.5625 ], [ -3.9061, 40.5631 ], [ -3.9041, 40.562 ], [ -3.903, 40.5609 ], [ -3.904, 40.5613 ], [ -3.9053, 40.5616 ], [ -3.9071, 40.5616 ], [ -3.9117, 40.5606 ], [ -3.9126, 40.5606 ], [ -3.9128, 40.5605 ], [ -3.9146, 40.5606 ], [ -3.9163, 40.5596 ], [ -3.9188, 40.5584 ], [ -3.9199, 40.5576 ], [ -3.9227, 40.5577 ], [ -3.9232, 40.5583 ], [ -3.9245, 40.5581 ], [ -3.9261, 40.5581 ], [ -3.9263, 40.5582 ], [ -3.9268, 40.5581 ], [ -3.927, 40.5582 ], [ -3.9273, 40.5579 ], [ -3.9275, 40.5579 ], [ -3.9277, 40.5581 ], [ -3.9282, 40.5579 ], [ -3.9288, 40.558 ], [ -3.9294, 40.5578 ], [ -3.93, 40.5586 ], [ -3.9309, 40.5593 ], [ -3.9313, 40.5599 ], [ -3.932, 40.56 ], [ -3.9322, 40.5598 ], [ -3.9322, 40.5592 ], [ -3.9316, 40.5588 ], [ -3.9315, 40.5584 ], [ -3.9308, 40.5582 ], [ -3.9307, 40.5571 ], [ -3.9309, 40.5567 ], [ -3.9321, 40.5571 ], [ -3.9321, 40.5568 ], [ -3.9319, 40.5565 ], [ -3.9321, 40.5562 ], [ -3.9321, 40.5559 ], [ -3.9319, 40.5558 ], [ -3.9318, 40.5554 ], [ -3.9313, 40.5548 ], [ -3.9303, 40.554 ], [ -3.9303, 40.5537 ], [ -3.9308, 40.5535 ], [ -3.9316, 40.5534 ], [ -3.9317, 40.553 ], [ -3.932, 40.5528 ], [ -3.9326, 40.5528 ], [ -3.9327, 40.5525 ], [ -3.9326, 40.5523 ], [ -3.9319, 40.552 ], [ -3.9316, 40.5517 ], [ -3.9314, 40.5513 ], [ -3.9314, 40.5509 ], [ -3.9317, 40.5506 ], [ -3.9248, 40.5509 ], [ -3.9242, 40.5515 ], [ -3.926, 40.5523 ], [ -3.9261, 40.5528 ], [ -3.9259, 40.553 ], [ -3.9247, 40.5531 ], [ -3.9239, 40.5537 ], [ -3.9239, 40.554 ], [ -3.9241, 40.554 ], [ -3.9241, 40.5541 ], [ -3.9252, 40.5543 ], [ -3.9252, 40.5544 ], [ -3.9256, 40.5545 ], [ -3.9255, 40.5552 ], [ -3.9254, 40.5552 ], [ -3.9254, 40.5554 ], [ -3.9253, 40.5554 ], [ -3.925, 40.5561 ], [ -3.9246, 40.5565 ], [ -3.9224, 40.5565 ], [ -3.9224, 40.5558 ], [ -3.9225, 40.5558 ], [ -3.9226, 40.5551 ], [ -3.9196, 40.5544 ], [ -3.9182, 40.5552 ], [ -3.9178, 40.5556 ], [ -3.9173, 40.5558 ], [ -3.9171, 40.5561 ], [ -3.9164, 40.5564 ], [ -3.9154, 40.5556 ], [ -3.9126, 40.5555 ], [ -3.9125, 40.5558 ], [ -3.9126, 40.5558 ], [ -3.9126, 40.556 ], [ -3.9122, 40.556 ], [ -3.9122, 40.5564 ], [ -3.9113, 40.5567 ], [ -3.9093, 40.5579 ], [ -3.9093, 40.558 ], [ -3.9081, 40.5584 ], [ -3.9083, 40.5588 ], [ -3.9077, 40.559 ], [ -3.9071, 40.5591 ], [ -3.9069, 40.5586 ], [ -3.9054, 40.559 ], [ -3.9038, 40.5592 ], [ -3.9037, 40.5587 ], [ -3.9034, 40.5584 ], [ -3.9026, 40.5582 ], [ -3.9018, 40.5578 ], [ -3.9017, 40.5573 ], [ -3.901, 40.5571 ], [ -3.9008, 40.5567 ], [ -3.9018, 40.5564 ], [ -3.9012, 40.5554 ], [ -3.9036, 40.5547 ], [ -3.9035, 40.5543 ], [ -3.9041, 40.5543 ], [ -3.904, 40.5537 ], [ -3.9046, 40.5528 ], [ -3.9043, 40.5527 ], [ -3.9032, 40.5528 ], [ -3.9018, 40.5533 ], [ -3.9014, 40.5527 ], [ -3.9015, 40.5526 ], [ -3.903, 40.5525 ], [ -3.9031, 40.5524 ], [ -3.903, 40.5523 ], [ -3.9031, 40.5518 ], [ -3.903, 40.5518 ], [ -3.9028, 40.5508 ], [ -3.902, 40.5506 ], [ -3.9018, 40.55 ], [ -3.9016, 40.55 ], [ -3.9016, 40.5501 ], [ -3.9012, 40.5501 ], [ -3.9008, 40.5503 ], [ -3.898, 40.5509 ], [ -3.8968, 40.5484 ], [ -3.897, 40.5484 ], [ -3.8977, 40.5472 ], [ -3.8988, 40.5462 ], [ -3.9002, 40.5455 ], [ -3.902, 40.5452 ], [ -3.902, 40.5449 ], [ -3.9015, 40.5445 ], [ -3.8951, 40.546 ], [ -3.8939, 40.543 ], [ -3.8937, 40.5428 ], [ -3.893, 40.5412 ], [ -3.8907, 40.5375 ], [ -3.8898, 40.5358 ], [ -3.8898, 40.5357 ], [ -3.8923, 40.5354 ], [ -3.8925, 40.5363 ], [ -3.8938, 40.5361 ], [ -3.894, 40.5344 ], [ -3.8901, 40.5334 ], [ -3.8895, 40.5333 ], [ -3.8889, 40.5334 ], [ -3.8881, 40.5309 ], [ -3.8911, 40.5313 ], [ -3.8918, 40.5312 ], [ -3.8955, 40.5317 ], [ -3.8973, 40.5278 ], [ -3.896, 40.5276 ], [ -3.8914, 40.5265 ], [ -3.8873, 40.5269 ], [ -3.8871, 40.5227 ], [ -3.8866, 40.52 ], [ -3.8861, 40.5182 ], [ -3.8915, 40.5164 ], [ -3.8918, 40.5162 ], [ -3.8934, 40.5147 ], [ -3.8942, 40.5128 ], [ -3.8932, 40.5122 ], [ -3.8929, 40.5118 ], [ -3.8919, 40.5101 ], [ -3.8905, 40.5081 ], [ -3.8904, 40.5075 ], [ -3.8902, 40.5072 ], [ -3.89, 40.5073 ], [ -3.8891, 40.5058 ], [ -3.8878, 40.5045 ], [ -3.8877, 40.5041 ], [ -3.8876, 40.5041 ], [ -3.8876, 40.5037 ], [ -3.8862, 40.503 ], [ -3.8844, 40.5036 ], [ -3.8834, 40.5061 ], [ -3.883, 40.5065 ], [ -3.8811, 40.5073 ], [ -3.8791, 40.5092 ], [ -3.8763, 40.5053 ], [ -3.8785, 40.5053 ], [ -3.8786, 40.5046 ], [ -3.8757, 40.5042 ], [ -3.8755, 40.5035 ], [ -3.876, 40.5035 ], [ -3.8767, 40.5033 ], [ -3.8765, 40.5028 ], [ -3.8767, 40.5026 ], [ -3.877, 40.5029 ], [ -3.8777, 40.5026 ], [ -3.8777, 40.5027 ], [ -3.8784, 40.5025 ], [ -3.8783, 40.5019 ], [ -3.8785, 40.5012 ], [ -3.8784, 40.5009 ], [ -3.8785, 40.5001 ], [ -3.8783, 40.4993 ], [ -3.8787, 40.4993 ], [ -3.8782, 40.4988 ], [ -3.8787, 40.4983 ], [ -3.8788, 40.4985 ], [ -3.8803, 40.4979 ], [ -3.8804, 40.4975 ], [ -3.8811, 40.4972 ], [ -3.8806, 40.4965 ], [ -3.8807, 40.4955 ], [ -3.8817, 40.4956 ], [ -3.8819, 40.4959 ], [ -3.8822, 40.4959 ], [ -3.8828, 40.4967 ], [ -3.8841, 40.4966 ], [ -3.8843, 40.4963 ], [ -3.885, 40.4963 ], [ -3.8859, 40.4965 ], [ -3.8866, 40.4957 ], [ -3.887, 40.4965 ], [ -3.8873, 40.4975 ], [ -3.8872, 40.4979 ], [ -3.8869, 40.4978 ], [ -3.8866, 40.4981 ], [ -3.8868, 40.4996 ], [ -3.8878, 40.5 ], [ -3.8884, 40.5001 ], [ -3.8886, 40.4999 ], [ -3.8881, 40.4984 ], [ -3.888, 40.4984 ], [ -3.888, 40.4965 ], [ -3.8879, 40.4961 ], [ -3.8842, 40.4943 ], [ -3.8843, 40.4942 ], [ -3.8839, 40.494 ], [ -3.8837, 40.494 ], [ -3.8813, 40.4929 ], [ -3.8813, 40.4928 ], [ -3.8811, 40.4928 ], [ -3.8809, 40.4926 ], [ -3.8807, 40.4926 ], [ -3.8807, 40.4925 ], [ -3.8796, 40.4921 ], [ -3.879, 40.4917 ], [ -3.8788, 40.4917 ], [ -3.8788, 40.4916 ], [ -3.8748, 40.4899 ], [ -3.8748, 40.4898 ], [ -3.8741, 40.4895 ], [ -3.8741, 40.4894 ], [ -3.8734, 40.4892 ], [ -3.873, 40.4889 ], [ -3.8719, 40.4885 ], [ -3.8719, 40.4884 ], [ -3.8716, 40.4884 ], [ -3.8716, 40.4883 ], [ -3.8709, 40.4881 ], [ -3.8707, 40.4879 ], [ -3.8704, 40.4879 ], [ -3.8704, 40.4878 ], [ -3.8702, 40.4878 ], [ -3.8669, 40.4862 ], [ -3.867, 40.4862 ], [ -3.8672, 40.4857 ], [ -3.8681, 40.4845 ], [ -3.8689, 40.4824 ], [ -3.869, 40.4824 ], [ -3.8689, 40.4823 ], [ -3.867, 40.4819 ], [ -3.8642, 40.481 ], [ -3.8575, 40.4796 ], [ -3.8522, 40.4787 ], [ -3.851, 40.4786 ], [ -3.8479, 40.478 ], [ -3.8479, 40.4779 ], [ -3.8427, 40.4771 ], [ -3.839, 40.4756 ], [ -3.8367, 40.4751 ], [ -3.8376, 40.4756 ], [ -3.8374, 40.4758 ], [ -3.8393, 40.4763 ], [ -3.851, 40.4808 ], [ -3.8519, 40.4814 ], [ -3.8535, 40.4831 ], [ -3.855, 40.4841 ], [ -3.8628, 40.4883 ], [ -3.8645, 40.4899 ], [ -3.8627, 40.4905 ], [ -3.8614, 40.4914 ], [ -3.8607, 40.4922 ], [ -3.86, 40.4925 ], [ -3.8593, 40.4926 ], [ -3.8582, 40.4933 ], [ -3.8587, 40.4938 ], [ -3.859, 40.4939 ], [ -3.8594, 40.4944 ], [ -3.8607, 40.4953 ], [ -3.8608, 40.4955 ], [ -3.861, 40.4956 ], [ -3.8615, 40.4954 ], [ -3.8615, 40.4955 ], [ -3.8621, 40.4958 ], [ -3.8634, 40.4968 ], [ -3.8642, 40.497 ], [ -3.8643, 40.4971 ], [ -3.8645, 40.4988 ], [ -3.8644, 40.4994 ], [ -3.865, 40.4994 ], [ -3.865, 40.4993 ], [ -3.8654, 40.4992 ], [ -3.8655, 40.4993 ], [ -3.8671, 40.4992 ], [ -3.8678, 40.499 ], [ -3.8684, 40.499 ], [ -3.8704, 40.4983 ], [ -3.8711, 40.4982 ], [ -3.8719, 40.4997 ], [ -3.8732, 40.5013 ], [ -3.8732, 40.5015 ], [ -3.8733, 40.5015 ], [ -3.8733, 40.5017 ], [ -3.8734, 40.5017 ], [ -3.8734, 40.5019 ], [ -3.8735, 40.5019 ], [ -3.8737, 40.5025 ], [ -3.8742, 40.5033 ], [ -3.8742, 40.5035 ], [ -3.8749, 40.5047 ], [ -3.8799, 40.5115 ], [ -3.8768, 40.513 ], [ -3.88, 40.5198 ], [ -3.8827, 40.5243 ], [ -3.8832, 40.5258 ], [ -3.8825, 40.526 ], [ -3.8834, 40.5285 ], [ -3.8883, 40.5384 ], [ -3.8888, 40.5402 ], [ -3.889, 40.5405 ], [ -3.8888, 40.5406 ], [ -3.889, 40.5411 ], [ -3.8894, 40.5414 ], [ -3.8898, 40.5424 ], [ -3.8908, 40.5437 ], [ -3.8916, 40.5455 ], [ -3.8907, 40.5468 ], [ -3.889, 40.5484 ], [ -3.8881, 40.5495 ], [ -3.8878, 40.5494 ], [ -3.8878, 40.5493 ], [ -3.8874, 40.5493 ], [ -3.8873, 40.5495 ], [ -3.8876, 40.5497 ], [ -3.8866, 40.5505 ], [ -3.887, 40.5537 ], [ -3.8847, 40.5545 ], [ -3.8845, 40.5548 ], [ -3.8848, 40.555 ], [ -3.8853, 40.5548 ], [ -3.8857, 40.5549 ], [ -3.8859, 40.5554 ], [ -3.8862, 40.5557 ], [ -3.8868, 40.5555 ], [ -3.8873, 40.5552 ], [ -3.8874, 40.555 ], [ -3.8897, 40.5544 ], [ -3.8912, 40.5533 ], [ -3.8917, 40.5536 ], [ -3.892, 40.5532 ], [ -3.8922, 40.5533 ], [ -3.8922, 40.5534 ], [ -3.892, 40.5534 ], [ -3.8918, 40.5539 ], [ -3.8917, 40.5558 ], [ -3.8916, 40.556 ], [ -3.8916, 40.5562 ], [ -3.8921, 40.5562 ], [ -3.892, 40.5565 ], [ -3.8916, 40.5563 ], [ -3.8916, 40.5566 ], [ -3.8914, 40.5567 ], [ -3.8913, 40.5571 ], [ -3.8916, 40.5571 ], [ -3.8915, 40.5573 ], [ -3.8917, 40.5573 ], [ -3.8917, 40.5572 ], [ -3.8925, 40.5575 ], [ -3.8925, 40.5576 ], [ -3.8928, 40.5575 ], [ -3.8934, 40.5584 ], [ -3.8928, 40.5585 ], [ -3.8911, 40.5592 ], [ -3.8888, 40.5599 ], [ -3.8888, 40.56 ], [ -3.8877, 40.5604 ], [ -3.8888, 40.5622 ], [ -3.8889, 40.5626 ], [ -3.8874, 40.5631 ], [ -3.8878, 40.5638 ], [ -3.8869, 40.5642 ], [ -3.8871, 40.5648 ], [ -3.8907, 40.5635 ], [ -3.8907, 40.5637 ], [ -3.8913, 40.564 ], [ -3.8904, 40.5641 ], [ -3.8904, 40.5643 ], [ -3.89, 40.5647 ], [ -3.8898, 40.5648 ], [ -3.8898, 40.5647 ], [ -3.8896, 40.5647 ], [ -3.8896, 40.5647 ], [ -3.8896, 40.5647 ], [ -3.8896, 40.5647 ], [ -3.8896, 40.5647 ], [ -3.8896, 40.5647 ], [ -3.8896, 40.5647 ], [ -3.8896, 40.5647 ], [ -3.8896, 40.5647 ], [ -3.8896, 40.5647 ], [ -3.8896, 40.5647 ], [ -3.8896, 40.5647 ], [ -3.8896, 40.5647 ], [ -3.8896, 40.5647 ], [ -3.8896, 40.5647 ], [ -3.8896, 40.5647 ], [ -3.8896, 40.5647 ], [ -3.8896, 40.5647 ], [ -3.8896, 40.5647 ], [ -3.8896, 40.5647 ], [ -3.8896, 40.5647 ], [ -3.8896, 40.5647 ], [ -3.8896, 40.5647 ], [ -3.8896, 40.5647 ], [ -3.8896, 40.5648 ], [ -3.8896, 40.5648 ], [ -3.8896, 40.5648 ], [ -3.8896, 40.5648 ], [ -3.8896, 40.5648 ], [ -3.8896, 40.5648 ], [ -3.8896, 40.5648 ], [ -3.8896, 40.5648 ], [ -3.8896, 40.5648 ], [ -3.8896, 40.5648 ], [ -3.8896, 40.5648 ], [ -3.8896, 40.5648 ], [ -3.8896, 40.5648 ], [ -3.8896, 40.5648 ], [ -3.8896, 40.5648 ], [ -3.8896, 40.5648 ], [ -3.8896, 40.5648 ], [ -3.8896, 40.5648 ], [ -3.8896, 40.5648 ], [ -3.8896, 40.5648 ], [ -3.8896, 40.5648 ], [ -3.8896, 40.5648 ], [ -3.8896, 40.5648 ], [ -3.8896, 40.5648 ], [ -3.8896, 40.5648 ], [ -3.8896, 40.5648 ], [ -3.8896, 40.5648 ], [ -3.8896, 40.5648 ], [ -3.8896, 40.5648 ], [ -3.8896, 40.5648 ], [ -3.8896, 40.5648 ], [ -3.8896, 40.5648 ], [ -3.8896, 40.5648 ], [ -3.8896, 40.5648 ], [ -3.8896, 40.5648 ], [ -3.8896, 40.5648 ], [ -3.8896, 40.5648 ], [ -3.8896, 40.5648 ], [ -3.8896, 40.5648 ], [ -3.8896, 40.5648 ], [ -3.8896, 40.5648 ], [ -3.8896, 40.5648 ], [ -3.8896, 40.5648 ], [ -3.8896, 40.5648 ], [ -3.8896, 40.5648 ], [ -3.8896, 40.5648 ], [ -3.8896, 40.5648 ], [ -3.8896, 40.5648 ], [ -3.8896, 40.5648 ], [ -3.8896, 40.5648 ], [ -3.8896, 40.5648 ], [ -3.8896, 40.5648 ], [ -3.8896, 40.5648 ], [ -3.8896, 40.5648 ], [ -3.8896, 40.5648 ], [ -3.8896, 40.5648 ], [ -3.8896, 40.5648 ], [ -3.8896, 40.5648 ], [ -3.8896, 40.5648 ], [ -3.8896, 40.5648 ], [ -3.8896, 40.5648 ], [ -3.8896, 40.5648 ], [ -3.8896, 40.5648 ], [ -3.8896, 40.5648 ], [ -3.8896, 40.5648 ], [ -3.8896, 40.5648 ], [ -3.8896, 40.5648 ], [ -3.8896, 40.5648 ], [ -3.8896, 40.5648 ], [ -3.8896, 40.5648 ], [ -3.8896, 40.5648 ], [ -3.8896, 40.5648 ], [ -3.8896, 40.5648 ], [ -3.8896, 40.5648 ], [ -3.8896, 40.5648 ], [ -3.8896, 40.5649 ], [ -3.8896, 40.5649 ], [ -3.8896, 40.5649 ], [ -3.8896, 40.5649 ], [ -3.8896, 40.5649 ], [ -3.8896, 40.5649 ], [ -3.8896, 40.5649 ], [ -3.8896, 40.5649 ], [ -3.8896, 40.5649 ], [ -3.8896, 40.5649 ], [ -3.8896, 40.5649 ], [ -3.8896, 40.5649 ], [ -3.8896, 40.5649 ], [ -3.8896, 40.5649 ], [ -3.8896, 40.5649 ], [ -3.8896, 40.5649 ], [ -3.8896, 40.5649 ], [ -3.8896, 40.5649 ], [ -3.8896, 40.5649 ], [ -3.8896, 40.5649 ], [ -3.8896, 40.5649 ], [ -3.8896, 40.5649 ], [ -3.8896, 40.5649 ], [ -3.8897, 40.5649 ], [ -3.8882, 40.5651 ], [ -3.8891, 40.5665 ], [ -3.8899, 40.5663 ], [ -3.8899, 40.5665 ], [ -3.8895, 40.5668 ], [ -3.8895, 40.5668 ], [ -3.8895, 40.5669 ], [ -3.8895, 40.5669 ], [ -3.8895, 40.5669 ], [ -3.8895, 40.5669 ], [ -3.8895, 40.5669 ], [ -3.8895, 40.5669 ], [ -3.8895, 40.5669 ], [ -3.8895, 40.5669 ], [ -3.8895, 40.5669 ], [ -3.8895, 40.5669 ], [ -3.8895, 40.5669 ], [ -3.8895, 40.567 ], [ -3.8895, 40.5671 ], [ -3.8895, 40.567 ], [ -3.8889, 40.567 ], [ -3.8882, 40.5677 ] ], [ [ -3.885, 40.5211 ], [ -3.8855, 40.5216 ], [ -3.8857, 40.522 ], [ -3.8859, 40.5234 ], [ -3.8861, 40.5239 ], [ -3.8854, 40.524 ], [ -3.8854, 40.525 ], [ -3.8842, 40.5254 ], [ -3.8835, 40.5247 ], [ -3.8829, 40.5228 ], [ -3.8826, 40.5227 ], [ -3.8822, 40.5219 ], [ -3.885, 40.5211 ] ], [ [ -3.8757, 40.4941 ], [ -3.875, 40.4937 ], [ -3.8754, 40.4932 ], [ -3.8748, 40.493 ], [ -3.8749, 40.493 ], [ -3.8747, 40.4927 ], [ -3.8756, 40.4931 ], [ -3.8757, 40.4928 ], [ -3.8762, 40.493 ], [ -3.8765, 40.4927 ], [ -3.8771, 40.4932 ], [ -3.8766, 40.4935 ], [ -3.8763, 40.494 ], [ -3.8761, 40.4938 ], [ -3.8757, 40.4941 ] ] ] } },
{ "type": "Feature", "properties": { "municipio": "Las Rozas de Madrid", "clasificacion": "urbano-consolidado", "calificacion": "sin-asignar", "version": "vigente", "fuente": "SIT-CAM WFS — UsoDelSuelo:VPLA_V_CLASIFICACION (https://idem.comunidad.madrid/geosrvg/ows)", "fecha_dato": "2026-05-12", "ambito": "25925", "_raw_CD_SIGLAS": "SU", "_raw_DS_CLASIF_GEN": "Suelo Urbano", "_raw_DS_CLASIF_DET": "Suelo Urbano", "_raw_DS_DOCU": "PLAN GENERAL", "_raw_DS_LEY": "CM Ley 4/1984, E RDL 1/1992", "_raw_FC_AC": "1994-12-01", "_raw_NM_AREA_M2": 36544.869895936601, "_cam_code": "127" }, "geometry": { "type": "Polygon", "coordinates": [ [ [ -3.9137, 40.5074 ], [ -3.9134, 40.5078 ], [ -3.9144, 40.5086 ], [ -3.9144, 40.5092 ], [ -3.9156, 40.5098 ], [ -3.9165, 40.5092 ], [ -3.9168, 40.5087 ], [ -3.9166, 40.5085 ], [ -3.9142, 40.5076 ], [ -3.9142, 40.5075 ], [ -3.9137, 40.5074 ] ] ] } },
{ "type": "Feature", "properties": { "municipio": "Las Rozas de Madrid", "clasificacion": "urbano-consolidado", "calificacion": "sin-asignar", "version": "vigente", "fuente": "SIT-CAM WFS — UsoDelSuelo:VPLA_V_CLASIFICACION (https://idem.comunidad.madrid/geosrvg/ows)", "fecha_dato": "2026-05-12", "ambito": "25925", "_raw_CD_SIGLAS": "SU", "_raw_DS_CLASIF_GEN": "Suelo Urbano", "_raw_DS_CLASIF_DET": "Suelo Urbano", "_raw_DS_DOCU": "PLAN GENERAL", "_raw_DS_LEY": "CM Ley 4/1984, E RDL 1/1992", "_raw_FC_AC": "1994-12-01", "_raw_NM_AREA_M2": 243208.28533307099, "_cam_code": "127" }, "geometry": { "type": "Polygon", "coordinates": [ [ [ -3.8731, 40.4835 ], [ -3.8715, 40.4863 ], [ -3.8728, 40.4869 ], [ -3.8742, 40.4871 ], [ -3.8744, 40.4868 ], [ -3.8749, 40.4868 ], [ -3.8755, 40.487 ], [ -3.8756, 40.4869 ], [ -3.8761, 40.4869 ], [ -3.8762, 40.4867 ], [ -3.8771, 40.4866 ], [ -3.8773, 40.487 ], [ -3.8775, 40.4871 ], [ -3.8775, 40.4873 ], [ -3.8781, 40.4876 ], [ -3.8785, 40.4876 ], [ -3.8796, 40.4875 ], [ -3.8807, 40.4868 ], [ -3.8805, 40.4857 ], [ -3.8806, 40.4853 ], [ -3.8798, 40.4848 ], [ -3.878, 40.4843 ], [ -3.8777, 40.4835 ], [ -3.876, 40.484 ], [ -3.8759, 40.4835 ], [ -3.8731, 40.4835 ] ] ] } },
{ "type": "Feature", "properties": { "municipio": "Las Rozas de Madrid", "clasificacion": "urbano-consolidado", "calificacion": "sin-asignar", "version": "vigente", "fuente": "SIT-CAM WFS — UsoDelSuelo:VPLA_V_CLASIFICACION (https://idem.comunidad.madrid/geosrvg/ows)", "fecha_dato": "2026-05-12", "ambito": "25925", "_raw_CD_SIGLAS": "SU", "_raw_DS_CLASIF_GEN": "Suelo Urbano (INCORPORADO)", "_raw_DS_CLASIF_DET": "Suelo Urbano", "_raw_DS_DOCU": "PLAN GENERAL", "_raw_DS_LEY": "CM Ley 4/1984, E RDL 1/1992", "_raw_FC_AC": "1994-12-01", "_raw_NM_AREA_M2": 1287375.32509878, "_cam_code": "127" }, "geometry": { "type": "Polygon", "coordinates": [ [ [ -3.8718, 40.4828 ], [ -3.8689, 40.4824 ], [ -3.8681, 40.4845 ], [ -3.8672, 40.4857 ], [ -3.867, 40.4862 ], [ -3.8669, 40.4862 ], [ -3.8702, 40.4878 ], [ -3.8704, 40.4878 ], [ -3.8704, 40.4879 ], [ -3.8707, 40.4879 ], [ -3.8709, 40.4881 ], [ -3.8716, 40.4883 ], [ -3.8716, 40.4884 ], [ -3.8719, 40.4884 ], [ -3.8719, 40.4885 ], [ -3.873, 40.4889 ], [ -3.8734, 40.4892 ], [ -3.8741, 40.4894 ], [ -3.8744, 40.4897 ], [ -3.8748, 40.4898 ], [ -3.8748, 40.4899 ], [ -3.8788, 40.4916 ], [ -3.8788, 40.4917 ], [ -3.879, 40.4917 ], [ -3.8796, 40.4921 ], [ -3.8807, 40.4925 ], [ -3.8807, 40.4926 ], [ -3.8811, 40.4927 ], [ -3.8813, 40.4929 ], [ -3.8843, 40.4942 ], [ -3.887, 40.4932 ], [ -3.8925, 40.4916 ], [ -3.8957, 40.4901 ], [ -3.8947, 40.4895 ], [ -3.8925, 40.4877 ], [ -3.8919, 40.4879 ], [ -3.8886, 40.487 ], [ -3.8865, 40.4862 ], [ -3.8847, 40.4857 ], [ -3.8834, 40.4855 ], [ -3.882, 40.485 ], [ -3.8816, 40.4854 ], [ -3.8806, 40.4853 ], [ -3.8805, 40.4857 ], [ -3.8807, 40.4868 ], [ -3.8796, 40.4875 ], [ -3.8781, 40.4876 ], [ -3.8775, 40.4873 ], [ -3.8775, 40.4871 ], [ -3.8773, 40.487 ], [ -3.8771, 40.4866 ], [ -3.8762, 40.4867 ], [ -3.8761, 40.4869 ], [ -3.8756, 40.4869 ], [ -3.8755, 40.487 ], [ -3.8749, 40.4868 ], [ -3.8744, 40.4868 ], [ -3.8742, 40.4871 ], [ -3.8728, 40.4869 ], [ -3.8715, 40.4863 ], [ -3.8731, 40.4835 ], [ -3.8718, 40.4828 ] ] ] } },
{ "type": "Feature", "properties": { "municipio": "Las Rozas de Madrid", "clasificacion": "urbano-consolidado", "calificacion": "sin-asignar", "version": "vigente", "fuente": "SIT-CAM WFS — UsoDelSuelo:VPLA_V_CLASIFICACION (https://idem.comunidad.madrid/geosrvg/ows)", "fecha_dato": "2026-05-12", "ambito": "25925", "_raw_CD_SIGLAS": "SU", "_raw_DS_CLASIF_GEN": "Suelo Urbano (INCORPORADO)", "_raw_DS_CLASIF_DET": "Suelo Urbano", "_raw_DS_DOCU": "PLAN GENERAL", "_raw_DS_LEY": "CM Ley 4/1984, E RDL 1/1992", "_raw_FC_AC": "1994-12-01", "_raw_NM_AREA_M2": 228689.31093780001, "_cam_code": "127" }, "geometry": { "type": "Polygon", "coordinates": [ [ [ -3.9127, 40.5499 ], [ -3.9074, 40.5503 ], [ -3.9071, 40.5503 ], [ -3.9067, 40.5499 ], [ -3.9043, 40.5498 ], [ -3.9018, 40.55 ], [ -3.902, 40.5506 ], [ -3.9028, 40.5508 ], [ -3.903, 40.5518 ], [ -3.9031, 40.5518 ], [ -3.903, 40.552 ], [ -3.9031, 40.5524 ], [ -3.903, 40.5525 ], [ -3.9015, 40.5526 ], [ -3.9014, 40.5527 ], [ -3.9018, 40.5533 ], [ -3.9032, 40.5528 ], [ -3.9054, 40.5527 ], [ -3.9134, 40.5515 ], [ -3.9127, 40.5499 ] ] ] } },
{ "type": "Feature", "properties": { "municipio": "Las Rozas de Madrid", "clasificacion": "urbano-consolidado", "calificacion": "sin-asignar", "version": "vigente", "fuente": "SIT-CAM WFS — UsoDelSuelo:VPLA_V_CLASIFICACION (https://idem.comunidad.madrid/geosrvg/ows)", "fecha_dato": "2026-05-12", "ambito": "25925", "_raw_CD_SIGLAS": "SU", "_raw_DS_CLASIF_GEN": "Suelo Urbano (INCORPORADO)", "_raw_DS_CLASIF_DET": "Suelo Urbano", "_raw_DS_DOCU": "PLAN GENERAL", "_raw_DS_LEY": "CM Ley 4/1984, E RDL 1/1992", "_raw_FC_AC": "1994-12-01", "_raw_NM_AREA_M2": 175241.93666559501, "_cam_code": "127" }, "geometry": { "type": "Polygon", "coordinates": [ [ [ -3.9036, 40.5586 ], [ -3.9038, 40.5592 ], [ -3.9054, 40.559 ], [ -3.9069, 40.5586 ], [ -3.9071, 40.5591 ], [ -3.9083, 40.5588 ], [ -3.9081, 40.5584 ], [ -3.9093, 40.558 ], [ -3.9093, 40.5579 ], [ -3.9113, 40.5567 ], [ -3.9122, 40.5564 ], [ -3.9122, 40.556 ], [ -3.9126, 40.556 ], [ -3.9126, 40.5558 ], [ -3.9125, 40.5558 ], [ -3.9126, 40.5555 ], [ -3.9117, 40.5555 ], [ -3.9111, 40.5557 ], [ -3.9096, 40.5564 ], [ -3.9091, 40.5569 ], [ -3.9084, 40.5573 ], [ -3.9082, 40.5573 ], [ -3.9082, 40.5574 ], [ -3.9079, 40.5574 ], [ -3.9079, 40.5575 ], [ -3.9056, 40.5582 ], [ -3.9043, 40.5583 ], [ -3.9042, 40.558 ], [ -3.9037, 40.558 ], [ -3.9036, 40.5577 ], [ -3.9033, 40.5577 ], [ -3.9034, 40.5567 ], [ -3.9046, 40.5562 ], [ -3.9047, 40.556 ], [ -3.9047, 40.5557 ], [ -3.9045, 40.5556 ], [ -3.9047, 40.5556 ], [ -3.9048, 40.5552 ], [ -3.9046, 40.5552 ], [ -3.9047, 40.5548 ], [ -3.9042, 40.5548 ], [ -3.9043, 40.5547 ], [ -3.9053, 40.5548 ], [ -3.9056, 40.5543 ], [ -3.9047, 40.554 ], [ -3.9046, 40.5543 ], [ -3.9035, 40.5543 ], [ -3.9036, 40.5547 ], [ -3.9034, 40.5548 ], [ -3.9012, 40.5554 ], [ -3.9018, 40.5564 ], [ -3.9008, 40.5567 ], [ -3.901, 40.5571 ], [ -3.9017, 40.5573 ], [ -3.9018, 40.5578 ], [ -3.9026, 40.5582 ], [ -3.9034, 40.5584 ], [ -3.9036, 40.5586 ] ] ] } },
{ "type": "Feature", "properties": { "municipio": "Las Rozas de Madrid", "clasificacion": "urbano-consolidado", "calificacion": "sin-asignar", "version": "vigente", "fuente": "SIT-CAM WFS — UsoDelSuelo:VPLA_V_CLASIFICACION (https://idem.comunidad.madrid/geosrvg/ows)", "fecha_dato": "2026-05-12", "ambito": "25925", "_raw_CD_SIGLAS": "SU", "_raw_DS_CLASIF_GEN": "Suelo Urbano (INCORPORADO)", "_raw_DS_CLASIF_DET": "Suelo Urbano", "_raw_DS_DOCU": "PLAN GENERAL", "_raw_DS_LEY": "CM Ley 4/1984, E RDL 1/1992", "_raw_FC_AC": "1994-12-01", "_raw_NM_AREA_M2": 10811924.058615699, "_cam_code": "127" }, "geometry": { "type": "Polygon", "coordinates": [ [ [ -3.8968, 40.5484 ], [ -3.898, 40.5509 ], [ -3.8981, 40.5509 ], [ -3.9008, 40.5503 ], [ -3.9012, 40.5501 ], [ -3.9016, 40.5501 ], [ -3.9016, 40.55 ], [ -3.9043, 40.5498 ], [ -3.9067, 40.5499 ], [ -3.9071, 40.5503 ], [ -3.9074, 40.5503 ], [ -3.9124, 40.5499 ], [ -3.9142, 40.5499 ], [ -3.9144, 40.5498 ], [ -3.9159, 40.5498 ], [ -3.9273, 40.5491 ], [ -3.9274, 40.5486 ], [ -3.9266, 40.5483 ], [ -3.9263, 40.548 ], [ -3.9269, 40.5475 ], [ -3.9283, 40.5482 ], [ -3.929, 40.5487 ], [ -3.9306, 40.5493 ], [ -3.9314, 40.5498 ], [ -3.9341, 40.5493 ], [ -3.9341, 40.5492 ], [ -3.9343, 40.5492 ], [ -3.935, 40.5483 ], [ -3.9367, 40.547 ], [ -3.9367, 40.5466 ], [ -3.9364, 40.5459 ], [ -3.9375, 40.5447 ], [ -3.9375, 40.5444 ], [ -3.9377, 40.5442 ], [ -3.9374, 40.5425 ], [ -3.938, 40.5426 ], [ -3.9383, 40.5422 ], [ -3.9387, 40.5422 ], [ -3.939, 40.5416 ], [ -3.9393, 40.5413 ], [ -3.9404, 40.5408 ], [ -3.9411, 40.54 ], [ -3.9411, 40.5395 ], [ -3.9409, 40.5393 ], [ -3.941, 40.539 ], [ -3.9412, 40.5389 ], [ -3.9412, 40.5387 ], [ -3.9422, 40.5403 ], [ -3.9437, 40.542 ], [ -3.9442, 40.5429 ], [ -3.9454, 40.5443 ], [ -3.9454, 40.5452 ], [ -3.9448, 40.5469 ], [ -3.9458, 40.5472 ], [ -3.9459, 40.5464 ], [ -3.9462, 40.5455 ], [ -3.9467, 40.5452 ], [ -3.9472, 40.5442 ], [ -3.9476, 40.5436 ], [ -3.9479, 40.5434 ], [ -3.9483, 40.5425 ], [ -3.9483, 40.5422 ], [ -3.9484, 40.5422 ], [ -3.9485, 40.5416 ], [ -3.9497, 40.5403 ], [ -3.9498, 40.5396 ], [ -3.9497, 40.5396 ], [ -3.9496, 40.5392 ], [ -3.949, 40.5387 ], [ -3.9481, 40.5382 ], [ -3.9479, 40.5382 ], [ -3.9477, 40.538 ], [ -3.9476, 40.5378 ], [ -3.9477, 40.5372 ], [ -3.9475, 40.5371 ], [ -3.9471, 40.5364 ], [ -3.9466, 40.5362 ], [ -3.9465, 40.536 ], [ -3.9458, 40.5355 ], [ -3.9434, 40.5342 ], [ -3.9426, 40.5337 ], [ -3.9426, 40.5336 ], [ -3.941, 40.5331 ], [ -3.9395, 40.532 ], [ -3.939, 40.531 ], [ -3.9389, 40.5303 ], [ -3.9397, 40.5282 ], [ -3.9391, 40.5277 ], [ -3.9386, 40.5267 ], [ -3.9385, 40.5273 ], [ -3.9371, 40.5279 ], [ -3.9368, 40.5283 ], [ -3.9359, 40.5275 ], [ -3.9356, 40.5269 ], [ -3.935, 40.5275 ], [ -3.9336, 40.5278 ], [ -3.9336, 40.5279 ], [ -3.9327, 40.5282 ], [ -3.932, 40.5292 ], [ -3.9318, 40.5307 ], [ -3.9312, 40.5315 ], [ -3.9302, 40.5319 ], [ -3.9293, 40.5317 ], [ -3.9287, 40.5318 ], [ -3.9284, 40.532 ], [ -3.928, 40.5328 ], [ -3.9266, 40.5344 ], [ -3.9258, 40.5348 ], [ -3.924, 40.5361 ], [ -3.9227, 40.5368 ], [ -3.9216, 40.5369 ], [ -3.9206, 40.5366 ], [ -3.9159, 40.537 ], [ -3.915, 40.5368 ], [ -3.9136, 40.5371 ], [ -3.9136, 40.5372 ], [ -3.9132, 40.5372 ], [ -3.9124, 40.5375 ], [ -3.9107, 40.5378 ], [ -3.9107, 40.5379 ], [ -3.9098, 40.538 ], [ -3.9074, 40.5387 ], [ -3.9056, 40.539 ], [ -3.904, 40.5395 ], [ -3.9041, 40.5387 ], [ -3.9045, 40.5376 ], [ -3.9044, 40.5376 ], [ -3.9044, 40.5373 ], [ -3.9043, 40.5373 ], [ -3.9042, 40.537 ], [ -3.9038, 40.5368 ], [ -3.9047, 40.5367 ], [ -3.9051, 40.5363 ], [ -3.9051, 40.5357 ], [ -3.9059, 40.5355 ], [ -3.9061, 40.5359 ], [ -3.908, 40.536 ], [ -3.9097, 40.5351 ], [ -3.9122, 40.5341 ], [ -3.9135, 40.5325 ], [ -3.912, 40.5299 ], [ -3.9137, 40.529 ], [ -3.9144, 40.5284 ], [ -3.9151, 40.5277 ], [ -3.9155, 40.527 ], [ -3.9165, 40.526 ], [ -3.9162, 40.5261 ], [ -3.9149, 40.526 ], [ -3.9147, 40.5257 ], [ -3.9148, 40.5255 ], [ -3.9151, 40.5254 ], [ -3.9149, 40.5253 ], [ -3.9147, 40.5255 ], [ -3.9142, 40.5254 ], [ -3.9139, 40.5252 ], [ -3.9137, 40.5254 ], [ -3.9135, 40.5254 ], [ -3.9128, 40.525 ], [ -3.9134, 40.5242 ], [ -3.9136, 40.5241 ], [ -3.9149, 40.5248 ], [ -3.9152, 40.5244 ], [ -3.9135, 40.5236 ], [ -3.9133, 40.5233 ], [ -3.9139, 40.5228 ], [ -3.9137, 40.5221 ], [ -3.9129, 40.5211 ], [ -3.9115, 40.5202 ], [ -3.9105, 40.5193 ], [ -3.9098, 40.5184 ], [ -3.9092, 40.5179 ], [ -3.9085, 40.5169 ], [ -3.9074, 40.5178 ], [ -3.9072, 40.5178 ], [ -3.9061, 40.5186 ], [ -3.9058, 40.5189 ], [ -3.9061, 40.5191 ], [ -3.906, 40.5194 ], [ -3.9054, 40.5192 ], [ -3.9038, 40.5178 ], [ -3.8942, 40.5128 ], [ -3.8934, 40.5147 ], [ -3.8918, 40.5162 ], [ -3.8915, 40.5164 ], [ -3.8861, 40.5182 ], [ -3.8866, 40.52 ], [ -3.8871, 40.5227 ], [ -3.8873, 40.5269 ], [ -3.8914, 40.5265 ], [ -3.896, 40.5276 ], [ -3.8973, 40.5278 ], [ -3.8955, 40.5317 ], [ -3.8918, 40.5312 ], [ -3.8911, 40.5313 ], [ -3.8881, 40.5309 ], [ -3.8889, 40.5334 ], [ -3.8891, 40.5333 ], [ -3.8901, 40.5334 ], [ -3.894, 40.5344 ], [ -3.8938, 40.5361 ], [ -3.8925, 40.5363 ], [ -3.8923, 40.5354 ], [ -3.8898, 40.5357 ], [ -3.8898, 40.5358 ], [ -3.8907, 40.5375 ], [ -3.893, 40.5412 ], [ -3.8937, 40.5428 ], [ -3.8939, 40.543 ], [ -3.8951, 40.546 ], [ -3.9015, 40.5445 ], [ -3.902, 40.5449 ], [ -3.902, 40.5452 ], [ -3.9002, 40.5455 ], [ -3.8991, 40.546 ], [ -3.8977, 40.5472 ], [ -3.897, 40.5484 ], [ -3.8968, 40.5484 ] ], [ [ -3.8965, 40.5348 ], [ -3.8967, 40.536 ], [ -3.8954, 40.5361 ], [ -3.896, 40.5347 ], [ -3.8965, 40.5348 ] ], [ [ -3.898, 40.5349 ], [ -3.8972, 40.5346 ], [ -3.8968, 40.5346 ], [ -3.8968, 40.5345 ], [ -3.8963, 40.5345 ], [ -3.8962, 40.5343 ], [ -3.8969, 40.5332 ], [ -3.8988, 40.5337 ], [ -3.8983, 40.5348 ], [ -3.898, 40.5349 ] ], [ [ -3.8998, 40.5339 ], [ -3.9, 40.5333 ], [ -3.9014, 40.5336 ], [ -3.9014, 40.5338 ], [ -3.9012, 40.5342 ], [ -3.8998, 40.5339 ] ], [ [ -3.9125, 40.5257 ], [ -3.9114, 40.5263 ], [ -3.9113, 40.5268 ], [ -3.9106, 40.5271 ], [ -3.9101, 40.5273 ], [ -3.9098, 40.5269 ], [ -3.9095, 40.5272 ], [ -3.9092, 40.5272 ], [ -3.9089, 40.527 ], [ -3.909, 40.5266 ], [ -3.9093, 40.5264 ], [ -3.9092, 40.5257 ], [ -3.9091, 40.5256 ], [ -3.9088, 40.526 ], [ -3.9082, 40.526 ], [ -3.9076, 40.5254 ], [ -3.9082, 40.525 ], [ -3.9092, 40.5248 ], [ -3.9102, 40.5243 ], [ -3.9105, 40.5246 ], [ -3.9101, 40.5249 ], [ -3.9101, 40.5253 ], [ -3.9107, 40.5251 ], [ -3.9109, 40.5255 ], [ -3.9115, 40.5252 ], [ -3.9114, 40.5251 ], [ -3.9117, 40.5251 ], [ -3.9121, 40.5249 ], [ -3.9124, 40.5251 ], [ -3.9126, 40.5254 ], [ -3.9125, 40.5257 ] ], [ [ -3.9049, 40.5239 ], [ -3.9047, 40.5239 ], [ -3.9035, 40.5229 ], [ -3.9032, 40.5229 ], [ -3.9026, 40.5226 ], [ -3.903, 40.5216 ], [ -3.9033, 40.5212 ], [ -3.9044, 40.5216 ], [ -3.9043, 40.5217 ], [ -3.9043, 40.5223 ], [ -3.9055, 40.523 ], [ -3.9056, 40.5234 ], [ -3.9054, 40.5236 ], [ -3.9052, 40.5232 ], [ -3.9049, 40.5239 ] ] ] } },
{ "type": "Feature", "properties": { "municipio": "Las Rozas de Madrid", "clasificacion": "urbano-consolidado", "calificacion": "sin-asignar", "version": "vigente", "fuente": "SIT-CAM WFS — UsoDelSuelo:VPLA_V_CLASIFICACION (https://idem.comunidad.madrid/geosrvg/ows)", "fecha_dato": "2026-05-12", "ambito": "25925", "_raw_CD_SIGLAS": "SU", "_raw_DS_CLASIF_GEN": "Suelo Urbano (INCORPORADO)", "_raw_DS_CLASIF_DET": "Suelo Urbano", "_raw_DS_DOCU": "PLAN GENERAL", "_raw_DS_LEY": "CM Ley 4/1984, E RDL 1/1992", "_raw_FC_AC": "1994-12-01", "_raw_NM_AREA_M2": 93957.311717302597, "_cam_code": "127" }, "geometry": { "type": "Polygon", "coordinates": [ [ [ -3.8826, 40.5227 ], [ -3.8829, 40.5228 ], [ -3.8835, 40.5247 ], [ -3.8842, 40.5254 ], [ -3.8854, 40.525 ], [ -3.8854, 40.524 ], [ -3.8861, 40.5239 ], [ -3.8859, 40.5234 ], [ -3.8857, 40.522 ], [ -3.8855, 40.5216 ], [ -3.885, 40.5211 ], [ -3.8822, 40.5219 ], [ -3.8826, 40.5227 ] ] ] } },
{ "type": "Feature", "properties": { "municipio": "Las Rozas de Madrid", "clasificacion": "urbano-consolidado", "calificacion": "sin-asignar", "version": "vigente", "fuente": "SIT-CAM WFS — UsoDelSuelo:VPLA_V_CLASIFICACION (https://idem.comunidad.madrid/geosrvg/ows)", "fecha_dato": "2026-05-12", "ambito": "25925", "_raw_CD_SIGLAS": "SU", "_raw_DS_CLASIF_GEN": "Suelo Urbano", "_raw_DS_CLASIF_DET": "Suelo Urbano", "_raw_DS_DOCU": "PLAN GENERAL", "_raw_DS_LEY": "CM Ley 4/1984, E RDL 1/1992", "_raw_FC_AC": "1994-12-01", "_raw_NM_AREA_M2": 34405.671605207397, "_cam_code": "127" }, "geometry": { "type": "Polygon", "coordinates": [ [ [ -3.9026, 40.5226 ], [ -3.9032, 40.5229 ], [ -3.9035, 40.5229 ], [ -3.9047, 40.5239 ], [ -3.9049, 40.5239 ], [ -3.9052, 40.5232 ], [ -3.9054, 40.5236 ], [ -3.9056, 40.5234 ], [ -3.9055, 40.523 ], [ -3.9043, 40.5223 ], [ -3.9043, 40.5217 ], [ -3.9044, 40.5216 ], [ -3.9034, 40.5212 ], [ -3.903, 40.5216 ], [ -3.9026, 40.5226 ] ] ] } },
{ "type": "Feature", "properties": { "municipio": "Las Rozas de Madrid", "clasificacion": "urbano-consolidado", "calificacion": "sin-asignar", "version": "vigente", "fuente": "SIT-CAM WFS — UsoDelSuelo:VPLA_V_CLASIFICACION (https://idem.comunidad.madrid/geosrvg/ows)", "fecha_dato": "2026-05-12", "ambito": "25925", "_raw_CD_SIGLAS": "SU", "_raw_DS_CLASIF_GEN": "Suelo Urbano", "_raw_DS_CLASIF_DET": "Suelo Urbano", "_raw_DS_DOCU": "PLAN GENERAL", "_raw_DS_LEY": "CM Ley 4/1984, E RDL 1/1992", "_raw_FC_AC": "1994-12-01", "_raw_NM_AREA_M2": 66112.969618471805, "_cam_code": "127" }, "geometry": { "type": "Polygon", "coordinates": [ [ [ -3.9101, 40.5273 ], [ -3.9113, 40.5268 ], [ -3.9114, 40.5263 ], [ -3.9125, 40.5257 ], [ -3.9126, 40.5254 ], [ -3.9122, 40.5249 ], [ -3.9114, 40.5251 ], [ -3.9115, 40.5252 ], [ -3.9109, 40.5255 ], [ -3.9107, 40.5251 ], [ -3.9101, 40.5253 ], [ -3.9101, 40.5249 ], [ -3.9105, 40.5246 ], [ -3.9102, 40.5243 ], [ -3.9092, 40.5248 ], [ -3.9082, 40.525 ], [ -3.9076, 40.5254 ], [ -3.9082, 40.526 ], [ -3.9088, 40.526 ], [ -3.9091, 40.5256 ], [ -3.9093, 40.526 ], [ -3.9093, 40.5264 ], [ -3.909, 40.5266 ], [ -3.9089, 40.527 ], [ -3.9092, 40.5272 ], [ -3.9095, 40.5272 ], [ -3.9098, 40.5269 ], [ -3.9101, 40.5273 ] ] ] } },
{ "type": "Feature", "properties": { "municipio": "Las Rozas de Madrid", "clasificacion": "urbano-consolidado", "calificacion": "sin-asignar", "version": "vigente", "fuente": "SIT-CAM WFS — UsoDelSuelo:VPLA_V_CLASIFICACION (https://idem.comunidad.madrid/geosrvg/ows)", "fecha_dato": "2026-05-12", "ambito": "25925", "_raw_CD_SIGLAS": "SU", "_raw_DS_CLASIF_GEN": "Suelo Urbano", "_raw_DS_CLASIF_DET": "Suelo Urbano", "_raw_DS_DOCU": "PLAN GENERAL", "_raw_DS_LEY": "CM Ley 4/1984, E RDL 1/1992", "_raw_FC_AC": "1994-12-01", "_raw_NM_AREA_M2": 8161.2299369612601, "_cam_code": "127" }, "geometry": { "type": "Polygon", "coordinates": [ [ [ -3.9, 40.5333 ], [ -3.8998, 40.5339 ], [ -3.9012, 40.5342 ], [ -3.9014, 40.5338 ], [ -3.9014, 40.5336 ], [ -3.9, 40.5333 ] ] ] } },
{ "type": "Feature", "properties": { "municipio": "Las Rozas de Madrid", "clasificacion": "urbano-consolidado", "calificacion": "sin-asignar", "version": "vigente", "fuente": "SIT-CAM WFS — UsoDelSuelo:VPLA_V_CLASIFICACION (https://idem.comunidad.madrid/geosrvg/ows)", "fecha_dato": "2026-05-12", "ambito": "25925", "_raw_CD_SIGLAS": "SU", "_raw_DS_CLASIF_GEN": "Suelo Urbano", "_raw_DS_CLASIF_DET": "Suelo Urbano", "_raw_DS_DOCU": "PLAN GENERAL", "_raw_DS_LEY": "CM Ley 4/1984, E RDL 1/1992", "_raw_FC_AC": "1994-12-01", "_raw_NM_AREA_M2": 26418.716297404899, "_cam_code": "127" }, "geometry": { "type": "Polygon", "coordinates": [ [ [ -3.8969, 40.5332 ], [ -3.8962, 40.5343 ], [ -3.8963, 40.5345 ], [ -3.8968, 40.5345 ], [ -3.8968, 40.5346 ], [ -3.8972, 40.5346 ], [ -3.898, 40.5349 ], [ -3.8983, 40.5348 ], [ -3.8988, 40.5337 ], [ -3.8969, 40.5332 ] ] ] } },
{ "type": "Feature", "properties": { "municipio": "Las Rozas de Madrid", "clasificacion": "urbano-consolidado", "calificacion": "sin-asignar", "version": "vigente", "fuente": "SIT-CAM WFS — UsoDelSuelo:VPLA_V_CLASIFICACION (https://idem.comunidad.madrid/geosrvg/ows)", "fecha_dato": "2026-05-12", "ambito": "25925", "_raw_CD_SIGLAS": "SU", "_raw_DS_CLASIF_GEN": "Suelo Urbano", "_raw_DS_CLASIF_DET": "Suelo Urbano", "_raw_DS_DOCU": "PLAN GENERAL", "_raw_DS_LEY": "CM Ley 4/1984, E RDL 1/1992", "_raw_FC_AC": "1994-12-01", "_raw_NM_AREA_M2": 10376.5597220699, "_cam_code": "127" }, "geometry": { "type": "Polygon", "coordinates": [ [ [ -3.896, 40.5347 ], [ -3.8959, 40.5351 ], [ -3.8954, 40.5361 ], [ -3.8967, 40.536 ], [ -3.8965, 40.5348 ], [ -3.8962, 40.5347 ], [ -3.896, 40.5347 ] ] ] } },
{ "type": "Feature", "properties": { "municipio": "Las Rozas de Madrid", "clasificacion": "urbano-consolidado", "calificacion": "sin-asignar", "version": "vigente", "fuente": "SIT-CAM WFS — UsoDelSuelo:VPLA_V_CLASIFICACION (https://idem.comunidad.madrid/geosrvg/ows)", "fecha_dato": "2026-05-12", "ambito": "25925", "_raw_CD_SIGLAS": "SU", "_raw_DS_CLASIF_GEN": "Suelo Urbano", "_raw_DS_CLASIF_DET": "Suelo Urbano", "_raw_DS_DOCU": "PLAN GENERAL", "_raw_DS_LEY": "CM Ley 4/1984, E RDL 1/1992", "_raw_FC_AC": "1994-12-01", "_raw_NM_AREA_M2": 82370.525993711795, "_cam_code": "127" }, "geometry": { "type": "Polygon", "coordinates": [ [ [ -3.9139, 40.5228 ], [ -3.9133, 40.5233 ], [ -3.9135, 40.5236 ], [ -3.9152, 40.5244 ], [ -3.9149, 40.5248 ], [ -3.9136, 40.5241 ], [ -3.9134, 40.5242 ], [ -3.9128, 40.525 ], [ -3.9135, 40.5254 ], [ -3.9137, 40.5254 ], [ -3.9139, 40.5252 ], [ -3.9142, 40.5254 ], [ -3.9147, 40.5255 ], [ -3.9149, 40.5253 ], [ -3.9151, 40.5254 ], [ -3.9148, 40.5255 ], [ -3.9147, 40.5257 ], [ -3.9149, 40.526 ], [ -3.9154, 40.5261 ], [ -3.9165, 40.526 ], [ -3.9155, 40.527 ], [ -3.9151, 40.5277 ], [ -3.9144, 40.5284 ], [ -3.9137, 40.529 ], [ -3.912, 40.5299 ], [ -3.9122, 40.5301 ], [ -3.9127, 40.5299 ], [ -3.9142, 40.5289 ], [ -3.9155, 40.5276 ], [ -3.9157, 40.5272 ], [ -3.9169, 40.5258 ], [ -3.9172, 40.5258 ], [ -3.9172, 40.5255 ], [ -3.9181, 40.5245 ], [ -3.9178, 40.5243 ], [ -3.9173, 40.525 ], [ -3.9163, 40.5247 ], [ -3.9162, 40.5243 ], [ -3.9151, 40.5237 ], [ -3.9148, 40.5234 ], [ -3.9146, 40.5234 ], [ -3.9144, 40.5231 ], [ -3.9139, 40.5228 ] ] ] } },
{ "type": "Feature", "properties": { "municipio": "Las Rozas de Madrid", "clasificacion": "urbano-consolidado", "calificacion": "sin-asignar", "version": "vigente", "fuente": "SIT-CAM WFS — UsoDelSuelo:VPLA_V_CLASIFICACION (https://idem.comunidad.madrid/geosrvg/ows)", "fecha_dato": "2026-05-12", "ambito": "25925", "_raw_CD_SIGLAS": "SU", "_raw_DS_CLASIF_GEN": "Suelo Urbano (INCORPORADO)", "_raw_DS_CLASIF_DET": "Suelo Urbano", "_raw_DS_DOCU": "PLAN GENERAL", "_raw_DS_LEY": "CM Ley 4/1984, E RDL 1/1992", "_raw_FC_AC": "1994-12-01", "_raw_NM_AREA_M2": 1974208.4060670401, "_cam_code": "127" }, "geometry": { "type": "Polygon", "coordinates": [ [ [ -3.9228, 40.5271 ], [ -3.9238, 40.5274 ], [ -3.924, 40.527 ], [ -3.9248, 40.527 ], [ -3.926, 40.5263 ], [ -3.9264, 40.5252 ], [ -3.9272, 40.5249 ], [ -3.9278, 40.525 ], [ -3.9277, 40.5247 ], [ -3.9281, 40.5244 ], [ -3.9286, 40.5243 ], [ -3.9294, 40.5238 ], [ -3.9291, 40.5228 ], [ -3.9285, 40.5228 ], [ -3.9281, 40.5212 ], [ -3.9259, 40.5214 ], [ -3.9256, 40.5197 ], [ -3.9218, 40.52 ], [ -3.9242, 40.5169 ], [ -3.9244, 40.5167 ], [ -3.9246, 40.5167 ], [ -3.9247, 40.5162 ], [ -3.9259, 40.5148 ], [ -3.9251, 40.5144 ], [ -3.9246, 40.5144 ], [ -3.9243, 40.5146 ], [ -3.924, 40.5146 ], [ -3.9239, 40.5139 ], [ -3.9237, 40.5137 ], [ -3.9235, 40.5137 ], [ -3.9235, 40.5136 ], [ -3.922, 40.5132 ], [ -3.9219, 40.513 ], [ -3.9216, 40.513 ], [ -3.9214, 40.5128 ], [ -3.921, 40.5128 ], [ -3.9199, 40.5124 ], [ -3.9194, 40.5125 ], [ -3.9194, 40.5126 ], [ -3.9178, 40.5124 ], [ -3.9175, 40.5121 ], [ -3.9162, 40.5116 ], [ -3.914, 40.5113 ], [ -3.9139, 40.5111 ], [ -3.9134, 40.511 ], [ -3.9134, 40.5109 ], [ -3.9119, 40.5108 ], [ -3.9106, 40.5105 ], [ -3.9106, 40.5106 ], [ -3.9102, 40.5107 ], [ -3.91, 40.5115 ], [ -3.9099, 40.5115 ], [ -3.9091, 40.5134 ], [ -3.9079, 40.5135 ], [ -3.9071, 40.5138 ], [ -3.9068, 40.5142 ], [ -3.9068, 40.515 ], [ -3.9072, 40.5153 ], [ -3.9065, 40.5159 ], [ -3.906, 40.5161 ], [ -3.9052, 40.5168 ], [ -3.9042, 40.5174 ], [ -3.9038, 40.5178 ], [ -3.9054, 40.5192 ], [ -3.906, 40.5194 ], [ -3.9061, 40.5191 ], [ -3.9058, 40.5189 ], [ -3.9061, 40.5186 ], [ -3.9072, 40.5178 ], [ -3.9074, 40.5178 ], [ -3.9085, 40.5169 ], [ -3.9092, 40.5179 ], [ -3.9098, 40.5184 ], [ -3.9111, 40.5199 ], [ -3.9129, 40.5211 ], [ -3.9137, 40.5221 ], [ -3.9139, 40.5228 ], [ -3.9144, 40.5231 ], [ -3.9146, 40.5234 ], [ -3.9148, 40.5234 ], [ -3.9151, 40.5237 ], [ -3.9162, 40.5243 ], [ -3.9163, 40.5247 ], [ -3.9173, 40.525 ], [ -3.9178, 40.5243 ], [ -3.9197, 40.5258 ], [ -3.9201, 40.5255 ], [ -3.9208, 40.5255 ], [ -3.9217, 40.5262 ], [ -3.9228, 40.5263 ], [ -3.9226, 40.5267 ], [ -3.9228, 40.5271 ] ] ] } },
{ "type": "Feature", "properties": { "municipio": "Las Rozas de Madrid", "clasificacion": "urbano-consolidado", "calificacion": "sin-asignar", "version": "vigente", "fuente": "SIT-CAM WFS — UsoDelSuelo:VPLA_V_CLASIFICACION (https://idem.comunidad.madrid/geosrvg/ows)", "fecha_dato": "2026-05-12", "ambito": "25925", "_raw_CD_SIGLAS": "SU", "_raw_DS_CLASIF_GEN": "Suelo Urbano (INCORPORADO)", "_raw_DS_CLASIF_DET": "Suelo Urbano", "_raw_DS_DOCU": "PLAN GENERAL", "_raw_DS_LEY": "CM Ley 4/1984, E RDL 1/1992", "_raw_FC_AC": "1994-12-01", "_raw_NM_AREA_M2": 174509.093727386, "_cam_code": "127" }, "geometry": { "type": "Polygon", "coordinates": [ [ [ -3.8856, 40.5653 ], [ -3.8883, 40.5652 ], [ -3.8882, 40.5651 ], [ -3.8897, 40.5649 ], [ -3.8896, 40.5649 ], [ -3.8896, 40.5647 ], [ -3.8898, 40.5647 ], [ -3.8898, 40.5648 ], [ -3.89, 40.5647 ], [ -3.8904, 40.5643 ], [ -3.8904, 40.5641 ], [ -3.8913, 40.564 ], [ -3.8907, 40.5637 ], [ -3.8907, 40.5635 ], [ -3.8871, 40.5648 ], [ -3.8869, 40.5642 ], [ -3.8878, 40.5638 ], [ -3.8874, 40.5631 ], [ -3.8889, 40.5626 ], [ -3.8888, 40.5624 ], [ -3.8889, 40.5624 ], [ -3.8875, 40.5601 ], [ -3.8866, 40.5603 ], [ -3.885, 40.5609 ], [ -3.8849, 40.5618 ], [ -3.8839, 40.5631 ], [ -3.8838, 40.5638 ], [ -3.8856, 40.5653 ] ] ] } },
{ "type": "Feature", "properties": { "municipio": "Las Rozas de Madrid", "clasificacion": "urbano-consolidado", "calificacion": "sin-asignar", "version": "vigente", "fuente": "SIT-CAM WFS — UsoDelSuelo:VPLA_V_CLASIFICACION (https://idem.comunidad.madrid/geosrvg/ows)", "fecha_dato": "2026-05-12", "ambito": "25925", "_raw_CD_SIGLAS": "SU", "_raw_DS_CLASIF_GEN": "Suelo Urbano (INCORPORADO)", "_raw_DS_CLASIF_DET": "Suelo Urbano", "_raw_DS_DOCU": "PLAN GENERAL", "_raw_DS_LEY": "CM Ley 4/1984, E RDL 1/1992", "_raw_FC_AC": "1994-12-01", "_raw_NM_AREA_M2": 753745.22328509099, "_cam_code": "127" }, "geometry": { "type": "Polygon", "coordinates": [ [ [ -3.8848, 40.4988 ], [ -3.8861, 40.5007 ], [ -3.887, 40.5015 ], [ -3.8871, 40.5017 ], [ -3.887, 40.502 ], [ -3.8875, 40.5025 ], [ -3.8876, 40.5041 ], [ -3.8877, 40.5041 ], [ -3.8878, 40.5045 ], [ -3.8891, 40.5058 ], [ -3.89, 40.5073 ], [ -3.8921, 40.5065 ], [ -3.8945, 40.5043 ], [ -3.8948, 40.5038 ], [ -3.8962, 40.5023 ], [ -3.8972, 40.5016 ], [ -3.8974, 40.5016 ], [ -3.8983, 40.5009 ], [ -3.8978, 40.5006 ], [ -3.8977, 40.5004 ], [ -3.8983, 40.4999 ], [ -3.8981, 40.4998 ], [ -3.893, 40.4984 ], [ -3.8908, 40.4975 ], [ -3.8906, 40.4973 ], [ -3.8904, 40.4973 ], [ -3.8879, 40.4961 ], [ -3.888, 40.4965 ], [ -3.888, 40.4984 ], [ -3.8881, 40.4984 ], [ -3.8886, 40.4999 ], [ -3.8884, 40.5001 ], [ -3.8878, 40.5 ], [ -3.8868, 40.4996 ], [ -3.8866, 40.4981 ], [ -3.8869, 40.4978 ], [ -3.8872, 40.4979 ], [ -3.8873, 40.4975 ], [ -3.887, 40.4965 ], [ -3.8866, 40.4957 ], [ -3.8859, 40.4965 ], [ -3.885, 40.4963 ], [ -3.8843, 40.4963 ], [ -3.8841, 40.4966 ], [ -3.8829, 40.4967 ], [ -3.8832, 40.4977 ], [ -3.8837, 40.4981 ], [ -3.884, 40.4981 ], [ -3.8848, 40.4988 ] ] ] } },
{ "type": "Feature", "properties": { "municipio": "Las Rozas de Madrid", "clasificacion": "urbano-consolidado", "calificacion": "sin-asignar", "version": "vigente", "fuente": "SIT-CAM WFS — UsoDelSuelo:VPLA_V_CLASIFICACION (https://idem.comunidad.madrid/geosrvg/ows)", "fecha_dato": "2026-05-12", "ambito": "25925", "_raw_CD_SIGLAS": "SU_A", "_raw_DS_CLASIF_GEN": "Suelo Urbano (APLAZADO)", "_raw_DS_CLASIF_DET": "Suelo Urbano", "_raw_DS_DOCU": "PLAN GENERAL", "_raw_DS_LEY": "CM Ley 4/1984, E RDL 1/1992", "_raw_FC_AC": "1994-12-01", "_raw_NM_AREA_M2": 48242.015978775496, "_cam_code": "127" }, "geometry": { "type": "Polygon", "coordinates": [ [ [ -3.8912, 40.5533 ], [ -3.8896, 40.5544 ], [ -3.8896, 40.5559 ], [ -3.8916, 40.5563 ], [ -3.892, 40.5565 ], [ -3.8921, 40.5562 ], [ -3.8916, 40.5562 ], [ -3.8916, 40.556 ], [ -3.8917, 40.5558 ], [ -3.8918, 40.5539 ], [ -3.892, 40.5534 ], [ -3.8922, 40.5534 ], [ -3.8922, 40.5533 ], [ -3.892, 40.5532 ], [ -3.8917, 40.5536 ], [ -3.8912, 40.5533 ] ] ] } },
{ "type": "Feature", "properties": { "municipio": "Las Rozas de Madrid", "clasificacion": "urbanizable-no-sectorizado", "calificacion": "sin-asignar", "version": "vigente", "fuente": "SIT-CAM WFS — UsoDelSuelo:VPLA_V_CLASIFICACION (https://idem.comunidad.madrid/geosrvg/ows)", "fecha_dato": "2026-05-12", "ambito": "25925", "_raw_CD_SIGLAS": "SUBNS", "_raw_DS_CLASIF_GEN": "Suelo Urbanizable No Programado", "_raw_DS_CLASIF_DET": "Suelo Urbanizable No Programado", "_raw_DS_DOCU": "PLAN GENERAL", "_raw_DS_LEY": "CM Ley 4/1984, E RDL 1/1992", "_raw_FC_AC": "1994-12-01", "_raw_NM_AREA_M2": 1903337.5191424901, "_cam_code": "127" }, "geometry": { "type": "Polygon", "coordinates": [ [ [ -3.9137, 40.5074 ], [ -3.9082, 40.5047 ], [ -3.9069, 40.5069 ], [ -3.9071, 40.5074 ], [ -3.9078, 40.5078 ], [ -3.9086, 40.5086 ], [ -3.9091, 40.5085 ], [ -3.9097, 40.5081 ], [ -3.91, 40.5082 ], [ -3.9106, 40.5087 ], [ -3.9092, 40.5105 ], [ -3.9089, 40.5105 ], [ -3.9087, 40.5108 ], [ -3.908, 40.511 ], [ -3.9069, 40.511 ], [ -3.9068, 40.5111 ], [ -3.9068, 40.5117 ], [ -3.9066, 40.5118 ], [ -3.9061, 40.5116 ], [ -3.9061, 40.5117 ], [ -3.9059, 40.5117 ], [ -3.9058, 40.5122 ], [ -3.9053, 40.5124 ], [ -3.9053, 40.5125 ], [ -3.9046, 40.512 ], [ -3.9036, 40.5117 ], [ -3.9021, 40.5103 ], [ -3.9023, 40.5098 ], [ -3.9025, 40.5097 ], [ -3.9017, 40.5086 ], [ -3.9032, 40.5079 ], [ -3.9055, 40.5057 ], [ -3.9055, 40.5037 ], [ -3.9056, 40.5037 ], [ -3.9056, 40.5034 ], [ -3.9001, 40.5004 ], [ -3.8983, 40.4999 ], [ -3.8977, 40.5004 ], [ -3.8978, 40.5006 ], [ -3.8983, 40.5009 ], [ -3.8964, 40.5022 ], [ -3.8987, 40.5072 ], [ -3.8988, 40.5092 ], [ -3.8986, 40.51 ], [ -3.8983, 40.5106 ], [ -3.8975, 40.5116 ], [ -3.8967, 40.5124 ], [ -3.8954, 40.5134 ], [ -3.9038, 40.5178 ], [ -3.9042, 40.5174 ], [ -3.9052, 40.5168 ], [ -3.906, 40.5161 ], [ -3.9065, 40.5159 ], [ -3.9072, 40.5153 ], [ -3.9068, 40.515 ], [ -3.9068, 40.5142 ], [ -3.9071, 40.5138 ], [ -3.9079, 40.5135 ], [ -3.9091, 40.5134 ], [ -3.9099, 40.5115 ], [ -3.91, 40.5115 ], [ -3.9102, 40.5107 ], [ -3.9107, 40.5105 ], [ -3.9119, 40.5108 ], [ -3.9134, 40.5109 ], [ -3.9134, 40.511 ], [ -3.9139, 40.5111 ], [ -3.914, 40.5113 ], [ -3.9162, 40.5116 ], [ -3.9175, 40.5121 ], [ -3.9178, 40.5124 ], [ -3.9192, 40.5125 ], [ -3.9193, 40.5126 ], [ -3.9199, 40.5124 ], [ -3.921, 40.5128 ], [ -3.9214, 40.5128 ], [ -3.9216, 40.513 ], [ -3.9219, 40.513 ], [ -3.922, 40.5132 ], [ -3.9237, 40.5137 ], [ -3.9239, 40.5139 ], [ -3.924, 40.5146 ], [ -3.9243, 40.5146 ], [ -3.9246, 40.5144 ], [ -3.9251, 40.5144 ], [ -3.9259, 40.5148 ], [ -3.9257, 40.515 ], [ -3.9261, 40.5152 ], [ -3.9266, 40.5153 ], [ -3.928, 40.5152 ], [ -3.9282, 40.5155 ], [ -3.9285, 40.5156 ], [ -3.9309, 40.5156 ], [ -3.9307, 40.5195 ], [ -3.9318, 40.5194 ], [ -3.9342, 40.5189 ], [ -3.9345, 40.5186 ], [ -3.9348, 40.5185 ], [ -3.9357, 40.5185 ], [ -3.9365, 40.5179 ], [ -3.9322, 40.5149 ], [ -3.9308, 40.5141 ], [ -3.92, 40.5098 ], [ -3.9168, 40.5086 ], [ -3.9165, 40.5092 ], [ -3.9156, 40.5098 ], [ -3.9144, 40.5092 ], [ -3.9144, 40.5086 ], [ -3.9134, 40.5078 ], [ -3.9137, 40.5074 ] ] ] } },
{ "type": "Feature", "properties": { "municipio": "Las Rozas de Madrid", "clasificacion": "urbanizable-no-sectorizado", "calificacion": "sin-asignar", "version": "vigente", "fuente": "SIT-CAM WFS — UsoDelSuelo:VPLA_V_CLASIFICACION (https://idem.comunidad.madrid/geosrvg/ows)", "fecha_dato": "2026-05-12", "ambito": "25925", "_raw_CD_SIGLAS": "SUBNS", "_raw_DS_CLASIF_GEN": "Suelo No Urbanizable Común", "_raw_DS_CLASIF_DET": "Suelo No Urbanizable Común", "_raw_DS_DOCU": "PLAN GENERAL", "_raw_DS_LEY": "CM Ley 4/1984, E RDL 1/1992", "_raw_FC_AC": "1994-12-01", "_raw_NM_AREA_M2": 306825.14324860799, "_cam_code": "127" }, "geometry": { "type": "Polygon", "coordinates": [ [ [ -3.872, 40.5019 ], [ -3.8721, 40.5033 ], [ -3.8725, 40.5051 ], [ -3.8726, 40.5053 ], [ -3.8732, 40.5055 ], [ -3.8737, 40.5064 ], [ -3.8745, 40.5089 ], [ -3.8768, 40.513 ], [ -3.8799, 40.5115 ], [ -3.8749, 40.5047 ], [ -3.8742, 40.5035 ], [ -3.8742, 40.5033 ], [ -3.8737, 40.5025 ], [ -3.8735, 40.5019 ], [ -3.8732, 40.5015 ], [ -3.8732, 40.5013 ], [ -3.8719, 40.4997 ], [ -3.8711, 40.4982 ], [ -3.8704, 40.4983 ], [ -3.8703, 40.4984 ], [ -3.8707, 40.4984 ], [ -3.8712, 40.4993 ], [ -3.8716, 40.5008 ], [ -3.8718, 40.501 ], [ -3.872, 40.5017 ], [ -3.8718, 40.5018 ], [ -3.872, 40.5019 ] ] ] } },
{ "type": "Feature", "properties": { "municipio": "Las Rozas de Madrid", "clasificacion": "urbanizable-no-sectorizado", "calificacion": "sin-asignar", "version": "vigente", "fuente": "SIT-CAM WFS — UsoDelSuelo:VPLA_V_CLASIFICACION (https://idem.comunidad.madrid/geosrvg/ows)", "fecha_dato": "2026-05-12", "ambito": "25925", "_raw_CD_SIGLAS": "SUBNS", "_raw_DS_CLASIF_GEN": "Suelo No Urbanizable Común", "_raw_DS_CLASIF_DET": "Suelo No Urbanizable Común", "_raw_DS_DOCU": "PLAN GENERAL", "_raw_DS_LEY": "CM Ley 4/1984, E RDL 1/1992", "_raw_FC_AC": "1994-12-01", "_raw_NM_AREA_M2": 3701874.8880738299, "_cam_code": "127" }, "geometry": { "type": "Polygon", "coordinates": [ [ [ -3.887, 40.4932 ], [ -3.8842, 40.4943 ], [ -3.8895, 40.4969 ], [ -3.893, 40.4984 ], [ -3.8933, 40.4984 ], [ -3.8933, 40.4985 ], [ -3.8936, 40.4985 ], [ -3.8946, 40.4989 ], [ -3.9001, 40.5004 ], [ -3.9075, 40.5044 ], [ -3.9077, 40.5044 ], [ -3.9077, 40.5045 ], [ -3.9081, 40.5047 ], [ -3.9106, 40.5058 ], [ -3.9119, 40.5066 ], [ -3.9167, 40.5086 ], [ -3.92, 40.5098 ], [ -3.9308, 40.5141 ], [ -3.9322, 40.5149 ], [ -3.935, 40.5168 ], [ -3.9355, 40.5163 ], [ -3.9352, 40.516 ], [ -3.9349, 40.5154 ], [ -3.9348, 40.5136 ], [ -3.9346, 40.5131 ], [ -3.9329, 40.5117 ], [ -3.9326, 40.5113 ], [ -3.9324, 40.5109 ], [ -3.9323, 40.5097 ], [ -3.932, 40.5093 ], [ -3.9314, 40.5094 ], [ -3.9309, 40.5097 ], [ -3.9322, 40.5087 ], [ -3.932, 40.5084 ], [ -3.9328, 40.5081 ], [ -3.9329, 40.5078 ], [ -3.9332, 40.5076 ], [ -3.9331, 40.5073 ], [ -3.9332, 40.5071 ], [ -3.9336, 40.5069 ], [ -3.9334, 40.5068 ], [ -3.9337, 40.5066 ], [ -3.934, 40.5058 ], [ -3.9336, 40.5046 ], [ -3.9325, 40.5035 ], [ -3.9319, 40.5021 ], [ -3.9322, 40.5007 ], [ -3.9324, 40.5005 ], [ -3.9317, 40.4997 ], [ -3.9311, 40.4993 ], [ -3.9311, 40.4994 ], [ -3.93, 40.4996 ], [ -3.93, 40.4997 ], [ -3.9294, 40.4996 ], [ -3.9294, 40.4995 ], [ -3.9276, 40.4995 ], [ -3.9274, 40.4993 ], [ -3.927, 40.4993 ], [ -3.927, 40.4994 ], [ -3.9266, 40.4994 ], [ -3.9266, 40.4997 ], [ -3.9262, 40.4999 ], [ -3.9253, 40.4999 ], [ -3.9251, 40.4998 ], [ -3.9246, 40.4998 ], [ -3.9245, 40.4999 ], [ -3.924, 40.4995 ], [ -3.9238, 40.4991 ], [ -3.9235, 40.4991 ], [ -3.9235, 40.4994 ], [ -3.9233, 40.4996 ], [ -3.9234, 40.5001 ], [ -3.9231, 40.5001 ], [ -3.9231, 40.4999 ], [ -3.9229, 40.4997 ], [ -3.9225, 40.4997 ], [ -3.9225, 40.4998 ], [ -3.9214, 40.4997 ], [ -3.9212, 40.4999 ], [ -3.9204, 40.5 ], [ -3.9195, 40.5007 ], [ -3.9188, 40.5008 ], [ -3.9184, 40.501 ], [ -3.9184, 40.5011 ], [ -3.9179, 40.5012 ], [ -3.9179, 40.5013 ], [ -3.9174, 40.5013 ], [ -3.9171, 40.5011 ], [ -3.9165, 40.5011 ], [ -3.9161, 40.5012 ], [ -3.9161, 40.5013 ], [ -3.9161, 40.5012 ], [ -3.9157, 40.5013 ], [ -3.9156, 40.5012 ], [ -3.9146, 40.5011 ], [ -3.9146, 40.5012 ], [ -3.9141, 40.5014 ], [ -3.9137, 40.5013 ], [ -3.9134, 40.5016 ], [ -3.9129, 40.5015 ], [ -3.9124, 40.5015 ], [ -3.9123, 40.5016 ], [ -3.9118, 40.5012 ], [ -3.9102, 40.5014 ], [ -3.91, 40.5009 ], [ -3.9098, 40.5009 ], [ -3.9098, 40.5005 ], [ -3.9096, 40.5005 ], [ -3.9094, 40.5003 ], [ -3.9094, 40.5001 ], [ -3.9092, 40.5001 ], [ -3.9089, 40.4998 ], [ -3.9086, 40.4991 ], [ -3.9083, 40.499 ], [ -3.9084, 40.4988 ], [ -3.9082, 40.4987 ], [ -3.9082, 40.4984 ], [ -3.9075, 40.4979 ], [ -3.9074, 40.497 ], [ -3.9072, 40.4969 ], [ -3.9071, 40.4965 ], [ -3.9065, 40.4956 ], [ -3.9058, 40.495 ], [ -3.9027, 40.4944 ], [ -3.9014, 40.4935 ], [ -3.9004, 40.4931 ], [ -3.8993, 40.4929 ], [ -3.897, 40.4916 ], [ -3.8967, 40.4913 ], [ -3.8954, 40.4908 ], [ -3.8961, 40.4904 ], [ -3.8957, 40.4901 ], [ -3.8925, 40.4916 ], [ -3.887, 40.4932 ] ] ] } },
{ "type": "Feature", "properties": { "municipio": "Las Rozas de Madrid", "clasificacion": "urbanizable-no-sectorizado", "calificacion": "sin-asignar", "version": "vigente", "fuente": "SIT-CAM WFS — UsoDelSuelo:VPLA_V_CLASIFICACION (https://idem.comunidad.madrid/geosrvg/ows)", "fecha_dato": "2026-05-12", "ambito": "25925", "_raw_CD_SIGLAS": "SUBNS", "_raw_DS_CLASIF_GEN": "Suelo No Urbanizable Común", "_raw_DS_CLASIF_DET": "Suelo No Urbanizable Común", "_raw_DS_DOCU": "PLAN GENERAL", "_raw_DS_LEY": "CM Ley 4/1984, E RDL 1/1992", "_raw_FC_AC": "1994-12-01", "_raw_NM_AREA_M2": 154863.645188861, "_cam_code": "127" }, "geometry": { "type": "Polygon", "coordinates": [ [ [ -3.8828, 40.5335 ], [ -3.8849, 40.5382 ], [ -3.8852, 40.5383 ], [ -3.8875, 40.5381 ], [ -3.8878, 40.5375 ], [ -3.8854, 40.5324 ], [ -3.8828, 40.5335 ] ] ] } },
{ "type": "Feature", "properties": { "municipio": "Las Rozas de Madrid", "clasificacion": "urbanizable-no-sectorizado", "calificacion": "sin-asignar", "version": "vigente", "fuente": "SIT-CAM WFS — UsoDelSuelo:VPLA_V_CLASIFICACION (https://idem.comunidad.madrid/geosrvg/ows)", "fecha_dato": "2026-05-12", "ambito": "25925", "_raw_CD_SIGLAS": "SUBNS", "_raw_DS_CLASIF_GEN": "Suelo Urbanizable No Programado", "_raw_DS_CLASIF_DET": "Suelo Urbanizable No Programado", "_raw_DS_DOCU": "PLAN GENERAL", "_raw_DS_LEY": "CM Ley 4/1984, E RDL 1/1992", "_raw_FC_AC": "1994-12-01", "_raw_NM_AREA_M2": 642368.31317871704, "_cam_code": "127" }, "geometry": { "type": "Polygon", "coordinates": [ [ [ -3.8649, 40.5022 ], [ -3.8726, 40.5053 ], [ -3.8721, 40.5033 ], [ -3.8721, 40.5023 ], [ -3.872, 40.5019 ], [ -3.8718, 40.5018 ], [ -3.872, 40.5017 ], [ -3.8718, 40.501 ], [ -3.8716, 40.5008 ], [ -3.8712, 40.4993 ], [ -3.8707, 40.4984 ], [ -3.8702, 40.4984 ], [ -3.8684, 40.499 ], [ -3.8678, 40.499 ], [ -3.8671, 40.4992 ], [ -3.8656, 40.4993 ], [ -3.8654, 40.4992 ], [ -3.865, 40.4993 ], [ -3.865, 40.4994 ], [ -3.8644, 40.4994 ], [ -3.8645, 40.4988 ], [ -3.8643, 40.4971 ], [ -3.8642, 40.497 ], [ -3.8634, 40.4968 ], [ -3.8621, 40.4958 ], [ -3.8615, 40.4955 ], [ -3.8615, 40.4954 ], [ -3.861, 40.4956 ], [ -3.8608, 40.4955 ], [ -3.8607, 40.4953 ], [ -3.8596, 40.4945 ], [ -3.859, 40.4943 ], [ -3.8552, 40.497 ], [ -3.8649, 40.5022 ] ] ] } },
{ "type": "Feature", "properties": { "municipio": "Las Rozas de Madrid", "clasificacion": "urbanizable-no-sectorizado", "calificacion": "sin-asignar", "version": "vigente", "fuente": "SIT-CAM WFS — UsoDelSuelo:VPLA_V_CLASIFICACION (https://idem.comunidad.madrid/geosrvg/ows)", "fecha_dato": "2026-05-12", "ambito": "25925", "_raw_CD_SIGLAS": "SUBNS", "_raw_DS_CLASIF_GEN": "Suelo Urbanizable No Programado", "_raw_DS_CLASIF_DET": "Suelo Urbanizable No Programado", "_raw_DS_DOCU": "PLAN GENERAL", "_raw_DS_LEY": "CM Ley 4/1984, E RDL 1/1992", "_raw_FC_AC": "1994-12-01", "_raw_NM_AREA_M2": 712149.74322989897, "_cam_code": "127" }, "geometry": { "type": "Polygon", "coordinates": [ [ [ -3.8763, 40.5053 ], [ -3.8791, 40.5092 ], [ -3.8811, 40.5073 ], [ -3.883, 40.5065 ], [ -3.8834, 40.5061 ], [ -3.8844, 40.5036 ], [ -3.8862, 40.503 ], [ -3.8876, 40.5037 ], [ -3.8875, 40.5025 ], [ -3.887, 40.502 ], [ -3.887, 40.5018 ], [ -3.8871, 40.5018 ], [ -3.887, 40.5015 ], [ -3.8861, 40.5007 ], [ -3.8856, 40.4998 ], [ -3.8849, 40.4989 ], [ -3.884, 40.4981 ], [ -3.8837, 40.4981 ], [ -3.8832, 40.4977 ], [ -3.883, 40.4969 ], [ -3.8822, 40.4959 ], [ -3.8819, 40.4959 ], [ -3.8817, 40.4956 ], [ -3.8807, 40.4955 ], [ -3.8806, 40.4965 ], [ -3.8811, 40.4972 ], [ -3.881, 40.4973 ], [ -3.8807, 40.4973 ], [ -3.8804, 40.4975 ], [ -3.8803, 40.4979 ], [ -3.8788, 40.4985 ], [ -3.8787, 40.4983 ], [ -3.8782, 40.4988 ], [ -3.8787, 40.4993 ], [ -3.8783, 40.4993 ], [ -3.8785, 40.5001 ], [ -3.8784, 40.5008 ], [ -3.8785, 40.5012 ], [ -3.8783, 40.5019 ], [ -3.8784, 40.5025 ], [ -3.8777, 40.5027 ], [ -3.8777, 40.5026 ], [ -3.877, 40.5029 ], [ -3.8767, 40.5026 ], [ -3.8765, 40.5028 ], [ -3.8767, 40.5033 ], [ -3.876, 40.5035 ], [ -3.8755, 40.5035 ], [ -3.8757, 40.5042 ], [ -3.8786, 40.5046 ], [ -3.8785, 40.5053 ], [ -3.8763, 40.5053 ] ] ] } },
{ "type": "Feature", "properties": { "municipio": "Las Rozas de Madrid", "clasificacion": "urbanizable-sectorizado", "calificacion": "sin-asignar", "version": "vigente", "fuente": "SIT-CAM WFS — UsoDelSuelo:VPLA_V_CLASIFICACION (https://idem.comunidad.madrid/geosrvg/ows)", "fecha_dato": "2026-05-12", "ambito": "25925", "_raw_CD_SIGLAS": "SUBS", "_raw_DS_CLASIF_GEN": "Suelo Urbanizable Programado", "_raw_DS_CLASIF_DET": "Suelo Urbanizable Programado", "_raw_DS_DOCU": "PLAN GENERAL", "_raw_DS_LEY": "CM Ley 4/1984, E RDL 1/1992", "_raw_FC_AC": "1994-12-01", "_raw_NM_AREA_M2": 2689923.8851657799, "_cam_code": "127" }, "geometry": { "type": "Polygon", "coordinates": [ [ [ -3.9038, 40.5368 ], [ -3.9042, 40.537 ], [ -3.9043, 40.5373 ], [ -3.9044, 40.5373 ], [ -3.9044, 40.5376 ], [ -3.9045, 40.5376 ], [ -3.9041, 40.5387 ], [ -3.904, 40.5395 ], [ -3.9056, 40.539 ], [ -3.9074, 40.5387 ], [ -3.9098, 40.538 ], [ -3.9107, 40.5379 ], [ -3.9107, 40.5378 ], [ -3.9124, 40.5375 ], [ -3.9132, 40.5372 ], [ -3.9136, 40.5372 ], [ -3.9136, 40.5371 ], [ -3.915, 40.5368 ], [ -3.9159, 40.537 ], [ -3.9206, 40.5366 ], [ -3.9216, 40.5369 ], [ -3.922, 40.5369 ], [ -3.9227, 40.5368 ], [ -3.9235, 40.5364 ], [ -3.9258, 40.5348 ], [ -3.9266, 40.5344 ], [ -3.928, 40.5328 ], [ -3.9284, 40.532 ], [ -3.9287, 40.5318 ], [ -3.9293, 40.5317 ], [ -3.9302, 40.5319 ], [ -3.9312, 40.5315 ], [ -3.9318, 40.5307 ], [ -3.932, 40.5292 ], [ -3.9327, 40.5282 ], [ -3.9336, 40.5279 ], [ -3.9336, 40.5278 ], [ -3.935, 40.5275 ], [ -3.9356, 40.5269 ], [ -3.9357, 40.5267 ], [ -3.9356, 40.5238 ], [ -3.9354, 40.5236 ], [ -3.9354, 40.5234 ], [ -3.9342, 40.5224 ], [ -3.9346, 40.521 ], [ -3.9358, 40.5209 ], [ -3.9354, 40.5203 ], [ -3.9354, 40.5195 ], [ -3.9372, 40.5194 ], [ -3.9371, 40.5194 ], [ -3.937, 40.5184 ], [ -3.9365, 40.5179 ], [ -3.9357, 40.5185 ], [ -3.9348, 40.5185 ], [ -3.9345, 40.5186 ], [ -3.9342, 40.5189 ], [ -3.9318, 40.5194 ], [ -3.9307, 40.5195 ], [ -3.9309, 40.5156 ], [ -3.9285, 40.5156 ], [ -3.9282, 40.5155 ], [ -3.928, 40.5152 ], [ -3.9266, 40.5153 ], [ -3.9257, 40.515 ], [ -3.9247, 40.5162 ], [ -3.9246, 40.5167 ], [ -3.9244, 40.5167 ], [ -3.9242, 40.5169 ], [ -3.9218, 40.52 ], [ -3.9256, 40.5197 ], [ -3.9259, 40.5214 ], [ -3.9281, 40.5212 ], [ -3.9285, 40.5228 ], [ -3.9291, 40.5228 ], [ -3.9294, 40.5238 ], [ -3.9286, 40.5243 ], [ -3.9281, 40.5244 ], [ -3.9277, 40.5247 ], [ -3.9278, 40.525 ], [ -3.9272, 40.5249 ], [ -3.9264, 40.5252 ], [ -3.926, 40.5263 ], [ -3.9248, 40.527 ], [ -3.924, 40.527 ], [ -3.9238, 40.5274 ], [ -3.9228, 40.5271 ], [ -3.9226, 40.5267 ], [ -3.9228, 40.5263 ], [ -3.9217, 40.5262 ], [ -3.9208, 40.5255 ], [ -3.9201, 40.5255 ], [ -3.9197, 40.5258 ], [ -3.9181, 40.5245 ], [ -3.9172, 40.5255 ], [ -3.9172, 40.5258 ], [ -3.9169, 40.5258 ], [ -3.9157, 40.5272 ], [ -3.9155, 40.5276 ], [ -3.9142, 40.5289 ], [ -3.9127, 40.5299 ], [ -3.9122, 40.5301 ], [ -3.9135, 40.5325 ], [ -3.9122, 40.5341 ], [ -3.9097, 40.5351 ], [ -3.908, 40.536 ], [ -3.9061, 40.5359 ], [ -3.9059, 40.5355 ], [ -3.9051, 40.5357 ], [ -3.9051, 40.5363 ], [ -3.9047, 40.5367 ], [ -3.9038, 40.5368 ] ] ] } },
{ "type": "Feature", "properties": { "municipio": "Las Rozas de Madrid", "clasificacion": "urbanizable-sectorizado", "calificacion": "sin-asignar", "version": "vigente", "fuente": "SIT-CAM WFS — UsoDelSuelo:VPLA_V_CLASIFICACION (https://idem.comunidad.madrid/geosrvg/ows)", "fecha_dato": "2026-05-12", "ambito": "25925", "_raw_CD_SIGLAS": "SUBS_A", "_raw_DS_CLASIF_GEN": "Suelo Urbanizable Programado (APLAZADO)", "_raw_DS_CLASIF_DET": "Suelo Urbanizable Programado", "_raw_DS_DOCU": "PLAN GENERAL", "_raw_DS_LEY": "CM Ley 4/1984, E RDL 1/1992", "_raw_FC_AC": "1994-12-01", "_raw_NM_AREA_M2": 512957.40379608999, "_cam_code": "127" }, "geometry": { "type": "Polygon", "coordinates": [ [ [ -3.8964, 40.5022 ], [ -3.8948, 40.5038 ], [ -3.8942, 40.5046 ], [ -3.8933, 40.5053 ], [ -3.8921, 40.5065 ], [ -3.8902, 40.5072 ], [ -3.8904, 40.5075 ], [ -3.8905, 40.5081 ], [ -3.8932, 40.5122 ], [ -3.8954, 40.5134 ], [ -3.8967, 40.5124 ], [ -3.8975, 40.5116 ], [ -3.8983, 40.5106 ], [ -3.8986, 40.51 ], [ -3.8988, 40.5092 ], [ -3.8987, 40.5072 ], [ -3.8964, 40.5022 ] ] ] } }
]
}
