{
"type": "FeatureCollection",
"name": "vigente.full",
"features": [
{ "type": "Feature", "properties": { "municipio": "Venturada", "clasificacion": "no-urbanizable-protegido", "calificacion": "sin-asignar", "version": "vigente", "fuente": "SIT-CAM WFS — UsoDelSuelo:VPLA_V_CLASIFICACION (https://idem.comunidad.madrid/geosrvg/ows)", "fecha_dato": "2026-05-12", "ambito": "34385", "_raw_CD_SIGLAS": "SNUP", "_raw_DS_CLASIF_GEN": "Suelo No Urbanizable Protegido", "_raw_DS_CLASIF_DET": "Suelo No Urbanizable Protegido Grado 2 de las Riberas del Albala y el Sacedón", "_raw_DS_DOCU": "NORMAS SUBSIDIARIAS", "_raw_DS_LEY": "CM Ley 9/1995, E RDL 1/1992", "_raw_FC_AC": "1997-12-04", "_raw_NM_AREA_M2": 486287.67341649102, "_cam_code": "169" }, "geometry": { "type": "Polygon", "coordinates": [ [ [ -3.6332, 40.7954 ], [ -3.6341, 40.7957 ], [ -3.6346, 40.7964 ], [ -3.6353, 40.7964 ], [ -3.6363, 40.797 ], [ -3.6365, 40.797 ], [ -3.6381, 40.7978 ], [ -3.6378, 40.7974 ], [ -3.6368, 40.7968 ], [ -3.6373, 40.7965 ], [ -3.6358, 40.7961 ], [ -3.6355, 40.7948 ], [ -3.6359, 40.7925 ], [ -3.635, 40.7925 ], [ -3.6349, 40.7915 ], [ -3.6345, 40.7915 ], [ -3.6346, 40.7906 ], [ -3.6342, 40.7897 ], [ -3.6343, 40.7896 ], [ -3.6337, 40.7891 ], [ -3.6339, 40.7887 ], [ -3.6328, 40.7879 ], [ -3.6345, 40.7864 ], [ -3.6342, 40.7862 ], [ -3.6333, 40.7865 ], [ -3.631, 40.7868 ], [ -3.6298, 40.7868 ], [ -3.6285, 40.7867 ], [ -3.6271, 40.7864 ], [ -3.626, 40.7859 ], [ -3.6263, 40.7868 ], [ -3.6261, 40.7878 ], [ -3.6265, 40.7884 ], [ -3.6279, 40.7899 ], [ -3.6287, 40.7895 ], [ -3.6287, 40.7894 ], [ -3.6294, 40.7889 ], [ -3.6296, 40.7888 ], [ -3.6297, 40.7888 ], [ -3.6297, 40.7887 ], [ -3.6298, 40.7887 ], [ -3.6298, 40.7886 ], [ -3.6302, 40.7883 ], [ -3.6302, 40.7884 ], [ -3.6298, 40.7886 ], [ -3.6298, 40.7887 ], [ -3.6297, 40.7887 ], [ -3.6297, 40.7888 ], [ -3.6296, 40.7889 ], [ -3.6293, 40.789 ], [ -3.6289, 40.7894 ], [ -3.6279, 40.79 ], [ -3.6284, 40.7902 ], [ -3.6304, 40.7918 ], [ -3.6301, 40.792 ], [ -3.6308, 40.7927 ], [ -3.6304, 40.793 ], [ -3.631, 40.7933 ], [ -3.6315, 40.7938 ], [ -3.6319, 40.7939 ], [ -3.6321, 40.7955 ], [ -3.6324, 40.7956 ], [ -3.6332, 40.7954 ] ] ] } },
{ "type": "Feature", "properties": { "municipio": "Venturada", "clasificacion": "no-urbanizable-protegido", "calificacion": "sin-asignar", "version": "vigente", "fuente": "SIT-CAM WFS — UsoDelSuelo:VPLA_V_CLASIFICACION (https://idem.comunidad.madrid/geosrvg/ows)", "fecha_dato": "2026-05-12", "ambito": "34385", "_raw_CD_SIGLAS": "SNUP", "_raw_DS_CLASIF_GEN": "Suelo No Urbanizable Protegido", "_raw_DS_CLASIF_DET": "Suelo No Urbanizable Protegido Grado 3 de la Zona de Policía y Servidumbre del Embalse de Pedrezuela", "_raw_DS_DOCU": "NORMAS SUBSIDIARIAS", "_raw_DS_LEY": "CM Ley 9/1995, E RDL 1/1992", "_raw_FC_AC": "1997-12-04", "_raw_NM_AREA_M2": 307329.77912612102, "_cam_code": "169" }, "geometry": { "type": "Polygon", "coordinates": [ [ [ -3.6258, 40.782 ], [ -3.6238, 40.783 ], [ -3.6238, 40.7831 ], [ -3.6243, 40.7843 ], [ -3.6251, 40.7853 ], [ -3.626, 40.7859 ], [ -3.6271, 40.7864 ], [ -3.6285, 40.7867 ], [ -3.6298, 40.7868 ], [ -3.631, 40.7868 ], [ -3.6333, 40.7865 ], [ -3.6342, 40.7862 ], [ -3.6334, 40.7852 ], [ -3.6321, 40.7831 ], [ -3.6264, 40.7823 ], [ -3.6261, 40.782 ], [ -3.6258, 40.782 ] ] ] } },
{ "type": "Feature", "properties": { "municipio": "Venturada", "clasificacion": "no-urbanizable-protegido", "calificacion": "sin-asignar", "version": "vigente", "fuente": "SIT-CAM WFS — UsoDelSuelo:VPLA_V_CLASIFICACION (https://idem.comunidad.madrid/geosrvg/ows)", "fecha_dato": "2026-05-12", "ambito": "34385", "_raw_CD_SIGLAS": "SNUP", "_raw_DS_CLASIF_GEN": "Suelo No Urbanizable Protegido", "_raw_DS_CLASIF_DET": "Suelo No Urbanizable Protegido Grado 1 de las Laderas de Cotos de Monterrey, Los Tesos de Los Corrales y La Caleriza", "_raw_DS_DOCU": "NORMAS SUBSIDIARIAS", "_raw_DS_LEY": "CM Ley 9/1995, E RDL 1/1992", "_raw_FC_AC": "1997-12-04", "_raw_NM_AREA_M2": 354123.398816097, "_cam_code": "169" }, "geometry": { "type": "Polygon", "coordinates": [ [ [ -3.6164, 40.8021 ], [ -3.6163, 40.8023 ], [ -3.6145, 40.8038 ], [ -3.6133, 40.8043 ], [ -3.6124, 40.8054 ], [ -3.6121, 40.8061 ], [ -3.6122, 40.8067 ], [ -3.6128, 40.8074 ], [ -3.6137, 40.8081 ], [ -3.6139, 40.8085 ], [ -3.6135, 40.8097 ], [ -3.6137, 40.8099 ], [ -3.6153, 40.8101 ], [ -3.6161, 40.8095 ], [ -3.6181, 40.8089 ], [ -3.6196, 40.8088 ], [ -3.6197, 40.8086 ], [ -3.6198, 40.8069 ], [ -3.6195, 40.806 ], [ -3.6187, 40.8048 ], [ -3.6164, 40.8021 ] ] ] } },
{ "type": "Feature", "properties": { "municipio": "Venturada", "clasificacion": "no-urbanizable-protegido", "calificacion": "sin-asignar", "version": "vigente", "fuente": "SIT-CAM WFS — UsoDelSuelo:VPLA_V_CLASIFICACION (https://idem.comunidad.madrid/geosrvg/ows)", "fecha_dato": "2026-05-12", "ambito": "34385", "_raw_CD_SIGLAS": "SNUP", "_raw_DS_CLASIF_GEN": "Suelo No Urbanizable Protegido", "_raw_DS_CLASIF_DET": "Suelo No Urbanizable Protegido Grado 1 de las Laderas de Cotos de Monterrey, Los Tesos de Los Corrales y La Caleriza", "_raw_DS_DOCU": "NORMAS SUBSIDIARIAS", "_raw_DS_LEY": "CM Ley 9/1995, E RDL 1/1992", "_raw_FC_AC": "1997-12-04", "_raw_NM_AREA_M2": 341238.24095093802, "_cam_code": "169" }, "geometry": { "type": "Polygon", "coordinates": [ [ [ -3.6129, 40.8017 ], [ -3.6108, 40.8026 ], [ -3.6087, 40.8041 ], [ -3.6079, 40.8046 ], [ -3.6073, 40.8048 ], [ -3.6059, 40.8064 ], [ -3.6065, 40.8071 ], [ -3.6075, 40.8076 ], [ -3.6096, 40.8083 ], [ -3.6102, 40.8087 ], [ -3.6119, 40.809 ], [ -3.6133, 40.8098 ], [ -3.6134, 40.8093 ], [ -3.6136, 40.809 ], [ -3.6137, 40.8083 ], [ -3.6124, 40.8072 ], [ -3.612, 40.8066 ], [ -3.6119, 40.8061 ], [ -3.6123, 40.8052 ], [ -3.6131, 40.8042 ], [ -3.6134, 40.804 ], [ -3.614, 40.8039 ], [ -3.6147, 40.8035 ], [ -3.6162, 40.8022 ], [ -3.6154, 40.8018 ], [ -3.615, 40.802 ], [ -3.6149, 40.8016 ], [ -3.6129, 40.8017 ] ] ] } },
{ "type": "Feature", "properties": { "municipio": "Venturada", "clasificacion": "no-urbanizable-protegido", "calificacion": "sin-asignar", "version": "vigente", "fuente": "SIT-CAM WFS — UsoDelSuelo:VPLA_V_CLASIFICACION (https://idem.comunidad.madrid/geosrvg/ows)", "fecha_dato": "2026-05-12", "ambito": "34385", "_raw_CD_SIGLAS": "SNUP", "_raw_DS_CLASIF_GEN": "Suelo No Urbanizable Protegido", "_raw_DS_CLASIF_DET": "Suelo No Urbanizable Protegido Grado 1 de las Laderas de Cotos de Monterrey, Los Tesos de Los Corrales y La Caleriza", "_raw_DS_DOCU": "NORMAS SUBSIDIARIAS", "_raw_DS_LEY": "CM Ley 9/1995, E RDL 1/1992", "_raw_FC_AC": "1997-12-04", "_raw_NM_AREA_M2": 354910.11480194598, "_cam_code": "169" }, "geometry": { "type": "Polygon", "coordinates": [ [ [ -3.6043, 40.8031 ], [ -3.6044, 40.8034 ], [ -3.604, 40.8037 ], [ -3.6049, 40.8046 ], [ -3.6061, 40.8042 ], [ -3.6078, 40.8031 ], [ -3.6088, 40.8018 ], [ -3.609, 40.8018 ], [ -3.6112, 40.8003 ], [ -3.6126, 40.799 ], [ -3.6128, 40.7986 ], [ -3.613, 40.7976 ], [ -3.6137, 40.7967 ], [ -3.6151, 40.7954 ], [ -3.6152, 40.7951 ], [ -3.615, 40.7945 ], [ -3.6151, 40.7935 ], [ -3.6149, 40.7934 ], [ -3.6145, 40.7924 ], [ -3.6144, 40.7912 ], [ -3.614, 40.7917 ], [ -3.6124, 40.7924 ], [ -3.6116, 40.7925 ], [ -3.6108, 40.7931 ], [ -3.6125, 40.7942 ], [ -3.6123, 40.7947 ], [ -3.6111, 40.7955 ], [ -3.6124, 40.7963 ], [ -3.6105, 40.7977 ], [ -3.607, 40.7994 ], [ -3.6071, 40.8008 ], [ -3.6069, 40.8009 ], [ -3.6072, 40.802 ], [ -3.6069, 40.8025 ], [ -3.6063, 40.8027 ], [ -3.6046, 40.8023 ], [ -3.6043, 40.8031 ] ] ] } },
{ "type": "Feature", "properties": { "municipio": "Venturada", "clasificacion": "no-urbanizable-protegido", "calificacion": "sin-asignar", "version": "vigente", "fuente": "SIT-CAM WFS — UsoDelSuelo:VPLA_V_CLASIFICACION (https://idem.comunidad.madrid/geosrvg/ows)", "fecha_dato": "2026-05-12", "ambito": "34385", "_raw_CD_SIGLAS": "SNUP", "_raw_DS_CLASIF_GEN": "Suelo No Urbanizable Protegido", "_raw_DS_CLASIF_DET": "Suelo No Urbanizable Protegido Grado 1 de las Laderas de Cotos de Monterrey, Los Tesos de Los Corrales y La Caleriza", "_raw_DS_DOCU": "NORMAS SUBSIDIARIAS", "_raw_DS_LEY": "CM Ley 9/1995, E RDL 1/1992", "_raw_FC_AC": "1997-12-04", "_raw_NM_AREA_M2": 120248.169964674, "_cam_code": "169" }, "geometry": { "type": "Polygon", "coordinates": [ [ [ -3.6152, 40.7883 ], [ -3.6152, 40.7897 ], [ -3.6147, 40.7917 ], [ -3.6149, 40.7926 ], [ -3.6154, 40.7935 ], [ -3.6153, 40.7941 ], [ -3.6154, 40.7943 ], [ -3.6154, 40.7954 ], [ -3.6139, 40.7969 ], [ -3.6133, 40.7977 ], [ -3.6131, 40.7989 ], [ -3.6129, 40.7992 ], [ -3.611, 40.8008 ], [ -3.6096, 40.8016 ], [ -3.6092, 40.802 ], [ -3.6091, 40.8021 ], [ -3.6087, 40.8023 ], [ -3.6085, 40.8026 ], [ -3.6097, 40.8017 ], [ -3.6121, 40.8005 ], [ -3.6122, 40.8002 ], [ -3.614, 40.7991 ], [ -3.615, 40.7983 ], [ -3.6156, 40.7974 ], [ -3.6161, 40.7943 ], [ -3.6165, 40.7934 ], [ -3.6157, 40.7931 ], [ -3.6155, 40.7929 ], [ -3.616, 40.7927 ], [ -3.6164, 40.7921 ], [ -3.6159, 40.7917 ], [ -3.616, 40.7915 ], [ -3.6165, 40.7913 ], [ -3.6166, 40.791 ], [ -3.6161, 40.7907 ], [ -3.6156, 40.7901 ], [ -3.6154, 40.7897 ], [ -3.6153, 40.7892 ], [ -3.6154, 40.7888 ], [ -3.6152, 40.7883 ] ] ] } },
{ "type": "Feature", "properties": { "municipio": "Venturada", "clasificacion": "no-urbanizable-protegido", "calificacion": "sin-asignar", "version": "vigente", "fuente": "SIT-CAM WFS — UsoDelSuelo:VPLA_V_CLASIFICACION (https://idem.comunidad.madrid/geosrvg/ows)", "fecha_dato": "2026-05-12", "ambito": "34385", "_raw_CD_SIGLAS": "SNUP", "_raw_DS_CLASIF_GEN": "Suelo No Urbanizable Protegido", "_raw_DS_CLASIF_DET": "Suelo No Urbanizable Protegido Grado 1 de las Laderas de Cotos de Monterrey, Los Tesos de Los Corrales y La Caleriza", "_raw_DS_DOCU": "NORMAS SUBSIDIARIAS", "_raw_DS_LEY": "CM Ley 9/1995, E RDL 1/1992", "_raw_FC_AC": "1997-12-04", "_raw_NM_AREA_M2": 36143.575259243502, "_cam_code": "169" }, "geometry": { "type": "Polygon", "coordinates": [ [ [ -3.613, 40.7884 ], [ -3.6135, 40.7897 ], [ -3.6142, 40.7902 ], [ -3.6144, 40.7909 ], [ -3.6145, 40.7909 ], [ -3.6148, 40.7898 ], [ -3.6148, 40.7881 ], [ -3.6146, 40.7882 ], [ -3.614, 40.7876 ], [ -3.6132, 40.7875 ], [ -3.613, 40.7884 ] ] ] } },
{ "type": "Feature", "properties": { "municipio": "Venturada", "clasificacion": "no-urbanizable-protegido", "calificacion": "sin-asignar", "version": "vigente", "fuente": "SIT-CAM WFS — UsoDelSuelo:VPLA_V_CLASIFICACION (https://idem.comunidad.madrid/geosrvg/ows)", "fecha_dato": "2026-05-12", "ambito": "34385", "_raw_CD_SIGLAS": "SNUP", "_raw_DS_CLASIF_GEN": "Suelo No Urbanizable Protegido", "_raw_DS_CLASIF_DET": "Suelo No Urbanizable Protegido Grado 1 de las Laderas de Cotos de Monterrey, Los Tesos de Los Corrales y La Caleriza", "_raw_DS_DOCU": "NORMAS SUBSIDIARIAS", "_raw_DS_LEY": "CM Ley 9/1995, E RDL 1/1992", "_raw_FC_AC": "1997-12-04", "_raw_NM_AREA_M2": 233659.74980299699, "_cam_code": "169" }, "geometry": { "type": "Polygon", "coordinates": [ [ [ -3.6164, 40.786 ], [ -3.6179, 40.7877 ], [ -3.6179, 40.7881 ], [ -3.6166, 40.7889 ], [ -3.6163, 40.7892 ], [ -3.6163, 40.7894 ], [ -3.6169, 40.7902 ], [ -3.6174, 40.7903 ], [ -3.6174, 40.7904 ], [ -3.6177, 40.7905 ], [ -3.6179, 40.7904 ], [ -3.6184, 40.7897 ], [ -3.6186, 40.7897 ], [ -3.6197, 40.7888 ], [ -3.6204, 40.7885 ], [ -3.6211, 40.7879 ], [ -3.6218, 40.7875 ], [ -3.6228, 40.7864 ], [ -3.6235, 40.7861 ], [ -3.6247, 40.7848 ], [ -3.6243, 40.7843 ], [ -3.6238, 40.7831 ], [ -3.6236, 40.7831 ], [ -3.623, 40.7834 ], [ -3.6226, 40.7838 ], [ -3.6204, 40.785 ], [ -3.6186, 40.7858 ], [ -3.6176, 40.786 ], [ -3.6164, 40.786 ] ] ] } },
{ "type": "Feature", "properties": { "municipio": "Venturada", "clasificacion": "no-urbanizable-protegido", "calificacion": "sin-asignar", "version": "vigente", "fuente": "SIT-CAM WFS — UsoDelSuelo:VPLA_V_CLASIFICACION (https://idem.comunidad.madrid/geosrvg/ows)", "fecha_dato": "2026-05-12", "ambito": "34385", "_raw_CD_SIGLAS": "SNUP", "_raw_DS_CLASIF_GEN": "Suelo No Urbanizable Protegido", "_raw_DS_CLASIF_DET": "Suelo No Urbanizable Protegido Grado 1 de las Laderas de Cotos de Monterrey, Los Tesos de Los Corrales y La Caleriza", "_raw_DS_DOCU": "NORMAS SUBSIDIARIAS", "_raw_DS_LEY": "CM Ley 9/1995, E RDL 1/1992", "_raw_FC_AC": "1997-12-04", "_raw_NM_AREA_M2": 5509.8369220550003, "_cam_code": "169" }, "geometry": { "type": "Polygon", "coordinates": [ [ [ -3.6162, 40.7858 ], [ -3.6182, 40.7857 ], [ -3.6196, 40.7851 ], [ -3.6199, 40.7849 ], [ -3.6181, 40.7856 ], [ -3.616, 40.7855 ], [ -3.6162, 40.7858 ] ] ] } },
{ "type": "Feature", "properties": { "municipio": "Venturada", "clasificacion": "no-urbanizable-protegido", "calificacion": "sin-asignar", "version": "vigente", "fuente": "SIT-CAM WFS — UsoDelSuelo:VPLA_V_CLASIFICACION (https://idem.comunidad.madrid/geosrvg/ows)", "fecha_dato": "2026-05-12", "ambito": "34385", "_raw_CD_SIGLAS": "SNUP", "_raw_DS_CLASIF_GEN": "Suelo No Urbanizable Protegido", "_raw_DS_CLASIF_DET": "Suelo No Urbanizable Protegido Grado 2 de las Riberas del Albala y el Sacedón", "_raw_DS_DOCU": "NORMAS SUBSIDIARIAS", "_raw_DS_LEY": "CM Ley 9/1995, E RDL 1/1992", "_raw_FC_AC": "1997-12-04", "_raw_NM_AREA_M2": 67599.161487578094, "_cam_code": "169" }, "geometry": { "type": "Polygon", "coordinates": [ [ [ -3.62, 40.8029 ], [ -3.6201, 40.8033 ], [ -3.6204, 40.8036 ], [ -3.6224, 40.8043 ], [ -3.6227, 40.8043 ], [ -3.6228, 40.8041 ], [ -3.6227, 40.8038 ], [ -3.6209, 40.8021 ], [ -3.6205, 40.802 ], [ -3.6205, 40.8021 ], [ -3.62, 40.8023 ], [ -3.6197, 40.802 ], [ -3.6197, 40.8016 ], [ -3.6195, 40.8014 ], [ -3.6194, 40.801 ], [ -3.6198, 40.8009 ], [ -3.6196, 40.8003 ], [ -3.6198, 40.8 ], [ -3.6201, 40.8002 ], [ -3.6203, 40.8001 ], [ -3.6205, 40.8002 ], [ -3.6205, 40.8001 ], [ -3.6202, 40.8 ], [ -3.6202, 40.7998 ], [ -3.6194, 40.7997 ], [ -3.6188, 40.7999 ], [ -3.6188, 40.8 ], [ -3.6181, 40.8 ], [ -3.6181, 40.8001 ], [ -3.6174, 40.8002 ], [ -3.6174, 40.8003 ], [ -3.6166, 40.8001 ], [ -3.6166, 40.7998 ], [ -3.6162, 40.7999 ], [ -3.6163, 40.8005 ], [ -3.6166, 40.8008 ], [ -3.6168, 40.8013 ], [ -3.6171, 40.801 ], [ -3.6175, 40.8009 ], [ -3.618, 40.8005 ], [ -3.6185, 40.8003 ], [ -3.619, 40.8005 ], [ -3.619, 40.8007 ], [ -3.6187, 40.8009 ], [ -3.6187, 40.8013 ], [ -3.6192, 40.8017 ], [ -3.6191, 40.8021 ], [ -3.6195, 40.8027 ], [ -3.6198, 40.803 ], [ -3.62, 40.8029 ] ] ] } },
{ "type": "Feature", "properties": { "municipio": "Venturada", "clasificacion": "no-urbanizable-protegido", "calificacion": "sin-asignar", "version": "vigente", "fuente": "SIT-CAM WFS — UsoDelSuelo:VPLA_V_CLASIFICACION (https://idem.comunidad.madrid/geosrvg/ows)", "fecha_dato": "2026-05-12", "ambito": "34385", "_raw_CD_SIGLAS": "SNUP", "_raw_DS_CLASIF_GEN": "Suelo No Urbanizable Protegido", "_raw_DS_CLASIF_DET": "Suelo No Urbanizable Protegido Grado 2 de las Riberas del Albala y el Sacedón", "_raw_DS_DOCU": "NORMAS SUBSIDIARIAS", "_raw_DS_LEY": "CM Ley 9/1995, E RDL 1/1992", "_raw_FC_AC": "1997-12-04", "_raw_NM_AREA_M2": 254250.99772086201, "_cam_code": "169" }, "geometry": { "type": "Polygon", "coordinates": [ [ [ -3.6354, 40.8023 ], [ -3.6358, 40.8023 ], [ -3.6361, 40.8016 ], [ -3.6363, 40.8015 ], [ -3.6366, 40.801 ], [ -3.6371, 40.8014 ], [ -3.639, 40.8004 ], [ -3.6391, 40.8001 ], [ -3.6379, 40.7982 ], [ -3.6373, 40.7977 ], [ -3.636, 40.7971 ], [ -3.6353, 40.7966 ], [ -3.635, 40.7965 ], [ -3.6354, 40.7972 ], [ -3.6351, 40.7971 ], [ -3.6348, 40.7967 ], [ -3.6342, 40.7966 ], [ -3.6335, 40.796 ], [ -3.6334, 40.7955 ], [ -3.6325, 40.7957 ], [ -3.6321, 40.7956 ], [ -3.6322, 40.7966 ], [ -3.6324, 40.7968 ], [ -3.6325, 40.7975 ], [ -3.633, 40.7986 ], [ -3.6332, 40.8002 ], [ -3.633, 40.8021 ], [ -3.6344, 40.8023 ], [ -3.6354, 40.8023 ] ] ] } },
{ "type": "Feature", "properties": { "municipio": "Venturada", "clasificacion": "no-urbanizable-protegido", "calificacion": "sin-asignar", "version": "vigente", "fuente": "SIT-CAM WFS — UsoDelSuelo:VPLA_V_CLASIFICACION (https://idem.comunidad.madrid/geosrvg/ows)", "fecha_dato": "2026-05-12", "ambito": "34385", "_raw_CD_SIGLAS": "SNUP", "_raw_DS_CLASIF_GEN": "Suelo No Urbanizable Protegido", "_raw_DS_CLASIF_DET": "Suelo No Urbanizable Protegido Grado 2 de las Riberas del Albala y el Sacedón", "_raw_DS_DOCU": "NORMAS SUBSIDIARIAS", "_raw_DS_LEY": "CM Ley 9/1995, E RDL 1/1992", "_raw_FC_AC": "1997-12-04", "_raw_NM_AREA_M2": 84314.603801098594, "_cam_code": "169" }, "geometry": { "type": "Polygon", "coordinates": [ [ [ -3.6164, 40.7987 ], [ -3.6162, 40.7992 ], [ -3.6163, 40.7996 ], [ -3.6166, 40.7997 ], [ -3.6167, 40.7995 ], [ -3.6176, 40.7991 ], [ -3.619, 40.799 ], [ -3.6194, 40.7988 ], [ -3.6196, 40.7986 ], [ -3.6191, 40.7981 ], [ -3.6192, 40.7974 ], [ -3.6194, 40.7972 ], [ -3.62, 40.7972 ], [ -3.6203, 40.797 ], [ -3.6202, 40.7967 ], [ -3.6209, 40.7964 ], [ -3.6204, 40.7957 ], [ -3.6201, 40.7959 ], [ -3.62, 40.7958 ], [ -3.6201, 40.7957 ], [ -3.6173, 40.7967 ], [ -3.6165, 40.7978 ], [ -3.6163, 40.7983 ], [ -3.6164, 40.7987 ] ] ] } },
{ "type": "Feature", "properties": { "municipio": "Venturada", "clasificacion": "no-urbanizable-protegido", "calificacion": "sin-asignar", "version": "vigente", "fuente": "SIT-CAM WFS — UsoDelSuelo:VPLA_V_CLASIFICACION (https://idem.comunidad.madrid/geosrvg/ows)", "fecha_dato": "2026-05-12", "ambito": "34385", "_raw_CD_SIGLAS": "SNUP", "_raw_DS_CLASIF_GEN": "Suelo No Urbanizable Protegido", "_raw_DS_CLASIF_DET": "Suelo No Urbanizable Protegido Grado 2 de las Riberas del Albala y el Sacedón", "_raw_DS_DOCU": "NORMAS SUBSIDIARIAS", "_raw_DS_LEY": "CM Ley 9/1995, E RDL 1/1992", "_raw_FC_AC": "1997-12-04", "_raw_NM_AREA_M2": 207235.11595222499, "_cam_code": "169" }, "geometry": { "type": "Polygon", "coordinates": [ [ [ -3.6185, 40.8005 ], [ -3.6183, 40.8005 ], [ -3.618, 40.8008 ], [ -3.6172, 40.8011 ], [ -3.6169, 40.8016 ], [ -3.6165, 40.8018 ], [ -3.6164, 40.8021 ], [ -3.6187, 40.8048 ], [ -3.6195, 40.806 ], [ -3.6198, 40.8069 ], [ -3.6198, 40.8082 ], [ -3.6196, 40.8088 ], [ -3.6226, 40.8085 ], [ -3.6226, 40.8074 ], [ -3.6228, 40.807 ], [ -3.6228, 40.8065 ], [ -3.6224, 40.8063 ], [ -3.6225, 40.8062 ], [ -3.6225, 40.8056 ], [ -3.6228, 40.8053 ], [ -3.6227, 40.8052 ], [ -3.6228, 40.8049 ], [ -3.6226, 40.8048 ], [ -3.6226, 40.8045 ], [ -3.6212, 40.8041 ], [ -3.6201, 40.8036 ], [ -3.6199, 40.8031 ], [ -3.6194, 40.8029 ], [ -3.619, 40.8023 ], [ -3.619, 40.8021 ], [ -3.6189, 40.8021 ], [ -3.6189, 40.8017 ], [ -3.6185, 40.8014 ], [ -3.6185, 40.8009 ], [ -3.6187, 40.8007 ], [ -3.6187, 40.8005 ], [ -3.6185, 40.8005 ] ] ] } },
{ "type": "Feature", "properties": { "municipio": "Venturada", "clasificacion": "no-urbanizable-protegido", "calificacion": "sin-asignar", "version": "vigente", "fuente": "SIT-CAM WFS — UsoDelSuelo:VPLA_V_CLASIFICACION (https://idem.comunidad.madrid/geosrvg/ows)", "fecha_dato": "2026-05-12", "ambito": "34385", "_raw_CD_SIGLAS": "SNUP", "_raw_DS_CLASIF_GEN": "Suelo No Urbanizable Protegido", "_raw_DS_CLASIF_DET": "Suelo No Urbanizable Protegido Grado 2 de las Riberas del Albala y el Sacedón", "_raw_DS_DOCU": "NORMAS SUBSIDIARIAS", "_raw_DS_LEY": "CM Ley 9/1995, E RDL 1/1992", "_raw_FC_AC": "1997-12-04", "_raw_NM_AREA_M2": 118545.50239301, "_cam_code": "169" }, "geometry": { "type": "Polygon", "coordinates": [ [ [ -3.6097, 40.8017 ], [ -3.6085, 40.8026 ], [ -3.6084, 40.8029 ], [ -3.6078, 40.8035 ], [ -3.6063, 40.8044 ], [ -3.6048, 40.805 ], [ -3.6059, 40.8063 ], [ -3.6065, 40.8058 ], [ -3.6073, 40.8048 ], [ -3.6079, 40.8046 ], [ -3.6087, 40.8041 ], [ -3.6108, 40.8026 ], [ -3.6129, 40.8017 ], [ -3.6149, 40.8016 ], [ -3.615, 40.802 ], [ -3.6154, 40.8018 ], [ -3.6162, 40.8022 ], [ -3.6164, 40.8016 ], [ -3.6167, 40.8015 ], [ -3.6167, 40.8013 ], [ -3.6166, 40.8012 ], [ -3.6164, 40.8013 ], [ -3.6164, 40.8015 ], [ -3.6165, 40.8015 ], [ -3.6164, 40.8016 ], [ -3.6158, 40.8015 ], [ -3.6155, 40.8012 ], [ -3.6152, 40.8012 ], [ -3.6152, 40.8011 ], [ -3.613, 40.8011 ], [ -3.612, 40.8014 ], [ -3.6122, 40.8009 ], [ -3.6122, 40.8004 ], [ -3.6118, 40.8007 ], [ -3.6116, 40.8007 ], [ -3.6114, 40.8009 ], [ -3.6097, 40.8017 ] ] ] } },
{ "type": "Feature", "properties": { "municipio": "Venturada", "clasificacion": "no-urbanizable-protegido", "calificacion": "sin-asignar", "version": "vigente", "fuente": "SIT-CAM WFS — UsoDelSuelo:VPLA_V_CLASIFICACION (https://idem.comunidad.madrid/geosrvg/ows)", "fecha_dato": "2026-05-12", "ambito": "34385", "_raw_CD_SIGLAS": "SNUP", "_raw_DS_CLASIF_GEN": "Suelo No Urbanizable Protegido", "_raw_DS_CLASIF_DET": "Suelo No Urbanizable Protegido Grado 2 de las Riberas del Albala y el Sacedón", "_raw_DS_DOCU": "NORMAS SUBSIDIARIAS", "_raw_DS_LEY": "CM Ley 9/1995, E RDL 1/1992", "_raw_FC_AC": "1997-12-04", "_raw_NM_AREA_M2": 752739.74720605195, "_cam_code": "169" }, "geometry": { "type": "Polygon", "coordinates": [ [ [ -3.6302, 40.8091 ], [ -3.6329, 40.8098 ], [ -3.6352, 40.8106 ], [ -3.6366, 40.8125 ], [ -3.6373, 40.8122 ], [ -3.6376, 40.8122 ], [ -3.6391, 40.8112 ], [ -3.6386, 40.8104 ], [ -3.6373, 40.8089 ], [ -3.6364, 40.8072 ], [ -3.636, 40.8061 ], [ -3.6358, 40.8042 ], [ -3.6357, 40.8041 ], [ -3.6363, 40.8039 ], [ -3.6364, 40.8036 ], [ -3.6361, 40.8027 ], [ -3.6358, 40.8024 ], [ -3.6348, 40.8024 ], [ -3.6343, 40.8029 ], [ -3.6338, 40.803 ], [ -3.6336, 40.803 ], [ -3.6332, 40.8026 ], [ -3.6324, 40.8027 ], [ -3.6318, 40.8024 ], [ -3.6304, 40.8027 ], [ -3.6301, 40.803 ], [ -3.6286, 40.8025 ], [ -3.6278, 40.8024 ], [ -3.6268, 40.8029 ], [ -3.6267, 40.8027 ], [ -3.6265, 40.8027 ], [ -3.6258, 40.8031 ], [ -3.6256, 40.804 ], [ -3.6259, 40.804 ], [ -3.6258, 40.8063 ], [ -3.6257, 40.8069 ], [ -3.6254, 40.8069 ], [ -3.6253, 40.8085 ], [ -3.6259, 40.8087 ], [ -3.6291, 40.8091 ], [ -3.6302, 40.8091 ] ] ] } },
{ "type": "Feature", "properties": { "municipio": "Venturada", "clasificacion": "no-urbanizable-protegido", "calificacion": "sin-asignar", "version": "vigente", "fuente": "SIT-CAM WFS — UsoDelSuelo:VPLA_V_CLASIFICACION (https://idem.comunidad.madrid/geosrvg/ows)", "fecha_dato": "2026-05-12", "ambito": "34385", "_raw_CD_SIGLAS": "SNUP_A", "_raw_DS_CLASIF_GEN": "Suelo No Urbanizable Protegido (APLAZADO)", "_raw_DS_CLASIF_DET": "Suelo Especialmente Protegido de Vías Pecuarias ", "_raw_DS_DOCU": "NORMAS SUBSIDIARIAS", "_raw_DS_LEY": "CM Ley 9/1995, E RDL 1/1992", "_raw_FC_AC": "1997-12-04", "_raw_NM_AREA_M2": 64326.832587681303, "_cam_code": "169" }, "geometry": { "type": "Polygon", "coordinates": [ [ [ -3.6165, 40.8007 ], [ -3.6167, 40.8015 ], [ -3.6164, 40.8016 ], [ -3.6162, 40.8022 ], [ -3.6157, 40.8027 ], [ -3.6147, 40.8035 ], [ -3.614, 40.8039 ], [ -3.6134, 40.804 ], [ -3.6131, 40.8042 ], [ -3.6121, 40.8056 ], [ -3.6119, 40.8061 ], [ -3.612, 40.8066 ], [ -3.6124, 40.8072 ], [ -3.6137, 40.8083 ], [ -3.6136, 40.809 ], [ -3.6134, 40.8093 ], [ -3.6133, 40.8098 ], [ -3.6135, 40.8098 ], [ -3.6139, 40.8085 ], [ -3.6137, 40.8081 ], [ -3.6128, 40.8074 ], [ -3.6122, 40.8067 ], [ -3.6121, 40.8061 ], [ -3.6124, 40.8054 ], [ -3.6133, 40.8043 ], [ -3.6142, 40.804 ], [ -3.6149, 40.8035 ], [ -3.6163, 40.8023 ], [ -3.6165, 40.8018 ], [ -3.6169, 40.8016 ], [ -3.6172, 40.8011 ], [ -3.618, 40.8008 ], [ -3.6183, 40.8005 ], [ -3.6187, 40.8005 ], [ -3.6187, 40.8007 ], [ -3.6185, 40.8009 ], [ -3.6185, 40.8014 ], [ -3.6189, 40.8017 ], [ -3.6189, 40.8021 ], [ -3.619, 40.8021 ], [ -3.619, 40.8023 ], [ -3.6194, 40.8029 ], [ -3.6199, 40.8031 ], [ -3.6201, 40.8036 ], [ -3.6212, 40.8041 ], [ -3.6231, 40.8046 ], [ -3.6244, 40.8051 ], [ -3.6246, 40.8084 ], [ -3.6246, 40.8084 ], [ -3.6246, 40.8084 ], [ -3.6247, 40.8084 ], [ -3.6247, 40.8084 ], [ -3.6247, 40.8084 ], [ -3.6247, 40.8084 ], [ -3.6248, 40.8084 ], [ -3.625, 40.8084 ], [ -3.6251, 40.8084 ], [ -3.6249, 40.8083 ], [ -3.6248, 40.8058 ], [ -3.6254, 40.8058 ], [ -3.6254, 40.8053 ], [ -3.6247, 40.8053 ], [ -3.6246, 40.8052 ], [ -3.6246, 40.8044 ], [ -3.6243, 40.8037 ], [ -3.6231, 40.8022 ], [ -3.6231, 40.8013 ], [ -3.6235, 40.8003 ], [ -3.6232, 40.8002 ], [ -3.6228, 40.8017 ], [ -3.6228, 40.8023 ], [ -3.623, 40.8027 ], [ -3.6241, 40.804 ], [ -3.6244, 40.8047 ], [ -3.6244, 40.805 ], [ -3.6233, 40.8045 ], [ -3.6216, 40.8041 ], [ -3.6204, 40.8036 ], [ -3.6201, 40.8033 ], [ -3.6201, 40.803 ], [ -3.62, 40.8029 ], [ -3.6198, 40.803 ], [ -3.6192, 40.8023 ], [ -3.6191, 40.8021 ], [ -3.6192, 40.8017 ], [ -3.6187, 40.8013 ], [ -3.6187, 40.8009 ], [ -3.619, 40.8007 ], [ -3.619, 40.8005 ], [ -3.6187, 40.8003 ], [ -3.618, 40.8005 ], [ -3.6175, 40.8009 ], [ -3.6168, 40.8012 ], [ -3.6168, 40.8013 ], [ -3.6166, 40.8008 ], [ -3.6165, 40.8007 ], [ -3.6163, 40.8005 ], [ -3.6162, 40.8002 ], [ -3.6163, 40.7998 ], [ -3.6166, 40.7998 ], [ -3.6166, 40.7997 ], [ -3.6163, 40.7996 ], [ -3.6161, 40.7998 ], [ -3.6161, 40.8002 ], [ -3.6163, 40.8006 ], [ -3.6165, 40.8007 ] ] ] } },
{ "type": "Feature", "properties": { "municipio": "Venturada", "clasificacion": "no-urbanizable-protegido", "calificacion": "sin-asignar", "version": "vigente", "fuente": "SIT-CAM WFS — UsoDelSuelo:VPLA_V_CLASIFICACION (https://idem.comunidad.madrid/geosrvg/ows)", "fecha_dato": "2026-05-12", "ambito": "34385", "_raw_CD_SIGLAS": "SNUP_A", "_raw_DS_CLASIF_GEN": "Suelo No Urbanizable Protegido (APLAZADO)", "_raw_DS_CLASIF_DET": "Suelo Especialmente Protegido de Vías Pecuarias ", "_raw_DS_DOCU": "NORMAS SUBSIDIARIAS", "_raw_DS_LEY": "CM Ley 9/1995, E RDL 1/1992", "_raw_FC_AC": "1997-12-04", "_raw_NM_AREA_M2": 189844.04449256201, "_cam_code": "169" }, "geometry": { "type": "Polygon", "coordinates": [ [ [ -3.6041, 40.8043 ], [ -3.6048, 40.805 ], [ -3.6059, 40.8046 ], [ -3.6075, 40.8037 ], [ -3.6084, 40.8029 ], [ -3.6087, 40.8023 ], [ -3.6091, 40.8021 ], [ -3.6096, 40.8016 ], [ -3.611, 40.8008 ], [ -3.6125, 40.7996 ], [ -3.6131, 40.7989 ], [ -3.6133, 40.7977 ], [ -3.6139, 40.7969 ], [ -3.6153, 40.7956 ], [ -3.6154, 40.7954 ], [ -3.6154, 40.7943 ], [ -3.6153, 40.7941 ], [ -3.6154, 40.7935 ], [ -3.6149, 40.7926 ], [ -3.6147, 40.7917 ], [ -3.6152, 40.7897 ], [ -3.6152, 40.7883 ], [ -3.6155, 40.788 ], [ -3.6152, 40.7858 ], [ -3.6164, 40.786 ], [ -3.6176, 40.786 ], [ -3.6186, 40.7858 ], [ -3.6204, 40.785 ], [ -3.6226, 40.7838 ], [ -3.623, 40.7834 ], [ -3.6238, 40.7831 ], [ -3.6238, 40.783 ], [ -3.6257, 40.7821 ], [ -3.6257, 40.782 ], [ -3.624, 40.7828 ], [ -3.6237, 40.7828 ], [ -3.6204, 40.7847 ], [ -3.6182, 40.7857 ], [ -3.6161, 40.7858 ], [ -3.6147, 40.7854 ], [ -3.6146, 40.7854 ], [ -3.6144, 40.7854 ], [ -3.6143, 40.7854 ], [ -3.6142, 40.7854 ], [ -3.614, 40.7854 ], [ -3.6139, 40.7854 ], [ -3.6131, 40.7854 ], [ -3.6123, 40.7855 ], [ -3.6102, 40.7859 ], [ -3.6079, 40.7868 ], [ -3.6077, 40.7872 ], [ -3.605, 40.7879 ], [ -3.6037, 40.7884 ], [ -3.6022, 40.7895 ], [ -3.6001, 40.7907 ], [ -3.5999, 40.791 ], [ -3.5999, 40.7916 ], [ -3.599, 40.7926 ], [ -3.5972, 40.7936 ], [ -3.5953, 40.7942 ], [ -3.5948, 40.7945 ], [ -3.5944, 40.7955 ], [ -3.5937, 40.7967 ], [ -3.5936, 40.7972 ], [ -3.5936, 40.7984 ], [ -3.5939, 40.8001 ], [ -3.5938, 40.8011 ], [ -3.5945, 40.8016 ], [ -3.5953, 40.8019 ], [ -3.5967, 40.8021 ], [ -3.5996, 40.802 ], [ -3.6006, 40.8021 ], [ -3.6019, 40.8027 ], [ -3.6032, 40.8031 ], [ -3.6039, 40.8037 ], [ -3.6041, 40.8043 ] ], [ [ -3.615, 40.7859 ], [ -3.6149, 40.787 ], [ -3.6151, 40.7879 ], [ -3.6148, 40.7881 ], [ -3.6148, 40.7898 ], [ -3.6146, 40.7908 ], [ -3.6144, 40.7911 ], [ -3.6144, 40.7916 ], [ -3.6146, 40.7927 ], [ -3.6149, 40.7934 ], [ -3.6151, 40.7935 ], [ -3.615, 40.7945 ], [ -3.6152, 40.7949 ], [ -3.6151, 40.7954 ], [ -3.6137, 40.7967 ], [ -3.613, 40.7976 ], [ -3.6128, 40.7986 ], [ -3.6126, 40.799 ], [ -3.6112, 40.8003 ], [ -3.609, 40.8018 ], [ -3.6088, 40.8018 ], [ -3.6078, 40.8031 ], [ -3.6071, 40.8036 ], [ -3.6061, 40.8042 ], [ -3.6049, 40.8046 ], [ -3.6043, 40.8041 ], [ -3.6041, 40.8037 ], [ -3.6032, 40.803 ], [ -3.6019, 40.8026 ], [ -3.6011, 40.8021 ], [ -3.5997, 40.8018 ], [ -3.598, 40.8019 ], [ -3.5955, 40.8018 ], [ -3.5946, 40.8014 ], [ -3.594, 40.8007 ], [ -3.5941, 40.7994 ], [ -3.5938, 40.7986 ], [ -3.5938, 40.7979 ], [ -3.5939, 40.7974 ], [ -3.594, 40.7974 ], [ -3.5939, 40.7968 ], [ -3.5941, 40.7966 ], [ -3.5944, 40.7958 ], [ -3.5947, 40.7955 ], [ -3.595, 40.7947 ], [ -3.5953, 40.7945 ], [ -3.5977, 40.7937 ], [ -3.5981, 40.7934 ], [ -3.5985, 40.7933 ], [ -3.5987, 40.793 ], [ -3.5993, 40.7929 ], [ -3.5996, 40.7925 ], [ -3.5997, 40.7921 ], [ -3.6006, 40.7914 ], [ -3.6005, 40.7909 ], [ -3.6008, 40.7905 ], [ -3.6011, 40.7905 ], [ -3.6015, 40.7902 ], [ -3.602, 40.7901 ], [ -3.6021, 40.7899 ], [ -3.6028, 40.7896 ], [ -3.6035, 40.7889 ], [ -3.6041, 40.7885 ], [ -3.6063, 40.7878 ], [ -3.608, 40.7876 ], [ -3.6084, 40.7873 ], [ -3.6085, 40.787 ], [ -3.6091, 40.7864 ], [ -3.6102, 40.786 ], [ -3.6121, 40.7856 ], [ -3.6139, 40.7854 ], [ -3.6147, 40.7855 ], [ -3.6149, 40.7856 ], [ -3.615, 40.7859 ] ] ] } },
{ "type": "Feature", "properties": { "municipio": "Venturada", "clasificacion": "no-urbanizable-protegido", "calificacion": "sin-asignar", "version": "vigente", "fuente": "SIT-CAM WFS — UsoDelSuelo:VPLA_V_CLASIFICACION (https://idem.comunidad.madrid/geosrvg/ows)", "fecha_dato": "2026-05-12", "ambito": "34385", "_raw_CD_SIGLAS": "SNUP_A", "_raw_DS_CLASIF_GEN": "Suelo No Urbanizable Protegido (APLAZADO)", "_raw_DS_CLASIF_DET": "Suelo Especialmente Protegido de Vías Pecuarias ", "_raw_DS_DOCU": "NORMAS SUBSIDIARIAS", "_raw_DS_LEY": "CM Ley 9/1995, E RDL 1/1992", "_raw_FC_AC": "1997-12-04", "_raw_NM_AREA_M2": 135864.03504781501, "_cam_code": "169" }, "geometry": { "type": "Polygon", "coordinates": [ [ [ -3.635, 40.8024 ], [ -3.6358, 40.8024 ], [ -3.6361, 40.8027 ], [ -3.6364, 40.8038 ], [ -3.6357, 40.8041 ], [ -3.6358, 40.8042 ], [ -3.636, 40.8061 ], [ -3.6364, 40.8072 ], [ -3.6373, 40.8089 ], [ -3.6386, 40.8104 ], [ -3.6391, 40.8112 ], [ -3.6394, 40.811 ], [ -3.6393, 40.8107 ], [ -3.6378, 40.8092 ], [ -3.6373, 40.8085 ], [ -3.6365, 40.8067 ], [ -3.636, 40.8045 ], [ -3.636, 40.8043 ], [ -3.6366, 40.8038 ], [ -3.6366, 40.8034 ], [ -3.6363, 40.8028 ], [ -3.6365, 40.8022 ], [ -3.6369, 40.8017 ], [ -3.6394, 40.8004 ], [ -3.6404, 40.8014 ], [ -3.6414, 40.8015 ], [ -3.6421, 40.8014 ], [ -3.6429, 40.8015 ], [ -3.6433, 40.8017 ], [ -3.644, 40.8017 ], [ -3.6446, 40.8013 ], [ -3.6456, 40.8011 ], [ -3.646, 40.8008 ], [ -3.6453, 40.8011 ], [ -3.6448, 40.8011 ], [ -3.6439, 40.8016 ], [ -3.6419, 40.8013 ], [ -3.6404, 40.8013 ], [ -3.6399, 40.8007 ], [ -3.6399, 40.8006 ], [ -3.6401, 40.8006 ], [ -3.6394, 40.7999 ], [ -3.6383, 40.7981 ], [ -3.6395, 40.798 ], [ -3.6415, 40.7974 ], [ -3.6424, 40.7973 ], [ -3.6424, 40.7972 ], [ -3.6427, 40.7972 ], [ -3.6442, 40.7977 ], [ -3.6451, 40.7972 ], [ -3.6456, 40.7971 ], [ -3.6456, 40.7969 ], [ -3.6451, 40.7969 ], [ -3.6442, 40.7974 ], [ -3.6431, 40.797 ], [ -3.642, 40.797 ], [ -3.6408, 40.7973 ], [ -3.6395, 40.7978 ], [ -3.6383, 40.7979 ], [ -3.6374, 40.7974 ], [ -3.6363, 40.797 ], [ -3.6353, 40.7964 ], [ -3.6346, 40.7964 ], [ -3.6343, 40.7961 ], [ -3.6342, 40.7958 ], [ -3.6338, 40.7955 ], [ -3.6332, 40.7954 ], [ -3.6327, 40.7956 ], [ -3.6316, 40.7955 ], [ -3.6315, 40.7954 ], [ -3.6299, 40.7951 ], [ -3.6295, 40.7946 ], [ -3.6285, 40.7946 ], [ -3.6285, 40.7945 ], [ -3.628, 40.7943 ], [ -3.6279, 40.7943 ], [ -3.6279, 40.7943 ], [ -3.6277, 40.7943 ], [ -3.6276, 40.7943 ], [ -3.6275, 40.7943 ], [ -3.6274, 40.7943 ], [ -3.6269, 40.7943 ], [ -3.626, 40.7947 ], [ -3.6255, 40.7947 ], [ -3.6249, 40.7949 ], [ -3.6238, 40.7956 ], [ -3.6228, 40.7958 ], [ -3.6219, 40.7963 ], [ -3.6218, 40.7965 ], [ -3.6216, 40.7965 ], [ -3.6214, 40.796 ], [ -3.6211, 40.7957 ], [ -3.6211, 40.7955 ], [ -3.6212, 40.7955 ], [ -3.6213, 40.7951 ], [ -3.6219, 40.7945 ], [ -3.6219, 40.7943 ], [ -3.6227, 40.7937 ], [ -3.6229, 40.7933 ], [ -3.6233, 40.7931 ], [ -3.6234, 40.793 ], [ -3.6235, 40.7929 ], [ -3.6239, 40.7926 ], [ -3.6244, 40.7923 ], [ -3.6245, 40.7922 ], [ -3.6246, 40.7922 ], [ -3.6246, 40.7921 ], [ -3.6247, 40.7921 ], [ -3.6248, 40.792 ], [ -3.6249, 40.792 ], [ -3.6249, 40.7919 ], [ -3.6251, 40.7918 ], [ -3.6254, 40.7915 ], [ -3.6254, 40.7914 ], [ -3.6255, 40.7914 ], [ -3.6256, 40.7914 ], [ -3.6257, 40.7912 ], [ -3.6258, 40.7912 ], [ -3.626, 40.7911 ], [ -3.6262, 40.7909 ], [ -3.6264, 40.7908 ], [ -3.6266, 40.7908 ], [ -3.6268, 40.7907 ], [ -3.6268, 40.7906 ], [ -3.6269, 40.7906 ], [ -3.627, 40.7905 ], [ -3.6272, 40.7905 ], [ -3.6274, 40.7903 ], [ -3.6275, 40.7902 ], [ -3.6278, 40.79 ], [ -3.6279, 40.79 ], [ -3.6289, 40.7894 ], [ -3.6293, 40.789 ], [ -3.6296, 40.7889 ], [ -3.6296, 40.7888 ], [ -3.6297, 40.7888 ], [ -3.6297, 40.7887 ], [ -3.6298, 40.7886 ], [ -3.6299, 40.7886 ], [ -3.6302, 40.7884 ], [ -3.6302, 40.7883 ], [ -3.6298, 40.7886 ], [ -3.6298, 40.7887 ], [ -3.6297, 40.7887 ], [ -3.6297, 40.7888 ], [ -3.6296, 40.7888 ], [ -3.6295, 40.7889 ], [ -3.6294, 40.7889 ], [ -3.6287, 40.7895 ], [ -3.6279, 40.7899 ], [ -3.6279, 40.79 ], [ -3.6276, 40.7902 ], [ -3.6275, 40.7902 ], [ -3.6271, 40.7904 ], [ -3.6271, 40.7905 ], [ -3.6269, 40.7906 ], [ -3.6267, 40.7906 ], [ -3.6266, 40.7908 ], [ -3.6264, 40.7908 ], [ -3.6258, 40.7911 ], [ -3.6258, 40.7912 ], [ -3.6257, 40.7912 ], [ -3.6256, 40.7913 ], [ -3.6255, 40.7913 ], [ -3.6255, 40.7914 ], [ -3.6254, 40.7915 ], [ -3.6249, 40.7918 ], [ -3.6247, 40.7921 ], [ -3.6246, 40.7921 ], [ -3.6245, 40.7921 ], [ -3.6244, 40.7923 ], [ -3.6234, 40.793 ], [ -3.623, 40.7931 ], [ -3.6227, 40.7936 ], [ -3.6218, 40.7943 ], [ -3.6212, 40.7951 ], [ -3.6209, 40.7958 ], [ -3.6215, 40.7967 ], [ -3.6218, 40.7966 ], [ -3.6221, 40.7962 ], [ -3.6223, 40.7962 ], [ -3.6225, 40.796 ], [ -3.623, 40.7958 ], [ -3.6234, 40.7958 ], [ -3.6234, 40.7957 ], [ -3.624, 40.7957 ], [ -3.624, 40.7956 ], [ -3.625, 40.795 ], [ -3.6261, 40.7948 ], [ -3.6266, 40.7945 ], [ -3.6274, 40.7943 ], [ -3.628, 40.7944 ], [ -3.6284, 40.7947 ], [ -3.6295, 40.7947 ], [ -3.6299, 40.7952 ], [ -3.6308, 40.7953 ], [ -3.6313, 40.7955 ], [ -3.6325, 40.7957 ], [ -3.6334, 40.7955 ], [ -3.6335, 40.796 ], [ -3.6342, 40.7966 ], [ -3.6348, 40.7967 ], [ -3.6351, 40.7971 ], [ -3.6354, 40.7972 ], [ -3.635, 40.7965 ], [ -3.6353, 40.7966 ], [ -3.6377, 40.798 ], [ -3.6389, 40.7997 ], [ -3.6391, 40.8003 ], [ -3.6371, 40.8014 ], [ -3.6366, 40.801 ], [ -3.6363, 40.8015 ], [ -3.6361, 40.8016 ], [ -3.6358, 40.8023 ], [ -3.6344, 40.8023 ], [ -3.633, 40.8021 ], [ -3.633, 40.802 ], [ -3.6317, 40.8018 ], [ -3.6314, 40.8017 ], [ -3.6303, 40.8015 ], [ -3.6291, 40.8011 ], [ -3.6287, 40.801 ], [ -3.6285, 40.801 ], [ -3.6284, 40.801 ], [ -3.6295, 40.8014 ], [ -3.6299, 40.8014 ], [ -3.6302, 40.8015 ], [ -3.6304, 40.8015 ], [ -3.6304, 40.8016 ], [ -3.6334, 40.8022 ], [ -3.6339, 40.8024 ], [ -3.6323, 40.8024 ], [ -3.6322, 40.8025 ], [ -3.632, 40.8023 ], [ -3.6315, 40.8023 ], [ -3.6307, 40.8024 ], [ -3.6301, 40.8028 ], [ -3.6289, 40.8025 ], [ -3.6283, 40.8022 ], [ -3.6278, 40.8022 ], [ -3.6266, 40.8027 ], [ -3.6268, 40.8029 ], [ -3.6275, 40.8025 ], [ -3.6282, 40.8024 ], [ -3.6301, 40.803 ], [ -3.6304, 40.8027 ], [ -3.6318, 40.8024 ], [ -3.6324, 40.8027 ], [ -3.6332, 40.8026 ], [ -3.6336, 40.803 ], [ -3.6338, 40.803 ], [ -3.6343, 40.8029 ], [ -3.6345, 40.8026 ], [ -3.635, 40.8024 ] ] ] } },
{ "type": "Feature", "properties": { "municipio": "Venturada", "clasificacion": "urbano-consolidado", "calificacion": "sin-asignar", "version": "vigente", "fuente": "SIT-CAM WFS — UsoDelSuelo:VPLA_V_CLASIFICACION (https://idem.comunidad.madrid/geosrvg/ows)", "fecha_dato": "2026-05-12", "ambito": "34385", "_raw_CD_SIGLAS": "SU", "_raw_DS_CLASIF_GEN": "Suelo Urbano", "_raw_DS_CLASIF_DET": "Suelo Urbano", "_raw_DS_DOCU": "NORMAS SUBSIDIARIAS", "_raw_DS_LEY": "CM Ley 9/1995, E RDL 1/1992", "_raw_FC_AC": "1997-12-04", "_raw_NM_AREA_M2": 446261.00620842702, "_cam_code": "169" }, "geometry": { "type": "Polygon", "coordinates": [ [ [ -3.6248, 40.8058 ], [ -3.6249, 40.8083 ], [ -3.6253, 40.8085 ], [ -3.6254, 40.8069 ], [ -3.6257, 40.8069 ], [ -3.6258, 40.8063 ], [ -3.6259, 40.804 ], [ -3.6256, 40.804 ], [ -3.6257, 40.8033 ], [ -3.6259, 40.803 ], [ -3.6278, 40.8022 ], [ -3.6283, 40.8022 ], [ -3.6289, 40.8025 ], [ -3.6301, 40.8028 ], [ -3.6307, 40.8024 ], [ -3.6315, 40.8023 ], [ -3.632, 40.8023 ], [ -3.6322, 40.8025 ], [ -3.6323, 40.8024 ], [ -3.6325, 40.8024 ], [ -3.6325, 40.8024 ], [ -3.6328, 40.8024 ], [ -3.6329, 40.8024 ], [ -3.633, 40.8024 ], [ -3.6332, 40.8024 ], [ -3.6332, 40.8024 ], [ -3.6332, 40.8024 ], [ -3.6334, 40.8024 ], [ -3.6339, 40.8024 ], [ -3.6285, 40.8011 ], [ -3.6284, 40.801 ], [ -3.6284, 40.801 ], [ -3.6285, 40.801 ], [ -3.6285, 40.801 ], [ -3.6287, 40.801 ], [ -3.6291, 40.8011 ], [ -3.6303, 40.8015 ], [ -3.6317, 40.8018 ], [ -3.6318, 40.8018 ], [ -3.6319, 40.8018 ], [ -3.633, 40.802 ], [ -3.633, 40.8021 ], [ -3.633, 40.8021 ], [ -3.6286, 40.801 ], [ -3.6285, 40.8009 ], [ -3.6286, 40.8009 ], [ -3.6286, 40.8007 ], [ -3.6293, 40.8002 ], [ -3.6277, 40.7995 ], [ -3.6275, 40.8 ], [ -3.627, 40.8 ], [ -3.6269, 40.7997 ], [ -3.6262, 40.7997 ], [ -3.6262, 40.7988 ], [ -3.6258, 40.7985 ], [ -3.6258, 40.7983 ], [ -3.6253, 40.7978 ], [ -3.625, 40.7977 ], [ -3.6247, 40.7981 ], [ -3.6245, 40.798 ], [ -3.624, 40.7981 ], [ -3.6239, 40.7977 ], [ -3.6242, 40.7977 ], [ -3.6245, 40.7975 ], [ -3.6242, 40.797 ], [ -3.6239, 40.7972 ], [ -3.6238, 40.7975 ], [ -3.6232, 40.7975 ], [ -3.6231, 40.797 ], [ -3.6227, 40.7967 ], [ -3.6227, 40.7968 ], [ -3.6227, 40.7967 ], [ -3.6228, 40.7966 ], [ -3.6232, 40.7963 ], [ -3.6232, 40.7962 ], [ -3.6234, 40.7961 ], [ -3.6233, 40.7958 ], [ -3.623, 40.7958 ], [ -3.6223, 40.7961 ], [ -3.6223, 40.7962 ], [ -3.6221, 40.7962 ], [ -3.6218, 40.7966 ], [ -3.6213, 40.7967 ], [ -3.6211, 40.7964 ], [ -3.6209, 40.7964 ], [ -3.6202, 40.7967 ], [ -3.6203, 40.797 ], [ -3.62, 40.7972 ], [ -3.6194, 40.7972 ], [ -3.6192, 40.7974 ], [ -3.6191, 40.7981 ], [ -3.6196, 40.7986 ], [ -3.619, 40.799 ], [ -3.618, 40.799 ], [ -3.6169, 40.7994 ], [ -3.6166, 40.7996 ], [ -3.6166, 40.8001 ], [ -3.6174, 40.8003 ], [ -3.6174, 40.8002 ], [ -3.6181, 40.8001 ], [ -3.6181, 40.8 ], [ -3.6188, 40.8 ], [ -3.6188, 40.7999 ], [ -3.6194, 40.7997 ], [ -3.6198, 40.7997 ], [ -3.6198, 40.7998 ], [ -3.6202, 40.7998 ], [ -3.6202, 40.8 ], [ -3.6208, 40.8003 ], [ -3.6209, 40.8002 ], [ -3.6218, 40.8004 ], [ -3.6219, 40.8002 ], [ -3.6233, 40.8002 ], [ -3.6235, 40.8003 ], [ -3.6231, 40.8013 ], [ -3.6231, 40.8022 ], [ -3.6243, 40.8037 ], [ -3.6246, 40.8044 ], [ -3.6246, 40.8052 ], [ -3.6247, 40.8053 ], [ -3.6254, 40.8053 ], [ -3.6254, 40.8058 ], [ -3.6248, 40.8058 ] ] ] } },
{ "type": "Feature", "properties": { "municipio": "Venturada", "clasificacion": "urbano-consolidado", "calificacion": "sin-asignar", "version": "vigente", "fuente": "SIT-CAM WFS — UsoDelSuelo:VPLA_V_CLASIFICACION (https://idem.comunidad.madrid/geosrvg/ows)", "fecha_dato": "2026-05-12", "ambito": "34385", "_raw_CD_SIGLAS": "SU", "_raw_DS_CLASIF_GEN": "Suelo Urbano", "_raw_DS_CLASIF_DET": "Suelo Urbano", "_raw_DS_DOCU": "NORMAS SUBSIDIARIAS", "_raw_DS_LEY": "CM Ley 9/1995, E RDL 1/1992", "_raw_FC_AC": "1997-12-04", "_raw_NM_AREA_M2": 16857.010033308099, "_cam_code": "169" }, "geometry": { "type": "Polygon", "coordinates": [ [ [ -3.6279, 40.7945 ], [ -3.6283, 40.7955 ], [ -3.6284, 40.796 ], [ -3.6289, 40.7963 ], [ -3.6288, 40.796 ], [ -3.6293, 40.7955 ], [ -3.6299, 40.7952 ], [ -3.6295, 40.7947 ], [ -3.6284, 40.7947 ], [ -3.628, 40.7944 ], [ -3.6278, 40.7944 ], [ -3.6278, 40.7943 ], [ -3.6278, 40.7943 ], [ -3.6278, 40.7944 ], [ -3.6278, 40.7945 ], [ -3.6279, 40.7945 ] ] ] } },
{ "type": "Feature", "properties": { "municipio": "Venturada", "clasificacion": "urbano-consolidado", "calificacion": "sin-asignar", "version": "vigente", "fuente": "SIT-CAM WFS — UsoDelSuelo:VPLA_V_CLASIFICACION (https://idem.comunidad.madrid/geosrvg/ows)", "fecha_dato": "2026-05-12", "ambito": "34385", "_raw_CD_SIGLAS": "SU", "_raw_DS_CLASIF_GEN": "Suelo Urbano", "_raw_DS_CLASIF_DET": "Suelo Urbano", "_raw_DS_DOCU": "NORMAS SUBSIDIARIAS", "_raw_DS_LEY": "CM Ley 9/1995, E RDL 1/1992", "_raw_FC_AC": "1997-12-04", "_raw_NM_AREA_M2": 1886975.60762066, "_cam_code": "169" }, "geometry": { "type": "Polygon", "coordinates": [ [ [ -3.6018, 40.8025 ], [ -3.6032, 40.803 ], [ -3.604, 40.8037 ], [ -3.6044, 40.8034 ], [ -3.6043, 40.8031 ], [ -3.6046, 40.8023 ], [ -3.6063, 40.8027 ], [ -3.6069, 40.8025 ], [ -3.6072, 40.802 ], [ -3.6069, 40.8009 ], [ -3.6071, 40.8008 ], [ -3.607, 40.7994 ], [ -3.6105, 40.7977 ], [ -3.6124, 40.7963 ], [ -3.6111, 40.7955 ], [ -3.6123, 40.7947 ], [ -3.6125, 40.7942 ], [ -3.6108, 40.7931 ], [ -3.6116, 40.7925 ], [ -3.612, 40.7925 ], [ -3.613, 40.7922 ], [ -3.613, 40.7921 ], [ -3.614, 40.7917 ], [ -3.6144, 40.7913 ], [ -3.6145, 40.7909 ], [ -3.6144, 40.7909 ], [ -3.6142, 40.7902 ], [ -3.6135, 40.7897 ], [ -3.613, 40.7886 ], [ -3.6132, 40.7875 ], [ -3.6125, 40.7874 ], [ -3.6125, 40.7873 ], [ -3.6105, 40.7873 ], [ -3.6104, 40.7872 ], [ -3.6063, 40.7878 ], [ -3.6041, 40.7885 ], [ -3.6035, 40.7889 ], [ -3.6028, 40.7896 ], [ -3.6021, 40.7899 ], [ -3.602, 40.7901 ], [ -3.6015, 40.7902 ], [ -3.6011, 40.7905 ], [ -3.6008, 40.7905 ], [ -3.6005, 40.7909 ], [ -3.6006, 40.7914 ], [ -3.5997, 40.7921 ], [ -3.5996, 40.7925 ], [ -3.5993, 40.7929 ], [ -3.5987, 40.793 ], [ -3.5985, 40.7933 ], [ -3.5981, 40.7934 ], [ -3.5977, 40.7937 ], [ -3.5953, 40.7945 ], [ -3.595, 40.7947 ], [ -3.5947, 40.7955 ], [ -3.5944, 40.7958 ], [ -3.5941, 40.7966 ], [ -3.5939, 40.7968 ], [ -3.594, 40.7974 ], [ -3.5939, 40.7974 ], [ -3.5938, 40.7979 ], [ -3.5938, 40.7986 ], [ -3.5941, 40.7994 ], [ -3.594, 40.8007 ], [ -3.5944, 40.8012 ], [ -3.5949, 40.8016 ], [ -3.5955, 40.8018 ], [ -3.5962, 40.8018 ], [ -3.5963, 40.8019 ], [ -3.5997, 40.8018 ], [ -3.6011, 40.8021 ], [ -3.6018, 40.8025 ] ] ] } },
{ "type": "Feature", "properties": { "municipio": "Venturada", "clasificacion": "urbanizable-no-sectorizado", "calificacion": "sin-asignar", "version": "vigente", "fuente": "SIT-CAM WFS — UsoDelSuelo:VPLA_V_CLASIFICACION (https://idem.comunidad.madrid/geosrvg/ows)", "fecha_dato": "2026-05-12", "ambito": "34385", "_raw_CD_SIGLAS": "SUBNS", "_raw_DS_CLASIF_GEN": "Suelo No Urbanizable Común", "_raw_DS_CLASIF_DET": "Suelo No Urbanizable Común", "_raw_DS_DOCU": "NORMAS SUBSIDIARIAS", "_raw_DS_LEY": "CM Ley 9/1995, E RDL 1/1992", "_raw_FC_AC": "1997-12-04", "_raw_NM_AREA_M2": 1919.0794054780199, "_cam_code": "169" }, "geometry": { "type": "Polygon", "coordinates": [ [ [ -3.616, 40.7855 ], [ -3.6153, 40.7855 ], [ -3.6147, 40.7854 ], [ -3.6146, 40.7854 ], [ -3.6162, 40.7858 ], [ -3.616, 40.7855 ] ] ] } },
{ "type": "Feature", "properties": { "municipio": "Venturada", "clasificacion": "urbanizable-no-sectorizado", "calificacion": "sin-asignar", "version": "vigente", "fuente": "SIT-CAM WFS — UsoDelSuelo:VPLA_V_CLASIFICACION (https://idem.comunidad.madrid/geosrvg/ows)", "fecha_dato": "2026-05-12", "ambito": "34385", "_raw_CD_SIGLAS": "SUBNS", "_raw_DS_CLASIF_GEN": "Suelo No Urbanizable Común", "_raw_DS_CLASIF_DET": "Suelo No Urbanizable Común", "_raw_DS_DOCU": "NORMAS SUBSIDIARIAS", "_raw_DS_LEY": "CM Ley 9/1995, E RDL 1/1992", "_raw_FC_AC": "1997-12-04", "_raw_NM_AREA_M2": 6452.3406380246897, "_cam_code": "169" }, "geometry": { "type": "Polygon", "coordinates": [ [ [ -3.6081, 40.7867 ], [ -3.6078, 40.7867 ], [ -3.6047, 40.788 ], [ -3.6077, 40.7872 ], [ -3.6079, 40.7868 ], [ -3.6081, 40.7867 ] ] ] } },
{ "type": "Feature", "properties": { "municipio": "Venturada", "clasificacion": "urbanizable-no-sectorizado", "calificacion": "sin-asignar", "version": "vigente", "fuente": "SIT-CAM WFS — UsoDelSuelo:VPLA_V_CLASIFICACION (https://idem.comunidad.madrid/geosrvg/ows)", "fecha_dato": "2026-05-12", "ambito": "34385", "_raw_CD_SIGLAS": "SUBNS", "_raw_DS_CLASIF_GEN": "Suelo No Urbanizable Común", "_raw_DS_CLASIF_DET": "Suelo No Urbanizable Común", "_raw_DS_DOCU": "NORMAS SUBSIDIARIAS", "_raw_DS_LEY": "CM Ley 9/1995, E RDL 1/1992", "_raw_FC_AC": "1997-12-04", "_raw_NM_AREA_M2": 98290.721434705803, "_cam_code": "169" }, "geometry": { "type": "Polygon", "coordinates": [ [ [ -3.6114, 40.7873 ], [ -3.6125, 40.7873 ], [ -3.6125, 40.7874 ], [ -3.614, 40.7876 ], [ -3.6146, 40.7882 ], [ -3.6151, 40.7879 ], [ -3.6149, 40.787 ], [ -3.615, 40.7859 ], [ -3.6149, 40.7856 ], [ -3.6139, 40.7854 ], [ -3.6121, 40.7856 ], [ -3.6102, 40.786 ], [ -3.6091, 40.7864 ], [ -3.6085, 40.787 ], [ -3.6084, 40.7873 ], [ -3.6081, 40.7875 ], [ -3.6088, 40.7875 ], [ -3.6104, 40.7872 ], [ -3.6105, 40.7873 ], [ -3.6114, 40.7873 ] ] ] } },
{ "type": "Feature", "properties": { "municipio": "Venturada", "clasificacion": "urbanizable-no-sectorizado", "calificacion": "sin-asignar", "version": "vigente", "fuente": "SIT-CAM WFS — UsoDelSuelo:VPLA_V_CLASIFICACION (https://idem.comunidad.madrid/geosrvg/ows)", "fecha_dato": "2026-05-12", "ambito": "34385", "_raw_CD_SIGLAS": "SUBNS", "_raw_DS_CLASIF_GEN": "Suelo No Urbanizable Común", "_raw_DS_CLASIF_DET": "Suelo No Urbanizable Común", "_raw_DS_DOCU": "NORMAS SUBSIDIARIAS", "_raw_DS_LEY": "CM Ley 9/1995, E RDL 1/1992", "_raw_FC_AC": "1997-12-04", "_raw_NM_AREA_M2": 235005.358658399, "_cam_code": "169" }, "geometry": { "type": "Polygon", "coordinates": [ [ [ -3.6294, 40.7946 ], [ -3.6299, 40.7951 ], [ -3.6316, 40.7955 ], [ -3.6321, 40.7955 ], [ -3.6319, 40.7939 ], [ -3.6315, 40.7938 ], [ -3.631, 40.7933 ], [ -3.6304, 40.793 ], [ -3.6308, 40.7927 ], [ -3.6301, 40.792 ], [ -3.6304, 40.7918 ], [ -3.6281, 40.79 ], [ -3.6278, 40.79 ], [ -3.6272, 40.7905 ], [ -3.6262, 40.7909 ], [ -3.6257, 40.7912 ], [ -3.6256, 40.7914 ], [ -3.6254, 40.7914 ], [ -3.6249, 40.792 ], [ -3.6246, 40.7921 ], [ -3.6245, 40.7922 ], [ -3.6256, 40.793 ], [ -3.6239, 40.7938 ], [ -3.6235, 40.7942 ], [ -3.624, 40.7946 ], [ -3.6238, 40.7949 ], [ -3.6242, 40.7953 ], [ -3.6249, 40.7949 ], [ -3.6255, 40.7947 ], [ -3.626, 40.7947 ], [ -3.6269, 40.7943 ], [ -3.628, 40.7943 ], [ -3.6285, 40.7945 ], [ -3.6285, 40.7946 ], [ -3.6294, 40.7946 ] ] ] } },
{ "type": "Feature", "properties": { "municipio": "Venturada", "clasificacion": "urbanizable-no-sectorizado", "calificacion": "sin-asignar", "version": "vigente", "fuente": "SIT-CAM WFS — UsoDelSuelo:VPLA_V_CLASIFICACION (https://idem.comunidad.madrid/geosrvg/ows)", "fecha_dato": "2026-05-12", "ambito": "34385", "_raw_CD_SIGLAS": "SUBNS", "_raw_DS_CLASIF_GEN": "Suelo No Urbanizable Común", "_raw_DS_CLASIF_DET": "Suelo No Urbanizable Común", "_raw_DS_DOCU": "NORMAS SUBSIDIARIAS", "_raw_DS_LEY": "CM Ley 9/1995, E RDL 1/1992", "_raw_FC_AC": "1997-12-04", "_raw_NM_AREA_M2": 131346.928997499, "_cam_code": "169" }, "geometry": { "type": "Polygon", "coordinates": [ [ [ -3.5959, 40.791 ], [ -3.5945, 40.7936 ], [ -3.5935, 40.7972 ], [ -3.5936, 40.7979 ], [ -3.5937, 40.7967 ], [ -3.5944, 40.7955 ], [ -3.5948, 40.7945 ], [ -3.5953, 40.7942 ], [ -3.5972, 40.7936 ], [ -3.599, 40.7926 ], [ -3.5999, 40.7916 ], [ -3.5999, 40.791 ], [ -3.6001, 40.7907 ], [ -3.6022, 40.7895 ], [ -3.6037, 40.7884 ], [ -3.6043, 40.7882 ], [ -3.6042, 40.7882 ], [ -3.6031, 40.7886 ], [ -3.6019, 40.7891 ], [ -3.6011, 40.7897 ], [ -3.599, 40.7908 ], [ -3.5983, 40.7909 ], [ -3.5979, 40.7911 ], [ -3.5972, 40.791 ], [ -3.5959, 40.791 ] ] ] } },
{ "type": "Feature", "properties": { "municipio": "Venturada", "clasificacion": "urbanizable-no-sectorizado", "calificacion": "sin-asignar", "version": "vigente", "fuente": "SIT-CAM WFS — UsoDelSuelo:VPLA_V_CLASIFICACION (https://idem.comunidad.madrid/geosrvg/ows)", "fecha_dato": "2026-05-12", "ambito": "34385", "_raw_CD_SIGLAS": "SUBNS", "_raw_DS_CLASIF_GEN": "Suelo No Urbanizable Común", "_raw_DS_CLASIF_DET": "Suelo No Urbanizable Común", "_raw_DS_DOCU": "NORMAS SUBSIDIARIAS", "_raw_DS_LEY": "CM Ley 9/1995, E RDL 1/1992", "_raw_FC_AC": "1997-12-04", "_raw_NM_AREA_M2": 679637.31336558994, "_cam_code": "169" }, "geometry": { "type": "Polygon", "coordinates": [ [ [ -3.6162, 40.8015 ], [ -3.6162, 40.8016 ], [ -3.6164, 40.8016 ], [ -3.6165, 40.8015 ], [ -3.6164, 40.8015 ], [ -3.6164, 40.8013 ], [ -3.6166, 40.8012 ], [ -3.6165, 40.8007 ], [ -3.6163, 40.8006 ], [ -3.6161, 40.8002 ], [ -3.6161, 40.7998 ], [ -3.6163, 40.7996 ], [ -3.6162, 40.7992 ], [ -3.6164, 40.7988 ], [ -3.6163, 40.7983 ], [ -3.6165, 40.7978 ], [ -3.6173, 40.7967 ], [ -3.6201, 40.7957 ], [ -3.62, 40.7958 ], [ -3.6201, 40.7959 ], [ -3.6204, 40.7957 ], [ -3.6209, 40.7964 ], [ -3.6211, 40.7964 ], [ -3.6213, 40.7967 ], [ -3.6215, 40.7967 ], [ -3.6195, 40.7939 ], [ -3.6195, 40.7937 ], [ -3.6194, 40.7937 ], [ -3.6194, 40.7931 ], [ -3.6196, 40.7926 ], [ -3.6196, 40.7919 ], [ -3.6195, 40.7919 ], [ -3.6196, 40.7914 ], [ -3.6221, 40.7898 ], [ -3.6233, 40.7904 ], [ -3.6239, 40.791 ], [ -3.6244, 40.7921 ], [ -3.6247, 40.7921 ], [ -3.6249, 40.7918 ], [ -3.6258, 40.7911 ], [ -3.6266, 40.7908 ], [ -3.6267, 40.7906 ], [ -3.6271, 40.7905 ], [ -3.6271, 40.7904 ], [ -3.6279, 40.79 ], [ -3.6261, 40.7878 ], [ -3.6263, 40.7868 ], [ -3.626, 40.7859 ], [ -3.6251, 40.7853 ], [ -3.6247, 40.7848 ], [ -3.6235, 40.7861 ], [ -3.6228, 40.7864 ], [ -3.6218, 40.7875 ], [ -3.6211, 40.7879 ], [ -3.6204, 40.7885 ], [ -3.6197, 40.7888 ], [ -3.6186, 40.7897 ], [ -3.6184, 40.7897 ], [ -3.6179, 40.7904 ], [ -3.6177, 40.7905 ], [ -3.6174, 40.7904 ], [ -3.6174, 40.7903 ], [ -3.6169, 40.7902 ], [ -3.6163, 40.7894 ], [ -3.6163, 40.7892 ], [ -3.617, 40.7886 ], [ -3.6179, 40.7881 ], [ -3.6179, 40.7877 ], [ -3.6164, 40.786 ], [ -3.6152, 40.7858 ], [ -3.6153, 40.786 ], [ -3.6153, 40.7871 ], [ -3.6155, 40.7878 ], [ -3.6155, 40.788 ], [ -3.6152, 40.7883 ], [ -3.6154, 40.7888 ], [ -3.6153, 40.7892 ], [ -3.6154, 40.7897 ], [ -3.6159, 40.7905 ], [ -3.6166, 40.791 ], [ -3.6165, 40.7913 ], [ -3.616, 40.7915 ], [ -3.6159, 40.7917 ], [ -3.6164, 40.7921 ], [ -3.616, 40.7927 ], [ -3.6155, 40.7929 ], [ -3.6155, 40.793 ], [ -3.6165, 40.7934 ], [ -3.6161, 40.7943 ], [ -3.6156, 40.7974 ], [ -3.615, 40.7983 ], [ -3.6144, 40.7988 ], [ -3.6122, 40.8002 ], [ -3.6122, 40.8009 ], [ -3.612, 40.8014 ], [ -3.613, 40.8011 ], [ -3.6152, 40.8011 ], [ -3.6152, 40.8012 ], [ -3.6155, 40.8012 ], [ -3.6158, 40.8015 ], [ -3.6162, 40.8015 ] ] ] } },
{ "type": "Feature", "properties": { "municipio": "Venturada", "clasificacion": "urbanizable-no-sectorizado", "calificacion": "sin-asignar", "version": "vigente", "fuente": "SIT-CAM WFS — UsoDelSuelo:VPLA_V_CLASIFICACION (https://idem.comunidad.madrid/geosrvg/ows)", "fecha_dato": "2026-05-12", "ambito": "34385", "_raw_CD_SIGLAS": "SUBNS", "_raw_DS_CLASIF_GEN": "Suelo No Urbanizable Común", "_raw_DS_CLASIF_DET": "Suelo No Urbanizable Común", "_raw_DS_DOCU": "NORMAS SUBSIDIARIAS", "_raw_DS_LEY": "CM Ley 9/1995, E RDL 1/1992", "_raw_FC_AC": "1997-12-04", "_raw_NM_AREA_M2": 210836.22074024001, "_cam_code": "169" }, "geometry": { "type": "Polygon", "coordinates": [ [ [ -3.6289, 40.7971 ], [ -3.6295, 40.7976 ], [ -3.6291, 40.7978 ], [ -3.6288, 40.7982 ], [ -3.6299, 40.7989 ], [ -3.6297, 40.7998 ], [ -3.6291, 40.8004 ], [ -3.6287, 40.8006 ], [ -3.6286, 40.8009 ], [ -3.6285, 40.8009 ], [ -3.633, 40.8021 ], [ -3.6332, 40.8004 ], [ -3.633, 40.7986 ], [ -3.6325, 40.7975 ], [ -3.6324, 40.7968 ], [ -3.6322, 40.7966 ], [ -3.6321, 40.7956 ], [ -3.6299, 40.7952 ], [ -3.6293, 40.7955 ], [ -3.6288, 40.796 ], [ -3.6289, 40.7963 ], [ -3.6287, 40.7964 ], [ -3.6286, 40.7969 ], [ -3.6281, 40.7971 ], [ -3.6284, 40.7973 ], [ -3.6289, 40.7971 ] ] ] } },
{ "type": "Feature", "properties": { "municipio": "Venturada", "clasificacion": "urbanizable-no-sectorizado", "calificacion": "sin-asignar", "version": "vigente", "fuente": "SIT-CAM WFS — UsoDelSuelo:VPLA_V_CLASIFICACION (https://idem.comunidad.madrid/geosrvg/ows)", "fecha_dato": "2026-05-12", "ambito": "34385", "_raw_CD_SIGLAS": "SUBNS", "_raw_DS_CLASIF_GEN": "Suelo No Urbanizable Común", "_raw_DS_CLASIF_DET": "Suelo No Urbanizable Común", "_raw_DS_DOCU": "NORMAS SUBSIDIARIAS", "_raw_DS_LEY": "CM Ley 9/1995, E RDL 1/1992", "_raw_FC_AC": "1997-12-04", "_raw_NM_AREA_M2": 95292.967949963204, "_cam_code": "169" }, "geometry": { "type": "Polygon", "coordinates": [ [ [ -3.6206, 40.802 ], [ -3.6213, 40.8024 ], [ -3.6227, 40.8038 ], [ -3.6227, 40.804 ], [ -3.6228, 40.804 ], [ -3.6227, 40.8043 ], [ -3.6228, 40.8044 ], [ -3.6233, 40.8045 ], [ -3.6244, 40.805 ], [ -3.6244, 40.8047 ], [ -3.6241, 40.804 ], [ -3.623, 40.8027 ], [ -3.6228, 40.8023 ], [ -3.6228, 40.8017 ], [ -3.6232, 40.8002 ], [ -3.6219, 40.8002 ], [ -3.6218, 40.8004 ], [ -3.6209, 40.8002 ], [ -3.6208, 40.8003 ], [ -3.6203, 40.8001 ], [ -3.6201, 40.8002 ], [ -3.6198, 40.8 ], [ -3.6196, 40.8002 ], [ -3.6198, 40.8009 ], [ -3.6194, 40.801 ], [ -3.6195, 40.8014 ], [ -3.6197, 40.8016 ], [ -3.6197, 40.802 ], [ -3.62, 40.8023 ], [ -3.6206, 40.802 ] ] ] } },
{ "type": "Feature", "properties": { "municipio": "Venturada", "clasificacion": "urbanizable-no-sectorizado", "calificacion": "sin-asignar", "version": "vigente", "fuente": "SIT-CAM WFS — UsoDelSuelo:VPLA_V_CLASIFICACION (https://idem.comunidad.madrid/geosrvg/ows)", "fecha_dato": "2026-05-12", "ambito": "34385", "_raw_CD_SIGLAS": "SUBNS", "_raw_DS_CLASIF_GEN": "Suelo No Urbanizable Común", "_raw_DS_CLASIF_DET": "Suelo No Urbanizable Común", "_raw_DS_DOCU": "NORMAS SUBSIDIARIAS", "_raw_DS_LEY": "CM Ley 9/1995, E RDL 1/1992", "_raw_FC_AC": "1997-12-04", "_raw_NM_AREA_M2": 64254.059593585604, "_cam_code": "169" }, "geometry": { "type": "Polygon", "coordinates": [ [ [ -3.6226, 40.8085 ], [ -3.6246, 40.8084 ], [ -3.6244, 40.8052 ], [ -3.6242, 40.805 ], [ -3.6227, 40.8045 ], [ -3.6226, 40.8045 ], [ -3.6226, 40.8048 ], [ -3.6228, 40.8049 ], [ -3.6227, 40.805 ], [ -3.6228, 40.8053 ], [ -3.6225, 40.8056 ], [ -3.6225, 40.8062 ], [ -3.6224, 40.8063 ], [ -3.6228, 40.8065 ], [ -3.6228, 40.807 ], [ -3.6226, 40.8074 ], [ -3.6226, 40.8085 ] ] ] } },
{ "type": "Feature", "properties": { "municipio": "Venturada", "clasificacion": "urbanizable-no-sectorizado", "calificacion": "sin-asignar", "version": "vigente", "fuente": "SIT-CAM WFS — UsoDelSuelo:VPLA_V_CLASIFICACION (https://idem.comunidad.madrid/geosrvg/ows)", "fecha_dato": "2026-05-12", "ambito": "34385", "_raw_CD_SIGLAS": "SUBNS", "_raw_DS_CLASIF_GEN": "Suelo No Urbanizable Común", "_raw_DS_CLASIF_DET": "Suelo No Urbanizable Común", "_raw_DS_DOCU": "NORMAS SUBSIDIARIAS", "_raw_DS_LEY": "CM Ley 9/1995, E RDL 1/1992", "_raw_FC_AC": "1997-12-04", "_raw_NM_AREA_M2": 1802875.7073530699, "_cam_code": "169" }, "geometry": { "type": "Polygon", "coordinates": [ [ [ -3.6369, 40.8017 ], [ -3.6363, 40.8026 ], [ -3.6366, 40.8034 ], [ -3.6366, 40.8038 ], [ -3.636, 40.8043 ], [ -3.6361, 40.8052 ], [ -3.6367, 40.8073 ], [ -3.6373, 40.8085 ], [ -3.6378, 40.8092 ], [ -3.639, 40.8104 ], [ -3.6401, 40.808 ], [ -3.6421, 40.8067 ], [ -3.6442, 40.8051 ], [ -3.6466, 40.804 ], [ -3.6484, 40.8029 ], [ -3.6498, 40.8023 ], [ -3.651, 40.8011 ], [ -3.6493, 40.7979 ], [ -3.6468, 40.7947 ], [ -3.6446, 40.7927 ], [ -3.6386, 40.7884 ], [ -3.6345, 40.7864 ], [ -3.6328, 40.7879 ], [ -3.6339, 40.7887 ], [ -3.6337, 40.7891 ], [ -3.6343, 40.7896 ], [ -3.6342, 40.7897 ], [ -3.6346, 40.7906 ], [ -3.6345, 40.7915 ], [ -3.6349, 40.7915 ], [ -3.635, 40.7925 ], [ -3.6359, 40.7925 ], [ -3.6355, 40.7948 ], [ -3.6358, 40.7961 ], [ -3.6373, 40.7965 ], [ -3.6368, 40.7968 ], [ -3.6374, 40.7971 ], [ -3.6383, 40.7979 ], [ -3.6395, 40.7978 ], [ -3.6408, 40.7973 ], [ -3.642, 40.797 ], [ -3.6431, 40.797 ], [ -3.6442, 40.7974 ], [ -3.6451, 40.7969 ], [ -3.6456, 40.7969 ], [ -3.6456, 40.7971 ], [ -3.6451, 40.7972 ], [ -3.6442, 40.7977 ], [ -3.6427, 40.7972 ], [ -3.6424, 40.7972 ], [ -3.6424, 40.7973 ], [ -3.6415, 40.7974 ], [ -3.6395, 40.798 ], [ -3.6383, 40.7981 ], [ -3.6383, 40.7982 ], [ -3.6394, 40.7999 ], [ -3.6401, 40.8006 ], [ -3.6399, 40.8006 ], [ -3.6399, 40.8007 ], [ -3.6404, 40.8013 ], [ -3.6419, 40.8013 ], [ -3.6439, 40.8016 ], [ -3.6448, 40.8011 ], [ -3.6453, 40.8011 ], [ -3.646, 40.8008 ], [ -3.646, 40.8009 ], [ -3.6456, 40.8011 ], [ -3.6446, 40.8013 ], [ -3.644, 40.8017 ], [ -3.6433, 40.8017 ], [ -3.6429, 40.8015 ], [ -3.6421, 40.8014 ], [ -3.6414, 40.8015 ], [ -3.6404, 40.8014 ], [ -3.6394, 40.8004 ], [ -3.6369, 40.8017 ] ] ] } },
{ "type": "Feature", "properties": { "municipio": "Venturada", "clasificacion": "urbanizable-no-sectorizado", "calificacion": "sin-asignar", "version": "vigente", "fuente": "SIT-CAM WFS — UsoDelSuelo:VPLA_V_CLASIFICACION (https://idem.comunidad.madrid/geosrvg/ows)", "fecha_dato": "2026-05-12", "ambito": "34385", "_raw_CD_SIGLAS": "SUBNS", "_raw_DS_CLASIF_GEN": "Suelo No Urbanizable Común", "_raw_DS_CLASIF_DET": "Suelo No Urbanizable Común-Zona de Reserva", "_raw_DS_DOCU": "NORMAS SUBSIDIARIAS", "_raw_DS_LEY": "CM Ley 9/1995, E RDL 1/1992", "_raw_FC_AC": "1997-12-04", "_raw_NM_AREA_M2": 21630.182073976899, "_cam_code": "169" }, "geometry": { "type": "Polygon", "coordinates": [ [ [ -3.6245, 40.7922 ], [ -3.6229, 40.7933 ], [ -3.6236, 40.7941 ], [ -3.6239, 40.7938 ], [ -3.6256, 40.793 ], [ -3.6245, 40.7922 ] ] ] } },
{ "type": "Feature", "properties": { "municipio": "Venturada", "clasificacion": "urbanizable-no-sectorizado", "calificacion": "sin-asignar", "version": "vigente", "fuente": "SIT-CAM WFS — UsoDelSuelo:VPLA_V_CLASIFICACION (https://idem.comunidad.madrid/geosrvg/ows)", "fecha_dato": "2026-05-12", "ambito": "34385", "_raw_CD_SIGLAS": "SUBNS", "_raw_DS_CLASIF_GEN": "Suelo No Urbanizable Común", "_raw_DS_CLASIF_DET": "Suelo No Urbanizable Común-Zona de Reserva", "_raw_DS_DOCU": "NORMAS SUBSIDIARIAS", "_raw_DS_LEY": "CM Ley 9/1995, E RDL 1/1992", "_raw_FC_AC": "1997-12-04", "_raw_NM_AREA_M2": 155305.43313590201, "_cam_code": "169" }, "geometry": { "type": "Polygon", "coordinates": [ [ [ -3.6221, 40.7898 ], [ -3.6196, 40.7914 ], [ -3.6195, 40.7917 ], [ -3.6196, 40.7926 ], [ -3.6194, 40.7931 ], [ -3.6194, 40.7937 ], [ -3.6195, 40.7937 ], [ -3.6195, 40.7939 ], [ -3.6209, 40.7958 ], [ -3.6212, 40.7951 ], [ -3.6218, 40.7943 ], [ -3.6226, 40.7937 ], [ -3.623, 40.7931 ], [ -3.6234, 40.793 ], [ -3.6244, 40.7923 ], [ -3.6245, 40.7921 ], [ -3.6241, 40.7916 ], [ -3.6239, 40.791 ], [ -3.6233, 40.7904 ], [ -3.6221, 40.7898 ] ] ] } },
{ "type": "Feature", "properties": { "municipio": "Venturada", "clasificacion": "urbanizable-sectorizado", "calificacion": "sin-asignar", "version": "vigente", "fuente": "SIT-CAM WFS — UsoDelSuelo:VPLA_V_CLASIFICACION (https://idem.comunidad.madrid/geosrvg/ows)", "fecha_dato": "2026-05-12", "ambito": "34385", "_raw_CD_SIGLAS": "SUBS_A", "_raw_DS_CLASIF_GEN": "Suelo Urbanizable Sectorizado (APLAZADO)", "_raw_DS_CLASIF_DET": "Suelo Urbanizable", "_raw_DS_DOCU": "NORMAS SUBSIDIARIAS", "_raw_DS_LEY": "CM Ley 9/1995, E RDL 1/1992", "_raw_FC_AC": "1997-12-04", "_raw_NM_AREA_M2": 209922.10312739099, "_cam_code": "169" }, "geometry": { "type": "Polygon", "coordinates": [ [ [ -3.6277, 40.7995 ], [ -3.6293, 40.8002 ], [ -3.6297, 40.7998 ], [ -3.6299, 40.7989 ], [ -3.6288, 40.7982 ], [ -3.6291, 40.7978 ], [ -3.6295, 40.7976 ], [ -3.6289, 40.7971 ], [ -3.6284, 40.7973 ], [ -3.6281, 40.7971 ], [ -3.6286, 40.7969 ], [ -3.6287, 40.7964 ], [ -3.6289, 40.7963 ], [ -3.6284, 40.796 ], [ -3.6278, 40.7943 ], [ -3.6269, 40.7944 ], [ -3.6261, 40.7948 ], [ -3.6253, 40.7949 ], [ -3.6246, 40.7952 ], [ -3.624, 40.7957 ], [ -3.6234, 40.7957 ], [ -3.6233, 40.7958 ], [ -3.6234, 40.7961 ], [ -3.6227, 40.7967 ], [ -3.6231, 40.797 ], [ -3.6232, 40.7975 ], [ -3.6238, 40.7975 ], [ -3.6239, 40.7972 ], [ -3.6242, 40.797 ], [ -3.6245, 40.7975 ], [ -3.6242, 40.7977 ], [ -3.6239, 40.7977 ], [ -3.624, 40.7981 ], [ -3.6241, 40.798 ], [ -3.6247, 40.7981 ], [ -3.625, 40.7977 ], [ -3.6253, 40.7978 ], [ -3.6258, 40.7983 ], [ -3.6258, 40.7985 ], [ -3.6262, 40.7988 ], [ -3.6262, 40.7997 ], [ -3.6269, 40.7997 ], [ -3.627, 40.8 ], [ -3.6275, 40.8 ], [ -3.6277, 40.7995 ] ] ] } },
{ "type": "Feature", "properties": { "municipio": "Venturada", "clasificacion": "urbanizable-sectorizado", "calificacion": "sin-asignar", "version": "vigente", "fuente": "SIT-CAM WFS — UsoDelSuelo:VPLA_V_CLASIFICACION (https://idem.comunidad.madrid/geosrvg/ows)", "fecha_dato": "2026-05-12", "ambito": "34385", "_raw_CD_SIGLAS": "SUBS_A", "_raw_DS_CLASIF_GEN": "Suelo Urbanizable Sectorizado (APLAZADO)", "_raw_DS_CLASIF_DET": "Suelo Urbanizable", "_raw_DS_DOCU": "NORMAS SUBSIDIARIAS", "_raw_DS_LEY": "CM Ley 9/1995, E RDL 1/1992", "_raw_FC_AC": "1997-12-04", "_raw_NM_AREA_M2": 46024.159575949998, "_cam_code": "169" }, "geometry": { "type": "Polygon", "coordinates": [ [ [ -3.6229, 40.7933 ], [ -3.6224, 40.794 ], [ -3.6219, 40.7943 ], [ -3.6219, 40.7945 ], [ -3.6213, 40.7951 ], [ -3.6212, 40.7955 ], [ -3.6211, 40.7955 ], [ -3.6211, 40.7957 ], [ -3.6214, 40.796 ], [ -3.6216, 40.7965 ], [ -3.6218, 40.7965 ], [ -3.6219, 40.7963 ], [ -3.6228, 40.7958 ], [ -3.6238, 40.7956 ], [ -3.6242, 40.7953 ], [ -3.6238, 40.7949 ], [ -3.624, 40.7946 ], [ -3.6235, 40.7942 ], [ -3.6236, 40.794 ], [ -3.6229, 40.7933 ] ] ] } }
]
}
