{
"type": "FeatureCollection",
"name": "vigente.full",
"features": [
{ "type": "Feature", "properties": { "municipio": "Cubas de la Sagra", "clasificacion": "urbano-consolidado", "calificacion": "equipamiento", "version": "vigente", "fuente": "SIT-CAM WFS — UsoDelSuelo:VPLA_V_CLASIFICACION (https://idem.comunidad.madrid/geosrvg/ows)", "fecha_dato": "2026-05-12", "ambito": "53387", "_raw_CD_SIGLAS": "SG", "_raw_DS_CLASIF_GEN": "Sistemas Generales", "_raw_DS_CLASIF_DET": "Sistemas general dotaciones", "_raw_DS_DOCU": "NORMAS SUBSIDIARIAS", "_raw_DS_LEY": "CM Ley 9/1995, E RDL 1/1992", "_raw_FC_AC": "2003-03-20", "_raw_NM_AREA_M2": 97374.512116381404, "_cam_code": "050" }, "geometry": { "type": "Polygon", "coordinates": [ [ [ -3.8571, 40.1901 ], [ -3.8561, 40.1916 ], [ -3.858, 40.1918 ], [ -3.858, 40.1916 ], [ -3.8582, 40.1915 ], [ -3.8585, 40.1909 ], [ -3.8586, 40.1909 ], [ -3.8586, 40.1907 ], [ -3.8588, 40.1906 ], [ -3.8589, 40.1903 ], [ -3.8594, 40.1898 ], [ -3.8578, 40.1889 ], [ -3.8577, 40.1887 ], [ -3.8575, 40.1887 ], [ -3.8574, 40.1885 ], [ -3.8571, 40.1884 ], [ -3.8567, 40.188 ], [ -3.8555, 40.189 ], [ -3.8553, 40.189 ], [ -3.8546, 40.1885 ], [ -3.8546, 40.1886 ], [ -3.8542, 40.1888 ], [ -3.8546, 40.1915 ], [ -3.8549, 40.1915 ], [ -3.8548, 40.1901 ], [ -3.8571, 40.1901 ] ] ] } },
{ "type": "Feature", "properties": { "municipio": "Cubas de la Sagra", "clasificacion": "urbano-consolidado", "calificacion": "equipamiento", "version": "vigente", "fuente": "SIT-CAM WFS — UsoDelSuelo:VPLA_V_CLASIFICACION (https://idem.comunidad.madrid/geosrvg/ows)", "fecha_dato": "2026-05-12", "ambito": "53387", "_raw_CD_SIGLAS": "SG", "_raw_DS_CLASIF_GEN": "Sistemas Generales", "_raw_DS_CLASIF_DET": "Sistema general infraestructuras", "_raw_DS_DOCU": "NORMAS SUBSIDIARIAS", "_raw_DS_LEY": "CM Ley 9/1995, E RDL 1/1992", "_raw_FC_AC": "2003-03-20", "_raw_NM_AREA_M2": 3532.47184481368, "_cam_code": "050" }, "geometry": { "type": "Polygon", "coordinates": [ [ [ -3.8364, 40.1792 ], [ -3.8363, 40.1793 ], [ -3.837, 40.181 ], [ -3.8372, 40.181 ], [ -3.8366, 40.1794 ], [ -3.8364, 40.1792 ] ] ] } },
{ "type": "Feature", "properties": { "municipio": "Cubas de la Sagra", "clasificacion": "urbano-consolidado", "calificacion": "equipamiento", "version": "vigente", "fuente": "SIT-CAM WFS — UsoDelSuelo:VPLA_V_CLASIFICACION (https://idem.comunidad.madrid/geosrvg/ows)", "fecha_dato": "2026-05-12", "ambito": "53387", "_raw_CD_SIGLAS": "SG", "_raw_DS_CLASIF_GEN": "Sistemas Generales", "_raw_DS_CLASIF_DET": "Sistema general infraestructuras", "_raw_DS_DOCU": "NORMAS SUBSIDIARIAS", "_raw_DS_LEY": "CM Ley 9/1995, E RDL 1/1992", "_raw_FC_AC": "2003-03-20", "_raw_NM_AREA_M2": 71061.794029268101, "_cam_code": "050" }, "geometry": { "type": "Polygon", "coordinates": [ [ [ -3.81, 40.179 ], [ -3.8098, 40.1792 ], [ -3.8093, 40.1792 ], [ -3.8055, 40.187 ], [ -3.8048, 40.1879 ], [ -3.8041, 40.1883 ], [ -3.804, 40.1888 ], [ -3.8052, 40.1891 ], [ -3.81, 40.179 ] ] ] } },
{ "type": "Feature", "properties": { "municipio": "Cubas de la Sagra", "clasificacion": "urbano-consolidado", "calificacion": "equipamiento", "version": "vigente", "fuente": "SIT-CAM WFS — UsoDelSuelo:VPLA_V_CLASIFICACION (https://idem.comunidad.madrid/geosrvg/ows)", "fecha_dato": "2026-05-12", "ambito": "53387", "_raw_CD_SIGLAS": "SG", "_raw_DS_CLASIF_GEN": "Sistemas Generales", "_raw_DS_CLASIF_DET": "Sistema general infraestructuras", "_raw_DS_DOCU": "NORMAS SUBSIDIARIAS", "_raw_DS_LEY": "CM Ley 9/1995, E RDL 1/1992", "_raw_FC_AC": "2003-03-20", "_raw_NM_AREA_M2": 11766.1105455419, "_cam_code": "050" }, "geometry": { "type": "Polygon", "coordinates": [ [ [ -3.8541, 40.1892 ], [ -3.8544, 40.193 ], [ -3.8546, 40.1939 ], [ -3.8548, 40.1939 ], [ -3.8546, 40.1915 ], [ -3.8542, 40.1888 ], [ -3.8541, 40.1892 ] ] ] } },
{ "type": "Feature", "properties": { "municipio": "Cubas de la Sagra", "clasificacion": "urbano-consolidado", "calificacion": "equipamiento", "version": "vigente", "fuente": "SIT-CAM WFS — UsoDelSuelo:VPLA_V_CLASIFICACION (https://idem.comunidad.madrid/geosrvg/ows)", "fecha_dato": "2026-05-12", "ambito": "53387", "_raw_CD_SIGLAS": "SG", "_raw_DS_CLASIF_GEN": "Sistemas Generales", "_raw_DS_CLASIF_DET": "Sistema general infraestructuras", "_raw_DS_DOCU": "NORMAS SUBSIDIARIAS", "_raw_DS_LEY": "CM Ley 9/1995, E RDL 1/1992", "_raw_FC_AC": "2003-03-20", "_raw_NM_AREA_M2": 48094.3926555082, "_cam_code": "050" }, "geometry": { "type": "Polygon", "coordinates": [ [ [ -3.8395, 40.1922 ], [ -3.8393, 40.1932 ], [ -3.8396, 40.1932 ], [ -3.848, 40.201 ], [ -3.8483, 40.2011 ], [ -3.8483, 40.2012 ], [ -3.8487, 40.2011 ], [ -3.843, 40.1962 ], [ -3.8396, 40.193 ], [ -3.8397, 40.1923 ], [ -3.8396, 40.1921 ], [ -3.8396, 40.1896 ], [ -3.8397, 40.1895 ], [ -3.8396, 40.1892 ], [ -3.8397, 40.1891 ], [ -3.8398, 40.1877 ], [ -3.8397, 40.1877 ], [ -3.8396, 40.1871 ], [ -3.8375, 40.1817 ], [ -3.8372, 40.1817 ], [ -3.8386, 40.1852 ], [ -3.839, 40.1865 ], [ -3.8393, 40.187 ], [ -3.8394, 40.1875 ], [ -3.8395, 40.1875 ], [ -3.8395, 40.1894 ], [ -3.8396, 40.1895 ], [ -3.8395, 40.1897 ], [ -3.8395, 40.1917 ], [ -3.8394, 40.1921 ], [ -3.8395, 40.1922 ] ] ] } },
{ "type": "Feature", "properties": { "municipio": "Cubas de la Sagra", "clasificacion": "no-urbanizable-protegido", "calificacion": "sin-asignar", "version": "vigente", "fuente": "SIT-CAM WFS — UsoDelSuelo:VPLA_V_CLASIFICACION (https://idem.comunidad.madrid/geosrvg/ows)", "fecha_dato": "2026-05-12", "ambito": "53387", "_raw_CD_SIGLAS": "SNUP", "_raw_DS_CLASIF_GEN": "Suelo No Urbanizable Protegido", "_raw_DS_CLASIF_DET": "Suelo No Urbanizable Protegido-Vías Pecuarias", "_raw_DS_DOCU": "NORMAS SUBSIDIARIAS", "_raw_DS_LEY": "CM Ley 9/1995, E RDL 1/1992", "_raw_FC_AC": "2003-03-20", "_raw_NM_AREA_M2": 9576.6500997021903, "_cam_code": "050" }, "geometry": { "type": "Polygon", "coordinates": [ [ [ -3.873, 40.1948 ], [ -3.874, 40.195 ], [ -3.8742, 40.1948 ], [ -3.8753, 40.1932 ], [ -3.8761, 40.1915 ], [ -3.8762, 40.1912 ], [ -3.8761, 40.1911 ], [ -3.8752, 40.193 ], [ -3.8743, 40.1944 ], [ -3.8735, 40.1945 ], [ -3.873, 40.1948 ] ] ] } },
{ "type": "Feature", "properties": { "municipio": "Cubas de la Sagra", "clasificacion": "no-urbanizable-protegido", "calificacion": "sin-asignar", "version": "vigente", "fuente": "SIT-CAM WFS — UsoDelSuelo:VPLA_V_CLASIFICACION (https://idem.comunidad.madrid/geosrvg/ows)", "fecha_dato": "2026-05-12", "ambito": "53387", "_raw_CD_SIGLAS": "SNUP", "_raw_DS_CLASIF_GEN": "Suelo No Urbanizable Protegido", "_raw_DS_CLASIF_DET": "Suelo No Urbanizable Protegido-Vías Pecuarias", "_raw_DS_DOCU": "NORMAS SUBSIDIARIAS", "_raw_DS_LEY": "CM Ley 9/1995, E RDL 1/1992", "_raw_FC_AC": "2003-03-20", "_raw_NM_AREA_M2": 5063.4069102472104, "_cam_code": "050" }, "geometry": { "type": "Polygon", "coordinates": [ [ [ -3.8737, 40.1951 ], [ -3.8734, 40.1958 ], [ -3.8724, 40.197 ], [ -3.8713, 40.1989 ], [ -3.872, 40.198 ], [ -3.8722, 40.1975 ], [ -3.873, 40.1966 ], [ -3.8731, 40.1963 ], [ -3.8738, 40.1954 ], [ -3.8739, 40.1951 ], [ -3.8737, 40.1951 ] ] ] } },
{ "type": "Feature", "properties": { "municipio": "Cubas de la Sagra", "clasificacion": "no-urbanizable-protegido", "calificacion": "sin-asignar", "version": "vigente", "fuente": "SIT-CAM WFS — UsoDelSuelo:VPLA_V_CLASIFICACION (https://idem.comunidad.madrid/geosrvg/ows)", "fecha_dato": "2026-05-12", "ambito": "53387", "_raw_CD_SIGLAS": "SNUP", "_raw_DS_CLASIF_GEN": "Suelo No Urbanizable Protegido", "_raw_DS_CLASIF_DET": "Suelo No Urbanizable Protegido-Vías Pecuarias", "_raw_DS_DOCU": "NORMAS SUBSIDIARIAS", "_raw_DS_LEY": "CM Ley 9/1995, E RDL 1/1992", "_raw_FC_AC": "2003-03-20", "_raw_NM_AREA_M2": 2409.5158225990399, "_cam_code": "050" }, "geometry": { "type": "Polygon", "coordinates": [ [ [ -3.8689, 40.201 ], [ -3.8691, 40.2011 ], [ -3.8698, 40.2002 ], [ -3.8709, 40.1993 ], [ -3.87, 40.1999 ], [ -3.8689, 40.201 ] ] ] } },
{ "type": "Feature", "properties": { "municipio": "Cubas de la Sagra", "clasificacion": "no-urbanizable-protegido", "calificacion": "sin-asignar", "version": "vigente", "fuente": "SIT-CAM WFS — UsoDelSuelo:VPLA_V_CLASIFICACION (https://idem.comunidad.madrid/geosrvg/ows)", "fecha_dato": "2026-05-12", "ambito": "53387", "_raw_CD_SIGLAS": "SNUP", "_raw_DS_CLASIF_GEN": "Suelo No Urbanizable Protegido", "_raw_DS_CLASIF_DET": "Suelo No Urbanizable Protegido-Vías Pecuarias", "_raw_DS_DOCU": "NORMAS SUBSIDIARIAS", "_raw_DS_LEY": "CM Ley 9/1995, E RDL 1/1992", "_raw_FC_AC": "2003-03-20", "_raw_NM_AREA_M2": 9532.9568273813202, "_cam_code": "050" }, "geometry": { "type": "Polygon", "coordinates": [ [ [ -3.8417, 40.2033 ], [ -3.8419, 40.2034 ], [ -3.8413, 40.2013 ], [ -3.8408, 40.2005 ], [ -3.8407, 40.2005 ], [ -3.8404, 40.1999 ], [ -3.8403, 40.1992 ], [ -3.8402, 40.199 ], [ -3.8401, 40.1991 ], [ -3.84, 40.1986 ], [ -3.8399, 40.1986 ], [ -3.8402, 40.2 ], [ -3.841, 40.2013 ], [ -3.8417, 40.2033 ] ] ] } },
{ "type": "Feature", "properties": { "municipio": "Cubas de la Sagra", "clasificacion": "no-urbanizable-protegido", "calificacion": "sin-asignar", "version": "vigente", "fuente": "SIT-CAM WFS — UsoDelSuelo:VPLA_V_CLASIFICACION (https://idem.comunidad.madrid/geosrvg/ows)", "fecha_dato": "2026-05-12", "ambito": "53387", "_raw_CD_SIGLAS": "SNUP", "_raw_DS_CLASIF_GEN": "Suelo No Urbanizable Protegido", "_raw_DS_CLASIF_DET": "SNUP afección de cauces", "_raw_DS_DOCU": "NORMAS SUBSIDIARIAS", "_raw_DS_LEY": "CM Ley 9/1995, E RDL 1/1992", "_raw_FC_AC": "2003-03-20", "_raw_NM_AREA_M2": 129182.573301276, "_cam_code": "050" }, "geometry": { "type": "Polygon", "coordinates": [ [ [ -3.8472, 40.1815 ], [ -3.8489, 40.1829 ], [ -3.8493, 40.1837 ], [ -3.8496, 40.184 ], [ -3.8512, 40.1849 ], [ -3.8532, 40.1858 ], [ -3.8531, 40.1851 ], [ -3.8525, 40.1848 ], [ -3.8517, 40.1846 ], [ -3.85, 40.1836 ], [ -3.8496, 40.1831 ], [ -3.8491, 40.1819 ], [ -3.8486, 40.1816 ], [ -3.8486, 40.1817 ], [ -3.8483, 40.1812 ], [ -3.8483, 40.181 ], [ -3.8489, 40.181 ], [ -3.8501, 40.1813 ], [ -3.851, 40.1811 ], [ -3.8511, 40.181 ], [ -3.8509, 40.1808 ], [ -3.8488, 40.1802 ], [ -3.8466, 40.1803 ], [ -3.8451, 40.1797 ], [ -3.842, 40.1793 ], [ -3.8418, 40.179 ], [ -3.8403, 40.1789 ], [ -3.8411, 40.1799 ], [ -3.8416, 40.1801 ], [ -3.8445, 40.1805 ], [ -3.8472, 40.1815 ] ] ] } },
{ "type": "Feature", "properties": { "municipio": "Cubas de la Sagra", "clasificacion": "no-urbanizable-protegido", "calificacion": "sin-asignar", "version": "vigente", "fuente": "SIT-CAM WFS — UsoDelSuelo:VPLA_V_CLASIFICACION (https://idem.comunidad.madrid/geosrvg/ows)", "fecha_dato": "2026-05-12", "ambito": "53387", "_raw_CD_SIGLAS": "SNUP", "_raw_DS_CLASIF_GEN": "Suelo No Urbanizable Protegido", "_raw_DS_CLASIF_DET": "SNUP afección de cauces", "_raw_DS_DOCU": "NORMAS SUBSIDIARIAS", "_raw_DS_LEY": "CM Ley 9/1995, E RDL 1/1992", "_raw_FC_AC": "2003-03-20", "_raw_NM_AREA_M2": 9975.1629383971595, "_cam_code": "050" }, "geometry": { "type": "Polygon", "coordinates": [ [ [ -3.8543, 40.1858 ], [ -3.8545, 40.1867 ], [ -3.8561, 40.1869 ], [ -3.8566, 40.1866 ], [ -3.8556, 40.1864 ], [ -3.8556, 40.1863 ], [ -3.8543, 40.1858 ] ] ] } },
{ "type": "Feature", "properties": { "municipio": "Cubas de la Sagra", "clasificacion": "no-urbanizable-protegido", "calificacion": "sin-asignar", "version": "vigente", "fuente": "SIT-CAM WFS — UsoDelSuelo:VPLA_V_CLASIFICACION (https://idem.comunidad.madrid/geosrvg/ows)", "fecha_dato": "2026-05-12", "ambito": "53387", "_raw_CD_SIGLAS": "SNUP", "_raw_DS_CLASIF_GEN": "Suelo No Urbanizable Protegido", "_raw_DS_CLASIF_DET": "SNUP afección de cauces", "_raw_DS_DOCU": "NORMAS SUBSIDIARIAS", "_raw_DS_LEY": "CM Ley 9/1995, E RDL 1/1992", "_raw_FC_AC": "2003-03-20", "_raw_NM_AREA_M2": 21005.513204326799, "_cam_code": "050" }, "geometry": { "type": "Polygon", "coordinates": [ [ [ -3.853, 40.1889 ], [ -3.853, 40.1888 ], [ -3.8535, 40.189 ], [ -3.8535, 40.1888 ], [ -3.8517, 40.1879 ], [ -3.8505, 40.1878 ], [ -3.8505, 40.1877 ], [ -3.8501, 40.1875 ], [ -3.8492, 40.1873 ], [ -3.8484, 40.1873 ], [ -3.8478, 40.1869 ], [ -3.8466, 40.1865 ], [ -3.8463, 40.1868 ], [ -3.8467, 40.1868 ], [ -3.8476, 40.1871 ], [ -3.8477, 40.1873 ], [ -3.8482, 40.1876 ], [ -3.8499, 40.1877 ], [ -3.8503, 40.188 ], [ -3.8514, 40.1881 ], [ -3.8526, 40.1888 ], [ -3.853, 40.1889 ] ] ] } },
{ "type": "Feature", "properties": { "municipio": "Cubas de la Sagra", "clasificacion": "no-urbanizable-protegido", "calificacion": "sin-asignar", "version": "vigente", "fuente": "SIT-CAM WFS — UsoDelSuelo:VPLA_V_CLASIFICACION (https://idem.comunidad.madrid/geosrvg/ows)", "fecha_dato": "2026-05-12", "ambito": "53387", "_raw_CD_SIGLAS": "SNUP", "_raw_DS_CLASIF_GEN": "Suelo No Urbanizable Protegido", "_raw_DS_CLASIF_DET": "SNUP afección de cauces", "_raw_DS_DOCU": "NORMAS SUBSIDIARIAS", "_raw_DS_LEY": "CM Ley 9/1995, E RDL 1/1992", "_raw_FC_AC": "2003-03-20", "_raw_NM_AREA_M2": 76475.316594800795, "_cam_code": "050" }, "geometry": { "type": "Polygon", "coordinates": [ [ [ -3.8122, 40.187 ], [ -3.8128, 40.1883 ], [ -3.8138, 40.1886 ], [ -3.8138, 40.1887 ], [ -3.8141, 40.1887 ], [ -3.8141, 40.1888 ], [ -3.8144, 40.1888 ], [ -3.8144, 40.1889 ], [ -3.8162, 40.1892 ], [ -3.8178, 40.1897 ], [ -3.8184, 40.1897 ], [ -3.8184, 40.1898 ], [ -3.8191, 40.19 ], [ -3.8191, 40.1901 ], [ -3.8213, 40.1905 ], [ -3.8216, 40.1909 ], [ -3.8229, 40.1908 ], [ -3.8227, 40.1906 ], [ -3.8218, 40.1906 ], [ -3.8214, 40.1903 ], [ -3.8215, 40.19 ], [ -3.8237, 40.1899 ], [ -3.8237, 40.1898 ], [ -3.8234, 40.1897 ], [ -3.8232, 40.1898 ], [ -3.8217, 40.1898 ], [ -3.8212, 40.1896 ], [ -3.8201, 40.1896 ], [ -3.8192, 40.1892 ], [ -3.8188, 40.1892 ], [ -3.8183, 40.189 ], [ -3.8176, 40.189 ], [ -3.8176, 40.1889 ], [ -3.8153, 40.1886 ], [ -3.8153, 40.1885 ], [ -3.8149, 40.1884 ], [ -3.8149, 40.1883 ], [ -3.8141, 40.188 ], [ -3.8138, 40.1874 ], [ -3.8125, 40.1864 ], [ -3.8122, 40.187 ] ] ] } },
{ "type": "Feature", "properties": { "municipio": "Cubas de la Sagra", "clasificacion": "no-urbanizable-protegido", "calificacion": "sin-asignar", "version": "vigente", "fuente": "SIT-CAM WFS — UsoDelSuelo:VPLA_V_CLASIFICACION (https://idem.comunidad.madrid/geosrvg/ows)", "fecha_dato": "2026-05-12", "ambito": "53387", "_raw_CD_SIGLAS": "SNUP", "_raw_DS_CLASIF_GEN": "Suelo No Urbanizable Protegido", "_raw_DS_CLASIF_DET": "SNUP afección de cauces", "_raw_DS_DOCU": "NORMAS SUBSIDIARIAS", "_raw_DS_LEY": "CM Ley 9/1995, E RDL 1/1992", "_raw_FC_AC": "2003-03-20", "_raw_NM_AREA_M2": 17145.955001486898, "_cam_code": "050" }, "geometry": { "type": "Polygon", "coordinates": [ [ [ -3.8359, 40.1976 ], [ -3.8379, 40.1979 ], [ -3.8379, 40.1976 ], [ -3.8377, 40.1976 ], [ -3.8377, 40.1977 ], [ -3.8376, 40.1976 ], [ -3.8367, 40.1977 ], [ -3.8367, 40.1974 ], [ -3.8359, 40.1973 ], [ -3.835, 40.1974 ], [ -3.8338, 40.197 ], [ -3.832, 40.1968 ], [ -3.8309, 40.1963 ], [ -3.8307, 40.1966 ], [ -3.8317, 40.1969 ], [ -3.8317, 40.197 ], [ -3.832, 40.197 ], [ -3.832, 40.1971 ], [ -3.8327, 40.1971 ], [ -3.8333, 40.1973 ], [ -3.8337, 40.1972 ], [ -3.8337, 40.1973 ], [ -3.8342, 40.1974 ], [ -3.8342, 40.1975 ], [ -3.8359, 40.1976 ] ] ] } },
{ "type": "Feature", "properties": { "municipio": "Cubas de la Sagra", "clasificacion": "no-urbanizable-protegido", "calificacion": "sin-asignar", "version": "vigente", "fuente": "SIT-CAM WFS — UsoDelSuelo:VPLA_V_CLASIFICACION (https://idem.comunidad.madrid/geosrvg/ows)", "fecha_dato": "2026-05-12", "ambito": "53387", "_raw_CD_SIGLAS": "SNUP", "_raw_DS_CLASIF_GEN": "Suelo No Urbanizable Protegido", "_raw_DS_CLASIF_DET": "SNUP afección de cauces", "_raw_DS_DOCU": "NORMAS SUBSIDIARIAS", "_raw_DS_LEY": "CM Ley 9/1995, E RDL 1/1992", "_raw_FC_AC": "2003-03-20", "_raw_NM_AREA_M2": 24504.871638185901, "_cam_code": "050" }, "geometry": { "type": "Polygon", "coordinates": [ [ [ -3.8449, 40.2011 ], [ -3.8453, 40.2013 ], [ -3.8468, 40.2013 ], [ -3.8471, 40.2011 ], [ -3.8477, 40.2011 ], [ -3.8478, 40.2012 ], [ -3.8483, 40.2012 ], [ -3.8483, 40.2011 ], [ -3.848, 40.201 ], [ -3.848, 40.2009 ], [ -3.8475, 40.2008 ], [ -3.8464, 40.2011 ], [ -3.8452, 40.2009 ], [ -3.8439, 40.201 ], [ -3.8438, 40.2009 ], [ -3.8421, 40.2007 ], [ -3.841, 40.2003 ], [ -3.8406, 40.1992 ], [ -3.8406, 40.1989 ], [ -3.8402, 40.199 ], [ -3.8404, 40.1999 ], [ -3.8407, 40.2005 ], [ -3.8434, 40.2012 ], [ -3.8449, 40.2011 ] ] ] } },
{ "type": "Feature", "properties": { "municipio": "Cubas de la Sagra", "clasificacion": "no-urbanizable-protegido", "calificacion": "sin-asignar", "version": "vigente", "fuente": "SIT-CAM WFS — UsoDelSuelo:VPLA_V_CLASIFICACION (https://idem.comunidad.madrid/geosrvg/ows)", "fecha_dato": "2026-05-12", "ambito": "53387", "_raw_CD_SIGLAS": "SNUP", "_raw_DS_CLASIF_GEN": "Suelo No Urbanizable Protegido", "_raw_DS_CLASIF_DET": "SNUP afección de cauces", "_raw_DS_DOCU": "NORMAS SUBSIDIARIAS", "_raw_DS_LEY": "CM Ley 9/1995, E RDL 1/1992", "_raw_FC_AC": "2003-03-20", "_raw_NM_AREA_M2": 84394.697082589497, "_cam_code": "050" }, "geometry": { "type": "Polygon", "coordinates": [ [ [ -3.8121, 40.1972 ], [ -3.8125, 40.1981 ], [ -3.8134, 40.1985 ], [ -3.8141, 40.1985 ], [ -3.8149, 40.1987 ], [ -3.8155, 40.1983 ], [ -3.8164, 40.1985 ], [ -3.8171, 40.1985 ], [ -3.8179, 40.1996 ], [ -3.8178, 40.1999 ], [ -3.8181, 40.2001 ], [ -3.8183, 40.2006 ], [ -3.8186, 40.2008 ], [ -3.819, 40.2017 ], [ -3.8194, 40.2018 ], [ -3.82, 40.2026 ], [ -3.8211, 40.2034 ], [ -3.822, 40.2034 ], [ -3.8221, 40.2035 ], [ -3.8223, 40.2033 ], [ -3.8224, 40.2031 ], [ -3.822, 40.203 ], [ -3.8216, 40.2031 ], [ -3.8208, 40.2025 ], [ -3.82, 40.2015 ], [ -3.8195, 40.2012 ], [ -3.8194, 40.2008 ], [ -3.8182, 40.1993 ], [ -3.8178, 40.1986 ], [ -3.817, 40.1981 ], [ -3.8172, 40.1979 ], [ -3.8185, 40.1976 ], [ -3.8194, 40.197 ], [ -3.8199, 40.1969 ], [ -3.8205, 40.1965 ], [ -3.8209, 40.196 ], [ -3.8207, 40.1957 ], [ -3.8198, 40.1966 ], [ -3.8168, 40.1977 ], [ -3.8154, 40.1979 ], [ -3.8149, 40.1982 ], [ -3.8137, 40.1981 ], [ -3.8131, 40.1978 ], [ -3.8126, 40.1972 ], [ -3.8122, 40.197 ], [ -3.8121, 40.1972 ] ] ] } },
{ "type": "Feature", "properties": { "municipio": "Cubas de la Sagra", "clasificacion": "no-urbanizable-protegido", "calificacion": "sin-asignar", "version": "vigente", "fuente": "SIT-CAM WFS — UsoDelSuelo:VPLA_V_CLASIFICACION (https://idem.comunidad.madrid/geosrvg/ows)", "fecha_dato": "2026-05-12", "ambito": "53387", "_raw_CD_SIGLAS": "SNUP", "_raw_DS_CLASIF_GEN": "Suelo No Urbanizable Protegido", "_raw_DS_CLASIF_DET": "SNUP edafológico y agrario", "_raw_DS_DOCU": "NORMAS SUBSIDIARIAS", "_raw_DS_LEY": "CM Ley 9/1995, E RDL 1/1992", "_raw_FC_AC": "2003-03-20", "_raw_NM_AREA_M2": 293727.04639115301, "_cam_code": "050" }, "geometry": { "type": "Polygon", "coordinates": [ [ [ -3.8242, 40.1797 ], [ -3.8247, 40.1801 ], [ -3.8252, 40.1801 ], [ -3.8276, 40.1808 ], [ -3.8292, 40.181 ], [ -3.8303, 40.1821 ], [ -3.8307, 40.1823 ], [ -3.8317, 40.1824 ], [ -3.8334, 40.1834 ], [ -3.8342, 40.1835 ], [ -3.8362, 40.181 ], [ -3.837, 40.181 ], [ -3.8363, 40.1792 ], [ -3.836, 40.1792 ], [ -3.836, 40.1793 ], [ -3.8336, 40.1786 ], [ -3.83, 40.1796 ], [ -3.8287, 40.179 ], [ -3.8243, 40.1793 ], [ -3.8242, 40.1797 ] ] ] } },
{ "type": "Feature", "properties": { "municipio": "Cubas de la Sagra", "clasificacion": "no-urbanizable-protegido", "calificacion": "sin-asignar", "version": "vigente", "fuente": "SIT-CAM WFS — UsoDelSuelo:VPLA_V_CLASIFICACION (https://idem.comunidad.madrid/geosrvg/ows)", "fecha_dato": "2026-05-12", "ambito": "53387", "_raw_CD_SIGLAS": "SNUP", "_raw_DS_CLASIF_GEN": "Suelo No Urbanizable Protegido", "_raw_DS_CLASIF_DET": "SNUP edafológico y agrario", "_raw_DS_DOCU": "NORMAS SUBSIDIARIAS", "_raw_DS_LEY": "CM Ley 9/1995, E RDL 1/1992", "_raw_FC_AC": "2003-03-20", "_raw_NM_AREA_M2": 226614.10619426201, "_cam_code": "050" }, "geometry": { "type": "Polygon", "coordinates": [ [ [ -3.8471, 40.1832 ], [ -3.8475, 40.1832 ], [ -3.8475, 40.1833 ], [ -3.8478, 40.1833 ], [ -3.8478, 40.1834 ], [ -3.8481, 40.1835 ], [ -3.8483, 40.1833 ], [ -3.8483, 40.1831 ], [ -3.8485, 40.183 ], [ -3.8486, 40.1826 ], [ -3.8472, 40.1815 ], [ -3.8467, 40.1814 ], [ -3.8452, 40.1807 ], [ -3.8439, 40.1804 ], [ -3.8416, 40.1801 ], [ -3.8411, 40.1799 ], [ -3.8403, 40.1789 ], [ -3.8373, 40.179 ], [ -3.8365, 40.1792 ], [ -3.8372, 40.181 ], [ -3.8375, 40.181 ], [ -3.8375, 40.1811 ], [ -3.8378, 40.1812 ], [ -3.8378, 40.1815 ], [ -3.8375, 40.1818 ], [ -3.8388, 40.1819 ], [ -3.8407, 40.1818 ], [ -3.8408, 40.1819 ], [ -3.8437, 40.1823 ], [ -3.8453, 40.1824 ], [ -3.8453, 40.1825 ], [ -3.8458, 40.1825 ], [ -3.8458, 40.1826 ], [ -3.8463, 40.1826 ], [ -3.846, 40.1832 ], [ -3.8467, 40.1835 ], [ -3.8468, 40.1835 ], [ -3.8469, 40.1832 ], [ -3.8471, 40.1832 ] ] ] } },
{ "type": "Feature", "properties": { "municipio": "Cubas de la Sagra", "clasificacion": "no-urbanizable-protegido", "calificacion": "sin-asignar", "version": "vigente", "fuente": "SIT-CAM WFS — UsoDelSuelo:VPLA_V_CLASIFICACION (https://idem.comunidad.madrid/geosrvg/ows)", "fecha_dato": "2026-05-12", "ambito": "53387", "_raw_CD_SIGLAS": "SNUP", "_raw_DS_CLASIF_GEN": "Suelo No Urbanizable Protegido", "_raw_DS_CLASIF_DET": "SNUP edafológico y agrario", "_raw_DS_DOCU": "NORMAS SUBSIDIARIAS", "_raw_DS_LEY": "CM Ley 9/1995, E RDL 1/1992", "_raw_FC_AC": "2003-03-20", "_raw_NM_AREA_M2": 177713.90078210499, "_cam_code": "050" }, "geometry": { "type": "Polygon", "coordinates": [ [ [ -3.8491, 40.1819 ], [ -3.8496, 40.1831 ], [ -3.85, 40.1836 ], [ -3.8517, 40.1846 ], [ -3.8525, 40.1848 ], [ -3.8531, 40.1851 ], [ -3.8525, 40.1795 ], [ -3.8486, 40.18 ], [ -3.8452, 40.1791 ], [ -3.8425, 40.179 ], [ -3.8422, 40.179 ], [ -3.842, 40.179 ], [ -3.8417, 40.179 ], [ -3.842, 40.1793 ], [ -3.8451, 40.1797 ], [ -3.8466, 40.1803 ], [ -3.8476, 40.1802 ], [ -3.8493, 40.1803 ], [ -3.8509, 40.1808 ], [ -3.8511, 40.181 ], [ -3.8501, 40.1813 ], [ -3.8489, 40.181 ], [ -3.8483, 40.181 ], [ -3.8486, 40.1817 ], [ -3.8486, 40.1816 ], [ -3.8491, 40.1819 ] ] ] } },
{ "type": "Feature", "properties": { "municipio": "Cubas de la Sagra", "clasificacion": "no-urbanizable-protegido", "calificacion": "sin-asignar", "version": "vigente", "fuente": "SIT-CAM WFS — UsoDelSuelo:VPLA_V_CLASIFICACION (https://idem.comunidad.madrid/geosrvg/ows)", "fecha_dato": "2026-05-12", "ambito": "53387", "_raw_CD_SIGLAS": "SNUP", "_raw_DS_CLASIF_GEN": "Suelo No Urbanizable Protegido", "_raw_DS_CLASIF_DET": "Suelo No Urbanizable Protegido", "_raw_DS_DOCU": "NORMAS SUBSIDIARIAS", "_raw_DS_LEY": "CM Ley 9/1995, E RDL 1/1992", "_raw_FC_AC": "2003-03-20", "_raw_NM_AREA_M2": 42067.279451594302, "_cam_code": "050" }, "geometry": { "type": "Polygon", "coordinates": [ [ [ -3.8062, 40.1772 ], [ -3.8064, 40.178 ], [ -3.806, 40.18 ], [ -3.8079, 40.1793 ], [ -3.8084, 40.1776 ], [ -3.8084, 40.1775 ], [ -3.8068, 40.1772 ], [ -3.8062, 40.1772 ] ] ] } },
{ "type": "Feature", "properties": { "municipio": "Cubas de la Sagra", "clasificacion": "no-urbanizable-protegido", "calificacion": "sin-asignar", "version": "vigente", "fuente": "SIT-CAM WFS — UsoDelSuelo:VPLA_V_CLASIFICACION (https://idem.comunidad.madrid/geosrvg/ows)", "fecha_dato": "2026-05-12", "ambito": "53387", "_raw_CD_SIGLAS": "SNUP", "_raw_DS_CLASIF_GEN": "Suelo No Urbanizable Protegido", "_raw_DS_CLASIF_DET": "Suelo No Urbanizable Protegido", "_raw_DS_DOCU": "NORMAS SUBSIDIARIAS", "_raw_DS_LEY": "CM Ley 9/1995, E RDL 1/1992", "_raw_FC_AC": "2003-03-20", "_raw_NM_AREA_M2": 140671.87345298001, "_cam_code": "050" }, "geometry": { "type": "Polygon", "coordinates": [ [ [ -3.8086, 40.1793 ], [ -3.8072, 40.1798 ], [ -3.8064, 40.1799 ], [ -3.8059, 40.1804 ], [ -3.8057, 40.1826 ], [ -3.8052, 40.1848 ], [ -3.8044, 40.1866 ], [ -3.8041, 40.1883 ], [ -3.8048, 40.1879 ], [ -3.8055, 40.187 ], [ -3.8093, 40.1792 ], [ -3.8086, 40.1793 ] ] ] } },
{ "type": "Feature", "properties": { "municipio": "Cubas de la Sagra", "clasificacion": "no-urbanizable-protegido", "calificacion": "sin-asignar", "version": "vigente", "fuente": "SIT-CAM WFS — UsoDelSuelo:VPLA_V_CLASIFICACION (https://idem.comunidad.madrid/geosrvg/ows)", "fecha_dato": "2026-05-12", "ambito": "53387", "_raw_CD_SIGLAS": "SNUP", "_raw_DS_CLASIF_GEN": "Suelo No Urbanizable Protegido", "_raw_DS_CLASIF_DET": "Suelo No Urbanizable Protegido", "_raw_DS_DOCU": "NORMAS SUBSIDIARIAS", "_raw_DS_LEY": "CM Ley 9/1995, E RDL 1/1992", "_raw_FC_AC": "2003-03-20", "_raw_NM_AREA_M2": 506249.50588243903, "_cam_code": "050" }, "geometry": { "type": "Polygon", "coordinates": [ [ [ -3.8492, 40.1873 ], [ -3.8501, 40.1875 ], [ -3.8505, 40.1877 ], [ -3.8505, 40.1878 ], [ -3.8517, 40.1879 ], [ -3.8535, 40.1888 ], [ -3.8532, 40.1858 ], [ -3.8512, 40.1849 ], [ -3.8496, 40.184 ], [ -3.8486, 40.1826 ], [ -3.8485, 40.183 ], [ -3.8483, 40.1831 ], [ -3.8483, 40.1833 ], [ -3.8481, 40.1835 ], [ -3.8478, 40.1834 ], [ -3.8478, 40.1833 ], [ -3.8475, 40.1833 ], [ -3.8475, 40.1832 ], [ -3.8469, 40.1832 ], [ -3.8468, 40.1835 ], [ -3.8467, 40.1835 ], [ -3.846, 40.1832 ], [ -3.8463, 40.1826 ], [ -3.8458, 40.1826 ], [ -3.8458, 40.1825 ], [ -3.8453, 40.1825 ], [ -3.8453, 40.1824 ], [ -3.8437, 40.1823 ], [ -3.8408, 40.1819 ], [ -3.8407, 40.1818 ], [ -3.8392, 40.1818 ], [ -3.839, 40.1819 ], [ -3.8375, 40.1818 ], [ -3.8386, 40.1846 ], [ -3.8389, 40.1847 ], [ -3.8389, 40.1848 ], [ -3.8393, 40.1848 ], [ -3.8393, 40.1849 ], [ -3.84, 40.1851 ], [ -3.8408, 40.1857 ], [ -3.8422, 40.1861 ], [ -3.8435, 40.1861 ], [ -3.8443, 40.1864 ], [ -3.8459, 40.1863 ], [ -3.8473, 40.1867 ], [ -3.8484, 40.1873 ], [ -3.8492, 40.1873 ] ] ] } },
{ "type": "Feature", "properties": { "municipio": "Cubas de la Sagra", "clasificacion": "no-urbanizable-protegido", "calificacion": "sin-asignar", "version": "vigente", "fuente": "SIT-CAM WFS — UsoDelSuelo:VPLA_V_CLASIFICACION (https://idem.comunidad.madrid/geosrvg/ows)", "fecha_dato": "2026-05-12", "ambito": "53387", "_raw_CD_SIGLAS": "SNUP", "_raw_DS_CLASIF_GEN": "Suelo No Urbanizable Protegido", "_raw_DS_CLASIF_DET": "Suelo No Urbanizable Protegido", "_raw_DS_DOCU": "NORMAS SUBSIDIARIAS", "_raw_DS_LEY": "CM Ley 9/1995, E RDL 1/1992", "_raw_FC_AC": "2003-03-20", "_raw_NM_AREA_M2": 828664.19289517705, "_cam_code": "050" }, "geometry": { "type": "Polygon", "coordinates": [ [ [ -3.8225, 40.1898 ], [ -3.8232, 40.1898 ], [ -3.8233, 40.1897 ], [ -3.8237, 40.1898 ], [ -3.8251, 40.1867 ], [ -3.8257, 40.1859 ], [ -3.8275, 40.1867 ], [ -3.8275, 40.1866 ], [ -3.828, 40.1868 ], [ -3.8285, 40.186 ], [ -3.8276, 40.1853 ], [ -3.8235, 40.1835 ], [ -3.8217, 40.1824 ], [ -3.82, 40.1819 ], [ -3.8201, 40.1817 ], [ -3.82, 40.1816 ], [ -3.8171, 40.1803 ], [ -3.8161, 40.1801 ], [ -3.8156, 40.1798 ], [ -3.8125, 40.1864 ], [ -3.8138, 40.1874 ], [ -3.8141, 40.188 ], [ -3.8149, 40.1883 ], [ -3.8149, 40.1884 ], [ -3.8153, 40.1885 ], [ -3.8153, 40.1886 ], [ -3.8176, 40.1889 ], [ -3.8176, 40.189 ], [ -3.8183, 40.189 ], [ -3.8188, 40.1892 ], [ -3.8192, 40.1892 ], [ -3.8201, 40.1896 ], [ -3.8212, 40.1896 ], [ -3.8217, 40.1898 ], [ -3.8225, 40.1898 ] ] ] } },
{ "type": "Feature", "properties": { "municipio": "Cubas de la Sagra", "clasificacion": "no-urbanizable-protegido", "calificacion": "sin-asignar", "version": "vigente", "fuente": "SIT-CAM WFS — UsoDelSuelo:VPLA_V_CLASIFICACION (https://idem.comunidad.madrid/geosrvg/ows)", "fecha_dato": "2026-05-12", "ambito": "53387", "_raw_CD_SIGLAS": "SNUP", "_raw_DS_CLASIF_GEN": "Suelo No Urbanizable Protegido", "_raw_DS_CLASIF_DET": "Suelo No Urbanizable Protegido", "_raw_DS_DOCU": "NORMAS SUBSIDIARIAS", "_raw_DS_LEY": "CM Ley 9/1995, E RDL 1/1992", "_raw_FC_AC": "2003-03-20", "_raw_NM_AREA_M2": 124065.656646487, "_cam_code": "050" }, "geometry": { "type": "Polygon", "coordinates": [ [ [ -3.8485, 40.1901 ], [ -3.8496, 40.1903 ], [ -3.8502, 40.1892 ], [ -3.8529, 40.1891 ], [ -3.853, 40.1889 ], [ -3.8526, 40.1888 ], [ -3.8514, 40.1881 ], [ -3.8503, 40.188 ], [ -3.8499, 40.1877 ], [ -3.8482, 40.1876 ], [ -3.8477, 40.1873 ], [ -3.8476, 40.1871 ], [ -3.8467, 40.1868 ], [ -3.8463, 40.1868 ], [ -3.8458, 40.1872 ], [ -3.8447, 40.1884 ], [ -3.8478, 40.1896 ], [ -3.848, 40.1898 ], [ -3.8486, 40.19 ], [ -3.8485, 40.1901 ] ] ] } },
{ "type": "Feature", "properties": { "municipio": "Cubas de la Sagra", "clasificacion": "no-urbanizable-protegido", "calificacion": "sin-asignar", "version": "vigente", "fuente": "SIT-CAM WFS — UsoDelSuelo:VPLA_V_CLASIFICACION (https://idem.comunidad.madrid/geosrvg/ows)", "fecha_dato": "2026-05-12", "ambito": "53387", "_raw_CD_SIGLAS": "SNUP", "_raw_DS_CLASIF_GEN": "Suelo No Urbanizable Protegido", "_raw_DS_CLASIF_DET": "Suelo No Urbanizable Protegido", "_raw_DS_DOCU": "NORMAS SUBSIDIARIAS", "_raw_DS_LEY": "CM Ley 9/1995, E RDL 1/1992", "_raw_FC_AC": "2003-03-20", "_raw_NM_AREA_M2": 1566335.3751765101, "_cam_code": "050" }, "geometry": { "type": "Polygon", "coordinates": [ [ [ -3.8222, 40.2031 ], [ -3.8226, 40.203 ], [ -3.8231, 40.2022 ], [ -3.8238, 40.2005 ], [ -3.8239, 40.2005 ], [ -3.8239, 40.2003 ], [ -3.824, 40.2003 ], [ -3.8241, 40.1999 ], [ -3.8243, 40.1997 ], [ -3.8244, 40.1991 ], [ -3.8248, 40.1986 ], [ -3.825, 40.1981 ], [ -3.8255, 40.1976 ], [ -3.8257, 40.1976 ], [ -3.8265, 40.1971 ], [ -3.827, 40.1966 ], [ -3.8279, 40.196 ], [ -3.8253, 40.1961 ], [ -3.8238, 40.19 ], [ -3.8237, 40.1899 ], [ -3.8215, 40.19 ], [ -3.8214, 40.1903 ], [ -3.8218, 40.1906 ], [ -3.8227, 40.1906 ], [ -3.8229, 40.1908 ], [ -3.8216, 40.1909 ], [ -3.8213, 40.1905 ], [ -3.8199, 40.1903 ], [ -3.8191, 40.1901 ], [ -3.8191, 40.19 ], [ -3.8184, 40.1898 ], [ -3.8184, 40.1897 ], [ -3.8173, 40.1896 ], [ -3.8169, 40.1895 ], [ -3.8169, 40.1894 ], [ -3.8166, 40.1894 ], [ -3.8166, 40.1893 ], [ -3.8148, 40.189 ], [ -3.8144, 40.1889 ], [ -3.8144, 40.1888 ], [ -3.8141, 40.1888 ], [ -3.8141, 40.1887 ], [ -3.8138, 40.1887 ], [ -3.8138, 40.1886 ], [ -3.8128, 40.1883 ], [ -3.8122, 40.187 ], [ -3.8095, 40.1857 ], [ -3.8095, 40.1855 ], [ -3.8087, 40.1849 ], [ -3.8083, 40.186 ], [ -3.8083, 40.1863 ], [ -3.8079, 40.1873 ], [ -3.8078, 40.1873 ], [ -3.8072, 40.1891 ], [ -3.8072, 40.1892 ], [ -3.8088, 40.1893 ], [ -3.808, 40.1924 ], [ -3.8085, 40.1926 ], [ -3.8084, 40.1933 ], [ -3.8078, 40.1948 ], [ -3.8078, 40.1949 ], [ -3.8078, 40.195 ], [ -3.8078, 40.195 ], [ -3.8077, 40.195 ], [ -3.8079, 40.195 ], [ -3.8106, 40.195 ], [ -3.8125, 40.1954 ], [ -3.8122, 40.197 ], [ -3.8126, 40.1972 ], [ -3.8131, 40.1978 ], [ -3.8137, 40.1981 ], [ -3.8147, 40.1982 ], [ -3.8154, 40.1979 ], [ -3.8168, 40.1977 ], [ -3.8198, 40.1966 ], [ -3.8207, 40.1957 ], [ -3.8209, 40.196 ], [ -3.8205, 40.1965 ], [ -3.8199, 40.1969 ], [ -3.8194, 40.197 ], [ -3.8185, 40.1976 ], [ -3.8172, 40.1979 ], [ -3.817, 40.1981 ], [ -3.8178, 40.1986 ], [ -3.8182, 40.1993 ], [ -3.8194, 40.2008 ], [ -3.8195, 40.2012 ], [ -3.82, 40.2015 ], [ -3.8208, 40.2025 ], [ -3.8216, 40.2031 ], [ -3.822, 40.203 ], [ -3.8222, 40.2031 ] ] ] } },
{ "type": "Feature", "properties": { "municipio": "Cubas de la Sagra", "clasificacion": "no-urbanizable-protegido", "calificacion": "sin-asignar", "version": "vigente", "fuente": "SIT-CAM WFS — UsoDelSuelo:VPLA_V_CLASIFICACION (https://idem.comunidad.madrid/geosrvg/ows)", "fecha_dato": "2026-05-12", "ambito": "53387", "_raw_CD_SIGLAS": "SNUP", "_raw_DS_CLASIF_GEN": "Suelo No Urbanizable Protegido", "_raw_DS_CLASIF_DET": "Suelo No Urbanizable Protegido", "_raw_DS_DOCU": "NORMAS SUBSIDIARIAS", "_raw_DS_LEY": "CM Ley 9/1995, E RDL 1/1992", "_raw_FC_AC": "2003-03-20", "_raw_NM_AREA_M2": 313981.10951059801, "_cam_code": "050" }, "geometry": { "type": "Polygon", "coordinates": [ [ [ -3.8137, 40.201 ], [ -3.8132, 40.1999 ], [ -3.8132, 40.1998 ], [ -3.8125, 40.198 ], [ -3.8125, 40.1981 ], [ -3.8127, 40.1982 ], [ -3.8129, 40.1983 ], [ -3.8134, 40.1985 ], [ -3.8141, 40.1985 ], [ -3.8149, 40.1987 ], [ -3.8155, 40.1983 ], [ -3.8164, 40.1985 ], [ -3.8171, 40.1985 ], [ -3.8179, 40.1996 ], [ -3.8178, 40.1999 ], [ -3.8181, 40.2001 ], [ -3.8183, 40.2006 ], [ -3.8186, 40.2008 ], [ -3.819, 40.2017 ], [ -3.8194, 40.2018 ], [ -3.82, 40.2026 ], [ -3.8207, 40.2032 ], [ -3.8211, 40.2034 ], [ -3.822, 40.2034 ], [ -3.8221, 40.2035 ], [ -3.8217, 40.2041 ], [ -3.8215, 40.2047 ], [ -3.8213, 40.2049 ], [ -3.8209, 40.2049 ], [ -3.8209, 40.205 ], [ -3.8138, 40.2035 ], [ -3.8137, 40.201 ] ] ] } },
{ "type": "Feature", "properties": { "municipio": "Cubas de la Sagra", "clasificacion": "no-urbanizable-protegido", "calificacion": "sin-asignar", "version": "vigente", "fuente": "SIT-CAM WFS — UsoDelSuelo:VPLA_V_CLASIFICACION (https://idem.comunidad.madrid/geosrvg/ows)", "fecha_dato": "2026-05-12", "ambito": "53387", "_raw_CD_SIGLAS": "SNUP", "_raw_DS_CLASIF_GEN": "Suelo No Urbanizable Protegido", "_raw_DS_CLASIF_DET": "Suelo No Urbanizable Protegido", "_raw_DS_DOCU": "NORMAS SUBSIDIARIAS", "_raw_DS_LEY": "CM Ley 9/1995, E RDL 1/1992", "_raw_FC_AC": "2003-03-20", "_raw_NM_AREA_M2": 92233.080202163706, "_cam_code": "050" }, "geometry": { "type": "Polygon", "coordinates": [ [ [ -3.8367, 40.1974 ], [ -3.8367, 40.1969 ], [ -3.8364, 40.1968 ], [ -3.8364, 40.1963 ], [ -3.8363, 40.1963 ], [ -3.8362, 40.1958 ], [ -3.8359, 40.1957 ], [ -3.8346, 40.1947 ], [ -3.8341, 40.1951 ], [ -3.8335, 40.1947 ], [ -3.833, 40.1948 ], [ -3.8314, 40.1958 ], [ -3.8309, 40.1963 ], [ -3.832, 40.1968 ], [ -3.8338, 40.197 ], [ -3.835, 40.1974 ], [ -3.8354, 40.1973 ], [ -3.8367, 40.1974 ] ] ] } },
{ "type": "Feature", "properties": { "municipio": "Cubas de la Sagra", "clasificacion": "no-urbanizable-protegido", "calificacion": "sin-asignar", "version": "vigente", "fuente": "SIT-CAM WFS — UsoDelSuelo:VPLA_V_CLASIFICACION (https://idem.comunidad.madrid/geosrvg/ows)", "fecha_dato": "2026-05-12", "ambito": "53387", "_raw_CD_SIGLAS": "SNUP", "_raw_DS_CLASIF_GEN": "Suelo No Urbanizable Protegido", "_raw_DS_CLASIF_DET": "Suelo No Urbanizable Protegido", "_raw_DS_DOCU": "NORMAS SUBSIDIARIAS", "_raw_DS_LEY": "CM Ley 9/1995, E RDL 1/1992", "_raw_FC_AC": "2003-03-20", "_raw_NM_AREA_M2": 113916.302687588, "_cam_code": "050" }, "geometry": { "type": "Polygon", "coordinates": [ [ [ -3.8406, 40.1989 ], [ -3.8406, 40.1992 ], [ -3.841, 40.2003 ], [ -3.8421, 40.2007 ], [ -3.8438, 40.2009 ], [ -3.8439, 40.201 ], [ -3.8452, 40.2009 ], [ -3.8464, 40.2011 ], [ -3.8473, 40.2008 ], [ -3.848, 40.2009 ], [ -3.8464, 40.1995 ], [ -3.8447, 40.1996 ], [ -3.8445, 40.1992 ], [ -3.8431, 40.1979 ], [ -3.8419, 40.1986 ], [ -3.8406, 40.1989 ] ] ] } },
{ "type": "Feature", "properties": { "municipio": "Cubas de la Sagra", "clasificacion": "no-urbanizable-protegido", "calificacion": "sin-asignar", "version": "vigente", "fuente": "SIT-CAM WFS — UsoDelSuelo:VPLA_V_CLASIFICACION (https://idem.comunidad.madrid/geosrvg/ows)", "fecha_dato": "2026-05-12", "ambito": "53387", "_raw_CD_SIGLAS": "SNUP", "_raw_DS_CLASIF_GEN": "Suelo No Urbanizable Protegido", "_raw_DS_CLASIF_DET": "Suelo No Urbanizable Protegido", "_raw_DS_DOCU": "NORMAS SUBSIDIARIAS", "_raw_DS_LEY": "CM Ley 9/1995, E RDL 1/1992", "_raw_FC_AC": "2003-03-20", "_raw_NM_AREA_M2": 939810.52434948098, "_cam_code": "050" }, "geometry": { "type": "Polygon", "coordinates": [ [ [ -3.856, 40.1998 ], [ -3.8597, 40.1995 ], [ -3.8626, 40.1996 ], [ -3.8665, 40.2013 ], [ -3.8675, 40.2002 ], [ -3.8689, 40.201 ], [ -3.87, 40.1999 ], [ -3.8713, 40.1989 ], [ -3.8724, 40.197 ], [ -3.8734, 40.1958 ], [ -3.8737, 40.1951 ], [ -3.8736, 40.195 ], [ -3.8708, 40.1948 ], [ -3.8687, 40.1943 ], [ -3.8657, 40.1943 ], [ -3.8623, 40.1936 ], [ -3.8581, 40.1931 ], [ -3.8577, 40.1939 ], [ -3.8563, 40.1938 ], [ -3.8563, 40.1941 ], [ -3.8554, 40.194 ], [ -3.856, 40.1998 ] ] ] } },
{ "type": "Feature", "properties": { "municipio": "Cubas de la Sagra", "clasificacion": "no-urbanizable-protegido", "calificacion": "sin-asignar", "version": "vigente", "fuente": "SIT-CAM WFS — UsoDelSuelo:VPLA_V_CLASIFICACION (https://idem.comunidad.madrid/geosrvg/ows)", "fecha_dato": "2026-05-12", "ambito": "53387", "_raw_CD_SIGLAS": "SNUP", "_raw_DS_CLASIF_GEN": "Suelo No Urbanizable Protegido", "_raw_DS_CLASIF_DET": "Suelo No Urbanizable Protegido-Vías Pecuarias", "_raw_DS_DOCU": "NORMAS SUBSIDIARIAS", "_raw_DS_LEY": "CM Ley 9/1995, E RDL 1/1992", "_raw_FC_AC": "2003-03-20", "_raw_NM_AREA_M2": 31639.677382280399, "_cam_code": "050" }, "geometry": { "type": "Polygon", "coordinates": [ [ [ -3.8284, 40.186 ], [ -3.8295, 40.1867 ], [ -3.8296, 40.1866 ], [ -3.8276, 40.1851 ], [ -3.824, 40.1835 ], [ -3.8216, 40.1822 ], [ -3.8214, 40.1819 ], [ -3.8201, 40.1815 ], [ -3.8172, 40.1801 ], [ -3.8161, 40.1799 ], [ -3.8157, 40.1797 ], [ -3.8156, 40.1798 ], [ -3.8161, 40.1801 ], [ -3.8171, 40.1803 ], [ -3.82, 40.1816 ], [ -3.8201, 40.1817 ], [ -3.82, 40.1819 ], [ -3.8217, 40.1824 ], [ -3.8235, 40.1835 ], [ -3.8276, 40.1853 ], [ -3.8284, 40.186 ] ] ] } },
{ "type": "Feature", "properties": { "municipio": "Cubas de la Sagra", "clasificacion": "no-urbanizable-protegido", "calificacion": "sin-asignar", "version": "vigente", "fuente": "SIT-CAM WFS — UsoDelSuelo:VPLA_V_CLASIFICACION (https://idem.comunidad.madrid/geosrvg/ows)", "fecha_dato": "2026-05-12", "ambito": "53387", "_raw_CD_SIGLAS": "SNUP", "_raw_DS_CLASIF_GEN": "Suelo No Urbanizable Protegido", "_raw_DS_CLASIF_DET": "SNUP afección de cauces", "_raw_DS_DOCU": "NORMAS SUBSIDIARIAS", "_raw_DS_LEY": "CM Ley 9/1995, E RDL 1/1992", "_raw_FC_AC": "2003-03-20", "_raw_NM_AREA_M2": 54192.785937254499, "_cam_code": "050" }, "geometry": { "type": "Polygon", "coordinates": [ [ [ -3.8235, 40.1795 ], [ -3.8236, 40.1799 ], [ -3.8239, 40.1803 ], [ -3.8279, 40.1813 ], [ -3.8285, 40.1813 ], [ -3.8292, 40.1815 ], [ -3.8293, 40.1818 ], [ -3.8301, 40.1825 ], [ -3.8305, 40.1827 ], [ -3.8315, 40.1829 ], [ -3.8333, 40.1839 ], [ -3.8338, 40.184 ], [ -3.8342, 40.1836 ], [ -3.8342, 40.1835 ], [ -3.8334, 40.1834 ], [ -3.8317, 40.1824 ], [ -3.8307, 40.1823 ], [ -3.8303, 40.1821 ], [ -3.8292, 40.181 ], [ -3.8276, 40.1808 ], [ -3.8252, 40.1801 ], [ -3.8247, 40.1801 ], [ -3.8242, 40.1797 ], [ -3.8243, 40.1793 ], [ -3.8237, 40.1793 ], [ -3.8236, 40.1792 ], [ -3.8235, 40.1795 ] ] ] } },
{ "type": "Feature", "properties": { "municipio": "Cubas de la Sagra", "clasificacion": "no-urbanizable-protegido", "calificacion": "sin-asignar", "version": "vigente", "fuente": "SIT-CAM WFS — UsoDelSuelo:VPLA_V_CLASIFICACION (https://idem.comunidad.madrid/geosrvg/ows)", "fecha_dato": "2026-05-12", "ambito": "53387", "_raw_CD_SIGLAS": "SNUP", "_raw_DS_CLASIF_GEN": "Suelo No Urbanizable Protegido", "_raw_DS_CLASIF_DET": "SNUP edafológico y agrario", "_raw_DS_DOCU": "NORMAS SUBSIDIARIAS", "_raw_DS_LEY": "CM Ley 9/1995, E RDL 1/1992", "_raw_FC_AC": "2003-03-20", "_raw_NM_AREA_M2": 1111033.82565913, "_cam_code": "050" }, "geometry": { "type": "Polygon", "coordinates": [ [ [ -3.8706, 40.1946 ], [ -3.8731, 40.1948 ], [ -3.8735, 40.1945 ], [ -3.8743, 40.1944 ], [ -3.8752, 40.193 ], [ -3.8761, 40.1911 ], [ -3.8763, 40.1912 ], [ -3.8761, 40.1911 ], [ -3.8757, 40.191 ], [ -3.872, 40.1902 ], [ -3.871, 40.1899 ], [ -3.8666, 40.1881 ], [ -3.8634, 40.1861 ], [ -3.861, 40.1844 ], [ -3.8603, 40.185 ], [ -3.8594, 40.1842 ], [ -3.8599, 40.1837 ], [ -3.8594, 40.1832 ], [ -3.8583, 40.1829 ], [ -3.8585, 40.1825 ], [ -3.8584, 40.1824 ], [ -3.8567, 40.1815 ], [ -3.8557, 40.1807 ], [ -3.8551, 40.1805 ], [ -3.8543, 40.1799 ], [ -3.8542, 40.18 ], [ -3.8537, 40.1799 ], [ -3.8543, 40.1858 ], [ -3.8556, 40.1863 ], [ -3.8556, 40.1864 ], [ -3.8566, 40.1866 ], [ -3.8561, 40.1869 ], [ -3.8545, 40.1867 ], [ -3.8544, 40.1866 ], [ -3.8547, 40.1885 ], [ -3.8562, 40.1873 ], [ -3.8564, 40.1878 ], [ -3.8569, 40.1881 ], [ -3.8571, 40.1884 ], [ -3.8588, 40.1895 ], [ -3.859, 40.1895 ], [ -3.8593, 40.1898 ], [ -3.8601, 40.1886 ], [ -3.8605, 40.1888 ], [ -3.8609, 40.1881 ], [ -3.861, 40.1881 ], [ -3.8615, 40.1884 ], [ -3.8612, 40.1891 ], [ -3.8616, 40.1893 ], [ -3.8624, 40.1896 ], [ -3.8629, 40.189 ], [ -3.8635, 40.1892 ], [ -3.8629, 40.19 ], [ -3.8629, 40.1902 ], [ -3.8634, 40.1903 ], [ -3.8622, 40.1919 ], [ -3.8619, 40.1925 ], [ -3.8618, 40.1925 ], [ -3.8623, 40.1926 ], [ -3.8621, 40.1934 ], [ -3.8642, 40.1937 ], [ -3.8642, 40.1938 ], [ -3.8661, 40.1942 ], [ -3.8687, 40.1941 ], [ -3.8699, 40.1943 ], [ -3.8706, 40.1946 ] ] ] } },
{ "type": "Feature", "properties": { "municipio": "Cubas de la Sagra", "clasificacion": "no-urbanizable-protegido", "calificacion": "sin-asignar", "version": "vigente", "fuente": "SIT-CAM WFS — UsoDelSuelo:VPLA_V_CLASIFICACION (https://idem.comunidad.madrid/geosrvg/ows)", "fecha_dato": "2026-05-12", "ambito": "53387", "_raw_CD_SIGLAS": "SNUP", "_raw_DS_CLASIF_GEN": "Suelo No Urbanizable Protegido", "_raw_DS_CLASIF_DET": "SNUP edafológico y agrario", "_raw_DS_DOCU": "NORMAS SUBSIDIARIAS", "_raw_DS_LEY": "CM Ley 9/1995, E RDL 1/1992", "_raw_FC_AC": "2003-03-20", "_raw_NM_AREA_M2": 487835.40879224002, "_cam_code": "050" }, "geometry": { "type": "Polygon", "coordinates": [ [ [ -3.8296, 40.1865 ], [ -3.8311, 40.1874 ], [ -3.8338, 40.184 ], [ -3.8333, 40.1839 ], [ -3.8315, 40.1829 ], [ -3.8305, 40.1827 ], [ -3.8301, 40.1825 ], [ -3.8293, 40.1818 ], [ -3.8292, 40.1815 ], [ -3.8285, 40.1813 ], [ -3.8279, 40.1813 ], [ -3.8239, 40.1803 ], [ -3.8235, 40.1797 ], [ -3.8236, 40.1792 ], [ -3.8226, 40.1791 ], [ -3.8214, 40.1793 ], [ -3.8188, 40.1794 ], [ -3.8159, 40.1792 ], [ -3.8157, 40.1797 ], [ -3.8161, 40.1799 ], [ -3.8172, 40.1801 ], [ -3.8201, 40.1815 ], [ -3.8214, 40.1819 ], [ -3.8216, 40.1822 ], [ -3.824, 40.1835 ], [ -3.8276, 40.1851 ], [ -3.8296, 40.1866 ], [ -3.8296, 40.1865 ] ] ] } },
{ "type": "Feature", "properties": { "municipio": "Cubas de la Sagra", "clasificacion": "no-urbanizable-protegido", "calificacion": "sin-asignar", "version": "vigente", "fuente": "SIT-CAM WFS — UsoDelSuelo:VPLA_V_CLASIFICACION (https://idem.comunidad.madrid/geosrvg/ows)", "fecha_dato": "2026-05-12", "ambito": "53387", "_raw_CD_SIGLAS": "SNUP", "_raw_DS_CLASIF_GEN": "Suelo No Urbanizable Protegido", "_raw_DS_CLASIF_DET": "Suelo No Urbanizable Protegido-Vías Pecuarias", "_raw_DS_DOCU": "NORMAS SUBSIDIARIAS", "_raw_DS_LEY": "CM Ley 9/1995, E RDL 1/1992", "_raw_FC_AC": "2003-03-20", "_raw_NM_AREA_M2": 3649.5034676301502, "_cam_code": "050" }, "geometry": { "type": "Polygon", "coordinates": [ [ [ -3.8079, 40.1793 ], [ -3.806, 40.18 ], [ -3.8059, 40.1804 ], [ -3.8064, 40.1799 ], [ -3.8072, 40.1798 ], [ -3.8089, 40.1792 ], [ -3.8079, 40.1795 ], [ -3.8079, 40.1793 ] ] ] } },
{ "type": "Feature", "properties": { "municipio": "Cubas de la Sagra", "clasificacion": "no-urbanizable-protegido", "calificacion": "sin-asignar", "version": "vigente", "fuente": "SIT-CAM WFS — UsoDelSuelo:VPLA_V_CLASIFICACION (https://idem.comunidad.madrid/geosrvg/ows)", "fecha_dato": "2026-05-12", "ambito": "53387", "_raw_CD_SIGLAS": "SNUP", "_raw_DS_CLASIF_GEN": "Suelo No Urbanizable Protegido", "_raw_DS_CLASIF_DET": "SNUP afección de infraestructuras", "_raw_DS_DOCU": "NORMAS SUBSIDIARIAS", "_raw_DS_LEY": "CM Ley 9/1995, E RDL 1/1992", "_raw_FC_AC": "2003-03-20", "_raw_NM_AREA_M2": 10247.237531365499, "_cam_code": "050" }, "geometry": { "type": "Polygon", "coordinates": [ [ [ -3.8138, 40.2035 ], [ -3.8138, 40.2036 ], [ -3.8179, 40.2045 ], [ -3.8209, 40.205 ], [ -3.8138, 40.2035 ], [ -3.8138, 40.2034 ], [ -3.8138, 40.2035 ] ] ] } },
{ "type": "Feature", "properties": { "municipio": "Cubas de la Sagra", "clasificacion": "no-urbanizable-protegido", "calificacion": "sin-asignar", "version": "vigente", "fuente": "SIT-CAM WFS — UsoDelSuelo:VPLA_V_CLASIFICACION (https://idem.comunidad.madrid/geosrvg/ows)", "fecha_dato": "2026-05-12", "ambito": "53387", "_raw_CD_SIGLAS": "SNUP", "_raw_DS_CLASIF_GEN": "Suelo No Urbanizable Protegido", "_raw_DS_CLASIF_DET": "SNUP afección de infraestructuras", "_raw_DS_DOCU": "NORMAS SUBSIDIARIAS", "_raw_DS_LEY": "CM Ley 9/1995, E RDL 1/1992", "_raw_FC_AC": "2003-03-20", "_raw_NM_AREA_M2": 42230.436746484898, "_cam_code": "050" }, "geometry": { "type": "Polygon", "coordinates": [ [ [ -3.8546, 40.1939 ], [ -3.8553, 40.1999 ], [ -3.8554, 40.1998 ], [ -3.856, 40.1998 ], [ -3.8554, 40.194 ], [ -3.8546, 40.1939 ] ] ] } },
{ "type": "Feature", "properties": { "municipio": "Cubas de la Sagra", "clasificacion": "no-urbanizable-protegido", "calificacion": "sin-asignar", "version": "vigente", "fuente": "SIT-CAM WFS — UsoDelSuelo:VPLA_V_CLASIFICACION (https://idem.comunidad.madrid/geosrvg/ows)", "fecha_dato": "2026-05-12", "ambito": "53387", "_raw_CD_SIGLAS": "SNUP", "_raw_DS_CLASIF_GEN": "Suelo No Urbanizable Protegido", "_raw_DS_CLASIF_DET": "SNUP afección de infraestructuras", "_raw_DS_DOCU": "NORMAS SUBSIDIARIAS", "_raw_DS_LEY": "CM Ley 9/1995, E RDL 1/1992", "_raw_FC_AC": "2003-03-20", "_raw_NM_AREA_M2": 26544.236042866902, "_cam_code": "050" }, "geometry": { "type": "Polygon", "coordinates": [ [ [ -3.8736, 40.195 ], [ -3.8739, 40.1951 ], [ -3.8739, 40.1952 ], [ -3.874, 40.195 ], [ -3.8715, 40.1946 ], [ -3.8706, 40.1946 ], [ -3.8699, 40.1943 ], [ -3.8687, 40.1941 ], [ -3.8661, 40.1942 ], [ -3.8632, 40.1935 ], [ -3.8621, 40.1934 ], [ -3.8621, 40.1935 ], [ -3.862, 40.1934 ], [ -3.8581, 40.193 ], [ -3.8581, 40.1931 ], [ -3.8594, 40.1933 ], [ -3.8641, 40.1939 ], [ -3.8657, 40.1943 ], [ -3.8687, 40.1943 ], [ -3.8708, 40.1948 ], [ -3.8736, 40.195 ] ] ] } },
{ "type": "Feature", "properties": { "municipio": "Cubas de la Sagra", "clasificacion": "no-urbanizable-protegido", "calificacion": "sin-asignar", "version": "vigente", "fuente": "SIT-CAM WFS — UsoDelSuelo:VPLA_V_CLASIFICACION (https://idem.comunidad.madrid/geosrvg/ows)", "fecha_dato": "2026-05-12", "ambito": "53387", "_raw_CD_SIGLAS": "SNUP", "_raw_DS_CLASIF_GEN": "Suelo No Urbanizable Protegido", "_raw_DS_CLASIF_DET": "SNUP afección de infraestructuras", "_raw_DS_DOCU": "NORMAS SUBSIDIARIAS", "_raw_DS_LEY": "CM Ley 9/1995, E RDL 1/1992", "_raw_FC_AC": "2003-03-20", "_raw_NM_AREA_M2": 104906.025982815, "_cam_code": "050" }, "geometry": { "type": "Polygon", "coordinates": [ [ [ -3.8535, 40.1794 ], [ -3.8525, 40.1795 ], [ -3.8535, 40.189 ], [ -3.8541, 40.1892 ], [ -3.8542, 40.1888 ], [ -3.8547, 40.1885 ], [ -3.8543, 40.1858 ], [ -3.8537, 40.1799 ], [ -3.8536, 40.1799 ], [ -3.8535, 40.1794 ] ] ] } },
{ "type": "Feature", "properties": { "municipio": "Cubas de la Sagra", "clasificacion": "no-urbanizable-protegido", "calificacion": "sin-asignar", "version": "vigente", "fuente": "SIT-CAM WFS — UsoDelSuelo:VPLA_V_CLASIFICACION (https://idem.comunidad.madrid/geosrvg/ows)", "fecha_dato": "2026-05-12", "ambito": "53387", "_raw_CD_SIGLAS": "SNUP", "_raw_DS_CLASIF_GEN": "Suelo No Urbanizable Protegido", "_raw_DS_CLASIF_DET": "Suelo No Urbanizable Protegido", "_raw_DS_DOCU": "NORMAS SUBSIDIARIAS", "_raw_DS_LEY": "CM Ley 9/1995, E RDL 1/1992", "_raw_FC_AC": "2003-03-20", "_raw_NM_AREA_M2": 73484.803322211403, "_cam_code": "050" }, "geometry": { "type": "Polygon", "coordinates": [ [ [ -3.8419, 40.2034 ], [ -3.844, 40.2033 ], [ -3.8448, 40.2018 ], [ -3.848, 40.2012 ], [ -3.8477, 40.2011 ], [ -3.8471, 40.2011 ], [ -3.8468, 40.2013 ], [ -3.8453, 40.2013 ], [ -3.8449, 40.2011 ], [ -3.8434, 40.2012 ], [ -3.8412, 40.2007 ], [ -3.8408, 40.2005 ], [ -3.8413, 40.2013 ], [ -3.8419, 40.2034 ] ] ] } },
{ "type": "Feature", "properties": { "municipio": "Cubas de la Sagra", "clasificacion": "no-urbanizable-protegido", "calificacion": "sin-asignar", "version": "vigente", "fuente": "SIT-CAM WFS — UsoDelSuelo:VPLA_V_CLASIFICACION (https://idem.comunidad.madrid/geosrvg/ows)", "fecha_dato": "2026-05-12", "ambito": "53387", "_raw_CD_SIGLAS": "SNUP", "_raw_DS_CLASIF_GEN": "Suelo No Urbanizable Protegido", "_raw_DS_CLASIF_DET": "Suelo No Urbanizable Protegido", "_raw_DS_DOCU": "NORMAS SUBSIDIARIAS", "_raw_DS_LEY": "CM Ley 9/1995, E RDL 1/1992", "_raw_FC_AC": "2003-03-20", "_raw_NM_AREA_M2": 272069.24948721897, "_cam_code": "050" }, "geometry": { "type": "Polygon", "coordinates": [ [ [ -3.836, 40.202 ], [ -3.8401, 40.2031 ], [ -3.8417, 40.2033 ], [ -3.841, 40.2013 ], [ -3.8402, 40.2 ], [ -3.8399, 40.1986 ], [ -3.8395, 40.1986 ], [ -3.8395, 40.1987 ], [ -3.8387, 40.1986 ], [ -3.8381, 40.1979 ], [ -3.8348, 40.1975 ], [ -3.8349, 40.1976 ], [ -3.8348, 40.1983 ], [ -3.8341, 40.1985 ], [ -3.8342, 40.2022 ], [ -3.836, 40.202 ] ] ] } },
{ "type": "Feature", "properties": { "municipio": "Cubas de la Sagra", "clasificacion": "urbano-consolidado", "calificacion": "sin-asignar", "version": "vigente", "fuente": "SIT-CAM WFS — UsoDelSuelo:VPLA_V_CLASIFICACION (https://idem.comunidad.madrid/geosrvg/ows)", "fecha_dato": "2026-05-12", "ambito": "53387", "_raw_CD_SIGLAS": "SU", "_raw_DS_CLASIF_GEN": "Suelo Urbano (INCORPORADO)", "_raw_DS_CLASIF_DET": "Suelo Urbano Incorporado", "_raw_DS_DOCU": "NORMAS SUBSIDIARIAS", "_raw_DS_LEY": "CM Ley 9/1995, E RDL 1/1992", "_raw_FC_AC": "2003-03-20", "_raw_NM_AREA_M2": 149181.340309666, "_cam_code": "050" }, "geometry": { "type": "Polygon", "coordinates": [ [ [ -3.8303, 40.1936 ], [ -3.831, 40.1944 ], [ -3.8328, 40.1935 ], [ -3.8321, 40.1933 ], [ -3.8321, 40.1922 ], [ -3.8316, 40.191 ], [ -3.8303, 40.1907 ], [ -3.8299, 40.1921 ], [ -3.8289, 40.1916 ], [ -3.8279, 40.1914 ], [ -3.8275, 40.1919 ], [ -3.8275, 40.1916 ], [ -3.8259, 40.1918 ], [ -3.8261, 40.1923 ], [ -3.8255, 40.1923 ], [ -3.8256, 40.1932 ], [ -3.8261, 40.1933 ], [ -3.826, 40.1936 ], [ -3.8259, 40.1936 ], [ -3.826, 40.1942 ], [ -3.8266, 40.1942 ], [ -3.8303, 40.1936 ] ] ] } },
{ "type": "Feature", "properties": { "municipio": "Cubas de la Sagra", "clasificacion": "urbanizable-sectorizado", "calificacion": "sin-asignar", "version": "vigente", "fuente": "SIT-CAM WFS — UsoDelSuelo:VPLA_V_CLASIFICACION (https://idem.comunidad.madrid/geosrvg/ows)", "fecha_dato": "2026-05-12", "ambito": "53387", "_raw_CD_SIGLAS": "SUBS", "_raw_DS_CLASIF_GEN": "Suelo Urbanizable Sectorizado", "_raw_DS_CLASIF_DET": "Suelo Urbanizable Sectorizado", "_raw_DS_DOCU": "NORMAS SUBSIDIARIAS", "_raw_DS_LEY": "CM Ley 9/1995, E RDL 1/1992", "_raw_FC_AC": "2003-03-20", "_raw_NM_AREA_M2": 1146856.9853940201, "_cam_code": "050" }, "geometry": { "type": "Polygon", "coordinates": [ [ [ -3.8251, 40.2 ], [ -3.8263, 40.2001 ], [ -3.8263, 40.2002 ], [ -3.8266, 40.2003 ], [ -3.8265, 40.2016 ], [ -3.8266, 40.2017 ], [ -3.8264, 40.2024 ], [ -3.8263, 40.2038 ], [ -3.8301, 40.2026 ], [ -3.832, 40.2025 ], [ -3.832, 40.2024 ], [ -3.833, 40.2024 ], [ -3.8331, 40.2023 ], [ -3.8342, 40.2022 ], [ -3.8341, 40.1985 ], [ -3.8348, 40.1983 ], [ -3.8349, 40.1976 ], [ -3.8348, 40.1975 ], [ -3.8342, 40.1975 ], [ -3.834, 40.1973 ], [ -3.8337, 40.1973 ], [ -3.8337, 40.1972 ], [ -3.8333, 40.1973 ], [ -3.8327, 40.1971 ], [ -3.832, 40.1971 ], [ -3.832, 40.197 ], [ -3.8317, 40.197 ], [ -3.8317, 40.1969 ], [ -3.8307, 40.1966 ], [ -3.8314, 40.1958 ], [ -3.8323, 40.1953 ], [ -3.8324, 40.1951 ], [ -3.8333, 40.1947 ], [ -3.8335, 40.1947 ], [ -3.8341, 40.1951 ], [ -3.8346, 40.1947 ], [ -3.8359, 40.1957 ], [ -3.8362, 40.1958 ], [ -3.8363, 40.1963 ], [ -3.8364, 40.1963 ], [ -3.8364, 40.1968 ], [ -3.8367, 40.1969 ], [ -3.8367, 40.1977 ], [ -3.8373, 40.1977 ], [ -3.8373, 40.1976 ], [ -3.8377, 40.1977 ], [ -3.8377, 40.1976 ], [ -3.8379, 40.1976 ], [ -3.8379, 40.1979 ], [ -3.8381, 40.1979 ], [ -3.8387, 40.1986 ], [ -3.839, 40.1986 ], [ -3.839, 40.1987 ], [ -3.84, 40.1986 ], [ -3.8401, 40.1991 ], [ -3.8419, 40.1986 ], [ -3.843, 40.198 ], [ -3.843, 40.1979 ], [ -3.8416, 40.1966 ], [ -3.8415, 40.1963 ], [ -3.841, 40.1964 ], [ -3.8408, 40.1966 ], [ -3.8396, 40.1967 ], [ -3.8396, 40.1964 ], [ -3.8394, 40.196 ], [ -3.8385, 40.1966 ], [ -3.8379, 40.1965 ], [ -3.8336, 40.1932 ], [ -3.8336, 40.1933 ], [ -3.8327, 40.1935 ], [ -3.831, 40.1944 ], [ -3.8303, 40.1936 ], [ -3.8266, 40.1942 ], [ -3.826, 40.1942 ], [ -3.8259, 40.1936 ], [ -3.826, 40.1936 ], [ -3.8261, 40.1933 ], [ -3.8256, 40.1932 ], [ -3.8255, 40.1929 ], [ -3.8255, 40.1923 ], [ -3.8261, 40.1923 ], [ -3.8259, 40.1918 ], [ -3.8275, 40.1916 ], [ -3.8275, 40.1919 ], [ -3.8279, 40.1914 ], [ -3.8282, 40.1914 ], [ -3.8289, 40.1916 ], [ -3.8299, 40.1921 ], [ -3.8302, 40.1908 ], [ -3.8304, 40.1906 ], [ -3.8306, 40.19 ], [ -3.8306, 40.1894 ], [ -3.8318, 40.188 ], [ -3.8308, 40.1872 ], [ -3.8296, 40.1865 ], [ -3.8295, 40.1867 ], [ -3.8295, 40.1866 ], [ -3.8285, 40.186 ], [ -3.828, 40.1868 ], [ -3.8275, 40.1866 ], [ -3.8275, 40.1867 ], [ -3.8257, 40.1859 ], [ -3.825, 40.1869 ], [ -3.8237, 40.19 ], [ -3.8238, 40.19 ], [ -3.8253, 40.1961 ], [ -3.8279, 40.196 ], [ -3.827, 40.1966 ], [ -3.8265, 40.1971 ], [ -3.8257, 40.1976 ], [ -3.8255, 40.1976 ], [ -3.825, 40.1981 ], [ -3.8248, 40.1986 ], [ -3.8244, 40.1991 ], [ -3.8243, 40.1997 ], [ -3.8241, 40.1999 ], [ -3.824, 40.2003 ], [ -3.8239, 40.2003 ], [ -3.8239, 40.2005 ], [ -3.8238, 40.2005 ], [ -3.8237, 40.2009 ], [ -3.8243, 40.2011 ], [ -3.8248, 40.2001 ], [ -3.8251, 40.2 ] ] ] } },
{ "type": "Feature", "properties": { "municipio": "Cubas de la Sagra", "clasificacion": "urbanizable-sectorizado", "calificacion": "sin-asignar", "version": "vigente", "fuente": "SIT-CAM WFS — UsoDelSuelo:VPLA_V_CLASIFICACION (https://idem.comunidad.madrid/geosrvg/ows)", "fecha_dato": "2026-05-12", "ambito": "53387", "_raw_CD_SIGLAS": "SUBS", "_raw_DS_CLASIF_GEN": "Suelo Urbanizable Sectorizado", "_raw_DS_CLASIF_DET": "Suelo Urbanizable Sectorizado", "_raw_DS_DOCU": "NORMAS SUBSIDIARIAS", "_raw_DS_LEY": "CM Ley 9/1995, E RDL 1/1992", "_raw_FC_AC": "2003-03-20", "_raw_NM_AREA_M2": 123066.402007311, "_cam_code": "050" }, "geometry": { "type": "Polygon", "coordinates": [ [ [ -3.8421, 40.1882 ], [ -3.8433, 40.1888 ], [ -3.844, 40.1885 ], [ -3.8443, 40.1882 ], [ -3.8447, 40.1884 ], [ -3.8466, 40.1865 ], [ -3.8459, 40.1863 ], [ -3.8443, 40.1864 ], [ -3.8435, 40.1861 ], [ -3.8422, 40.1861 ], [ -3.8408, 40.1857 ], [ -3.84, 40.1851 ], [ -3.8393, 40.1849 ], [ -3.8393, 40.1848 ], [ -3.8389, 40.1848 ], [ -3.8389, 40.1847 ], [ -3.8387, 40.1847 ], [ -3.8387, 40.1846 ], [ -3.8387, 40.1846 ], [ -3.8387, 40.1846 ], [ -3.8387, 40.1846 ], [ -3.8387, 40.1846 ], [ -3.8387, 40.1846 ], [ -3.8387, 40.1846 ], [ -3.8387, 40.1846 ], [ -3.8387, 40.1846 ], [ -3.8386, 40.1846 ], [ -3.8386, 40.1846 ], [ -3.8386, 40.1845 ], [ -3.8386, 40.1844 ], [ -3.8385, 40.1843 ], [ -3.8387, 40.185 ], [ -3.8394, 40.1866 ], [ -3.8394, 40.1868 ], [ -3.8396, 40.1871 ], [ -3.841, 40.1868 ], [ -3.8421, 40.1882 ] ] ] } },
{ "type": "Feature", "properties": { "municipio": "Cubas de la Sagra", "clasificacion": "urbanizable-sectorizado", "calificacion": "sin-asignar", "version": "vigente", "fuente": "SIT-CAM WFS — UsoDelSuelo:VPLA_V_CLASIFICACION (https://idem.comunidad.madrid/geosrvg/ows)", "fecha_dato": "2026-05-12", "ambito": "53387", "_raw_CD_SIGLAS": "SUBS", "_raw_DS_CLASIF_GEN": "Suelo Urbanizable Sectorizado", "_raw_DS_CLASIF_DET": "Suelo Urbanizable Sectorizado", "_raw_DS_DOCU": "NORMAS SUBSIDIARIAS", "_raw_DS_LEY": "CM Ley 9/1995, E RDL 1/1992", "_raw_FC_AC": "2003-03-20", "_raw_NM_AREA_M2": 462533.26799146098, "_cam_code": "050" }, "geometry": { "type": "Polygon", "coordinates": [ [ [ -3.81, 40.179 ], [ -3.8052, 40.1891 ], [ -3.8072, 40.1892 ], [ -3.8078, 40.1873 ], [ -3.8079, 40.1873 ], [ -3.8083, 40.1863 ], [ -3.8083, 40.186 ], [ -3.8087, 40.1849 ], [ -3.8095, 40.1855 ], [ -3.8095, 40.1857 ], [ -3.8122, 40.187 ], [ -3.8159, 40.1792 ], [ -3.8141, 40.1791 ], [ -3.8128, 40.1784 ], [ -3.8118, 40.1785 ], [ -3.8118, 40.1786 ], [ -3.8114, 40.1786 ], [ -3.8114, 40.1787 ], [ -3.811, 40.1787 ], [ -3.81, 40.179 ] ] ] } },
{ "type": "Feature", "properties": { "municipio": "Cubas de la Sagra", "clasificacion": "urbano-consolidado", "calificacion": "sin-asignar", "version": "vigente", "fuente": "SIT-CAM WFS — UsoDelSuelo:VPLA_V_CLASIFICACION (https://idem.comunidad.madrid/geosrvg/ows)", "fecha_dato": "2026-05-12", "ambito": "53387", "_raw_CD_SIGLAS": "SUC", "_raw_DS_CLASIF_GEN": "Suelo Urbano Consolidado", "_raw_DS_CLASIF_DET": null, "_raw_DS_DOCU": "NORMAS SUBSIDIARIAS", "_raw_DS_LEY": "CM Ley 9/1995, E RDL 1/1992", "_raw_FC_AC": "2003-03-20", "_raw_NM_AREA_M2": 151321.35009948499, "_cam_code": "050" }, "geometry": { "type": "Polygon", "coordinates": [ [ [ -3.856, 40.1927 ], [ -3.8583, 40.193 ], [ -3.8586, 40.1921 ], [ -3.858, 40.1919 ], [ -3.8581, 40.1919 ], [ -3.8584, 40.1913 ], [ -3.8605, 40.1918 ], [ -3.8611, 40.191 ], [ -3.862, 40.1902 ], [ -3.8627, 40.1904 ], [ -3.8622, 40.1911 ], [ -3.8627, 40.1913 ], [ -3.8634, 40.1903 ], [ -3.8629, 40.1902 ], [ -3.8629, 40.19 ], [ -3.8635, 40.1892 ], [ -3.8629, 40.189 ], [ -3.8624, 40.1896 ], [ -3.8616, 40.1893 ], [ -3.8612, 40.1891 ], [ -3.8615, 40.1884 ], [ -3.8609, 40.1881 ], [ -3.8605, 40.1888 ], [ -3.8601, 40.1886 ], [ -3.8593, 40.1898 ], [ -3.8594, 40.1899 ], [ -3.8586, 40.1907 ], [ -3.8584, 40.1912 ], [ -3.858, 40.1916 ], [ -3.858, 40.1918 ], [ -3.8561, 40.1916 ], [ -3.8571, 40.1901 ], [ -3.8548, 40.1901 ], [ -3.8549, 40.1915 ], [ -3.8546, 40.1915 ], [ -3.8547, 40.1928 ], [ -3.856, 40.1927 ] ] ] } },
{ "type": "Feature", "properties": { "municipio": "Cubas de la Sagra", "clasificacion": "urbano-consolidado", "calificacion": "sin-asignar", "version": "vigente", "fuente": "SIT-CAM WFS — UsoDelSuelo:VPLA_V_CLASIFICACION (https://idem.comunidad.madrid/geosrvg/ows)", "fecha_dato": "2026-05-12", "ambito": "53387", "_raw_CD_SIGLAS": "SUC", "_raw_DS_CLASIF_GEN": "Suelo Urbano Consolidado", "_raw_DS_CLASIF_DET": "Suelo Urbano Consolidado", "_raw_DS_DOCU": "NORMAS SUBSIDIARIAS", "_raw_DS_LEY": "CM Ley 9/1995, E RDL 1/1992", "_raw_FC_AC": "2003-03-20", "_raw_NM_AREA_M2": 684909.64927898499, "_cam_code": "050" }, "geometry": { "type": "Polygon", "coordinates": [ [ [ -3.8477, 40.1975 ], [ -3.8478, 40.1991 ], [ -3.8474, 40.1992 ], [ -3.8469, 40.1996 ], [ -3.8486, 40.2011 ], [ -3.8512, 40.2011 ], [ -3.8505, 40.2 ], [ -3.8505, 40.1999 ], [ -3.8507, 40.1999 ], [ -3.8505, 40.1996 ], [ -3.8522, 40.199 ], [ -3.8528, 40.1997 ], [ -3.8546, 40.1989 ], [ -3.855, 40.199 ], [ -3.8551, 40.1989 ], [ -3.8552, 40.199 ], [ -3.8544, 40.193 ], [ -3.8541, 40.1892 ], [ -3.853, 40.1888 ], [ -3.8529, 40.1891 ], [ -3.8502, 40.1892 ], [ -3.8496, 40.1903 ], [ -3.8485, 40.1901 ], [ -3.8486, 40.19 ], [ -3.848, 40.1898 ], [ -3.8476, 40.1903 ], [ -3.8476, 40.1904 ], [ -3.8481, 40.1905 ], [ -3.8481, 40.1907 ], [ -3.8479, 40.1908 ], [ -3.8479, 40.1912 ], [ -3.8509, 40.1915 ], [ -3.8509, 40.1927 ], [ -3.8511, 40.1931 ], [ -3.8495, 40.193 ], [ -3.8491, 40.1951 ], [ -3.8477, 40.1944 ], [ -3.8468, 40.1941 ], [ -3.8463, 40.195 ], [ -3.8466, 40.196 ], [ -3.8437, 40.1967 ], [ -3.8452, 40.1981 ], [ -3.8473, 40.1972 ], [ -3.8477, 40.1975 ] ] ] } },
{ "type": "Feature", "properties": { "municipio": "Cubas de la Sagra", "clasificacion": "urbano-consolidado", "calificacion": "sin-asignar", "version": "vigente", "fuente": "SIT-CAM WFS — UsoDelSuelo:VPLA_V_CLASIFICACION (https://idem.comunidad.madrid/geosrvg/ows)", "fecha_dato": "2026-05-12", "ambito": "53387", "_raw_CD_SIGLAS": "SUC", "_raw_DS_CLASIF_GEN": "Suelo Urbano Consolidado", "_raw_DS_CLASIF_DET": "Suelo Urbano Consolidado", "_raw_DS_DOCU": "NORMAS SUBSIDIARIAS", "_raw_DS_LEY": "CM Ley 9/1995, E RDL 1/1992", "_raw_FC_AC": "2003-03-20", "_raw_NM_AREA_M2": 185448.71774136601, "_cam_code": "050" }, "geometry": { "type": "Polygon", "coordinates": [ [ [ -3.8406, 40.1935 ], [ -3.8423, 40.1944 ], [ -3.8429, 40.1936 ], [ -3.8431, 40.1935 ], [ -3.8435, 40.1928 ], [ -3.8462, 40.1939 ], [ -3.8466, 40.1926 ], [ -3.8441, 40.1923 ], [ -3.8443, 40.1906 ], [ -3.8432, 40.1905 ], [ -3.8431, 40.1904 ], [ -3.8434, 40.1904 ], [ -3.8425, 40.1893 ], [ -3.8416, 40.1902 ], [ -3.8399, 40.1896 ], [ -3.8398, 40.1895 ], [ -3.84, 40.1891 ], [ -3.8398, 40.1889 ], [ -3.8399, 40.1877 ], [ -3.8399, 40.1877 ], [ -3.8398, 40.1877 ], [ -3.8397, 40.1877 ], [ -3.8398, 40.1877 ], [ -3.8398, 40.1881 ], [ -3.8397, 40.1891 ], [ -3.8396, 40.1892 ], [ -3.8397, 40.1895 ], [ -3.8396, 40.1896 ], [ -3.8396, 40.1921 ], [ -3.8397, 40.1923 ], [ -3.8396, 40.193 ], [ -3.8406, 40.194 ], [ -3.8406, 40.1935 ] ] ] } },
{ "type": "Feature", "properties": { "municipio": "Cubas de la Sagra", "clasificacion": "urbano-consolidado", "calificacion": "sin-asignar", "version": "vigente", "fuente": "SIT-CAM WFS — UsoDelSuelo:VPLA_V_CLASIFICACION (https://idem.comunidad.madrid/geosrvg/ows)", "fecha_dato": "2026-05-12", "ambito": "53387", "_raw_CD_SIGLAS": "SUC", "_raw_DS_CLASIF_GEN": "Suelo Urbano Consolidado", "_raw_DS_CLASIF_DET": "Suelo Urbano Consolidado", "_raw_DS_DOCU": "NORMAS SUBSIDIARIAS", "_raw_DS_LEY": "CM Ley 9/1995, E RDL 1/1992", "_raw_FC_AC": "2003-03-20", "_raw_NM_AREA_M2": 468412.61555179302, "_cam_code": "050" }, "geometry": { "type": "Polygon", "coordinates": [ [ [ -3.8431, 40.1979 ], [ -3.8445, 40.1992 ], [ -3.8447, 40.1996 ], [ -3.8464, 40.1995 ], [ -3.844, 40.1972 ], [ -3.8425, 40.196 ], [ -3.8416, 40.195 ], [ -3.8409, 40.1945 ], [ -3.8396, 40.1932 ], [ -3.8393, 40.1932 ], [ -3.8395, 40.1922 ], [ -3.8394, 40.1921 ], [ -3.8395, 40.1917 ], [ -3.8395, 40.1897 ], [ -3.8396, 40.1895 ], [ -3.8395, 40.1894 ], [ -3.8395, 40.1875 ], [ -3.8394, 40.1875 ], [ -3.8388, 40.1858 ], [ -3.8372, 40.1875 ], [ -3.8368, 40.1881 ], [ -3.8352, 40.1879 ], [ -3.8338, 40.1866 ], [ -3.8334, 40.1864 ], [ -3.833, 40.1871 ], [ -3.8321, 40.1882 ], [ -3.8331, 40.1887 ], [ -3.8338, 40.1889 ], [ -3.8338, 40.189 ], [ -3.8346, 40.1895 ], [ -3.8345, 40.1896 ], [ -3.8313, 40.1888 ], [ -3.8315, 40.19 ], [ -3.8305, 40.1901 ], [ -3.8305, 40.1903 ], [ -3.8314, 40.1905 ], [ -3.8316, 40.19 ], [ -3.832, 40.1899 ], [ -3.8321, 40.1903 ], [ -3.8323, 40.1904 ], [ -3.833, 40.1905 ], [ -3.8348, 40.1911 ], [ -3.836, 40.1913 ], [ -3.8359, 40.1916 ], [ -3.836, 40.1916 ], [ -3.8357, 40.1923 ], [ -3.8357, 40.193 ], [ -3.8372, 40.1929 ], [ -3.8379, 40.1939 ], [ -3.8379, 40.194 ], [ -3.8368, 40.1941 ], [ -3.8369, 40.1956 ], [ -3.8381, 40.1955 ], [ -3.8385, 40.1957 ], [ -3.8387, 40.1956 ], [ -3.8392, 40.1961 ], [ -3.8407, 40.1952 ], [ -3.8414, 40.1958 ], [ -3.8416, 40.1962 ], [ -3.8415, 40.1963 ], [ -3.8416, 40.1966 ], [ -3.843, 40.198 ], [ -3.8431, 40.1979 ] ] ] } },
{ "type": "Feature", "properties": { "municipio": "Cubas de la Sagra", "clasificacion": "urbano-consolidado", "calificacion": "sin-asignar", "version": "vigente", "fuente": "SIT-CAM WFS — UsoDelSuelo:VPLA_V_CLASIFICACION (https://idem.comunidad.madrid/geosrvg/ows)", "fecha_dato": "2026-05-12", "ambito": "53387", "_raw_CD_SIGLAS": "SUC", "_raw_DS_CLASIF_GEN": "Suelo Urbano Consolidado", "_raw_DS_CLASIF_DET": null, "_raw_DS_DOCU": "NORMAS SUBSIDIARIAS", "_raw_DS_LEY": "CM Ley 9/1995, E RDL 1/1992", "_raw_FC_AC": "2003-03-20", "_raw_NM_AREA_M2": 9383.7336587066493, "_cam_code": "050" }, "geometry": { "type": "Polygon", "coordinates": [ [ [ -3.8599, 40.1837 ], [ -3.8594, 40.1842 ], [ -3.8603, 40.185 ], [ -3.861, 40.1844 ], [ -3.8599, 40.1837 ] ] ] } },
{ "type": "Feature", "properties": { "municipio": "Cubas de la Sagra", "clasificacion": "urbano-consolidado", "calificacion": "sin-asignar", "version": "vigente", "fuente": "SIT-CAM WFS — UsoDelSuelo:VPLA_V_CLASIFICACION (https://idem.comunidad.madrid/geosrvg/ows)", "fecha_dato": "2026-05-12", "ambito": "53387", "_raw_CD_SIGLAS": "SUC", "_raw_DS_CLASIF_GEN": "Suelo Urbano Consolidado", "_raw_DS_CLASIF_DET": null, "_raw_DS_DOCU": "NORMAS SUBSIDIARIAS", "_raw_DS_LEY": "CM Ley 9/1995, E RDL 1/1992", "_raw_FC_AC": "2003-03-20", "_raw_NM_AREA_M2": 14934.434244718999, "_cam_code": "050" }, "geometry": { "type": "Polygon", "coordinates": [ [ [ -3.8562, 40.1873 ], [ -3.8552, 40.188 ], [ -3.855, 40.1883 ], [ -3.8546, 40.1885 ], [ -3.8553, 40.189 ], [ -3.8555, 40.189 ], [ -3.8567, 40.188 ], [ -3.8564, 40.1878 ], [ -3.8562, 40.1873 ] ] ] } },
{ "type": "Feature", "properties": { "municipio": "Cubas de la Sagra", "clasificacion": "urbano-no-consolidado", "calificacion": "sin-asignar", "version": "vigente", "fuente": "SIT-CAM WFS — UsoDelSuelo:VPLA_V_CLASIFICACION (https://idem.comunidad.madrid/geosrvg/ows)", "fecha_dato": "2026-05-12", "ambito": "53387", "_raw_CD_SIGLAS": "SUNC", "_raw_DS_CLASIF_GEN": "Suelo Urbano No Consolidado", "_raw_DS_CLASIF_DET": "Suelo Urbano No Consolidado", "_raw_DS_DOCU": "NORMAS SUBSIDIARIAS", "_raw_DS_LEY": "CM Ley 9/1995, E RDL 1/1992", "_raw_FC_AC": "2003-03-20", "_raw_NM_AREA_M2": 76470.734972877297, "_cam_code": "050" }, "geometry": { "type": "Polygon", "coordinates": [ [ [ -3.8582, 40.193 ], [ -3.862, 40.1934 ], [ -3.8621, 40.1935 ], [ -3.8623, 40.1926 ], [ -3.8618, 40.1925 ], [ -3.8627, 40.1913 ], [ -3.8622, 40.1911 ], [ -3.8627, 40.1904 ], [ -3.862, 40.1902 ], [ -3.8611, 40.191 ], [ -3.8605, 40.1918 ], [ -3.8584, 40.1913 ], [ -3.8581, 40.1919 ], [ -3.858, 40.1919 ], [ -3.8586, 40.1921 ], [ -3.8583, 40.193 ], [ -3.8582, 40.193 ] ] ] } },
{ "type": "Feature", "properties": { "municipio": "Cubas de la Sagra", "clasificacion": "urbano-no-consolidado", "calificacion": "sin-asignar", "version": "vigente", "fuente": "SIT-CAM WFS — UsoDelSuelo:VPLA_V_CLASIFICACION (https://idem.comunidad.madrid/geosrvg/ows)", "fecha_dato": "2026-05-12", "ambito": "53387", "_raw_CD_SIGLAS": "SUNC", "_raw_DS_CLASIF_GEN": "Suelo Urbano No Consolidado", "_raw_DS_CLASIF_DET": "Suelo Urbano No Consolidado", "_raw_DS_DOCU": "NORMAS SUBSIDIARIAS", "_raw_DS_LEY": "CM Ley 9/1995, E RDL 1/1992", "_raw_FC_AC": "2003-03-20", "_raw_NM_AREA_M2": 34140.5482338765, "_cam_code": "050" }, "geometry": { "type": "Polygon", "coordinates": [ [ [ -3.8548, 40.1939 ], [ -3.856, 40.194 ], [ -3.8561, 40.1941 ], [ -3.8563, 40.1941 ], [ -3.8563, 40.1938 ], [ -3.8577, 40.1939 ], [ -3.8581, 40.193 ], [ -3.856, 40.1927 ], [ -3.8547, 40.1928 ], [ -3.8548, 40.1939 ] ] ] } },
{ "type": "Feature", "properties": { "municipio": "Cubas de la Sagra", "clasificacion": "urbano-no-consolidado", "calificacion": "sin-asignar", "version": "vigente", "fuente": "SIT-CAM WFS — UsoDelSuelo:VPLA_V_CLASIFICACION (https://idem.comunidad.madrid/geosrvg/ows)", "fecha_dato": "2026-05-12", "ambito": "53387", "_raw_CD_SIGLAS": "SUNC", "_raw_DS_CLASIF_GEN": "Suelo Urbano No Consolidado", "_raw_DS_CLASIF_DET": "Suelo Urbano No Consolidado", "_raw_DS_DOCU": "NORMAS SUBSIDIARIAS", "_raw_DS_LEY": "CM Ley 9/1995, E RDL 1/1992", "_raw_FC_AC": "2003-03-20", "_raw_NM_AREA_M2": 181286.65886503001, "_cam_code": "050" }, "geometry": { "type": "Polygon", "coordinates": [ [ [ -3.823, 40.2053 ], [ -3.8261, 40.2054 ], [ -3.8264, 40.2024 ], [ -3.8266, 40.2017 ], [ -3.8265, 40.2016 ], [ -3.8266, 40.2003 ], [ -3.8263, 40.2002 ], [ -3.8263, 40.2001 ], [ -3.8249, 40.2 ], [ -3.8243, 40.2011 ], [ -3.8237, 40.2009 ], [ -3.8228, 40.2027 ], [ -3.8218, 40.2039 ], [ -3.8215, 40.2047 ], [ -3.8213, 40.2049 ], [ -3.8205, 40.205 ], [ -3.8221, 40.2054 ], [ -3.823, 40.2053 ] ] ] } },
{ "type": "Feature", "properties": { "municipio": "Cubas de la Sagra", "clasificacion": "urbano-no-consolidado", "calificacion": "sin-asignar", "version": "vigente", "fuente": "SIT-CAM WFS — UsoDelSuelo:VPLA_V_CLASIFICACION (https://idem.comunidad.madrid/geosrvg/ows)", "fecha_dato": "2026-05-12", "ambito": "53387", "_raw_CD_SIGLAS": "SUNC", "_raw_DS_CLASIF_GEN": "Suelo Urbano No Consolidado", "_raw_DS_CLASIF_DET": "Suelo Urbano No Consolidado", "_raw_DS_DOCU": "NORMAS SUBSIDIARIAS", "_raw_DS_LEY": "CM Ley 9/1995, E RDL 1/1992", "_raw_FC_AC": "2003-03-20", "_raw_NM_AREA_M2": 51521.823472863602, "_cam_code": "050" }, "geometry": { "type": "Polygon", "coordinates": [ [ [ -3.8507, 40.1999 ], [ -3.8505, 40.1999 ], [ -3.8505, 40.2 ], [ -3.8512, 40.201 ], [ -3.8515, 40.201 ], [ -3.8531, 40.2003 ], [ -3.8553, 40.1999 ], [ -3.8551, 40.1989 ], [ -3.855, 40.199 ], [ -3.8547, 40.1989 ], [ -3.8543, 40.199 ], [ -3.8533, 40.1994 ], [ -3.8529, 40.1997 ], [ -3.8522, 40.199 ], [ -3.8505, 40.1996 ], [ -3.8507, 40.1999 ] ] ] } },
{ "type": "Feature", "properties": { "municipio": "Cubas de la Sagra", "clasificacion": "urbano-no-consolidado", "calificacion": "sin-asignar", "version": "vigente", "fuente": "SIT-CAM WFS — UsoDelSuelo:VPLA_V_CLASIFICACION (https://idem.comunidad.madrid/geosrvg/ows)", "fecha_dato": "2026-05-12", "ambito": "53387", "_raw_CD_SIGLAS": "SUNC", "_raw_DS_CLASIF_GEN": "Suelo Urbano No Consolidado", "_raw_DS_CLASIF_DET": "Suelo Urbano No Consolidado", "_raw_DS_DOCU": "NORMAS SUBSIDIARIAS", "_raw_DS_LEY": "CM Ley 9/1995, E RDL 1/1992", "_raw_FC_AC": "2003-03-20", "_raw_NM_AREA_M2": 33227.950727228803, "_cam_code": "050" }, "geometry": { "type": "Polygon", "coordinates": [ [ [ -3.8473, 40.1972 ], [ -3.8452, 40.1981 ], [ -3.8469, 40.1996 ], [ -3.8474, 40.1992 ], [ -3.8478, 40.1991 ], [ -3.8477, 40.1975 ], [ -3.8473, 40.1972 ] ] ] } },
{ "type": "Feature", "properties": { "municipio": "Cubas de la Sagra", "clasificacion": "urbano-no-consolidado", "calificacion": "sin-asignar", "version": "vigente", "fuente": "SIT-CAM WFS — UsoDelSuelo:VPLA_V_CLASIFICACION (https://idem.comunidad.madrid/geosrvg/ows)", "fecha_dato": "2026-05-12", "ambito": "53387", "_raw_CD_SIGLAS": "SUNC", "_raw_DS_CLASIF_GEN": "Suelo Urbano No Consolidado", "_raw_DS_CLASIF_DET": "Suelo Urbano No Consolidado", "_raw_DS_DOCU": "NORMAS SUBSIDIARIAS", "_raw_DS_LEY": "CM Ley 9/1995, E RDL 1/1992", "_raw_FC_AC": "2003-03-20", "_raw_NM_AREA_M2": 431188.59304345102, "_cam_code": "050" }, "geometry": { "type": "Polygon", "coordinates": [ [ [ -3.8406, 40.194 ], [ -3.8436, 40.1967 ], [ -3.8456, 40.1963 ], [ -3.8466, 40.196 ], [ -3.8463, 40.195 ], [ -3.8468, 40.1941 ], [ -3.8477, 40.1944 ], [ -3.8491, 40.1951 ], [ -3.8495, 40.193 ], [ -3.8511, 40.1931 ], [ -3.8509, 40.1927 ], [ -3.8509, 40.1915 ], [ -3.8479, 40.1912 ], [ -3.8479, 40.1908 ], [ -3.8481, 40.1907 ], [ -3.8481, 40.1905 ], [ -3.8476, 40.1904 ], [ -3.8476, 40.1903 ], [ -3.8477, 40.1903 ], [ -3.848, 40.1897 ], [ -3.8444, 40.1882 ], [ -3.8433, 40.1888 ], [ -3.8421, 40.1882 ], [ -3.841, 40.1868 ], [ -3.8399, 40.187 ], [ -3.8396, 40.1871 ], [ -3.8397, 40.1877 ], [ -3.8399, 40.1877 ], [ -3.8399, 40.1886 ], [ -3.8398, 40.1886 ], [ -3.8398, 40.1889 ], [ -3.84, 40.189 ], [ -3.8398, 40.1895 ], [ -3.8399, 40.1896 ], [ -3.8416, 40.1902 ], [ -3.8425, 40.1893 ], [ -3.8434, 40.1904 ], [ -3.8431, 40.1904 ], [ -3.8432, 40.1905 ], [ -3.8443, 40.1906 ], [ -3.8441, 40.1923 ], [ -3.8466, 40.1926 ], [ -3.8462, 40.1939 ], [ -3.8435, 40.1928 ], [ -3.8431, 40.1935 ], [ -3.8429, 40.1936 ], [ -3.8423, 40.1944 ], [ -3.8406, 40.1935 ], [ -3.8406, 40.194 ] ] ] } },
{ "type": "Feature", "properties": { "municipio": "Cubas de la Sagra", "clasificacion": "urbano-no-consolidado", "calificacion": "sin-asignar", "version": "vigente", "fuente": "SIT-CAM WFS — UsoDelSuelo:VPLA_V_CLASIFICACION (https://idem.comunidad.madrid/geosrvg/ows)", "fecha_dato": "2026-05-12", "ambito": "53387", "_raw_CD_SIGLAS": "SUNC", "_raw_DS_CLASIF_GEN": "Suelo Urbano No Consolidado", "_raw_DS_CLASIF_DET": "Suelo Urbano No Consolidado", "_raw_DS_DOCU": "NORMAS SUBSIDIARIAS", "_raw_DS_LEY": "CM Ley 9/1995, E RDL 1/1992", "_raw_FC_AC": "2003-03-20", "_raw_NM_AREA_M2": 19099.685418964302, "_cam_code": "050" }, "geometry": { "type": "Polygon", "coordinates": [ [ [ -3.8394, 40.196 ], [ -3.8396, 40.1964 ], [ -3.8396, 40.1967 ], [ -3.8408, 40.1966 ], [ -3.841, 40.1964 ], [ -3.8416, 40.1963 ], [ -3.8414, 40.1958 ], [ -3.8407, 40.1952 ], [ -3.8394, 40.196 ] ] ] } },
{ "type": "Feature", "properties": { "municipio": "Cubas de la Sagra", "clasificacion": "urbano-no-consolidado", "calificacion": "sin-asignar", "version": "vigente", "fuente": "SIT-CAM WFS — UsoDelSuelo:VPLA_V_CLASIFICACION (https://idem.comunidad.madrid/geosrvg/ows)", "fecha_dato": "2026-05-12", "ambito": "53387", "_raw_CD_SIGLAS": "SUNC", "_raw_DS_CLASIF_GEN": "Suelo Urbano No Consolidado", "_raw_DS_CLASIF_DET": "Suelo Urbano No Consolidado", "_raw_DS_DOCU": "NORMAS SUBSIDIARIAS", "_raw_DS_LEY": "CM Ley 9/1995, E RDL 1/1992", "_raw_FC_AC": "2003-03-20", "_raw_NM_AREA_M2": 165195.18613499601, "_cam_code": "050" }, "geometry": { "type": "Polygon", "coordinates": [ [ [ -3.8377, 40.1964 ], [ -3.8381, 40.1966 ], [ -3.8385, 40.1966 ], [ -3.8392, 40.1962 ], [ -3.8392, 40.1961 ], [ -3.8387, 40.1956 ], [ -3.8385, 40.1957 ], [ -3.8381, 40.1955 ], [ -3.8369, 40.1956 ], [ -3.8368, 40.1941 ], [ -3.8379, 40.194 ], [ -3.8379, 40.1939 ], [ -3.8372, 40.1929 ], [ -3.8357, 40.193 ], [ -3.8357, 40.1923 ], [ -3.836, 40.1916 ], [ -3.8359, 40.1916 ], [ -3.836, 40.1913 ], [ -3.8348, 40.1911 ], [ -3.833, 40.1905 ], [ -3.8323, 40.1904 ], [ -3.8321, 40.1903 ], [ -3.832, 40.1899 ], [ -3.8316, 40.19 ], [ -3.8314, 40.1905 ], [ -3.8305, 40.1903 ], [ -3.8303, 40.1907 ], [ -3.8316, 40.191 ], [ -3.8321, 40.1922 ], [ -3.8321, 40.1933 ], [ -3.8328, 40.1935 ], [ -3.8336, 40.1933 ], [ -3.8336, 40.1932 ], [ -3.8338, 40.1933 ], [ -3.8377, 40.1964 ] ] ] } },
{ "type": "Feature", "properties": { "municipio": "Cubas de la Sagra", "clasificacion": "urbano-no-consolidado", "calificacion": "sin-asignar", "version": "vigente", "fuente": "SIT-CAM WFS — UsoDelSuelo:VPLA_V_CLASIFICACION (https://idem.comunidad.madrid/geosrvg/ows)", "fecha_dato": "2026-05-12", "ambito": "53387", "_raw_CD_SIGLAS": "SUNC", "_raw_DS_CLASIF_GEN": "Suelo Urbano No Consolidado", "_raw_DS_CLASIF_DET": "Suelo Urbano No Consolidado", "_raw_DS_DOCU": "NORMAS SUBSIDIARIAS", "_raw_DS_LEY": "CM Ley 9/1995, E RDL 1/1992", "_raw_FC_AC": "2003-03-20", "_raw_NM_AREA_M2": 296214.16681025998, "_cam_code": "050" }, "geometry": { "type": "Polygon", "coordinates": [ [ [ -3.831, 40.189 ], [ -3.8306, 40.1894 ], [ -3.8306, 40.19 ], [ -3.8305, 40.1901 ], [ -3.8315, 40.19 ], [ -3.8313, 40.1888 ], [ -3.8345, 40.1896 ], [ -3.8346, 40.1895 ], [ -3.8338, 40.189 ], [ -3.8338, 40.1889 ], [ -3.8331, 40.1887 ], [ -3.8321, 40.1882 ], [ -3.833, 40.1871 ], [ -3.8334, 40.1864 ], [ -3.8338, 40.1866 ], [ -3.8352, 40.1879 ], [ -3.8368, 40.1881 ], [ -3.8386, 40.1859 ], [ -3.8388, 40.1859 ], [ -3.8381, 40.1839 ], [ -3.838, 40.1839 ], [ -3.8374, 40.1824 ], [ -3.8373, 40.1819 ], [ -3.8372, 40.1819 ], [ -3.8372, 40.1817 ], [ -3.8376, 40.1817 ], [ -3.8378, 40.1815 ], [ -3.8377, 40.1811 ], [ -3.8375, 40.1811 ], [ -3.8375, 40.181 ], [ -3.8362, 40.181 ], [ -3.836, 40.1812 ], [ -3.8342, 40.1836 ], [ -3.831, 40.1874 ], [ -3.8318, 40.188 ], [ -3.8311, 40.1887 ], [ -3.8312, 40.1888 ], [ -3.831, 40.189 ] ] ] } }
]
}
