{
"type": "FeatureCollection",
"name": "vigente.full",
"features": [
{ "type": "Feature", "properties": { "municipio": "Gargantilla del Lozoya y Pinilla de Buitrago", "clasificacion": "urbano-consolidado", "calificacion": "sin-asignar", "version": "vigente", "fuente": "SIT-CAM WFS — UsoDelSuelo:VPLA_V_CLASIFICACION (https://idem.comunidad.madrid/geosrvg/ows)", "fecha_dato": "2026-05-12", "ambito": "85536", "_raw_CD_SIGLAS": "SU", "_raw_DS_CLASIF_GEN": "Suelo Urbano", "_raw_DS_CLASIF_DET": "Suelo Urbano Ensanche", "_raw_DS_DOCU": "NORMAS SUBSIDIARIAS", "_raw_DS_LEY": null, "_raw_FC_AC": "2015-12-14", "_raw_NM_AREA_M2": 21328.324131601599, "_cam_code": "063" }, "geometry": { "type": "Polygon", "coordinates": [ [ [ -3.7154, 40.9627 ], [ -3.7149, 40.9631 ], [ -3.7147, 40.9635 ], [ -3.7168, 40.9646 ], [ -3.7172, 40.9647 ], [ -3.7162, 40.9634 ], [ -3.7164, 40.9621 ], [ -3.7161, 40.962 ], [ -3.7158, 40.9628 ], [ -3.7154, 40.9627 ] ] ] } },
{ "type": "Feature", "properties": { "municipio": "Gargantilla del Lozoya y Pinilla de Buitrago", "clasificacion": "urbano-consolidado", "calificacion": "sin-asignar", "version": "vigente", "fuente": "SIT-CAM WFS — UsoDelSuelo:VPLA_V_CLASIFICACION (https://idem.comunidad.madrid/geosrvg/ows)", "fecha_dato": "2026-05-12", "ambito": "85536", "_raw_CD_SIGLAS": "SU", "_raw_DS_CLASIF_GEN": "Suelo Urbano", "_raw_DS_CLASIF_DET": "Suelo Urbano Casco Antiguo", "_raw_DS_DOCU": "NORMAS SUBSIDIARIAS", "_raw_DS_LEY": null, "_raw_FC_AC": "2015-12-14", "_raw_NM_AREA_M2": 39942.771168836101, "_cam_code": "063" }, "geometry": { "type": "Polygon", "coordinates": [ [ [ -3.6905, 40.9819 ], [ -3.6904, 40.9821 ], [ -3.6908, 40.9825 ], [ -3.6918, 40.9825 ], [ -3.6919, 40.9821 ], [ -3.6923, 40.9817 ], [ -3.6934, 40.9817 ], [ -3.6933, 40.9804 ], [ -3.693, 40.9798 ], [ -3.6926, 40.9799 ], [ -3.6921, 40.9804 ], [ -3.6916, 40.9804 ], [ -3.6914, 40.9806 ], [ -3.6911, 40.9816 ], [ -3.6905, 40.9819 ] ] ] } },
{ "type": "Feature", "properties": { "municipio": "Gargantilla del Lozoya y Pinilla de Buitrago", "clasificacion": "urbano-consolidado", "calificacion": "sin-asignar", "version": "vigente", "fuente": "SIT-CAM WFS — UsoDelSuelo:VPLA_V_CLASIFICACION (https://idem.comunidad.madrid/geosrvg/ows)", "fecha_dato": "2026-05-12", "ambito": "85536", "_raw_CD_SIGLAS": "SU", "_raw_DS_CLASIF_GEN": "Suelo Urbano", "_raw_DS_CLASIF_DET": "Suelo Urbano Casco Antiguo", "_raw_DS_DOCU": "NORMAS SUBSIDIARIAS", "_raw_DS_LEY": null, "_raw_FC_AC": "2015-12-14", "_raw_NM_AREA_M2": 51152.976548392697, "_cam_code": "063" }, "geometry": { "type": "Polygon", "coordinates": [ [ [ -3.7184, 40.9656 ], [ -3.7193, 40.9659 ], [ -3.7193, 40.9655 ], [ -3.72, 40.9654 ], [ -3.7207, 40.9648 ], [ -3.7193, 40.9644 ], [ -3.7188, 40.9639 ], [ -3.7181, 40.9636 ], [ -3.7178, 40.9639 ], [ -3.7169, 40.9641 ], [ -3.7169, 40.9643 ], [ -3.7173, 40.9649 ], [ -3.7166, 40.9649 ], [ -3.7166, 40.9652 ], [ -3.7164, 40.9653 ], [ -3.7161, 40.9658 ], [ -3.7165, 40.9659 ], [ -3.7168, 40.9657 ], [ -3.7176, 40.9655 ], [ -3.7184, 40.9656 ] ] ] } },
{ "type": "Feature", "properties": { "municipio": "Gargantilla del Lozoya y Pinilla de Buitrago", "clasificacion": "urbano-consolidado", "calificacion": "sin-asignar", "version": "vigente", "fuente": "SIT-CAM WFS — UsoDelSuelo:VPLA_V_CLASIFICACION (https://idem.comunidad.madrid/geosrvg/ows)", "fecha_dato": "2026-05-12", "ambito": "85536", "_raw_CD_SIGLAS": "SU", "_raw_DS_CLASIF_GEN": "Suelo Urbano", "_raw_DS_CLASIF_DET": "Suelo Urbano Ensanche", "_raw_DS_DOCU": "NORMAS SUBSIDIARIAS", "_raw_DS_LEY": null, "_raw_FC_AC": "2015-12-14", "_raw_NM_AREA_M2": 13207.650168623901, "_cam_code": "063" }, "geometry": { "type": "Polygon", "coordinates": [ [ [ -3.7153, 40.9658 ], [ -3.7157, 40.9656 ], [ -3.7163, 40.9656 ], [ -3.7164, 40.9653 ], [ -3.7166, 40.9652 ], [ -3.7166, 40.9649 ], [ -3.7163, 40.9647 ], [ -3.7149, 40.9649 ], [ -3.7147, 40.9654 ], [ -3.7153, 40.9658 ] ] ] } },
{ "type": "Feature", "properties": { "municipio": "Gargantilla del Lozoya y Pinilla de Buitrago", "clasificacion": "urbanizable-no-sectorizado", "calificacion": "sin-asignar", "version": "vigente", "fuente": "SIT-CAM WFS — UsoDelSuelo:VPLA_V_CLASIFICACION (https://idem.comunidad.madrid/geosrvg/ows)", "fecha_dato": "2026-05-12", "ambito": "85536", "_raw_CD_SIGLAS": "SUBNS", "_raw_DS_CLASIF_GEN": "Suelo Rústico", "_raw_DS_CLASIF_DET": "Suelo Rústico", "_raw_DS_DOCU": "NORMAS SUBSIDIARIAS", "_raw_DS_LEY": null, "_raw_FC_AC": "2015-12-14", "_raw_NM_AREA_M2": 962805.97850353702, "_cam_code": "063" }, "geometry": { "type": "Polygon", "coordinates": [ [ [ -3.7357, 40.9418 ], [ -3.7369, 40.9417 ], [ -3.7358, 40.9414 ], [ -3.735, 40.9407 ], [ -3.7344, 40.9404 ], [ -3.734, 40.9404 ], [ -3.7342, 40.9395 ], [ -3.7346, 40.9393 ], [ -3.7348, 40.939 ], [ -3.7348, 40.9379 ], [ -3.7345, 40.9367 ], [ -3.7343, 40.9364 ], [ -3.734, 40.9365 ], [ -3.7318, 40.9365 ], [ -3.7309, 40.9362 ], [ -3.7293, 40.9359 ], [ -3.727, 40.9351 ], [ -3.7245, 40.935 ], [ -3.7245, 40.9349 ], [ -3.724, 40.9348 ], [ -3.7225, 40.9347 ], [ -3.722, 40.9349 ], [ -3.722, 40.935 ], [ -3.7212, 40.9354 ], [ -3.7212, 40.9355 ], [ -3.7192, 40.9356 ], [ -3.7176, 40.9366 ], [ -3.7168, 40.9374 ], [ -3.7166, 40.9379 ], [ -3.7143, 40.9388 ], [ -3.7132, 40.9394 ], [ -3.7133, 40.94 ], [ -3.7161, 40.9402 ], [ -3.7245, 40.9413 ], [ -3.7308, 40.9414 ], [ -3.7332, 40.9412 ], [ -3.7357, 40.9418 ] ] ] } },
{ "type": "Feature", "properties": { "municipio": "Gargantilla del Lozoya y Pinilla de Buitrago", "clasificacion": "urbanizable-no-sectorizado", "calificacion": "sin-asignar", "version": "vigente", "fuente": "SIT-CAM WFS — UsoDelSuelo:VPLA_V_CLASIFICACION (https://idem.comunidad.madrid/geosrvg/ows)", "fecha_dato": "2026-05-12", "ambito": "85536", "_raw_CD_SIGLAS": "SUBNS", "_raw_DS_CLASIF_GEN": "Suelo Rústico", "_raw_DS_CLASIF_DET": "Suelo Rústico", "_raw_DS_DOCU": "NORMAS SUBSIDIARIAS", "_raw_DS_LEY": null, "_raw_FC_AC": "2015-12-14", "_raw_NM_AREA_M2": 20770760.1923737, "_cam_code": "063" }, "geometry": { "type": "Polygon", "coordinates": [ [ [ -3.6677, 40.9907 ], [ -3.6687, 40.9919 ], [ -3.6687, 40.9924 ], [ -3.6683, 40.993 ], [ -3.6656, 40.9953 ], [ -3.6664, 40.9957 ], [ -3.6677, 40.9953 ], [ -3.6692, 40.9944 ], [ -3.6698, 40.9943 ], [ -3.6703, 40.9939 ], [ -3.6711, 40.9936 ], [ -3.6721, 40.9928 ], [ -3.6725, 40.9921 ], [ -3.6735, 40.9914 ], [ -3.674, 40.9908 ], [ -3.6745, 40.9906 ], [ -3.6748, 40.9907 ], [ -3.6751, 40.991 ], [ -3.6762, 40.9924 ], [ -3.6763, 40.9926 ], [ -3.6762, 40.9928 ], [ -3.6765, 40.9933 ], [ -3.6786, 40.9925 ], [ -3.6793, 40.9921 ], [ -3.6873, 40.9913 ], [ -3.6974, 40.9876 ], [ -3.7011, 40.986 ], [ -3.7102, 40.9831 ], [ -3.7115, 40.9805 ], [ -3.7147, 40.9792 ], [ -3.7177, 40.9796 ], [ -3.7178, 40.9797 ], [ -3.7251, 40.9793 ], [ -3.7265, 40.9797 ], [ -3.7282, 40.9786 ], [ -3.7316, 40.9774 ], [ -3.7348, 40.9761 ], [ -3.7384, 40.975 ], [ -3.7387, 40.975 ], [ -3.7381, 40.9743 ], [ -3.7396, 40.9735 ], [ -3.7402, 40.973 ], [ -3.7406, 40.973 ], [ -3.7409, 40.9729 ], [ -3.741, 40.9727 ], [ -3.7418, 40.9725 ], [ -3.7419, 40.9714 ], [ -3.7414, 40.9696 ], [ -3.7393, 40.9659 ], [ -3.7361, 40.963 ], [ -3.7361, 40.9622 ], [ -3.7388, 40.9591 ], [ -3.7383, 40.9576 ], [ -3.7364, 40.9531 ], [ -3.7362, 40.9519 ], [ -3.7345, 40.952 ], [ -3.7309, 40.9516 ], [ -3.7276, 40.9503 ], [ -3.7244, 40.9496 ], [ -3.7216, 40.9483 ], [ -3.7174, 40.9481 ], [ -3.7101, 40.9482 ], [ -3.7066, 40.9485 ], [ -3.7019, 40.9485 ], [ -3.7011, 40.9491 ], [ -3.7003, 40.9494 ], [ -3.6982, 40.9496 ], [ -3.6972, 40.95 ], [ -3.697, 40.9503 ], [ -3.6967, 40.9525 ], [ -3.6965, 40.953 ], [ -3.6963, 40.9534 ], [ -3.6956, 40.954 ], [ -3.695, 40.9541 ], [ -3.6919, 40.9536 ], [ -3.6898, 40.9536 ], [ -3.6874, 40.9543 ], [ -3.6863, 40.9548 ], [ -3.6857, 40.9554 ], [ -3.6853, 40.9568 ], [ -3.6853, 40.9573 ], [ -3.6858, 40.9581 ], [ -3.686, 40.9588 ], [ -3.6856, 40.9598 ], [ -3.6856, 40.9608 ], [ -3.6852, 40.9615 ], [ -3.6852, 40.9624 ], [ -3.6851, 40.9626 ], [ -3.684, 40.9637 ], [ -3.6836, 40.964 ], [ -3.6834, 40.964 ], [ -3.6834, 40.9641 ], [ -3.6798, 40.9647 ], [ -3.6792, 40.965 ], [ -3.6791, 40.9651 ], [ -3.6791, 40.9657 ], [ -3.6797, 40.9668 ], [ -3.6797, 40.9673 ], [ -3.6796, 40.9674 ], [ -3.6792, 40.9675 ], [ -3.6788, 40.9674 ], [ -3.6788, 40.9673 ], [ -3.6779, 40.9673 ], [ -3.6779, 40.9674 ], [ -3.6771, 40.9677 ], [ -3.676, 40.9678 ], [ -3.6746, 40.9685 ], [ -3.6735, 40.9697 ], [ -3.6735, 40.97 ], [ -3.6738, 40.9701 ], [ -3.6743, 40.9706 ], [ -3.6744, 40.9714 ], [ -3.6727, 40.972 ], [ -3.6725, 40.9722 ], [ -3.6721, 40.9722 ], [ -3.6719, 40.972 ], [ -3.6711, 40.9703 ], [ -3.6695, 40.9701 ], [ -3.6685, 40.9702 ], [ -3.6681, 40.9706 ], [ -3.668, 40.9709 ], [ -3.6679, 40.9727 ], [ -3.6695, 40.9744 ], [ -3.6697, 40.9747 ], [ -3.6697, 40.9752 ], [ -3.6695, 40.9755 ], [ -3.669, 40.9757 ], [ -3.6683, 40.9764 ], [ -3.6681, 40.9768 ], [ -3.667, 40.9779 ], [ -3.6659, 40.9786 ], [ -3.665, 40.9787 ], [ -3.664, 40.9781 ], [ -3.6629, 40.977 ], [ -3.6609, 40.9755 ], [ -3.6592, 40.9754 ], [ -3.658, 40.9759 ], [ -3.6571, 40.9761 ], [ -3.657, 40.9764 ], [ -3.6568, 40.9765 ], [ -3.6568, 40.9769 ], [ -3.6573, 40.9782 ], [ -3.6571, 40.9789 ], [ -3.6562, 40.9796 ], [ -3.6542, 40.9804 ], [ -3.6564, 40.9822 ], [ -3.6578, 40.9838 ], [ -3.6595, 40.9868 ], [ -3.6599, 40.987 ], [ -3.6629, 40.9869 ], [ -3.664, 40.9874 ], [ -3.6645, 40.9875 ], [ -3.6645, 40.9876 ], [ -3.6657, 40.9879 ], [ -3.6662, 40.9882 ], [ -3.6667, 40.9894 ], [ -3.6674, 40.9905 ], [ -3.6677, 40.9907 ] ], [ [ -3.6918, 40.9825 ], [ -3.6906, 40.9824 ], [ -3.6904, 40.9821 ], [ -3.6905, 40.9819 ], [ -3.6892, 40.9814 ], [ -3.6887, 40.9808 ], [ -3.6888, 40.9803 ], [ -3.6897, 40.9803 ], [ -3.6897, 40.9801 ], [ -3.691, 40.9801 ], [ -3.6912, 40.9805 ], [ -3.6915, 40.9805 ], [ -3.6916, 40.9804 ], [ -3.6921, 40.9804 ], [ -3.6926, 40.9799 ], [ -3.693, 40.9798 ], [ -3.6933, 40.9804 ], [ -3.6934, 40.9817 ], [ -3.6923, 40.9817 ], [ -3.6919, 40.9821 ], [ -3.6918, 40.9825 ] ], [ [ -3.7168, 40.9657 ], [ -3.715, 40.9668 ], [ -3.714, 40.9689 ], [ -3.7134, 40.9689 ], [ -3.7132, 40.9682 ], [ -3.7123, 40.9678 ], [ -3.7117, 40.9672 ], [ -3.7117, 40.9666 ], [ -3.7116, 40.9665 ], [ -3.7112, 40.9662 ], [ -3.7102, 40.9658 ], [ -3.7105, 40.9654 ], [ -3.7114, 40.9647 ], [ -3.7115, 40.9644 ], [ -3.7114, 40.9643 ], [ -3.712, 40.9635 ], [ -3.7116, 40.9631 ], [ -3.7122, 40.9619 ], [ -3.7139, 40.9624 ], [ -3.7151, 40.9625 ], [ -3.7151, 40.9626 ], [ -3.7157, 40.9628 ], [ -3.7159, 40.9627 ], [ -3.7161, 40.962 ], [ -3.7164, 40.9621 ], [ -3.7162, 40.9634 ], [ -3.7168, 40.9642 ], [ -3.7171, 40.964 ], [ -3.7178, 40.9639 ], [ -3.7182, 40.9636 ], [ -3.7186, 40.9639 ], [ -3.7188, 40.9639 ], [ -3.7193, 40.9644 ], [ -3.7207, 40.9648 ], [ -3.72, 40.9654 ], [ -3.7193, 40.9655 ], [ -3.7193, 40.9659 ], [ -3.718, 40.9655 ], [ -3.7176, 40.9655 ], [ -3.7168, 40.9657 ] ] ] } },
{ "type": "Feature", "properties": { "municipio": "Gargantilla del Lozoya y Pinilla de Buitrago", "clasificacion": "urbanizable-no-sectorizado", "calificacion": "sin-asignar", "version": "vigente", "fuente": "SIT-CAM WFS — UsoDelSuelo:VPLA_V_CLASIFICACION (https://idem.comunidad.madrid/geosrvg/ows)", "fecha_dato": "2026-05-12", "ambito": "85536", "_raw_CD_SIGLAS": "SUBNS", "_raw_DS_CLASIF_GEN": "Suelo de Reserva Metropolitana", "_raw_DS_CLASIF_DET": "Suelo de Reserva Metropolitana", "_raw_DS_DOCU": "NORMAS SUBSIDIARIAS", "_raw_DS_LEY": null, "_raw_FC_AC": "2015-12-14", "_raw_NM_AREA_M2": 2072828.52925803, "_cam_code": "063" }, "geometry": { "type": "Polygon", "coordinates": [ [ [ -3.7101, 40.9482 ], [ -3.7174, 40.9481 ], [ -3.7216, 40.9483 ], [ -3.7244, 40.9496 ], [ -3.7276, 40.9503 ], [ -3.7309, 40.9516 ], [ -3.7345, 40.952 ], [ -3.7362, 40.9519 ], [ -3.7353, 40.95 ], [ -3.736, 40.9493 ], [ -3.7363, 40.9485 ], [ -3.7371, 40.9472 ], [ -3.7372, 40.9461 ], [ -3.7374, 40.9456 ], [ -3.7375, 40.9448 ], [ -3.7376, 40.9431 ], [ -3.7368, 40.9423 ], [ -3.7369, 40.9417 ], [ -3.7357, 40.9418 ], [ -3.7332, 40.9412 ], [ -3.7308, 40.9414 ], [ -3.7245, 40.9413 ], [ -3.7161, 40.9402 ], [ -3.7133, 40.94 ], [ -3.7135, 40.9407 ], [ -3.7138, 40.9412 ], [ -3.7153, 40.9424 ], [ -3.7171, 40.9428 ], [ -3.7168, 40.9432 ], [ -3.7161, 40.9435 ], [ -3.7148, 40.9437 ], [ -3.7125, 40.9451 ], [ -3.7117, 40.9451 ], [ -3.7104, 40.9448 ], [ -3.7093, 40.9448 ], [ -3.7073, 40.9454 ], [ -3.7068, 40.9459 ], [ -3.7068, 40.9461 ], [ -3.7074, 40.9469 ], [ -3.7074, 40.9475 ], [ -3.7069, 40.9479 ], [ -3.7036, 40.948 ], [ -3.7021, 40.9485 ], [ -3.7066, 40.9485 ], [ -3.7101, 40.9482 ] ] ] } },
{ "type": "Feature", "properties": { "municipio": "Gargantilla del Lozoya y Pinilla de Buitrago", "clasificacion": "urbanizable-sectorizado", "calificacion": "sin-asignar", "version": "vigente", "fuente": "SIT-CAM WFS — UsoDelSuelo:VPLA_V_CLASIFICACION (https://idem.comunidad.madrid/geosrvg/ows)", "fecha_dato": "2026-05-12", "ambito": "85536", "_raw_CD_SIGLAS": "SUBS", "_raw_DS_CLASIF_GEN": "Suelo de Reserva Urbana", "_raw_DS_CLASIF_DET": "Suelo de Reserva Urbana", "_raw_DS_DOCU": "NORMAS SUBSIDIARIAS", "_raw_DS_LEY": null, "_raw_FC_AC": "2015-12-14", "_raw_NM_AREA_M2": 33104.082299763402, "_cam_code": "063" }, "geometry": { "type": "Polygon", "coordinates": [ [ [ -3.6888, 40.9803 ], [ -3.6887, 40.9808 ], [ -3.6892, 40.9814 ], [ -3.6905, 40.9819 ], [ -3.6911, 40.9816 ], [ -3.6915, 40.9805 ], [ -3.6912, 40.9805 ], [ -3.691, 40.9801 ], [ -3.6897, 40.9801 ], [ -3.6897, 40.9803 ], [ -3.6888, 40.9803 ] ] ] } },
{ "type": "Feature", "properties": { "municipio": "Gargantilla del Lozoya y Pinilla de Buitrago", "clasificacion": "urbanizable-sectorizado", "calificacion": "sin-asignar", "version": "vigente", "fuente": "SIT-CAM WFS — UsoDelSuelo:VPLA_V_CLASIFICACION (https://idem.comunidad.madrid/geosrvg/ows)", "fecha_dato": "2026-05-12", "ambito": "85536", "_raw_CD_SIGLAS": "SUBS", "_raw_DS_CLASIF_GEN": "Suelo de Reserva Urbana", "_raw_DS_CLASIF_DET": "Suelo de Reserva Urbana", "_raw_DS_DOCU": "NORMAS SUBSIDIARIAS", "_raw_DS_LEY": null, "_raw_FC_AC": "2015-12-14", "_raw_NM_AREA_M2": 214540.906334684, "_cam_code": "063" }, "geometry": { "type": "Polygon", "coordinates": [ [ [ -3.7102, 40.9658 ], [ -3.7112, 40.9662 ], [ -3.7117, 40.9666 ], [ -3.7117, 40.9672 ], [ -3.7123, 40.9678 ], [ -3.7132, 40.9682 ], [ -3.7134, 40.9689 ], [ -3.714, 40.9689 ], [ -3.715, 40.9668 ], [ -3.7164, 40.9659 ], [ -3.7161, 40.9658 ], [ -3.7163, 40.9656 ], [ -3.7157, 40.9656 ], [ -3.7153, 40.9658 ], [ -3.7147, 40.9654 ], [ -3.7148, 40.965 ], [ -3.7161, 40.9647 ], [ -3.7166, 40.9649 ], [ -3.7173, 40.9649 ], [ -3.7172, 40.9647 ], [ -3.7168, 40.9646 ], [ -3.7147, 40.9635 ], [ -3.7149, 40.9631 ], [ -3.7155, 40.9627 ], [ -3.7147, 40.9624 ], [ -3.7139, 40.9624 ], [ -3.7122, 40.9619 ], [ -3.7116, 40.9631 ], [ -3.712, 40.9635 ], [ -3.7114, 40.9643 ], [ -3.7115, 40.9644 ], [ -3.7114, 40.9647 ], [ -3.7105, 40.9654 ], [ -3.7102, 40.9658 ] ] ] } }
]
}
