{
"type": "FeatureCollection",
"name": "vigente.full",
"features": [
{ "type": "Feature", "properties": { "municipio": "Valdepiélagos", "clasificacion": "no-urbanizable-protegido", "calificacion": "sin-asignar", "version": "vigente", "fuente": "SIT-CAM WFS — UsoDelSuelo:VPLA_V_CLASIFICACION (https://idem.comunidad.madrid/geosrvg/ows)", "fecha_dato": "2026-05-12", "ambito": "39083", "_raw_CD_SIGLAS": "SNUP", "_raw_DS_CLASIF_GEN": "Suelo No Urbanizable Protegido", "_raw_DS_CLASIF_DET": "Espacio Protegido. Cauces y Riberas-Espacio Protegido. Zepa", "_raw_DS_DOCU": "NORMAS SUBSIDIARIAS", "_raw_DS_LEY": "CM Ley 9/1995, E RDL 1/1992", "_raw_FC_AC": "1999-03-11", "_raw_NM_AREA_M2": 94650.4874899141, "_cam_code": "163" }, "geometry": { "type": "MultiPolygon", "coordinates": [ [ [ [ -3.4436, 40.7357 ], [ -3.4415, 40.7368 ], [ -3.4409, 40.737 ], [ -3.4413, 40.7372 ], [ -3.4423, 40.7369 ], [ -3.4423, 40.7368 ], [ -3.4433, 40.7363 ], [ -3.4433, 40.7362 ], [ -3.4438, 40.7361 ], [ -3.4443, 40.7357 ], [ -3.4448, 40.7357 ], [ -3.4454, 40.7347 ], [ -3.4456, 40.7346 ], [ -3.4457, 40.734 ], [ -3.4465, 40.7338 ], [ -3.4469, 40.7335 ], [ -3.4476, 40.7333 ], [ -3.4477, 40.7332 ], [ -3.4476, 40.7329 ], [ -3.4477, 40.7326 ], [ -3.448, 40.7329 ], [ -3.4483, 40.733 ], [ -3.4493, 40.7323 ], [ -3.4492, 40.7317 ], [ -3.4491, 40.7321 ], [ -3.4483, 40.7326 ], [ -3.4476, 40.7322 ], [ -3.4474, 40.7322 ], [ -3.4472, 40.7332 ], [ -3.4465, 40.7333 ], [ -3.4462, 40.7336 ], [ -3.4454, 40.7336 ], [ -3.4452, 40.7344 ], [ -3.4446, 40.7352 ], [ -3.4445, 40.7353 ], [ -3.444, 40.7353 ], [ -3.4436, 40.7357 ] ] ], [ [ [ -3.4501, 40.7411 ], [ -3.4498, 40.7412 ], [ -3.4502, 40.7421 ], [ -3.4502, 40.7425 ], [ -3.4495, 40.7432 ], [ -3.4489, 40.7451 ], [ -3.4481, 40.7458 ], [ -3.448, 40.7464 ], [ -3.4473, 40.747 ], [ -3.4475, 40.7471 ], [ -3.4483, 40.7465 ], [ -3.4483, 40.746 ], [ -3.4492, 40.7452 ], [ -3.4497, 40.7438 ], [ -3.4497, 40.7435 ], [ -3.4506, 40.7427 ], [ -3.4502, 40.7407 ], [ -3.4501, 40.7411 ] ] ], [ [ [ -3.477, 40.7464 ], [ -3.4806, 40.7473 ], [ -3.4813, 40.7477 ], [ -3.4813, 40.7482 ], [ -3.4805, 40.7491 ], [ -3.4808, 40.7493 ], [ -3.4815, 40.7486 ], [ -3.4816, 40.7481 ], [ -3.4814, 40.7477 ], [ -3.4809, 40.7474 ], [ -3.4804, 40.7468 ], [ -3.4795, 40.7465 ], [ -3.4787, 40.7465 ], [ -3.4787, 40.7466 ], [ -3.4785, 40.7464 ], [ -3.478, 40.7464 ], [ -3.4765, 40.746 ], [ -3.4759, 40.7461 ], [ -3.4749, 40.746 ], [ -3.4746, 40.7461 ], [ -3.4742, 40.7459 ], [ -3.4739, 40.7459 ], [ -3.4739, 40.746 ], [ -3.473, 40.7462 ], [ -3.473, 40.7463 ], [ -3.4728, 40.746 ], [ -3.4713, 40.7458 ], [ -3.4713, 40.7462 ], [ -3.4725, 40.7463 ], [ -3.4729, 40.7466 ], [ -3.4744, 40.7463 ], [ -3.477, 40.7464 ] ] ] ] } },
{ "type": "Feature", "properties": { "municipio": "Valdepiélagos", "clasificacion": "no-urbanizable-protegido", "calificacion": "sin-asignar", "version": "vigente", "fuente": "SIT-CAM WFS — UsoDelSuelo:VPLA_V_CLASIFICACION (https://idem.comunidad.madrid/geosrvg/ows)", "fecha_dato": "2026-05-12", "ambito": "39083", "_raw_CD_SIGLAS": "SNUP", "_raw_DS_CLASIF_GEN": "Suelo No Urbanizable Protegido", "_raw_DS_CLASIF_DET": "Espacio Preservado. Caminos Históricos-Culturales. Espacio Protegido. Zepa", "_raw_DS_DOCU": "NORMAS SUBSIDIARIAS", "_raw_DS_LEY": "CM Ley 9/1995, E RDL 1/1992", "_raw_FC_AC": "1999-03-11", "_raw_NM_AREA_M2": 31198.128975555399, "_cam_code": "163" }, "geometry": { "type": "Polygon", "coordinates": [ [ [ -3.4695, 40.7754 ], [ -3.4685, 40.7756 ], [ -3.4685, 40.7757 ], [ -3.4668, 40.7757 ], [ -3.4657, 40.7761 ], [ -3.465, 40.7761 ], [ -3.4627, 40.7765 ], [ -3.4614, 40.7771 ], [ -3.4604, 40.7779 ], [ -3.4604, 40.7782 ], [ -3.4615, 40.7772 ], [ -3.4622, 40.7768 ], [ -3.4645, 40.7763 ], [ -3.4658, 40.7763 ], [ -3.4658, 40.7762 ], [ -3.4661, 40.7762 ], [ -3.4661, 40.7761 ], [ -3.4666, 40.7759 ], [ -3.4687, 40.7758 ], [ -3.4687, 40.7757 ], [ -3.4696, 40.7755 ], [ -3.4706, 40.7758 ], [ -3.4709, 40.7755 ], [ -3.4714, 40.7755 ], [ -3.4724, 40.7752 ], [ -3.4745, 40.7752 ], [ -3.4747, 40.7753 ], [ -3.4758, 40.7753 ], [ -3.4764, 40.7759 ], [ -3.4768, 40.776 ], [ -3.4768, 40.7761 ], [ -3.4779, 40.776 ], [ -3.478, 40.7759 ], [ -3.48, 40.776 ], [ -3.4802, 40.7755 ], [ -3.4809, 40.7752 ], [ -3.4832, 40.7749 ], [ -3.4832, 40.7748 ], [ -3.4821, 40.7748 ], [ -3.4821, 40.7749 ], [ -3.4812, 40.775 ], [ -3.4805, 40.7753 ], [ -3.4802, 40.7753 ], [ -3.4799, 40.7759 ], [ -3.4786, 40.7757 ], [ -3.4786, 40.7758 ], [ -3.4778, 40.7758 ], [ -3.477, 40.776 ], [ -3.477, 40.7759 ], [ -3.4766, 40.7759 ], [ -3.4759, 40.7752 ], [ -3.4737, 40.775 ], [ -3.4729, 40.775 ], [ -3.4723, 40.7752 ], [ -3.4718, 40.7752 ], [ -3.4708, 40.7754 ], [ -3.4706, 40.7756 ], [ -3.47, 40.7755 ], [ -3.47, 40.7754 ], [ -3.4695, 40.7754 ] ] ] } },
{ "type": "Feature", "properties": { "municipio": "Valdepiélagos", "clasificacion": "no-urbanizable-protegido", "calificacion": "sin-asignar", "version": "vigente", "fuente": "SIT-CAM WFS — UsoDelSuelo:VPLA_V_CLASIFICACION (https://idem.comunidad.madrid/geosrvg/ows)", "fecha_dato": "2026-05-12", "ambito": "39083", "_raw_CD_SIGLAS": "SNUP", "_raw_DS_CLASIF_GEN": "Suelo No Urbanizable Protegido", "_raw_DS_CLASIF_DET": "Espacio Preservado. Interés Ecológico-Espacio Protegido. Zepa", "_raw_DS_DOCU": "NORMAS SUBSIDIARIAS", "_raw_DS_LEY": "CM Ley 9/1995, E RDL 1/1992", "_raw_FC_AC": "1999-03-11", "_raw_NM_AREA_M2": 328159.68444308802, "_cam_code": "163" }, "geometry": { "type": "MultiPolygon", "coordinates": [ [ [ [ -3.4488, 40.7696 ], [ -3.449, 40.7696 ], [ -3.4492, 40.7692 ], [ -3.4497, 40.769 ], [ -3.4497, 40.7689 ], [ -3.4504, 40.7689 ], [ -3.4504, 40.7688 ], [ -3.4507, 40.7687 ], [ -3.451, 40.7675 ], [ -3.4512, 40.7673 ], [ -3.4513, 40.7669 ], [ -3.4515, 40.7669 ], [ -3.4517, 40.7665 ], [ -3.4517, 40.7662 ], [ -3.452, 40.7658 ], [ -3.4511, 40.766 ], [ -3.4503, 40.7649 ], [ -3.4495, 40.7648 ], [ -3.4493, 40.7648 ], [ -3.4493, 40.7649 ], [ -3.4487, 40.7652 ], [ -3.4484, 40.765 ], [ -3.4483, 40.7647 ], [ -3.448, 40.7647 ], [ -3.4473, 40.7653 ], [ -3.447, 40.7664 ], [ -3.4488, 40.7696 ] ] ], [ [ [ -3.4532, 40.7731 ], [ -3.454, 40.773 ], [ -3.4541, 40.7721 ], [ -3.4532, 40.7714 ], [ -3.4531, 40.7705 ], [ -3.4532, 40.7702 ], [ -3.4529, 40.7704 ], [ -3.4527, 40.7709 ], [ -3.4526, 40.7708 ], [ -3.4527, 40.77 ], [ -3.4523, 40.7693 ], [ -3.4523, 40.769 ], [ -3.4526, 40.7688 ], [ -3.4524, 40.7673 ], [ -3.4526, 40.7672 ], [ -3.455, 40.7641 ], [ -3.4553, 40.7639 ], [ -3.4542, 40.7639 ], [ -3.4536, 40.7648 ], [ -3.4521, 40.7663 ], [ -3.4521, 40.7667 ], [ -3.4517, 40.7669 ], [ -3.4517, 40.7671 ], [ -3.4514, 40.7674 ], [ -3.4514, 40.7679 ], [ -3.4512, 40.7681 ], [ -3.4512, 40.7685 ], [ -3.451, 40.7687 ], [ -3.451, 40.7689 ], [ -3.4502, 40.7691 ], [ -3.4496, 40.7691 ], [ -3.4494, 40.7692 ], [ -3.4494, 40.7694 ], [ -3.4491, 40.7697 ], [ -3.4489, 40.7697 ], [ -3.449, 40.77 ], [ -3.4491, 40.7699 ], [ -3.4496, 40.7699 ], [ -3.4503, 40.7706 ], [ -3.4514, 40.7711 ], [ -3.4518, 40.7716 ], [ -3.4521, 40.7717 ], [ -3.4523, 40.7725 ], [ -3.4529, 40.7728 ], [ -3.4532, 40.7731 ] ] ], [ [ [ -3.4561, 40.7757 ], [ -3.4566, 40.7758 ], [ -3.4567, 40.776 ], [ -3.4567, 40.7758 ], [ -3.4562, 40.7754 ], [ -3.456, 40.7749 ], [ -3.456, 40.7744 ], [ -3.4559, 40.7744 ], [ -3.4559, 40.774 ], [ -3.4558, 40.7736 ], [ -3.4557, 40.7736 ], [ -3.4557, 40.7727 ], [ -3.4555, 40.7717 ], [ -3.4549, 40.7715 ], [ -3.4545, 40.7711 ], [ -3.4544, 40.7707 ], [ -3.4539, 40.7706 ], [ -3.4538, 40.771 ], [ -3.4545, 40.7723 ], [ -3.4544, 40.7728 ], [ -3.4547, 40.7735 ], [ -3.4546, 40.7739 ], [ -3.4546, 40.7743 ], [ -3.4547, 40.7743 ], [ -3.4544, 40.7746 ], [ -3.4545, 40.7746 ], [ -3.4545, 40.7748 ], [ -3.4544, 40.7748 ], [ -3.455, 40.7751 ], [ -3.4554, 40.7757 ], [ -3.4556, 40.7758 ], [ -3.4561, 40.7757 ] ] ] ] } },
{ "type": "Feature", "properties": { "municipio": "Valdepiélagos", "clasificacion": "no-urbanizable-protegido", "calificacion": "sin-asignar", "version": "vigente", "fuente": "SIT-CAM WFS — UsoDelSuelo:VPLA_V_CLASIFICACION (https://idem.comunidad.madrid/geosrvg/ows)", "fecha_dato": "2026-05-12", "ambito": "39083", "_raw_CD_SIGLAS": "SNUP", "_raw_DS_CLASIF_GEN": "Suelo No Urbanizable Protegido", "_raw_DS_CLASIF_DET": "Espacio Protegido. Cauces y Riberas-Espacio Protegido. Zepa", "_raw_DS_DOCU": "NORMAS SUBSIDIARIAS", "_raw_DS_LEY": "CM Ley 9/1995, E RDL 1/1992", "_raw_FC_AC": "1999-03-11", "_raw_NM_AREA_M2": 811380.74764681701, "_cam_code": "163" }, "geometry": { "type": "MultiPolygon", "coordinates": [ [ [ [ -3.4613, 40.7759 ], [ -3.4614, 40.776 ], [ -3.4607, 40.7763 ], [ -3.4603, 40.7767 ], [ -3.4601, 40.7772 ], [ -3.4598, 40.7773 ], [ -3.4594, 40.7777 ], [ -3.4594, 40.778 ], [ -3.4593, 40.778 ], [ -3.4594, 40.7788 ], [ -3.4593, 40.7788 ], [ -3.4592, 40.7792 ], [ -3.4587, 40.7795 ], [ -3.4585, 40.7799 ], [ -3.4589, 40.7808 ], [ -3.4591, 40.7798 ], [ -3.4597, 40.7792 ], [ -3.4599, 40.7788 ], [ -3.4601, 40.7777 ], [ -3.4606, 40.7774 ], [ -3.4612, 40.7765 ], [ -3.4621, 40.7759 ], [ -3.4632, 40.7754 ], [ -3.4632, 40.7753 ], [ -3.4633, 40.7754 ], [ -3.464, 40.7753 ], [ -3.4649, 40.7756 ], [ -3.4654, 40.7756 ], [ -3.4656, 40.7754 ], [ -3.4662, 40.7754 ], [ -3.4667, 40.7756 ], [ -3.4669, 40.7754 ], [ -3.468, 40.7753 ], [ -3.468, 40.7752 ], [ -3.4681, 40.7753 ], [ -3.47, 40.7753 ], [ -3.47, 40.7752 ], [ -3.4704, 40.7751 ], [ -3.4704, 40.775 ], [ -3.4709, 40.7752 ], [ -3.4716, 40.7752 ], [ -3.4722, 40.7748 ], [ -3.4731, 40.7749 ], [ -3.4734, 40.7747 ], [ -3.4738, 40.775 ], [ -3.4753, 40.7749 ], [ -3.476, 40.7752 ], [ -3.4766, 40.7759 ], [ -3.477, 40.7759 ], [ -3.477, 40.776 ], [ -3.4771, 40.7759 ], [ -3.4777, 40.7759 ], [ -3.4786, 40.7755 ], [ -3.4788, 40.7752 ], [ -3.4795, 40.7749 ], [ -3.4802, 40.7744 ], [ -3.4828, 40.7745 ], [ -3.4838, 40.7743 ], [ -3.4843, 40.7748 ], [ -3.4854, 40.7748 ], [ -3.486, 40.7747 ], [ -3.486, 40.7746 ], [ -3.4869, 40.7746 ], [ -3.4872, 40.775 ], [ -3.4892, 40.7756 ], [ -3.4899, 40.7751 ], [ -3.4904, 40.7751 ], [ -3.4908, 40.7747 ], [ -3.4913, 40.7747 ], [ -3.4917, 40.7749 ], [ -3.4922, 40.7749 ], [ -3.4924, 40.7751 ], [ -3.4934, 40.7752 ], [ -3.4943, 40.7751 ], [ -3.4943, 40.775 ], [ -3.4945, 40.775 ], [ -3.4946, 40.7746 ], [ -3.4954, 40.7744 ], [ -3.4954, 40.7743 ], [ -3.4958, 40.7743 ], [ -3.4971, 40.775 ], [ -3.4988, 40.7749 ], [ -3.4988, 40.7748 ], [ -3.4991, 40.7747 ], [ -3.5, 40.7746 ], [ -3.5024, 40.7753 ], [ -3.5031, 40.7757 ], [ -3.5038, 40.7756 ], [ -3.5023, 40.7748 ], [ -3.5004, 40.7743 ], [ -3.4979, 40.7744 ], [ -3.4974, 40.7746 ], [ -3.4969, 40.7745 ], [ -3.4964, 40.7741 ], [ -3.4955, 40.774 ], [ -3.4941, 40.7743 ], [ -3.4938, 40.7747 ], [ -3.4932, 40.7748 ], [ -3.4907, 40.7743 ], [ -3.4893, 40.7749 ], [ -3.4886, 40.775 ], [ -3.4877, 40.7748 ], [ -3.4869, 40.7742 ], [ -3.4865, 40.7742 ], [ -3.4856, 40.7745 ], [ -3.4847, 40.7745 ], [ -3.4847, 40.7744 ], [ -3.4842, 40.7742 ], [ -3.4841, 40.774 ], [ -3.4828, 40.7742 ], [ -3.4821, 40.7742 ], [ -3.4812, 40.774 ], [ -3.4801, 40.774 ], [ -3.4801, 40.7741 ], [ -3.4793, 40.7744 ], [ -3.4793, 40.7745 ], [ -3.4772, 40.7756 ], [ -3.4768, 40.7756 ], [ -3.4767, 40.7751 ], [ -3.4765, 40.7751 ], [ -3.4763, 40.7749 ], [ -3.4741, 40.7746 ], [ -3.4737, 40.7744 ], [ -3.4731, 40.7745 ], [ -3.4723, 40.7744 ], [ -3.4719, 40.7745 ], [ -3.4715, 40.7749 ], [ -3.4708, 40.7749 ], [ -3.4703, 40.7747 ], [ -3.4695, 40.775 ], [ -3.4687, 40.7749 ], [ -3.4675, 40.775 ], [ -3.4674, 40.7751 ], [ -3.4657, 40.7751 ], [ -3.4655, 40.775 ], [ -3.4652, 40.7751 ], [ -3.4651, 40.7753 ], [ -3.4648, 40.7753 ], [ -3.4644, 40.7751 ], [ -3.4644, 40.775 ], [ -3.4642, 40.775 ], [ -3.4642, 40.7749 ], [ -3.4632, 40.7749 ], [ -3.4625, 40.7751 ], [ -3.4622, 40.7754 ], [ -3.461, 40.7755 ], [ -3.461, 40.7756 ], [ -3.4604, 40.7757 ], [ -3.4601, 40.7762 ], [ -3.4598, 40.7763 ], [ -3.4596, 40.7766 ], [ -3.4588, 40.7767 ], [ -3.4588, 40.7765 ], [ -3.4583, 40.7765 ], [ -3.4578, 40.776 ], [ -3.4567, 40.7761 ], [ -3.4566, 40.7758 ], [ -3.4562, 40.7758 ], [ -3.4562, 40.7757 ], [ -3.4556, 40.7758 ], [ -3.4552, 40.7755 ], [ -3.455, 40.7751 ], [ -3.4544, 40.7748 ], [ -3.4545, 40.7748 ], [ -3.4545, 40.7746 ], [ -3.4544, 40.7746 ], [ -3.4547, 40.7743 ], [ -3.4546, 40.7743 ], [ -3.4547, 40.7735 ], [ -3.4544, 40.7728 ], [ -3.4545, 40.7723 ], [ -3.4539, 40.7713 ], [ -3.4538, 40.771 ], [ -3.4539, 40.7706 ], [ -3.4537, 40.7705 ], [ -3.4536, 40.7701 ], [ -3.4532, 40.7702 ], [ -3.4531, 40.7705 ], [ -3.4532, 40.7714 ], [ -3.4541, 40.7721 ], [ -3.4541, 40.7727 ], [ -3.4539, 40.7731 ], [ -3.4532, 40.7731 ], [ -3.4529, 40.7728 ], [ -3.4523, 40.7725 ], [ -3.4522, 40.7719 ], [ -3.452, 40.7716 ], [ -3.4518, 40.7716 ], [ -3.4514, 40.7711 ], [ -3.451, 40.771 ], [ -3.451, 40.7709 ], [ -3.4506, 40.7708 ], [ -3.4503, 40.7705 ], [ -3.45, 40.7704 ], [ -3.4496, 40.7699 ], [ -3.4491, 40.7699 ], [ -3.449, 40.77 ], [ -3.4493, 40.7704 ], [ -3.4494, 40.7703 ], [ -3.4497, 40.7704 ], [ -3.4499, 40.7707 ], [ -3.4514, 40.7715 ], [ -3.4517, 40.7718 ], [ -3.4517, 40.7722 ], [ -3.4526, 40.773 ], [ -3.4528, 40.773 ], [ -3.453, 40.7733 ], [ -3.4536, 40.7733 ], [ -3.4537, 40.7732 ], [ -3.454, 40.7733 ], [ -3.4541, 40.7739 ], [ -3.454, 40.7739 ], [ -3.4539, 40.7743 ], [ -3.4537, 40.7745 ], [ -3.4534, 40.7746 ], [ -3.4538, 40.7749 ], [ -3.4543, 40.7749 ], [ -3.4543, 40.775 ], [ -3.4546, 40.7751 ], [ -3.4549, 40.7754 ], [ -3.4551, 40.776 ], [ -3.4556, 40.7762 ], [ -3.4561, 40.7761 ], [ -3.4561, 40.7762 ], [ -3.4564, 40.7763 ], [ -3.4565, 40.7767 ], [ -3.457, 40.7766 ], [ -3.4571, 40.7764 ], [ -3.4575, 40.7765 ], [ -3.4575, 40.7766 ], [ -3.458, 40.7764 ], [ -3.4582, 40.7767 ], [ -3.4586, 40.7767 ], [ -3.4581, 40.777 ], [ -3.4581, 40.7769 ], [ -3.4575, 40.7768 ], [ -3.4573, 40.7769 ], [ -3.4573, 40.7772 ], [ -3.4571, 40.7772 ], [ -3.4571, 40.7771 ], [ -3.4564, 40.7768 ], [ -3.4564, 40.7767 ], [ -3.4558, 40.7767 ], [ -3.4569, 40.7772 ], [ -3.4569, 40.7773 ], [ -3.4567, 40.7773 ], [ -3.4567, 40.7775 ], [ -3.457, 40.7775 ], [ -3.4575, 40.7772 ], [ -3.4581, 40.7772 ], [ -3.4587, 40.7769 ], [ -3.4598, 40.7767 ], [ -3.4605, 40.7761 ], [ -3.4613, 40.7759 ] ] ], [ [ [ -3.4594, 40.7542 ], [ -3.4625, 40.7531 ], [ -3.463, 40.7531 ], [ -3.4635, 40.7529 ], [ -3.4643, 40.753 ], [ -3.4654, 40.7529 ], [ -3.4668, 40.7531 ], [ -3.4678, 40.7527 ], [ -3.4686, 40.7529 ], [ -3.4689, 40.7526 ], [ -3.4695, 40.7523 ], [ -3.4722, 40.7523 ], [ -3.4731, 40.7521 ], [ -3.4738, 40.7517 ], [ -3.4755, 40.7511 ], [ -3.4762, 40.7511 ], [ -3.4766, 40.7509 ], [ -3.477, 40.7509 ], [ -3.4775, 40.7506 ], [ -3.479, 40.7501 ], [ -3.4793, 40.7501 ], [ -3.4793, 40.7499 ], [ -3.4776, 40.7504 ], [ -3.4768, 40.7508 ], [ -3.4764, 40.7508 ], [ -3.476, 40.751 ], [ -3.4756, 40.7509 ], [ -3.4746, 40.7514 ], [ -3.4718, 40.7521 ], [ -3.4697, 40.752 ], [ -3.4687, 40.7524 ], [ -3.4686, 40.7523 ], [ -3.4673, 40.7523 ], [ -3.4666, 40.7527 ], [ -3.4642, 40.7525 ], [ -3.4622, 40.7528 ], [ -3.46, 40.7536 ], [ -3.4588, 40.7539 ], [ -3.4589, 40.7542 ], [ -3.4594, 40.7542 ] ] ], [ [ [ -3.4481, 40.7518 ], [ -3.4484, 40.7522 ], [ -3.4484, 40.7534 ], [ -3.4483, 40.7536 ], [ -3.4475, 40.7544 ], [ -3.4471, 40.7551 ], [ -3.4462, 40.7556 ], [ -3.4467, 40.7556 ], [ -3.4473, 40.7552 ], [ -3.4475, 40.7552 ], [ -3.4478, 40.7546 ], [ -3.4486, 40.7538 ], [ -3.4488, 40.7533 ], [ -3.4489, 40.7521 ], [ -3.4485, 40.7516 ], [ -3.4484, 40.7505 ], [ -3.4488, 40.7502 ], [ -3.4489, 40.7495 ], [ -3.4491, 40.7493 ], [ -3.4497, 40.7492 ], [ -3.4497, 40.7491 ], [ -3.4502, 40.7491 ], [ -3.4507, 40.7487 ], [ -3.4518, 40.7465 ], [ -3.4523, 40.7465 ], [ -3.4524, 40.7466 ], [ -3.4553, 40.7448 ], [ -3.4555, 40.7448 ], [ -3.4555, 40.7447 ], [ -3.4568, 40.745 ], [ -3.4577, 40.7455 ], [ -3.4577, 40.7456 ], [ -3.4579, 40.7456 ], [ -3.4579, 40.7457 ], [ -3.4583, 40.7457 ], [ -3.46, 40.7451 ], [ -3.46, 40.745 ], [ -3.4601, 40.745 ], [ -3.4601, 40.745 ], [ -3.4601, 40.745 ], [ -3.4618, 40.7447 ], [ -3.4618, 40.7446 ], [ -3.4606, 40.7448 ], [ -3.4605, 40.7449 ], [ -3.4599, 40.745 ], [ -3.4588, 40.7454 ], [ -3.4588, 40.7455 ], [ -3.4582, 40.7456 ], [ -3.4582, 40.7455 ], [ -3.457, 40.7447 ], [ -3.4555, 40.7445 ], [ -3.4554, 40.7447 ], [ -3.4549, 40.7447 ], [ -3.4542, 40.7451 ], [ -3.4542, 40.7452 ], [ -3.4536, 40.7454 ], [ -3.4534, 40.7457 ], [ -3.4526, 40.7461 ], [ -3.4525, 40.7463 ], [ -3.4518, 40.7462 ], [ -3.4511, 40.7467 ], [ -3.4507, 40.7478 ], [ -3.4502, 40.7487 ], [ -3.4492, 40.7487 ], [ -3.4485, 40.7493 ], [ -3.4485, 40.7499 ], [ -3.4479, 40.7505 ], [ -3.4481, 40.7514 ], [ -3.4468, 40.7525 ], [ -3.4459, 40.7538 ], [ -3.4458, 40.7545 ], [ -3.4453, 40.755 ], [ -3.4454, 40.7551 ], [ -3.446, 40.7548 ], [ -3.4463, 40.7543 ], [ -3.4463, 40.7537 ], [ -3.4467, 40.7533 ], [ -3.447, 40.7527 ], [ -3.4481, 40.7518 ] ] ], [ [ [ -3.4681, 40.7597 ], [ -3.4704, 40.7599 ], [ -3.4709, 40.7598 ], [ -3.4711, 40.7596 ], [ -3.4715, 40.7595 ], [ -3.4726, 40.7594 ], [ -3.4729, 40.759 ], [ -3.4743, 40.7589 ], [ -3.475, 40.7587 ], [ -3.4752, 40.7584 ], [ -3.4761, 40.7582 ], [ -3.4763, 40.7579 ], [ -3.4766, 40.7579 ], [ -3.4773, 40.7575 ], [ -3.4775, 40.7571 ], [ -3.4779, 40.7571 ], [ -3.4786, 40.7565 ], [ -3.4792, 40.7566 ], [ -3.4794, 40.7564 ], [ -3.4795, 40.756 ], [ -3.4804, 40.7562 ], [ -3.4804, 40.756 ], [ -3.4805, 40.756 ], [ -3.4807, 40.7556 ], [ -3.4811, 40.7554 ], [ -3.4817, 40.7554 ], [ -3.4821, 40.7551 ], [ -3.4831, 40.7551 ], [ -3.4835, 40.7552 ], [ -3.4838, 40.7555 ], [ -3.4846, 40.7556 ], [ -3.4849, 40.7564 ], [ -3.4875, 40.7589 ], [ -3.4878, 40.7589 ], [ -3.4879, 40.7586 ], [ -3.4875, 40.7586 ], [ -3.4865, 40.7576 ], [ -3.4856, 40.7563 ], [ -3.4851, 40.756 ], [ -3.4852, 40.7558 ], [ -3.4851, 40.7554 ], [ -3.4845, 40.7553 ], [ -3.4842, 40.7549 ], [ -3.4828, 40.7547 ], [ -3.4818, 40.755 ], [ -3.4816, 40.7553 ], [ -3.4804, 40.7555 ], [ -3.4804, 40.7556 ], [ -3.4802, 40.7556 ], [ -3.4802, 40.756 ], [ -3.4795, 40.7557 ], [ -3.4791, 40.7564 ], [ -3.4786, 40.7562 ], [ -3.4778, 40.757 ], [ -3.4774, 40.7569 ], [ -3.4772, 40.7571 ], [ -3.4772, 40.7573 ], [ -3.4767, 40.7575 ], [ -3.4765, 40.7578 ], [ -3.4761, 40.7578 ], [ -3.4759, 40.7581 ], [ -3.475, 40.7583 ], [ -3.4748, 40.7586 ], [ -3.4742, 40.7587 ], [ -3.4737, 40.7585 ], [ -3.4727, 40.7589 ], [ -3.4723, 40.7592 ], [ -3.4719, 40.7592 ], [ -3.4719, 40.7593 ], [ -3.471, 40.7595 ], [ -3.4707, 40.7597 ], [ -3.4703, 40.7597 ], [ -3.4699, 40.7595 ], [ -3.4659, 40.7591 ], [ -3.4653, 40.7592 ], [ -3.4653, 40.7591 ], [ -3.4643, 40.7588 ], [ -3.4628, 40.7581 ], [ -3.4628, 40.758 ], [ -3.4624, 40.7581 ], [ -3.4641, 40.7589 ], [ -3.4644, 40.7589 ], [ -3.4655, 40.7593 ], [ -3.4656, 40.7592 ], [ -3.4662, 40.7592 ], [ -3.4669, 40.7595 ], [ -3.4677, 40.7595 ], [ -3.4681, 40.7596 ], [ -3.4681, 40.7597 ] ] ], [ [ [ -3.4773, 40.761 ], [ -3.4749, 40.7624 ], [ -3.4748, 40.7626 ], [ -3.4752, 40.7627 ], [ -3.4778, 40.7612 ], [ -3.4792, 40.761 ], [ -3.4801, 40.7613 ], [ -3.4808, 40.7613 ], [ -3.4816, 40.7619 ], [ -3.4822, 40.7619 ], [ -3.4832, 40.7613 ], [ -3.4854, 40.7607 ], [ -3.4854, 40.7606 ], [ -3.4851, 40.7603 ], [ -3.4817, 40.7614 ], [ -3.4806, 40.7609 ], [ -3.4795, 40.7609 ], [ -3.4791, 40.7608 ], [ -3.4791, 40.7607 ], [ -3.4781, 40.7607 ], [ -3.4773, 40.761 ] ] ], [ [ [ -3.4484, 40.7631 ], [ -3.4483, 40.7636 ], [ -3.4478, 40.764 ], [ -3.4479, 40.7641 ], [ -3.4488, 40.7632 ], [ -3.4493, 40.7631 ], [ -3.4499, 40.7625 ], [ -3.4523, 40.7614 ], [ -3.4523, 40.761 ], [ -3.4531, 40.7605 ], [ -3.4533, 40.76 ], [ -3.4539, 40.7593 ], [ -3.4539, 40.7591 ], [ -3.4543, 40.759 ], [ -3.4543, 40.7589 ], [ -3.4553, 40.7588 ], [ -3.4556, 40.759 ], [ -3.4563, 40.759 ], [ -3.4567, 40.7592 ], [ -3.4572, 40.7592 ], [ -3.4573, 40.7594 ], [ -3.4577, 40.7594 ], [ -3.4579, 40.7592 ], [ -3.4584, 40.7592 ], [ -3.4585, 40.7591 ], [ -3.4594, 40.7592 ], [ -3.4599, 40.7591 ], [ -3.4601, 40.7593 ], [ -3.4604, 40.7593 ], [ -3.4606, 40.759 ], [ -3.461, 40.7592 ], [ -3.4612, 40.7591 ], [ -3.4619, 40.7592 ], [ -3.462, 40.7591 ], [ -3.4625, 40.7591 ], [ -3.4625, 40.7589 ], [ -3.4626, 40.7589 ], [ -3.4625, 40.7589 ], [ -3.4625, 40.7587 ], [ -3.4618, 40.7587 ], [ -3.4618, 40.7588 ], [ -3.4609, 40.7588 ], [ -3.4609, 40.759 ], [ -3.4606, 40.7589 ], [ -3.4606, 40.7588 ], [ -3.4604, 40.7588 ], [ -3.4602, 40.759 ], [ -3.4599, 40.7589 ], [ -3.4595, 40.759 ], [ -3.4591, 40.7587 ], [ -3.4589, 40.759 ], [ -3.4578, 40.7591 ], [ -3.4578, 40.7592 ], [ -3.4574, 40.7593 ], [ -3.4573, 40.7591 ], [ -3.4568, 40.7591 ], [ -3.456, 40.7587 ], [ -3.456, 40.7586 ], [ -3.4553, 40.7585 ], [ -3.4546, 40.7586 ], [ -3.4537, 40.7591 ], [ -3.4528, 40.7604 ], [ -3.4518, 40.7606 ], [ -3.4517, 40.7607 ], [ -3.4518, 40.7607 ], [ -3.4519, 40.7611 ], [ -3.4518, 40.7612 ], [ -3.4509, 40.7617 ], [ -3.4504, 40.7617 ], [ -3.4503, 40.762 ], [ -3.4496, 40.7622 ], [ -3.4495, 40.7626 ], [ -3.4492, 40.7626 ], [ -3.4492, 40.7629 ], [ -3.449, 40.7631 ], [ -3.4487, 40.7632 ], [ -3.4484, 40.7631 ] ] ], [ [ [ -3.4657, 40.7691 ], [ -3.4652, 40.7696 ], [ -3.4655, 40.7695 ], [ -3.4664, 40.7696 ], [ -3.467, 40.7695 ], [ -3.4671, 40.7693 ], [ -3.4679, 40.7689 ], [ -3.4679, 40.7688 ], [ -3.4728, 40.7688 ], [ -3.474, 40.7691 ], [ -3.4761, 40.7694 ], [ -3.4777, 40.7693 ], [ -3.478, 40.7692 ], [ -3.4807, 40.767 ], [ -3.4811, 40.7668 ], [ -3.4817, 40.7662 ], [ -3.4824, 40.7658 ], [ -3.4827, 40.7646 ], [ -3.483, 40.7642 ], [ -3.4843, 40.7638 ], [ -3.4846, 40.7636 ], [ -3.4865, 40.7633 ], [ -3.4865, 40.7632 ], [ -3.485, 40.7633 ], [ -3.4846, 40.7632 ], [ -3.4829, 40.764 ], [ -3.4826, 40.7642 ], [ -3.4823, 40.7647 ], [ -3.4822, 40.7653 ], [ -3.4816, 40.7659 ], [ -3.481, 40.7664 ], [ -3.4799, 40.767 ], [ -3.4796, 40.7675 ], [ -3.4781, 40.7687 ], [ -3.4775, 40.769 ], [ -3.4767, 40.7691 ], [ -3.475, 40.7689 ], [ -3.4728, 40.7684 ], [ -3.47, 40.7685 ], [ -3.47, 40.7684 ], [ -3.4696, 40.7683 ], [ -3.469, 40.7683 ], [ -3.469, 40.7684 ], [ -3.4687, 40.7684 ], [ -3.4687, 40.7685 ], [ -3.4682, 40.7685 ], [ -3.4682, 40.7684 ], [ -3.4677, 40.7685 ], [ -3.4677, 40.7686 ], [ -3.4664, 40.7692 ], [ -3.4664, 40.7693 ], [ -3.4657, 40.7691 ] ] ], [ [ [ -3.4495, 40.769 ], [ -3.4491, 40.7693 ], [ -3.449, 40.7696 ], [ -3.4488, 40.7696 ], [ -3.4489, 40.7697 ], [ -3.4491, 40.7697 ], [ -3.4494, 40.7694 ], [ -3.4494, 40.7692 ], [ -3.4496, 40.7691 ], [ -3.4502, 40.7691 ], [ -3.451, 40.7689 ], [ -3.451, 40.7687 ], [ -3.4512, 40.7685 ], [ -3.4512, 40.7681 ], [ -3.4514, 40.7679 ], [ -3.4514, 40.7674 ], [ -3.4517, 40.7671 ], [ -3.4517, 40.7669 ], [ -3.4521, 40.7667 ], [ -3.4521, 40.7663 ], [ -3.4536, 40.7648 ], [ -3.4542, 40.7639 ], [ -3.4553, 40.7639 ], [ -3.4557, 40.7637 ], [ -3.4576, 40.7634 ], [ -3.4592, 40.7627 ], [ -3.4622, 40.7627 ], [ -3.4636, 40.7625 ], [ -3.4633, 40.7623 ], [ -3.4633, 40.7621 ], [ -3.4607, 40.7624 ], [ -3.4596, 40.7624 ], [ -3.4595, 40.7625 ], [ -3.459, 40.7624 ], [ -3.4582, 40.7625 ], [ -3.4577, 40.763 ], [ -3.4572, 40.763 ], [ -3.4561, 40.7634 ], [ -3.454, 40.7636 ], [ -3.4517, 40.7662 ], [ -3.4517, 40.7665 ], [ -3.4515, 40.7669 ], [ -3.4513, 40.7669 ], [ -3.4512, 40.7673 ], [ -3.451, 40.7675 ], [ -3.4507, 40.7687 ], [ -3.4504, 40.7688 ], [ -3.4504, 40.7689 ], [ -3.4495, 40.769 ] ] ], [ [ [ -3.4795, 40.776 ], [ -3.4796, 40.7763 ], [ -3.4794, 40.7766 ], [ -3.4792, 40.7775 ], [ -3.4789, 40.7779 ], [ -3.4786, 40.778 ], [ -3.4782, 40.7784 ], [ -3.4772, 40.7787 ], [ -3.4766, 40.7791 ], [ -3.4764, 40.7791 ], [ -3.4756, 40.7797 ], [ -3.4749, 40.78 ], [ -3.4747, 40.7803 ], [ -3.4745, 40.7803 ], [ -3.474, 40.7807 ], [ -3.4738, 40.7807 ], [ -3.4736, 40.781 ], [ -3.4729, 40.7812 ], [ -3.4729, 40.7813 ], [ -3.4723, 40.7813 ], [ -3.4709, 40.7816 ], [ -3.4693, 40.7816 ], [ -3.4668, 40.7822 ], [ -3.4649, 40.7825 ], [ -3.4632, 40.7825 ], [ -3.464, 40.7829 ], [ -3.4657, 40.7828 ], [ -3.4689, 40.782 ], [ -3.4714, 40.7819 ], [ -3.4725, 40.7817 ], [ -3.4725, 40.7816 ], [ -3.4736, 40.7815 ], [ -3.477, 40.7792 ], [ -3.479, 40.7783 ], [ -3.4796, 40.7776 ], [ -3.4799, 40.7766 ], [ -3.48, 40.776 ], [ -3.48, 40.7759 ], [ -3.48, 40.776 ], [ -3.4795, 40.776 ] ] ], [ [ [ -3.4957, 40.7864 ], [ -3.4971, 40.7867 ], [ -3.4971, 40.7875 ], [ -3.4975, 40.7878 ], [ -3.4975, 40.7882 ], [ -3.4978, 40.7883 ], [ -3.4977, 40.7888 ], [ -3.4978, 40.7889 ], [ -3.4981, 40.7888 ], [ -3.4985, 40.7885 ], [ -3.4982, 40.7879 ], [ -3.4981, 40.7879 ], [ -3.4981, 40.7875 ], [ -3.4976, 40.7872 ], [ -3.4977, 40.7867 ], [ -3.4973, 40.7863 ], [ -3.4965, 40.7863 ], [ -3.4958, 40.786 ], [ -3.4944, 40.786 ], [ -3.4942, 40.7859 ], [ -3.4942, 40.7857 ], [ -3.494, 40.7855 ], [ -3.4932, 40.7851 ], [ -3.4931, 40.7847 ], [ -3.4929, 40.7845 ], [ -3.4915, 40.7843 ], [ -3.4913, 40.7841 ], [ -3.4897, 40.7839 ], [ -3.4894, 40.784 ], [ -3.4874, 40.7856 ], [ -3.4879, 40.7858 ], [ -3.4892, 40.7846 ], [ -3.4897, 40.7843 ], [ -3.4905, 40.7843 ], [ -3.4916, 40.7847 ], [ -3.4924, 40.7848 ], [ -3.4926, 40.7852 ], [ -3.4936, 40.7858 ], [ -3.4936, 40.7862 ], [ -3.4938, 40.7863 ], [ -3.4957, 40.7864 ] ] ] ] } },
{ "type": "Feature", "properties": { "municipio": "Valdepiélagos", "clasificacion": "no-urbanizable-protegido", "calificacion": "sin-asignar", "version": "vigente", "fuente": "SIT-CAM WFS — UsoDelSuelo:VPLA_V_CLASIFICACION (https://idem.comunidad.madrid/geosrvg/ows)", "fecha_dato": "2026-05-12", "ambito": "39083", "_raw_CD_SIGLAS": "SNUP", "_raw_DS_CLASIF_GEN": "Suelo No Urbanizable Protegido", "_raw_DS_CLASIF_DET": "Espacio Protegido. Vías Pecuarias-Espacio Protegido. Zepa", "_raw_DS_DOCU": "NORMAS SUBSIDIARIAS", "_raw_DS_LEY": "CM Ley 9/1995, E RDL 1/1992", "_raw_FC_AC": "1999-03-11", "_raw_NM_AREA_M2": 8266.1205683360604, "_cam_code": "163" }, "geometry": { "type": "Polygon", "coordinates": [ [ [ -3.4386, 40.735 ], [ -3.4389, 40.7355 ], [ -3.44, 40.7365 ], [ -3.442, 40.7377 ], [ -3.4409, 40.737 ], [ -3.4401, 40.7363 ], [ -3.4387, 40.7348 ], [ -3.4386, 40.735 ] ] ] } },
{ "type": "Feature", "properties": { "municipio": "Valdepiélagos", "clasificacion": "no-urbanizable-protegido", "calificacion": "sin-asignar", "version": "vigente", "fuente": "SIT-CAM WFS — UsoDelSuelo:VPLA_V_CLASIFICACION (https://idem.comunidad.madrid/geosrvg/ows)", "fecha_dato": "2026-05-12", "ambito": "39083", "_raw_CD_SIGLAS": "SNUP", "_raw_DS_CLASIF_GEN": "Suelo No Urbanizable Protegido", "_raw_DS_CLASIF_DET": "Espacio Protegido. Zepa", "_raw_DS_DOCU": "NORMAS SUBSIDIARIAS", "_raw_DS_LEY": "CM Ley 9/1995, E RDL 1/1992", "_raw_FC_AC": "1999-03-11", "_raw_NM_AREA_M2": 12475353.5956138, "_cam_code": "163" }, "geometry": { "type": "MultiPolygon", "coordinates": [ [ [ [ -3.4478, 40.764 ], [ -3.4483, 40.7636 ], [ -3.4483, 40.7632 ], [ -3.4484, 40.7631 ], [ -3.4487, 40.7632 ], [ -3.449, 40.7631 ], [ -3.4492, 40.7629 ], [ -3.4492, 40.7626 ], [ -3.4495, 40.7626 ], [ -3.4496, 40.7622 ], [ -3.4503, 40.762 ], [ -3.4504, 40.7617 ], [ -3.4509, 40.7617 ], [ -3.4518, 40.7612 ], [ -3.4519, 40.7611 ], [ -3.4518, 40.7607 ], [ -3.4517, 40.7607 ], [ -3.4518, 40.7606 ], [ -3.4528, 40.7604 ], [ -3.4538, 40.759 ], [ -3.4546, 40.7586 ], [ -3.4554, 40.7585 ], [ -3.4554, 40.7583 ], [ -3.4558, 40.758 ], [ -3.4558, 40.7578 ], [ -3.4561, 40.7575 ], [ -3.4561, 40.757 ], [ -3.4592, 40.7568 ], [ -3.4592, 40.7564 ], [ -3.4594, 40.7567 ], [ -3.4595, 40.7566 ], [ -3.4596, 40.7558 ], [ -3.4612, 40.7566 ], [ -3.4619, 40.7568 ], [ -3.4632, 40.7561 ], [ -3.4641, 40.7569 ], [ -3.4648, 40.7573 ], [ -3.4658, 40.7575 ], [ -3.4658, 40.7576 ], [ -3.4661, 40.7577 ], [ -3.4669, 40.7578 ], [ -3.4672, 40.7578 ], [ -3.4672, 40.7577 ], [ -3.4673, 40.7578 ], [ -3.4698, 40.7576 ], [ -3.4706, 40.7582 ], [ -3.473, 40.7579 ], [ -3.474, 40.7573 ], [ -3.4743, 40.7573 ], [ -3.4747, 40.7571 ], [ -3.4748, 40.7572 ], [ -3.4748, 40.7577 ], [ -3.4744, 40.758 ], [ -3.4744, 40.7583 ], [ -3.4739, 40.7585 ], [ -3.4739, 40.7586 ], [ -3.4744, 40.7587 ], [ -3.4748, 40.7586 ], [ -3.475, 40.7583 ], [ -3.4759, 40.7581 ], [ -3.4761, 40.7578 ], [ -3.4765, 40.7578 ], [ -3.4767, 40.7575 ], [ -3.4772, 40.7573 ], [ -3.4772, 40.7571 ], [ -3.4774, 40.7569 ], [ -3.4778, 40.757 ], [ -3.4786, 40.7562 ], [ -3.4791, 40.7564 ], [ -3.4795, 40.7557 ], [ -3.4802, 40.756 ], [ -3.4802, 40.7556 ], [ -3.4804, 40.7556 ], [ -3.4804, 40.7555 ], [ -3.4816, 40.7553 ], [ -3.4818, 40.755 ], [ -3.4828, 40.7547 ], [ -3.4842, 40.7549 ], [ -3.4845, 40.7553 ], [ -3.4851, 40.7554 ], [ -3.4852, 40.7557 ], [ -3.4851, 40.756 ], [ -3.4856, 40.7563 ], [ -3.4865, 40.7576 ], [ -3.4875, 40.7586 ], [ -3.4879, 40.7586 ], [ -3.4881, 40.7573 ], [ -3.4875, 40.7571 ], [ -3.4864, 40.7563 ], [ -3.4859, 40.7561 ], [ -3.4859, 40.7559 ], [ -3.4847, 40.7544 ], [ -3.4846, 40.7542 ], [ -3.486, 40.7538 ], [ -3.4858, 40.7532 ], [ -3.4822, 40.7503 ], [ -3.4814, 40.7487 ], [ -3.4815, 40.7486 ], [ -3.4811, 40.7489 ], [ -3.4808, 40.7493 ], [ -3.4805, 40.7491 ], [ -3.4813, 40.7482 ], [ -3.4813, 40.7477 ], [ -3.481, 40.7475 ], [ -3.4797, 40.747 ], [ -3.4794, 40.747 ], [ -3.4791, 40.7468 ], [ -3.4785, 40.7468 ], [ -3.477, 40.7464 ], [ -3.4744, 40.7463 ], [ -3.4729, 40.7466 ], [ -3.4725, 40.7463 ], [ -3.4713, 40.7462 ], [ -3.4713, 40.7458 ], [ -3.4728, 40.746 ], [ -3.473, 40.7463 ], [ -3.473, 40.7462 ], [ -3.4739, 40.746 ], [ -3.4739, 40.7459 ], [ -3.4742, 40.7459 ], [ -3.4746, 40.7461 ], [ -3.4745, 40.7454 ], [ -3.475, 40.7447 ], [ -3.4709, 40.7447 ], [ -3.4699, 40.7444 ], [ -3.4693, 40.7444 ], [ -3.4692, 40.7449 ], [ -3.469, 40.7452 ], [ -3.4688, 40.7464 ], [ -3.4687, 40.7464 ], [ -3.4687, 40.7466 ], [ -3.4679, 40.748 ], [ -3.468, 40.7483 ], [ -3.468, 40.7496 ], [ -3.4684, 40.7501 ], [ -3.4689, 40.7513 ], [ -3.4686, 40.7524 ], [ -3.4697, 40.752 ], [ -3.4718, 40.7521 ], [ -3.4733, 40.7518 ], [ -3.4743, 40.7514 ], [ -3.4746, 40.7514 ], [ -3.4756, 40.7509 ], [ -3.476, 40.751 ], [ -3.4764, 40.7508 ], [ -3.4768, 40.7508 ], [ -3.4776, 40.7504 ], [ -3.4793, 40.7499 ], [ -3.4793, 40.7501 ], [ -3.479, 40.7501 ], [ -3.4775, 40.7506 ], [ -3.477, 40.7509 ], [ -3.4766, 40.7509 ], [ -3.4762, 40.7511 ], [ -3.4755, 40.7511 ], [ -3.4738, 40.7517 ], [ -3.4731, 40.7521 ], [ -3.4722, 40.7523 ], [ -3.4695, 40.7523 ], [ -3.4689, 40.7526 ], [ -3.4686, 40.7529 ], [ -3.4678, 40.7527 ], [ -3.4668, 40.7531 ], [ -3.4654, 40.7529 ], [ -3.4644, 40.753 ], [ -3.4635, 40.7529 ], [ -3.463, 40.7531 ], [ -3.4625, 40.7531 ], [ -3.4595, 40.7542 ], [ -3.4589, 40.7542 ], [ -3.4588, 40.7539 ], [ -3.46, 40.7536 ], [ -3.4622, 40.7528 ], [ -3.4642, 40.7525 ], [ -3.4666, 40.7527 ], [ -3.4673, 40.7523 ], [ -3.4683, 40.7523 ], [ -3.4685, 40.7521 ], [ -3.4687, 40.7513 ], [ -3.4678, 40.7496 ], [ -3.4678, 40.7483 ], [ -3.4677, 40.748 ], [ -3.4685, 40.7466 ], [ -3.469, 40.7445 ], [ -3.4673, 40.7452 ], [ -3.4663, 40.7453 ], [ -3.4661, 40.7458 ], [ -3.4664, 40.7461 ], [ -3.4667, 40.7468 ], [ -3.4659, 40.7471 ], [ -3.4654, 40.7471 ], [ -3.4642, 40.7474 ], [ -3.4636, 40.744 ], [ -3.4625, 40.7437 ], [ -3.4618, 40.7438 ], [ -3.4613, 40.7442 ], [ -3.4586, 40.7448 ], [ -3.457, 40.7447 ], [ -3.4582, 40.7455 ], [ -3.4582, 40.7456 ], [ -3.4584, 40.7456 ], [ -3.4584, 40.7455 ], [ -3.4587, 40.7455 ], [ -3.4588, 40.7455 ], [ -3.4588, 40.7455 ], [ -3.4588, 40.7454 ], [ -3.4599, 40.745 ], [ -3.4614, 40.7446 ], [ -3.4618, 40.7446 ], [ -3.4618, 40.7447 ], [ -3.46, 40.745 ], [ -3.46, 40.7451 ], [ -3.4583, 40.7457 ], [ -3.4579, 40.7457 ], [ -3.4575, 40.7454 ], [ -3.4575, 40.7458 ], [ -3.458, 40.7467 ], [ -3.4593, 40.7475 ], [ -3.4601, 40.7488 ], [ -3.4611, 40.7496 ], [ -3.462, 40.7511 ], [ -3.4621, 40.7515 ], [ -3.4619, 40.7515 ], [ -3.4617, 40.7509 ], [ -3.461, 40.7498 ], [ -3.4598, 40.7487 ], [ -3.4594, 40.7479 ], [ -3.4577, 40.7466 ], [ -3.4573, 40.7459 ], [ -3.4572, 40.7452 ], [ -3.4558, 40.7447 ], [ -3.4555, 40.7447 ], [ -3.4555, 40.7448 ], [ -3.4553, 40.7448 ], [ -3.4524, 40.7466 ], [ -3.4523, 40.7465 ], [ -3.4518, 40.7465 ], [ -3.4507, 40.7487 ], [ -3.4502, 40.7491 ], [ -3.4493, 40.7492 ], [ -3.4489, 40.7495 ], [ -3.4488, 40.7502 ], [ -3.4484, 40.7505 ], [ -3.4485, 40.7516 ], [ -3.4489, 40.7521 ], [ -3.4487, 40.7536 ], [ -3.4478, 40.7546 ], [ -3.4475, 40.7552 ], [ -3.4473, 40.7552 ], [ -3.4467, 40.7556 ], [ -3.4462, 40.7556 ], [ -3.4471, 40.7551 ], [ -3.4475, 40.7544 ], [ -3.4484, 40.7534 ], [ -3.4484, 40.7522 ], [ -3.4481, 40.7518 ], [ -3.447, 40.7527 ], [ -3.4467, 40.7533 ], [ -3.4463, 40.7537 ], [ -3.4463, 40.7543 ], [ -3.446, 40.7548 ], [ -3.4454, 40.7551 ], [ -3.4453, 40.755 ], [ -3.4457, 40.7547 ], [ -3.4459, 40.7542 ], [ -3.4459, 40.7538 ], [ -3.4468, 40.7525 ], [ -3.4481, 40.7514 ], [ -3.4479, 40.7505 ], [ -3.4485, 40.7499 ], [ -3.4485, 40.7493 ], [ -3.4492, 40.7487 ], [ -3.4502, 40.7487 ], [ -3.4507, 40.7478 ], [ -3.4511, 40.7467 ], [ -3.4518, 40.7462 ], [ -3.4525, 40.7463 ], [ -3.4526, 40.7461 ], [ -3.4534, 40.7457 ], [ -3.4536, 40.7454 ], [ -3.4542, 40.7452 ], [ -3.4542, 40.7451 ], [ -3.4549, 40.7447 ], [ -3.4554, 40.7447 ], [ -3.4555, 40.7445 ], [ -3.4557, 40.7445 ], [ -3.4549, 40.7442 ], [ -3.4532, 40.743 ], [ -3.4529, 40.7423 ], [ -3.4529, 40.7418 ], [ -3.4523, 40.7407 ], [ -3.4522, 40.7398 ], [ -3.4515, 40.739 ], [ -3.4513, 40.7381 ], [ -3.4506, 40.7391 ], [ -3.4502, 40.7407 ], [ -3.4506, 40.7427 ], [ -3.4497, 40.7435 ], [ -3.4497, 40.7438 ], [ -3.4492, 40.7452 ], [ -3.4483, 40.746 ], [ -3.4483, 40.7465 ], [ -3.4475, 40.7471 ], [ -3.4473, 40.747 ], [ -3.448, 40.7464 ], [ -3.4481, 40.7458 ], [ -3.4489, 40.7451 ], [ -3.4495, 40.7432 ], [ -3.4502, 40.7425 ], [ -3.4502, 40.7421 ], [ -3.4498, 40.7412 ], [ -3.4483, 40.7419 ], [ -3.4469, 40.7414 ], [ -3.4461, 40.7446 ], [ -3.4462, 40.7451 ], [ -3.4447, 40.748 ], [ -3.4447, 40.749 ], [ -3.445, 40.7503 ], [ -3.4448, 40.752 ], [ -3.4438, 40.7547 ], [ -3.4444, 40.7575 ], [ -3.4441, 40.7582 ], [ -3.4442, 40.7589 ], [ -3.4439, 40.7603 ], [ -3.4443, 40.7616 ], [ -3.445, 40.7623 ], [ -3.4456, 40.7625 ], [ -3.4478, 40.764 ] ] ], [ [ [ -3.4977, 40.7867 ], [ -3.4976, 40.7872 ], [ -3.4981, 40.7875 ], [ -3.4981, 40.7879 ], [ -3.4982, 40.7879 ], [ -3.4985, 40.7885 ], [ -3.4995, 40.7878 ], [ -3.5011, 40.7857 ], [ -3.499, 40.7853 ], [ -3.499, 40.7852 ], [ -3.4992, 40.7852 ], [ -3.4996, 40.7847 ], [ -3.4997, 40.7842 ], [ -3.4999, 40.7839 ], [ -3.5011, 40.7828 ], [ -3.5013, 40.78 ], [ -3.5068, 40.7794 ], [ -3.507, 40.7782 ], [ -3.507, 40.7772 ], [ -3.5068, 40.7768 ], [ -3.5042, 40.7757 ], [ -3.5042, 40.7756 ], [ -3.5029, 40.7757 ], [ -3.5026, 40.7759 ], [ -3.5021, 40.7759 ], [ -3.5011, 40.7762 ], [ -3.5011, 40.7761 ], [ -3.4994, 40.776 ], [ -3.4981, 40.7754 ], [ -3.4973, 40.7754 ], [ -3.4962, 40.775 ], [ -3.4946, 40.7751 ], [ -3.4937, 40.7754 ], [ -3.4919, 40.7756 ], [ -3.4918, 40.7758 ], [ -3.4915, 40.7757 ], [ -3.4878, 40.7756 ], [ -3.4872, 40.7754 ], [ -3.4867, 40.7755 ], [ -3.4855, 40.7753 ], [ -3.4851, 40.7751 ], [ -3.4819, 40.775 ], [ -3.4818, 40.7751 ], [ -3.4812, 40.7751 ], [ -3.4802, 40.7755 ], [ -3.4801, 40.7759 ], [ -3.48, 40.7759 ], [ -3.4796, 40.7776 ], [ -3.479, 40.7783 ], [ -3.477, 40.7792 ], [ -3.4736, 40.7815 ], [ -3.4725, 40.7816 ], [ -3.4725, 40.7817 ], [ -3.4714, 40.7819 ], [ -3.4689, 40.782 ], [ -3.4657, 40.7828 ], [ -3.4641, 40.7829 ], [ -3.4657, 40.7833 ], [ -3.4662, 40.7836 ], [ -3.4674, 40.7839 ], [ -3.4687, 40.7845 ], [ -3.4711, 40.7847 ], [ -3.4716, 40.7848 ], [ -3.4719, 40.785 ], [ -3.4733, 40.7848 ], [ -3.4742, 40.7849 ], [ -3.4754, 40.7845 ], [ -3.4774, 40.7847 ], [ -3.4781, 40.7844 ], [ -3.4802, 40.7844 ], [ -3.4814, 40.7851 ], [ -3.483, 40.7852 ], [ -3.4861, 40.7849 ], [ -3.4874, 40.7856 ], [ -3.4894, 40.784 ], [ -3.4899, 40.7839 ], [ -3.4913, 40.7841 ], [ -3.4915, 40.7843 ], [ -3.4924, 40.7844 ], [ -3.4924, 40.7845 ], [ -3.4929, 40.7845 ], [ -3.4931, 40.7847 ], [ -3.4932, 40.7851 ], [ -3.494, 40.7855 ], [ -3.4942, 40.7857 ], [ -3.4942, 40.7859 ], [ -3.4944, 40.786 ], [ -3.4958, 40.786 ], [ -3.4965, 40.7863 ], [ -3.4973, 40.7863 ], [ -3.4977, 40.7867 ] ] ], [ [ [ -3.4866, 40.7738 ], [ -3.4897, 40.7742 ], [ -3.4915, 40.7739 ], [ -3.4938, 40.774 ], [ -3.4955, 40.7738 ], [ -3.4991, 40.7739 ], [ -3.498, 40.7731 ], [ -3.4979, 40.7728 ], [ -3.4952, 40.7701 ], [ -3.4938, 40.7693 ], [ -3.4937, 40.7691 ], [ -3.4934, 40.769 ], [ -3.4926, 40.7683 ], [ -3.4914, 40.7679 ], [ -3.4911, 40.7679 ], [ -3.4905, 40.7686 ], [ -3.4897, 40.7692 ], [ -3.4881, 40.7708 ], [ -3.4874, 40.7713 ], [ -3.4871, 40.7717 ], [ -3.4868, 40.7718 ], [ -3.4868, 40.7719 ], [ -3.4856, 40.7722 ], [ -3.4856, 40.7723 ], [ -3.485, 40.7725 ], [ -3.4849, 40.7724 ], [ -3.4855, 40.7722 ], [ -3.4855, 40.7721 ], [ -3.4864, 40.7719 ], [ -3.487, 40.7716 ], [ -3.4883, 40.7703 ], [ -3.4904, 40.7685 ], [ -3.491, 40.7677 ], [ -3.4902, 40.7675 ], [ -3.4883, 40.7675 ], [ -3.4886, 40.767 ], [ -3.4884, 40.7669 ], [ -3.4817, 40.7662 ], [ -3.4811, 40.7668 ], [ -3.4807, 40.767 ], [ -3.478, 40.7692 ], [ -3.4761, 40.7694 ], [ -3.474, 40.7691 ], [ -3.4729, 40.7693 ], [ -3.4697, 40.7709 ], [ -3.4689, 40.7714 ], [ -3.4689, 40.7715 ], [ -3.4675, 40.7713 ], [ -3.4652, 40.7725 ], [ -3.4652, 40.7726 ], [ -3.464, 40.7722 ], [ -3.4638, 40.7725 ], [ -3.4636, 40.7725 ], [ -3.4632, 40.7728 ], [ -3.4631, 40.7731 ], [ -3.4638, 40.7736 ], [ -3.4646, 40.7735 ], [ -3.465, 40.7737 ], [ -3.4653, 40.7737 ], [ -3.4666, 40.7733 ], [ -3.4668, 40.7729 ], [ -3.467, 40.7729 ], [ -3.467, 40.7728 ], [ -3.468, 40.7727 ], [ -3.4701, 40.7728 ], [ -3.4705, 40.7725 ], [ -3.4711, 40.7713 ], [ -3.4717, 40.7713 ], [ -3.4722, 40.7716 ], [ -3.473, 40.7726 ], [ -3.4751, 40.7732 ], [ -3.4765, 40.7732 ], [ -3.4764, 40.7729 ], [ -3.4767, 40.7728 ], [ -3.4804, 40.7737 ], [ -3.4809, 40.7737 ], [ -3.4825, 40.7732 ], [ -3.4835, 40.7727 ], [ -3.485, 40.7725 ], [ -3.4853, 40.7727 ], [ -3.4854, 40.7731 ], [ -3.4857, 40.7734 ], [ -3.4862, 40.7735 ], [ -3.4862, 40.7736 ], [ -3.4866, 40.7738 ] ] ], [ [ [ -3.4666, 40.7759 ], [ -3.4658, 40.7762 ], [ -3.4658, 40.7763 ], [ -3.4645, 40.7763 ], [ -3.4629, 40.7766 ], [ -3.4622, 40.7768 ], [ -3.4615, 40.7772 ], [ -3.4604, 40.7782 ], [ -3.4604, 40.7789 ], [ -3.4602, 40.7792 ], [ -3.4602, 40.7795 ], [ -3.4601, 40.7795 ], [ -3.4601, 40.7813 ], [ -3.4632, 40.7825 ], [ -3.4649, 40.7825 ], [ -3.4668, 40.7822 ], [ -3.4693, 40.7816 ], [ -3.4709, 40.7816 ], [ -3.4723, 40.7813 ], [ -3.4729, 40.7813 ], [ -3.4729, 40.7812 ], [ -3.4736, 40.781 ], [ -3.4738, 40.7807 ], [ -3.474, 40.7807 ], [ -3.4745, 40.7803 ], [ -3.4747, 40.7803 ], [ -3.4749, 40.78 ], [ -3.4756, 40.7797 ], [ -3.4764, 40.7791 ], [ -3.4766, 40.7791 ], [ -3.4772, 40.7787 ], [ -3.4782, 40.7784 ], [ -3.4786, 40.778 ], [ -3.4789, 40.7779 ], [ -3.4792, 40.7775 ], [ -3.4794, 40.7766 ], [ -3.4796, 40.7763 ], [ -3.4795, 40.776 ], [ -3.4793, 40.7759 ], [ -3.478, 40.7759 ], [ -3.4779, 40.776 ], [ -3.4768, 40.7761 ], [ -3.4768, 40.776 ], [ -3.4764, 40.7759 ], [ -3.4758, 40.7753 ], [ -3.4747, 40.7753 ], [ -3.4745, 40.7752 ], [ -3.4724, 40.7752 ], [ -3.4714, 40.7755 ], [ -3.4709, 40.7755 ], [ -3.4706, 40.7758 ], [ -3.4696, 40.7755 ], [ -3.4687, 40.7757 ], [ -3.4687, 40.7758 ], [ -3.4666, 40.7759 ] ] ], [ [ [ -3.4409, 40.737 ], [ -3.4429, 40.7361 ], [ -3.4439, 40.7355 ], [ -3.444, 40.7353 ], [ -3.4445, 40.7353 ], [ -3.4452, 40.7344 ], [ -3.4454, 40.7336 ], [ -3.4462, 40.7336 ], [ -3.4465, 40.7333 ], [ -3.4472, 40.7332 ], [ -3.4474, 40.7322 ], [ -3.4476, 40.7322 ], [ -3.4483, 40.7326 ], [ -3.4492, 40.732 ], [ -3.4492, 40.731 ], [ -3.449, 40.7301 ], [ -3.4483, 40.7291 ], [ -3.4481, 40.7282 ], [ -3.447, 40.7261 ], [ -3.4463, 40.7239 ], [ -3.4462, 40.7231 ], [ -3.4457, 40.7226 ], [ -3.4455, 40.7226 ], [ -3.4455, 40.7227 ], [ -3.4445, 40.7233 ], [ -3.4436, 40.7242 ], [ -3.4428, 40.7258 ], [ -3.44, 40.7324 ], [ -3.4387, 40.7348 ], [ -3.4409, 40.737 ] ] ], [ [ [ -3.4542, 40.7706 ], [ -3.4545, 40.7708 ], [ -3.4545, 40.7711 ], [ -3.4549, 40.7715 ], [ -3.4555, 40.7717 ], [ -3.4555, 40.7708 ], [ -3.4558, 40.7698 ], [ -3.4573, 40.7684 ], [ -3.4581, 40.7681 ], [ -3.4621, 40.7676 ], [ -3.4624, 40.7674 ], [ -3.4627, 40.7674 ], [ -3.4634, 40.767 ], [ -3.4643, 40.7661 ], [ -3.4673, 40.7656 ], [ -3.469, 40.7645 ], [ -3.4723, 40.7629 ], [ -3.4724, 40.7628 ], [ -3.4723, 40.7623 ], [ -3.4716, 40.7613 ], [ -3.4712, 40.7599 ], [ -3.4707, 40.76 ], [ -3.4707, 40.7598 ], [ -3.4704, 40.7599 ], [ -3.4699, 40.7598 ], [ -3.4699, 40.7598 ], [ -3.4697, 40.7598 ], [ -3.4697, 40.7598 ], [ -3.4696, 40.7598 ], [ -3.4695, 40.7598 ], [ -3.4696, 40.7598 ], [ -3.4696, 40.7602 ], [ -3.4694, 40.7604 ], [ -3.4691, 40.7604 ], [ -3.4691, 40.7606 ], [ -3.469, 40.7606 ], [ -3.4691, 40.7608 ], [ -3.4695, 40.761 ], [ -3.47, 40.7618 ], [ -3.4708, 40.7624 ], [ -3.4694, 40.7629 ], [ -3.4696, 40.7634 ], [ -3.469, 40.7636 ], [ -3.4689, 40.7638 ], [ -3.4679, 40.7634 ], [ -3.4662, 40.7637 ], [ -3.4656, 40.7641 ], [ -3.4653, 40.7648 ], [ -3.4646, 40.765 ], [ -3.4635, 40.7659 ], [ -3.4631, 40.7658 ], [ -3.463, 40.7656 ], [ -3.4633, 40.7649 ], [ -3.4635, 40.7648 ], [ -3.4635, 40.7645 ], [ -3.4643, 40.7637 ], [ -3.4645, 40.7633 ], [ -3.4643, 40.7628 ], [ -3.4636, 40.7625 ], [ -3.4622, 40.7627 ], [ -3.4592, 40.7627 ], [ -3.4576, 40.7634 ], [ -3.4557, 40.7637 ], [ -3.4552, 40.7639 ], [ -3.4534, 40.7662 ], [ -3.4532, 40.7663 ], [ -3.4526, 40.7672 ], [ -3.4524, 40.7673 ], [ -3.4526, 40.7688 ], [ -3.4523, 40.769 ], [ -3.4523, 40.7693 ], [ -3.4527, 40.77 ], [ -3.4526, 40.7708 ], [ -3.4527, 40.7709 ], [ -3.4529, 40.7704 ], [ -3.4532, 40.7702 ], [ -3.4535, 40.7702 ], [ -3.4535, 40.7701 ], [ -3.4537, 40.7702 ], [ -3.4538, 40.7706 ], [ -3.454, 40.7707 ], [ -3.4542, 40.7707 ], [ -3.4542, 40.7706 ] ] ], [ [ [ -3.5008, 40.7741 ], [ -3.5024, 40.7747 ], [ -3.5031, 40.7747 ], [ -3.5032, 40.7744 ], [ -3.5031, 40.7742 ], [ -3.5033, 40.7742 ], [ -3.5033, 40.7741 ], [ -3.5037, 40.7741 ], [ -3.5038, 40.7744 ], [ -3.504, 40.774 ], [ -3.5042, 40.7722 ], [ -3.5039, 40.7716 ], [ -3.5039, 40.7712 ], [ -3.5016, 40.7683 ], [ -3.5017, 40.7676 ], [ -3.4989, 40.7647 ], [ -3.4964, 40.7645 ], [ -3.4962, 40.7652 ], [ -3.4947, 40.7649 ], [ -3.492, 40.7668 ], [ -3.4911, 40.7677 ], [ -3.4928, 40.7682 ], [ -3.4929, 40.7684 ], [ -3.4936, 40.7688 ], [ -3.4937, 40.769 ], [ -3.4957, 40.7703 ], [ -3.4981, 40.7727 ], [ -3.4981, 40.7729 ], [ -3.4993, 40.774 ], [ -3.5008, 40.7741 ] ] ], [ [ [ -3.4493, 40.7648 ], [ -3.4504, 40.765 ], [ -3.4511, 40.766 ], [ -3.452, 40.7658 ], [ -3.454, 40.7636 ], [ -3.4561, 40.7634 ], [ -3.4572, 40.763 ], [ -3.4577, 40.763 ], [ -3.4582, 40.7625 ], [ -3.459, 40.7624 ], [ -3.4595, 40.7625 ], [ -3.4596, 40.7624 ], [ -3.4607, 40.7624 ], [ -3.4623, 40.7622 ], [ -3.4624, 40.7619 ], [ -3.4623, 40.7619 ], [ -3.4622, 40.7613 ], [ -3.4616, 40.7612 ], [ -3.4618, 40.7608 ], [ -3.462, 40.7597 ], [ -3.4615, 40.7595 ], [ -3.4616, 40.7593 ], [ -3.4612, 40.7594 ], [ -3.4613, 40.7591 ], [ -3.461, 40.7592 ], [ -3.4606, 40.759 ], [ -3.4604, 40.7593 ], [ -3.4601, 40.7593 ], [ -3.4599, 40.7591 ], [ -3.4597, 40.7591 ], [ -3.4597, 40.7592 ], [ -3.4585, 40.7591 ], [ -3.4584, 40.7592 ], [ -3.4579, 40.7592 ], [ -3.4577, 40.7594 ], [ -3.4573, 40.7594 ], [ -3.4572, 40.7592 ], [ -3.4567, 40.7592 ], [ -3.4563, 40.759 ], [ -3.4556, 40.759 ], [ -3.4553, 40.7588 ], [ -3.454, 40.759 ], [ -3.4537, 40.7596 ], [ -3.4533, 40.76 ], [ -3.4531, 40.7605 ], [ -3.4523, 40.761 ], [ -3.4523, 40.7614 ], [ -3.4499, 40.7625 ], [ -3.4493, 40.7631 ], [ -3.4488, 40.7632 ], [ -3.4484, 40.7637 ], [ -3.4475, 40.7644 ], [ -3.4473, 40.7653 ], [ -3.448, 40.7647 ], [ -3.4483, 40.7647 ], [ -3.4484, 40.765 ], [ -3.4487, 40.7652 ], [ -3.4493, 40.7649 ], [ -3.4493, 40.7648 ] ], [ [ -3.4575, 40.7622 ], [ -3.4558, 40.7623 ], [ -3.4553, 40.7622 ], [ -3.455, 40.7619 ], [ -3.4551, 40.761 ], [ -3.456, 40.7606 ], [ -3.4588, 40.7606 ], [ -3.459, 40.7608 ], [ -3.4598, 40.761 ], [ -3.46, 40.7612 ], [ -3.4599, 40.7614 ], [ -3.4586, 40.7616 ], [ -3.4586, 40.7617 ], [ -3.4575, 40.7621 ], [ -3.4575, 40.7622 ] ] ], [ [ [ -3.497, 40.7884 ], [ -3.4976, 40.7883 ], [ -3.4976, 40.7882 ], [ -3.4975, 40.7882 ], [ -3.4975, 40.7878 ], [ -3.4971, 40.7875 ], [ -3.4971, 40.7867 ], [ -3.4957, 40.7864 ], [ -3.4938, 40.7863 ], [ -3.4936, 40.7862 ], [ -3.4936, 40.7858 ], [ -3.4926, 40.7852 ], [ -3.4924, 40.7848 ], [ -3.4916, 40.7847 ], [ -3.491, 40.7844 ], [ -3.4897, 40.7843 ], [ -3.4892, 40.7846 ], [ -3.4879, 40.7858 ], [ -3.4947, 40.7875 ], [ -3.4964, 40.788 ], [ -3.497, 40.7883 ], [ -3.497, 40.7884 ] ] ], [ [ [ -3.4859, 40.7598 ], [ -3.4865, 40.7597 ], [ -3.4867, 40.7598 ], [ -3.4871, 40.7594 ], [ -3.4876, 40.7594 ], [ -3.4878, 40.7589 ], [ -3.4875, 40.7589 ], [ -3.4849, 40.7564 ], [ -3.4846, 40.7556 ], [ -3.4838, 40.7555 ], [ -3.4835, 40.7552 ], [ -3.4831, 40.7551 ], [ -3.4821, 40.7551 ], [ -3.4819, 40.7552 ], [ -3.4822, 40.7552 ], [ -3.4825, 40.7556 ], [ -3.483, 40.7555 ], [ -3.4833, 40.7556 ], [ -3.4837, 40.7561 ], [ -3.484, 40.7581 ], [ -3.4859, 40.7598 ] ] ], [ [ [ -3.481, 40.7664 ], [ -3.4798, 40.7665 ], [ -3.4792, 40.7668 ], [ -3.4778, 40.7681 ], [ -3.4768, 40.7686 ], [ -3.475, 40.7689 ], [ -3.4767, 40.7691 ], [ -3.4775, 40.769 ], [ -3.4781, 40.7687 ], [ -3.4796, 40.7675 ], [ -3.4799, 40.767 ], [ -3.481, 40.7664 ] ] ], [ [ [ -3.4448, 40.7357 ], [ -3.4462, 40.7342 ], [ -3.4472, 40.7339 ], [ -3.4487, 40.733 ], [ -3.4493, 40.7325 ], [ -3.4493, 40.7323 ], [ -3.4483, 40.733 ], [ -3.448, 40.7329 ], [ -3.4477, 40.7326 ], [ -3.4476, 40.7327 ], [ -3.4477, 40.7332 ], [ -3.4476, 40.7333 ], [ -3.4469, 40.7335 ], [ -3.4465, 40.7338 ], [ -3.4457, 40.734 ], [ -3.4456, 40.7346 ], [ -3.4454, 40.7347 ], [ -3.4448, 40.7357 ] ] ], [ [ [ -3.4448, 40.7357 ], [ -3.4443, 40.7357 ], [ -3.4438, 40.7361 ], [ -3.4433, 40.7362 ], [ -3.4433, 40.7363 ], [ -3.4423, 40.7368 ], [ -3.4423, 40.7369 ], [ -3.4413, 40.7372 ], [ -3.442, 40.7377 ], [ -3.4429, 40.7372 ], [ -3.4448, 40.7357 ] ] ], [ [ [ -3.4613, 40.7588 ], [ -3.4618, 40.7587 ], [ -3.4623, 40.7587 ], [ -3.4623, 40.7582 ], [ -3.4613, 40.7588 ] ] ], [ [ [ -3.4978, 40.7889 ], [ -3.4977, 40.7885 ], [ -3.4977, 40.7887 ], [ -3.4977, 40.7887 ], [ -3.4977, 40.7887 ], [ -3.4977, 40.7887 ], [ -3.4977, 40.7887 ], [ -3.4977, 40.7887 ], [ -3.4977, 40.7887 ], [ -3.4977, 40.7887 ], [ -3.4977, 40.7887 ], [ -3.4977, 40.7887 ], [ -3.4977, 40.7888 ], [ -3.4977, 40.7888 ], [ -3.4977, 40.7888 ], [ -3.4977, 40.7888 ], [ -3.4977, 40.7888 ], [ -3.4977, 40.7888 ], [ -3.4978, 40.7889 ] ] ] ] } },
{ "type": "Feature", "properties": { "municipio": "Valdepiélagos", "clasificacion": "no-urbanizable-protegido", "calificacion": "sin-asignar", "version": "vigente", "fuente": "SIT-CAM WFS — UsoDelSuelo:VPLA_V_CLASIFICACION (https://idem.comunidad.madrid/geosrvg/ows)", "fecha_dato": "2026-05-12", "ambito": "39083", "_raw_CD_SIGLAS": "SNUP", "_raw_DS_CLASIF_GEN": "Suelo No Urbanizable Protegido", "_raw_DS_CLASIF_DET": "Espacio Catalogado-Espacio Protegido. Zepa", "_raw_DS_DOCU": "NORMAS SUBSIDIARIAS", "_raw_DS_LEY": "CM Ley 9/1995, E RDL 1/1992", "_raw_FC_AC": "1999-03-11", "_raw_NM_AREA_M2": 57791.933845921798, "_cam_code": "163" }, "geometry": { "type": "Polygon", "coordinates": [ [ [ -3.455, 40.7619 ], [ -3.4555, 40.7623 ], [ -3.4575, 40.7622 ], [ -3.4575, 40.7621 ], [ -3.4586, 40.7617 ], [ -3.4586, 40.7616 ], [ -3.4599, 40.7614 ], [ -3.46, 40.7612 ], [ -3.4598, 40.761 ], [ -3.459, 40.7608 ], [ -3.4588, 40.7606 ], [ -3.456, 40.7606 ], [ -3.4551, 40.761 ], [ -3.4551, 40.7612 ], [ -3.455, 40.7612 ], [ -3.455, 40.7619 ] ] ] } },
{ "type": "Feature", "properties": { "municipio": "Valdepiélagos", "clasificacion": "no-urbanizable-protegido", "calificacion": "sin-asignar", "version": "vigente", "fuente": "SIT-CAM WFS — UsoDelSuelo:VPLA_V_CLASIFICACION (https://idem.comunidad.madrid/geosrvg/ows)", "fecha_dato": "2026-05-12", "ambito": "39083", "_raw_CD_SIGLAS": "SNUP", "_raw_DS_CLASIF_GEN": "Suelo No Urbanizable Protegido", "_raw_DS_CLASIF_DET": "Espacio Catalogado-Espacio Reservado. Interés Ecológico-Espacio Protegido. Zepa", "_raw_DS_DOCU": "NORMAS SUBSIDIARIAS", "_raw_DS_LEY": "CM Ley 9/1995, E RDL 1/1992", "_raw_FC_AC": "1999-03-11", "_raw_NM_AREA_M2": 2303238.2784306598, "_cam_code": "163" }, "geometry": { "type": "MultiPolygon", "coordinates": [ [ [ [ -3.4663, 40.7685 ], [ -3.4657, 40.7691 ], [ -3.4658, 40.7692 ], [ -3.4664, 40.7693 ], [ -3.4664, 40.7692 ], [ -3.4677, 40.7686 ], [ -3.4677, 40.7685 ], [ -3.4681, 40.7685 ], [ -3.4681, 40.7684 ], [ -3.4682, 40.7685 ], [ -3.4687, 40.7685 ], [ -3.4687, 40.7684 ], [ -3.469, 40.7684 ], [ -3.469, 40.7683 ], [ -3.4696, 40.7683 ], [ -3.47, 40.7684 ], [ -3.47, 40.7685 ], [ -3.4728, 40.7684 ], [ -3.475, 40.7689 ], [ -3.4768, 40.7686 ], [ -3.4778, 40.7681 ], [ -3.4792, 40.7668 ], [ -3.4798, 40.7665 ], [ -3.481, 40.7664 ], [ -3.4816, 40.7659 ], [ -3.4808, 40.7659 ], [ -3.4795, 40.7656 ], [ -3.479, 40.7656 ], [ -3.4785, 40.7654 ], [ -3.4775, 40.7654 ], [ -3.4773, 40.7653 ], [ -3.4748, 40.7654 ], [ -3.4748, 40.7653 ], [ -3.4746, 40.7653 ], [ -3.4747, 40.7651 ], [ -3.4747, 40.7652 ], [ -3.4778, 40.7652 ], [ -3.4806, 40.7657 ], [ -3.4818, 40.7657 ], [ -3.4822, 40.7653 ], [ -3.4823, 40.7647 ], [ -3.4826, 40.7642 ], [ -3.4838, 40.7635 ], [ -3.4846, 40.7632 ], [ -3.4848, 40.7633 ], [ -3.4853, 40.7614 ], [ -3.4855, 40.7612 ], [ -3.4855, 40.7608 ], [ -3.4854, 40.7607 ], [ -3.4832, 40.7613 ], [ -3.4822, 40.7619 ], [ -3.4816, 40.7619 ], [ -3.4808, 40.7613 ], [ -3.4801, 40.7613 ], [ -3.4789, 40.761 ], [ -3.4778, 40.7612 ], [ -3.4752, 40.7627 ], [ -3.4749, 40.7627 ], [ -3.4748, 40.7626 ], [ -3.4749, 40.7624 ], [ -3.4773, 40.761 ], [ -3.4781, 40.7607 ], [ -3.4791, 40.7607 ], [ -3.4791, 40.7608 ], [ -3.4795, 40.7609 ], [ -3.4806, 40.7609 ], [ -3.4817, 40.7614 ], [ -3.4851, 40.7603 ], [ -3.4852, 40.7604 ], [ -3.4853, 40.7602 ], [ -3.4858, 40.76 ], [ -3.4859, 40.7598 ], [ -3.484, 40.7581 ], [ -3.4837, 40.7561 ], [ -3.4833, 40.7556 ], [ -3.4832, 40.7555 ], [ -3.4825, 40.7556 ], [ -3.4822, 40.7552 ], [ -3.4819, 40.7552 ], [ -3.4817, 40.7554 ], [ -3.4811, 40.7554 ], [ -3.4807, 40.7556 ], [ -3.4805, 40.756 ], [ -3.4804, 40.756 ], [ -3.4804, 40.7562 ], [ -3.4795, 40.756 ], [ -3.4794, 40.7564 ], [ -3.4792, 40.7566 ], [ -3.4786, 40.7565 ], [ -3.4779, 40.7571 ], [ -3.4775, 40.7571 ], [ -3.4773, 40.7575 ], [ -3.4766, 40.7579 ], [ -3.4763, 40.7579 ], [ -3.4761, 40.7582 ], [ -3.4752, 40.7584 ], [ -3.475, 40.7587 ], [ -3.4743, 40.7589 ], [ -3.4729, 40.759 ], [ -3.4726, 40.7594 ], [ -3.4711, 40.7596 ], [ -3.4709, 40.7598 ], [ -3.4707, 40.7598 ], [ -3.4707, 40.76 ], [ -3.4712, 40.7599 ], [ -3.4716, 40.7613 ], [ -3.4722, 40.7621 ], [ -3.4724, 40.7628 ], [ -3.4716, 40.7633 ], [ -3.469, 40.7645 ], [ -3.4673, 40.7656 ], [ -3.4665, 40.7657 ], [ -3.4668, 40.7674 ], [ -3.4663, 40.7685 ] ] ], [ [ [ -3.4825, 40.7658 ], [ -3.4823, 40.7658 ], [ -3.4817, 40.7662 ], [ -3.4828, 40.7663 ], [ -3.485, 40.7665 ], [ -3.4835, 40.7661 ], [ -3.4829, 40.7658 ], [ -3.4825, 40.7658 ] ] ], [ [ [ -3.4825, 40.7656 ], [ -3.4846, 40.7663 ], [ -3.4861, 40.7667 ], [ -3.4886, 40.767 ], [ -3.4895, 40.7652 ], [ -3.4869, 40.7649 ], [ -3.4865, 40.7633 ], [ -3.4846, 40.7636 ], [ -3.4843, 40.7638 ], [ -3.483, 40.7642 ], [ -3.4827, 40.7646 ], [ -3.4826, 40.765 ], [ -3.4825, 40.7656 ] ] ], [ [ [ -3.4644, 40.7713 ], [ -3.464, 40.7722 ], [ -3.4652, 40.7726 ], [ -3.4652, 40.7725 ], [ -3.4672, 40.7714 ], [ -3.4676, 40.7713 ], [ -3.4689, 40.7715 ], [ -3.4689, 40.7714 ], [ -3.4697, 40.7709 ], [ -3.4729, 40.7693 ], [ -3.4741, 40.7691 ], [ -3.4728, 40.7688 ], [ -3.4679, 40.7688 ], [ -3.4679, 40.7689 ], [ -3.4671, 40.7693 ], [ -3.467, 40.7695 ], [ -3.4666, 40.7696 ], [ -3.4655, 40.7695 ], [ -3.4652, 40.7696 ], [ -3.4649, 40.7708 ], [ -3.4644, 40.7713 ] ] ], [ [ [ -3.4573, 40.7758 ], [ -3.4583, 40.7761 ], [ -3.4583, 40.7762 ], [ -3.4587, 40.7762 ], [ -3.4587, 40.7761 ], [ -3.4591, 40.776 ], [ -3.4591, 40.7759 ], [ -3.4598, 40.7758 ], [ -3.4632, 40.7746 ], [ -3.4633, 40.7733 ], [ -3.4631, 40.7731 ], [ -3.4627, 40.7738 ], [ -3.4625, 40.7738 ], [ -3.4625, 40.7737 ], [ -3.463, 40.7731 ], [ -3.4631, 40.7727 ], [ -3.4639, 40.7722 ], [ -3.464, 40.7716 ], [ -3.4648, 40.7706 ], [ -3.4651, 40.7694 ], [ -3.4658, 40.7689 ], [ -3.4659, 40.7685 ], [ -3.4663, 40.7682 ], [ -3.4666, 40.7675 ], [ -3.4666, 40.767 ], [ -3.4665, 40.767 ], [ -3.4663, 40.7658 ], [ -3.4643, 40.7661 ], [ -3.4634, 40.767 ], [ -3.4621, 40.7676 ], [ -3.4578, 40.7682 ], [ -3.457, 40.7686 ], [ -3.4558, 40.7698 ], [ -3.4555, 40.7708 ], [ -3.4555, 40.7719 ], [ -3.4557, 40.7727 ], [ -3.4557, 40.7736 ], [ -3.4558, 40.7736 ], [ -3.4559, 40.7744 ], [ -3.456, 40.7744 ], [ -3.456, 40.7749 ], [ -3.4562, 40.7754 ], [ -3.4567, 40.7758 ], [ -3.4567, 40.7761 ], [ -3.457, 40.7761 ], [ -3.4573, 40.7758 ] ] ] ] } },
{ "type": "Feature", "properties": { "municipio": "Valdepiélagos", "clasificacion": "no-urbanizable-protegido", "calificacion": "sin-asignar", "version": "vigente", "fuente": "SIT-CAM WFS — UsoDelSuelo:VPLA_V_CLASIFICACION (https://idem.comunidad.madrid/geosrvg/ows)", "fecha_dato": "2026-05-12", "ambito": "39083", "_raw_CD_SIGLAS": "SNUP", "_raw_DS_CLASIF_GEN": "Suelo No Urbanizable Protegido", "_raw_DS_CLASIF_DET": "Espacio Preservado. Caminos Históricos-Culturales. Espacio Protegido. Zepa", "_raw_DS_DOCU": "NORMAS SUBSIDIARIAS", "_raw_DS_LEY": "CM Ley 9/1995, E RDL 1/1992", "_raw_FC_AC": "1999-03-11", "_raw_NM_AREA_M2": 85708.167789202897, "_cam_code": "163" }, "geometry": { "type": "MultiPolygon", "coordinates": [ [ [ [ -3.4912, 40.7679 ], [ -3.4926, 40.7683 ], [ -3.4934, 40.769 ], [ -3.4937, 40.7691 ], [ -3.4938, 40.7693 ], [ -3.4952, 40.7701 ], [ -3.4979, 40.7728 ], [ -3.498, 40.7731 ], [ -3.4993, 40.774 ], [ -3.4981, 40.7729 ], [ -3.4981, 40.7727 ], [ -3.4957, 40.7703 ], [ -3.4937, 40.769 ], [ -3.4936, 40.7688 ], [ -3.4929, 40.7684 ], [ -3.4928, 40.7682 ], [ -3.4912, 40.7677 ], [ -3.487, 40.7716 ], [ -3.4867, 40.7717 ], [ -3.4867, 40.7718 ], [ -3.4858, 40.772 ], [ -3.4849, 40.7724 ], [ -3.485, 40.7725 ], [ -3.4856, 40.7723 ], [ -3.4856, 40.7722 ], [ -3.4868, 40.7719 ], [ -3.4868, 40.7718 ], [ -3.4871, 40.7717 ], [ -3.4874, 40.7713 ], [ -3.4881, 40.7708 ], [ -3.4912, 40.7679 ] ] ], [ [ [ -3.4573, 40.7455 ], [ -3.4572, 40.7452 ], [ -3.4572, 40.7453 ], [ -3.4575, 40.7454 ], [ -3.4575, 40.7458 ], [ -3.458, 40.7467 ], [ -3.4593, 40.7475 ], [ -3.4601, 40.7488 ], [ -3.4611, 40.7496 ], [ -3.462, 40.7511 ], [ -3.4621, 40.7515 ], [ -3.4619, 40.7515 ], [ -3.4617, 40.7509 ], [ -3.461, 40.7498 ], [ -3.4598, 40.7487 ], [ -3.4594, 40.7479 ], [ -3.4577, 40.7466 ], [ -3.4573, 40.7459 ], [ -3.4573, 40.7455 ] ] ], [ [ [ -3.4693, 40.7444 ], [ -3.4692, 40.7445 ], [ -3.469, 40.7445 ], [ -3.4685, 40.7466 ], [ -3.4677, 40.748 ], [ -3.4678, 40.7483 ], [ -3.4678, 40.7496 ], [ -3.4687, 40.7513 ], [ -3.4685, 40.7521 ], [ -3.4683, 40.7523 ], [ -3.4686, 40.7523 ], [ -3.4689, 40.7513 ], [ -3.4684, 40.7501 ], [ -3.468, 40.7496 ], [ -3.468, 40.7483 ], [ -3.4679, 40.748 ], [ -3.4687, 40.7466 ], [ -3.4687, 40.7464 ], [ -3.4688, 40.7464 ], [ -3.469, 40.7452 ], [ -3.4692, 40.7449 ], [ -3.4693, 40.7444 ] ] ], [ [ [ -3.479, 40.7656 ], [ -3.4816, 40.7659 ], [ -3.4818, 40.7657 ], [ -3.4806, 40.7657 ], [ -3.4778, 40.7652 ], [ -3.4747, 40.7652 ], [ -3.4747, 40.7651 ], [ -3.4746, 40.7653 ], [ -3.4748, 40.7653 ], [ -3.4748, 40.7654 ], [ -3.476, 40.7654 ], [ -3.4762, 40.7653 ], [ -3.4785, 40.7654 ], [ -3.479, 40.7656 ] ] ], [ [ [ -3.4824, 40.7658 ], [ -3.4838, 40.7661 ], [ -3.4847, 40.7665 ], [ -3.4861, 40.7667 ], [ -3.4846, 40.7663 ], [ -3.4837, 40.766 ], [ -3.4837, 40.7659 ], [ -3.4834, 40.7659 ], [ -3.4828, 40.7656 ], [ -3.4824, 40.7657 ], [ -3.4824, 40.7658 ] ] ], [ [ [ -3.4663, 40.7658 ], [ -3.4665, 40.767 ], [ -3.4666, 40.767 ], [ -3.4666, 40.7675 ], [ -3.4663, 40.7682 ], [ -3.4659, 40.7685 ], [ -3.4658, 40.7689 ], [ -3.4651, 40.7694 ], [ -3.4648, 40.7706 ], [ -3.464, 40.7716 ], [ -3.4639, 40.7722 ], [ -3.4631, 40.7727 ], [ -3.463, 40.7731 ], [ -3.4626, 40.7735 ], [ -3.4625, 40.7738 ], [ -3.4627, 40.7738 ], [ -3.4628, 40.7735 ], [ -3.463, 40.7734 ], [ -3.4632, 40.7728 ], [ -3.464, 40.7723 ], [ -3.4642, 40.7716 ], [ -3.4645, 40.7713 ], [ -3.4646, 40.771 ], [ -3.4649, 40.7708 ], [ -3.4649, 40.7705 ], [ -3.4652, 40.7699 ], [ -3.4652, 40.7695 ], [ -3.466, 40.7689 ], [ -3.466, 40.7687 ], [ -3.4663, 40.7685 ], [ -3.4666, 40.7677 ], [ -3.4667, 40.7677 ], [ -3.4668, 40.767 ], [ -3.4667, 40.767 ], [ -3.4666, 40.7666 ], [ -3.4665, 40.7657 ], [ -3.4663, 40.7658 ] ] ] ] } },
{ "type": "Feature", "properties": { "municipio": "Valdepiélagos", "clasificacion": "no-urbanizable-protegido", "calificacion": "sin-asignar", "version": "vigente", "fuente": "SIT-CAM WFS — UsoDelSuelo:VPLA_V_CLASIFICACION (https://idem.comunidad.madrid/geosrvg/ows)", "fecha_dato": "2026-05-12", "ambito": "39083", "_raw_CD_SIGLAS": "SNUP", "_raw_DS_CLASIF_GEN": "Suelo No Urbanizable Protegido", "_raw_DS_CLASIF_DET": "Espacio Preservado. Interés Ecológico-Espacio Protegido. Zepa", "_raw_DS_DOCU": "NORMAS SUBSIDIARIAS", "_raw_DS_LEY": "CM Ley 9/1995, E RDL 1/1992", "_raw_FC_AC": "1999-03-11", "_raw_NM_AREA_M2": 825997.40888009896, "_cam_code": "163" }, "geometry": { "type": "MultiPolygon", "coordinates": [ [ [ [ -3.4587, 40.7765 ], [ -3.4588, 40.7765 ], [ -3.4588, 40.7767 ], [ -3.4596, 40.7766 ], [ -3.4598, 40.7763 ], [ -3.4601, 40.7762 ], [ -3.4604, 40.7757 ], [ -3.461, 40.7756 ], [ -3.461, 40.7755 ], [ -3.4622, 40.7754 ], [ -3.4625, 40.7751 ], [ -3.4632, 40.7749 ], [ -3.4642, 40.7749 ], [ -3.4642, 40.775 ], [ -3.4644, 40.775 ], [ -3.4644, 40.7751 ], [ -3.4648, 40.7753 ], [ -3.4651, 40.7753 ], [ -3.4652, 40.7751 ], [ -3.4655, 40.775 ], [ -3.4657, 40.7751 ], [ -3.4674, 40.7751 ], [ -3.4675, 40.775 ], [ -3.4687, 40.7749 ], [ -3.4695, 40.775 ], [ -3.4703, 40.7747 ], [ -3.4708, 40.7749 ], [ -3.4715, 40.7749 ], [ -3.4719, 40.7745 ], [ -3.4723, 40.7744 ], [ -3.4729, 40.7745 ], [ -3.4737, 40.7744 ], [ -3.4741, 40.7746 ], [ -3.476, 40.7748 ], [ -3.4767, 40.7751 ], [ -3.4768, 40.7756 ], [ -3.4772, 40.7756 ], [ -3.4793, 40.7745 ], [ -3.4793, 40.7744 ], [ -3.4801, 40.7741 ], [ -3.4801, 40.774 ], [ -3.4812, 40.774 ], [ -3.4821, 40.7742 ], [ -3.4841, 40.774 ], [ -3.4842, 40.7742 ], [ -3.4847, 40.7744 ], [ -3.4847, 40.7745 ], [ -3.4856, 40.7745 ], [ -3.4865, 40.7742 ], [ -3.4869, 40.7742 ], [ -3.4877, 40.7748 ], [ -3.4886, 40.775 ], [ -3.4893, 40.7749 ], [ -3.4907, 40.7743 ], [ -3.4932, 40.7748 ], [ -3.4938, 40.7747 ], [ -3.4941, 40.7743 ], [ -3.4955, 40.774 ], [ -3.4964, 40.7741 ], [ -3.4969, 40.7745 ], [ -3.4974, 40.7746 ], [ -3.4979, 40.7744 ], [ -3.5004, 40.7743 ], [ -3.5023, 40.7748 ], [ -3.5038, 40.7756 ], [ -3.5041, 40.7756 ], [ -3.5041, 40.7755 ], [ -3.5037, 40.7741 ], [ -3.5031, 40.7742 ], [ -3.5032, 40.7743 ], [ -3.5031, 40.7747 ], [ -3.5024, 40.7747 ], [ -3.5008, 40.7741 ], [ -3.4968, 40.7738 ], [ -3.4955, 40.7738 ], [ -3.4938, 40.774 ], [ -3.4915, 40.7739 ], [ -3.4897, 40.7742 ], [ -3.4883, 40.7741 ], [ -3.4866, 40.7738 ], [ -3.4862, 40.7736 ], [ -3.4862, 40.7735 ], [ -3.4857, 40.7734 ], [ -3.4854, 40.7731 ], [ -3.4853, 40.7727 ], [ -3.485, 40.7725 ], [ -3.4835, 40.7727 ], [ -3.4825, 40.7732 ], [ -3.4809, 40.7737 ], [ -3.4804, 40.7737 ], [ -3.4767, 40.7728 ], [ -3.4764, 40.7729 ], [ -3.4765, 40.7732 ], [ -3.4751, 40.7732 ], [ -3.473, 40.7726 ], [ -3.4722, 40.7716 ], [ -3.4717, 40.7713 ], [ -3.4711, 40.7713 ], [ -3.4705, 40.7725 ], [ -3.4701, 40.7728 ], [ -3.468, 40.7727 ], [ -3.467, 40.7728 ], [ -3.467, 40.7729 ], [ -3.4668, 40.7729 ], [ -3.4666, 40.7733 ], [ -3.4653, 40.7737 ], [ -3.465, 40.7737 ], [ -3.4646, 40.7735 ], [ -3.4638, 40.7736 ], [ -3.4633, 40.7733 ], [ -3.4632, 40.7746 ], [ -3.4598, 40.7758 ], [ -3.4591, 40.7759 ], [ -3.4591, 40.776 ], [ -3.4587, 40.7761 ], [ -3.4587, 40.7762 ], [ -3.4583, 40.7762 ], [ -3.4583, 40.7761 ], [ -3.4576, 40.7759 ], [ -3.4576, 40.7758 ], [ -3.4573, 40.7758 ], [ -3.4572, 40.776 ], [ -3.4568, 40.7761 ], [ -3.4578, 40.776 ], [ -3.4583, 40.7765 ], [ -3.4587, 40.7765 ] ] ], [ [ [ -3.4994, 40.776 ], [ -3.5013, 40.7762 ], [ -3.5017, 40.776 ], [ -3.5026, 40.7759 ], [ -3.5031, 40.7757 ], [ -3.5024, 40.7753 ], [ -3.5, 40.7746 ], [ -3.4991, 40.7747 ], [ -3.4988, 40.7748 ], [ -3.4988, 40.7749 ], [ -3.4971, 40.775 ], [ -3.4958, 40.7743 ], [ -3.4954, 40.7743 ], [ -3.4954, 40.7744 ], [ -3.4946, 40.7746 ], [ -3.4945, 40.775 ], [ -3.4943, 40.775 ], [ -3.4943, 40.7751 ], [ -3.4934, 40.7752 ], [ -3.4924, 40.7751 ], [ -3.4922, 40.7749 ], [ -3.4917, 40.7749 ], [ -3.4913, 40.7747 ], [ -3.4908, 40.7747 ], [ -3.4904, 40.7751 ], [ -3.4899, 40.7751 ], [ -3.4894, 40.7755 ], [ -3.4892, 40.7756 ], [ -3.4873, 40.775 ], [ -3.4872, 40.775 ], [ -3.4869, 40.7746 ], [ -3.486, 40.7746 ], [ -3.486, 40.7747 ], [ -3.4854, 40.7748 ], [ -3.4843, 40.7748 ], [ -3.4838, 40.7743 ], [ -3.4836, 40.7743 ], [ -3.4828, 40.7745 ], [ -3.4802, 40.7744 ], [ -3.4795, 40.7749 ], [ -3.4788, 40.7752 ], [ -3.4786, 40.7755 ], [ -3.478, 40.7757 ], [ -3.4778, 40.7758 ], [ -3.4777, 40.7759 ], [ -3.4778, 40.7758 ], [ -3.4786, 40.7758 ], [ -3.4786, 40.7757 ], [ -3.4799, 40.7759 ], [ -3.4802, 40.7753 ], [ -3.4805, 40.7753 ], [ -3.4812, 40.775 ], [ -3.4821, 40.7749 ], [ -3.4821, 40.7748 ], [ -3.4832, 40.7748 ], [ -3.4832, 40.7749 ], [ -3.4821, 40.775 ], [ -3.4851, 40.7751 ], [ -3.4855, 40.7753 ], [ -3.4867, 40.7755 ], [ -3.4872, 40.7754 ], [ -3.4878, 40.7756 ], [ -3.4915, 40.7757 ], [ -3.4916, 40.7758 ], [ -3.4918, 40.7758 ], [ -3.4919, 40.7756 ], [ -3.4937, 40.7754 ], [ -3.4946, 40.7751 ], [ -3.4962, 40.775 ], [ -3.4973, 40.7754 ], [ -3.4981, 40.7754 ], [ -3.4994, 40.776 ] ] ], [ [ [ -3.4577, 40.7784 ], [ -3.4585, 40.7799 ], [ -3.4587, 40.7795 ], [ -3.4592, 40.7792 ], [ -3.4593, 40.7788 ], [ -3.4594, 40.7788 ], [ -3.4594, 40.7782 ], [ -3.4593, 40.7782 ], [ -3.4594, 40.7777 ], [ -3.4598, 40.7773 ], [ -3.4601, 40.7772 ], [ -3.4603, 40.7767 ], [ -3.4607, 40.7763 ], [ -3.4614, 40.776 ], [ -3.4614, 40.7759 ], [ -3.461, 40.7759 ], [ -3.461, 40.776 ], [ -3.4605, 40.7761 ], [ -3.4598, 40.7767 ], [ -3.4587, 40.7769 ], [ -3.4581, 40.7772 ], [ -3.4575, 40.7772 ], [ -3.457, 40.7775 ], [ -3.4567, 40.7775 ], [ -3.4567, 40.7773 ], [ -3.4569, 40.7773 ], [ -3.4569, 40.7772 ], [ -3.4558, 40.7767 ], [ -3.4564, 40.7767 ], [ -3.4564, 40.7768 ], [ -3.4566, 40.7768 ], [ -3.4571, 40.7772 ], [ -3.4573, 40.7772 ], [ -3.4573, 40.7769 ], [ -3.4575, 40.7768 ], [ -3.4581, 40.7769 ], [ -3.4581, 40.777 ], [ -3.4586, 40.7767 ], [ -3.4582, 40.7767 ], [ -3.458, 40.7764 ], [ -3.4578, 40.7764 ], [ -3.4576, 40.7766 ], [ -3.4571, 40.7764 ], [ -3.457, 40.7766 ], [ -3.4565, 40.7767 ], [ -3.4564, 40.7763 ], [ -3.4561, 40.7762 ], [ -3.4561, 40.7761 ], [ -3.4556, 40.7762 ], [ -3.4551, 40.776 ], [ -3.4549, 40.7754 ], [ -3.4546, 40.7751 ], [ -3.4543, 40.775 ], [ -3.4543, 40.7749 ], [ -3.4538, 40.7749 ], [ -3.4534, 40.7746 ], [ -3.4537, 40.7745 ], [ -3.4539, 40.7743 ], [ -3.454, 40.7739 ], [ -3.4541, 40.7739 ], [ -3.454, 40.7733 ], [ -3.4538, 40.7732 ], [ -3.453, 40.7733 ], [ -3.4528, 40.773 ], [ -3.4526, 40.773 ], [ -3.4517, 40.7722 ], [ -3.4517, 40.7718 ], [ -3.4514, 40.7715 ], [ -3.4499, 40.7707 ], [ -3.4497, 40.7704 ], [ -3.4495, 40.7703 ], [ -3.4493, 40.7704 ], [ -3.4501, 40.7719 ], [ -3.4577, 40.7784 ] ] ], [ [ [ -3.4632, 40.7754 ], [ -3.4612, 40.7765 ], [ -3.4606, 40.7774 ], [ -3.4601, 40.7777 ], [ -3.4599, 40.7788 ], [ -3.4597, 40.7792 ], [ -3.4591, 40.7798 ], [ -3.4589, 40.7807 ], [ -3.4591, 40.7812 ], [ -3.4601, 40.7813 ], [ -3.4601, 40.7795 ], [ -3.4602, 40.7795 ], [ -3.4602, 40.7792 ], [ -3.4604, 40.7789 ], [ -3.4604, 40.7779 ], [ -3.4621, 40.7767 ], [ -3.4637, 40.7763 ], [ -3.4657, 40.7761 ], [ -3.4668, 40.7757 ], [ -3.4685, 40.7757 ], [ -3.4685, 40.7756 ], [ -3.4695, 40.7754 ], [ -3.47, 40.7754 ], [ -3.47, 40.7755 ], [ -3.4706, 40.7756 ], [ -3.4708, 40.7754 ], [ -3.4723, 40.7752 ], [ -3.4729, 40.775 ], [ -3.4759, 40.7752 ], [ -3.4761, 40.7754 ], [ -3.476, 40.7752 ], [ -3.4753, 40.7749 ], [ -3.4738, 40.775 ], [ -3.4734, 40.7747 ], [ -3.4731, 40.7749 ], [ -3.4722, 40.7748 ], [ -3.4716, 40.7752 ], [ -3.4709, 40.7752 ], [ -3.4704, 40.775 ], [ -3.4704, 40.7751 ], [ -3.47, 40.7752 ], [ -3.47, 40.7753 ], [ -3.4681, 40.7753 ], [ -3.468, 40.7752 ], [ -3.468, 40.7753 ], [ -3.4669, 40.7754 ], [ -3.4667, 40.7756 ], [ -3.4662, 40.7754 ], [ -3.4656, 40.7754 ], [ -3.4654, 40.7756 ], [ -3.4649, 40.7756 ], [ -3.464, 40.7753 ], [ -3.4636, 40.7753 ], [ -3.4636, 40.7754 ], [ -3.4632, 40.7753 ], [ -3.4632, 40.7754 ] ] ] ] } },
{ "type": "Feature", "properties": { "municipio": "Valdepiélagos", "clasificacion": "no-urbanizable-protegido", "calificacion": "sin-asignar", "version": "vigente", "fuente": "SIT-CAM WFS — UsoDelSuelo:VPLA_V_CLASIFICACION (https://idem.comunidad.madrid/geosrvg/ows)", "fecha_dato": "2026-05-12", "ambito": "39083", "_raw_CD_SIGLAS": "SNUP_A", "_raw_DS_CLASIF_GEN": "Suelo No Urbanizable Protegido (APLAZADO)", "_raw_DS_CLASIF_DET": "Espacio Preservado. Interés Paisajístico-Espacio Protegido. Zepa", "_raw_DS_DOCU": "NORMAS SUBSIDIARIAS", "_raw_DS_LEY": "CM Ley 9/1995, E RDL 1/1992", "_raw_FC_AC": "1999-03-11", "_raw_NM_AREA_M2": 310701.56056227401, "_cam_code": "163" }, "geometry": { "type": "Polygon", "coordinates": [ [ [ -3.4659, 40.7591 ], [ -3.4699, 40.7595 ], [ -3.4703, 40.7597 ], [ -3.4707, 40.7597 ], [ -3.471, 40.7595 ], [ -3.4719, 40.7593 ], [ -3.4719, 40.7592 ], [ -3.4723, 40.7592 ], [ -3.4727, 40.7589 ], [ -3.4737, 40.7585 ], [ -3.4739, 40.7585 ], [ -3.4739, 40.7586 ], [ -3.474, 40.7584 ], [ -3.4744, 40.7583 ], [ -3.4744, 40.758 ], [ -3.4748, 40.7577 ], [ -3.4748, 40.7572 ], [ -3.4747, 40.7571 ], [ -3.4743, 40.7573 ], [ -3.474, 40.7573 ], [ -3.473, 40.7579 ], [ -3.4706, 40.7582 ], [ -3.4698, 40.7576 ], [ -3.4673, 40.7578 ], [ -3.4672, 40.7577 ], [ -3.4671, 40.7578 ], [ -3.4661, 40.7577 ], [ -3.4658, 40.7576 ], [ -3.4658, 40.7575 ], [ -3.4648, 40.7573 ], [ -3.4641, 40.7569 ], [ -3.4632, 40.7561 ], [ -3.4619, 40.7568 ], [ -3.4612, 40.7566 ], [ -3.4596, 40.7558 ], [ -3.4595, 40.7566 ], [ -3.4594, 40.7567 ], [ -3.4592, 40.7564 ], [ -3.4592, 40.7568 ], [ -3.4561, 40.757 ], [ -3.456, 40.7577 ], [ -3.4558, 40.7578 ], [ -3.4558, 40.758 ], [ -3.4553, 40.7585 ], [ -3.456, 40.7586 ], [ -3.456, 40.7587 ], [ -3.4568, 40.7591 ], [ -3.4573, 40.7591 ], [ -3.4574, 40.7593 ], [ -3.4576, 40.7593 ], [ -3.4578, 40.7591 ], [ -3.4589, 40.759 ], [ -3.4591, 40.7587 ], [ -3.4595, 40.759 ], [ -3.4597, 40.7589 ], [ -3.4602, 40.759 ], [ -3.4604, 40.7588 ], [ -3.4609, 40.759 ], [ -3.4609, 40.7588 ], [ -3.4613, 40.7588 ], [ -3.4624, 40.7582 ], [ -3.4624, 40.7581 ], [ -3.4628, 40.758 ], [ -3.4628, 40.7581 ], [ -3.4643, 40.7588 ], [ -3.4653, 40.7591 ], [ -3.4653, 40.7592 ], [ -3.4659, 40.7591 ] ] ] } },
{ "type": "Feature", "properties": { "municipio": "Valdepiélagos", "clasificacion": "urbano-consolidado", "calificacion": "sin-asignar", "version": "vigente", "fuente": "SIT-CAM WFS — UsoDelSuelo:VPLA_V_CLASIFICACION (https://idem.comunidad.madrid/geosrvg/ows)", "fecha_dato": "2026-05-12", "ambito": "39083", "_raw_CD_SIGLAS": "SU", "_raw_DS_CLASIF_GEN": "Suelo Urbano", "_raw_DS_CLASIF_DET": "Suelo Urbano", "_raw_DS_DOCU": "NORMAS SUBSIDIARIAS", "_raw_DS_LEY": "CM Ley 9/1995, E RDL 1/1992", "_raw_FC_AC": "1999-03-11", "_raw_NM_AREA_M2": 13351.692087106399, "_cam_code": "163" }, "geometry": { "type": "Polygon", "coordinates": [ [ [ -3.4781, 40.7844 ], [ -3.4774, 40.7847 ], [ -3.4814, 40.7851 ], [ -3.4802, 40.7844 ], [ -3.4781, 40.7844 ] ] ] } },
{ "type": "Feature", "properties": { "municipio": "Valdepiélagos", "clasificacion": "urbano-consolidado", "calificacion": "sin-asignar", "version": "vigente", "fuente": "SIT-CAM WFS — UsoDelSuelo:VPLA_V_CLASIFICACION (https://idem.comunidad.madrid/geosrvg/ows)", "fecha_dato": "2026-05-12", "ambito": "39083", "_raw_CD_SIGLAS": "SU", "_raw_DS_CLASIF_GEN": "Suelo Urbano", "_raw_DS_CLASIF_DET": "Suelo Urbano", "_raw_DS_DOCU": "NORMAS SUBSIDIARIAS", "_raw_DS_LEY": "CM Ley 9/1995, E RDL 1/1992", "_raw_FC_AC": "1999-03-11", "_raw_NM_AREA_M2": 184102.56149783701, "_cam_code": "163" }, "geometry": { "type": "Polygon", "coordinates": [ [ [ -3.4633, 40.7621 ], [ -3.4633, 40.7623 ], [ -3.4635, 40.7625 ], [ -3.4642, 40.7626 ], [ -3.4652, 40.7624 ], [ -3.4661, 40.762 ], [ -3.4698, 40.7616 ], [ -3.4695, 40.761 ], [ -3.469, 40.7607 ], [ -3.4691, 40.7604 ], [ -3.4694, 40.7604 ], [ -3.4696, 40.7602 ], [ -3.4696, 40.7598 ], [ -3.4681, 40.7597 ], [ -3.4681, 40.7596 ], [ -3.4677, 40.7595 ], [ -3.4669, 40.7595 ], [ -3.4662, 40.7592 ], [ -3.4656, 40.7592 ], [ -3.4655, 40.7593 ], [ -3.4644, 40.7589 ], [ -3.4641, 40.7589 ], [ -3.4624, 40.7581 ], [ -3.4623, 40.7582 ], [ -3.4623, 40.7587 ], [ -3.4627, 40.7588 ], [ -3.4625, 40.759 ], [ -3.4628, 40.7589 ], [ -3.4629, 40.759 ], [ -3.4628, 40.759 ], [ -3.4627, 40.7593 ], [ -3.4616, 40.7593 ], [ -3.4615, 40.7595 ], [ -3.462, 40.7597 ], [ -3.4618, 40.7608 ], [ -3.4616, 40.7612 ], [ -3.4622, 40.7613 ], [ -3.4623, 40.7619 ], [ -3.4624, 40.7619 ], [ -3.4623, 40.7622 ], [ -3.4633, 40.7621 ] ], [ [ -3.4681, 40.7598 ], [ -3.468, 40.7601 ], [ -3.4683, 40.7601 ], [ -3.4682, 40.7603 ], [ -3.4674, 40.7602 ], [ -3.4674, 40.7596 ], [ -3.4677, 40.7596 ], [ -3.4681, 40.7598 ] ], [ [ -3.4653, 40.7601 ], [ -3.465, 40.76 ], [ -3.4646, 40.7595 ], [ -3.4648, 40.7595 ], [ -3.4648, 40.7594 ], [ -3.4663, 40.7594 ], [ -3.4668, 40.7596 ], [ -3.4673, 40.7596 ], [ -3.4673, 40.76 ], [ -3.4672, 40.7599 ], [ -3.4656, 40.7599 ], [ -3.4653, 40.7601 ] ], [ [ -3.4632, 40.7588 ], [ -3.4629, 40.7589 ], [ -3.4628, 40.7589 ], [ -3.463, 40.7588 ], [ -3.4632, 40.7588 ], [ -3.4632, 40.7588 ] ], [ [ -3.4624, 40.7582 ], [ -3.4628, 40.7583 ], [ -3.4633, 40.7587 ], [ -3.4628, 40.7588 ], [ -3.4624, 40.7587 ], [ -3.4624, 40.7582 ] ] ] } },
{ "type": "Feature", "properties": { "municipio": "Valdepiélagos", "clasificacion": "urbano-consolidado", "calificacion": "sin-asignar", "version": "vigente", "fuente": "SIT-CAM WFS — UsoDelSuelo:VPLA_V_CLASIFICACION (https://idem.comunidad.madrid/geosrvg/ows)", "fecha_dato": "2026-05-12", "ambito": "39083", "_raw_CD_SIGLAS": "SU_A", "_raw_DS_CLASIF_GEN": "Suelo Urbano (APLAZADO)", "_raw_DS_CLASIF_DET": "Suelo Urbano", "_raw_DS_DOCU": "NORMAS SUBSIDIARIAS", "_raw_DS_LEY": "CM Ley 9/1995, E RDL 1/1992", "_raw_FC_AC": "1999-03-11", "_raw_NM_AREA_M2": 21744.562938806401, "_cam_code": "163" }, "geometry": { "type": "MultiPolygon", "coordinates": [ [ [ [ -3.465, 40.76 ], [ -3.4653, 40.7601 ], [ -3.4656, 40.7599 ], [ -3.4672, 40.7599 ], [ -3.4673, 40.76 ], [ -3.4673, 40.7596 ], [ -3.4668, 40.7596 ], [ -3.4663, 40.7594 ], [ -3.4648, 40.7594 ], [ -3.4648, 40.7595 ], [ -3.4646, 40.7595 ], [ -3.465, 40.76 ] ] ], [ [ [ -3.4624, 40.7582 ], [ -3.4624, 40.7587 ], [ -3.4625, 40.7587 ], [ -3.4625, 40.7587 ], [ -3.4627, 40.7588 ], [ -3.4633, 40.7587 ], [ -3.4628, 40.7583 ], [ -3.4624, 40.7582 ] ] ], [ [ [ -3.4625, 40.7587 ], [ -3.4625, 40.7589 ], [ -3.4627, 40.7588 ], [ -3.4626, 40.7587 ], [ -3.4625, 40.7587 ] ] ], [ [ [ -3.4632, 40.7588 ], [ -3.463, 40.7588 ], [ -3.4628, 40.7589 ], [ -3.4629, 40.7589 ], [ -3.4629, 40.7589 ], [ -3.4629, 40.7589 ], [ -3.4629, 40.7589 ], [ -3.4629, 40.7589 ], [ -3.4631, 40.7588 ], [ -3.4632, 40.7588 ], [ -3.4632, 40.7588 ] ] ], [ [ [ -3.4613, 40.7591 ], [ -3.4612, 40.7594 ], [ -3.4627, 40.7593 ], [ -3.4628, 40.759 ], [ -3.4629, 40.759 ], [ -3.4628, 40.7589 ], [ -3.4625, 40.759 ], [ -3.4625, 40.7591 ], [ -3.462, 40.7591 ], [ -3.4619, 40.7592 ], [ -3.4613, 40.7591 ] ] ], [ [ [ -3.4674, 40.7602 ], [ -3.4682, 40.7603 ], [ -3.4683, 40.7601 ], [ -3.468, 40.7601 ], [ -3.4681, 40.7598 ], [ -3.4677, 40.7596 ], [ -3.4674, 40.7596 ], [ -3.4674, 40.7602 ] ] ] ] } },
{ "type": "Feature", "properties": { "municipio": "Valdepiélagos", "clasificacion": "urbanizable-sectorizado", "calificacion": "sin-asignar", "version": "vigente", "fuente": "SIT-CAM WFS — UsoDelSuelo:VPLA_V_CLASIFICACION (https://idem.comunidad.madrid/geosrvg/ows)", "fecha_dato": "2026-05-12", "ambito": "39083", "_raw_CD_SIGLAS": "SUBS_A", "_raw_DS_CLASIF_GEN": "Suelo Apto Para Urbanizar (APLAZADO)", "_raw_DS_CLASIF_DET": "Suelo Apto para Urbanizar", "_raw_DS_DOCU": "NORMAS SUBSIDIARIAS", "_raw_DS_LEY": "CM Ley 9/1995, E RDL 1/1992", "_raw_FC_AC": "1999-03-11", "_raw_NM_AREA_M2": 116410.90653267701, "_cam_code": "163" }, "geometry": { "type": "Polygon", "coordinates": [ [ [ -3.4636, 40.7625 ], [ -3.4638, 40.7626 ], [ -3.4639, 40.7627 ], [ -3.4643, 40.7628 ], [ -3.4645, 40.7633 ], [ -3.4643, 40.7637 ], [ -3.4635, 40.7645 ], [ -3.4635, 40.7648 ], [ -3.4632, 40.7651 ], [ -3.463, 40.7657 ], [ -3.4633, 40.7658 ], [ -3.4633, 40.7659 ], [ -3.4638, 40.7657 ], [ -3.4646, 40.765 ], [ -3.4653, 40.7648 ], [ -3.4656, 40.7641 ], [ -3.4662, 40.7637 ], [ -3.4679, 40.7634 ], [ -3.4689, 40.7638 ], [ -3.469, 40.7636 ], [ -3.4696, 40.7634 ], [ -3.4694, 40.7629 ], [ -3.4708, 40.7624 ], [ -3.4698, 40.7616 ], [ -3.4694, 40.7616 ], [ -3.4661, 40.762 ], [ -3.4652, 40.7624 ], [ -3.4642, 40.7626 ], [ -3.4641, 40.7626 ], [ -3.4641, 40.7626 ], [ -3.464, 40.7626 ], [ -3.464, 40.7626 ], [ -3.4639, 40.7626 ], [ -3.4638, 40.7626 ], [ -3.4637, 40.7626 ], [ -3.4636, 40.7625 ] ] ] } }
]
}
