{
"type": "FeatureCollection",
"name": "vigente.full",
"features": [
{ "type": "Feature", "properties": { "municipio": "Collado Mediano", "clasificacion": "no-urbanizable-comun", "calificacion": "sin-asignar", "version": "vigente", "fuente": "SIT-CAM WFS — UsoDelSuelo:VPLA_V_CLASIFICACION (https://idem.comunidad.madrid/geosrvg/ows)", "fecha_dato": "2026-05-12", "ambito": "11589", "_raw_CD_SIGLAS": "SD", "_raw_DS_CLASIF_GEN": "Sin datos", "_raw_DS_CLASIF_DET": "Sin datos", "_raw_DS_DOCU": "NORMAS SUBSIDIARIAS", "_raw_DS_LEY": "CM Ley 4/1984, E RD 1346/1976", "_raw_FC_AC": "1990-06-07", "_raw_NM_AREA_M2": 9058.8277302281604, "_cam_code": "046" }, "geometry": { "type": "Polygon", "coordinates": [ [ [ -4.0091, 40.7121 ], [ -4.0107, 40.7131 ], [ -4.0129, 40.7132 ], [ -4.0091, 40.7121 ] ] ] } },
{ "type": "Feature", "properties": { "municipio": "Collado Mediano", "clasificacion": "no-urbanizable-protegido", "calificacion": "sin-asignar", "version": "vigente", "fuente": "SIT-CAM WFS — UsoDelSuelo:VPLA_V_CLASIFICACION (https://idem.comunidad.madrid/geosrvg/ows)", "fecha_dato": "2026-05-12", "ambito": "11589", "_raw_CD_SIGLAS": "SNUP", "_raw_DS_CLASIF_GEN": "Suelo No Urbanizable Protegido", "_raw_DS_CLASIF_DET": "SNUP interés forestal", "_raw_DS_DOCU": "NORMAS SUBSIDIARIAS", "_raw_DS_LEY": "CM Ley 4/1984, E RD 1346/1976", "_raw_FC_AC": "1990-06-07", "_raw_NM_AREA_M2": 888751.534373514, "_cam_code": "046" }, "geometry": { "type": "Polygon", "coordinates": [ [ [ -4.0102, 40.711 ], [ -4.0112, 40.7109 ], [ -4.0114, 40.7112 ], [ -4.0129, 40.7114 ], [ -4.0127, 40.7103 ], [ -4.0151, 40.7102 ], [ -4.0158, 40.7095 ], [ -4.017, 40.7088 ], [ -4.0179, 40.708 ], [ -4.0184, 40.7081 ], [ -4.0188, 40.7084 ], [ -4.019, 40.7083 ], [ -4.0192, 40.7073 ], [ -4.0196, 40.7068 ], [ -4.0208, 40.7067 ], [ -4.0224, 40.706 ], [ -4.0226, 40.7051 ], [ -4.0224, 40.7048 ], [ -4.0218, 40.7047 ], [ -4.0224, 40.7036 ], [ -4.0228, 40.7034 ], [ -4.0231, 40.7029 ], [ -4.0234, 40.7029 ], [ -4.0237, 40.7025 ], [ -4.0238, 40.7023 ], [ -4.0237, 40.7017 ], [ -4.0245, 40.7007 ], [ -4.0244, 40.7 ], [ -4.0225, 40.6994 ], [ -4.022, 40.6994 ], [ -4.0213, 40.6998 ], [ -4.0196, 40.7003 ], [ -4.0181, 40.7 ], [ -4.0164, 40.7009 ], [ -4.0154, 40.701 ], [ -4.0145, 40.7014 ], [ -4.0137, 40.702 ], [ -4.013, 40.7028 ], [ -4.0125, 40.7032 ], [ -4.0123, 40.7032 ], [ -4.012, 40.7036 ], [ -4.0117, 40.7046 ], [ -4.0118, 40.7051 ], [ -4.0116, 40.7055 ], [ -4.0111, 40.706 ], [ -4.0112, 40.707 ], [ -4.011, 40.7079 ], [ -4.0108, 40.7082 ], [ -4.0099, 40.7089 ], [ -4.0098, 40.71 ], [ -4.01, 40.7101 ], [ -4.0102, 40.711 ] ] ] } },
{ "type": "Feature", "properties": { "municipio": "Collado Mediano", "clasificacion": "no-urbanizable-protegido", "calificacion": "sin-asignar", "version": "vigente", "fuente": "SIT-CAM WFS — UsoDelSuelo:VPLA_V_CLASIFICACION (https://idem.comunidad.madrid/geosrvg/ows)", "fecha_dato": "2026-05-12", "ambito": "11589", "_raw_CD_SIGLAS": "SNUP", "_raw_DS_CLASIF_GEN": "Suelo No Urbanizable Protegido", "_raw_DS_CLASIF_DET": "SNUP interés forestal", "_raw_DS_DOCU": "NORMAS SUBSIDIARIAS", "_raw_DS_LEY": "CM Ley 4/1984, E RD 1346/1976", "_raw_FC_AC": "1990-06-07", "_raw_NM_AREA_M2": 1158233.53218465, "_cam_code": "046" }, "geometry": { "type": "Polygon", "coordinates": [ [ [ -4.0363, 40.7173 ], [ -4.0385, 40.7177 ], [ -4.0405, 40.7187 ], [ -4.0424, 40.7183 ], [ -4.0424, 40.7179 ], [ -4.0427, 40.7178 ], [ -4.043, 40.7175 ], [ -4.045, 40.7167 ], [ -4.0463, 40.7154 ], [ -4.0469, 40.7153 ], [ -4.0474, 40.7148 ], [ -4.0483, 40.7144 ], [ -4.0488, 40.714 ], [ -4.049, 40.7136 ], [ -4.0493, 40.7134 ], [ -4.0493, 40.7132 ], [ -4.0498, 40.7125 ], [ -4.0503, 40.7124 ], [ -4.0507, 40.7121 ], [ -4.0508, 40.7117 ], [ -4.0512, 40.7111 ], [ -4.051, 40.7105 ], [ -4.0508, 40.709 ], [ -4.0504, 40.7088 ], [ -4.0477, 40.7091 ], [ -4.0473, 40.7092 ], [ -4.0469, 40.7097 ], [ -4.0465, 40.7098 ], [ -4.0457, 40.7097 ], [ -4.0455, 40.7098 ], [ -4.045, 40.7093 ], [ -4.0444, 40.7091 ], [ -4.0442, 40.7092 ], [ -4.0425, 40.7089 ], [ -4.0412, 40.7093 ], [ -4.041, 40.7095 ], [ -4.0408, 40.7102 ], [ -4.0401, 40.7105 ], [ -4.0395, 40.7111 ], [ -4.038, 40.7117 ], [ -4.0371, 40.7124 ], [ -4.0361, 40.7125 ], [ -4.0357, 40.7127 ], [ -4.0353, 40.7134 ], [ -4.0352, 40.7143 ], [ -4.0347, 40.7143 ], [ -4.0346, 40.7145 ], [ -4.0333, 40.7148 ], [ -4.0325, 40.7154 ], [ -4.0316, 40.7155 ], [ -4.0306, 40.7151 ], [ -4.0291, 40.7149 ], [ -4.0286, 40.7151 ], [ -4.0277, 40.7158 ], [ -4.0268, 40.7163 ], [ -4.0266, 40.7162 ], [ -4.0264, 40.7164 ], [ -4.0252, 40.7168 ], [ -4.0239, 40.7165 ], [ -4.0237, 40.7166 ], [ -4.0229, 40.7165 ], [ -4.027, 40.7174 ], [ -4.0282, 40.7179 ], [ -4.0288, 40.718 ], [ -4.0328, 40.7178 ], [ -4.0363, 40.7173 ] ] ] } },
{ "type": "Feature", "properties": { "municipio": "Collado Mediano", "clasificacion": "no-urbanizable-protegido", "calificacion": "sin-asignar", "version": "vigente", "fuente": "SIT-CAM WFS — UsoDelSuelo:VPLA_V_CLASIFICACION (https://idem.comunidad.madrid/geosrvg/ows)", "fecha_dato": "2026-05-12", "ambito": "11589", "_raw_CD_SIGLAS": "SNUP", "_raw_DS_CLASIF_GEN": "Suelo No Urbanizable Protegido", "_raw_DS_CLASIF_DET": "SNUP interés ecológico", "_raw_DS_DOCU": "NORMAS SUBSIDIARIAS", "_raw_DS_LEY": "CM Ley 4/1984, E RD 1346/1976", "_raw_FC_AC": "1990-06-07", "_raw_NM_AREA_M2": 373179.63348335703, "_cam_code": "046" }, "geometry": { "type": "Polygon", "coordinates": [ [ [ -4.0038, 40.7005 ], [ -4.0044, 40.7006 ], [ -4.0055, 40.699 ], [ -4.008, 40.697 ], [ -4.0104, 40.6948 ], [ -4.0114, 40.6933 ], [ -4.0123, 40.6912 ], [ -4.0127, 40.6864 ], [ -4.0132, 40.683 ], [ -4.0131, 40.6824 ], [ -4.0105, 40.683 ], [ -4.0049, 40.6835 ], [ -4.0055, 40.6842 ], [ -4.0064, 40.6845 ], [ -4.007, 40.685 ], [ -4.0074, 40.6852 ], [ -4.0075, 40.6851 ], [ -4.0082, 40.6851 ], [ -4.0089, 40.6855 ], [ -4.009, 40.6879 ], [ -4.0102, 40.6891 ], [ -4.0102, 40.6897 ], [ -4.0109, 40.6914 ], [ -4.011, 40.6924 ], [ -4.0101, 40.6944 ], [ -4.0097, 40.6946 ], [ -4.0096, 40.6952 ], [ -4.0088, 40.6961 ], [ -4.0077, 40.6968 ], [ -4.0075, 40.6971 ], [ -4.0062, 40.6977 ], [ -4.0059, 40.6982 ], [ -4.0053, 40.6985 ], [ -4.0051, 40.6989 ], [ -4.0045, 40.6992 ], [ -4.0038, 40.7005 ] ] ] } },
{ "type": "Feature", "properties": { "municipio": "Collado Mediano", "clasificacion": "no-urbanizable-protegido", "calificacion": "sin-asignar", "version": "vigente", "fuente": "SIT-CAM WFS — UsoDelSuelo:VPLA_V_CLASIFICACION (https://idem.comunidad.madrid/geosrvg/ows)", "fecha_dato": "2026-05-12", "ambito": "11589", "_raw_CD_SIGLAS": "SNUP", "_raw_DS_CLASIF_GEN": "Suelo No Urbanizable Protegido", "_raw_DS_CLASIF_DET": "SNUP interés paisajístico", "_raw_DS_DOCU": "NORMAS SUBSIDIARIAS", "_raw_DS_LEY": "CM Ley 4/1984, E RD 1346/1976", "_raw_FC_AC": "1990-06-07", "_raw_NM_AREA_M2": 890732.88159042201, "_cam_code": "046" }, "geometry": { "type": "Polygon", "coordinates": [ [ [ -4.0008, 40.6951 ], [ -4.0024, 40.6988 ], [ -4.0029, 40.7003 ], [ -4.0038, 40.7005 ], [ -4.0045, 40.6992 ], [ -4.0051, 40.6989 ], [ -4.0053, 40.6985 ], [ -4.0059, 40.6982 ], [ -4.0062, 40.6977 ], [ -4.0075, 40.6971 ], [ -4.0077, 40.6968 ], [ -4.0088, 40.6961 ], [ -4.0096, 40.6952 ], [ -4.0097, 40.6946 ], [ -4.0101, 40.6944 ], [ -4.011, 40.6924 ], [ -4.0109, 40.6914 ], [ -4.0102, 40.6897 ], [ -4.0102, 40.6891 ], [ -4.009, 40.6879 ], [ -4.0089, 40.6855 ], [ -4.0082, 40.6851 ], [ -4.0075, 40.6851 ], [ -4.0074, 40.6852 ], [ -4.0064, 40.6845 ], [ -4.0055, 40.6842 ], [ -4.0049, 40.6835 ], [ -4.0038, 40.6836 ], [ -4.0012, 40.6842 ], [ -4.0001, 40.6836 ], [ -4.0, 40.6837 ], [ -3.9998, 40.6842 ], [ -3.9998, 40.6848 ], [ -4.0, 40.6857 ], [ -4.0002, 40.6859 ], [ -4.0003, 40.6865 ], [ -4.0006, 40.6872 ], [ -4.0005, 40.688 ], [ -4.0008, 40.6886 ], [ -4.0009, 40.6893 ], [ -4.0013, 40.6899 ], [ -4.0022, 40.6905 ], [ -4.0026, 40.6906 ], [ -4.0064, 40.6906 ], [ -4.0068, 40.6907 ], [ -4.0079, 40.6914 ], [ -4.0083, 40.6924 ], [ -4.0083, 40.6928 ], [ -4.0076, 40.694 ], [ -4.0072, 40.6944 ], [ -4.0069, 40.6945 ], [ -4.0065, 40.6946 ], [ -4.0061, 40.6945 ], [ -4.0058, 40.6946 ], [ -4.0044, 40.6945 ], [ -4.0039, 40.6947 ], [ -4.0035, 40.6947 ], [ -4.0028, 40.6952 ], [ -4.0026, 40.6956 ], [ -4.0024, 40.6957 ], [ -4.0021, 40.6957 ], [ -4.0011, 40.6951 ], [ -4.0008, 40.6951 ] ] ] } },
{ "type": "Feature", "properties": { "municipio": "Collado Mediano", "clasificacion": "no-urbanizable-protegido", "calificacion": "sin-asignar", "version": "vigente", "fuente": "SIT-CAM WFS — UsoDelSuelo:VPLA_V_CLASIFICACION (https://idem.comunidad.madrid/geosrvg/ows)", "fecha_dato": "2026-05-12", "ambito": "11589", "_raw_CD_SIGLAS": "SNUP", "_raw_DS_CLASIF_GEN": "Suelo No Urbanizable Protegido", "_raw_DS_CLASIF_DET": "SNUP interés paisajístico", "_raw_DS_DOCU": "NORMAS SUBSIDIARIAS", "_raw_DS_LEY": "CM Ley 4/1984, E RD 1346/1976", "_raw_FC_AC": "1990-06-07", "_raw_NM_AREA_M2": 66789.396465584301, "_cam_code": "046" }, "geometry": { "type": "Polygon", "coordinates": [ [ [ -4.0087, 40.7115 ], [ -4.0094, 40.7118 ], [ -4.0097, 40.7117 ], [ -4.0097, 40.7114 ], [ -4.0099, 40.7111 ], [ -4.0102, 40.711 ], [ -4.01, 40.7101 ], [ -4.0098, 40.71 ], [ -4.0097, 40.7103 ], [ -4.0087, 40.7103 ], [ -4.0084, 40.7097 ], [ -4.0075, 40.7097 ], [ -4.0071, 40.7095 ], [ -4.006, 40.7096 ], [ -4.0054, 40.7101 ], [ -4.0049, 40.71 ], [ -4.0047, 40.7098 ], [ -4.0049, 40.7105 ], [ -4.007, 40.7112 ], [ -4.008, 40.7117 ], [ -4.0083, 40.7114 ], [ -4.0086, 40.7115 ], [ -4.0087, 40.7114 ], [ -4.0087, 40.7115 ] ] ] } },
{ "type": "Feature", "properties": { "municipio": "Collado Mediano", "clasificacion": "no-urbanizable-protegido", "calificacion": "sin-asignar", "version": "vigente", "fuente": "SIT-CAM WFS — UsoDelSuelo:VPLA_V_CLASIFICACION (https://idem.comunidad.madrid/geosrvg/ows)", "fecha_dato": "2026-05-12", "ambito": "11589", "_raw_CD_SIGLAS": "SNUP", "_raw_DS_CLASIF_GEN": "Suelo No Urbanizable Protegido", "_raw_DS_CLASIF_DET": "SNUP interés paisajístico", "_raw_DS_DOCU": "NORMAS SUBSIDIARIAS", "_raw_DS_LEY": "CM Ley 4/1984, E RD 1346/1976", "_raw_FC_AC": "1990-06-07", "_raw_NM_AREA_M2": 4298001.9756306196, "_cam_code": "046" }, "geometry": { "type": "Polygon", "coordinates": [ [ [ -4.0504, 40.7088 ], [ -4.0509, 40.7092 ], [ -4.051, 40.7105 ], [ -4.0512, 40.7111 ], [ -4.0508, 40.7117 ], [ -4.0507, 40.7121 ], [ -4.0503, 40.7124 ], [ -4.0498, 40.7125 ], [ -4.0493, 40.7132 ], [ -4.0493, 40.7134 ], [ -4.0483, 40.7144 ], [ -4.0474, 40.7148 ], [ -4.0469, 40.7153 ], [ -4.0463, 40.7154 ], [ -4.045, 40.7167 ], [ -4.043, 40.7175 ], [ -4.0427, 40.7178 ], [ -4.0424, 40.7179 ], [ -4.0424, 40.7183 ], [ -4.0461, 40.717 ], [ -4.0474, 40.7161 ], [ -4.0504, 40.7146 ], [ -4.0543, 40.7132 ], [ -4.0548, 40.7125 ], [ -4.0548, 40.7118 ], [ -4.0546, 40.7116 ], [ -4.0544, 40.7107 ], [ -4.0541, 40.7102 ], [ -4.0542, 40.7094 ], [ -4.0537, 40.7063 ], [ -4.0538, 40.706 ], [ -4.0537, 40.7041 ], [ -4.0535, 40.7038 ], [ -4.0528, 40.7036 ], [ -4.0526, 40.7034 ], [ -4.0519, 40.7033 ], [ -4.0505, 40.704 ], [ -4.049, 40.7044 ], [ -4.0488, 40.7045 ], [ -4.0488, 40.7048 ], [ -4.0493, 40.7057 ], [ -4.0493, 40.7059 ], [ -4.0485, 40.7062 ], [ -4.048, 40.706 ], [ -4.0477, 40.7057 ], [ -4.047, 40.7055 ], [ -4.0465, 40.706 ], [ -4.0462, 40.706 ], [ -4.0462, 40.7062 ], [ -4.0458, 40.7059 ], [ -4.045, 40.7059 ], [ -4.0432, 40.7053 ], [ -4.0422, 40.7055 ], [ -4.0415, 40.7055 ], [ -4.0403, 40.7058 ], [ -4.0401, 40.7061 ], [ -4.0397, 40.706 ], [ -4.0385, 40.7061 ], [ -4.0371, 40.7065 ], [ -4.0368, 40.7068 ], [ -4.0368, 40.7072 ], [ -4.0365, 40.7077 ], [ -4.0355, 40.7081 ], [ -4.0353, 40.7084 ], [ -4.0347, 40.7083 ], [ -4.0337, 40.7086 ], [ -4.0335, 40.7089 ], [ -4.0327, 40.7093 ], [ -4.0307, 40.7098 ], [ -4.0286, 40.7098 ], [ -4.0282, 40.7096 ], [ -4.0282, 40.7095 ], [ -4.0273, 40.7093 ], [ -4.0278, 40.709 ], [ -4.0281, 40.709 ], [ -4.0291, 40.708 ], [ -4.0311, 40.7075 ], [ -4.0316, 40.7072 ], [ -4.0325, 40.7061 ], [ -4.0325, 40.7053 ], [ -4.0323, 40.705 ], [ -4.0312, 40.7047 ], [ -4.0312, 40.7046 ], [ -4.0308, 40.7044 ], [ -4.0312, 40.704 ], [ -4.0313, 40.7035 ], [ -4.0317, 40.7036 ], [ -4.0334, 40.7034 ], [ -4.0346, 40.7025 ], [ -4.0349, 40.702 ], [ -4.0349, 40.7014 ], [ -4.0351, 40.7009 ], [ -4.0361, 40.7007 ], [ -4.0364, 40.7002 ], [ -4.0369, 40.6998 ], [ -4.0375, 40.6998 ], [ -4.0383, 40.6996 ], [ -4.0394, 40.6996 ], [ -4.0396, 40.6997 ], [ -4.0403, 40.6992 ], [ -4.0405, 40.6986 ], [ -4.0407, 40.6984 ], [ -4.0411, 40.6983 ], [ -4.0413, 40.698 ], [ -4.0423, 40.6976 ], [ -4.0426, 40.6968 ], [ -4.0427, 40.696 ], [ -4.0426, 40.6958 ], [ -4.0416, 40.6955 ], [ -4.0408, 40.6954 ], [ -4.0399, 40.6955 ], [ -4.0384, 40.6961 ], [ -4.0367, 40.697 ], [ -4.0354, 40.6973 ], [ -4.0348, 40.6976 ], [ -4.0347, 40.6979 ], [ -4.0342, 40.6981 ], [ -4.0331, 40.6976 ], [ -4.0317, 40.6976 ], [ -4.0316, 40.6973 ], [ -4.0314, 40.6973 ], [ -4.0312, 40.6971 ], [ -4.0309, 40.6973 ], [ -4.0298, 40.6976 ], [ -4.029, 40.6975 ], [ -4.0266, 40.6968 ], [ -4.0264, 40.6966 ], [ -4.0263, 40.6962 ], [ -4.0261, 40.6963 ], [ -4.0257, 40.6962 ], [ -4.0259, 40.6959 ], [ -4.0237, 40.6958 ], [ -4.0232, 40.6961 ], [ -4.0226, 40.6962 ], [ -4.0224, 40.6964 ], [ -4.0224, 40.6967 ], [ -4.022, 40.697 ], [ -4.0211, 40.6971 ], [ -4.0191, 40.698 ], [ -4.0172, 40.6982 ], [ -4.016, 40.6985 ], [ -4.0155, 40.6988 ], [ -4.0145, 40.6978 ], [ -4.0145, 40.6976 ], [ -4.0144, 40.6976 ], [ -4.0144, 40.6974 ], [ -4.0139, 40.6965 ], [ -4.0138, 40.696 ], [ -4.0138, 40.6956 ], [ -4.0141, 40.6949 ], [ -4.0149, 40.6942 ], [ -4.014, 40.6949 ], [ -4.0134, 40.6956 ], [ -4.0123, 40.695 ], [ -4.0127, 40.6944 ], [ -4.0119, 40.6939 ], [ -4.0115, 40.6938 ], [ -4.0111, 40.6946 ], [ -4.0097, 40.6961 ], [ -4.0081, 40.6973 ], [ -4.0074, 40.698 ], [ -4.0065, 40.6986 ], [ -4.0054, 40.6997 ], [ -4.0046, 40.7009 ], [ -4.0043, 40.702 ], [ -4.0052, 40.7023 ], [ -4.006, 40.7017 ], [ -4.0063, 40.7017 ], [ -4.0067, 40.7015 ], [ -4.0069, 40.702 ], [ -4.0068, 40.7021 ], [ -4.0069, 40.7021 ], [ -4.0066, 40.7023 ], [ -4.0069, 40.7029 ], [ -4.0082, 40.7034 ], [ -4.009, 40.7024 ], [ -4.0095, 40.7028 ], [ -4.0094, 40.7033 ], [ -4.0095, 40.7034 ], [ -4.0097, 40.7034 ], [ -4.0097, 40.703 ], [ -4.0103, 40.7024 ], [ -4.0108, 40.7028 ], [ -4.0104, 40.7034 ], [ -4.0108, 40.7035 ], [ -4.0106, 40.7038 ], [ -4.0107, 40.704 ], [ -4.0106, 40.7046 ], [ -4.0103, 40.7046 ], [ -4.01, 40.7051 ], [ -4.0098, 40.7049 ], [ -4.0095, 40.7054 ], [ -4.0101, 40.7054 ], [ -4.0102, 40.7055 ], [ -4.0099, 40.706 ], [ -4.0096, 40.7062 ], [ -4.0091, 40.7063 ], [ -4.0089, 40.7066 ], [ -4.0089, 40.7068 ], [ -4.0096, 40.7073 ], [ -4.0092, 40.7081 ], [ -4.0095, 40.7083 ], [ -4.0099, 40.7089 ], [ -4.0108, 40.7082 ], [ -4.011, 40.7079 ], [ -4.0112, 40.707 ], [ -4.0111, 40.706 ], [ -4.0116, 40.7055 ], [ -4.0118, 40.7051 ], [ -4.0117, 40.7046 ], [ -4.012, 40.7036 ], [ -4.0123, 40.7032 ], [ -4.0125, 40.7032 ], [ -4.013, 40.7028 ], [ -4.0137, 40.702 ], [ -4.0145, 40.7014 ], [ -4.0154, 40.701 ], [ -4.0164, 40.7009 ], [ -4.0181, 40.7 ], [ -4.0196, 40.7003 ], [ -4.0213, 40.6998 ], [ -4.022, 40.6994 ], [ -4.0225, 40.6994 ], [ -4.0244, 40.7 ], [ -4.0245, 40.7007 ], [ -4.0237, 40.7017 ], [ -4.0238, 40.702 ], [ -4.0237, 40.7025 ], [ -4.0234, 40.7029 ], [ -4.0231, 40.7029 ], [ -4.0228, 40.7034 ], [ -4.0224, 40.7036 ], [ -4.0218, 40.7047 ], [ -4.0224, 40.7048 ], [ -4.0226, 40.7051 ], [ -4.0224, 40.706 ], [ -4.0208, 40.7067 ], [ -4.0196, 40.7068 ], [ -4.0192, 40.7073 ], [ -4.019, 40.7083 ], [ -4.0188, 40.7084 ], [ -4.0184, 40.7081 ], [ -4.0179, 40.708 ], [ -4.017, 40.7088 ], [ -4.0158, 40.7095 ], [ -4.0151, 40.7102 ], [ -4.0151, 40.7103 ], [ -4.0159, 40.7102 ], [ -4.0168, 40.7096 ], [ -4.0168, 40.7092 ], [ -4.017, 40.709 ], [ -4.0172, 40.7093 ], [ -4.0177, 40.7093 ], [ -4.018, 40.7099 ], [ -4.0183, 40.7096 ], [ -4.021, 40.7096 ], [ -4.0205, 40.7107 ], [ -4.02, 40.7111 ], [ -4.0195, 40.7117 ], [ -4.0194, 40.712 ], [ -4.0188, 40.7124 ], [ -4.0192, 40.7124 ], [ -4.019, 40.7131 ], [ -4.0189, 40.7133 ], [ -4.0181, 40.7138 ], [ -4.018, 40.7145 ], [ -4.0187, 40.7143 ], [ -4.0194, 40.7143 ], [ -4.0195, 40.7144 ], [ -4.0194, 40.7153 ], [ -4.0188, 40.7152 ], [ -4.0189, 40.7154 ], [ -4.0229, 40.7165 ], [ -4.0237, 40.7166 ], [ -4.0239, 40.7165 ], [ -4.0252, 40.7168 ], [ -4.0264, 40.7164 ], [ -4.0266, 40.7162 ], [ -4.0268, 40.7163 ], [ -4.0277, 40.7158 ], [ -4.0286, 40.7151 ], [ -4.0291, 40.7149 ], [ -4.0306, 40.7151 ], [ -4.0316, 40.7155 ], [ -4.0325, 40.7154 ], [ -4.0333, 40.7148 ], [ -4.0346, 40.7145 ], [ -4.0347, 40.7143 ], [ -4.0352, 40.7143 ], [ -4.0353, 40.7134 ], [ -4.0357, 40.7127 ], [ -4.0361, 40.7125 ], [ -4.0371, 40.7124 ], [ -4.038, 40.7117 ], [ -4.0395, 40.7111 ], [ -4.0401, 40.7105 ], [ -4.0408, 40.7102 ], [ -4.041, 40.7095 ], [ -4.0412, 40.7093 ], [ -4.0425, 40.7089 ], [ -4.0442, 40.7092 ], [ -4.0444, 40.7091 ], [ -4.045, 40.7093 ], [ -4.0455, 40.7098 ], [ -4.0457, 40.7097 ], [ -4.046, 40.7098 ], [ -4.0469, 40.7097 ], [ -4.0473, 40.7092 ], [ -4.0477, 40.7091 ], [ -4.0504, 40.7088 ] ] ] } },
{ "type": "Feature", "properties": { "municipio": "Collado Mediano", "clasificacion": "no-urbanizable-protegido", "calificacion": "sin-asignar", "version": "vigente", "fuente": "SIT-CAM WFS — UsoDelSuelo:VPLA_V_CLASIFICACION (https://idem.comunidad.madrid/geosrvg/ows)", "fecha_dato": "2026-05-12", "ambito": "11589", "_raw_CD_SIGLAS": "SNUP", "_raw_DS_CLASIF_GEN": "Suelo No Urbanizable Protegido", "_raw_DS_CLASIF_DET": "SNUP interés ecológico", "_raw_DS_DOCU": "NORMAS SUBSIDIARIAS", "_raw_DS_LEY": "CM Ley 4/1984, E RD 1346/1976", "_raw_FC_AC": "1990-06-07", "_raw_NM_AREA_M2": 745039.57918863394, "_cam_code": "046" }, "geometry": { "type": "Polygon", "coordinates": [ [ [ -4.0462, 40.6898 ], [ -4.047, 40.6898 ], [ -4.0472, 40.689 ], [ -4.048, 40.6886 ], [ -4.0486, 40.688 ], [ -4.0494, 40.6875 ], [ -4.0496, 40.6872 ], [ -4.0498, 40.6863 ], [ -4.0495, 40.6856 ], [ -4.0495, 40.684 ], [ -4.0491, 40.6827 ], [ -4.0487, 40.6821 ], [ -4.0454, 40.6804 ], [ -4.0441, 40.6802 ], [ -4.0427, 40.6805 ], [ -4.0416, 40.6811 ], [ -4.0414, 40.6815 ], [ -4.0408, 40.682 ], [ -4.0407, 40.6827 ], [ -4.0399, 40.6839 ], [ -4.0393, 40.6844 ], [ -4.0389, 40.6852 ], [ -4.0386, 40.6855 ], [ -4.0379, 40.6871 ], [ -4.0373, 40.6873 ], [ -4.045, 40.6898 ], [ -4.0462, 40.6898 ] ] ] } },
{ "type": "Feature", "properties": { "municipio": "Collado Mediano", "clasificacion": "no-urbanizable-protegido", "calificacion": "sin-asignar", "version": "vigente", "fuente": "SIT-CAM WFS — UsoDelSuelo:VPLA_V_CLASIFICACION (https://idem.comunidad.madrid/geosrvg/ows)", "fecha_dato": "2026-05-12", "ambito": "11589", "_raw_CD_SIGLAS": "SNUP", "_raw_DS_CLASIF_GEN": "Suelo No Urbanizable Protegido", "_raw_DS_CLASIF_DET": "SNUP interés ecológico", "_raw_DS_DOCU": "NORMAS SUBSIDIARIAS", "_raw_DS_LEY": "CM Ley 4/1984, E RD 1346/1976", "_raw_FC_AC": "1990-06-07", "_raw_NM_AREA_M2": 287532.02953223599, "_cam_code": "046" }, "geometry": { "type": "Polygon", "coordinates": [ [ [ -4.0488, 40.6954 ], [ -4.0482, 40.6982 ], [ -4.0487, 40.6996 ], [ -4.0498, 40.7006 ], [ -4.0506, 40.701 ], [ -4.0511, 40.7006 ], [ -4.0513, 40.7003 ], [ -4.0514, 40.6998 ], [ -4.0513, 40.6988 ], [ -4.0508, 40.6984 ], [ -4.0506, 40.6979 ], [ -4.0507, 40.6975 ], [ -4.051, 40.6972 ], [ -4.0514, 40.6971 ], [ -4.0518, 40.6968 ], [ -4.0522, 40.6968 ], [ -4.0528, 40.6964 ], [ -4.054, 40.6963 ], [ -4.0546, 40.696 ], [ -4.0549, 40.6961 ], [ -4.0557, 40.696 ], [ -4.0574, 40.6963 ], [ -4.0578, 40.6962 ], [ -4.0587, 40.6948 ], [ -4.0586, 40.6944 ], [ -4.0587, 40.694 ], [ -4.0586, 40.6938 ], [ -4.0578, 40.6939 ], [ -4.0568, 40.6942 ], [ -4.0564, 40.6942 ], [ -4.0558, 40.6944 ], [ -4.0553, 40.6948 ], [ -4.0549, 40.6948 ], [ -4.0543, 40.6947 ], [ -4.0533, 40.6943 ], [ -4.0528, 40.6939 ], [ -4.0508, 40.6932 ], [ -4.0506, 40.6935 ], [ -4.0505, 40.6947 ], [ -4.0498, 40.6953 ], [ -4.0488, 40.6954 ] ] ] } },
{ "type": "Feature", "properties": { "municipio": "Collado Mediano", "clasificacion": "no-urbanizable-protegido", "calificacion": "sin-asignar", "version": "vigente", "fuente": "SIT-CAM WFS — UsoDelSuelo:VPLA_V_CLASIFICACION (https://idem.comunidad.madrid/geosrvg/ows)", "fecha_dato": "2026-05-12", "ambito": "11589", "_raw_CD_SIGLAS": "SNUP", "_raw_DS_CLASIF_GEN": "Suelo No Urbanizable Protegido", "_raw_DS_CLASIF_DET": "SNUP interés ecológico", "_raw_DS_DOCU": "NORMAS SUBSIDIARIAS", "_raw_DS_LEY": "CM Ley 4/1984, E RD 1346/1976", "_raw_FC_AC": "1990-06-07", "_raw_NM_AREA_M2": 1775090.9810790201, "_cam_code": "046" }, "geometry": { "type": "Polygon", "coordinates": [ [ [ -4.0521, 40.7033 ], [ -4.0535, 40.7038 ], [ -4.0537, 40.7041 ], [ -4.0538, 40.7055 ], [ -4.0537, 40.7063 ], [ -4.0542, 40.7094 ], [ -4.0541, 40.7102 ], [ -4.0544, 40.7107 ], [ -4.0546, 40.7116 ], [ -4.0548, 40.7118 ], [ -4.0548, 40.7125 ], [ -4.0562, 40.7111 ], [ -4.056, 40.71 ], [ -4.0562, 40.7082 ], [ -4.0566, 40.7073 ], [ -4.0586, 40.7049 ], [ -4.0602, 40.7033 ], [ -4.0607, 40.7021 ], [ -4.0594, 40.7021 ], [ -4.0576, 40.7025 ], [ -4.0557, 40.7027 ], [ -4.054, 40.7024 ], [ -4.0499, 40.7012 ], [ -4.0488, 40.7005 ], [ -4.0481, 40.6995 ], [ -4.0478, 40.6981 ], [ -4.0478, 40.6972 ], [ -4.048, 40.6967 ], [ -4.0481, 40.6953 ], [ -4.0454, 40.695 ], [ -4.0408, 40.6948 ], [ -4.0374, 40.6959 ], [ -4.037, 40.6962 ], [ -4.0369, 40.6966 ], [ -4.0362, 40.6969 ], [ -4.0361, 40.6971 ], [ -4.0357, 40.6972 ], [ -4.0367, 40.697 ], [ -4.0384, 40.6961 ], [ -4.0399, 40.6955 ], [ -4.0408, 40.6954 ], [ -4.0426, 40.6958 ], [ -4.0427, 40.696 ], [ -4.0426, 40.6968 ], [ -4.0423, 40.6976 ], [ -4.0413, 40.698 ], [ -4.0411, 40.6983 ], [ -4.0407, 40.6984 ], [ -4.0405, 40.6986 ], [ -4.0403, 40.6992 ], [ -4.0396, 40.6997 ], [ -4.0394, 40.6996 ], [ -4.0383, 40.6996 ], [ -4.0375, 40.6998 ], [ -4.0369, 40.6998 ], [ -4.0364, 40.7002 ], [ -4.0361, 40.7007 ], [ -4.0351, 40.7009 ], [ -4.0349, 40.7014 ], [ -4.0349, 40.702 ], [ -4.0346, 40.7025 ], [ -4.0334, 40.7034 ], [ -4.0317, 40.7036 ], [ -4.0313, 40.7035 ], [ -4.0312, 40.704 ], [ -4.0308, 40.7044 ], [ -4.0312, 40.7046 ], [ -4.0312, 40.7047 ], [ -4.0323, 40.705 ], [ -4.0325, 40.7053 ], [ -4.0325, 40.7061 ], [ -4.0316, 40.7072 ], [ -4.0311, 40.7075 ], [ -4.0291, 40.708 ], [ -4.0281, 40.709 ], [ -4.0278, 40.709 ], [ -4.0273, 40.7093 ], [ -4.0282, 40.7095 ], [ -4.0282, 40.7096 ], [ -4.0286, 40.7098 ], [ -4.0307, 40.7098 ], [ -4.0327, 40.7093 ], [ -4.0335, 40.7089 ], [ -4.0337, 40.7086 ], [ -4.0347, 40.7083 ], [ -4.0353, 40.7084 ], [ -4.0355, 40.7081 ], [ -4.0365, 40.7077 ], [ -4.0368, 40.7072 ], [ -4.0368, 40.7068 ], [ -4.0371, 40.7065 ], [ -4.0385, 40.7061 ], [ -4.0393, 40.706 ], [ -4.0401, 40.7061 ], [ -4.0403, 40.7058 ], [ -4.0415, 40.7055 ], [ -4.0422, 40.7055 ], [ -4.0432, 40.7053 ], [ -4.045, 40.7059 ], [ -4.0458, 40.7059 ], [ -4.0462, 40.7062 ], [ -4.0462, 40.706 ], [ -4.0465, 40.706 ], [ -4.047, 40.7055 ], [ -4.0477, 40.7057 ], [ -4.048, 40.706 ], [ -4.0485, 40.7062 ], [ -4.0493, 40.7059 ], [ -4.0493, 40.7057 ], [ -4.0489, 40.7051 ], [ -4.0488, 40.7045 ], [ -4.0505, 40.704 ], [ -4.0516, 40.7034 ], [ -4.0521, 40.7033 ] ] ] } },
{ "type": "Feature", "properties": { "municipio": "Collado Mediano", "clasificacion": "no-urbanizable-protegido", "calificacion": "sin-asignar", "version": "vigente", "fuente": "SIT-CAM WFS — UsoDelSuelo:VPLA_V_CLASIFICACION (https://idem.comunidad.madrid/geosrvg/ows)", "fecha_dato": "2026-05-12", "ambito": "11589", "_raw_CD_SIGLAS": "SNUP", "_raw_DS_CLASIF_GEN": "Suelo No Urbanizable Protegido", "_raw_DS_CLASIF_DET": "SNUP interés forestal", "_raw_DS_DOCU": "NORMAS SUBSIDIARIAS", "_raw_DS_LEY": "CM Ley 4/1984, E RD 1346/1976", "_raw_FC_AC": "1990-06-07", "_raw_NM_AREA_M2": 707501.49743938795, "_cam_code": "046" }, "geometry": { "type": "Polygon", "coordinates": [ [ [ -4.0008, 40.6951 ], [ -4.0011, 40.6951 ], [ -4.0021, 40.6957 ], [ -4.0024, 40.6957 ], [ -4.0026, 40.6956 ], [ -4.0028, 40.6952 ], [ -4.0035, 40.6947 ], [ -4.0039, 40.6947 ], [ -4.0044, 40.6945 ], [ -4.0055, 40.6946 ], [ -4.0061, 40.6945 ], [ -4.0065, 40.6946 ], [ -4.0072, 40.6944 ], [ -4.0076, 40.694 ], [ -4.0083, 40.6928 ], [ -4.0083, 40.6924 ], [ -4.0079, 40.6914 ], [ -4.0068, 40.6907 ], [ -4.0064, 40.6906 ], [ -4.0026, 40.6906 ], [ -4.0022, 40.6905 ], [ -4.0013, 40.6899 ], [ -4.0009, 40.6893 ], [ -4.0008, 40.6886 ], [ -4.0005, 40.688 ], [ -4.0006, 40.6872 ], [ -4.0003, 40.6865 ], [ -4.0002, 40.6859 ], [ -4.0, 40.6857 ], [ -3.9998, 40.6848 ], [ -3.9998, 40.6842 ], [ -4.0001, 40.6836 ], [ -3.9953, 40.6811 ], [ -3.9948, 40.6824 ], [ -3.9948, 40.6848 ], [ -3.9958, 40.6877 ], [ -3.9975, 40.6904 ], [ -3.9984, 40.691 ], [ -3.9989, 40.6917 ], [ -4.0005, 40.6943 ], [ -4.0008, 40.6951 ] ] ] } },
{ "type": "Feature", "properties": { "municipio": "Collado Mediano", "clasificacion": "no-urbanizable-protegido", "calificacion": "sin-asignar", "version": "vigente", "fuente": "SIT-CAM WFS — UsoDelSuelo:VPLA_V_CLASIFICACION (https://idem.comunidad.madrid/geosrvg/ows)", "fecha_dato": "2026-05-12", "ambito": "11589", "_raw_CD_SIGLAS": "SNUP", "_raw_DS_CLASIF_GEN": "Suelo No Urbanizable Protegido", "_raw_DS_CLASIF_DET": "SNUP interés forestal", "_raw_DS_DOCU": "NORMAS SUBSIDIARIAS", "_raw_DS_LEY": "CM Ley 4/1984, E RD 1346/1976", "_raw_FC_AC": "1990-06-07", "_raw_NM_AREA_M2": 233627.710385796, "_cam_code": "046" }, "geometry": { "type": "Polygon", "coordinates": [ [ [ -4.0572, 40.6967 ], [ -4.0564, 40.6969 ], [ -4.0548, 40.6981 ], [ -4.0529, 40.6987 ], [ -4.0526, 40.6989 ], [ -4.0522, 40.6993 ], [ -4.0518, 40.7 ], [ -4.0518, 40.7003 ], [ -4.0522, 40.7009 ], [ -4.0527, 40.7013 ], [ -4.0544, 40.702 ], [ -4.0555, 40.7021 ], [ -4.0561, 40.7023 ], [ -4.0569, 40.7021 ], [ -4.0571, 40.7018 ], [ -4.0571, 40.7015 ], [ -4.0576, 40.701 ], [ -4.0583, 40.7008 ], [ -4.0585, 40.7005 ], [ -4.0587, 40.6995 ], [ -4.0586, 40.6986 ], [ -4.0579, 40.6971 ], [ -4.0572, 40.6967 ] ] ] } },
{ "type": "Feature", "properties": { "municipio": "Collado Mediano", "clasificacion": "urbano-consolidado", "calificacion": "sin-asignar", "version": "vigente", "fuente": "SIT-CAM WFS — UsoDelSuelo:VPLA_V_CLASIFICACION (https://idem.comunidad.madrid/geosrvg/ows)", "fecha_dato": "2026-05-12", "ambito": "11589", "_raw_CD_SIGLAS": "SU", "_raw_DS_CLASIF_GEN": "Suelo Urbano", "_raw_DS_CLASIF_DET": "Suelo Urbano", "_raw_DS_DOCU": "NORMAS SUBSIDIARIAS", "_raw_DS_LEY": "CM Ley 4/1984, E RD 1346/1976", "_raw_FC_AC": "1990-06-07", "_raw_NM_AREA_M2": 779652.44967239304, "_cam_code": "046" }, "geometry": { "type": "Polygon", "coordinates": [ [ [ -4.0328, 40.6976 ], [ -4.0331, 40.6976 ], [ -4.0341, 40.6981 ], [ -4.0347, 40.6979 ], [ -4.0348, 40.6976 ], [ -4.0361, 40.6971 ], [ -4.0362, 40.6969 ], [ -4.0369, 40.6966 ], [ -4.037, 40.6964 ], [ -4.0369, 40.6959 ], [ -4.0379, 40.6955 ], [ -4.0378, 40.6949 ], [ -4.04, 40.6943 ], [ -4.0398, 40.6939 ], [ -4.0413, 40.6937 ], [ -4.0423, 40.6938 ], [ -4.0438, 40.6937 ], [ -4.0439, 40.6942 ], [ -4.0464, 40.6944 ], [ -4.0464, 40.6938 ], [ -4.0461, 40.6937 ], [ -4.0463, 40.693 ], [ -4.0452, 40.6925 ], [ -4.0441, 40.6923 ], [ -4.0428, 40.6923 ], [ -4.0423, 40.6924 ], [ -4.0423, 40.6925 ], [ -4.0385, 40.693 ], [ -4.0385, 40.6929 ], [ -4.0373, 40.6929 ], [ -4.0354, 40.6926 ], [ -4.0354, 40.6927 ], [ -4.0332, 40.6925 ], [ -4.0314, 40.6921 ], [ -4.0283, 40.6918 ], [ -4.0277, 40.6919 ], [ -4.027, 40.6924 ], [ -4.0268, 40.6927 ], [ -4.0259, 40.6931 ], [ -4.0233, 40.6938 ], [ -4.0229, 40.6942 ], [ -4.0215, 40.6947 ], [ -4.0211, 40.695 ], [ -4.0198, 40.6952 ], [ -4.0198, 40.6953 ], [ -4.0194, 40.6954 ], [ -4.0197, 40.6957 ], [ -4.0198, 40.6962 ], [ -4.0204, 40.6959 ], [ -4.0211, 40.6966 ], [ -4.0209, 40.6971 ], [ -4.0205, 40.6972 ], [ -4.0206, 40.6974 ], [ -4.0211, 40.6971 ], [ -4.0222, 40.6969 ], [ -4.0226, 40.6962 ], [ -4.0232, 40.6961 ], [ -4.0237, 40.6958 ], [ -4.0254, 40.6958 ], [ -4.0259, 40.6959 ], [ -4.0257, 40.6962 ], [ -4.026, 40.6963 ], [ -4.0263, 40.6962 ], [ -4.0264, 40.6966 ], [ -4.0266, 40.6968 ], [ -4.029, 40.6975 ], [ -4.0298, 40.6976 ], [ -4.0309, 40.6973 ], [ -4.0312, 40.6971 ], [ -4.0314, 40.6973 ], [ -4.0316, 40.6973 ], [ -4.0317, 40.6976 ], [ -4.0328, 40.6976 ] ] ] } },
{ "type": "Feature", "properties": { "municipio": "Collado Mediano", "clasificacion": "urbano-consolidado", "calificacion": "sin-asignar", "version": "vigente", "fuente": "SIT-CAM WFS — UsoDelSuelo:VPLA_V_CLASIFICACION (https://idem.comunidad.madrid/geosrvg/ows)", "fecha_dato": "2026-05-12", "ambito": "11589", "_raw_CD_SIGLAS": "SU", "_raw_DS_CLASIF_GEN": "Suelo Urbano", "_raw_DS_CLASIF_DET": "Suelo Urbano", "_raw_DS_DOCU": "NORMAS SUBSIDIARIAS", "_raw_DS_LEY": "CM Ley 4/1984, E RD 1346/1976", "_raw_FC_AC": "1990-06-07", "_raw_NM_AREA_M2": 8188.0971077007998, "_cam_code": "046" }, "geometry": { "type": "Polygon", "coordinates": [ [ [ -4.0444, 40.6922 ], [ -4.0449, 40.6922 ], [ -4.0459, 40.6925 ], [ -4.0462, 40.6917 ], [ -4.0445, 40.6919 ], [ -4.0444, 40.6922 ] ] ] } },
{ "type": "Feature", "properties": { "municipio": "Collado Mediano", "clasificacion": "urbano-consolidado", "calificacion": "sin-asignar", "version": "vigente", "fuente": "SIT-CAM WFS — UsoDelSuelo:VPLA_V_CLASIFICACION (https://idem.comunidad.madrid/geosrvg/ows)", "fecha_dato": "2026-05-12", "ambito": "11589", "_raw_CD_SIGLAS": "SU", "_raw_DS_CLASIF_GEN": "Suelo Urbano", "_raw_DS_CLASIF_DET": "Suelo Urbano", "_raw_DS_DOCU": "NORMAS SUBSIDIARIAS", "_raw_DS_LEY": "CM Ley 4/1984, E RD 1346/1976", "_raw_FC_AC": "1990-06-07", "_raw_NM_AREA_M2": 5884.28830182604, "_cam_code": "046" }, "geometry": { "type": "Polygon", "coordinates": [ [ [ -4.0463, 40.6918 ], [ -4.046, 40.6926 ], [ -4.0466, 40.6928 ], [ -4.047, 40.692 ], [ -4.0463, 40.6918 ] ] ] } },
{ "type": "Feature", "properties": { "municipio": "Collado Mediano", "clasificacion": "urbano-consolidado", "calificacion": "sin-asignar", "version": "vigente", "fuente": "SIT-CAM WFS — UsoDelSuelo:VPLA_V_CLASIFICACION (https://idem.comunidad.madrid/geosrvg/ows)", "fecha_dato": "2026-05-12", "ambito": "11589", "_raw_CD_SIGLAS": "SU", "_raw_DS_CLASIF_GEN": "Suelo Urbano", "_raw_DS_CLASIF_DET": "Suelo Urbano", "_raw_DS_DOCU": "NORMAS SUBSIDIARIAS", "_raw_DS_LEY": "CM Ley 4/1984, E RD 1346/1976", "_raw_FC_AC": "1990-06-07", "_raw_NM_AREA_M2": 276049.12321536703, "_cam_code": "046" }, "geometry": { "type": "Polygon", "coordinates": [ [ [ -4.042, 40.6663 ], [ -4.0417, 40.6678 ], [ -4.0418, 40.6684 ], [ -4.042, 40.6686 ], [ -4.0426, 40.668 ], [ -4.0437, 40.6675 ], [ -4.0463, 40.6669 ], [ -4.0474, 40.6679 ], [ -4.0472, 40.6683 ], [ -4.047, 40.6683 ], [ -4.0481, 40.6686 ], [ -4.0481, 40.6675 ], [ -4.0486, 40.667 ], [ -4.0486, 40.6664 ], [ -4.0491, 40.6662 ], [ -4.0491, 40.6661 ], [ -4.0496, 40.6661 ], [ -4.0495, 40.6649 ], [ -4.0491, 40.6648 ], [ -4.0496, 40.6639 ], [ -4.0496, 40.6636 ], [ -4.0475, 40.6632 ], [ -4.0461, 40.6626 ], [ -4.0451, 40.6625 ], [ -4.0435, 40.6642 ], [ -4.0433, 40.6641 ], [ -4.0431, 40.6651 ], [ -4.0426, 40.6659 ], [ -4.042, 40.6663 ] ] ] } },
{ "type": "Feature", "properties": { "municipio": "Collado Mediano", "clasificacion": "urbano-consolidado", "calificacion": "sin-asignar", "version": "vigente", "fuente": "SIT-CAM WFS — UsoDelSuelo:VPLA_V_CLASIFICACION (https://idem.comunidad.madrid/geosrvg/ows)", "fecha_dato": "2026-05-12", "ambito": "11589", "_raw_CD_SIGLAS": "SU", "_raw_DS_CLASIF_GEN": "Suelo Urbano", "_raw_DS_CLASIF_DET": "Suelo Urbano", "_raw_DS_DOCU": "NORMAS SUBSIDIARIAS", "_raw_DS_LEY": "CM Ley 4/1984, E RD 1346/1976", "_raw_FC_AC": "1990-06-07", "_raw_NM_AREA_M2": 69636.040497817696, "_cam_code": "046" }, "geometry": { "type": "Polygon", "coordinates": [ [ [ -4.0184, 40.6887 ], [ -4.0192, 40.689 ], [ -4.0204, 40.6892 ], [ -4.0203, 40.689 ], [ -4.0204, 40.6878 ], [ -4.0211, 40.6864 ], [ -4.0208, 40.6863 ], [ -4.0204, 40.6865 ], [ -4.0198, 40.6865 ], [ -4.0195, 40.6862 ], [ -4.0194, 40.6857 ], [ -4.0193, 40.6856 ], [ -4.0191, 40.6857 ], [ -4.0183, 40.6868 ], [ -4.0177, 40.6874 ], [ -4.0172, 40.6877 ], [ -4.0172, 40.6883 ], [ -4.0173, 40.6884 ], [ -4.0182, 40.6885 ], [ -4.0184, 40.6887 ] ] ] } },
{ "type": "Feature", "properties": { "municipio": "Collado Mediano", "clasificacion": "urbano-consolidado", "calificacion": "sin-asignar", "version": "vigente", "fuente": "SIT-CAM WFS — UsoDelSuelo:VPLA_V_CLASIFICACION (https://idem.comunidad.madrid/geosrvg/ows)", "fecha_dato": "2026-05-12", "ambito": "11589", "_raw_CD_SIGLAS": "SU", "_raw_DS_CLASIF_GEN": "Suelo Urbano", "_raw_DS_CLASIF_DET": "Suelo Urbano", "_raw_DS_DOCU": "NORMAS SUBSIDIARIAS", "_raw_DS_LEY": "CM Ley 4/1984, E RD 1346/1976", "_raw_FC_AC": "1990-06-07", "_raw_NM_AREA_M2": 6359.1781138756396, "_cam_code": "046" }, "geometry": { "type": "Polygon", "coordinates": [ [ [ -4.0445, 40.6919 ], [ -4.0409, 40.6922 ], [ -4.0393, 40.6926 ], [ -4.0394, 40.6927 ], [ -4.0404, 40.6925 ], [ -4.0419, 40.6923 ], [ -4.0424, 40.6922 ], [ -4.0429, 40.6921 ], [ -4.0431, 40.6921 ], [ -4.0439, 40.6921 ], [ -4.0444, 40.6922 ], [ -4.0445, 40.6919 ] ] ] } },
{ "type": "Feature", "properties": { "municipio": "Collado Mediano", "clasificacion": "urbano-consolidado", "calificacion": "sin-asignar", "version": "vigente", "fuente": "SIT-CAM WFS — UsoDelSuelo:VPLA_V_CLASIFICACION (https://idem.comunidad.madrid/geosrvg/ows)", "fecha_dato": "2026-05-12", "ambito": "11589", "_raw_CD_SIGLAS": "SU", "_raw_DS_CLASIF_GEN": "Suelo Urbano", "_raw_DS_CLASIF_DET": "Suelo Urbano", "_raw_DS_DOCU": "NORMAS SUBSIDIARIAS", "_raw_DS_LEY": "CM Ley 4/1984, E RD 1346/1976", "_raw_FC_AC": "1990-06-07", "_raw_NM_AREA_M2": 678211.96017312596, "_cam_code": "046" }, "geometry": { "type": "Polygon", "coordinates": [ [ [ -4.0294, 40.6916 ], [ -4.0376, 40.6926 ], [ -4.0376, 40.6927 ], [ -4.0385, 40.6927 ], [ -4.041, 40.6921 ], [ -4.0418, 40.6921 ], [ -4.0427, 40.6919 ], [ -4.0427, 40.692 ], [ -4.0439, 40.6919 ], [ -4.0449, 40.6917 ], [ -4.0457, 40.6917 ], [ -4.0458, 40.6916 ], [ -4.0479, 40.6919 ], [ -4.0481, 40.6916 ], [ -4.0481, 40.6912 ], [ -4.0485, 40.691 ], [ -4.0487, 40.6907 ], [ -4.0494, 40.6904 ], [ -4.0492, 40.6903 ], [ -4.0472, 40.6908 ], [ -4.047, 40.6898 ], [ -4.045, 40.6898 ], [ -4.0373, 40.6873 ], [ -4.036, 40.6876 ], [ -4.0346, 40.6875 ], [ -4.0334, 40.6894 ], [ -4.0322, 40.6892 ], [ -4.032, 40.6893 ], [ -4.0311, 40.689 ], [ -4.0297, 40.6888 ], [ -4.0296, 40.6889 ], [ -4.0297, 40.6889 ], [ -4.0297, 40.6893 ], [ -4.0293, 40.6894 ], [ -4.0293, 40.6893 ], [ -4.029, 40.6892 ], [ -4.0277, 40.6893 ], [ -4.0259, 40.6899 ], [ -4.0248, 40.6905 ], [ -4.0251, 40.6917 ], [ -4.0248, 40.6918 ], [ -4.0248, 40.6921 ], [ -4.0256, 40.6921 ], [ -4.0261, 40.6919 ], [ -4.0267, 40.6919 ], [ -4.0281, 40.6916 ], [ -4.0294, 40.6916 ] ] ] } },
{ "type": "Feature", "properties": { "municipio": "Collado Mediano", "clasificacion": "urbano-consolidado", "calificacion": "sin-asignar", "version": "vigente", "fuente": "SIT-CAM WFS — UsoDelSuelo:VPLA_V_CLASIFICACION (https://idem.comunidad.madrid/geosrvg/ows)", "fecha_dato": "2026-05-12", "ambito": "11589", "_raw_CD_SIGLAS": "SU", "_raw_DS_CLASIF_GEN": "Suelo Urbano", "_raw_DS_CLASIF_DET": "Suelo Urbano", "_raw_DS_DOCU": "NORMAS SUBSIDIARIAS", "_raw_DS_LEY": "CM Ley 4/1984, E RD 1346/1976", "_raw_FC_AC": "1990-06-07", "_raw_NM_AREA_M2": 1397.5711926383899, "_cam_code": "046" }, "geometry": { "type": "Polygon", "coordinates": [ [ [ -4.0193, 40.6926 ], [ -4.0193, 40.693 ], [ -4.0197, 40.693 ], [ -4.0197, 40.6925 ], [ -4.0193, 40.6926 ] ] ] } },
{ "type": "Feature", "properties": { "municipio": "Collado Mediano", "clasificacion": "urbano-consolidado", "calificacion": "sin-asignar", "version": "vigente", "fuente": "SIT-CAM WFS — UsoDelSuelo:VPLA_V_CLASIFICACION (https://idem.comunidad.madrid/geosrvg/ows)", "fecha_dato": "2026-05-12", "ambito": "11589", "_raw_CD_SIGLAS": "SU", "_raw_DS_CLASIF_GEN": "Suelo Urbano", "_raw_DS_CLASIF_DET": "Suelo Urbano", "_raw_DS_DOCU": "NORMAS SUBSIDIARIAS", "_raw_DS_LEY": "CM Ley 4/1984, E RD 1346/1976", "_raw_FC_AC": "1990-06-07", "_raw_NM_AREA_M2": 30770.853536680799, "_cam_code": "046" }, "geometry": { "type": "Polygon", "coordinates": [ [ [ -4.0227, 40.6936 ], [ -4.0234, 40.6937 ], [ -4.0244, 40.6933 ], [ -4.0264, 40.6928 ], [ -4.0264, 40.6927 ], [ -4.0268, 40.6926 ], [ -4.0269, 40.6924 ], [ -4.0275, 40.692 ], [ -4.0258, 40.6923 ], [ -4.0247, 40.6923 ], [ -4.0235, 40.6921 ], [ -4.0238, 40.6923 ], [ -4.0239, 40.6933 ], [ -4.0229, 40.6936 ], [ -4.0227, 40.6935 ], [ -4.0229, 40.6933 ], [ -4.0218, 40.693 ], [ -4.0217, 40.6932 ], [ -4.0217, 40.6933 ], [ -4.0227, 40.6936 ] ] ] } },
{ "type": "Feature", "properties": { "municipio": "Collado Mediano", "clasificacion": "urbano-consolidado", "calificacion": "sin-asignar", "version": "vigente", "fuente": "SIT-CAM WFS — UsoDelSuelo:VPLA_V_CLASIFICACION (https://idem.comunidad.madrid/geosrvg/ows)", "fecha_dato": "2026-05-12", "ambito": "11589", "_raw_CD_SIGLAS": "SU", "_raw_DS_CLASIF_GEN": "Suelo Urbano", "_raw_DS_CLASIF_DET": "Suelo Urbano", "_raw_DS_DOCU": "NORMAS SUBSIDIARIAS", "_raw_DS_LEY": "CM Ley 4/1984, E RD 1346/1976", "_raw_FC_AC": "1990-06-07", "_raw_NM_AREA_M2": 372888.29246809898, "_cam_code": "046" }, "geometry": { "type": "Polygon", "coordinates": [ [ [ -4.0168, 40.6947 ], [ -4.017, 40.6964 ], [ -4.0187, 40.6956 ], [ -4.019, 40.6956 ], [ -4.0194, 40.6953 ], [ -4.0196, 40.6953 ], [ -4.0196, 40.6952 ], [ -4.0208, 40.695 ], [ -4.021, 40.6948 ], [ -4.0229, 40.6941 ], [ -4.0231, 40.6939 ], [ -4.0229, 40.6937 ], [ -4.0202, 40.693 ], [ -4.0191, 40.6931 ], [ -4.0175, 40.6929 ], [ -4.0172, 40.6926 ], [ -4.0173, 40.6925 ], [ -4.0172, 40.6923 ], [ -4.0173, 40.692 ], [ -4.0172, 40.6919 ], [ -4.0174, 40.6913 ], [ -4.0169, 40.6896 ], [ -4.0169, 40.6886 ], [ -4.0147, 40.6886 ], [ -4.0144, 40.6888 ], [ -4.0143, 40.6887 ], [ -4.0131, 40.6886 ], [ -4.0128, 40.6901 ], [ -4.0127, 40.6915 ], [ -4.0116, 40.6938 ], [ -4.0127, 40.6944 ], [ -4.0123, 40.695 ], [ -4.0134, 40.6956 ], [ -4.0148, 40.6942 ], [ -4.0155, 40.6942 ], [ -4.016, 40.6939 ], [ -4.0166, 40.6944 ], [ -4.0166, 40.6947 ], [ -4.0168, 40.6947 ] ] ] } },
{ "type": "Feature", "properties": { "municipio": "Collado Mediano", "clasificacion": "urbano-consolidado", "calificacion": "sin-asignar", "version": "vigente", "fuente": "SIT-CAM WFS — UsoDelSuelo:VPLA_V_CLASIFICACION (https://idem.comunidad.madrid/geosrvg/ows)", "fecha_dato": "2026-05-12", "ambito": "11589", "_raw_CD_SIGLAS": "SU", "_raw_DS_CLASIF_GEN": "Suelo Urbano", "_raw_DS_CLASIF_DET": "Suelo Urbano", "_raw_DS_DOCU": "NORMAS SUBSIDIARIAS", "_raw_DS_LEY": "CM Ley 4/1984, E RD 1346/1976", "_raw_FC_AC": "1990-06-07", "_raw_NM_AREA_M2": 14570.596766541999, "_cam_code": "046" }, "geometry": { "type": "Polygon", "coordinates": [ [ [ -4.0036, 40.7018 ], [ -4.0035, 40.7027 ], [ -4.0038, 40.7025 ], [ -4.0044, 40.7006 ], [ -4.0029, 40.7003 ], [ -4.0032, 40.7012 ], [ -4.0036, 40.7018 ] ] ] } },
{ "type": "Feature", "properties": { "municipio": "Collado Mediano", "clasificacion": "urbano-consolidado", "calificacion": "sin-asignar", "version": "vigente", "fuente": "SIT-CAM WFS — UsoDelSuelo:VPLA_V_CLASIFICACION (https://idem.comunidad.madrid/geosrvg/ows)", "fecha_dato": "2026-05-12", "ambito": "11589", "_raw_CD_SIGLAS": "SU", "_raw_DS_CLASIF_GEN": "Suelo Urbano", "_raw_DS_CLASIF_DET": "Suelo Urbano", "_raw_DS_DOCU": "NORMAS SUBSIDIARIAS", "_raw_DS_LEY": "CM Ley 4/1984, E RD 1346/1976", "_raw_FC_AC": "1990-06-07", "_raw_NM_AREA_M2": 50394.783138149098, "_cam_code": "046" }, "geometry": { "type": "Polygon", "coordinates": [ [ [ -4.0042, 40.7054 ], [ -4.0039, 40.7055 ], [ -4.0039, 40.7059 ], [ -4.0035, 40.706 ], [ -4.0036, 40.7079 ], [ -4.0038, 40.7081 ], [ -4.0041, 40.7092 ], [ -4.0049, 40.71 ], [ -4.0054, 40.7101 ], [ -4.0056, 40.71 ], [ -4.0057, 40.7095 ], [ -4.0042, 40.7054 ] ] ] } },
{ "type": "Feature", "properties": { "municipio": "Collado Mediano", "clasificacion": "urbano-consolidado", "calificacion": "sin-asignar", "version": "vigente", "fuente": "SIT-CAM WFS — UsoDelSuelo:VPLA_V_CLASIFICACION (https://idem.comunidad.madrid/geosrvg/ows)", "fecha_dato": "2026-05-12", "ambito": "11589", "_raw_CD_SIGLAS": "SU", "_raw_DS_CLASIF_GEN": "Suelo Urbano", "_raw_DS_CLASIF_DET": "Suelo Urbano", "_raw_DS_DOCU": "NORMAS SUBSIDIARIAS", "_raw_DS_LEY": "CM Ley 4/1984, E RD 1346/1976", "_raw_FC_AC": "1990-06-07", "_raw_NM_AREA_M2": 288818.203960062, "_cam_code": "046" }, "geometry": { "type": "Polygon", "coordinates": [ [ [ -4.008, 40.7097 ], [ -4.0084, 40.7097 ], [ -4.0087, 40.7103 ], [ -4.0097, 40.7103 ], [ -4.0099, 40.7097 ], [ -4.0099, 40.7088 ], [ -4.0092, 40.7081 ], [ -4.0096, 40.7073 ], [ -4.0089, 40.7068 ], [ -4.0089, 40.7066 ], [ -4.0091, 40.7063 ], [ -4.0096, 40.7062 ], [ -4.0099, 40.706 ], [ -4.0102, 40.7055 ], [ -4.0101, 40.7054 ], [ -4.0095, 40.7054 ], [ -4.0098, 40.7049 ], [ -4.01, 40.7051 ], [ -4.0103, 40.7046 ], [ -4.0106, 40.7046 ], [ -4.0107, 40.704 ], [ -4.0106, 40.7038 ], [ -4.0108, 40.7035 ], [ -4.0104, 40.7034 ], [ -4.0108, 40.7028 ], [ -4.0103, 40.7024 ], [ -4.0097, 40.703 ], [ -4.0097, 40.7034 ], [ -4.0095, 40.7034 ], [ -4.0094, 40.7033 ], [ -4.0095, 40.7028 ], [ -4.009, 40.7024 ], [ -4.0083, 40.7034 ], [ -4.0078, 40.7033 ], [ -4.0069, 40.7029 ], [ -4.0066, 40.7023 ], [ -4.0069, 40.7021 ], [ -4.0068, 40.7021 ], [ -4.0069, 40.702 ], [ -4.0067, 40.7015 ], [ -4.0051, 40.7026 ], [ -4.0043, 40.7028 ], [ -4.0043, 40.7047 ], [ -4.0049, 40.7064 ], [ -4.0055, 40.7063 ], [ -4.0055, 40.7055 ], [ -4.0057, 40.7054 ], [ -4.0056, 40.7045 ], [ -4.0063, 40.7045 ], [ -4.0069, 40.7047 ], [ -4.0072, 40.705 ], [ -4.0073, 40.7054 ], [ -4.0067, 40.7066 ], [ -4.0066, 40.7066 ], [ -4.0066, 40.7071 ], [ -4.0059, 40.7078 ], [ -4.0058, 40.7081 ], [ -4.0055, 40.7081 ], [ -4.006, 40.7091 ], [ -4.006, 40.7093 ], [ -4.0059, 40.7093 ], [ -4.006, 40.7093 ], [ -4.006, 40.7096 ], [ -4.0071, 40.7095 ], [ -4.0075, 40.7097 ], [ -4.008, 40.7097 ] ] ] } },
{ "type": "Feature", "properties": { "municipio": "Collado Mediano", "clasificacion": "urbano-consolidado", "calificacion": "sin-asignar", "version": "vigente", "fuente": "SIT-CAM WFS — UsoDelSuelo:VPLA_V_CLASIFICACION (https://idem.comunidad.madrid/geosrvg/ows)", "fecha_dato": "2026-05-12", "ambito": "11589", "_raw_CD_SIGLAS": "SU", "_raw_DS_CLASIF_GEN": "Suelo Urbano", "_raw_DS_CLASIF_DET": "Suelo Urbano", "_raw_DS_DOCU": "NORMAS SUBSIDIARIAS", "_raw_DS_LEY": "CM Ley 4/1984, E RD 1346/1976", "_raw_FC_AC": "1990-06-07", "_raw_NM_AREA_M2": 331076.93670202198, "_cam_code": "046" }, "geometry": { "type": "Polygon", "coordinates": [ [ [ -4.017, 40.709 ], [ -4.0168, 40.7092 ], [ -4.0168, 40.7096 ], [ -4.0159, 40.7102 ], [ -4.0127, 40.7103 ], [ -4.0129, 40.7114 ], [ -4.0114, 40.7112 ], [ -4.0112, 40.7109 ], [ -4.0106, 40.7109 ], [ -4.0099, 40.7111 ], [ -4.0096, 40.7118 ], [ -4.0087, 40.7115 ], [ -4.0087, 40.7114 ], [ -4.0086, 40.7115 ], [ -4.0083, 40.7114 ], [ -4.008, 40.7117 ], [ -4.0087, 40.712 ], [ -4.0141, 40.7135 ], [ -4.0187, 40.7154 ], [ -4.0189, 40.7154 ], [ -4.0188, 40.7152 ], [ -4.0194, 40.7153 ], [ -4.0195, 40.7144 ], [ -4.0194, 40.7143 ], [ -4.0187, 40.7143 ], [ -4.018, 40.7145 ], [ -4.018, 40.714 ], [ -4.0183, 40.7136 ], [ -4.0189, 40.7133 ], [ -4.0192, 40.7124 ], [ -4.0188, 40.7124 ], [ -4.0194, 40.712 ], [ -4.0195, 40.7117 ], [ -4.02, 40.7111 ], [ -4.0205, 40.7107 ], [ -4.021, 40.7096 ], [ -4.0183, 40.7096 ], [ -4.018, 40.7099 ], [ -4.0177, 40.7093 ], [ -4.0172, 40.7093 ], [ -4.017, 40.709 ] ] ] } },
{ "type": "Feature", "properties": { "municipio": "Collado Mediano", "clasificacion": "urbano-consolidado", "calificacion": "sin-asignar", "version": "vigente", "fuente": "SIT-CAM WFS — UsoDelSuelo:VPLA_V_CLASIFICACION (https://idem.comunidad.madrid/geosrvg/ows)", "fecha_dato": "2026-05-12", "ambito": "11589", "_raw_CD_SIGLAS": "SU", "_raw_DS_CLASIF_GEN": "Suelo Urbano", "_raw_DS_CLASIF_DET": "Suelo Urbano", "_raw_DS_DOCU": "NORMAS SUBSIDIARIAS", "_raw_DS_LEY": "CM Ley 4/1984, E RD 1346/1976", "_raw_FC_AC": "1990-06-07", "_raw_NM_AREA_M2": 760.69193692857402, "_cam_code": "046" }, "geometry": { "type": "Polygon", "coordinates": [ [ [ -4.0203, 40.6959 ], [ -4.0207, 40.6964 ], [ -4.0208, 40.6963 ], [ -4.0204, 40.6959 ], [ -4.0203, 40.6959 ] ] ] } },
{ "type": "Feature", "properties": { "municipio": "Collado Mediano", "clasificacion": "urbanizable-no-sectorizado", "calificacion": "sin-asignar", "version": "vigente", "fuente": "SIT-CAM WFS — UsoDelSuelo:VPLA_V_CLASIFICACION (https://idem.comunidad.madrid/geosrvg/ows)", "fecha_dato": "2026-05-12", "ambito": "11589", "_raw_CD_SIGLAS": "SUBNS", "_raw_DS_CLASIF_GEN": "Suelo No Urbanizable Común", "_raw_DS_CLASIF_DET": "Suelo No Urbanizable Común", "_raw_DS_DOCU": "NORMAS SUBSIDIARIAS", "_raw_DS_LEY": "CM Ley 4/1984, E RD 1346/1976", "_raw_FC_AC": "1990-06-07", "_raw_NM_AREA_M2": 6876580.8343229303, "_cam_code": "046" }, "geometry": { "type": "Polygon", "coordinates": [ [ [ -4.0039, 40.7045 ], [ -4.0057, 40.7095 ], [ -4.0056, 40.7099 ], [ -4.006, 40.7096 ], [ -4.006, 40.7093 ], [ -4.0059, 40.7093 ], [ -4.006, 40.7093 ], [ -4.006, 40.7091 ], [ -4.0055, 40.7081 ], [ -4.0043, 40.7047 ], [ -4.0043, 40.7028 ], [ -4.0051, 40.7026 ], [ -4.0063, 40.7017 ], [ -4.006, 40.7017 ], [ -4.0052, 40.7023 ], [ -4.005, 40.7023 ], [ -4.0043, 40.702 ], [ -4.0044, 40.7014 ], [ -4.0046, 40.7009 ], [ -4.0054, 40.6997 ], [ -4.0065, 40.6986 ], [ -4.0074, 40.698 ], [ -4.0081, 40.6973 ], [ -4.0097, 40.6961 ], [ -4.0111, 40.6946 ], [ -4.0126, 40.6918 ], [ -4.013, 40.6887 ], [ -4.0131, 40.6886 ], [ -4.0143, 40.6887 ], [ -4.0144, 40.6888 ], [ -4.0147, 40.6886 ], [ -4.0169, 40.6886 ], [ -4.0169, 40.6896 ], [ -4.0174, 40.6913 ], [ -4.0172, 40.692 ], [ -4.0206, 40.6899 ], [ -4.0208, 40.6903 ], [ -4.022, 40.6914 ], [ -4.0234, 40.6921 ], [ -4.0247, 40.6923 ], [ -4.0258, 40.6923 ], [ -4.0271, 40.692 ], [ -4.0273, 40.692 ], [ -4.0274, 40.692 ], [ -4.0275, 40.692 ], [ -4.0269, 40.6924 ], [ -4.0268, 40.6926 ], [ -4.0264, 40.6927 ], [ -4.0264, 40.6928 ], [ -4.0244, 40.6933 ], [ -4.0234, 40.6937 ], [ -4.0222, 40.6935 ], [ -4.0217, 40.6933 ], [ -4.0217, 40.6932 ], [ -4.0203, 40.6929 ], [ -4.0193, 40.693 ], [ -4.0193, 40.6929 ], [ -4.0177, 40.6928 ], [ -4.0174, 40.6927 ], [ -4.0173, 40.6925 ], [ -4.0172, 40.6926 ], [ -4.0175, 40.6929 ], [ -4.0179, 40.693 ], [ -4.0191, 40.6931 ], [ -4.0202, 40.693 ], [ -4.0229, 40.6937 ], [ -4.0231, 40.6939 ], [ -4.0229, 40.6941 ], [ -4.021, 40.6948 ], [ -4.0208, 40.695 ], [ -4.0196, 40.6952 ], [ -4.0196, 40.6953 ], [ -4.0194, 40.6953 ], [ -4.019, 40.6956 ], [ -4.0187, 40.6956 ], [ -4.0182, 40.6959 ], [ -4.0144, 40.6974 ], [ -4.0144, 40.6975 ], [ -4.019, 40.6957 ], [ -4.0194, 40.6954 ], [ -4.0198, 40.6953 ], [ -4.0198, 40.6952 ], [ -4.0211, 40.695 ], [ -4.0215, 40.6947 ], [ -4.0229, 40.6942 ], [ -4.0233, 40.6938 ], [ -4.0259, 40.6931 ], [ -4.0268, 40.6927 ], [ -4.027, 40.6924 ], [ -4.0277, 40.6919 ], [ -4.0283, 40.6918 ], [ -4.0314, 40.6921 ], [ -4.0332, 40.6925 ], [ -4.0354, 40.6927 ], [ -4.0354, 40.6926 ], [ -4.0373, 40.6929 ], [ -4.0385, 40.6929 ], [ -4.0385, 40.693 ], [ -4.0423, 40.6925 ], [ -4.0423, 40.6924 ], [ -4.0428, 40.6923 ], [ -4.0441, 40.6923 ], [ -4.0452, 40.6925 ], [ -4.0463, 40.693 ], [ -4.0463, 40.6931 ], [ -4.0468, 40.6933 ], [ -4.0474, 40.6939 ], [ -4.0479, 40.6947 ], [ -4.0482, 40.6946 ], [ -4.0479, 40.694 ], [ -4.0472, 40.6932 ], [ -4.0466, 40.6928 ], [ -4.046, 40.6926 ], [ -4.0463, 40.6918 ], [ -4.0464, 40.6918 ], [ -4.0475, 40.6921 ], [ -4.0476, 40.6923 ], [ -4.0481, 40.6923 ], [ -4.0505, 40.6931 ], [ -4.0508, 40.6931 ], [ -4.0508, 40.6932 ], [ -4.0528, 40.6939 ], [ -4.0533, 40.6943 ], [ -4.0543, 40.6947 ], [ -4.0553, 40.6948 ], [ -4.0561, 40.6943 ], [ -4.0583, 40.6938 ], [ -4.0586, 40.6938 ], [ -4.0587, 40.694 ], [ -4.0586, 40.6944 ], [ -4.0587, 40.6948 ], [ -4.0578, 40.6962 ], [ -4.0574, 40.6963 ], [ -4.0557, 40.696 ], [ -4.0549, 40.6961 ], [ -4.0546, 40.696 ], [ -4.054, 40.6963 ], [ -4.0528, 40.6964 ], [ -4.0522, 40.6968 ], [ -4.0518, 40.6968 ], [ -4.0514, 40.6971 ], [ -4.051, 40.6972 ], [ -4.0507, 40.6975 ], [ -4.0506, 40.6979 ], [ -4.0508, 40.6984 ], [ -4.0513, 40.6988 ], [ -4.0514, 40.6998 ], [ -4.0513, 40.7003 ], [ -4.0511, 40.7006 ], [ -4.0506, 40.701 ], [ -4.0498, 40.7006 ], [ -4.049, 40.6999 ], [ -4.0487, 40.6996 ], [ -4.0483, 40.6987 ], [ -4.0482, 40.6982 ], [ -4.0488, 40.6954 ], [ -4.0481, 40.6953 ], [ -4.048, 40.6967 ], [ -4.0478, 40.6972 ], [ -4.0478, 40.6981 ], [ -4.0481, 40.6995 ], [ -4.0488, 40.7005 ], [ -4.0499, 40.7012 ], [ -4.051, 40.7016 ], [ -4.054, 40.7024 ], [ -4.0557, 40.7027 ], [ -4.0576, 40.7025 ], [ -4.0594, 40.7021 ], [ -4.0607, 40.7021 ], [ -4.0616, 40.7002 ], [ -4.0596, 40.6986 ], [ -4.0592, 40.6946 ], [ -4.0589, 40.693 ], [ -4.0589, 40.6918 ], [ -4.0586, 40.6913 ], [ -4.0584, 40.6906 ], [ -4.0578, 40.6898 ], [ -4.0576, 40.6893 ], [ -4.0577, 40.6884 ], [ -4.0582, 40.688 ], [ -4.0582, 40.685 ], [ -4.0584, 40.682 ], [ -4.0583, 40.6816 ], [ -4.0578, 40.6814 ], [ -4.0577, 40.6812 ], [ -4.0574, 40.68 ], [ -4.0574, 40.6795 ], [ -4.0575, 40.6794 ], [ -4.0574, 40.679 ], [ -4.057, 40.6786 ], [ -4.0569, 40.6781 ], [ -4.056, 40.6766 ], [ -4.0557, 40.6764 ], [ -4.0555, 40.676 ], [ -4.0554, 40.675 ], [ -4.0551, 40.6743 ], [ -4.0549, 40.6731 ], [ -4.054, 40.6716 ], [ -4.0537, 40.6704 ], [ -4.0531, 40.6695 ], [ -4.0528, 40.6693 ], [ -4.0525, 40.6686 ], [ -4.0526, 40.6678 ], [ -4.0528, 40.6678 ], [ -4.0532, 40.6673 ], [ -4.0535, 40.6667 ], [ -4.0547, 40.6651 ], [ -4.0537, 40.6651 ], [ -4.0537, 40.665 ], [ -4.0526, 40.6647 ], [ -4.0526, 40.6646 ], [ -4.0521, 40.6645 ], [ -4.0521, 40.6644 ], [ -4.0506, 40.6638 ], [ -4.0496, 40.6636 ], [ -4.0496, 40.6639 ], [ -4.0491, 40.6647 ], [ -4.0491, 40.6648 ], [ -4.0495, 40.6649 ], [ -4.0496, 40.6661 ], [ -4.0491, 40.6661 ], [ -4.0491, 40.6662 ], [ -4.0486, 40.6664 ], [ -4.0486, 40.667 ], [ -4.0481, 40.6675 ], [ -4.0481, 40.6686 ], [ -4.047, 40.6683 ], [ -4.0472, 40.6683 ], [ -4.0474, 40.6679 ], [ -4.0463, 40.6669 ], [ -4.0437, 40.6675 ], [ -4.0426, 40.668 ], [ -4.042, 40.6686 ], [ -4.0418, 40.6684 ], [ -4.0417, 40.6678 ], [ -4.0418, 40.6669 ], [ -4.042, 40.6664 ], [ -4.0417, 40.6656 ], [ -4.0412, 40.666 ], [ -4.0396, 40.6668 ], [ -4.038, 40.6678 ], [ -4.037, 40.6686 ], [ -4.0366, 40.6692 ], [ -4.0348, 40.6706 ], [ -4.0336, 40.6713 ], [ -4.0316, 40.6717 ], [ -4.0306, 40.6728 ], [ -4.0269, 40.6745 ], [ -4.0246, 40.6758 ], [ -4.0217, 40.6777 ], [ -4.0193, 40.6795 ], [ -4.0156, 40.681 ], [ -4.0131, 40.6824 ], [ -4.0132, 40.683 ], [ -4.0127, 40.6864 ], [ -4.0126, 40.6885 ], [ -4.0124, 40.6892 ], [ -4.0125, 40.6896 ], [ -4.0123, 40.6912 ], [ -4.012, 40.692 ], [ -4.0114, 40.6933 ], [ -4.0104, 40.6948 ], [ -4.008, 40.697 ], [ -4.0055, 40.699 ], [ -4.0043, 40.7007 ], [ -4.0038, 40.7025 ], [ -4.0035, 40.7027 ], [ -4.0039, 40.7034 ], [ -4.0039, 40.7045 ] ], [ [ -4.0462, 40.6917 ], [ -4.0459, 40.6925 ], [ -4.0449, 40.6922 ], [ -4.0439, 40.6921 ], [ -4.0436, 40.6921 ], [ -4.0434, 40.6921 ], [ -4.0431, 40.6921 ], [ -4.0429, 40.6921 ], [ -4.0424, 40.6922 ], [ -4.0419, 40.6923 ], [ -4.0394, 40.6927 ], [ -4.0393, 40.6926 ], [ -4.0409, 40.6922 ], [ -4.0421, 40.6921 ], [ -4.0424, 40.6921 ], [ -4.043, 40.6921 ], [ -4.0435, 40.692 ], [ -4.044, 40.692 ], [ -4.045, 40.6918 ], [ -4.0459, 40.6918 ], [ -4.0462, 40.6917 ] ], [ [ -4.0181, 40.6885 ], [ -4.0173, 40.6884 ], [ -4.0172, 40.6883 ], [ -4.0172, 40.6877 ], [ -4.0177, 40.6874 ], [ -4.0183, 40.6868 ], [ -4.0191, 40.6857 ], [ -4.0193, 40.6856 ], [ -4.0194, 40.6857 ], [ -4.0207, 40.6849 ], [ -4.0211, 40.6843 ], [ -4.0229, 40.6841 ], [ -4.0232, 40.6837 ], [ -4.0233, 40.6831 ], [ -4.0267, 40.6833 ], [ -4.0262, 40.6838 ], [ -4.0252, 40.6844 ], [ -4.0244, 40.6848 ], [ -4.0221, 40.6856 ], [ -4.0212, 40.6862 ], [ -4.0204, 40.6878 ], [ -4.0203, 40.6887 ], [ -4.0204, 40.6892 ], [ -4.0185, 40.6888 ], [ -4.0181, 40.6885 ] ], [ [ -4.0564, 40.6969 ], [ -4.0572, 40.6967 ], [ -4.0579, 40.6971 ], [ -4.0586, 40.6986 ], [ -4.0587, 40.6995 ], [ -4.0585, 40.7005 ], [ -4.0583, 40.7008 ], [ -4.0576, 40.701 ], [ -4.0571, 40.7015 ], [ -4.0571, 40.7018 ], [ -4.0569, 40.7021 ], [ -4.0561, 40.7023 ], [ -4.0555, 40.7021 ], [ -4.0544, 40.702 ], [ -4.0527, 40.7013 ], [ -4.0522, 40.7009 ], [ -4.0518, 40.7003 ], [ -4.0518, 40.7 ], [ -4.0522, 40.6993 ], [ -4.0526, 40.6989 ], [ -4.0529, 40.6987 ], [ -4.0548, 40.6981 ], [ -4.0564, 40.6969 ] ], [ [ -4.0379, 40.6871 ], [ -4.0386, 40.6855 ], [ -4.0389, 40.6852 ], [ -4.0393, 40.6844 ], [ -4.0399, 40.6839 ], [ -4.0407, 40.6827 ], [ -4.0408, 40.682 ], [ -4.0414, 40.6815 ], [ -4.0416, 40.6811 ], [ -4.0427, 40.6805 ], [ -4.0441, 40.6802 ], [ -4.0451, 40.6803 ], [ -4.0462, 40.6808 ], [ -4.0489, 40.6823 ], [ -4.0495, 40.684 ], [ -4.0495, 40.6856 ], [ -4.0498, 40.6863 ], [ -4.0497, 40.6869 ], [ -4.0494, 40.6875 ], [ -4.0486, 40.688 ], [ -4.048, 40.6886 ], [ -4.0472, 40.689 ], [ -4.047, 40.6898 ], [ -4.0497, 40.6899 ], [ -4.0506, 40.6896 ], [ -4.0511, 40.6899 ], [ -4.0503, 40.6905 ], [ -4.0503, 40.6911 ], [ -4.0508, 40.693 ], [ -4.0505, 40.693 ], [ -4.0481, 40.6922 ], [ -4.0478, 40.6919 ], [ -4.0463, 40.6916 ], [ -4.041, 40.6921 ], [ -4.0385, 40.6927 ], [ -4.0376, 40.6927 ], [ -4.0376, 40.6926 ], [ -4.0332, 40.6921 ], [ -4.0332, 40.692 ], [ -4.0331, 40.6921 ], [ -4.0324, 40.6919 ], [ -4.0294, 40.6916 ], [ -4.0281, 40.6916 ], [ -4.0267, 40.6919 ], [ -4.0261, 40.6919 ], [ -4.0256, 40.6921 ], [ -4.0246, 40.6921 ], [ -4.0233, 40.6918 ], [ -4.022, 40.6911 ], [ -4.0216, 40.6908 ], [ -4.0209, 40.6897 ], [ -4.0238, 40.6883 ], [ -4.0255, 40.6877 ], [ -4.027, 40.6874 ], [ -4.0295, 40.687 ], [ -4.0311, 40.6869 ], [ -4.0349, 40.6869 ], [ -4.0373, 40.6873 ], [ -4.0379, 40.6871 ] ] ] } },
{ "type": "Feature", "properties": { "municipio": "Collado Mediano", "clasificacion": "urbanizable-sectorizado", "calificacion": "sin-asignar", "version": "vigente", "fuente": "SIT-CAM WFS — UsoDelSuelo:VPLA_V_CLASIFICACION (https://idem.comunidad.madrid/geosrvg/ows)", "fecha_dato": "2026-05-12", "ambito": "11589", "_raw_CD_SIGLAS": "SUBS", "_raw_DS_CLASIF_GEN": "Suelo Apto Para Urbanizar", "_raw_DS_CLASIF_DET": "Suelo Apto para Urbanizar", "_raw_DS_DOCU": "NORMAS SUBSIDIARIAS", "_raw_DS_LEY": "CM Ley 4/1984, E RD 1346/1976", "_raw_FC_AC": "1990-06-07", "_raw_NM_AREA_M2": 43992.198611886401, "_cam_code": "046" }, "geometry": { "type": "Polygon", "coordinates": [ [ [ -4.0049, 40.7064 ], [ -4.0055, 40.7081 ], [ -4.0058, 40.7081 ], [ -4.0059, 40.7078 ], [ -4.0066, 40.7071 ], [ -4.0066, 40.7066 ], [ -4.0067, 40.7066 ], [ -4.0073, 40.7054 ], [ -4.0072, 40.705 ], [ -4.0069, 40.7047 ], [ -4.0063, 40.7045 ], [ -4.0056, 40.7045 ], [ -4.0057, 40.7054 ], [ -4.0055, 40.7055 ], [ -4.0055, 40.7063 ], [ -4.0049, 40.7064 ] ] ] } },
{ "type": "Feature", "properties": { "municipio": "Collado Mediano", "clasificacion": "urbanizable-sectorizado", "calificacion": "sin-asignar", "version": "vigente", "fuente": "SIT-CAM WFS — UsoDelSuelo:VPLA_V_CLASIFICACION (https://idem.comunidad.madrid/geosrvg/ows)", "fecha_dato": "2026-05-12", "ambito": "11589", "_raw_CD_SIGLAS": "SUBS", "_raw_DS_CLASIF_GEN": "Suelo Apto Para Urbanizar", "_raw_DS_CLASIF_DET": "Suelo Apto para Urbanizar", "_raw_DS_DOCU": "NORMAS SUBSIDIARIAS", "_raw_DS_LEY": "CM Ley 4/1984, E RD 1346/1976", "_raw_FC_AC": "1990-06-07", "_raw_NM_AREA_M2": 102320.30672130499, "_cam_code": "046" }, "geometry": { "type": "Polygon", "coordinates": [ [ [ -4.0145, 40.6978 ], [ -4.0155, 40.6988 ], [ -4.016, 40.6985 ], [ -4.0172, 40.6982 ], [ -4.0191, 40.698 ], [ -4.0206, 40.6974 ], [ -4.0205, 40.6972 ], [ -4.0209, 40.6971 ], [ -4.0211, 40.6966 ], [ -4.021, 40.6966 ], [ -4.0209, 40.6963 ], [ -4.0207, 40.6964 ], [ -4.0203, 40.6959 ], [ -4.0198, 40.6962 ], [ -4.0197, 40.6957 ], [ -4.0194, 40.6954 ], [ -4.019, 40.6957 ], [ -4.0144, 40.6975 ], [ -4.0145, 40.6978 ] ] ] } },
{ "type": "Feature", "properties": { "municipio": "Collado Mediano", "clasificacion": "urbanizable-sectorizado", "calificacion": "sin-asignar", "version": "vigente", "fuente": "SIT-CAM WFS — UsoDelSuelo:VPLA_V_CLASIFICACION (https://idem.comunidad.madrid/geosrvg/ows)", "fecha_dato": "2026-05-12", "ambito": "11589", "_raw_CD_SIGLAS": "SUBS", "_raw_DS_CLASIF_GEN": "Suelo Apto Para Urbanizar", "_raw_DS_CLASIF_DET": "Suelo Apto para Urbanizar", "_raw_DS_DOCU": "NORMAS SUBSIDIARIAS", "_raw_DS_LEY": "CM Ley 4/1984, E RD 1346/1976", "_raw_FC_AC": "1990-06-07", "_raw_NM_AREA_M2": 178617.91744246799, "_cam_code": "046" }, "geometry": { "type": "Polygon", "coordinates": [ [ [ -4.0378, 40.6949 ], [ -4.0379, 40.6955 ], [ -4.037, 40.6958 ], [ -4.0369, 40.6959 ], [ -4.037, 40.6962 ], [ -4.0374, 40.6959 ], [ -4.0408, 40.6948 ], [ -4.0454, 40.695 ], [ -4.0495, 40.6954 ], [ -4.0501, 40.6951 ], [ -4.0505, 40.6947 ], [ -4.0506, 40.6935 ], [ -4.0508, 40.6931 ], [ -4.0505, 40.6931 ], [ -4.0481, 40.6923 ], [ -4.0476, 40.6923 ], [ -4.0475, 40.6921 ], [ -4.047, 40.692 ], [ -4.0466, 40.6928 ], [ -4.0474, 40.6934 ], [ -4.0479, 40.694 ], [ -4.0482, 40.6946 ], [ -4.0479, 40.6947 ], [ -4.0474, 40.6939 ], [ -4.0468, 40.6933 ], [ -4.0463, 40.6931 ], [ -4.0461, 40.6937 ], [ -4.0464, 40.6938 ], [ -4.0464, 40.6944 ], [ -4.0439, 40.6942 ], [ -4.0438, 40.6937 ], [ -4.0428, 40.6938 ], [ -4.0413, 40.6937 ], [ -4.0398, 40.6939 ], [ -4.04, 40.6943 ], [ -4.0378, 40.6949 ] ] ] } },
{ "type": "Feature", "properties": { "municipio": "Collado Mediano", "clasificacion": "urbanizable-sectorizado", "calificacion": "sin-asignar", "version": "vigente", "fuente": "SIT-CAM WFS — UsoDelSuelo:VPLA_V_CLASIFICACION (https://idem.comunidad.madrid/geosrvg/ows)", "fecha_dato": "2026-05-12", "ambito": "11589", "_raw_CD_SIGLAS": "SUBS", "_raw_DS_CLASIF_GEN": "Suelo Apto Para Urbanizar", "_raw_DS_CLASIF_DET": "Suelo Apto para Urbanizar", "_raw_DS_DOCU": "NORMAS SUBSIDIARIAS", "_raw_DS_LEY": "CM Ley 4/1984, E RD 1346/1976", "_raw_FC_AC": "1990-06-07", "_raw_NM_AREA_M2": 71526.708993569802, "_cam_code": "046" }, "geometry": { "type": "Polygon", "coordinates": [ [ [ -4.0149, 40.6942 ], [ -4.0141, 40.6949 ], [ -4.0139, 40.6953 ], [ -4.0138, 40.696 ], [ -4.0141, 40.697 ], [ -4.0144, 40.6974 ], [ -4.017, 40.6964 ], [ -4.0168, 40.6947 ], [ -4.0166, 40.6947 ], [ -4.0166, 40.6944 ], [ -4.016, 40.6939 ], [ -4.0155, 40.6942 ], [ -4.0149, 40.6942 ] ] ] } },
{ "type": "Feature", "properties": { "municipio": "Collado Mediano", "clasificacion": "urbanizable-sectorizado", "calificacion": "sin-asignar", "version": "vigente", "fuente": "SIT-CAM WFS — UsoDelSuelo:VPLA_V_CLASIFICACION (https://idem.comunidad.madrid/geosrvg/ows)", "fecha_dato": "2026-05-12", "ambito": "11589", "_raw_CD_SIGLAS": "SUBS", "_raw_DS_CLASIF_GEN": "Suelo Apto Para Urbanizar", "_raw_DS_CLASIF_DET": "Suelo Apto para Urbanizar", "_raw_DS_DOCU": "NORMAS SUBSIDIARIAS", "_raw_DS_LEY": "CM Ley 4/1984, E RD 1346/1976", "_raw_FC_AC": "1990-06-07", "_raw_NM_AREA_M2": 115663.62258338, "_cam_code": "046" }, "geometry": { "type": "Polygon", "coordinates": [ [ [ -4.0229, 40.6933 ], [ -4.0227, 40.6935 ], [ -4.0229, 40.6936 ], [ -4.0239, 40.6933 ], [ -4.0238, 40.6923 ], [ -4.0235, 40.6921 ], [ -4.0237, 40.6921 ], [ -4.0229, 40.6919 ], [ -4.022, 40.6914 ], [ -4.0208, 40.6903 ], [ -4.0206, 40.6899 ], [ -4.0173, 40.6919 ], [ -4.0172, 40.6923 ], [ -4.0174, 40.6927 ], [ -4.0177, 40.6928 ], [ -4.0193, 40.6929 ], [ -4.0193, 40.6926 ], [ -4.0197, 40.6925 ], [ -4.0197, 40.6929 ], [ -4.0203, 40.6929 ], [ -4.0217, 40.6932 ], [ -4.0218, 40.693 ], [ -4.0229, 40.6933 ] ] ] } },
{ "type": "Feature", "properties": { "municipio": "Collado Mediano", "clasificacion": "urbanizable-sectorizado", "calificacion": "sin-asignar", "version": "vigente", "fuente": "SIT-CAM WFS — UsoDelSuelo:VPLA_V_CLASIFICACION (https://idem.comunidad.madrid/geosrvg/ows)", "fecha_dato": "2026-05-12", "ambito": "11589", "_raw_CD_SIGLAS": "SUBS", "_raw_DS_CLASIF_GEN": "Suelo Apto Para Urbanizar", "_raw_DS_CLASIF_DET": "Suelo Apto para Urbanizar", "_raw_DS_DOCU": "NORMAS SUBSIDIARIAS", "_raw_DS_LEY": "CM Ley 4/1984, E RD 1346/1976", "_raw_FC_AC": "1990-06-07", "_raw_NM_AREA_M2": 67069.958950847795, "_cam_code": "046" }, "geometry": { "type": "Polygon", "coordinates": [ [ [ -4.0494, 40.6904 ], [ -4.0487, 40.6907 ], [ -4.0485, 40.691 ], [ -4.0481, 40.6912 ], [ -4.0481, 40.6916 ], [ -4.0478, 40.692 ], [ -4.0496, 40.6927 ], [ -4.0508, 40.693 ], [ -4.0503, 40.6911 ], [ -4.0503, 40.6905 ], [ -4.0511, 40.6899 ], [ -4.0506, 40.6896 ], [ -4.0497, 40.6899 ], [ -4.047, 40.6898 ], [ -4.0472, 40.6908 ], [ -4.0492, 40.6903 ], [ -4.0494, 40.6904 ] ] ] } },
{ "type": "Feature", "properties": { "municipio": "Collado Mediano", "clasificacion": "urbanizable-sectorizado", "calificacion": "sin-asignar", "version": "vigente", "fuente": "SIT-CAM WFS — UsoDelSuelo:VPLA_V_CLASIFICACION (https://idem.comunidad.madrid/geosrvg/ows)", "fecha_dato": "2026-05-12", "ambito": "11589", "_raw_CD_SIGLAS": "SUBS", "_raw_DS_CLASIF_GEN": "Suelo Apto Para Urbanizar", "_raw_DS_CLASIF_DET": "Suelo Apto para Urbanizar", "_raw_DS_DOCU": "NORMAS SUBSIDIARIAS", "_raw_DS_LEY": "CM Ley 4/1984, E RD 1346/1976", "_raw_FC_AC": "1990-06-07", "_raw_NM_AREA_M2": 303081.57251870102, "_cam_code": "046" }, "geometry": { "type": "Polygon", "coordinates": [ [ [ -4.0238, 40.6883 ], [ -4.0209, 40.6897 ], [ -4.0211, 40.6901 ], [ -4.0216, 40.6908 ], [ -4.022, 40.6911 ], [ -4.0233, 40.6918 ], [ -4.0248, 40.6921 ], [ -4.0248, 40.6918 ], [ -4.0251, 40.6917 ], [ -4.0248, 40.6905 ], [ -4.0259, 40.6899 ], [ -4.0282, 40.6892 ], [ -4.029, 40.6892 ], [ -4.0294, 40.6894 ], [ -4.0297, 40.6893 ], [ -4.0297, 40.6889 ], [ -4.0296, 40.6889 ], [ -4.0297, 40.6888 ], [ -4.0311, 40.689 ], [ -4.032, 40.6893 ], [ -4.0322, 40.6892 ], [ -4.0334, 40.6894 ], [ -4.0346, 40.6875 ], [ -4.036, 40.6876 ], [ -4.0373, 40.6873 ], [ -4.0349, 40.6869 ], [ -4.0295, 40.687 ], [ -4.0255, 40.6877 ], [ -4.0238, 40.6883 ] ] ] } },
{ "type": "Feature", "properties": { "municipio": "Collado Mediano", "clasificacion": "urbanizable-sectorizado", "calificacion": "sin-asignar", "version": "vigente", "fuente": "SIT-CAM WFS — UsoDelSuelo:VPLA_V_CLASIFICACION (https://idem.comunidad.madrid/geosrvg/ows)", "fecha_dato": "2026-05-12", "ambito": "11589", "_raw_CD_SIGLAS": "SUBS", "_raw_DS_CLASIF_GEN": "Suelo Apto Para Urbanizar", "_raw_DS_CLASIF_DET": "Suelo Apto para Urbanizar", "_raw_DS_DOCU": "NORMAS SUBSIDIARIAS", "_raw_DS_LEY": "CM Ley 4/1984, E RD 1346/1976", "_raw_FC_AC": "1990-06-07", "_raw_NM_AREA_M2": 90558.534278954394, "_cam_code": "046" }, "geometry": { "type": "Polygon", "coordinates": [ [ [ -4.0196, 40.6863 ], [ -4.0198, 40.6865 ], [ -4.0204, 40.6865 ], [ -4.0208, 40.6863 ], [ -4.0211, 40.6864 ], [ -4.0212, 40.6862 ], [ -4.0221, 40.6856 ], [ -4.0244, 40.6848 ], [ -4.0252, 40.6844 ], [ -4.0262, 40.6838 ], [ -4.0267, 40.6833 ], [ -4.0233, 40.6831 ], [ -4.0232, 40.6837 ], [ -4.0229, 40.6841 ], [ -4.0211, 40.6843 ], [ -4.0207, 40.6849 ], [ -4.0196, 40.6855 ], [ -4.0194, 40.6857 ], [ -4.0196, 40.6863 ] ] ] } }
]
}
