{
"type": "FeatureCollection",
"name": "vigente.full",
"features": [
{ "type": "Feature", "properties": { "municipio": "Velilla de San Antonio", "clasificacion": "no-urbanizable-protegido", "calificacion": "sin-asignar", "version": "vigente", "fuente": "SIT-CAM WFS — UsoDelSuelo:VPLA_V_CLASIFICACION (https://idem.comunidad.madrid/geosrvg/ows)", "fecha_dato": "2026-05-12", "ambito": "27488", "_raw_CD_SIGLAS": "SNUP", "_raw_DS_CLASIF_GEN": "Suelo No Urbanizable Protegido", "_raw_DS_CLASIF_DET": "Suelo No Urbanizable Especialmente Protegido", "_raw_DS_DOCU": "PLAN GENERAL", "_raw_DS_LEY": "CM Ley 4/1984, E RDL 1/1992", "_raw_FC_AC": "1995-05-24", "_raw_NM_AREA_M2": 3091364.9917840599, "_cam_code": "167" }, "geometry": { "type": "Polygon", "coordinates": [ [ [ -3.4927, 40.3774 ], [ -3.4928, 40.3783 ], [ -3.4932, 40.3783 ], [ -3.4934, 40.3782 ], [ -3.4965, 40.378 ], [ -3.5003, 40.378 ], [ -3.5002, 40.3771 ], [ -3.5024, 40.3764 ], [ -3.5035, 40.3751 ], [ -3.5039, 40.3748 ], [ -3.5044, 40.3737 ], [ -3.5056, 40.3728 ], [ -3.5067, 40.3725 ], [ -3.5067, 40.3724 ], [ -3.5067, 40.3725 ], [ -3.5095, 40.3727 ], [ -3.5106, 40.3726 ], [ -3.5117, 40.3714 ], [ -3.512, 40.371 ], [ -3.5119, 40.37 ], [ -3.5111, 40.3685 ], [ -3.5101, 40.3672 ], [ -3.5098, 40.3666 ], [ -3.5097, 40.3666 ], [ -3.5086, 40.3646 ], [ -3.5076, 40.3617 ], [ -3.5069, 40.3602 ], [ -3.506, 40.3591 ], [ -3.5049, 40.3584 ], [ -3.5041, 40.3582 ], [ -3.5026, 40.3583 ], [ -3.5013, 40.359 ], [ -3.5002, 40.3599 ], [ -3.4985, 40.3628 ], [ -3.4982, 40.3631 ], [ -3.4977, 40.3633 ], [ -3.4977, 40.3634 ], [ -3.4969, 40.3636 ], [ -3.495, 40.3636 ], [ -3.4935, 40.3631 ], [ -3.4914, 40.3618 ], [ -3.4905, 40.3615 ], [ -3.488, 40.3614 ], [ -3.4856, 40.3617 ], [ -3.4844, 40.3615 ], [ -3.4838, 40.3609 ], [ -3.4833, 40.3601 ], [ -3.4832, 40.3597 ], [ -3.4845, 40.3531 ], [ -3.4845, 40.3512 ], [ -3.4843, 40.3507 ], [ -3.4834, 40.35 ], [ -3.4827, 40.3498 ], [ -3.482, 40.3498 ], [ -3.4789, 40.3505 ], [ -3.4781, 40.3504 ], [ -3.4774, 40.35 ], [ -3.4767, 40.3487 ], [ -3.476, 40.3463 ], [ -3.475, 40.3436 ], [ -3.4743, 40.3423 ], [ -3.4722, 40.3394 ], [ -3.4716, 40.3381 ], [ -3.4701, 40.3387 ], [ -3.4704, 40.3395 ], [ -3.4724, 40.3416 ], [ -3.476, 40.3489 ], [ -3.4765, 40.349 ], [ -3.4765, 40.3492 ], [ -3.4766, 40.3492 ], [ -3.4763, 40.3495 ], [ -3.4765, 40.3498 ], [ -3.4763, 40.3499 ], [ -3.4787, 40.3551 ], [ -3.4789, 40.3551 ], [ -3.4789, 40.3552 ], [ -3.4793, 40.3553 ], [ -3.4795, 40.3555 ], [ -3.4795, 40.3557 ], [ -3.4793, 40.3558 ], [ -3.4793, 40.356 ], [ -3.4794, 40.356 ], [ -3.4793, 40.3562 ], [ -3.4804, 40.3586 ], [ -3.4807, 40.359 ], [ -3.4815, 40.3613 ], [ -3.482, 40.3612 ], [ -3.4829, 40.3613 ], [ -3.4837, 40.3621 ], [ -3.4843, 40.3625 ], [ -3.4844, 40.3628 ], [ -3.4853, 40.3631 ], [ -3.4866, 40.3632 ], [ -3.4869, 40.3631 ], [ -3.487, 40.363 ], [ -3.487, 40.363 ], [ -3.487, 40.363 ], [ -3.4871, 40.363 ], [ -3.4872, 40.363 ], [ -3.4873, 40.363 ], [ -3.4874, 40.363 ], [ -3.4874, 40.363 ], [ -3.4875, 40.363 ], [ -3.4875, 40.3631 ], [ -3.4876, 40.3632 ], [ -3.4902, 40.3642 ], [ -3.4907, 40.3641 ], [ -3.4921, 40.3634 ], [ -3.4926, 40.3637 ], [ -3.4939, 40.3641 ], [ -3.4943, 40.3641 ], [ -3.4949, 40.3644 ], [ -3.4971, 40.3644 ], [ -3.4986, 40.3656 ], [ -3.4971, 40.3667 ], [ -3.4957, 40.3672 ], [ -3.495, 40.3677 ], [ -3.4933, 40.3683 ], [ -3.4915, 40.3684 ], [ -3.4913, 40.3688 ], [ -3.4914, 40.3688 ], [ -3.4913, 40.3692 ], [ -3.4916, 40.3699 ], [ -3.4919, 40.3723 ], [ -3.492, 40.3725 ], [ -3.4926, 40.3725 ], [ -3.4928, 40.3742 ], [ -3.4922, 40.3742 ], [ -3.4927, 40.3774 ] ], [ [ -3.4875, 40.3621 ], [ -3.4876, 40.3621 ], [ -3.4876, 40.363 ], [ -3.4869, 40.363 ], [ -3.4856, 40.363 ], [ -3.4848, 40.3628 ], [ -3.4845, 40.3626 ], [ -3.4854, 40.3621 ], [ -3.4875, 40.3621 ] ] ] } },
{ "type": "Feature", "properties": { "municipio": "Velilla de San Antonio", "clasificacion": "no-urbanizable-protegido", "calificacion": "sin-asignar", "version": "vigente", "fuente": "SIT-CAM WFS — UsoDelSuelo:VPLA_V_CLASIFICACION (https://idem.comunidad.madrid/geosrvg/ows)", "fecha_dato": "2026-05-12", "ambito": "27488", "_raw_CD_SIGLAS": "SNUP", "_raw_DS_CLASIF_GEN": "Suelo No Urbanizable Protegido", "_raw_DS_CLASIF_DET": "Suelo No Urbanizable Especialmente Protegido", "_raw_DS_DOCU": "PLAN GENERAL", "_raw_DS_LEY": "CM Ley 4/1984, E RDL 1/1992", "_raw_FC_AC": "1995-05-24", "_raw_NM_AREA_M2": 255320.15014978501, "_cam_code": "167" }, "geometry": { "type": "Polygon", "coordinates": [ [ [ -3.4685, 40.3756 ], [ -3.4679, 40.3768 ], [ -3.4679, 40.3772 ], [ -3.4689, 40.3776 ], [ -3.4696, 40.3767 ], [ -3.4693, 40.3765 ], [ -3.4693, 40.3762 ], [ -3.4695, 40.376 ], [ -3.4699, 40.376 ], [ -3.4714, 40.3745 ], [ -3.473, 40.3736 ], [ -3.4748, 40.3729 ], [ -3.4751, 40.3729 ], [ -3.4749, 40.3726 ], [ -3.475, 40.3724 ], [ -3.4756, 40.3724 ], [ -3.4759, 40.3726 ], [ -3.4763, 40.3724 ], [ -3.4786, 40.372 ], [ -3.4791, 40.3718 ], [ -3.4794, 40.3715 ], [ -3.4794, 40.3713 ], [ -3.4798, 40.3711 ], [ -3.48, 40.3705 ], [ -3.4809, 40.3689 ], [ -3.4813, 40.3678 ], [ -3.4818, 40.3661 ], [ -3.4819, 40.364 ], [ -3.4818, 40.364 ], [ -3.4817, 40.3648 ], [ -3.4805, 40.3659 ], [ -3.4803, 40.3663 ], [ -3.4798, 40.3667 ], [ -3.4792, 40.3675 ], [ -3.4791, 40.3687 ], [ -3.4794, 40.3694 ], [ -3.4795, 40.3694 ], [ -3.4795, 40.3696 ], [ -3.4796, 40.3696 ], [ -3.4796, 40.3698 ], [ -3.4792, 40.3703 ], [ -3.4782, 40.3706 ], [ -3.4772, 40.3706 ], [ -3.477, 40.3707 ], [ -3.4761, 40.3706 ], [ -3.4752, 40.3708 ], [ -3.4746, 40.3711 ], [ -3.4737, 40.3722 ], [ -3.4734, 40.3722 ], [ -3.4717, 40.3731 ], [ -3.4713, 40.3732 ], [ -3.4708, 40.3735 ], [ -3.4707, 40.3737 ], [ -3.4701, 40.3739 ], [ -3.4697, 40.3742 ], [ -3.4692, 40.3743 ], [ -3.4685, 40.3751 ], [ -3.4685, 40.3756 ] ] ] } },
{ "type": "Feature", "properties": { "municipio": "Velilla de San Antonio", "clasificacion": "urbano-consolidado", "calificacion": "sin-asignar", "version": "vigente", "fuente": "SIT-CAM WFS — UsoDelSuelo:VPLA_V_CLASIFICACION (https://idem.comunidad.madrid/geosrvg/ows)", "fecha_dato": "2026-05-12", "ambito": "27488", "_raw_CD_SIGLAS": "SU", "_raw_DS_CLASIF_GEN": "Suelo Urbano", "_raw_DS_CLASIF_DET": "Suelo Urbano", "_raw_DS_DOCU": "PLAN GENERAL", "_raw_DS_LEY": "CM Ley 4/1984, E RDL 1/1992", "_raw_FC_AC": "1995-05-24", "_raw_NM_AREA_M2": 998781.12619403505, "_cam_code": "167" }, "geometry": { "type": "Polygon", "coordinates": [ [ [ -3.4818, 40.3752 ], [ -3.484, 40.376 ], [ -3.4843, 40.3754 ], [ -3.4882, 40.3747 ], [ -3.4884, 40.3747 ], [ -3.4886, 40.3752 ], [ -3.4908, 40.3744 ], [ -3.491, 40.3739 ], [ -3.491, 40.3728 ], [ -3.4908, 40.3723 ], [ -3.4905, 40.3703 ], [ -3.4898, 40.3683 ], [ -3.4898, 40.368 ], [ -3.4901, 40.3682 ], [ -3.491, 40.3682 ], [ -3.4918, 40.368 ], [ -3.4932, 40.368 ], [ -3.4933, 40.3682 ], [ -3.4936, 40.3682 ], [ -3.495, 40.3677 ], [ -3.4957, 40.3672 ], [ -3.495, 40.3664 ], [ -3.4942, 40.3659 ], [ -3.4935, 40.3657 ], [ -3.4926, 40.3652 ], [ -3.4878, 40.3632 ], [ -3.4876, 40.3632 ], [ -3.488, 40.3639 ], [ -3.487, 40.3643 ], [ -3.4874, 40.365 ], [ -3.4866, 40.3651 ], [ -3.4851, 40.3659 ], [ -3.4844, 40.365 ], [ -3.4843, 40.3647 ], [ -3.4841, 40.3648 ], [ -3.4818, 40.3664 ], [ -3.4814, 40.3679 ], [ -3.48, 40.3709 ], [ -3.48, 40.3712 ], [ -3.4802, 40.3714 ], [ -3.481, 40.3709 ], [ -3.4813, 40.3705 ], [ -3.4817, 40.3711 ], [ -3.482, 40.3712 ], [ -3.4821, 40.3714 ], [ -3.4837, 40.3705 ], [ -3.4845, 40.3713 ], [ -3.4833, 40.3719 ], [ -3.4826, 40.3724 ], [ -3.4824, 40.3724 ], [ -3.4814, 40.373 ], [ -3.4802, 40.3735 ], [ -3.4807, 40.3743 ], [ -3.4818, 40.3752 ] ] ] } },
{ "type": "Feature", "properties": { "municipio": "Velilla de San Antonio", "clasificacion": "urbano-consolidado", "calificacion": "sin-asignar", "version": "vigente", "fuente": "SIT-CAM WFS — UsoDelSuelo:VPLA_V_CLASIFICACION (https://idem.comunidad.madrid/geosrvg/ows)", "fecha_dato": "2026-05-12", "ambito": "27488", "_raw_CD_SIGLAS": "SU", "_raw_DS_CLASIF_GEN": "Suelo Urbano", "_raw_DS_CLASIF_DET": "Suelo Urbano", "_raw_DS_DOCU": "PLAN GENERAL", "_raw_DS_LEY": "CM Ley 4/1984, E RDL 1/1992", "_raw_FC_AC": "1995-05-24", "_raw_NM_AREA_M2": 115048.732199997, "_cam_code": "167" }, "geometry": { "type": "Polygon", "coordinates": [ [ [ -3.4759, 40.3486 ], [ -3.4731, 40.3493 ], [ -3.4749, 40.3533 ], [ -3.4775, 40.3526 ], [ -3.4763, 40.3499 ], [ -3.4765, 40.3498 ], [ -3.4763, 40.3495 ], [ -3.4766, 40.3492 ], [ -3.4765, 40.3492 ], [ -3.4765, 40.349 ], [ -3.476, 40.3489 ], [ -3.4759, 40.3486 ] ] ] } },
{ "type": "Feature", "properties": { "municipio": "Velilla de San Antonio", "clasificacion": "urbano-consolidado", "calificacion": "sin-asignar", "version": "vigente", "fuente": "SIT-CAM WFS — UsoDelSuelo:VPLA_V_CLASIFICACION (https://idem.comunidad.madrid/geosrvg/ows)", "fecha_dato": "2026-05-12", "ambito": "27488", "_raw_CD_SIGLAS": "SU", "_raw_DS_CLASIF_GEN": "Suelo Urbano", "_raw_DS_CLASIF_DET": "Suelo Urbano", "_raw_DS_DOCU": "PLAN GENERAL", "_raw_DS_LEY": "CM Ley 4/1984, E RDL 1/1992", "_raw_FC_AC": "1995-05-24", "_raw_NM_AREA_M2": 216041.962432534, "_cam_code": "167" }, "geometry": { "type": "Polygon", "coordinates": [ [ [ -3.4761, 40.3584 ], [ -3.4773, 40.361 ], [ -3.481, 40.3599 ], [ -3.4807, 40.359 ], [ -3.4804, 40.3586 ], [ -3.4793, 40.3562 ], [ -3.4794, 40.3561 ], [ -3.4793, 40.3558 ], [ -3.4795, 40.3557 ], [ -3.4795, 40.3555 ], [ -3.4793, 40.3553 ], [ -3.4787, 40.3551 ], [ -3.4788, 40.3553 ], [ -3.4783, 40.3555 ], [ -3.4782, 40.3557 ], [ -3.4776, 40.3559 ], [ -3.4774, 40.3558 ], [ -3.4772, 40.356 ], [ -3.4757, 40.3563 ], [ -3.4742, 40.3568 ], [ -3.4737, 40.3567 ], [ -3.4734, 40.3569 ], [ -3.4733, 40.3572 ], [ -3.4735, 40.3574 ], [ -3.4739, 40.3574 ], [ -3.4745, 40.3588 ], [ -3.4761, 40.3584 ] ] ] } },
{ "type": "Feature", "properties": { "municipio": "Velilla de San Antonio", "clasificacion": "urbanizable-no-sectorizado", "calificacion": "sin-asignar", "version": "vigente", "fuente": "SIT-CAM WFS — UsoDelSuelo:VPLA_V_CLASIFICACION (https://idem.comunidad.madrid/geosrvg/ows)", "fecha_dato": "2026-05-12", "ambito": "27488", "_raw_CD_SIGLAS": "SUBNS", "_raw_DS_CLASIF_GEN": "Suelo Urbanizable No Programado", "_raw_DS_CLASIF_DET": "Suelo Urbanizable No Programado", "_raw_DS_DOCU": "PLAN GENERAL", "_raw_DS_LEY": "CM Ley 4/1984, E RDL 1/1992", "_raw_FC_AC": "1995-05-24", "_raw_NM_AREA_M2": 449352.35718750098, "_cam_code": "167" }, "geometry": { "type": "Polygon", "coordinates": [ [ [ -3.4759, 40.3791 ], [ -3.4778, 40.3795 ], [ -3.4782, 40.3801 ], [ -3.4787, 40.3805 ], [ -3.4846, 40.3789 ], [ -3.4889, 40.3781 ], [ -3.4894, 40.3781 ], [ -3.4894, 40.378 ], [ -3.489, 40.3775 ], [ -3.4878, 40.3769 ], [ -3.484, 40.376 ], [ -3.4818, 40.3752 ], [ -3.4807, 40.3743 ], [ -3.4802, 40.3735 ], [ -3.4797, 40.3738 ], [ -3.4765, 40.375 ], [ -3.4765, 40.3752 ], [ -3.477, 40.3751 ], [ -3.477, 40.3785 ], [ -3.4776, 40.3792 ], [ -3.4761, 40.3789 ], [ -3.4734, 40.378 ], [ -3.4702, 40.3764 ], [ -3.4702, 40.3762 ], [ -3.47, 40.376 ], [ -3.4695, 40.376 ], [ -3.4693, 40.3762 ], [ -3.4694, 40.3766 ], [ -3.4696, 40.3767 ], [ -3.47, 40.3767 ], [ -3.47, 40.3766 ], [ -3.4733, 40.3782 ], [ -3.4759, 40.3791 ] ] ] } },
{ "type": "Feature", "properties": { "municipio": "Velilla de San Antonio", "clasificacion": "urbanizable-no-sectorizado", "calificacion": "sin-asignar", "version": "vigente", "fuente": "SIT-CAM WFS — UsoDelSuelo:VPLA_V_CLASIFICACION (https://idem.comunidad.madrid/geosrvg/ows)", "fecha_dato": "2026-05-12", "ambito": "27488", "_raw_CD_SIGLAS": "SUBNS", "_raw_DS_CLASIF_GEN": "Suelo Urbanizable No Programado", "_raw_DS_CLASIF_DET": "Suelo Urbanizable No Programado", "_raw_DS_DOCU": "PLAN GENERAL", "_raw_DS_LEY": "CM Ley 4/1984, E RDL 1/1992", "_raw_FC_AC": "1995-05-24", "_raw_NM_AREA_M2": 262688.91637992801, "_cam_code": "167" }, "geometry": { "type": "Polygon", "coordinates": [ [ [ -3.4711, 40.3566 ], [ -3.4738, 40.3619 ], [ -3.4773, 40.361 ], [ -3.4761, 40.3584 ], [ -3.4745, 40.3588 ], [ -3.4739, 40.3574 ], [ -3.4735, 40.3574 ], [ -3.4733, 40.3572 ], [ -3.4734, 40.3569 ], [ -3.4737, 40.3567 ], [ -3.4742, 40.3568 ], [ -3.4757, 40.3563 ], [ -3.4772, 40.356 ], [ -3.4774, 40.3558 ], [ -3.4776, 40.3559 ], [ -3.4782, 40.3557 ], [ -3.4783, 40.3555 ], [ -3.4788, 40.3553 ], [ -3.4775, 40.3526 ], [ -3.4749, 40.3533 ], [ -3.4758, 40.3553 ], [ -3.4711, 40.3566 ] ] ] } },
{ "type": "Feature", "properties": { "municipio": "Velilla de San Antonio", "clasificacion": "urbanizable-no-sectorizado", "calificacion": "sin-asignar", "version": "vigente", "fuente": "SIT-CAM WFS — UsoDelSuelo:VPLA_V_CLASIFICACION (https://idem.comunidad.madrid/geosrvg/ows)", "fecha_dato": "2026-05-12", "ambito": "27488", "_raw_CD_SIGLAS": "SUBNS", "_raw_DS_CLASIF_GEN": "Suelo No Urbanizable Común", "_raw_DS_CLASIF_DET": "Suelo No Urbanizable Común", "_raw_DS_DOCU": "PLAN GENERAL", "_raw_DS_LEY": "CM Ley 4/1984, E RDL 1/1992", "_raw_FC_AC": "1995-05-24", "_raw_NM_AREA_M2": 7940838.8830908202, "_cam_code": "167" }, "geometry": { "type": "Polygon", "coordinates": [ [ [ -3.4632, 40.387 ], [ -3.4658, 40.3885 ], [ -3.4651, 40.3871 ], [ -3.4651, 40.3869 ], [ -3.4659, 40.3866 ], [ -3.4664, 40.3871 ], [ -3.4696, 40.3847 ], [ -3.4703, 40.3844 ], [ -3.4706, 40.3841 ], [ -3.4737, 40.3824 ], [ -3.4742, 40.382 ], [ -3.4786, 40.3805 ], [ -3.4778, 40.3795 ], [ -3.4759, 40.3791 ], [ -3.4733, 40.3782 ], [ -3.47, 40.3766 ], [ -3.47, 40.3767 ], [ -3.4696, 40.3767 ], [ -3.4689, 40.3776 ], [ -3.4679, 40.3772 ], [ -3.4679, 40.3768 ], [ -3.4681, 40.3762 ], [ -3.4685, 40.3756 ], [ -3.4685, 40.3751 ], [ -3.4692, 40.3743 ], [ -3.4695, 40.3743 ], [ -3.4705, 40.3737 ], [ -3.4707, 40.3737 ], [ -3.4708, 40.3735 ], [ -3.4713, 40.3732 ], [ -3.4717, 40.3731 ], [ -3.4734, 40.3722 ], [ -3.4737, 40.3722 ], [ -3.4746, 40.3711 ], [ -3.4752, 40.3708 ], [ -3.4761, 40.3706 ], [ -3.4764, 40.3707 ], [ -3.4782, 40.3706 ], [ -3.4792, 40.3703 ], [ -3.4796, 40.3698 ], [ -3.4796, 40.3696 ], [ -3.4795, 40.3696 ], [ -3.4795, 40.3694 ], [ -3.4794, 40.3694 ], [ -3.4791, 40.3687 ], [ -3.4792, 40.3675 ], [ -3.4798, 40.3667 ], [ -3.4803, 40.3663 ], [ -3.4805, 40.3659 ], [ -3.4817, 40.3648 ], [ -3.4818, 40.364 ], [ -3.4819, 40.364 ], [ -3.4818, 40.3661 ], [ -3.4809, 40.3689 ], [ -3.4798, 40.371 ], [ -3.48, 40.371 ], [ -3.4804, 40.3699 ], [ -3.481, 40.3689 ], [ -3.4817, 40.367 ], [ -3.4821, 40.3641 ], [ -3.4824, 40.3639 ], [ -3.4824, 40.3637 ], [ -3.483, 40.3637 ], [ -3.4835, 40.3634 ], [ -3.4836, 40.3631 ], [ -3.4841, 40.3628 ], [ -3.4843, 40.3625 ], [ -3.4837, 40.3621 ], [ -3.4829, 40.3613 ], [ -3.4825, 40.3612 ], [ -3.4815, 40.3613 ], [ -3.4814, 40.3609 ], [ -3.481, 40.3611 ], [ -3.4744, 40.3629 ], [ -3.4738, 40.3619 ], [ -3.4711, 40.3566 ], [ -3.4758, 40.3553 ], [ -3.4731, 40.3493 ], [ -3.4759, 40.3486 ], [ -3.4724, 40.3416 ], [ -3.4704, 40.3395 ], [ -3.4701, 40.3387 ], [ -3.4671, 40.3399 ], [ -3.461, 40.3419 ], [ -3.4568, 40.3428 ], [ -3.4535, 40.3433 ], [ -3.4532, 40.3495 ], [ -3.4531, 40.3496 ], [ -3.4529, 40.3528 ], [ -3.4513, 40.3549 ], [ -3.4513, 40.3555 ], [ -3.4516, 40.3568 ], [ -3.4515, 40.357 ], [ -3.4515, 40.3579 ], [ -3.4532, 40.3602 ], [ -3.4548, 40.3618 ], [ -3.4553, 40.3647 ], [ -3.4558, 40.3666 ], [ -3.457, 40.3697 ], [ -3.4585, 40.373 ], [ -3.4591, 40.3753 ], [ -3.4591, 40.3772 ], [ -3.4593, 40.3789 ], [ -3.4596, 40.3802 ], [ -3.4614, 40.3811 ], [ -3.4642, 40.3834 ], [ -3.4623, 40.385 ], [ -3.4632, 40.387 ] ], [ [ -3.4831, 40.3625 ], [ -3.4831, 40.3629 ], [ -3.4825, 40.3631 ], [ -3.482, 40.3624 ], [ -3.4828, 40.3621 ], [ -3.4831, 40.3625 ] ] ] } },
{ "type": "Feature", "properties": { "municipio": "Velilla de San Antonio", "clasificacion": "urbanizable-no-sectorizado", "calificacion": "sin-asignar", "version": "vigente", "fuente": "SIT-CAM WFS — UsoDelSuelo:VPLA_V_CLASIFICACION (https://idem.comunidad.madrid/geosrvg/ows)", "fecha_dato": "2026-05-12", "ambito": "27488", "_raw_CD_SIGLAS": "SUBNS", "_raw_DS_CLASIF_GEN": "Suelo No Urbanizable Común", "_raw_DS_CLASIF_DET": "Suelo No Urbanizable Común", "_raw_DS_DOCU": "PLAN GENERAL", "_raw_DS_LEY": "CM Ley 4/1984, E RDL 1/1992", "_raw_FC_AC": "1995-05-24", "_raw_NM_AREA_M2": 251501.26608737101, "_cam_code": "167" }, "geometry": { "type": "Polygon", "coordinates": [ [ [ -3.4714, 40.3745 ], [ -3.4699, 40.376 ], [ -3.4702, 40.3762 ], [ -3.4702, 40.3764 ], [ -3.4734, 40.378 ], [ -3.4761, 40.3789 ], [ -3.4776, 40.3792 ], [ -3.477, 40.3785 ], [ -3.477, 40.3751 ], [ -3.4765, 40.3752 ], [ -3.4765, 40.375 ], [ -3.476, 40.3741 ], [ -3.4756, 40.3742 ], [ -3.4752, 40.3737 ], [ -3.4749, 40.373 ], [ -3.4766, 40.3724 ], [ -3.4768, 40.3724 ], [ -3.4779, 40.3721 ], [ -3.4784, 40.3721 ], [ -3.479, 40.3719 ], [ -3.479, 40.3718 ], [ -3.4791, 40.3718 ], [ -3.4793, 40.3718 ], [ -3.4795, 40.3716 ], [ -3.4794, 40.3715 ], [ -3.4791, 40.3718 ], [ -3.479, 40.3718 ], [ -3.4788, 40.3719 ], [ -3.4787, 40.3719 ], [ -3.4786, 40.372 ], [ -3.4782, 40.372 ], [ -3.4763, 40.3724 ], [ -3.4759, 40.3726 ], [ -3.4756, 40.3724 ], [ -3.475, 40.3724 ], [ -3.4749, 40.3726 ], [ -3.4751, 40.3729 ], [ -3.4748, 40.3729 ], [ -3.473, 40.3736 ], [ -3.4714, 40.3745 ] ] ] } },
{ "type": "Feature", "properties": { "municipio": "Velilla de San Antonio", "clasificacion": "urbanizable-sectorizado", "calificacion": "sin-asignar", "version": "vigente", "fuente": "SIT-CAM WFS — UsoDelSuelo:VPLA_V_CLASIFICACION (https://idem.comunidad.madrid/geosrvg/ows)", "fecha_dato": "2026-05-12", "ambito": "27488", "_raw_CD_SIGLAS": "SUBS", "_raw_DS_CLASIF_GEN": "Suelo Urbanizable Programado", "_raw_DS_CLASIF_DET": "Suelo Urbanizable Programado", "_raw_DS_DOCU": "PLAN GENERAL", "_raw_DS_LEY": "CM Ley 4/1984, E RDL 1/1992", "_raw_FC_AC": "1995-05-24", "_raw_NM_AREA_M2": 24223.228537386, "_cam_code": "167" }, "geometry": { "type": "Polygon", "coordinates": [ [ [ -3.4854, 40.3621 ], [ -3.4845, 40.3626 ], [ -3.4848, 40.3628 ], [ -3.4856, 40.363 ], [ -3.4876, 40.363 ], [ -3.4876, 40.3621 ], [ -3.4854, 40.3621 ] ] ] } },
{ "type": "Feature", "properties": { "municipio": "Velilla de San Antonio", "clasificacion": "urbanizable-sectorizado", "calificacion": "sin-asignar", "version": "vigente", "fuente": "SIT-CAM WFS — UsoDelSuelo:VPLA_V_CLASIFICACION (https://idem.comunidad.madrid/geosrvg/ows)", "fecha_dato": "2026-05-12", "ambito": "27488", "_raw_CD_SIGLAS": "SUBS", "_raw_DS_CLASIF_GEN": "Suelo Urbanizable Programado", "_raw_DS_CLASIF_DET": "Suelo Urbanizable Programado", "_raw_DS_DOCU": "PLAN GENERAL", "_raw_DS_LEY": "CM Ley 4/1984, E RDL 1/1992", "_raw_FC_AC": "1995-05-24", "_raw_NM_AREA_M2": 280058.797094482, "_cam_code": "167" }, "geometry": { "type": "Polygon", "coordinates": [ [ [ -3.4884, 40.3747 ], [ -3.4843, 40.3754 ], [ -3.484, 40.376 ], [ -3.4878, 40.3769 ], [ -3.489, 40.3775 ], [ -3.4894, 40.3781 ], [ -3.4908, 40.3783 ], [ -3.4928, 40.3783 ], [ -3.4922, 40.3742 ], [ -3.4928, 40.3742 ], [ -3.4926, 40.3725 ], [ -3.492, 40.3725 ], [ -3.4919, 40.3723 ], [ -3.4916, 40.3699 ], [ -3.4913, 40.3692 ], [ -3.4914, 40.3691 ], [ -3.4914, 40.3688 ], [ -3.4913, 40.3688 ], [ -3.4915, 40.3684 ], [ -3.4927, 40.3684 ], [ -3.4936, 40.3682 ], [ -3.4933, 40.3682 ], [ -3.4932, 40.368 ], [ -3.4918, 40.368 ], [ -3.491, 40.3682 ], [ -3.4901, 40.3682 ], [ -3.4898, 40.368 ], [ -3.4898, 40.3683 ], [ -3.4905, 40.3703 ], [ -3.4908, 40.3723 ], [ -3.491, 40.3728 ], [ -3.491, 40.3739 ], [ -3.4908, 40.3744 ], [ -3.4886, 40.3752 ], [ -3.4884, 40.3747 ] ] ] } },
{ "type": "Feature", "properties": { "municipio": "Velilla de San Antonio", "clasificacion": "urbanizable-sectorizado", "calificacion": "sin-asignar", "version": "vigente", "fuente": "SIT-CAM WFS — UsoDelSuelo:VPLA_V_CLASIFICACION (https://idem.comunidad.madrid/geosrvg/ows)", "fecha_dato": "2026-05-12", "ambito": "27488", "_raw_CD_SIGLAS": "SUBS", "_raw_DS_CLASIF_GEN": "Suelo Urbanizable Programado", "_raw_DS_CLASIF_DET": "Suelo Urbanizable Programado", "_raw_DS_DOCU": "PLAN GENERAL", "_raw_DS_LEY": "CM Ley 4/1984, E RDL 1/1992", "_raw_FC_AC": "1995-05-24", "_raw_NM_AREA_M2": 6213.9432624545298, "_cam_code": "167" }, "geometry": { "type": "Polygon", "coordinates": [ [ [ -3.4822, 40.3624 ], [ -3.482, 40.3624 ], [ -3.4825, 40.3631 ], [ -3.4831, 40.3629 ], [ -3.4831, 40.3625 ], [ -3.4828, 40.3621 ], [ -3.4822, 40.3623 ], [ -3.4822, 40.3624 ] ] ] } },
{ "type": "Feature", "properties": { "municipio": "Velilla de San Antonio", "clasificacion": "urbanizable-sectorizado", "calificacion": "sin-asignar", "version": "vigente", "fuente": "SIT-CAM WFS — UsoDelSuelo:VPLA_V_CLASIFICACION (https://idem.comunidad.madrid/geosrvg/ows)", "fecha_dato": "2026-05-12", "ambito": "27488", "_raw_CD_SIGLAS": "SUBS", "_raw_DS_CLASIF_GEN": "Suelo Urbanizable Programado", "_raw_DS_CLASIF_DET": "Suelo Urbanizable Programado", "_raw_DS_DOCU": "PLAN GENERAL", "_raw_DS_LEY": "CM Ley 4/1984, E RDL 1/1992", "_raw_FC_AC": "1995-05-24", "_raw_NM_AREA_M2": 76698.458637562595, "_cam_code": "167" }, "geometry": { "type": "Polygon", "coordinates": [ [ [ -3.481, 40.3599 ], [ -3.4745, 40.3618 ], [ -3.4738, 40.3619 ], [ -3.4744, 40.3629 ], [ -3.4771, 40.3621 ], [ -3.4778, 40.362 ], [ -3.4814, 40.3609 ], [ -3.481, 40.3599 ] ] ] } },
{ "type": "Feature", "properties": { "municipio": "Velilla de San Antonio", "clasificacion": "urbanizable-sectorizado", "calificacion": "sin-asignar", "version": "vigente", "fuente": "SIT-CAM WFS — UsoDelSuelo:VPLA_V_CLASIFICACION (https://idem.comunidad.madrid/geosrvg/ows)", "fecha_dato": "2026-05-12", "ambito": "27488", "_raw_CD_SIGLAS": "SUBS", "_raw_DS_CLASIF_GEN": "Suelo Urbanizable Programado", "_raw_DS_CLASIF_DET": "Suelo Urbanizable Programado", "_raw_DS_DOCU": "PLAN GENERAL", "_raw_DS_LEY": "CM Ley 4/1984, E RDL 1/1992", "_raw_FC_AC": "1995-05-24", "_raw_NM_AREA_M2": 163635.64140007601, "_cam_code": "167" }, "geometry": { "type": "Polygon", "coordinates": [ [ [ -3.476, 40.3741 ], [ -3.4765, 40.375 ], [ -3.4797, 40.3738 ], [ -3.4805, 40.3733 ], [ -3.4826, 40.3724 ], [ -3.4833, 40.3719 ], [ -3.4845, 40.3713 ], [ -3.4836, 40.3705 ], [ -3.4821, 40.3714 ], [ -3.482, 40.3712 ], [ -3.4817, 40.3711 ], [ -3.4813, 40.3705 ], [ -3.481, 40.3709 ], [ -3.4802, 40.3714 ], [ -3.48, 40.3712 ], [ -3.48, 40.371 ], [ -3.4798, 40.371 ], [ -3.4797, 40.3712 ], [ -3.4794, 40.3713 ], [ -3.4795, 40.3717 ], [ -3.4793, 40.3717 ], [ -3.4793, 40.3718 ], [ -3.479, 40.3718 ], [ -3.479, 40.3719 ], [ -3.4784, 40.3721 ], [ -3.4779, 40.3721 ], [ -3.4766, 40.3724 ], [ -3.4749, 40.373 ], [ -3.4752, 40.3737 ], [ -3.4756, 40.3742 ], [ -3.476, 40.3741 ] ] ] } },
{ "type": "Feature", "properties": { "municipio": "Velilla de San Antonio", "clasificacion": "urbanizable-sectorizado", "calificacion": "sin-asignar", "version": "vigente", "fuente": "SIT-CAM WFS — UsoDelSuelo:VPLA_V_CLASIFICACION (https://idem.comunidad.madrid/geosrvg/ows)", "fecha_dato": "2026-05-12", "ambito": "27488", "_raw_CD_SIGLAS": "SUBS", "_raw_DS_CLASIF_GEN": "Suelo Urbanizable Programado", "_raw_DS_CLASIF_DET": "Suelo Urbanizable Programado", "_raw_DS_DOCU": "PLAN GENERAL", "_raw_DS_LEY": "CM Ley 4/1984, E RDL 1/1992", "_raw_FC_AC": "1995-05-24", "_raw_NM_AREA_M2": 127402.993462456, "_cam_code": "167" }, "geometry": { "type": "Polygon", "coordinates": [ [ [ -3.4903, 40.3642 ], [ -3.4935, 40.3657 ], [ -3.4942, 40.3659 ], [ -3.495, 40.3664 ], [ -3.4957, 40.3672 ], [ -3.4971, 40.3667 ], [ -3.4986, 40.3656 ], [ -3.4971, 40.3644 ], [ -3.4949, 40.3644 ], [ -3.4943, 40.3641 ], [ -3.4939, 40.3641 ], [ -3.4926, 40.3637 ], [ -3.4921, 40.3634 ], [ -3.4903, 40.3642 ] ] ] } },
{ "type": "Feature", "properties": { "municipio": "Velilla de San Antonio", "clasificacion": "urbanizable-sectorizado", "calificacion": "sin-asignar", "version": "vigente", "fuente": "SIT-CAM WFS — UsoDelSuelo:VPLA_V_CLASIFICACION (https://idem.comunidad.madrid/geosrvg/ows)", "fecha_dato": "2026-05-12", "ambito": "27488", "_raw_CD_SIGLAS": "SUBS", "_raw_DS_CLASIF_GEN": "Suelo Urbanizable Programado", "_raw_DS_CLASIF_DET": "Suelo Urbanizable Programado", "_raw_DS_DOCU": "PLAN GENERAL", "_raw_DS_LEY": "CM Ley 4/1984, E RDL 1/1992", "_raw_FC_AC": "1995-05-24", "_raw_NM_AREA_M2": 114147.20677551501, "_cam_code": "167" }, "geometry": { "type": "Polygon", "coordinates": [ [ [ -3.4821, 40.3641 ], [ -3.4818, 40.3664 ], [ -3.4843, 40.3647 ], [ -3.4844, 40.365 ], [ -3.4851, 40.3659 ], [ -3.4866, 40.3651 ], [ -3.4874, 40.365 ], [ -3.487, 40.3643 ], [ -3.488, 40.3639 ], [ -3.4875, 40.363 ], [ -3.487, 40.363 ], [ -3.4866, 40.3632 ], [ -3.4859, 40.3632 ], [ -3.4844, 40.3628 ], [ -3.4843, 40.3625 ], [ -3.4841, 40.3628 ], [ -3.4836, 40.3631 ], [ -3.4835, 40.3634 ], [ -3.483, 40.3637 ], [ -3.4824, 40.3637 ], [ -3.4824, 40.3639 ], [ -3.4821, 40.3641 ] ] ] } }
]
}
