{
"type": "FeatureCollection",
"name": "vigente.full",
"features": [
{ "type": "Feature", "properties": { "municipio": "Perales de Tajuña", "clasificacion": "urbano-consolidado", "calificacion": "sin-asignar", "version": "vigente", "fuente": "SIT-CAM WFS — UsoDelSuelo:VPLA_V_CLASIFICACION (https://idem.comunidad.madrid/geosrvg/ows)", "fecha_dato": "2026-05-12", "ambito": "83916", "_raw_CD_SIGLAS": "SU", "_raw_DS_CLASIF_GEN": "Suelo Urbano", "_raw_DS_CLASIF_DET": "Suelo Urbano Ensanche", "_raw_DS_DOCU": "NORMAS SUBSIDIARIAS", "_raw_DS_LEY": "E RD 1346/1976", "_raw_FC_AC": "2013-06-25", "_raw_NM_AREA_M2": 10936.896488139801, "_cam_code": "110" }, "geometry": { "type": "Polygon", "coordinates": [ [ [ -3.3518, 40.2291 ], [ -3.3523, 40.2294 ], [ -3.3524, 40.2295 ], [ -3.3523, 40.2296 ], [ -3.353, 40.2303 ], [ -3.3534, 40.2302 ], [ -3.3534, 40.2294 ], [ -3.3528, 40.2292 ], [ -3.3522, 40.2287 ], [ -3.3518, 40.2291 ] ] ] } },
{ "type": "Feature", "properties": { "municipio": "Perales de Tajuña", "clasificacion": "urbano-consolidado", "calificacion": "sin-asignar", "version": "vigente", "fuente": "SIT-CAM WFS — UsoDelSuelo:VPLA_V_CLASIFICACION (https://idem.comunidad.madrid/geosrvg/ows)", "fecha_dato": "2026-05-12", "ambito": "83916", "_raw_CD_SIGLAS": "SU", "_raw_DS_CLASIF_GEN": "Suelo Urbano", "_raw_DS_CLASIF_DET": "Suelo Urbano Ensanche", "_raw_DS_DOCU": "NORMAS SUBSIDIARIAS", "_raw_DS_LEY": "E RD 1346/1976", "_raw_FC_AC": "2013-06-25", "_raw_NM_AREA_M2": 35399.584754851203, "_cam_code": "110" }, "geometry": { "type": "Polygon", "coordinates": [ [ [ -3.3437, 40.2213 ], [ -3.3439, 40.2217 ], [ -3.3454, 40.2224 ], [ -3.3462, 40.2218 ], [ -3.3464, 40.2213 ], [ -3.3456, 40.2207 ], [ -3.3452, 40.2211 ], [ -3.3445, 40.2213 ], [ -3.3443, 40.221 ], [ -3.3438, 40.2207 ], [ -3.3438, 40.2204 ], [ -3.3429, 40.2203 ], [ -3.3424, 40.2201 ], [ -3.3418, 40.2202 ], [ -3.342, 40.2202 ], [ -3.3425, 40.2206 ], [ -3.3429, 40.2211 ], [ -3.3437, 40.2213 ] ] ] } },
{ "type": "Feature", "properties": { "municipio": "Perales de Tajuña", "clasificacion": "urbano-consolidado", "calificacion": "sin-asignar", "version": "vigente", "fuente": "SIT-CAM WFS — UsoDelSuelo:VPLA_V_CLASIFICACION (https://idem.comunidad.madrid/geosrvg/ows)", "fecha_dato": "2026-05-12", "ambito": "83916", "_raw_CD_SIGLAS": "SU", "_raw_DS_CLASIF_GEN": "Suelo Urbano", "_raw_DS_CLASIF_DET": "Suelo Urbano Ensanche", "_raw_DS_DOCU": "NORMAS SUBSIDIARIAS", "_raw_DS_LEY": "E RD 1346/1976", "_raw_FC_AC": "2013-06-25", "_raw_NM_AREA_M2": 7431.7973298855104, "_cam_code": "110" }, "geometry": { "type": "Polygon", "coordinates": [ [ [ -3.3553, 40.2311 ], [ -3.3564, 40.231 ], [ -3.3565, 40.2307 ], [ -3.3564, 40.2306 ], [ -3.3558, 40.2306 ], [ -3.3553, 40.2302 ], [ -3.3549, 40.2306 ], [ -3.3552, 40.2308 ], [ -3.3553, 40.2311 ] ] ] } },
{ "type": "Feature", "properties": { "municipio": "Perales de Tajuña", "clasificacion": "urbano-consolidado", "calificacion": "sin-asignar", "version": "vigente", "fuente": "SIT-CAM WFS — UsoDelSuelo:VPLA_V_CLASIFICACION (https://idem.comunidad.madrid/geosrvg/ows)", "fecha_dato": "2026-05-12", "ambito": "83916", "_raw_CD_SIGLAS": "SU", "_raw_DS_CLASIF_GEN": "Suelo Urbano", "_raw_DS_CLASIF_DET": "Suelo Urbano Ensanche", "_raw_DS_DOCU": "NORMAS SUBSIDIARIAS", "_raw_DS_LEY": "E RD 1346/1976", "_raw_FC_AC": "2013-06-25", "_raw_NM_AREA_M2": 194332.59223806701, "_cam_code": "110" }, "geometry": { "type": "Polygon", "coordinates": [ [ [ -3.3534, 40.232 ], [ -3.354, 40.2327 ], [ -3.3539, 40.2331 ], [ -3.354, 40.2336 ], [ -3.3545, 40.234 ], [ -3.3555, 40.2339 ], [ -3.3559, 40.2336 ], [ -3.3571, 40.2333 ], [ -3.3575, 40.2329 ], [ -3.359, 40.2325 ], [ -3.3599, 40.2318 ], [ -3.3596, 40.2315 ], [ -3.3586, 40.232 ], [ -3.3584, 40.2319 ], [ -3.3584, 40.232 ], [ -3.3581, 40.2321 ], [ -3.3579, 40.2319 ], [ -3.3572, 40.2323 ], [ -3.3569, 40.2323 ], [ -3.3569, 40.2324 ], [ -3.3562, 40.2324 ], [ -3.3557, 40.2323 ], [ -3.3556, 40.2322 ], [ -3.3557, 40.2319 ], [ -3.3554, 40.2319 ], [ -3.355, 40.2316 ], [ -3.3544, 40.2314 ], [ -3.3528, 40.2312 ], [ -3.3528, 40.2311 ], [ -3.3526, 40.2311 ], [ -3.3526, 40.2312 ], [ -3.3523, 40.2311 ], [ -3.3522, 40.2312 ], [ -3.3507, 40.2311 ], [ -3.3507, 40.2312 ], [ -3.3503, 40.2307 ], [ -3.3501, 40.2307 ], [ -3.3502, 40.2306 ], [ -3.3494, 40.2302 ], [ -3.3487, 40.2295 ], [ -3.3484, 40.2299 ], [ -3.3471, 40.2291 ], [ -3.3468, 40.2294 ], [ -3.3464, 40.229 ], [ -3.3459, 40.2289 ], [ -3.346, 40.2287 ], [ -3.3452, 40.2284 ], [ -3.3442, 40.2283 ], [ -3.345, 40.2288 ], [ -3.345, 40.2295 ], [ -3.3459, 40.2298 ], [ -3.3464, 40.2302 ], [ -3.3465, 40.2309 ], [ -3.3469, 40.2311 ], [ -3.3481, 40.2307 ], [ -3.3481, 40.2303 ], [ -3.3495, 40.2311 ], [ -3.3498, 40.2314 ], [ -3.3503, 40.2323 ], [ -3.3496, 40.2321 ], [ -3.3496, 40.2322 ], [ -3.3494, 40.2322 ], [ -3.3489, 40.2326 ], [ -3.3489, 40.2333 ], [ -3.3491, 40.2334 ], [ -3.3497, 40.2336 ], [ -3.3507, 40.2337 ], [ -3.3509, 40.2339 ], [ -3.3517, 40.2339 ], [ -3.3512, 40.2327 ], [ -3.3511, 40.2318 ], [ -3.3521, 40.232 ], [ -3.3522, 40.2319 ], [ -3.3534, 40.232 ] ] ] } },
{ "type": "Feature", "properties": { "municipio": "Perales de Tajuña", "clasificacion": "urbano-consolidado", "calificacion": "sin-asignar", "version": "vigente", "fuente": "SIT-CAM WFS — UsoDelSuelo:VPLA_V_CLASIFICACION (https://idem.comunidad.madrid/geosrvg/ows)", "fecha_dato": "2026-05-12", "ambito": "83916", "_raw_CD_SIGLAS": "SU", "_raw_DS_CLASIF_GEN": "Suelo Urbano", "_raw_DS_CLASIF_DET": "Suelo Urbano Ensanche", "_raw_DS_DOCU": "NORMAS SUBSIDIARIAS", "_raw_DS_LEY": "E RD 1346/1976", "_raw_FC_AC": "2013-06-25", "_raw_NM_AREA_M2": 19943.807839864199, "_cam_code": "110" }, "geometry": { "type": "Polygon", "coordinates": [ [ [ -3.3479, 40.235 ], [ -3.3478, 40.2352 ], [ -3.3482, 40.2354 ], [ -3.3482, 40.2358 ], [ -3.3492, 40.2359 ], [ -3.3497, 40.2354 ], [ -3.3498, 40.235 ], [ -3.3502, 40.2349 ], [ -3.3502, 40.2347 ], [ -3.3501, 40.2344 ], [ -3.3494, 40.2345 ], [ -3.3493, 40.2344 ], [ -3.3483, 40.235 ], [ -3.3479, 40.235 ] ] ] } },
{ "type": "Feature", "properties": { "municipio": "Perales de Tajuña", "clasificacion": "urbano-consolidado", "calificacion": "sin-asignar", "version": "vigente", "fuente": "SIT-CAM WFS — UsoDelSuelo:VPLA_V_CLASIFICACION (https://idem.comunidad.madrid/geosrvg/ows)", "fecha_dato": "2026-05-12", "ambito": "83916", "_raw_CD_SIGLAS": "SU", "_raw_DS_CLASIF_GEN": "Suelo Urbano", "_raw_DS_CLASIF_DET": "Suelo Urbano Casco Antiguo", "_raw_DS_DOCU": "NORMAS SUBSIDIARIAS", "_raw_DS_LEY": "E RD 1346/1976", "_raw_FC_AC": "2013-06-25", "_raw_NM_AREA_M2": 189980.07150309099, "_cam_code": "110" }, "geometry": { "type": "Polygon", "coordinates": [ [ [ -3.3531, 40.2402 ], [ -3.3533, 40.24 ], [ -3.3528, 40.2396 ], [ -3.3528, 40.2391 ], [ -3.3535, 40.2387 ], [ -3.3538, 40.238 ], [ -3.3542, 40.2379 ], [ -3.3541, 40.2357 ], [ -3.3543, 40.2356 ], [ -3.3544, 40.235 ], [ -3.3543, 40.2347 ], [ -3.3544, 40.2345 ], [ -3.3547, 40.2344 ], [ -3.3546, 40.234 ], [ -3.354, 40.2336 ], [ -3.3539, 40.2333 ], [ -3.354, 40.2327 ], [ -3.3536, 40.2321 ], [ -3.3529, 40.2319 ], [ -3.3522, 40.2319 ], [ -3.3521, 40.232 ], [ -3.3511, 40.2318 ], [ -3.3512, 40.2327 ], [ -3.3517, 40.2339 ], [ -3.3509, 40.2339 ], [ -3.3507, 40.2337 ], [ -3.3502, 40.2336 ], [ -3.3501, 40.2345 ], [ -3.3503, 40.235 ], [ -3.3518, 40.2349 ], [ -3.3518, 40.2355 ], [ -3.3516, 40.236 ], [ -3.3517, 40.2374 ], [ -3.3513, 40.2376 ], [ -3.3514, 40.2377 ], [ -3.3513, 40.2382 ], [ -3.3515, 40.2385 ], [ -3.3514, 40.2389 ], [ -3.3519, 40.2389 ], [ -3.3522, 40.2395 ], [ -3.3531, 40.2402 ] ] ] } },
{ "type": "Feature", "properties": { "municipio": "Perales de Tajuña", "clasificacion": "urbano-consolidado", "calificacion": "sin-asignar", "version": "vigente", "fuente": "SIT-CAM WFS — UsoDelSuelo:VPLA_V_CLASIFICACION (https://idem.comunidad.madrid/geosrvg/ows)", "fecha_dato": "2026-05-12", "ambito": "83916", "_raw_CD_SIGLAS": "SU", "_raw_DS_CLASIF_GEN": "Suelo Urbano", "_raw_DS_CLASIF_DET": "Suelo Urbano Ensanche", "_raw_DS_DOCU": "NORMAS SUBSIDIARIAS", "_raw_DS_LEY": "E RD 1346/1976", "_raw_FC_AC": "2013-06-25", "_raw_NM_AREA_M2": 191582.170742352, "_cam_code": "110" }, "geometry": { "type": "Polygon", "coordinates": [ [ [ -3.3505, 40.2414 ], [ -3.3513, 40.2422 ], [ -3.3524, 40.2425 ], [ -3.3533, 40.2418 ], [ -3.3536, 40.2412 ], [ -3.3537, 40.242 ], [ -3.3541, 40.2421 ], [ -3.3544, 40.2424 ], [ -3.3546, 40.2423 ], [ -3.355, 40.2425 ], [ -3.3552, 40.2422 ], [ -3.3549, 40.2414 ], [ -3.3544, 40.2408 ], [ -3.3548, 40.2406 ], [ -3.3549, 40.24 ], [ -3.3546, 40.2399 ], [ -3.3543, 40.2394 ], [ -3.3542, 40.2379 ], [ -3.3538, 40.238 ], [ -3.3535, 40.2387 ], [ -3.3528, 40.2391 ], [ -3.3528, 40.2396 ], [ -3.3533, 40.24 ], [ -3.3531, 40.2402 ], [ -3.3522, 40.2395 ], [ -3.3519, 40.2389 ], [ -3.3514, 40.2389 ], [ -3.3515, 40.2385 ], [ -3.3513, 40.2382 ], [ -3.3514, 40.2377 ], [ -3.3513, 40.2376 ], [ -3.3517, 40.2374 ], [ -3.3516, 40.236 ], [ -3.3518, 40.2355 ], [ -3.3518, 40.2349 ], [ -3.3503, 40.235 ], [ -3.3502, 40.2364 ], [ -3.3498, 40.2377 ], [ -3.3498, 40.2386 ], [ -3.3505, 40.2414 ] ] ] } },
{ "type": "Feature", "properties": { "municipio": "Perales de Tajuña", "clasificacion": "urbano-consolidado", "calificacion": "sin-asignar", "version": "vigente", "fuente": "SIT-CAM WFS — UsoDelSuelo:VPLA_V_CLASIFICACION (https://idem.comunidad.madrid/geosrvg/ows)", "fecha_dato": "2026-05-12", "ambito": "83916", "_raw_CD_SIGLAS": "SU", "_raw_DS_CLASIF_GEN": "Suelo Urbano", "_raw_DS_CLASIF_DET": "Suelo Urbano Ensanche", "_raw_DS_DOCU": "NORMAS SUBSIDIARIAS", "_raw_DS_LEY": "E RD 1346/1976", "_raw_FC_AC": "2013-06-25", "_raw_NM_AREA_M2": 6257.5195518146902, "_cam_code": "110" }, "geometry": { "type": "Polygon", "coordinates": [ [ [ -3.3536, 40.2294 ], [ -3.3536, 40.2299 ], [ -3.3542, 40.2301 ], [ -3.3544, 40.2297 ], [ -3.3552, 40.2297 ], [ -3.3553, 40.2298 ], [ -3.3553, 40.2295 ], [ -3.3536, 40.2294 ] ] ] } },
{ "type": "Feature", "properties": { "municipio": "Perales de Tajuña", "clasificacion": "urbanizable-no-sectorizado", "calificacion": "sin-asignar", "version": "vigente", "fuente": "SIT-CAM WFS — UsoDelSuelo:VPLA_V_CLASIFICACION (https://idem.comunidad.madrid/geosrvg/ows)", "fecha_dato": "2026-05-12", "ambito": "83916", "_raw_CD_SIGLAS": "SUBNS", "_raw_DS_CLASIF_GEN": "Suelo Rústico", "_raw_DS_CLASIF_DET": "Suelo Rústico", "_raw_DS_DOCU": "NORMAS SUBSIDIARIAS", "_raw_DS_LEY": "E RD 1346/1976", "_raw_FC_AC": "2013-06-25", "_raw_NM_AREA_M2": 4077853.3360091499, "_cam_code": "110" }, "geometry": { "type": "Polygon", "coordinates": [ [ [ -3.3106, 40.184 ], [ -3.3222, 40.1985 ], [ -3.3296, 40.2054 ], [ -3.3308, 40.2055 ], [ -3.3321, 40.2047 ], [ -3.3387, 40.1979 ], [ -3.3429, 40.194 ], [ -3.342, 40.1937 ], [ -3.3396, 40.1902 ], [ -3.338, 40.1886 ], [ -3.3375, 40.1876 ], [ -3.3362, 40.1873 ], [ -3.3348, 40.1866 ], [ -3.3314, 40.1842 ], [ -3.3294, 40.1833 ], [ -3.3277, 40.1823 ], [ -3.3219, 40.1804 ], [ -3.3204, 40.178 ], [ -3.3197, 40.1789 ], [ -3.3137, 40.1831 ], [ -3.3106, 40.184 ] ] ] } },
{ "type": "Feature", "properties": { "municipio": "Perales de Tajuña", "clasificacion": "urbanizable-no-sectorizado", "calificacion": "sin-asignar", "version": "vigente", "fuente": "SIT-CAM WFS — UsoDelSuelo:VPLA_V_CLASIFICACION (https://idem.comunidad.madrid/geosrvg/ows)", "fecha_dato": "2026-05-12", "ambito": "83916", "_raw_CD_SIGLAS": "SUBNS", "_raw_DS_CLASIF_GEN": "Suelo Rústico", "_raw_DS_CLASIF_DET": "Suelo Rústico", "_raw_DS_DOCU": "NORMAS SUBSIDIARIAS", "_raw_DS_LEY": "E RD 1346/1976", "_raw_FC_AC": "2013-06-25", "_raw_NM_AREA_M2": 8320342.1360326996, "_cam_code": "110" }, "geometry": { "type": "Polygon", "coordinates": [ [ [ -3.3465, 40.2233 ], [ -3.3505, 40.2237 ], [ -3.3555, 40.2237 ], [ -3.3797, 40.223 ], [ -3.395, 40.2231 ], [ -3.3945, 40.219 ], [ -3.3912, 40.2187 ], [ -3.3874, 40.2172 ], [ -3.3858, 40.2149 ], [ -3.3837, 40.2125 ], [ -3.3825, 40.2119 ], [ -3.3817, 40.2108 ], [ -3.3779, 40.208 ], [ -3.3753, 40.2054 ], [ -3.3735, 40.2025 ], [ -3.371, 40.2009 ], [ -3.3656, 40.199 ], [ -3.3603, 40.1988 ], [ -3.3552, 40.1988 ], [ -3.3527, 40.2007 ], [ -3.3506, 40.2027 ], [ -3.3483, 40.205 ], [ -3.3466, 40.207 ], [ -3.3448, 40.2095 ], [ -3.3426, 40.214 ], [ -3.3419, 40.2163 ], [ -3.3418, 40.2171 ], [ -3.3419, 40.2194 ], [ -3.3414, 40.2196 ], [ -3.3415, 40.2198 ], [ -3.3414, 40.2199 ], [ -3.3418, 40.2202 ], [ -3.3424, 40.2201 ], [ -3.3429, 40.2203 ], [ -3.3438, 40.2204 ], [ -3.3438, 40.2207 ], [ -3.3443, 40.221 ], [ -3.3445, 40.2213 ], [ -3.3452, 40.2211 ], [ -3.3456, 40.2207 ], [ -3.3461, 40.221 ], [ -3.3464, 40.2214 ], [ -3.3463, 40.2214 ], [ -3.3462, 40.2218 ], [ -3.3454, 40.2224 ], [ -3.3465, 40.2233 ] ] ] } },
{ "type": "Feature", "properties": { "municipio": "Perales de Tajuña", "clasificacion": "urbanizable-no-sectorizado", "calificacion": "sin-asignar", "version": "vigente", "fuente": "SIT-CAM WFS — UsoDelSuelo:VPLA_V_CLASIFICACION (https://idem.comunidad.madrid/geosrvg/ows)", "fecha_dato": "2026-05-12", "ambito": "83916", "_raw_CD_SIGLAS": "SUBNS", "_raw_DS_CLASIF_GEN": "Suelo Rústico", "_raw_DS_CLASIF_DET": "Suelo Rústico", "_raw_DS_DOCU": "NORMAS SUBSIDIARIAS", "_raw_DS_LEY": "E RD 1346/1976", "_raw_FC_AC": "2013-06-25", "_raw_NM_AREA_M2": 4666148.9305869602, "_cam_code": "110" }, "geometry": { "type": "Polygon", "coordinates": [ [ [ -3.4044, 40.2553 ], [ -3.4076, 40.2571 ], [ -3.4076, 40.2572 ], [ -3.4118, 40.2552 ], [ -3.4167, 40.2543 ], [ -3.4233, 40.2547 ], [ -3.4147, 40.2532 ], [ -3.4116, 40.252 ], [ -3.4097, 40.2496 ], [ -3.4059, 40.2456 ], [ -3.4055, 40.2443 ], [ -3.4029, 40.2426 ], [ -3.4022, 40.2412 ], [ -3.4004, 40.2399 ], [ -3.3998, 40.2372 ], [ -3.3983, 40.2344 ], [ -3.391, 40.2352 ], [ -3.3675, 40.2367 ], [ -3.3663, 40.2376 ], [ -3.3667, 40.2385 ], [ -3.3713, 40.2435 ], [ -3.3725, 40.2424 ], [ -3.3726, 40.2421 ], [ -3.3729, 40.2421 ], [ -3.3735, 40.2416 ], [ -3.3744, 40.2422 ], [ -3.3755, 40.2421 ], [ -3.3769, 40.2422 ], [ -3.3771, 40.242 ], [ -3.3779, 40.2418 ], [ -3.3782, 40.2424 ], [ -3.3785, 40.2427 ], [ -3.3785, 40.2433 ], [ -3.3786, 40.2434 ], [ -3.3785, 40.2439 ], [ -3.3795, 40.2442 ], [ -3.3806, 40.2443 ], [ -3.3815, 40.2446 ], [ -3.3827, 40.2446 ], [ -3.3829, 40.2447 ], [ -3.3831, 40.2451 ], [ -3.3835, 40.2454 ], [ -3.3823, 40.2478 ], [ -3.3819, 40.2477 ], [ -3.3817, 40.2478 ], [ -3.3808, 40.2478 ], [ -3.3798, 40.2474 ], [ -3.3787, 40.2473 ], [ -3.3783, 40.2477 ], [ -3.3775, 40.2481 ], [ -3.3794, 40.2489 ], [ -3.3863, 40.2531 ], [ -3.3885, 40.2501 ], [ -3.39, 40.2499 ], [ -3.3958, 40.2484 ], [ -3.4044, 40.2553 ] ] ] } },
{ "type": "Feature", "properties": { "municipio": "Perales de Tajuña", "clasificacion": "urbanizable-no-sectorizado", "calificacion": "sin-asignar", "version": "vigente", "fuente": "SIT-CAM WFS — UsoDelSuelo:VPLA_V_CLASIFICACION (https://idem.comunidad.madrid/geosrvg/ows)", "fecha_dato": "2026-05-12", "ambito": "83916", "_raw_CD_SIGLAS": "SUBNS", "_raw_DS_CLASIF_GEN": "Suelo Rústico", "_raw_DS_CLASIF_DET": "Suelo Rústico", "_raw_DS_DOCU": "NORMAS SUBSIDIARIAS", "_raw_DS_LEY": "E RD 1346/1976", "_raw_FC_AC": "2013-06-25", "_raw_NM_AREA_M2": 6852252.1270326301, "_cam_code": "110" }, "geometry": { "type": "Polygon", "coordinates": [ [ [ -3.3339, 40.2642 ], [ -3.3484, 40.2738 ], [ -3.3534, 40.2717 ], [ -3.3574, 40.2706 ], [ -3.3593, 40.2695 ], [ -3.3636, 40.2677 ], [ -3.3648, 40.267 ], [ -3.367, 40.2662 ], [ -3.3681, 40.2661 ], [ -3.3717, 40.2644 ], [ -3.3711, 40.2635 ], [ -3.368, 40.2599 ], [ -3.3619, 40.254 ], [ -3.3596, 40.2524 ], [ -3.3517, 40.2481 ], [ -3.3477, 40.2467 ], [ -3.3449, 40.2447 ], [ -3.3436, 40.242 ], [ -3.3425, 40.2388 ], [ -3.3414, 40.238 ], [ -3.3391, 40.2383 ], [ -3.3347, 40.2398 ], [ -3.3357, 40.2421 ], [ -3.3354, 40.2435 ], [ -3.3357, 40.2463 ], [ -3.3354, 40.2483 ], [ -3.3357, 40.2512 ], [ -3.3356, 40.2527 ], [ -3.3368, 40.2549 ], [ -3.3362, 40.2567 ], [ -3.3354, 40.2584 ], [ -3.3348, 40.2601 ], [ -3.3346, 40.2613 ], [ -3.3339, 40.2629 ], [ -3.3339, 40.2642 ] ] ] } },
{ "type": "Feature", "properties": { "municipio": "Perales de Tajuña", "clasificacion": "urbanizable-no-sectorizado", "calificacion": "sin-asignar", "version": "vigente", "fuente": "SIT-CAM WFS — UsoDelSuelo:VPLA_V_CLASIFICACION (https://idem.comunidad.madrid/geosrvg/ows)", "fecha_dato": "2026-05-12", "ambito": "83916", "_raw_CD_SIGLAS": "SUBNS", "_raw_DS_CLASIF_GEN": "Suelo de Reserva Metropolitana", "_raw_DS_CLASIF_DET": "Suelo de Reserva Metropolitana", "_raw_DS_DOCU": "NORMAS SUBSIDIARIAS", "_raw_DS_LEY": "E RD 1346/1976", "_raw_FC_AC": "2013-06-25", "_raw_NM_AREA_M2": 23851871.325538401, "_cam_code": "110" }, "geometry": { "type": "Polygon", "coordinates": [ [ [ -3.3517, 40.2481 ], [ -3.3596, 40.2524 ], [ -3.3619, 40.254 ], [ -3.368, 40.2599 ], [ -3.3711, 40.2635 ], [ -3.3717, 40.2644 ], [ -3.3775, 40.2617 ], [ -3.3789, 40.2595 ], [ -3.3811, 40.2574 ], [ -3.3853, 40.2544 ], [ -3.3863, 40.2531 ], [ -3.3794, 40.2489 ], [ -3.3776, 40.2481 ], [ -3.3765, 40.2486 ], [ -3.3756, 40.2479 ], [ -3.3743, 40.2472 ], [ -3.3722, 40.2465 ], [ -3.3703, 40.2451 ], [ -3.3697, 40.2444 ], [ -3.3704, 40.2438 ], [ -3.3713, 40.2435 ], [ -3.3667, 40.2385 ], [ -3.3663, 40.2376 ], [ -3.3675, 40.2367 ], [ -3.391, 40.2352 ], [ -3.3983, 40.2344 ], [ -3.3971, 40.2311 ], [ -3.3952, 40.2243 ], [ -3.395, 40.2231 ], [ -3.3797, 40.223 ], [ -3.3555, 40.2237 ], [ -3.3505, 40.2237 ], [ -3.3465, 40.2233 ], [ -3.3453, 40.2223 ], [ -3.3439, 40.2217 ], [ -3.3437, 40.2213 ], [ -3.3429, 40.2211 ], [ -3.342, 40.2202 ], [ -3.3418, 40.2202 ], [ -3.3414, 40.2199 ], [ -3.3415, 40.2198 ], [ -3.3414, 40.2196 ], [ -3.3419, 40.2194 ], [ -3.3418, 40.2182 ], [ -3.3419, 40.2163 ], [ -3.3426, 40.214 ], [ -3.3448, 40.2095 ], [ -3.3466, 40.207 ], [ -3.3483, 40.205 ], [ -3.3506, 40.2027 ], [ -3.3527, 40.2007 ], [ -3.3552, 40.1988 ], [ -3.3533, 40.1988 ], [ -3.3506, 40.1985 ], [ -3.3444, 40.1946 ], [ -3.3429, 40.194 ], [ -3.3387, 40.1979 ], [ -3.3321, 40.2047 ], [ -3.3308, 40.2055 ], [ -3.3296, 40.2054 ], [ -3.3222, 40.1985 ], [ -3.3106, 40.184 ], [ -3.3068, 40.1852 ], [ -3.3001, 40.1882 ], [ -3.298, 40.1905 ], [ -3.2994, 40.1918 ], [ -3.3006, 40.1933 ], [ -3.3036, 40.1959 ], [ -3.3057, 40.1982 ], [ -3.3075, 40.1999 ], [ -3.3095, 40.2029 ], [ -3.3079, 40.2063 ], [ -3.3067, 40.2094 ], [ -3.3071, 40.2115 ], [ -3.3084, 40.2131 ], [ -3.3093, 40.2135 ], [ -3.3096, 40.2141 ], [ -3.3097, 40.2141 ], [ -3.3099, 40.2147 ], [ -3.3103, 40.2151 ], [ -3.3104, 40.217 ], [ -3.3099, 40.2178 ], [ -3.3101, 40.2185 ], [ -3.3109, 40.2191 ], [ -3.3116, 40.2193 ], [ -3.3116, 40.2195 ], [ -3.3121, 40.2201 ], [ -3.3126, 40.2203 ], [ -3.3126, 40.2206 ], [ -3.313, 40.2212 ], [ -3.3135, 40.2214 ], [ -3.3135, 40.2215 ], [ -3.3147, 40.2217 ], [ -3.3169, 40.2231 ], [ -3.3176, 40.2237 ], [ -3.3177, 40.2244 ], [ -3.3181, 40.225 ], [ -3.3186, 40.2251 ], [ -3.3187, 40.225 ], [ -3.3187, 40.2251 ], [ -3.3195, 40.2253 ], [ -3.32, 40.2253 ], [ -3.3205, 40.2257 ], [ -3.321, 40.2259 ], [ -3.3218, 40.2269 ], [ -3.3229, 40.2276 ], [ -3.3224, 40.2279 ], [ -3.3223, 40.2282 ], [ -3.3232, 40.2297 ], [ -3.329, 40.2345 ], [ -3.3298, 40.2354 ], [ -3.331, 40.2364 ], [ -3.3342, 40.2388 ], [ -3.3347, 40.2398 ], [ -3.3391, 40.2383 ], [ -3.3414, 40.238 ], [ -3.3425, 40.2388 ], [ -3.3436, 40.242 ], [ -3.3449, 40.2447 ], [ -3.3477, 40.2467 ], [ -3.3517, 40.2481 ] ], [ [ -3.3536, 40.2294 ], [ -3.3553, 40.2295 ], [ -3.3553, 40.2298 ], [ -3.3552, 40.2297 ], [ -3.3544, 40.2297 ], [ -3.3542, 40.2301 ], [ -3.3536, 40.2299 ], [ -3.3536, 40.2294 ] ], [ [ -3.3553, 40.2302 ], [ -3.3558, 40.2306 ], [ -3.3564, 40.2306 ], [ -3.3565, 40.2309 ], [ -3.3564, 40.231 ], [ -3.3553, 40.2311 ], [ -3.3552, 40.2308 ], [ -3.3549, 40.2306 ], [ -3.3553, 40.2302 ] ], [ [ -3.3522, 40.2287 ], [ -3.3528, 40.2292 ], [ -3.3534, 40.2294 ], [ -3.3534, 40.2302 ], [ -3.353, 40.2303 ], [ -3.3523, 40.2296 ], [ -3.3524, 40.2295 ], [ -3.3523, 40.2294 ], [ -3.3518, 40.2291 ], [ -3.3522, 40.2287 ] ], [ [ -3.3524, 40.2425 ], [ -3.3513, 40.2422 ], [ -3.3507, 40.2417 ], [ -3.3504, 40.2411 ], [ -3.3503, 40.2403 ], [ -3.3498, 40.2386 ], [ -3.3498, 40.2377 ], [ -3.3502, 40.2364 ], [ -3.3503, 40.235 ], [ -3.3502, 40.2349 ], [ -3.3498, 40.235 ], [ -3.3497, 40.2354 ], [ -3.3492, 40.2359 ], [ -3.3486, 40.2359 ], [ -3.3482, 40.2358 ], [ -3.3482, 40.2354 ], [ -3.3478, 40.2352 ], [ -3.3461, 40.2348 ], [ -3.3453, 40.2349 ], [ -3.3456, 40.2332 ], [ -3.3465, 40.2326 ], [ -3.3468, 40.2326 ], [ -3.347, 40.2321 ], [ -3.347, 40.2316 ], [ -3.3469, 40.2311 ], [ -3.3465, 40.2309 ], [ -3.3464, 40.2302 ], [ -3.3459, 40.2298 ], [ -3.345, 40.2295 ], [ -3.345, 40.2288 ], [ -3.3442, 40.2283 ], [ -3.3452, 40.2284 ], [ -3.346, 40.2287 ], [ -3.3459, 40.2289 ], [ -3.3464, 40.229 ], [ -3.3468, 40.2294 ], [ -3.3471, 40.2291 ], [ -3.3484, 40.2299 ], [ -3.3487, 40.2295 ], [ -3.3494, 40.2302 ], [ -3.3502, 40.2306 ], [ -3.3501, 40.2307 ], [ -3.3503, 40.2307 ], [ -3.3507, 40.2312 ], [ -3.3507, 40.2311 ], [ -3.3519, 40.2311 ], [ -3.352, 40.2312 ], [ -3.3528, 40.2311 ], [ -3.3528, 40.2312 ], [ -3.3544, 40.2314 ], [ -3.355, 40.2316 ], [ -3.3554, 40.2319 ], [ -3.3557, 40.2319 ], [ -3.3556, 40.2322 ], [ -3.3557, 40.2323 ], [ -3.3562, 40.2324 ], [ -3.3569, 40.2324 ], [ -3.3569, 40.2323 ], [ -3.3572, 40.2323 ], [ -3.3579, 40.2319 ], [ -3.3581, 40.2321 ], [ -3.3584, 40.232 ], [ -3.3584, 40.2319 ], [ -3.3586, 40.232 ], [ -3.3596, 40.2315 ], [ -3.3599, 40.2318 ], [ -3.359, 40.2325 ], [ -3.3575, 40.2329 ], [ -3.3571, 40.2333 ], [ -3.3559, 40.2336 ], [ -3.3555, 40.2339 ], [ -3.3546, 40.234 ], [ -3.3547, 40.2344 ], [ -3.3544, 40.2345 ], [ -3.3543, 40.2347 ], [ -3.3544, 40.235 ], [ -3.3543, 40.2356 ], [ -3.3541, 40.2357 ], [ -3.3541, 40.2372 ], [ -3.3543, 40.2394 ], [ -3.3546, 40.2399 ], [ -3.3549, 40.24 ], [ -3.3548, 40.2406 ], [ -3.3544, 40.2408 ], [ -3.3549, 40.2414 ], [ -3.3552, 40.2422 ], [ -3.355, 40.2425 ], [ -3.3546, 40.2423 ], [ -3.3544, 40.2424 ], [ -3.3541, 40.2421 ], [ -3.3537, 40.242 ], [ -3.3536, 40.2412 ], [ -3.3533, 40.2418 ], [ -3.3524, 40.2425 ] ] ] } },
{ "type": "Feature", "properties": { "municipio": "Perales de Tajuña", "clasificacion": "urbanizable-sectorizado", "calificacion": "sin-asignar", "version": "vigente", "fuente": "SIT-CAM WFS — UsoDelSuelo:VPLA_V_CLASIFICACION (https://idem.comunidad.madrid/geosrvg/ows)", "fecha_dato": "2026-05-12", "ambito": "83916", "_raw_CD_SIGLAS": "SUBS", "_raw_DS_CLASIF_GEN": "Suelo de Reserva Urbana", "_raw_DS_CLASIF_DET": "Suelo de Reserva Urbana", "_raw_DS_DOCU": "NORMAS SUBSIDIARIAS", "_raw_DS_LEY": "E RD 1346/1976", "_raw_FC_AC": "2013-06-25", "_raw_NM_AREA_M2": 512654.71368703101, "_cam_code": "110" }, "geometry": { "type": "Polygon", "coordinates": [ [ [ -3.3743, 40.2472 ], [ -3.3756, 40.2479 ], [ -3.3765, 40.2486 ], [ -3.3783, 40.2477 ], [ -3.3787, 40.2473 ], [ -3.3798, 40.2474 ], [ -3.3808, 40.2478 ], [ -3.3817, 40.2478 ], [ -3.3819, 40.2477 ], [ -3.3823, 40.2478 ], [ -3.3835, 40.2454 ], [ -3.3827, 40.2446 ], [ -3.3815, 40.2446 ], [ -3.3806, 40.2443 ], [ -3.3795, 40.2442 ], [ -3.3785, 40.2439 ], [ -3.3786, 40.2434 ], [ -3.3785, 40.2433 ], [ -3.3785, 40.2427 ], [ -3.3782, 40.2424 ], [ -3.3779, 40.2418 ], [ -3.3771, 40.242 ], [ -3.3769, 40.2422 ], [ -3.3765, 40.2422 ], [ -3.3765, 40.2421 ], [ -3.3744, 40.2422 ], [ -3.3735, 40.2416 ], [ -3.3729, 40.2421 ], [ -3.3726, 40.2421 ], [ -3.3725, 40.2424 ], [ -3.3717, 40.2432 ], [ -3.3713, 40.2435 ], [ -3.3704, 40.2438 ], [ -3.3697, 40.2445 ], [ -3.3703, 40.2451 ], [ -3.3722, 40.2465 ], [ -3.3743, 40.2472 ] ] ] } },
{ "type": "Feature", "properties": { "municipio": "Perales de Tajuña", "clasificacion": "urbanizable-sectorizado", "calificacion": "sin-asignar", "version": "vigente", "fuente": "SIT-CAM WFS — UsoDelSuelo:VPLA_V_CLASIFICACION (https://idem.comunidad.madrid/geosrvg/ows)", "fecha_dato": "2026-05-12", "ambito": "83916", "_raw_CD_SIGLAS": "SUBS", "_raw_DS_CLASIF_GEN": "Suelo de Reserva Urbana", "_raw_DS_CLASIF_DET": "Suelo de Reserva Urbana", "_raw_DS_DOCU": "NORMAS SUBSIDIARIAS", "_raw_DS_LEY": "E RD 1346/1976", "_raw_FC_AC": "2013-06-25", "_raw_NM_AREA_M2": 130724.175344185, "_cam_code": "110" }, "geometry": { "type": "Polygon", "coordinates": [ [ [ -3.3461, 40.2348 ], [ -3.3478, 40.2352 ], [ -3.3479, 40.235 ], [ -3.3483, 40.235 ], [ -3.3493, 40.2344 ], [ -3.3494, 40.2345 ], [ -3.3501, 40.2344 ], [ -3.3502, 40.2341 ], [ -3.3502, 40.2336 ], [ -3.3497, 40.2336 ], [ -3.3489, 40.2333 ], [ -3.3489, 40.2326 ], [ -3.3494, 40.2322 ], [ -3.3497, 40.2321 ], [ -3.3503, 40.2323 ], [ -3.3501, 40.2318 ], [ -3.3495, 40.2311 ], [ -3.3481, 40.2303 ], [ -3.3481, 40.2307 ], [ -3.3469, 40.2311 ], [ -3.347, 40.2321 ], [ -3.3468, 40.2326 ], [ -3.3465, 40.2326 ], [ -3.3456, 40.2332 ], [ -3.3455, 40.2336 ], [ -3.3453, 40.2349 ], [ -3.3461, 40.2348 ] ] ] } }
]
}
