{
"type": "FeatureCollection",
"name": "vigente.full",
"features": [
{ "type": "Feature", "properties": { "municipio": "Madarcos", "clasificacion": "no-urbanizable-protegido", "calificacion": "sin-asignar", "version": "vigente", "fuente": "SIT-CAM WFS — UsoDelSuelo:VPLA_V_CLASIFICACION (https://idem.comunidad.madrid/geosrvg/ows)", "fecha_dato": "2026-05-12", "ambito": "19754", "_raw_CD_SIGLAS": "SNUP", "_raw_DS_CLASIF_GEN": "Suelo No Urbanizable Protegido", "_raw_DS_CLASIF_DET": "Suelo No Urbanizable Especialmente Protegido Ecológico", "_raw_DS_DOCU": "NORMAS SUBSIDIARIAS", "_raw_DS_LEY": "CM Ley 4/1984, E RD 1346/1976", "_raw_FC_AC": "1992-11-12", "_raw_NM_AREA_M2": 94478.405723234799, "_cam_code": "078" }, "geometry": { "type": "Polygon", "coordinates": [ [ [ -3.5865, 41.0467 ], [ -3.5869, 41.0459 ], [ -3.5874, 41.0459 ], [ -3.5873, 41.0455 ], [ -3.5887, 41.0446 ], [ -3.5886, 41.0444 ], [ -3.5881, 41.0443 ], [ -3.5878, 41.0441 ], [ -3.5871, 41.043 ], [ -3.5879, 41.0447 ], [ -3.5872, 41.0455 ], [ -3.5868, 41.0457 ], [ -3.5866, 41.0461 ], [ -3.5856, 41.0471 ], [ -3.5855, 41.0476 ], [ -3.585, 41.0488 ], [ -3.5849, 41.0488 ], [ -3.5849, 41.0497 ], [ -3.5851, 41.0499 ], [ -3.5852, 41.051 ], [ -3.5853, 41.051 ], [ -3.5854, 41.0517 ], [ -3.5855, 41.0517 ], [ -3.5856, 41.0521 ], [ -3.5857, 41.0521 ], [ -3.5858, 41.0541 ], [ -3.5859, 41.0541 ], [ -3.586, 41.0546 ], [ -3.5861, 41.0546 ], [ -3.5863, 41.0554 ], [ -3.5863, 41.0578 ], [ -3.5871, 41.0571 ], [ -3.5871, 41.0567 ], [ -3.5865, 41.0547 ], [ -3.5862, 41.0512 ], [ -3.5863, 41.0507 ], [ -3.5862, 41.0484 ], [ -3.5865, 41.0478 ], [ -3.5865, 41.0467 ] ] ] } },
{ "type": "Feature", "properties": { "municipio": "Madarcos", "clasificacion": "no-urbanizable-protegido", "calificacion": "sin-asignar", "version": "vigente", "fuente": "SIT-CAM WFS — UsoDelSuelo:VPLA_V_CLASIFICACION (https://idem.comunidad.madrid/geosrvg/ows)", "fecha_dato": "2026-05-12", "ambito": "19754", "_raw_CD_SIGLAS": "SNUP", "_raw_DS_CLASIF_GEN": "Suelo No Urbanizable Protegido", "_raw_DS_CLASIF_DET": "Suelo No Urbanizable Especialmente Protegido Ecológico", "_raw_DS_DOCU": "NORMAS SUBSIDIARIAS", "_raw_DS_LEY": "CM Ley 4/1984, E RD 1346/1976", "_raw_FC_AC": "1992-11-12", "_raw_NM_AREA_M2": 215009.33179709001, "_cam_code": "078" }, "geometry": { "type": "Polygon", "coordinates": [ [ [ -3.5627, 41.0479 ], [ -3.561, 41.0483 ], [ -3.5593, 41.0484 ], [ -3.5617, 41.0488 ], [ -3.5617, 41.0489 ], [ -3.5619, 41.0489 ], [ -3.5619, 41.0491 ], [ -3.5622, 41.0494 ], [ -3.5621, 41.0511 ], [ -3.562, 41.0512 ], [ -3.5621, 41.0517 ], [ -3.562, 41.0518 ], [ -3.5619, 41.0529 ], [ -3.562, 41.0529 ], [ -3.5625, 41.054 ], [ -3.5629, 41.0544 ], [ -3.5629, 41.0547 ], [ -3.5626, 41.055 ], [ -3.5626, 41.0554 ], [ -3.5624, 41.0557 ], [ -3.5624, 41.0566 ], [ -3.5628, 41.0576 ], [ -3.5631, 41.0579 ], [ -3.563, 41.0582 ], [ -3.5639, 41.0582 ], [ -3.565, 41.0577 ], [ -3.5657, 41.0572 ], [ -3.5657, 41.0566 ], [ -3.5652, 41.0556 ], [ -3.5646, 41.0553 ], [ -3.5642, 41.0547 ], [ -3.5641, 41.0542 ], [ -3.5642, 41.0534 ], [ -3.5649, 41.0513 ], [ -3.5649, 41.0509 ], [ -3.5639, 41.0498 ], [ -3.5628, 41.048 ], [ -3.5627, 41.0479 ] ] ] } },
{ "type": "Feature", "properties": { "municipio": "Madarcos", "clasificacion": "no-urbanizable-protegido", "calificacion": "sin-asignar", "version": "vigente", "fuente": "SIT-CAM WFS — UsoDelSuelo:VPLA_V_CLASIFICACION (https://idem.comunidad.madrid/geosrvg/ows)", "fecha_dato": "2026-05-12", "ambito": "19754", "_raw_CD_SIGLAS": "SNUP", "_raw_DS_CLASIF_GEN": "Suelo No Urbanizable Protegido", "_raw_DS_CLASIF_DET": "Suelo No Urbanizable Especialmente Protegido Ecológico", "_raw_DS_DOCU": "NORMAS SUBSIDIARIAS", "_raw_DS_LEY": "CM Ley 4/1984, E RD 1346/1976", "_raw_FC_AC": "1992-11-12", "_raw_NM_AREA_M2": 52621.733058272497, "_cam_code": "078" }, "geometry": { "type": "Polygon", "coordinates": [ [ [ -3.5838, 41.0545 ], [ -3.584, 41.0558 ], [ -3.5841, 41.0557 ], [ -3.5852, 41.0557 ], [ -3.5853, 41.0556 ], [ -3.5851, 41.0554 ], [ -3.5851, 41.0548 ], [ -3.5847, 41.054 ], [ -3.5847, 41.0534 ], [ -3.5849, 41.0534 ], [ -3.5849, 41.0529 ], [ -3.5848, 41.0526 ], [ -3.5846, 41.0525 ], [ -3.5847, 41.0524 ], [ -3.5846, 41.052 ], [ -3.5843, 41.0516 ], [ -3.5843, 41.0514 ], [ -3.5833, 41.0521 ], [ -3.5833, 41.0525 ], [ -3.5831, 41.0529 ], [ -3.5826, 41.0531 ], [ -3.5832, 41.0535 ], [ -3.5834, 41.054 ], [ -3.5835, 41.054 ], [ -3.5836, 41.0545 ], [ -3.5838, 41.0545 ] ] ] } },
{ "type": "Feature", "properties": { "municipio": "Madarcos", "clasificacion": "no-urbanizable-protegido", "calificacion": "sin-asignar", "version": "vigente", "fuente": "SIT-CAM WFS — UsoDelSuelo:VPLA_V_CLASIFICACION (https://idem.comunidad.madrid/geosrvg/ows)", "fecha_dato": "2026-05-12", "ambito": "19754", "_raw_CD_SIGLAS": "SNUP", "_raw_DS_CLASIF_GEN": "Suelo No Urbanizable Protegido", "_raw_DS_CLASIF_DET": "Suelo No Urbanizable Especialmente Protegido Ganadero", "_raw_DS_DOCU": "NORMAS SUBSIDIARIAS", "_raw_DS_LEY": "CM Ley 4/1984, E RD 1346/1976", "_raw_FC_AC": "1992-11-12", "_raw_NM_AREA_M2": 52218.790427581502, "_cam_code": "078" }, "geometry": { "type": "Polygon", "coordinates": [ [ [ -3.5815, 41.0589 ], [ -3.582, 41.0589 ], [ -3.5832, 41.0585 ], [ -3.5832, 41.0584 ], [ -3.5853, 41.058 ], [ -3.5854, 41.0577 ], [ -3.5855, 41.0577 ], [ -3.5855, 41.0572 ], [ -3.5846, 41.057 ], [ -3.5844, 41.0568 ], [ -3.584, 41.0568 ], [ -3.583, 41.0563 ], [ -3.5818, 41.0561 ], [ -3.5818, 41.0566 ], [ -3.5822, 41.0567 ], [ -3.5825, 41.057 ], [ -3.5826, 41.0575 ], [ -3.5825, 41.0575 ], [ -3.5825, 41.0578 ], [ -3.5817, 41.0585 ], [ -3.5815, 41.0589 ] ] ] } },
{ "type": "Feature", "properties": { "municipio": "Madarcos", "clasificacion": "no-urbanizable-protegido", "calificacion": "sin-asignar", "version": "vigente", "fuente": "SIT-CAM WFS — UsoDelSuelo:VPLA_V_CLASIFICACION (https://idem.comunidad.madrid/geosrvg/ows)", "fecha_dato": "2026-05-12", "ambito": "19754", "_raw_CD_SIGLAS": "SNUP", "_raw_DS_CLASIF_GEN": "Suelo No Urbanizable Protegido", "_raw_DS_CLASIF_DET": "Suelo No Urbanizable Especialmente Protegido Ganadero", "_raw_DS_DOCU": "NORMAS SUBSIDIARIAS", "_raw_DS_LEY": "CM Ley 4/1984, E RD 1346/1976", "_raw_FC_AC": "1992-11-12", "_raw_NM_AREA_M2": 2897391.3567938302, "_cam_code": "078" }, "geometry": { "type": "Polygon", "coordinates": [ [ [ -3.5647, 41.0521 ], [ -3.5642, 41.0534 ], [ -3.5641, 41.0542 ], [ -3.5642, 41.0547 ], [ -3.5646, 41.0553 ], [ -3.5652, 41.0556 ], [ -3.5657, 41.0566 ], [ -3.5657, 41.0572 ], [ -3.5665, 41.0565 ], [ -3.5665, 41.0563 ], [ -3.5671, 41.0557 ], [ -3.5685, 41.0549 ], [ -3.5685, 41.0547 ], [ -3.5687, 41.0546 ], [ -3.5688, 41.0543 ], [ -3.5704, 41.0527 ], [ -3.572, 41.0503 ], [ -3.5729, 41.0498 ], [ -3.5729, 41.0496 ], [ -3.5742, 41.0489 ], [ -3.5747, 41.0484 ], [ -3.5749, 41.0476 ], [ -3.5776, 41.0466 ], [ -3.5786, 41.0459 ], [ -3.5788, 41.0457 ], [ -3.5795, 41.0442 ], [ -3.5794, 41.0433 ], [ -3.5789, 41.0415 ], [ -3.5794, 41.0402 ], [ -3.5796, 41.0399 ], [ -3.5815, 41.0398 ], [ -3.5819, 41.0396 ], [ -3.5819, 41.0379 ], [ -3.582, 41.0372 ], [ -3.5824, 41.0364 ], [ -3.5824, 41.036 ], [ -3.5813, 41.0352 ], [ -3.5811, 41.0349 ], [ -3.5809, 41.0344 ], [ -3.5811, 41.0337 ], [ -3.5818, 41.0331 ], [ -3.5823, 41.033 ], [ -3.5834, 41.0336 ], [ -3.5836, 41.0336 ], [ -3.5837, 41.0333 ], [ -3.5826, 41.033 ], [ -3.5821, 41.0327 ], [ -3.5816, 41.0327 ], [ -3.5799, 41.0318 ], [ -3.5791, 41.0321 ], [ -3.5786, 41.0324 ], [ -3.5787, 41.0334 ], [ -3.5785, 41.0339 ], [ -3.5781, 41.0341 ], [ -3.5781, 41.0343 ], [ -3.5784, 41.0345 ], [ -3.5785, 41.0348 ], [ -3.5784, 41.0351 ], [ -3.5779, 41.0354 ], [ -3.5777, 41.0358 ], [ -3.5766, 41.0364 ], [ -3.5764, 41.0369 ], [ -3.5757, 41.0362 ], [ -3.5754, 41.0355 ], [ -3.5755, 41.0348 ], [ -3.5762, 41.0329 ], [ -3.5762, 41.0316 ], [ -3.5754, 41.0301 ], [ -3.5747, 41.0301 ], [ -3.5724, 41.0307 ], [ -3.5716, 41.0314 ], [ -3.5692, 41.0329 ], [ -3.5663, 41.0324 ], [ -3.5648, 41.0323 ], [ -3.5647, 41.0327 ], [ -3.5641, 41.0334 ], [ -3.5635, 41.0336 ], [ -3.5629, 41.0335 ], [ -3.5628, 41.0331 ], [ -3.5609, 41.0322 ], [ -3.5605, 41.0321 ], [ -3.5598, 41.0322 ], [ -3.5599, 41.0325 ], [ -3.5595, 41.0345 ], [ -3.5596, 41.0352 ], [ -3.5598, 41.0355 ], [ -3.5593, 41.0377 ], [ -3.5598, 41.0397 ], [ -3.5602, 41.0407 ], [ -3.561, 41.0418 ], [ -3.5616, 41.0418 ], [ -3.5619, 41.0415 ], [ -3.5619, 41.0409 ], [ -3.5613, 41.0406 ], [ -3.5613, 41.0397 ], [ -3.5618, 41.0398 ], [ -3.5619, 41.0391 ], [ -3.5624, 41.0389 ], [ -3.5625, 41.0386 ], [ -3.5627, 41.0385 ], [ -3.5628, 41.0377 ], [ -3.5632, 41.0373 ], [ -3.5638, 41.0371 ], [ -3.5641, 41.0368 ], [ -3.5642, 41.0364 ], [ -3.5657, 41.0364 ], [ -3.5657, 41.0362 ], [ -3.566, 41.0362 ], [ -3.5664, 41.037 ], [ -3.5667, 41.0372 ], [ -3.5668, 41.0374 ], [ -3.5663, 41.0375 ], [ -3.5662, 41.0377 ], [ -3.5663, 41.038 ], [ -3.5661, 41.0383 ], [ -3.5661, 41.0388 ], [ -3.566, 41.0389 ], [ -3.5666, 41.04 ], [ -3.5669, 41.0402 ], [ -3.5686, 41.0402 ], [ -3.569, 41.0401 ], [ -3.5685, 41.0407 ], [ -3.5686, 41.0421 ], [ -3.5683, 41.0424 ], [ -3.567, 41.0424 ], [ -3.5664, 41.0421 ], [ -3.5641, 41.0444 ], [ -3.5646, 41.0451 ], [ -3.5646, 41.0453 ], [ -3.5655, 41.046 ], [ -3.5656, 41.0465 ], [ -3.5652, 41.0468 ], [ -3.5632, 41.0476 ], [ -3.5628, 41.048 ], [ -3.5639, 41.0498 ], [ -3.5649, 41.0509 ], [ -3.5647, 41.0521 ] ] ] } },
{ "type": "Feature", "properties": { "municipio": "Madarcos", "clasificacion": "no-urbanizable-protegido", "calificacion": "sin-asignar", "version": "vigente", "fuente": "SIT-CAM WFS — UsoDelSuelo:VPLA_V_CLASIFICACION (https://idem.comunidad.madrid/geosrvg/ows)", "fecha_dato": "2026-05-12", "ambito": "19754", "_raw_CD_SIGLAS": "SNUP", "_raw_DS_CLASIF_GEN": "Suelo No Urbanizable Protegido", "_raw_DS_CLASIF_DET": "Suelo No Urbanizable Especialmente Protegido Ganadero", "_raw_DS_DOCU": "NORMAS SUBSIDIARIAS", "_raw_DS_LEY": "CM Ley 4/1984, E RD 1346/1976", "_raw_FC_AC": "1992-11-12", "_raw_NM_AREA_M2": 568254.09520122001, "_cam_code": "078" }, "geometry": { "type": "Polygon", "coordinates": [ [ [ -3.5755, 41.0544 ], [ -3.5761, 41.0548 ], [ -3.5763, 41.0548 ], [ -3.5766, 41.0544 ], [ -3.5767, 41.054 ], [ -3.5774, 41.0532 ], [ -3.5776, 41.0532 ], [ -3.5776, 41.0531 ], [ -3.5798, 41.053 ], [ -3.58, 41.0524 ], [ -3.5809, 41.0524 ], [ -3.5813, 41.0517 ], [ -3.5814, 41.0517 ], [ -3.5815, 41.0522 ], [ -3.5818, 41.0523 ], [ -3.5826, 41.0521 ], [ -3.5833, 41.0521 ], [ -3.5843, 41.0514 ], [ -3.5844, 41.0509 ], [ -3.5843, 41.0507 ], [ -3.5844, 41.0504 ], [ -3.5842, 41.0502 ], [ -3.5843, 41.0499 ], [ -3.5842, 41.0499 ], [ -3.5842, 41.0496 ], [ -3.5838, 41.0494 ], [ -3.5838, 41.0487 ], [ -3.5836, 41.0483 ], [ -3.583, 41.0485 ], [ -3.583, 41.0486 ], [ -3.5821, 41.0486 ], [ -3.5819, 41.0488 ], [ -3.5818, 41.0493 ], [ -3.5813, 41.0491 ], [ -3.5813, 41.0488 ], [ -3.5802, 41.0488 ], [ -3.5803, 41.0483 ], [ -3.5802, 41.0483 ], [ -3.5802, 41.0481 ], [ -3.5803, 41.048 ], [ -3.5801, 41.0478 ], [ -3.5804, 41.0477 ], [ -3.5804, 41.0474 ], [ -3.5807, 41.0471 ], [ -3.5811, 41.0471 ], [ -3.5815, 41.0473 ], [ -3.582, 41.0468 ], [ -3.5819, 41.0465 ], [ -3.5814, 41.0464 ], [ -3.5814, 41.0463 ], [ -3.5807, 41.0464 ], [ -3.5787, 41.0461 ], [ -3.5777, 41.0468 ], [ -3.5771, 41.0469 ], [ -3.5753, 41.0477 ], [ -3.575, 41.0479 ], [ -3.5744, 41.0489 ], [ -3.5729, 41.0498 ], [ -3.5725, 41.0503 ], [ -3.5725, 41.0506 ], [ -3.5724, 41.0506 ], [ -3.5724, 41.0517 ], [ -3.5729, 41.0526 ], [ -3.5729, 41.053 ], [ -3.5733, 41.053 ], [ -3.5734, 41.0535 ], [ -3.5748, 41.0543 ], [ -3.5755, 41.0544 ] ] ] } },
{ "type": "Feature", "properties": { "municipio": "Madarcos", "clasificacion": "no-urbanizable-protegido", "calificacion": "sin-asignar", "version": "vigente", "fuente": "SIT-CAM WFS — UsoDelSuelo:VPLA_V_CLASIFICACION (https://idem.comunidad.madrid/geosrvg/ows)", "fecha_dato": "2026-05-12", "ambito": "19754", "_raw_CD_SIGLAS": "SNUP", "_raw_DS_CLASIF_GEN": "Suelo No Urbanizable Protegido", "_raw_DS_CLASIF_DET": "Suelo No Urbanizable Especialmente Protegido Ganadero", "_raw_DS_DOCU": "NORMAS SUBSIDIARIAS", "_raw_DS_LEY": "CM Ley 4/1984, E RD 1346/1976", "_raw_FC_AC": "1992-11-12", "_raw_NM_AREA_M2": 339674.50117051002, "_cam_code": "078" }, "geometry": { "type": "Polygon", "coordinates": [ [ [ -3.5821, 41.0463 ], [ -3.5829, 41.0465 ], [ -3.5832, 41.0461 ], [ -3.584, 41.0457 ], [ -3.5843, 41.0453 ], [ -3.5851, 41.0452 ], [ -3.5849, 41.0449 ], [ -3.5848, 41.0434 ], [ -3.5851, 41.0406 ], [ -3.585, 41.0394 ], [ -3.5844, 41.0381 ], [ -3.5833, 41.0378 ], [ -3.5824, 41.038 ], [ -3.5823, 41.0386 ], [ -3.5825, 41.039 ], [ -3.5823, 41.0395 ], [ -3.5823, 41.0399 ], [ -3.5816, 41.0402 ], [ -3.5799, 41.0402 ], [ -3.5798, 41.0407 ], [ -3.5795, 41.0412 ], [ -3.5795, 41.0418 ], [ -3.58, 41.0443 ], [ -3.5794, 41.0454 ], [ -3.5793, 41.046 ], [ -3.5808, 41.0463 ], [ -3.5816, 41.0462 ], [ -3.582, 41.0465 ], [ -3.5821, 41.0463 ] ] ] } },
{ "type": "Feature", "properties": { "municipio": "Madarcos", "clasificacion": "no-urbanizable-protegido", "calificacion": "sin-asignar", "version": "vigente", "fuente": "SIT-CAM WFS — UsoDelSuelo:VPLA_V_CLASIFICACION (https://idem.comunidad.madrid/geosrvg/ows)", "fecha_dato": "2026-05-12", "ambito": "19754", "_raw_CD_SIGLAS": "SNUP", "_raw_DS_CLASIF_GEN": "Suelo No Urbanizable Protegido", "_raw_DS_CLASIF_DET": "Suelo No Urbanizable Especialmente Protegido Ganadero", "_raw_DS_DOCU": "NORMAS SUBSIDIARIAS", "_raw_DS_LEY": "CM Ley 4/1984, E RD 1346/1976", "_raw_FC_AC": "1992-11-12", "_raw_NM_AREA_M2": 347539.38853541698, "_cam_code": "078" }, "geometry": { "type": "Polygon", "coordinates": [ [ [ -3.5631, 41.0329 ], [ -3.564, 41.0328 ], [ -3.5645, 41.0326 ], [ -3.5649, 41.032 ], [ -3.5667, 41.0324 ], [ -3.568, 41.0323 ], [ -3.5694, 41.0325 ], [ -3.5698, 41.0321 ], [ -3.57, 41.0312 ], [ -3.5689, 41.0313 ], [ -3.5688, 41.0308 ], [ -3.5685, 41.0306 ], [ -3.5686, 41.03 ], [ -3.5685, 41.0298 ], [ -3.5678, 41.0297 ], [ -3.5673, 41.0289 ], [ -3.567, 41.0288 ], [ -3.5665, 41.0283 ], [ -3.5661, 41.0277 ], [ -3.5656, 41.0275 ], [ -3.5653, 41.0272 ], [ -3.5649, 41.0271 ], [ -3.5644, 41.0277 ], [ -3.5645, 41.0282 ], [ -3.5644, 41.0283 ], [ -3.5621, 41.0285 ], [ -3.5617, 41.0289 ], [ -3.5601, 41.0289 ], [ -3.5593, 41.0292 ], [ -3.5587, 41.0291 ], [ -3.5582, 41.0292 ], [ -3.5592, 41.0307 ], [ -3.5597, 41.0318 ], [ -3.5604, 41.0317 ], [ -3.5618, 41.0322 ], [ -3.5631, 41.0329 ] ] ] } },
{ "type": "Feature", "properties": { "municipio": "Madarcos", "clasificacion": "no-urbanizable-protegido", "calificacion": "sin-asignar", "version": "vigente", "fuente": "SIT-CAM WFS — UsoDelSuelo:VPLA_V_CLASIFICACION (https://idem.comunidad.madrid/geosrvg/ows)", "fecha_dato": "2026-05-12", "ambito": "19754", "_raw_CD_SIGLAS": "SNUP", "_raw_DS_CLASIF_GEN": "Suelo No Urbanizable Protegido", "_raw_DS_CLASIF_DET": "Suelo No Urbanizable Especialmente Protegido Ecológico", "_raw_DS_DOCU": "NORMAS SUBSIDIARIAS", "_raw_DS_LEY": "CM Ley 4/1984, E RD 1346/1976", "_raw_FC_AC": "1992-11-12", "_raw_NM_AREA_M2": 160190.00655276299, "_cam_code": "078" }, "geometry": { "type": "Polygon", "coordinates": [ [ [ -3.5762, 41.0316 ], [ -3.5762, 41.0329 ], [ -3.5755, 41.0348 ], [ -3.5754, 41.0355 ], [ -3.5757, 41.0362 ], [ -3.5764, 41.0369 ], [ -3.5766, 41.0364 ], [ -3.5777, 41.0358 ], [ -3.5779, 41.0354 ], [ -3.5784, 41.0351 ], [ -3.5785, 41.0348 ], [ -3.5784, 41.0345 ], [ -3.5781, 41.0343 ], [ -3.5781, 41.0341 ], [ -3.5785, 41.0339 ], [ -3.5787, 41.0334 ], [ -3.5786, 41.0324 ], [ -3.5799, 41.0318 ], [ -3.5816, 41.0327 ], [ -3.5821, 41.0327 ], [ -3.5816, 41.0325 ], [ -3.5801, 41.0315 ], [ -3.5794, 41.0308 ], [ -3.579, 41.0302 ], [ -3.5778, 41.0307 ], [ -3.5773, 41.0307 ], [ -3.5763, 41.0303 ], [ -3.5759, 41.0303 ], [ -3.5754, 41.0301 ], [ -3.5762, 41.0316 ] ] ] } },
{ "type": "Feature", "properties": { "municipio": "Madarcos", "clasificacion": "no-urbanizable-protegido", "calificacion": "sin-asignar", "version": "vigente", "fuente": "SIT-CAM WFS — UsoDelSuelo:VPLA_V_CLASIFICACION (https://idem.comunidad.madrid/geosrvg/ows)", "fecha_dato": "2026-05-12", "ambito": "19754", "_raw_CD_SIGLAS": "SNUP", "_raw_DS_CLASIF_GEN": "Suelo No Urbanizable Protegido", "_raw_DS_CLASIF_DET": "Suelo No Urbanizable Especialmente Protegido Ecológico", "_raw_DS_DOCU": "NORMAS SUBSIDIARIAS", "_raw_DS_LEY": "CM Ley 4/1984, E RD 1346/1976", "_raw_FC_AC": "1992-11-12", "_raw_NM_AREA_M2": 883022.71992972703, "_cam_code": "078" }, "geometry": { "type": "Polygon", "coordinates": [ [ [ -3.5576, 41.0291 ], [ -3.5574, 41.0304 ], [ -3.5555, 41.0343 ], [ -3.5568, 41.0338 ], [ -3.5574, 41.0333 ], [ -3.5574, 41.0331 ], [ -3.5588, 41.0322 ], [ -3.5597, 41.0318 ], [ -3.5592, 41.0307 ], [ -3.5582, 41.0292 ], [ -3.5587, 41.0291 ], [ -3.5593, 41.0292 ], [ -3.5601, 41.0289 ], [ -3.5617, 41.0289 ], [ -3.5621, 41.0285 ], [ -3.5644, 41.0283 ], [ -3.5645, 41.0282 ], [ -3.5644, 41.0277 ], [ -3.5649, 41.0271 ], [ -3.5653, 41.0272 ], [ -3.5656, 41.0275 ], [ -3.5661, 41.0277 ], [ -3.5665, 41.0283 ], [ -3.567, 41.0288 ], [ -3.5673, 41.0289 ], [ -3.5678, 41.0297 ], [ -3.5685, 41.0298 ], [ -3.5686, 41.03 ], [ -3.5685, 41.0306 ], [ -3.5688, 41.0308 ], [ -3.5689, 41.0313 ], [ -3.5701, 41.0312 ], [ -3.5706, 41.031 ], [ -3.5707, 41.0307 ], [ -3.5711, 41.0307 ], [ -3.5724, 41.03 ], [ -3.5749, 41.0293 ], [ -3.5758, 41.0293 ], [ -3.578, 41.0299 ], [ -3.5791, 41.0285 ], [ -3.5791, 41.0281 ], [ -3.5786, 41.0266 ], [ -3.5788, 41.0259 ], [ -3.5795, 41.0253 ], [ -3.5808, 41.025 ], [ -3.5819, 41.025 ], [ -3.5821, 41.0249 ], [ -3.5829, 41.0237 ], [ -3.5838, 41.0228 ], [ -3.5836, 41.0226 ], [ -3.5834, 41.0226 ], [ -3.5828, 41.0229 ], [ -3.5824, 41.0229 ], [ -3.5816, 41.0225 ], [ -3.5806, 41.0225 ], [ -3.5804, 41.0226 ], [ -3.5801, 41.0233 ], [ -3.5793, 41.0239 ], [ -3.5781, 41.0243 ], [ -3.5762, 41.0246 ], [ -3.5737, 41.0245 ], [ -3.5712, 41.0246 ], [ -3.5707, 41.0244 ], [ -3.5703, 41.0244 ], [ -3.5699, 41.0245 ], [ -3.5692, 41.0253 ], [ -3.5685, 41.0257 ], [ -3.5666, 41.0259 ], [ -3.5661, 41.0261 ], [ -3.5656, 41.0265 ], [ -3.565, 41.0267 ], [ -3.5647, 41.0266 ], [ -3.5622, 41.0267 ], [ -3.5617, 41.0264 ], [ -3.5612, 41.0258 ], [ -3.5609, 41.0258 ], [ -3.5604, 41.0267 ], [ -3.5596, 41.0275 ], [ -3.5591, 41.0272 ], [ -3.5576, 41.0291 ] ] ] } },
{ "type": "Feature", "properties": { "municipio": "Madarcos", "clasificacion": "no-urbanizable-protegido", "calificacion": "sin-asignar", "version": "vigente", "fuente": "SIT-CAM WFS — UsoDelSuelo:VPLA_V_CLASIFICACION (https://idem.comunidad.madrid/geosrvg/ows)", "fecha_dato": "2026-05-12", "ambito": "19754", "_raw_CD_SIGLAS": "SNUP", "_raw_DS_CLASIF_GEN": "Suelo No Urbanizable Protegido", "_raw_DS_CLASIF_DET": "Suelo No Urbanizable Especialmente Protegido Ecológico", "_raw_DS_DOCU": "NORMAS SUBSIDIARIAS", "_raw_DS_LEY": "CM Ley 4/1984, E RD 1346/1976", "_raw_FC_AC": "1992-11-12", "_raw_NM_AREA_M2": 63010.298154773001, "_cam_code": "078" }, "geometry": { "type": "Polygon", "coordinates": [ [ [ -3.58, 41.0291 ], [ -3.5798, 41.0296 ], [ -3.5801, 41.0304 ], [ -3.5803, 41.0306 ], [ -3.5807, 41.031 ], [ -3.5809, 41.0312 ], [ -3.5811, 41.0313 ], [ -3.5814, 41.0315 ], [ -3.5818, 41.0317 ], [ -3.5821, 41.032 ], [ -3.5839, 41.0327 ], [ -3.5824, 41.0321 ], [ -3.5824, 41.032 ], [ -3.5817, 41.0316 ], [ -3.5816, 41.0316 ], [ -3.5815, 41.0315 ], [ -3.5814, 41.0315 ], [ -3.5812, 41.0314 ], [ -3.5811, 41.0313 ], [ -3.581, 41.0312 ], [ -3.5809, 41.0311 ], [ -3.5808, 41.031 ], [ -3.5807, 41.031 ], [ -3.5806, 41.0309 ], [ -3.5804, 41.0307 ], [ -3.5804, 41.0307 ], [ -3.5803, 41.0305 ], [ -3.5802, 41.0305 ], [ -3.5802, 41.0305 ], [ -3.5802, 41.0304 ], [ -3.5799, 41.0298 ], [ -3.5799, 41.0296 ], [ -3.58, 41.0296 ], [ -3.5803, 41.0287 ], [ -3.5805, 41.0277 ], [ -3.5803, 41.0263 ], [ -3.5805, 41.0261 ], [ -3.5811, 41.0259 ], [ -3.5826, 41.0259 ], [ -3.5829, 41.0258 ], [ -3.5841, 41.024 ], [ -3.5844, 41.0238 ], [ -3.5848, 41.0239 ], [ -3.5851, 41.0242 ], [ -3.5857, 41.0242 ], [ -3.5864, 41.0234 ], [ -3.5865, 41.0231 ], [ -3.5863, 41.0225 ], [ -3.5851, 41.0223 ], [ -3.5837, 41.0216 ], [ -3.5833, 41.0216 ], [ -3.5828, 41.022 ], [ -3.5825, 41.022 ], [ -3.582, 41.0218 ], [ -3.582, 41.0217 ], [ -3.5808, 41.0218 ], [ -3.5803, 41.0214 ], [ -3.5801, 41.0214 ], [ -3.5801, 41.0213 ], [ -3.5798, 41.0213 ], [ -3.5795, 41.0215 ], [ -3.5793, 41.0228 ], [ -3.5788, 41.0233 ], [ -3.5786, 41.0233 ], [ -3.5787, 41.0234 ], [ -3.579, 41.0233 ], [ -3.5793, 41.023 ], [ -3.5796, 41.0224 ], [ -3.5797, 41.0217 ], [ -3.5802, 41.0215 ], [ -3.5805, 41.0218 ], [ -3.581, 41.022 ], [ -3.5812, 41.0219 ], [ -3.5823, 41.022 ], [ -3.5824, 41.0222 ], [ -3.5827, 41.0223 ], [ -3.5831, 41.0222 ], [ -3.5836, 41.0218 ], [ -3.5841, 41.022 ], [ -3.5847, 41.0225 ], [ -3.585, 41.0225 ], [ -3.5857, 41.0228 ], [ -3.586, 41.0232 ], [ -3.5859, 41.0236 ], [ -3.5855, 41.0239 ], [ -3.5853, 41.0239 ], [ -3.5851, 41.0237 ], [ -3.5851, 41.0235 ], [ -3.5849, 41.0234 ], [ -3.5845, 41.0234 ], [ -3.584, 41.0237 ], [ -3.5824, 41.0257 ], [ -3.5818, 41.0256 ], [ -3.5804, 41.0259 ], [ -3.5798, 41.0259 ], [ -3.5795, 41.0265 ], [ -3.5797, 41.0268 ], [ -3.5801, 41.0281 ], [ -3.5801, 41.0286 ], [ -3.5798, 41.0291 ], [ -3.58, 41.0291 ] ] ] } },
{ "type": "Feature", "properties": { "municipio": "Madarcos", "clasificacion": "no-urbanizable-protegido", "calificacion": "sin-asignar", "version": "vigente", "fuente": "SIT-CAM WFS — UsoDelSuelo:VPLA_V_CLASIFICACION (https://idem.comunidad.madrid/geosrvg/ows)", "fecha_dato": "2026-05-12", "ambito": "19754", "_raw_CD_SIGLAS": "SNUP", "_raw_DS_CLASIF_GEN": "Suelo No Urbanizable Protegido", "_raw_DS_CLASIF_DET": "Suelo No Urbanizable Especialmente Protegido Descansadero", "_raw_DS_DOCU": "NORMAS SUBSIDIARIAS", "_raw_DS_LEY": "CM Ley 4/1984, E RD 1346/1976", "_raw_FC_AC": "1992-11-12", "_raw_NM_AREA_M2": 10373.6444311796, "_cam_code": "078" }, "geometry": { "type": "Polygon", "coordinates": [ [ [ -3.5628, 41.0332 ], [ -3.5629, 41.0335 ], [ -3.5637, 41.0336 ], [ -3.5641, 41.0334 ], [ -3.5647, 41.0327 ], [ -3.5644, 41.0326 ], [ -3.564, 41.0328 ], [ -3.5633, 41.0328 ], [ -3.5628, 41.0332 ] ] ] } },
{ "type": "Feature", "properties": { "municipio": "Madarcos", "clasificacion": "no-urbanizable-protegido", "calificacion": "sin-asignar", "version": "vigente", "fuente": "SIT-CAM WFS — UsoDelSuelo:VPLA_V_CLASIFICACION (https://idem.comunidad.madrid/geosrvg/ows)", "fecha_dato": "2026-05-12", "ambito": "19754", "_raw_CD_SIGLAS": "SNUP", "_raw_DS_CLASIF_GEN": "Suelo No Urbanizable Protegido", "_raw_DS_CLASIF_DET": "Suelo No Urbanizable Especialmente Protegido Cultural", "_raw_DS_DOCU": "NORMAS SUBSIDIARIAS", "_raw_DS_LEY": "CM Ley 4/1984, E RD 1346/1976", "_raw_FC_AC": "1992-11-12", "_raw_NM_AREA_M2": 701100.248389013, "_cam_code": "078" }, "geometry": { "type": "Polygon", "coordinates": [ [ [ -3.583, 41.0464 ], [ -3.5834, 41.0462 ], [ -3.5832, 41.0462 ], [ -3.5846, 41.0457 ], [ -3.5848, 41.0455 ], [ -3.5851, 41.0455 ], [ -3.5862, 41.0448 ], [ -3.586, 41.0454 ], [ -3.5849, 41.0465 ], [ -3.5847, 41.0476 ], [ -3.5844, 41.0484 ], [ -3.5844, 41.0492 ], [ -3.5851, 41.0524 ], [ -3.5854, 41.0549 ], [ -3.5858, 41.0568 ], [ -3.5855, 41.0583 ], [ -3.586, 41.058 ], [ -3.5859, 41.0575 ], [ -3.586, 41.0569 ], [ -3.5858, 41.0551 ], [ -3.5854, 41.0534 ], [ -3.5854, 41.0525 ], [ -3.585, 41.0514 ], [ -3.5846, 41.0493 ], [ -3.5846, 41.0486 ], [ -3.5847, 41.048 ], [ -3.585, 41.0476 ], [ -3.5851, 41.0469 ], [ -3.5868, 41.045 ], [ -3.5867, 41.0433 ], [ -3.5863, 41.0426 ], [ -3.5861, 41.0414 ], [ -3.5864, 41.0406 ], [ -3.5861, 41.0395 ], [ -3.5855, 41.0382 ], [ -3.5847, 41.0372 ], [ -3.5835, 41.0362 ], [ -3.5836, 41.0359 ], [ -3.5828, 41.0354 ], [ -3.5818, 41.0345 ], [ -3.5818, 41.0341 ], [ -3.5823, 41.0338 ], [ -3.5831, 41.0343 ], [ -3.5835, 41.0344 ], [ -3.5835, 41.0345 ], [ -3.584, 41.0345 ], [ -3.5844, 41.0338 ], [ -3.585, 41.0336 ], [ -3.585, 41.0332 ], [ -3.5843, 41.0328 ], [ -3.5821, 41.032 ], [ -3.5818, 41.0317 ], [ -3.5809, 41.0312 ], [ -3.5801, 41.0304 ], [ -3.5798, 41.0296 ], [ -3.5799, 41.0292 ], [ -3.58, 41.0292 ], [ -3.58, 41.0291 ], [ -3.5798, 41.0291 ], [ -3.5801, 41.0286 ], [ -3.5801, 41.0281 ], [ -3.5795, 41.0264 ], [ -3.5798, 41.0259 ], [ -3.5804, 41.0259 ], [ -3.5818, 41.0256 ], [ -3.5824, 41.0257 ], [ -3.5835, 41.0242 ], [ -3.5845, 41.0234 ], [ -3.5851, 41.0235 ], [ -3.5851, 41.0237 ], [ -3.5853, 41.0239 ], [ -3.5857, 41.0238 ], [ -3.586, 41.0234 ], [ -3.586, 41.0232 ], [ -3.5857, 41.0228 ], [ -3.585, 41.0225 ], [ -3.5847, 41.0225 ], [ -3.5841, 41.022 ], [ -3.5836, 41.0218 ], [ -3.5831, 41.0222 ], [ -3.5827, 41.0223 ], [ -3.5824, 41.0222 ], [ -3.5823, 41.022 ], [ -3.5817, 41.0219 ], [ -3.581, 41.022 ], [ -3.5805, 41.0218 ], [ -3.5802, 41.0215 ], [ -3.5797, 41.0217 ], [ -3.5796, 41.0224 ], [ -3.5793, 41.023 ], [ -3.579, 41.0233 ], [ -3.5787, 41.0234 ], [ -3.5786, 41.0233 ], [ -3.5761, 41.0239 ], [ -3.5748, 41.024 ], [ -3.5738, 41.0238 ], [ -3.5725, 41.0237 ], [ -3.5723, 41.0238 ], [ -3.5708, 41.0238 ], [ -3.5703, 41.0236 ], [ -3.5697, 41.0236 ], [ -3.5693, 41.0237 ], [ -3.5689, 41.0241 ], [ -3.5688, 41.0245 ], [ -3.5683, 41.0249 ], [ -3.5672, 41.0252 ], [ -3.5657, 41.0253 ], [ -3.5651, 41.0259 ], [ -3.5644, 41.026 ], [ -3.5642, 41.0259 ], [ -3.563, 41.0259 ], [ -3.5623, 41.0261 ], [ -3.562, 41.0259 ], [ -3.5619, 41.0253 ], [ -3.5616, 41.025 ], [ -3.5606, 41.0251 ], [ -3.5601, 41.0255 ], [ -3.56, 41.026 ], [ -3.5596, 41.0263 ], [ -3.5593, 41.0272 ], [ -3.5593, 41.0272 ], [ -3.5592, 41.0272 ], [ -3.5591, 41.0272 ], [ -3.559, 41.0273 ], [ -3.5586, 41.0273 ], [ -3.5582, 41.0276 ], [ -3.5576, 41.029 ], [ -3.5591, 41.0272 ], [ -3.5596, 41.0275 ], [ -3.5604, 41.0267 ], [ -3.5609, 41.0258 ], [ -3.5612, 41.0258 ], [ -3.5617, 41.0264 ], [ -3.5622, 41.0267 ], [ -3.5637, 41.0266 ], [ -3.565, 41.0267 ], [ -3.5656, 41.0265 ], [ -3.5661, 41.0261 ], [ -3.5666, 41.0259 ], [ -3.5685, 41.0257 ], [ -3.5692, 41.0253 ], [ -3.5699, 41.0245 ], [ -3.5703, 41.0244 ], [ -3.5707, 41.0244 ], [ -3.5712, 41.0246 ], [ -3.5722, 41.0246 ], [ -3.5724, 41.0245 ], [ -3.5762, 41.0246 ], [ -3.5781, 41.0243 ], [ -3.5793, 41.0239 ], [ -3.5801, 41.0233 ], [ -3.5804, 41.0226 ], [ -3.5806, 41.0225 ], [ -3.5816, 41.0225 ], [ -3.5824, 41.0229 ], [ -3.5828, 41.0229 ], [ -3.5834, 41.0226 ], [ -3.5836, 41.0226 ], [ -3.5838, 41.0228 ], [ -3.5829, 41.0237 ], [ -3.5821, 41.0249 ], [ -3.5819, 41.025 ], [ -3.5808, 41.025 ], [ -3.5795, 41.0253 ], [ -3.5788, 41.0259 ], [ -3.5786, 41.0266 ], [ -3.5791, 41.0281 ], [ -3.5791, 41.0285 ], [ -3.578, 41.0299 ], [ -3.5758, 41.0293 ], [ -3.5749, 41.0293 ], [ -3.5724, 41.03 ], [ -3.5711, 41.0307 ], [ -3.5707, 41.0307 ], [ -3.5706, 41.031 ], [ -3.57, 41.0312 ], [ -3.5698, 41.0321 ], [ -3.5694, 41.0325 ], [ -3.568, 41.0323 ], [ -3.5667, 41.0324 ], [ -3.5649, 41.032 ], [ -3.5646, 41.0324 ], [ -3.5645, 41.0326 ], [ -3.5647, 41.0327 ], [ -3.5648, 41.0323 ], [ -3.565, 41.0323 ], [ -3.5663, 41.0324 ], [ -3.5692, 41.0329 ], [ -3.5716, 41.0314 ], [ -3.5722, 41.0308 ], [ -3.5731, 41.0305 ], [ -3.5747, 41.0301 ], [ -3.5754, 41.0301 ], [ -3.5759, 41.0303 ], [ -3.5763, 41.0303 ], [ -3.5773, 41.0307 ], [ -3.5778, 41.0307 ], [ -3.579, 41.0302 ], [ -3.5794, 41.0308 ], [ -3.5806, 41.0319 ], [ -3.5826, 41.033 ], [ -3.5837, 41.0333 ], [ -3.5837, 41.0335 ], [ -3.5834, 41.0336 ], [ -3.5823, 41.033 ], [ -3.5818, 41.0331 ], [ -3.5811, 41.0337 ], [ -3.5809, 41.0342 ], [ -3.5811, 41.0349 ], [ -3.5813, 41.0352 ], [ -3.5824, 41.036 ], [ -3.5824, 41.0364 ], [ -3.582, 41.0372 ], [ -3.5819, 41.0379 ], [ -3.5819, 41.0396 ], [ -3.5815, 41.0398 ], [ -3.5796, 41.0399 ], [ -3.5794, 41.0402 ], [ -3.5789, 41.0415 ], [ -3.5794, 41.0433 ], [ -3.5795, 41.0442 ], [ -3.5788, 41.0457 ], [ -3.5776, 41.0466 ], [ -3.5749, 41.0476 ], [ -3.5747, 41.0484 ], [ -3.5742, 41.0489 ], [ -3.5729, 41.0496 ], [ -3.5729, 41.0498 ], [ -3.572, 41.0503 ], [ -3.5704, 41.0527 ], [ -3.5688, 41.0543 ], [ -3.5684, 41.055 ], [ -3.5682, 41.055 ], [ -3.5671, 41.0557 ], [ -3.566, 41.057 ], [ -3.565, 41.0577 ], [ -3.5639, 41.0582 ], [ -3.563, 41.0582 ], [ -3.5632, 41.0591 ], [ -3.564, 41.059 ], [ -3.5645, 41.0584 ], [ -3.5662, 41.0574 ], [ -3.5676, 41.056 ], [ -3.5689, 41.0551 ], [ -3.5701, 41.0538 ], [ -3.5704, 41.0534 ], [ -3.5704, 41.0532 ], [ -3.5712, 41.0526 ], [ -3.5721, 41.0505 ], [ -3.5725, 41.0503 ], [ -3.5729, 41.0498 ], [ -3.5744, 41.0489 ], [ -3.5749, 41.0482 ], [ -3.575, 41.0479 ], [ -3.5753, 41.0477 ], [ -3.5771, 41.0469 ], [ -3.5777, 41.0468 ], [ -3.5787, 41.0461 ], [ -3.5807, 41.0464 ], [ -3.5814, 41.0463 ], [ -3.5814, 41.0464 ], [ -3.5817, 41.0464 ], [ -3.5821, 41.0467 ], [ -3.5821, 41.0467 ], [ -3.5822, 41.0467 ], [ -3.5823, 41.0467 ], [ -3.5823, 41.0467 ], [ -3.5825, 41.0467 ], [ -3.5826, 41.0467 ], [ -3.5829, 41.0466 ], [ -3.583, 41.0464 ] ], [ [ -3.581, 41.0463 ], [ -3.5793, 41.046 ], [ -3.5794, 41.0454 ], [ -3.58, 41.0443 ], [ -3.5795, 41.0418 ], [ -3.5795, 41.0412 ], [ -3.5798, 41.0407 ], [ -3.5799, 41.0402 ], [ -3.5816, 41.0402 ], [ -3.5823, 41.0399 ], [ -3.5823, 41.0395 ], [ -3.5825, 41.039 ], [ -3.5823, 41.0386 ], [ -3.5825, 41.0371 ], [ -3.5829, 41.0365 ], [ -3.5831, 41.0365 ], [ -3.5844, 41.0376 ], [ -3.5851, 41.0384 ], [ -3.5858, 41.0406 ], [ -3.5855, 41.0415 ], [ -3.5855, 41.0419 ], [ -3.5858, 41.0423 ], [ -3.5858, 41.0426 ], [ -3.5865, 41.0445 ], [ -3.5854, 41.0448 ], [ -3.5853, 41.045 ], [ -3.5849, 41.0448 ], [ -3.5851, 41.0452 ], [ -3.5843, 41.0453 ], [ -3.584, 41.0457 ], [ -3.5832, 41.0461 ], [ -3.5829, 41.0465 ], [ -3.5827, 41.0465 ], [ -3.5827, 41.0466 ], [ -3.5826, 41.0466 ], [ -3.5826, 41.0466 ], [ -3.5824, 41.0467 ], [ -3.5823, 41.0466 ], [ -3.5821, 41.0466 ], [ -3.5816, 41.0462 ], [ -3.581, 41.0463 ] ] ] } },
{ "type": "Feature", "properties": { "municipio": "Madarcos", "clasificacion": "no-urbanizable-protegido", "calificacion": "sin-asignar", "version": "vigente", "fuente": "SIT-CAM WFS — UsoDelSuelo:VPLA_V_CLASIFICACION (https://idem.comunidad.madrid/geosrvg/ows)", "fecha_dato": "2026-05-12", "ambito": "19754", "_raw_CD_SIGLAS": "SNUP", "_raw_DS_CLASIF_GEN": "Suelo No Urbanizable Protegido", "_raw_DS_CLASIF_DET": "Suelo No Urbanizable Especialmente Protegido Cultural", "_raw_DS_DOCU": "NORMAS SUBSIDIARIAS", "_raw_DS_LEY": "CM Ley 4/1984, E RD 1346/1976", "_raw_FC_AC": "1992-11-12", "_raw_NM_AREA_M2": 30464.557969635101, "_cam_code": "078" }, "geometry": { "type": "Polygon", "coordinates": [ [ [ -3.5588, 41.0322 ], [ -3.5574, 41.0331 ], [ -3.5574, 41.0333 ], [ -3.5568, 41.0338 ], [ -3.5555, 41.0343 ], [ -3.5552, 41.035 ], [ -3.5555, 41.0347 ], [ -3.5566, 41.0343 ], [ -3.5573, 41.0339 ], [ -3.5594, 41.0323 ], [ -3.5601, 41.0321 ], [ -3.5609, 41.0322 ], [ -3.5628, 41.0331 ], [ -3.5628, 41.0332 ], [ -3.5631, 41.0329 ], [ -3.5618, 41.0322 ], [ -3.5604, 41.0317 ], [ -3.5597, 41.0318 ], [ -3.5588, 41.0322 ] ] ] } },
{ "type": "Feature", "properties": { "municipio": "Madarcos", "clasificacion": "no-urbanizable-protegido", "calificacion": "sin-asignar", "version": "vigente", "fuente": "SIT-CAM WFS — UsoDelSuelo:VPLA_V_CLASIFICACION (https://idem.comunidad.madrid/geosrvg/ows)", "fecha_dato": "2026-05-12", "ambito": "19754", "_raw_CD_SIGLAS": "SNUP", "_raw_DS_CLASIF_GEN": "Suelo No Urbanizable Protegido", "_raw_DS_CLASIF_DET": "Suelo No Urbanizable Especialmente Protegido Ecológico", "_raw_DS_DOCU": "NORMAS SUBSIDIARIAS", "_raw_DS_LEY": "CM Ley 4/1984, E RD 1346/1976", "_raw_FC_AC": "1992-11-12", "_raw_NM_AREA_M2": 300433.664308156, "_cam_code": "078" }, "geometry": { "type": "Polygon", "coordinates": [ [ [ -3.5593, 41.0418 ], [ -3.5611, 41.0421 ], [ -3.5611, 41.0419 ], [ -3.5602, 41.0407 ], [ -3.5598, 41.0397 ], [ -3.5593, 41.0377 ], [ -3.5598, 41.0355 ], [ -3.5596, 41.0352 ], [ -3.5595, 41.0345 ], [ -3.5599, 41.0325 ], [ -3.5598, 41.0322 ], [ -3.5594, 41.0323 ], [ -3.5588, 41.0327 ], [ -3.5573, 41.0339 ], [ -3.5566, 41.0343 ], [ -3.5555, 41.0347 ], [ -3.5552, 41.035 ], [ -3.5547, 41.036 ], [ -3.5572, 41.0415 ], [ -3.5583, 41.0411 ], [ -3.5588, 41.0416 ], [ -3.5591, 41.0416 ], [ -3.5593, 41.0418 ] ] ] } },
{ "type": "Feature", "properties": { "municipio": "Madarcos", "clasificacion": "no-urbanizable-protegido", "calificacion": "sin-asignar", "version": "vigente", "fuente": "SIT-CAM WFS — UsoDelSuelo:VPLA_V_CLASIFICACION (https://idem.comunidad.madrid/geosrvg/ows)", "fecha_dato": "2026-05-12", "ambito": "19754", "_raw_CD_SIGLAS": "SNUP", "_raw_DS_CLASIF_GEN": "Suelo No Urbanizable Protegido", "_raw_DS_CLASIF_DET": "Suelo No Urbanizable Especialmente Protegido Ganadero", "_raw_DS_DOCU": "NORMAS SUBSIDIARIAS", "_raw_DS_LEY": "CM Ley 4/1984, E RD 1346/1976", "_raw_FC_AC": "1992-11-12", "_raw_NM_AREA_M2": 6377.8105312091602, "_cam_code": "078" }, "geometry": { "type": "Polygon", "coordinates": [ [ [ -3.5839, 41.0466 ], [ -3.5841, 41.0473 ], [ -3.5843, 41.046 ], [ -3.5849, 41.0455 ], [ -3.5832, 41.0462 ], [ -3.5835, 41.0463 ], [ -3.5835, 41.0467 ], [ -3.5839, 41.0466 ] ] ] } },
{ "type": "Feature", "properties": { "municipio": "Madarcos", "clasificacion": "no-urbanizable-protegido", "calificacion": "sin-asignar", "version": "vigente", "fuente": "SIT-CAM WFS — UsoDelSuelo:VPLA_V_CLASIFICACION (https://idem.comunidad.madrid/geosrvg/ows)", "fecha_dato": "2026-05-12", "ambito": "19754", "_raw_CD_SIGLAS": "SNUP", "_raw_DS_CLASIF_GEN": "Suelo No Urbanizable Protegido", "_raw_DS_CLASIF_DET": "Suelo No Urbanizable Especialmente Protegido Paisajístico", "_raw_DS_DOCU": "NORMAS SUBSIDIARIAS", "_raw_DS_LEY": "CM Ley 4/1984, E RD 1346/1976", "_raw_FC_AC": "1992-11-12", "_raw_NM_AREA_M2": 61318.568561160602, "_cam_code": "078" }, "geometry": { "type": "Polygon", "coordinates": [ [ [ -3.5836, 41.0482 ], [ -3.5838, 41.0487 ], [ -3.5838, 41.0494 ], [ -3.5842, 41.0496 ], [ -3.5842, 41.0499 ], [ -3.5843, 41.0499 ], [ -3.5842, 41.0502 ], [ -3.5844, 41.0504 ], [ -3.5844, 41.0506 ], [ -3.5843, 41.0506 ], [ -3.5844, 41.0508 ], [ -3.5843, 41.0516 ], [ -3.5846, 41.052 ], [ -3.5847, 41.0524 ], [ -3.5846, 41.0525 ], [ -3.5848, 41.0526 ], [ -3.5849, 41.0529 ], [ -3.5849, 41.0534 ], [ -3.5847, 41.0534 ], [ -3.5847, 41.054 ], [ -3.5851, 41.0548 ], [ -3.5851, 41.0554 ], [ -3.5853, 41.0556 ], [ -3.5854, 41.0571 ], [ -3.5855, 41.0572 ], [ -3.5855, 41.0577 ], [ -3.5852, 41.058 ], [ -3.5853, 41.0584 ], [ -3.5855, 41.0583 ], [ -3.5858, 41.0568 ], [ -3.5854, 41.0549 ], [ -3.5851, 41.0524 ], [ -3.5844, 41.0492 ], [ -3.5844, 41.0484 ], [ -3.5847, 41.0476 ], [ -3.5849, 41.0465 ], [ -3.586, 41.0454 ], [ -3.5862, 41.0448 ], [ -3.5851, 41.0455 ], [ -3.5849, 41.0455 ], [ -3.5843, 41.046 ], [ -3.5842, 41.0468 ], [ -3.5841, 41.0468 ], [ -3.5841, 41.0479 ], [ -3.5836, 41.0482 ] ] ] } },
{ "type": "Feature", "properties": { "municipio": "Madarcos", "clasificacion": "no-urbanizable-protegido", "calificacion": "sin-asignar", "version": "vigente", "fuente": "SIT-CAM WFS — UsoDelSuelo:VPLA_V_CLASIFICACION (https://idem.comunidad.madrid/geosrvg/ows)", "fecha_dato": "2026-05-12", "ambito": "19754", "_raw_CD_SIGLAS": "SNUP", "_raw_DS_CLASIF_GEN": "Suelo No Urbanizable Protegido", "_raw_DS_CLASIF_DET": "Suelo No Urbanizable Especialmente Protegido Paisajístico", "_raw_DS_DOCU": "NORMAS SUBSIDIARIAS", "_raw_DS_LEY": "CM Ley 4/1984, E RD 1346/1976", "_raw_FC_AC": "1992-11-12", "_raw_NM_AREA_M2": 108218.34051001399, "_cam_code": "078" }, "geometry": { "type": "Polygon", "coordinates": [ [ [ -3.586, 41.058 ], [ -3.5863, 41.0579 ], [ -3.5864, 41.0577 ], [ -3.5863, 41.0578 ], [ -3.5863, 41.0554 ], [ -3.5861, 41.0546 ], [ -3.586, 41.0546 ], [ -3.5859, 41.0541 ], [ -3.5858, 41.0541 ], [ -3.5857, 41.0521 ], [ -3.5855, 41.0519 ], [ -3.5855, 41.0517 ], [ -3.5854, 41.0517 ], [ -3.5853, 41.051 ], [ -3.5852, 41.051 ], [ -3.5851, 41.0499 ], [ -3.5849, 41.0497 ], [ -3.5849, 41.0488 ], [ -3.585, 41.0488 ], [ -3.5855, 41.0476 ], [ -3.5856, 41.0471 ], [ -3.5866, 41.0461 ], [ -3.5868, 41.0457 ], [ -3.5872, 41.0455 ], [ -3.5879, 41.0447 ], [ -3.5877, 41.0441 ], [ -3.5871, 41.0431 ], [ -3.5871, 41.0429 ], [ -3.5866, 41.0423 ], [ -3.5866, 41.0421 ], [ -3.5865, 41.0421 ], [ -3.5866, 41.0417 ], [ -3.5875, 41.0411 ], [ -3.5875, 41.0407 ], [ -3.5865, 41.0394 ], [ -3.5862, 41.0387 ], [ -3.5861, 41.0379 ], [ -3.586, 41.0379 ], [ -3.5859, 41.0376 ], [ -3.5849, 41.037 ], [ -3.5841, 41.0363 ], [ -3.5838, 41.0362 ], [ -3.5836, 41.0359 ], [ -3.5835, 41.0362 ], [ -3.5847, 41.0372 ], [ -3.5855, 41.0382 ], [ -3.5861, 41.0395 ], [ -3.5864, 41.0406 ], [ -3.5861, 41.0414 ], [ -3.5863, 41.0426 ], [ -3.5867, 41.0433 ], [ -3.5867, 41.0441 ], [ -3.5868, 41.0442 ], [ -3.5868, 41.045 ], [ -3.5851, 41.0469 ], [ -3.585, 41.0476 ], [ -3.5847, 41.048 ], [ -3.5846, 41.0486 ], [ -3.5846, 41.0493 ], [ -3.585, 41.0514 ], [ -3.5854, 41.0525 ], [ -3.5854, 41.0534 ], [ -3.5858, 41.0551 ], [ -3.586, 41.058 ] ] ] } },
{ "type": "Feature", "properties": { "municipio": "Madarcos", "clasificacion": "no-urbanizable-protegido", "calificacion": "sin-asignar", "version": "vigente", "fuente": "SIT-CAM WFS — UsoDelSuelo:VPLA_V_CLASIFICACION (https://idem.comunidad.madrid/geosrvg/ows)", "fecha_dato": "2026-05-12", "ambito": "19754", "_raw_CD_SIGLAS": "SNUP", "_raw_DS_CLASIF_GEN": "Suelo No Urbanizable Protegido", "_raw_DS_CLASIF_DET": "Suelo No Urbanizable Especialmente Protegido Paisajístico", "_raw_DS_DOCU": "NORMAS SUBSIDIARIAS", "_raw_DS_LEY": "CM Ley 4/1984, E RD 1346/1976", "_raw_FC_AC": "1992-11-12", "_raw_NM_AREA_M2": 68865.188395989797, "_cam_code": "078" }, "geometry": { "type": "Polygon", "coordinates": [ [ [ -3.5844, 41.0381 ], [ -3.585, 41.0394 ], [ -3.5851, 41.0406 ], [ -3.5848, 41.0434 ], [ -3.5849, 41.0448 ], [ -3.5853, 41.045 ], [ -3.5854, 41.0448 ], [ -3.5865, 41.0445 ], [ -3.5858, 41.0426 ], [ -3.5858, 41.0423 ], [ -3.5855, 41.0419 ], [ -3.5855, 41.0415 ], [ -3.5858, 41.0406 ], [ -3.5851, 41.0384 ], [ -3.5844, 41.0376 ], [ -3.5831, 41.0365 ], [ -3.5829, 41.0365 ], [ -3.5825, 41.0371 ], [ -3.5824, 41.038 ], [ -3.5833, 41.0378 ], [ -3.5844, 41.0381 ] ] ] } },
{ "type": "Feature", "properties": { "municipio": "Madarcos", "clasificacion": "urbano-consolidado", "calificacion": "sin-asignar", "version": "vigente", "fuente": "SIT-CAM WFS — UsoDelSuelo:VPLA_V_CLASIFICACION (https://idem.comunidad.madrid/geosrvg/ows)", "fecha_dato": "2026-05-12", "ambito": "19754", "_raw_CD_SIGLAS": "SU", "_raw_DS_CLASIF_GEN": "Suelo Urbano", "_raw_DS_CLASIF_DET": "Suelo Urbano", "_raw_DS_DOCU": "NORMAS SUBSIDIARIAS", "_raw_DS_LEY": "CM Ley 4/1984, E RD 1346/1976", "_raw_FC_AC": "1992-11-12", "_raw_NM_AREA_M2": 1474.78416600181, "_cam_code": "078" }, "geometry": { "type": "Polygon", "coordinates": [ [ [ -3.582, 41.0465 ], [ -3.5824, 41.0467 ], [ -3.5828, 41.0465 ], [ -3.5821, 41.0463 ], [ -3.582, 41.0465 ] ] ] } },
{ "type": "Feature", "properties": { "municipio": "Madarcos", "clasificacion": "urbano-consolidado", "calificacion": "sin-asignar", "version": "vigente", "fuente": "SIT-CAM WFS — UsoDelSuelo:VPLA_V_CLASIFICACION (https://idem.comunidad.madrid/geosrvg/ows)", "fecha_dato": "2026-05-12", "ambito": "19754", "_raw_CD_SIGLAS": "SU", "_raw_DS_CLASIF_GEN": "Suelo Urbano", "_raw_DS_CLASIF_DET": "Suelo Urbano", "_raw_DS_DOCU": "NORMAS SUBSIDIARIAS", "_raw_DS_LEY": "CM Ley 4/1984, E RD 1346/1976", "_raw_FC_AC": "1992-11-12", "_raw_NM_AREA_M2": 64293.281038066401, "_cam_code": "078" }, "geometry": { "type": "Polygon", "coordinates": [ [ [ -3.5834, 41.0484 ], [ -3.5841, 41.0479 ], [ -3.5841, 41.0472 ], [ -3.5839, 41.0466 ], [ -3.5835, 41.0467 ], [ -3.5834, 41.0462 ], [ -3.5826, 41.0467 ], [ -3.5821, 41.0467 ], [ -3.582, 41.0466 ], [ -3.582, 41.0468 ], [ -3.5815, 41.0473 ], [ -3.5811, 41.0471 ], [ -3.5807, 41.0471 ], [ -3.5804, 41.0474 ], [ -3.5804, 41.0477 ], [ -3.5801, 41.0478 ], [ -3.5803, 41.048 ], [ -3.5802, 41.0481 ], [ -3.5802, 41.0483 ], [ -3.5803, 41.0483 ], [ -3.5802, 41.0488 ], [ -3.5813, 41.0488 ], [ -3.5813, 41.0491 ], [ -3.5817, 41.0493 ], [ -3.5818, 41.0493 ], [ -3.5819, 41.0488 ], [ -3.5821, 41.0486 ], [ -3.583, 41.0486 ], [ -3.583, 41.0485 ], [ -3.5834, 41.0484 ] ] ] } },
{ "type": "Feature", "properties": { "municipio": "Madarcos", "clasificacion": "urbanizable-no-sectorizado", "calificacion": "sin-asignar", "version": "vigente", "fuente": "SIT-CAM WFS — UsoDelSuelo:VPLA_V_CLASIFICACION (https://idem.comunidad.madrid/geosrvg/ows)", "fecha_dato": "2026-05-12", "ambito": "19754", "_raw_CD_SIGLAS": "SUBNS", "_raw_DS_CLASIF_GEN": "Suelo No Urbanizable Común", "_raw_DS_CLASIF_DET": "Suelo No Urbanizable Común", "_raw_DS_DOCU": "NORMAS SUBSIDIARIAS", "_raw_DS_LEY": "CM Ley 4/1984, E RD 1346/1976", "_raw_FC_AC": "1992-11-12", "_raw_NM_AREA_M2": 892406.82753520401, "_cam_code": "078" }, "geometry": { "type": "Polygon", "coordinates": [ [ [ -3.5777, 41.059 ], [ -3.5806, 41.0595 ], [ -3.585, 41.0586 ], [ -3.5853, 41.0584 ], [ -3.5852, 41.058 ], [ -3.5849, 41.058 ], [ -3.5849, 41.0581 ], [ -3.5845, 41.0581 ], [ -3.5841, 41.0583 ], [ -3.5832, 41.0584 ], [ -3.5832, 41.0585 ], [ -3.582, 41.0589 ], [ -3.5815, 41.0589 ], [ -3.5817, 41.0585 ], [ -3.5825, 41.0578 ], [ -3.5825, 41.0575 ], [ -3.5826, 41.0575 ], [ -3.5825, 41.057 ], [ -3.5822, 41.0567 ], [ -3.5818, 41.0566 ], [ -3.5818, 41.0561 ], [ -3.583, 41.0563 ], [ -3.584, 41.0568 ], [ -3.5844, 41.0568 ], [ -3.5846, 41.057 ], [ -3.5855, 41.0572 ], [ -3.5854, 41.0571 ], [ -3.5853, 41.0556 ], [ -3.5852, 41.0557 ], [ -3.5841, 41.0557 ], [ -3.584, 41.0558 ], [ -3.5838, 41.0545 ], [ -3.5836, 41.0545 ], [ -3.5835, 41.054 ], [ -3.5834, 41.054 ], [ -3.5832, 41.0535 ], [ -3.5826, 41.0531 ], [ -3.5832, 41.0528 ], [ -3.5833, 41.0521 ], [ -3.5826, 41.0521 ], [ -3.5818, 41.0523 ], [ -3.5815, 41.0522 ], [ -3.5814, 41.0517 ], [ -3.5813, 41.0517 ], [ -3.5809, 41.0524 ], [ -3.58, 41.0524 ], [ -3.5798, 41.053 ], [ -3.5776, 41.0531 ], [ -3.5776, 41.0532 ], [ -3.5774, 41.0532 ], [ -3.5767, 41.054 ], [ -3.5766, 41.0544 ], [ -3.5763, 41.0548 ], [ -3.5761, 41.0548 ], [ -3.5755, 41.0544 ], [ -3.5748, 41.0543 ], [ -3.5734, 41.0535 ], [ -3.5733, 41.053 ], [ -3.5729, 41.053 ], [ -3.5729, 41.0526 ], [ -3.5724, 41.0517 ], [ -3.5724, 41.0506 ], [ -3.5725, 41.0506 ], [ -3.5726, 41.0502 ], [ -3.5721, 41.0505 ], [ -3.5712, 41.0526 ], [ -3.5704, 41.0532 ], [ -3.5704, 41.0534 ], [ -3.5694, 41.0546 ], [ -3.5684, 41.0555 ], [ -3.5676, 41.056 ], [ -3.5666, 41.0571 ], [ -3.5655, 41.0579 ], [ -3.5645, 41.0584 ], [ -3.564, 41.059 ], [ -3.5653, 41.059 ], [ -3.567, 41.0588 ], [ -3.5692, 41.0589 ], [ -3.5728, 41.0588 ], [ -3.5777, 41.059 ] ] ] } },
{ "type": "Feature", "properties": { "municipio": "Madarcos", "clasificacion": "urbanizable-no-sectorizado", "calificacion": "sin-asignar", "version": "vigente", "fuente": "SIT-CAM WFS — UsoDelSuelo:VPLA_V_CLASIFICACION (https://idem.comunidad.madrid/geosrvg/ows)", "fecha_dato": "2026-05-12", "ambito": "19754", "_raw_CD_SIGLAS": "SUBNS", "_raw_DS_CLASIF_GEN": "Suelo No Urbanizable Común", "_raw_DS_CLASIF_DET": "Suelo No Urbanizable Común", "_raw_DS_DOCU": "NORMAS SUBSIDIARIAS", "_raw_DS_LEY": "CM Ley 4/1984, E RD 1346/1976", "_raw_FC_AC": "1992-11-12", "_raw_NM_AREA_M2": 630588.69468951598, "_cam_code": "078" }, "geometry": { "type": "Polygon", "coordinates": [ [ [ -3.5594, 41.048 ], [ -3.559, 41.0483 ], [ -3.5593, 41.0484 ], [ -3.561, 41.0483 ], [ -3.5623, 41.0481 ], [ -3.5627, 41.0479 ], [ -3.5628, 41.048 ], [ -3.5634, 41.0475 ], [ -3.5652, 41.0468 ], [ -3.5656, 41.0465 ], [ -3.5655, 41.046 ], [ -3.5646, 41.0453 ], [ -3.5646, 41.0451 ], [ -3.5641, 41.0444 ], [ -3.5664, 41.0421 ], [ -3.567, 41.0424 ], [ -3.5683, 41.0424 ], [ -3.5686, 41.0421 ], [ -3.5685, 41.0407 ], [ -3.569, 41.0401 ], [ -3.5686, 41.0402 ], [ -3.5669, 41.0402 ], [ -3.5666, 41.04 ], [ -3.566, 41.0389 ], [ -3.5661, 41.0388 ], [ -3.5661, 41.0383 ], [ -3.5663, 41.038 ], [ -3.5662, 41.0377 ], [ -3.5663, 41.0375 ], [ -3.5668, 41.0374 ], [ -3.5664, 41.037 ], [ -3.566, 41.0362 ], [ -3.5657, 41.0362 ], [ -3.5657, 41.0364 ], [ -3.5642, 41.0364 ], [ -3.5641, 41.0368 ], [ -3.5638, 41.0371 ], [ -3.5632, 41.0373 ], [ -3.5628, 41.0377 ], [ -3.5627, 41.0385 ], [ -3.5625, 41.0386 ], [ -3.5624, 41.0389 ], [ -3.5619, 41.0391 ], [ -3.5618, 41.0398 ], [ -3.5613, 41.0397 ], [ -3.5613, 41.0406 ], [ -3.5619, 41.0409 ], [ -3.5619, 41.0415 ], [ -3.5616, 41.0418 ], [ -3.561, 41.0418 ], [ -3.5611, 41.0421 ], [ -3.5593, 41.0418 ], [ -3.5591, 41.0416 ], [ -3.5588, 41.0416 ], [ -3.5583, 41.0411 ], [ -3.5572, 41.0415 ], [ -3.5583, 41.0438 ], [ -3.5583, 41.044 ], [ -3.5588, 41.0446 ], [ -3.5588, 41.0452 ], [ -3.5586, 41.0458 ], [ -3.5586, 41.047 ], [ -3.5589, 41.0474 ], [ -3.5592, 41.0475 ], [ -3.5594, 41.048 ] ] ] } }
]
}
