{
"type": "FeatureCollection",
"name": "vigente.full",
"features": [
{ "type": "Feature", "properties": { "municipio": "Montejo de la Sierra", "clasificacion": "no-urbanizable-protegido", "calificacion": "sin-asignar", "version": "vigente", "fuente": "SIT-CAM WFS — UsoDelSuelo:VPLA_V_CLASIFICACION (https://idem.comunidad.madrid/geosrvg/ows)", "fecha_dato": "2026-05-12", "ambito": "9524", "_raw_CD_SIGLAS": "SNUP", "_raw_DS_CLASIF_GEN": "Suelo No Urbanizable Protegido", "_raw_DS_CLASIF_DET": "Suelo No Urbanizable Especialmente Protegido por su Interés Paisajístico y Forestal", "_raw_DS_DOCU": "NORMAS SUBSIDIARIAS", "_raw_DS_LEY": "CM Ley 4/1984, E RD 1346/1976", "_raw_FC_AC": "1989-11-08", "_raw_NM_AREA_M2": 2144675.9384637401, "_cam_code": "088" }, "geometry": { "type": "Polygon", "coordinates": [ [ [ -3.4934, 41.1039 ], [ -3.4939, 41.1044 ], [ -3.4946, 41.1044 ], [ -3.4952, 41.1039 ], [ -3.4965, 41.1038 ], [ -3.4968, 41.1035 ], [ -3.4961, 41.1027 ], [ -3.4957, 41.1016 ], [ -3.4951, 41.1006 ], [ -3.4951, 41.1001 ], [ -3.4954, 41.0991 ], [ -3.4953, 41.0986 ], [ -3.4945, 41.0969 ], [ -3.4938, 41.096 ], [ -3.4938, 41.0955 ], [ -3.4936, 41.0951 ], [ -3.4929, 41.0944 ], [ -3.4916, 41.0935 ], [ -3.4913, 41.0922 ], [ -3.4915, 41.0917 ], [ -3.4897, 41.0905 ], [ -3.4896, 41.09 ], [ -3.4895, 41.09 ], [ -3.4893, 41.0895 ], [ -3.4896, 41.0886 ], [ -3.4896, 41.0882 ], [ -3.4899, 41.0878 ], [ -3.4899, 41.0874 ], [ -3.4896, 41.0865 ], [ -3.4902, 41.0861 ], [ -3.4899, 41.0855 ], [ -3.4892, 41.0847 ], [ -3.4883, 41.0824 ], [ -3.4874, 41.0817 ], [ -3.4861, 41.0811 ], [ -3.4854, 41.0804 ], [ -3.4852, 41.0785 ], [ -3.4849, 41.0774 ], [ -3.4841, 41.0768 ], [ -3.4835, 41.0766 ], [ -3.4831, 41.0758 ], [ -3.4831, 41.0753 ], [ -3.4833, 41.0751 ], [ -3.4835, 41.0735 ], [ -3.4841, 41.0729 ], [ -3.4861, 41.0724 ], [ -3.4861, 41.0723 ], [ -3.4872, 41.0717 ], [ -3.4876, 41.0713 ], [ -3.4885, 41.0694 ], [ -3.4886, 41.068 ], [ -3.4891, 41.0661 ], [ -3.489, 41.0653 ], [ -3.4891, 41.065 ], [ -3.4888, 41.0645 ], [ -3.4888, 41.0642 ], [ -3.4852, 41.0642 ], [ -3.4858, 41.0687 ], [ -3.485, 41.0695 ], [ -3.4839, 41.07 ], [ -3.4839, 41.0701 ], [ -3.4836, 41.0701 ], [ -3.4829, 41.0706 ], [ -3.4827, 41.0706 ], [ -3.4827, 41.0707 ], [ -3.4819, 41.0707 ], [ -3.4813, 41.0709 ], [ -3.4807, 41.0713 ], [ -3.4795, 41.0713 ], [ -3.4793, 41.0721 ], [ -3.4794, 41.0733 ], [ -3.4796, 41.0738 ], [ -3.4794, 41.0769 ], [ -3.4793, 41.0769 ], [ -3.4791, 41.0773 ], [ -3.4789, 41.0783 ], [ -3.4786, 41.0786 ], [ -3.4807, 41.0807 ], [ -3.4821, 41.0829 ], [ -3.4825, 41.0833 ], [ -3.4837, 41.0837 ], [ -3.4842, 41.0842 ], [ -3.4844, 41.0865 ], [ -3.4788, 41.0908 ], [ -3.4752, 41.0953 ], [ -3.4762, 41.0952 ], [ -3.4779, 41.094 ], [ -3.4784, 41.0938 ], [ -3.4813, 41.0933 ], [ -3.4828, 41.0933 ], [ -3.4833, 41.0935 ], [ -3.4837, 41.0941 ], [ -3.4841, 41.0943 ], [ -3.4847, 41.0941 ], [ -3.485, 41.0938 ], [ -3.4864, 41.0939 ], [ -3.4865, 41.094 ], [ -3.4876, 41.0939 ], [ -3.4885, 41.0941 ], [ -3.4888, 41.0943 ], [ -3.489, 41.0949 ], [ -3.4887, 41.0956 ], [ -3.4883, 41.0959 ], [ -3.4882, 41.0965 ], [ -3.4887, 41.0968 ], [ -3.4894, 41.0968 ], [ -3.4901, 41.097 ], [ -3.4905, 41.0973 ], [ -3.4906, 41.0974 ], [ -3.4905, 41.0983 ], [ -3.4899, 41.0988 ], [ -3.4899, 41.099 ], [ -3.4901, 41.0992 ], [ -3.4903, 41.0992 ], [ -3.4904, 41.0994 ], [ -3.4914, 41.0998 ], [ -3.4919, 41.1002 ], [ -3.4919, 41.1004 ], [ -3.4911, 41.101 ], [ -3.491, 41.102 ], [ -3.4906, 41.1022 ], [ -3.4902, 41.1022 ], [ -3.4898, 41.1025 ], [ -3.4898, 41.1028 ], [ -3.4895, 41.1029 ], [ -3.4895, 41.1033 ], [ -3.491, 41.1027 ], [ -3.4919, 41.1021 ], [ -3.4928, 41.102 ], [ -3.4928, 41.1021 ], [ -3.4931, 41.1022 ], [ -3.4932, 41.1035 ], [ -3.4934, 41.1039 ] ] ] } },
{ "type": "Feature", "properties": { "municipio": "Montejo de la Sierra", "clasificacion": "no-urbanizable-protegido", "calificacion": "sin-asignar", "version": "vigente", "fuente": "SIT-CAM WFS — UsoDelSuelo:VPLA_V_CLASIFICACION (https://idem.comunidad.madrid/geosrvg/ows)", "fecha_dato": "2026-05-12", "ambito": "9524", "_raw_CD_SIGLAS": "SNUP", "_raw_DS_CLASIF_GEN": "Suelo No Urbanizable Protegido", "_raw_DS_CLASIF_DET": "Suelo no Urbanizable Especialmente Protegido por su interés Paisajístico", "_raw_DS_DOCU": "NORMAS SUBSIDIARIAS", "_raw_DS_LEY": "CM Ley 4/1984, E RD 1346/1976", "_raw_FC_AC": "1989-11-08", "_raw_NM_AREA_M2": 6380243.0956209498, "_cam_code": "088" }, "geometry": { "type": "Polygon", "coordinates": [ [ [ -3.5138, 41.1023 ], [ -3.5145, 41.1034 ], [ -3.5165, 41.1075 ], [ -3.5202, 41.1091 ], [ -3.5214, 41.1098 ], [ -3.5219, 41.1091 ], [ -3.5222, 41.1082 ], [ -3.5223, 41.1062 ], [ -3.5222, 41.1062 ], [ -3.5221, 41.1053 ], [ -3.5221, 41.1038 ], [ -3.5223, 41.1028 ], [ -3.523, 41.1011 ], [ -3.5231, 41.1025 ], [ -3.524, 41.1054 ], [ -3.5243, 41.1072 ], [ -3.525, 41.1081 ], [ -3.5228, 41.093 ], [ -3.5234, 41.0886 ], [ -3.5222, 41.0884 ], [ -3.5216, 41.0881 ], [ -3.5207, 41.0872 ], [ -3.5203, 41.0859 ], [ -3.5204, 41.0839 ], [ -3.5201, 41.0825 ], [ -3.5195, 41.0829 ], [ -3.5187, 41.083 ], [ -3.5187, 41.0831 ], [ -3.5184, 41.0831 ], [ -3.5184, 41.0832 ], [ -3.5172, 41.0832 ], [ -3.515, 41.0818 ], [ -3.5139, 41.0793 ], [ -3.5131, 41.0786 ], [ -3.5127, 41.0756 ], [ -3.5106, 41.076 ], [ -3.5097, 41.0764 ], [ -3.5088, 41.0778 ], [ -3.5075, 41.0791 ], [ -3.5073, 41.0803 ], [ -3.5069, 41.0806 ], [ -3.5067, 41.0806 ], [ -3.5067, 41.0807 ], [ -3.5059, 41.0807 ], [ -3.5059, 41.0806 ], [ -3.5039, 41.0801 ], [ -3.5039, 41.08 ], [ -3.5018, 41.0799 ], [ -3.5006, 41.0794 ], [ -3.4996, 41.0796 ], [ -3.4988, 41.0807 ], [ -3.4981, 41.0812 ], [ -3.4975, 41.082 ], [ -3.4967, 41.0826 ], [ -3.4966, 41.083 ], [ -3.4965, 41.083 ], [ -3.4966, 41.0835 ], [ -3.4973, 41.0844 ], [ -3.4972, 41.0847 ], [ -3.4966, 41.0851 ], [ -3.4962, 41.0852 ], [ -3.4952, 41.0851 ], [ -3.4952, 41.0852 ], [ -3.4944, 41.0857 ], [ -3.4943, 41.0859 ], [ -3.494, 41.086 ], [ -3.4932, 41.0858 ], [ -3.4931, 41.0859 ], [ -3.4932, 41.0863 ], [ -3.4938, 41.0865 ], [ -3.4939, 41.0868 ], [ -3.4921, 41.0862 ], [ -3.4918, 41.0866 ], [ -3.4917, 41.0871 ], [ -3.4911, 41.0871 ], [ -3.4906, 41.0868 ], [ -3.4902, 41.0861 ], [ -3.4896, 41.0865 ], [ -3.4899, 41.0874 ], [ -3.4899, 41.0878 ], [ -3.4896, 41.0882 ], [ -3.4896, 41.0886 ], [ -3.4893, 41.0895 ], [ -3.4895, 41.09 ], [ -3.4896, 41.09 ], [ -3.4897, 41.0905 ], [ -3.4915, 41.0917 ], [ -3.4913, 41.0922 ], [ -3.4916, 41.0935 ], [ -3.4929, 41.0944 ], [ -3.4936, 41.0951 ], [ -3.4938, 41.0955 ], [ -3.4938, 41.096 ], [ -3.4945, 41.0969 ], [ -3.4953, 41.0986 ], [ -3.4954, 41.0991 ], [ -3.4951, 41.1001 ], [ -3.4951, 41.1006 ], [ -3.4957, 41.1016 ], [ -3.4961, 41.1027 ], [ -3.4968, 41.1035 ], [ -3.4965, 41.1038 ], [ -3.4952, 41.1039 ], [ -3.4946, 41.1044 ], [ -3.4939, 41.1044 ], [ -3.4934, 41.1039 ], [ -3.4932, 41.1035 ], [ -3.4931, 41.1022 ], [ -3.4928, 41.1021 ], [ -3.4928, 41.102 ], [ -3.4925, 41.102 ], [ -3.4919, 41.1021 ], [ -3.491, 41.1027 ], [ -3.4894, 41.1033 ], [ -3.4894, 41.1034 ], [ -3.4898, 41.1034 ], [ -3.4903, 41.1042 ], [ -3.4903, 41.1044 ], [ -3.4907, 41.1045 ], [ -3.4916, 41.104 ], [ -3.4921, 41.1043 ], [ -3.4928, 41.1044 ], [ -3.4928, 41.1045 ], [ -3.4937, 41.1047 ], [ -3.4952, 41.1054 ], [ -3.4955, 41.1054 ], [ -3.4955, 41.1055 ], [ -3.4965, 41.1059 ], [ -3.4965, 41.106 ], [ -3.4967, 41.106 ], [ -3.4973, 41.1064 ], [ -3.4978, 41.1065 ], [ -3.4978, 41.1066 ], [ -3.4982, 41.1067 ], [ -3.4992, 41.1073 ], [ -3.4997, 41.1065 ], [ -3.5002, 41.1063 ], [ -3.5013, 41.1055 ], [ -3.5016, 41.1051 ], [ -3.5016, 41.1042 ], [ -3.5019, 41.1034 ], [ -3.502, 41.1027 ], [ -3.5019, 41.1017 ], [ -3.502, 41.1017 ], [ -3.5022, 41.1011 ], [ -3.5055, 41.1003 ], [ -3.5084, 41.0983 ], [ -3.5086, 41.0979 ], [ -3.5093, 41.0976 ], [ -3.5098, 41.0976 ], [ -3.5098, 41.0977 ], [ -3.5102, 41.0978 ], [ -3.5106, 41.0982 ], [ -3.5138, 41.1023 ] ] ] } },
{ "type": "Feature", "properties": { "municipio": "Montejo de la Sierra", "clasificacion": "no-urbanizable-protegido", "calificacion": "sin-asignar", "version": "vigente", "fuente": "SIT-CAM WFS — UsoDelSuelo:VPLA_V_CLASIFICACION (https://idem.comunidad.madrid/geosrvg/ows)", "fecha_dato": "2026-05-12", "ambito": "9524", "_raw_CD_SIGLAS": "SNUP", "_raw_DS_CLASIF_GEN": "Suelo No Urbanizable Protegido", "_raw_DS_CLASIF_DET": "Suelo no Urbanizable Especialmente Protegido por su interés Paisajístico", "_raw_DS_DOCU": "NORMAS SUBSIDIARIAS", "_raw_DS_LEY": "CM Ley 4/1984, E RD 1346/1976", "_raw_FC_AC": "1989-11-08", "_raw_NM_AREA_M2": 135468.420321349, "_cam_code": "088" }, "geometry": { "type": "Polygon", "coordinates": [ [ [ -3.5036, 41.1151 ], [ -3.5043, 41.1153 ], [ -3.5045, 41.1152 ], [ -3.5047, 41.1148 ], [ -3.5056, 41.1149 ], [ -3.506, 41.1153 ], [ -3.5065, 41.1152 ], [ -3.5062, 41.1143 ], [ -3.5062, 41.1123 ], [ -3.5041, 41.1124 ], [ -3.5023, 41.1123 ], [ -3.5018, 41.1125 ], [ -3.5012, 41.1131 ], [ -3.5007, 41.1142 ], [ -3.5006, 41.1147 ], [ -3.501, 41.1152 ], [ -3.5022, 41.1153 ], [ -3.5036, 41.1151 ] ] ] } },
{ "type": "Feature", "properties": { "municipio": "Montejo de la Sierra", "clasificacion": "no-urbanizable-protegido", "calificacion": "sin-asignar", "version": "vigente", "fuente": "SIT-CAM WFS — UsoDelSuelo:VPLA_V_CLASIFICACION (https://idem.comunidad.madrid/geosrvg/ows)", "fecha_dato": "2026-05-12", "ambito": "9524", "_raw_CD_SIGLAS": "SNUP", "_raw_DS_CLASIF_GEN": "Suelo No Urbanizable Protegido", "_raw_DS_CLASIF_DET": "Suelo no Urbanizable Especialmente Protegido por su interés Paisajístico", "_raw_DS_DOCU": "NORMAS SUBSIDIARIAS", "_raw_DS_LEY": "CM Ley 4/1984, E RD 1346/1976", "_raw_FC_AC": "1989-11-08", "_raw_NM_AREA_M2": 465672.59724452801, "_cam_code": "088" }, "geometry": { "type": "Polygon", "coordinates": [ [ [ -3.5054, 41.1232 ], [ -3.5056, 41.1233 ], [ -3.5056, 41.1235 ], [ -3.5054, 41.1236 ], [ -3.504, 41.1238 ], [ -3.5037, 41.124 ], [ -3.5042, 41.1248 ], [ -3.5044, 41.1248 ], [ -3.5048, 41.1253 ], [ -3.5046, 41.1262 ], [ -3.5063, 41.1272 ], [ -3.5066, 41.1276 ], [ -3.507, 41.1278 ], [ -3.5074, 41.1287 ], [ -3.5081, 41.129 ], [ -3.5084, 41.1296 ], [ -3.5094, 41.13 ], [ -3.5114, 41.1298 ], [ -3.5105, 41.128 ], [ -3.5096, 41.1269 ], [ -3.5094, 41.125 ], [ -3.5092, 41.1244 ], [ -3.5096, 41.124 ], [ -3.5095, 41.1232 ], [ -3.5088, 41.1226 ], [ -3.5087, 41.1223 ], [ -3.5083, 41.1196 ], [ -3.5079, 41.1186 ], [ -3.5077, 41.1176 ], [ -3.5056, 41.1192 ], [ -3.505, 41.1194 ], [ -3.504, 41.1193 ], [ -3.5038, 41.1194 ], [ -3.5035, 41.1199 ], [ -3.5037, 41.121 ], [ -3.5035, 41.1215 ], [ -3.5028, 41.1224 ], [ -3.5028, 41.1229 ], [ -3.5032, 41.1232 ], [ -3.5054, 41.1232 ] ] ] } },
{ "type": "Feature", "properties": { "municipio": "Montejo de la Sierra", "clasificacion": "no-urbanizable-protegido", "calificacion": "sin-asignar", "version": "vigente", "fuente": "SIT-CAM WFS — UsoDelSuelo:VPLA_V_CLASIFICACION (https://idem.comunidad.madrid/geosrvg/ows)", "fecha_dato": "2026-05-12", "ambito": "9524", "_raw_CD_SIGLAS": "SNUP", "_raw_DS_CLASIF_GEN": "Suelo No Urbanizable Protegido", "_raw_DS_CLASIF_DET": "Suelo no Urbanizable Especialmente Protegido por su interés Paisajístico", "_raw_DS_DOCU": "NORMAS SUBSIDIARIAS", "_raw_DS_LEY": "CM Ley 4/1984, E RD 1346/1976", "_raw_FC_AC": "1989-11-08", "_raw_NM_AREA_M2": 66641.986863108206, "_cam_code": "088" }, "geometry": { "type": "Polygon", "coordinates": [ [ [ -3.5102, 41.131 ], [ -3.511, 41.1315 ], [ -3.5114, 41.1325 ], [ -3.5119, 41.1328 ], [ -3.5122, 41.1332 ], [ -3.512, 41.1342 ], [ -3.512, 41.1349 ], [ -3.5117, 41.1357 ], [ -3.5118, 41.1361 ], [ -3.5119, 41.1361 ], [ -3.513, 41.135 ], [ -3.5132, 41.1343 ], [ -3.5132, 41.1337 ], [ -3.5131, 41.1337 ], [ -3.5127, 41.1323 ], [ -3.5115, 41.1299 ], [ -3.5114, 41.1302 ], [ -3.5108, 41.1305 ], [ -3.5091, 41.1306 ], [ -3.5085, 41.1308 ], [ -3.5085, 41.131 ], [ -3.5087, 41.1312 ], [ -3.5102, 41.131 ] ] ] } },
{ "type": "Feature", "properties": { "municipio": "Montejo de la Sierra", "clasificacion": "no-urbanizable-protegido", "calificacion": "sin-asignar", "version": "vigente", "fuente": "SIT-CAM WFS — UsoDelSuelo:VPLA_V_CLASIFICACION (https://idem.comunidad.madrid/geosrvg/ows)", "fecha_dato": "2026-05-12", "ambito": "9524", "_raw_CD_SIGLAS": "SNUP", "_raw_DS_CLASIF_GEN": "Suelo No Urbanizable Protegido", "_raw_DS_CLASIF_DET": "Suelo no Urbanizable Especialmente Protegido por su interés Paisajístico", "_raw_DS_DOCU": "NORMAS SUBSIDIARIAS", "_raw_DS_LEY": "CM Ley 4/1984, E RD 1346/1976", "_raw_FC_AC": "1989-11-08", "_raw_NM_AREA_M2": 1611661.4568004401, "_cam_code": "088" }, "geometry": { "type": "Polygon", "coordinates": [ [ [ -3.5279, 41.1404 ], [ -3.5285, 41.1404 ], [ -3.5285, 41.1405 ], [ -3.529, 41.1406 ], [ -3.529, 41.1408 ], [ -3.5293, 41.1412 ], [ -3.53, 41.1418 ], [ -3.5301, 41.1423 ], [ -3.5306, 41.1431 ], [ -3.5311, 41.1435 ], [ -3.5316, 41.1441 ], [ -3.5317, 41.1444 ], [ -3.5322, 41.1446 ], [ -3.5323, 41.145 ], [ -3.5324, 41.145 ], [ -3.5323, 41.1459 ], [ -3.5326, 41.1461 ], [ -3.5328, 41.147 ], [ -3.5411, 41.1497 ], [ -3.5443, 41.1459 ], [ -3.5449, 41.1422 ], [ -3.5479, 41.1388 ], [ -3.5473, 41.1347 ], [ -3.5416, 41.1344 ], [ -3.5393, 41.1333 ], [ -3.5391, 41.1337 ], [ -3.5388, 41.1339 ], [ -3.5389, 41.1348 ], [ -3.5384, 41.1357 ], [ -3.5396, 41.1362 ], [ -3.5398, 41.1364 ], [ -3.5394, 41.1368 ], [ -3.5385, 41.137 ], [ -3.5372, 41.1375 ], [ -3.5372, 41.1378 ], [ -3.5379, 41.1381 ], [ -3.5377, 41.1385 ], [ -3.5368, 41.139 ], [ -3.5352, 41.1396 ], [ -3.5348, 41.1399 ], [ -3.5341, 41.1402 ], [ -3.5338, 41.1402 ], [ -3.5336, 41.14 ], [ -3.5341, 41.1393 ], [ -3.5342, 41.1383 ], [ -3.5344, 41.138 ], [ -3.5342, 41.1377 ], [ -3.534, 41.1379 ], [ -3.5332, 41.1378 ], [ -3.5301, 41.1396 ], [ -3.5288, 41.1396 ], [ -3.5284, 41.1398 ], [ -3.5279, 41.1404 ] ] ] } },
{ "type": "Feature", "properties": { "municipio": "Montejo de la Sierra", "clasificacion": "no-urbanizable-protegido", "calificacion": "sin-asignar", "version": "vigente", "fuente": "SIT-CAM WFS — UsoDelSuelo:VPLA_V_CLASIFICACION (https://idem.comunidad.madrid/geosrvg/ows)", "fecha_dato": "2026-05-12", "ambito": "9524", "_raw_CD_SIGLAS": "SNUP", "_raw_DS_CLASIF_GEN": "Suelo No Urbanizable Protegido", "_raw_DS_CLASIF_DET": "Suelo No Urbanizable Especialmente Protegido por su Interés Paisajístico y Ecológico", "_raw_DS_DOCU": "NORMAS SUBSIDIARIAS", "_raw_DS_LEY": "CM Ley 4/1984, E RD 1346/1976", "_raw_FC_AC": "1989-11-08", "_raw_NM_AREA_M2": 268963.19695911498, "_cam_code": "088" }, "geometry": { "type": "Polygon", "coordinates": [ [ [ -3.5257, 41.0603 ], [ -3.5259, 41.0602 ], [ -3.5258, 41.0597 ], [ -3.5264, 41.0597 ], [ -3.5264, 41.0598 ], [ -3.5266, 41.0596 ], [ -3.527, 41.0597 ], [ -3.5276, 41.0594 ], [ -3.5276, 41.0593 ], [ -3.5283, 41.0592 ], [ -3.5285, 41.0594 ], [ -3.5286, 41.0592 ], [ -3.5288, 41.0592 ], [ -3.5287, 41.059 ], [ -3.5288, 41.0584 ], [ -3.5294, 41.0577 ], [ -3.5299, 41.0577 ], [ -3.5303, 41.0578 ], [ -3.5303, 41.0579 ], [ -3.5312, 41.0579 ], [ -3.5313, 41.0576 ], [ -3.5316, 41.0576 ], [ -3.5322, 41.0578 ], [ -3.533, 41.0578 ], [ -3.533, 41.058 ], [ -3.5331, 41.0579 ], [ -3.5339, 41.0579 ], [ -3.535, 41.0554 ], [ -3.5359, 41.0555 ], [ -3.5364, 41.0558 ], [ -3.5365, 41.0561 ], [ -3.5378, 41.0561 ], [ -3.5378, 41.056 ], [ -3.5381, 41.0559 ], [ -3.5384, 41.0554 ], [ -3.5389, 41.0552 ], [ -3.5389, 41.0551 ], [ -3.5384, 41.0551 ], [ -3.5384, 41.055 ], [ -3.5377, 41.0547 ], [ -3.5377, 41.0546 ], [ -3.5372, 41.0545 ], [ -3.536, 41.0546 ], [ -3.5358, 41.0544 ], [ -3.535, 41.0544 ], [ -3.5343, 41.0546 ], [ -3.5322, 41.0555 ], [ -3.5309, 41.0556 ], [ -3.53, 41.0565 ], [ -3.5295, 41.0566 ], [ -3.5295, 41.0567 ], [ -3.5282, 41.0568 ], [ -3.5277, 41.0572 ], [ -3.5275, 41.0584 ], [ -3.5273, 41.0584 ], [ -3.5269, 41.058 ], [ -3.526, 41.0579 ], [ -3.5257, 41.0578 ], [ -3.5257, 41.0577 ], [ -3.5246, 41.0577 ], [ -3.5239, 41.0576 ], [ -3.5239, 41.0575 ], [ -3.5233, 41.0576 ], [ -3.5227, 41.0592 ], [ -3.5257, 41.0603 ] ] ] } },
{ "type": "Feature", "properties": { "municipio": "Montejo de la Sierra", "clasificacion": "no-urbanizable-protegido", "calificacion": "sin-asignar", "version": "vigente", "fuente": "SIT-CAM WFS — UsoDelSuelo:VPLA_V_CLASIFICACION (https://idem.comunidad.madrid/geosrvg/ows)", "fecha_dato": "2026-05-12", "ambito": "9524", "_raw_CD_SIGLAS": "SNUP", "_raw_DS_CLASIF_GEN": "Suelo No Urbanizable Protegido", "_raw_DS_CLASIF_DET": "Suelo no Urbanizable Especialmente Protegido por su interés Agropecuario", "_raw_DS_DOCU": "NORMAS SUBSIDIARIAS", "_raw_DS_LEY": "CM Ley 4/1984, E RD 1346/1976", "_raw_FC_AC": "1989-11-08", "_raw_NM_AREA_M2": 1989173.21284063, "_cam_code": "088" }, "geometry": { "type": "Polygon", "coordinates": [ [ [ -3.5143, 41.0684 ], [ -3.5141, 41.0694 ], [ -3.5136, 41.0703 ], [ -3.5136, 41.0721 ], [ -3.5137, 41.0721 ], [ -3.5138, 41.0725 ], [ -3.5138, 41.073 ], [ -3.5146, 41.0744 ], [ -3.5154, 41.075 ], [ -3.5159, 41.0752 ], [ -3.5177, 41.0751 ], [ -3.5176, 41.0757 ], [ -3.5173, 41.0759 ], [ -3.5163, 41.0773 ], [ -3.516, 41.0775 ], [ -3.5154, 41.0785 ], [ -3.5157, 41.0782 ], [ -3.518, 41.0771 ], [ -3.5199, 41.0771 ], [ -3.5215, 41.0768 ], [ -3.5215, 41.0767 ], [ -3.5226, 41.0762 ], [ -3.5233, 41.0757 ], [ -3.524, 41.075 ], [ -3.524, 41.0747 ], [ -3.5242, 41.0743 ], [ -3.5256, 41.0732 ], [ -3.5269, 41.0715 ], [ -3.5279, 41.0706 ], [ -3.528, 41.0703 ], [ -3.5283, 41.0701 ], [ -3.5283, 41.0698 ], [ -3.5284, 41.0698 ], [ -3.5285, 41.0694 ], [ -3.5295, 41.0684 ], [ -3.5296, 41.0681 ], [ -3.5299, 41.0678 ], [ -3.5302, 41.0671 ], [ -3.5302, 41.0667 ], [ -3.5304, 41.0663 ], [ -3.5309, 41.0659 ], [ -3.5309, 41.0657 ], [ -3.5324, 41.0654 ], [ -3.5332, 41.065 ], [ -3.5335, 41.0646 ], [ -3.5343, 41.064 ], [ -3.5362, 41.0628 ], [ -3.5372, 41.0634 ], [ -3.5386, 41.0612 ], [ -3.5381, 41.0612 ], [ -3.538, 41.061 ], [ -3.538, 41.0607 ], [ -3.5384, 41.0601 ], [ -3.5383, 41.0594 ], [ -3.5384, 41.0588 ], [ -3.5388, 41.0585 ], [ -3.5394, 41.0584 ], [ -3.5394, 41.0582 ], [ -3.5392, 41.0578 ], [ -3.5385, 41.0577 ], [ -3.5381, 41.0574 ], [ -3.5379, 41.0569 ], [ -3.5368, 41.0573 ], [ -3.5368, 41.0574 ], [ -3.5353, 41.0571 ], [ -3.5353, 41.0572 ], [ -3.535, 41.0573 ], [ -3.5353, 41.0578 ], [ -3.5353, 41.0583 ], [ -3.5351, 41.0586 ], [ -3.5351, 41.059 ], [ -3.5331, 41.0593 ], [ -3.5332, 41.0596 ], [ -3.5335, 41.0599 ], [ -3.5321, 41.0604 ], [ -3.5322, 41.0607 ], [ -3.5313, 41.061 ], [ -3.5304, 41.0615 ], [ -3.5302, 41.0618 ], [ -3.5296, 41.062 ], [ -3.5292, 41.0619 ], [ -3.5288, 41.0615 ], [ -3.5285, 41.0616 ], [ -3.5281, 41.0615 ], [ -3.5277, 41.0616 ], [ -3.5276, 41.0615 ], [ -3.5271, 41.0617 ], [ -3.5269, 41.0615 ], [ -3.5266, 41.0617 ], [ -3.5262, 41.0613 ], [ -3.5262, 41.0614 ], [ -3.5259, 41.0614 ], [ -3.5257, 41.0609 ], [ -3.5254, 41.0608 ], [ -3.5249, 41.0618 ], [ -3.5244, 41.0619 ], [ -3.5244, 41.062 ], [ -3.5242, 41.062 ], [ -3.5234, 41.0625 ], [ -3.5234, 41.0627 ], [ -3.5233, 41.0627 ], [ -3.5232, 41.0631 ], [ -3.523, 41.0633 ], [ -3.5214, 41.0635 ], [ -3.5208, 41.0638 ], [ -3.5205, 41.0642 ], [ -3.5198, 41.0644 ], [ -3.519, 41.0649 ], [ -3.5186, 41.065 ], [ -3.5178, 41.0658 ], [ -3.517, 41.0662 ], [ -3.5168, 41.0666 ], [ -3.5161, 41.0672 ], [ -3.5143, 41.0684 ] ] ] } },
{ "type": "Feature", "properties": { "municipio": "Montejo de la Sierra", "clasificacion": "no-urbanizable-protegido", "calificacion": "sin-asignar", "version": "vigente", "fuente": "SIT-CAM WFS — UsoDelSuelo:VPLA_V_CLASIFICACION (https://idem.comunidad.madrid/geosrvg/ows)", "fecha_dato": "2026-05-12", "ambito": "9524", "_raw_CD_SIGLAS": "SNUP", "_raw_DS_CLASIF_GEN": "Suelo No Urbanizable Protegido", "_raw_DS_CLASIF_DET": "Suelo No Urbanizable Especialmente Protegido por su Interés Agropecuario y Ecológico", "_raw_DS_DOCU": "NORMAS SUBSIDIARIAS", "_raw_DS_LEY": "CM Ley 4/1984, E RD 1346/1976", "_raw_FC_AC": "1989-11-08", "_raw_NM_AREA_M2": 1741344.1051745, "_cam_code": "088" }, "geometry": { "type": "Polygon", "coordinates": [ [ [ -3.5127, 41.0756 ], [ -3.5131, 41.0786 ], [ -3.5139, 41.0793 ], [ -3.515, 41.0818 ], [ -3.5172, 41.0832 ], [ -3.5184, 41.0832 ], [ -3.5184, 41.0831 ], [ -3.5187, 41.0831 ], [ -3.5187, 41.083 ], [ -3.5195, 41.0829 ], [ -3.5201, 41.0825 ], [ -3.5204, 41.0839 ], [ -3.5203, 41.0859 ], [ -3.5207, 41.0872 ], [ -3.5216, 41.0881 ], [ -3.5222, 41.0884 ], [ -3.5234, 41.0886 ], [ -3.5238, 41.0856 ], [ -3.5246, 41.0848 ], [ -3.5284, 41.0787 ], [ -3.5297, 41.0754 ], [ -3.5301, 41.0747 ], [ -3.5372, 41.0634 ], [ -3.5362, 41.0628 ], [ -3.5343, 41.064 ], [ -3.5335, 41.0646 ], [ -3.5332, 41.065 ], [ -3.5324, 41.0654 ], [ -3.5309, 41.0657 ], [ -3.5309, 41.0659 ], [ -3.5304, 41.0663 ], [ -3.5302, 41.0667 ], [ -3.5302, 41.0671 ], [ -3.5299, 41.0678 ], [ -3.5296, 41.0681 ], [ -3.5295, 41.0684 ], [ -3.5285, 41.0694 ], [ -3.5284, 41.0698 ], [ -3.5283, 41.0698 ], [ -3.5283, 41.0701 ], [ -3.5269, 41.0715 ], [ -3.5256, 41.0732 ], [ -3.5242, 41.0743 ], [ -3.524, 41.0747 ], [ -3.524, 41.075 ], [ -3.5229, 41.076 ], [ -3.5215, 41.0767 ], [ -3.5215, 41.0768 ], [ -3.5199, 41.0771 ], [ -3.518, 41.0771 ], [ -3.5157, 41.0782 ], [ -3.5154, 41.0785 ], [ -3.516, 41.0775 ], [ -3.5163, 41.0773 ], [ -3.5173, 41.0759 ], [ -3.5176, 41.0757 ], [ -3.5177, 41.0751 ], [ -3.5159, 41.0752 ], [ -3.5149, 41.0747 ], [ -3.5146, 41.0744 ], [ -3.5138, 41.073 ], [ -3.5138, 41.0725 ], [ -3.5137, 41.0721 ], [ -3.5136, 41.0721 ], [ -3.5136, 41.0703 ], [ -3.5141, 41.0694 ], [ -3.5143, 41.0684 ], [ -3.5136, 41.0687 ], [ -3.5127, 41.0697 ], [ -3.5119, 41.072 ], [ -3.5119, 41.0738 ], [ -3.5122, 41.0742 ], [ -3.5124, 41.0753 ], [ -3.5127, 41.0756 ] ] ] } },
{ "type": "Feature", "properties": { "municipio": "Montejo de la Sierra", "clasificacion": "no-urbanizable-protegido", "calificacion": "sin-asignar", "version": "vigente", "fuente": "SIT-CAM WFS — UsoDelSuelo:VPLA_V_CLASIFICACION (https://idem.comunidad.madrid/geosrvg/ows)", "fecha_dato": "2026-05-12", "ambito": "9524", "_raw_CD_SIGLAS": "SNUP", "_raw_DS_CLASIF_GEN": "Suelo No Urbanizable Protegido", "_raw_DS_CLASIF_DET": "Suelo No Urbanizable Especialmente Protegido por su Interés Ecológico", "_raw_DS_DOCU": "NORMAS SUBSIDIARIAS", "_raw_DS_LEY": "CM Ley 4/1984, E RD 1346/1976", "_raw_FC_AC": "1989-11-08", "_raw_NM_AREA_M2": 454559.86117172602, "_cam_code": "088" }, "geometry": { "type": "Polygon", "coordinates": [ [ [ -3.5249, 41.0547 ], [ -3.5272, 41.0549 ], [ -3.5272, 41.055 ], [ -3.5283, 41.055 ], [ -3.5292, 41.0547 ], [ -3.5309, 41.0546 ], [ -3.5317, 41.0536 ], [ -3.5319, 41.0528 ], [ -3.5315, 41.0523 ], [ -3.5301, 41.0516 ], [ -3.5287, 41.0511 ], [ -3.5267, 41.0499 ], [ -3.5248, 41.0493 ], [ -3.5241, 41.0492 ], [ -3.5231, 41.0492 ], [ -3.5181, 41.0509 ], [ -3.5193, 41.0522 ], [ -3.5199, 41.0523 ], [ -3.5199, 41.0524 ], [ -3.5205, 41.0526 ], [ -3.5205, 41.0527 ], [ -3.5209, 41.0528 ], [ -3.5209, 41.0529 ], [ -3.5213, 41.053 ], [ -3.5213, 41.0531 ], [ -3.5216, 41.0531 ], [ -3.5218, 41.0533 ], [ -3.522, 41.0533 ], [ -3.522, 41.0534 ], [ -3.5225, 41.0535 ], [ -3.5225, 41.0536 ], [ -3.5233, 41.0539 ], [ -3.5239, 41.0544 ], [ -3.5249, 41.0547 ] ] ] } },
{ "type": "Feature", "properties": { "municipio": "Montejo de la Sierra", "clasificacion": "no-urbanizable-protegido", "calificacion": "sin-asignar", "version": "vigente", "fuente": "SIT-CAM WFS — UsoDelSuelo:VPLA_V_CLASIFICACION (https://idem.comunidad.madrid/geosrvg/ows)", "fecha_dato": "2026-05-12", "ambito": "9524", "_raw_CD_SIGLAS": "SNUP", "_raw_DS_CLASIF_GEN": "Suelo No Urbanizable Protegido", "_raw_DS_CLASIF_DET": "Suelo No Urbanizable Especialmente Protegido por su Interés Ecológico", "_raw_DS_DOCU": "NORMAS SUBSIDIARIAS", "_raw_DS_LEY": "CM Ley 4/1984, E RD 1346/1976", "_raw_FC_AC": "1989-11-08", "_raw_NM_AREA_M2": 3469126.9702449902, "_cam_code": "088" }, "geometry": { "type": "Polygon", "coordinates": [ [ [ -3.4899, 41.0855 ], [ -3.4907, 41.0869 ], [ -3.4911, 41.0871 ], [ -3.4917, 41.0871 ], [ -3.4918, 41.0866 ], [ -3.4921, 41.0862 ], [ -3.4923, 41.0862 ], [ -3.4939, 41.0868 ], [ -3.4938, 41.0865 ], [ -3.4932, 41.0863 ], [ -3.4931, 41.0861 ], [ -3.4932, 41.0858 ], [ -3.494, 41.086 ], [ -3.4943, 41.0859 ], [ -3.4944, 41.0857 ], [ -3.4952, 41.0852 ], [ -3.4952, 41.0851 ], [ -3.4962, 41.0852 ], [ -3.4971, 41.0848 ], [ -3.4973, 41.0844 ], [ -3.4966, 41.0835 ], [ -3.4965, 41.083 ], [ -3.4966, 41.083 ], [ -3.4967, 41.0826 ], [ -3.4975, 41.082 ], [ -3.4981, 41.0812 ], [ -3.4988, 41.0807 ], [ -3.4996, 41.0796 ], [ -3.5006, 41.0794 ], [ -3.5018, 41.0799 ], [ -3.5026, 41.08 ], [ -3.5029, 41.08 ], [ -3.5031, 41.0796 ], [ -3.5031, 41.079 ], [ -3.5029, 41.0787 ], [ -3.5026, 41.0784 ], [ -3.5013, 41.078 ], [ -3.5011, 41.0778 ], [ -3.5009, 41.0772 ], [ -3.5016, 41.0759 ], [ -3.5019, 41.0756 ], [ -3.5021, 41.075 ], [ -3.502, 41.0737 ], [ -3.5024, 41.0731 ], [ -3.5024, 41.0727 ], [ -3.5013, 41.0724 ], [ -3.5007, 41.0721 ], [ -3.5001, 41.0715 ], [ -3.5002, 41.0706 ], [ -3.5, 41.0703 ], [ -3.4999, 41.0687 ], [ -3.5, 41.0676 ], [ -3.5002, 41.0673 ], [ -3.5001, 41.0666 ], [ -3.5, 41.0666 ], [ -3.4998, 41.0662 ], [ -3.4992, 41.0659 ], [ -3.4977, 41.066 ], [ -3.4976, 41.0652 ], [ -3.4973, 41.0652 ], [ -3.4968, 41.0657 ], [ -3.4967, 41.066 ], [ -3.4963, 41.0662 ], [ -3.4958, 41.0662 ], [ -3.4956, 41.0659 ], [ -3.4947, 41.0656 ], [ -3.4947, 41.0655 ], [ -3.4963, 41.0637 ], [ -3.4975, 41.0627 ], [ -3.4983, 41.0624 ], [ -3.4988, 41.062 ], [ -3.5003, 41.0616 ], [ -3.5022, 41.0614 ], [ -3.5022, 41.0613 ], [ -3.5039, 41.0608 ], [ -3.5066, 41.0608 ], [ -3.5071, 41.0606 ], [ -3.5073, 41.0604 ], [ -3.5073, 41.0602 ], [ -3.5069, 41.06 ], [ -3.5038, 41.0599 ], [ -3.5024, 41.0596 ], [ -3.5009, 41.0597 ], [ -3.5, 41.0595 ], [ -3.4997, 41.0588 ], [ -3.501, 41.058 ], [ -3.502, 41.0565 ], [ -3.5014, 41.0565 ], [ -3.4999, 41.0557 ], [ -3.4979, 41.0564 ], [ -3.496, 41.0563 ], [ -3.4955, 41.0565 ], [ -3.4939, 41.0564 ], [ -3.4926, 41.0566 ], [ -3.4852, 41.0638 ], [ -3.4852, 41.0642 ], [ -3.4888, 41.0642 ], [ -3.4888, 41.0645 ], [ -3.4891, 41.065 ], [ -3.489, 41.0652 ], [ -3.4891, 41.0661 ], [ -3.4886, 41.068 ], [ -3.4885, 41.0694 ], [ -3.4876, 41.0713 ], [ -3.4872, 41.0717 ], [ -3.4861, 41.0723 ], [ -3.4861, 41.0724 ], [ -3.4841, 41.0729 ], [ -3.4835, 41.0735 ], [ -3.4833, 41.0751 ], [ -3.4831, 41.0753 ], [ -3.4831, 41.0758 ], [ -3.4835, 41.0766 ], [ -3.4841, 41.0768 ], [ -3.4849, 41.0774 ], [ -3.4852, 41.0785 ], [ -3.4854, 41.0804 ], [ -3.4861, 41.0811 ], [ -3.4874, 41.0817 ], [ -3.4883, 41.0824 ], [ -3.4892, 41.0847 ], [ -3.4899, 41.0855 ] ] ] } },
{ "type": "Feature", "properties": { "municipio": "Montejo de la Sierra", "clasificacion": "no-urbanizable-protegido", "calificacion": "sin-asignar", "version": "vigente", "fuente": "SIT-CAM WFS — UsoDelSuelo:VPLA_V_CLASIFICACION (https://idem.comunidad.madrid/geosrvg/ows)", "fecha_dato": "2026-05-12", "ambito": "9524", "_raw_CD_SIGLAS": "SNUP", "_raw_DS_CLASIF_GEN": "Suelo No Urbanizable Protegido", "_raw_DS_CLASIF_DET": "Suelo No Urbanizable Especialmente Protegido por su Interés Ecológico", "_raw_DS_DOCU": "NORMAS SUBSIDIARIAS", "_raw_DS_LEY": "CM Ley 4/1984, E RD 1346/1976", "_raw_FC_AC": "1989-11-08", "_raw_NM_AREA_M2": 2017950.7957035601, "_cam_code": "088" }, "geometry": { "type": "Polygon", "coordinates": [ [ [ -3.5185, 41.1387 ], [ -3.5195, 41.1388 ], [ -3.5195, 41.1389 ], [ -3.52, 41.1388 ], [ -3.5183, 41.1382 ], [ -3.517, 41.1384 ], [ -3.5168, 41.1383 ], [ -3.5165, 41.1378 ], [ -3.5166, 41.1371 ], [ -3.5162, 41.1364 ], [ -3.5159, 41.1362 ], [ -3.5118, 41.1361 ], [ -3.5117, 41.1357 ], [ -3.512, 41.1349 ], [ -3.512, 41.1342 ], [ -3.5122, 41.1332 ], [ -3.5119, 41.1328 ], [ -3.5114, 41.1325 ], [ -3.511, 41.1315 ], [ -3.5105, 41.1311 ], [ -3.5097, 41.131 ], [ -3.5087, 41.1312 ], [ -3.5085, 41.131 ], [ -3.5085, 41.1308 ], [ -3.5091, 41.1306 ], [ -3.5108, 41.1305 ], [ -3.5114, 41.1302 ], [ -3.5115, 41.1299 ], [ -3.5114, 41.1298 ], [ -3.5109, 41.1298 ], [ -3.5094, 41.13 ], [ -3.5084, 41.1296 ], [ -3.5081, 41.129 ], [ -3.5074, 41.1287 ], [ -3.507, 41.1278 ], [ -3.5066, 41.1276 ], [ -3.5063, 41.1272 ], [ -3.5046, 41.1262 ], [ -3.5048, 41.1253 ], [ -3.5044, 41.1248 ], [ -3.5042, 41.1248 ], [ -3.5037, 41.124 ], [ -3.504, 41.1238 ], [ -3.5054, 41.1236 ], [ -3.5056, 41.1235 ], [ -3.5056, 41.1233 ], [ -3.5054, 41.1232 ], [ -3.5032, 41.1232 ], [ -3.5028, 41.1229 ], [ -3.5028, 41.1224 ], [ -3.5035, 41.1215 ], [ -3.5037, 41.121 ], [ -3.5035, 41.1199 ], [ -3.5038, 41.1194 ], [ -3.504, 41.1193 ], [ -3.505, 41.1194 ], [ -3.5059, 41.119 ], [ -3.5082, 41.1171 ], [ -3.5087, 41.1165 ], [ -3.5092, 41.1155 ], [ -3.509, 41.1151 ], [ -3.5083, 41.1149 ], [ -3.5074, 41.1149 ], [ -3.506, 41.1153 ], [ -3.5056, 41.1149 ], [ -3.5053, 41.1148 ], [ -3.5047, 41.1148 ], [ -3.5045, 41.1152 ], [ -3.5043, 41.1153 ], [ -3.5036, 41.1151 ], [ -3.5013, 41.1153 ], [ -3.501, 41.1152 ], [ -3.5006, 41.1147 ], [ -3.5007, 41.1142 ], [ -3.5012, 41.1131 ], [ -3.5018, 41.1125 ], [ -3.5023, 41.1123 ], [ -3.5041, 41.1124 ], [ -3.5062, 41.1123 ], [ -3.5063, 41.112 ], [ -3.5061, 41.1108 ], [ -3.5061, 41.1096 ], [ -3.5057, 41.1085 ], [ -3.505, 41.1074 ], [ -3.503, 41.1077 ], [ -3.5002, 41.1077 ], [ -3.4997, 41.1076 ], [ -3.4984, 41.1068 ], [ -3.4978, 41.1066 ], [ -3.4978, 41.1065 ], [ -3.4973, 41.1064 ], [ -3.4967, 41.106 ], [ -3.4965, 41.106 ], [ -3.4965, 41.1059 ], [ -3.4955, 41.1055 ], [ -3.4955, 41.1054 ], [ -3.4952, 41.1054 ], [ -3.4937, 41.1047 ], [ -3.4921, 41.1043 ], [ -3.4916, 41.104 ], [ -3.491, 41.1044 ], [ -3.4905, 41.1045 ], [ -3.4903, 41.1044 ], [ -3.4903, 41.1042 ], [ -3.4898, 41.1034 ], [ -3.4894, 41.1034 ], [ -3.489, 41.1041 ], [ -3.4891, 41.1041 ], [ -3.4893, 41.1048 ], [ -3.4898, 41.1058 ], [ -3.4921, 41.1064 ], [ -3.4926, 41.1067 ], [ -3.493, 41.1073 ], [ -3.4929, 41.108 ], [ -3.494, 41.1097 ], [ -3.4939, 41.1104 ], [ -3.493, 41.1111 ], [ -3.493, 41.1113 ], [ -3.4938, 41.1118 ], [ -3.4948, 41.1115 ], [ -3.4952, 41.1116 ], [ -3.4954, 41.1118 ], [ -3.4954, 41.1122 ], [ -3.4942, 41.113 ], [ -3.4941, 41.1132 ], [ -3.4942, 41.1139 ], [ -3.495, 41.1145 ], [ -3.4953, 41.115 ], [ -3.4953, 41.1159 ], [ -3.4955, 41.1162 ], [ -3.4963, 41.1165 ], [ -3.4967, 41.1165 ], [ -3.4968, 41.1166 ], [ -3.4967, 41.1172 ], [ -3.4968, 41.1176 ], [ -3.4975, 41.1177 ], [ -3.498, 41.118 ], [ -3.4983, 41.1183 ], [ -3.4982, 41.119 ], [ -3.4991, 41.1195 ], [ -3.4998, 41.1201 ], [ -3.4998, 41.1206 ], [ -3.4994, 41.1207 ], [ -3.4993, 41.1209 ], [ -3.4995, 41.1211 ], [ -3.5001, 41.1212 ], [ -3.5006, 41.1219 ], [ -3.5004, 41.1234 ], [ -3.5009, 41.1241 ], [ -3.5014, 41.1245 ], [ -3.5014, 41.1249 ], [ -3.5016, 41.1253 ], [ -3.5017, 41.1267 ], [ -3.5024, 41.1278 ], [ -3.503, 41.1282 ], [ -3.5033, 41.1282 ], [ -3.5036, 41.1285 ], [ -3.5043, 41.1299 ], [ -3.5045, 41.1299 ], [ -3.5048, 41.1302 ], [ -3.5055, 41.1302 ], [ -3.5056, 41.1303 ], [ -3.5057, 41.1306 ], [ -3.5058, 41.1306 ], [ -3.5057, 41.1309 ], [ -3.5058, 41.1309 ], [ -3.5058, 41.1311 ], [ -3.5062, 41.1314 ], [ -3.5063, 41.1317 ], [ -3.5066, 41.1317 ], [ -3.5067, 41.1329 ], [ -3.5077, 41.1335 ], [ -3.5079, 41.1338 ], [ -3.5081, 41.1346 ], [ -3.5091, 41.1356 ], [ -3.5092, 41.1364 ], [ -3.5102, 41.1369 ], [ -3.5106, 41.1373 ], [ -3.5116, 41.1374 ], [ -3.5124, 41.1376 ], [ -3.5124, 41.1377 ], [ -3.5142, 41.1377 ], [ -3.5149, 41.1375 ], [ -3.5156, 41.1375 ], [ -3.5156, 41.1376 ], [ -3.5159, 41.1377 ], [ -3.5159, 41.1383 ], [ -3.5164, 41.1388 ], [ -3.5185, 41.1387 ] ] ] } },
{ "type": "Feature", "properties": { "municipio": "Montejo de la Sierra", "clasificacion": "no-urbanizable-protegido", "calificacion": "sin-asignar", "version": "vigente", "fuente": "SIT-CAM WFS — UsoDelSuelo:VPLA_V_CLASIFICACION (https://idem.comunidad.madrid/geosrvg/ows)", "fecha_dato": "2026-05-12", "ambito": "9524", "_raw_CD_SIGLAS": "SNUP", "_raw_DS_CLASIF_GEN": "Suelo No Urbanizable Protegido", "_raw_DS_CLASIF_DET": "Suelo No Urbanizable Especialmente Protegido por su Interés Paisajístico y Forestal", "_raw_DS_DOCU": "NORMAS SUBSIDIARIAS", "_raw_DS_LEY": "CM Ley 4/1984, E RD 1346/1976", "_raw_FC_AC": "1989-11-08", "_raw_NM_AREA_M2": 6300822.9648367902, "_cam_code": "088" }, "geometry": { "type": "Polygon", "coordinates": [ [ [ -3.5266, 41.1396 ], [ -3.5267, 41.1401 ], [ -3.5271, 41.1403 ], [ -3.5278, 41.1403 ], [ -3.5279, 41.1404 ], [ -3.5284, 41.1398 ], [ -3.5288, 41.1396 ], [ -3.5301, 41.1396 ], [ -3.5332, 41.1378 ], [ -3.534, 41.1379 ], [ -3.5342, 41.1377 ], [ -3.5344, 41.138 ], [ -3.5342, 41.1383 ], [ -3.5341, 41.1393 ], [ -3.5336, 41.14 ], [ -3.5338, 41.1402 ], [ -3.5341, 41.1402 ], [ -3.5377, 41.1385 ], [ -3.5379, 41.1381 ], [ -3.5372, 41.1378 ], [ -3.5372, 41.1375 ], [ -3.5385, 41.137 ], [ -3.5394, 41.1368 ], [ -3.5398, 41.1364 ], [ -3.5396, 41.1362 ], [ -3.5384, 41.1357 ], [ -3.5389, 41.1348 ], [ -3.5388, 41.1339 ], [ -3.5391, 41.1337 ], [ -3.5393, 41.1333 ], [ -3.5365, 41.1319 ], [ -3.5335, 41.1326 ], [ -3.5309, 41.1311 ], [ -3.5305, 41.131 ], [ -3.5261, 41.1286 ], [ -3.5232, 41.1236 ], [ -3.5219, 41.1195 ], [ -3.5227, 41.118 ], [ -3.5244, 41.1154 ], [ -3.5252, 41.109 ], [ -3.525, 41.1081 ], [ -3.5243, 41.1072 ], [ -3.524, 41.1054 ], [ -3.5231, 41.1025 ], [ -3.523, 41.1011 ], [ -3.5223, 41.1028 ], [ -3.5221, 41.1038 ], [ -3.5221, 41.1053 ], [ -3.5222, 41.1062 ], [ -3.5223, 41.1062 ], [ -3.5222, 41.1082 ], [ -3.5219, 41.1091 ], [ -3.5214, 41.1098 ], [ -3.5202, 41.1091 ], [ -3.5165, 41.1075 ], [ -3.5145, 41.1034 ], [ -3.5138, 41.1023 ], [ -3.5106, 41.0982 ], [ -3.5102, 41.0978 ], [ -3.5098, 41.0977 ], [ -3.5098, 41.0976 ], [ -3.5093, 41.0976 ], [ -3.5086, 41.0979 ], [ -3.5084, 41.0983 ], [ -3.5055, 41.1003 ], [ -3.5022, 41.1011 ], [ -3.502, 41.1017 ], [ -3.5019, 41.1017 ], [ -3.502, 41.1027 ], [ -3.5019, 41.1034 ], [ -3.5016, 41.1042 ], [ -3.5016, 41.1051 ], [ -3.5013, 41.1055 ], [ -3.5002, 41.1063 ], [ -3.4997, 41.1065 ], [ -3.4992, 41.1073 ], [ -3.4997, 41.1076 ], [ -3.5002, 41.1077 ], [ -3.503, 41.1077 ], [ -3.505, 41.1074 ], [ -3.5057, 41.1085 ], [ -3.5061, 41.1096 ], [ -3.5061, 41.1108 ], [ -3.5063, 41.112 ], [ -3.5062, 41.1123 ], [ -3.5062, 41.1143 ], [ -3.5064, 41.1151 ], [ -3.5065, 41.1152 ], [ -3.5065, 41.1151 ], [ -3.5069, 41.1151 ], [ -3.5074, 41.1149 ], [ -3.5083, 41.1149 ], [ -3.509, 41.1151 ], [ -3.5092, 41.1155 ], [ -3.5087, 41.1165 ], [ -3.5077, 41.1177 ], [ -3.5079, 41.1186 ], [ -3.5083, 41.1196 ], [ -3.5087, 41.1223 ], [ -3.5088, 41.1226 ], [ -3.5095, 41.1232 ], [ -3.5096, 41.124 ], [ -3.5092, 41.1244 ], [ -3.5094, 41.125 ], [ -3.5096, 41.1269 ], [ -3.5105, 41.128 ], [ -3.5127, 41.1323 ], [ -3.5131, 41.1337 ], [ -3.5132, 41.1337 ], [ -3.5132, 41.1343 ], [ -3.513, 41.135 ], [ -3.5119, 41.1361 ], [ -3.5159, 41.1362 ], [ -3.5162, 41.1364 ], [ -3.5166, 41.1371 ], [ -3.5165, 41.1378 ], [ -3.5166, 41.1381 ], [ -3.517, 41.1384 ], [ -3.5183, 41.1382 ], [ -3.5198, 41.1388 ], [ -3.5214, 41.1389 ], [ -3.5221, 41.1392 ], [ -3.5225, 41.1396 ], [ -3.5228, 41.1397 ], [ -3.5232, 41.1396 ], [ -3.5236, 41.1397 ], [ -3.5246, 41.1392 ], [ -3.5251, 41.1393 ], [ -3.5255, 41.1392 ], [ -3.5255, 41.1391 ], [ -3.526, 41.1391 ], [ -3.5266, 41.1396 ] ] ] } },
{ "type": "Feature", "properties": { "municipio": "Montejo de la Sierra", "clasificacion": "urbano-consolidado", "calificacion": "sin-asignar", "version": "vigente", "fuente": "SIT-CAM WFS — UsoDelSuelo:VPLA_V_CLASIFICACION (https://idem.comunidad.madrid/geosrvg/ows)", "fecha_dato": "2026-05-12", "ambito": "9524", "_raw_CD_SIGLAS": "SU", "_raw_DS_CLASIF_GEN": "Suelo Urbano", "_raw_DS_CLASIF_DET": "Suelo Urbano", "_raw_DS_DOCU": "NORMAS SUBSIDIARIAS", "_raw_DS_LEY": "CM Ley 4/1984, E RD 1346/1976", "_raw_FC_AC": "1989-11-08", "_raw_NM_AREA_M2": 220738.28976923201, "_cam_code": "088" }, "geometry": { "type": "Polygon", "coordinates": [ [ [ -3.5293, 41.0619 ], [ -3.5296, 41.062 ], [ -3.5302, 41.0618 ], [ -3.5304, 41.0615 ], [ -3.5313, 41.061 ], [ -3.5322, 41.0607 ], [ -3.5321, 41.0604 ], [ -3.5335, 41.0599 ], [ -3.5332, 41.0596 ], [ -3.5331, 41.0593 ], [ -3.5351, 41.059 ], [ -3.5351, 41.0586 ], [ -3.5353, 41.0583 ], [ -3.5353, 41.0578 ], [ -3.535, 41.0573 ], [ -3.5348, 41.0574 ], [ -3.5344, 41.058 ], [ -3.5341, 41.0579 ], [ -3.5331, 41.0579 ], [ -3.533, 41.058 ], [ -3.533, 41.0578 ], [ -3.5322, 41.0578 ], [ -3.5316, 41.0576 ], [ -3.5313, 41.0576 ], [ -3.5312, 41.0579 ], [ -3.5303, 41.0579 ], [ -3.5303, 41.0578 ], [ -3.5299, 41.0577 ], [ -3.5294, 41.0577 ], [ -3.5289, 41.0582 ], [ -3.5287, 41.0588 ], [ -3.5288, 41.0592 ], [ -3.5286, 41.0592 ], [ -3.5285, 41.0594 ], [ -3.5282, 41.0592 ], [ -3.5281, 41.0593 ], [ -3.5276, 41.0593 ], [ -3.5276, 41.0594 ], [ -3.527, 41.0597 ], [ -3.5266, 41.0596 ], [ -3.5264, 41.0598 ], [ -3.5264, 41.0597 ], [ -3.5258, 41.0597 ], [ -3.5259, 41.0602 ], [ -3.5257, 41.0603 ], [ -3.5254, 41.0608 ], [ -3.5257, 41.0609 ], [ -3.5259, 41.0614 ], [ -3.5262, 41.0614 ], [ -3.5262, 41.0613 ], [ -3.5266, 41.0617 ], [ -3.5269, 41.0615 ], [ -3.5271, 41.0617 ], [ -3.5276, 41.0615 ], [ -3.5277, 41.0616 ], [ -3.5278, 41.0615 ], [ -3.5283, 41.0616 ], [ -3.5288, 41.0615 ], [ -3.5289, 41.0617 ], [ -3.529, 41.0616 ], [ -3.5293, 41.0619 ] ] ] } },
{ "type": "Feature", "properties": { "municipio": "Montejo de la Sierra", "clasificacion": "urbano-consolidado", "calificacion": "sin-asignar", "version": "vigente", "fuente": "SIT-CAM WFS — UsoDelSuelo:VPLA_V_CLASIFICACION (https://idem.comunidad.madrid/geosrvg/ows)", "fecha_dato": "2026-05-12", "ambito": "9524", "_raw_CD_SIGLAS": "SU", "_raw_DS_CLASIF_GEN": "Suelo Urbano", "_raw_DS_CLASIF_DET": "Suelo Urbano", "_raw_DS_DOCU": "NORMAS SUBSIDIARIAS", "_raw_DS_LEY": "CM Ley 4/1984, E RD 1346/1976", "_raw_FC_AC": "1989-11-08", "_raw_NM_AREA_M2": 12283.8546920875, "_cam_code": "088" }, "geometry": { "type": "Polygon", "coordinates": [ [ [ -3.535, 41.0573 ], [ -3.5353, 41.0572 ], [ -3.5353, 41.0571 ], [ -3.5359, 41.0572 ], [ -3.5357, 41.0564 ], [ -3.5355, 41.0563 ], [ -3.5356, 41.0561 ], [ -3.5355, 41.0561 ], [ -3.5354, 41.0558 ], [ -3.5352, 41.0558 ], [ -3.5352, 41.0559 ], [ -3.535, 41.0559 ], [ -3.5348, 41.0561 ], [ -3.5344, 41.057 ], [ -3.5344, 41.0571 ], [ -3.535, 41.0573 ] ] ] } },
{ "type": "Feature", "properties": { "municipio": "Montejo de la Sierra", "clasificacion": "urbanizable-no-sectorizado", "calificacion": "sin-asignar", "version": "vigente", "fuente": "SIT-CAM WFS — UsoDelSuelo:VPLA_V_CLASIFICACION (https://idem.comunidad.madrid/geosrvg/ows)", "fecha_dato": "2026-05-12", "ambito": "9524", "_raw_CD_SIGLAS": "SUBNS", "_raw_DS_CLASIF_GEN": "Suelo No Urbanizable Común", "_raw_DS_CLASIF_DET": "Suelo No Urbanizable Común", "_raw_DS_DOCU": "NORMAS SUBSIDIARIAS", "_raw_DS_LEY": "CM Ley 4/1984, E RD 1346/1976", "_raw_FC_AC": "1989-11-08", "_raw_NM_AREA_M2": 4906902.9443740305, "_cam_code": "088" }, "geometry": { "type": "Polygon", "coordinates": [ [ [ -3.5029, 41.08 ], [ -3.5039, 41.08 ], [ -3.5039, 41.0801 ], [ -3.5046, 41.0802 ], [ -3.5059, 41.0806 ], [ -3.5059, 41.0807 ], [ -3.5067, 41.0807 ], [ -3.5067, 41.0806 ], [ -3.5069, 41.0806 ], [ -3.5073, 41.0803 ], [ -3.5075, 41.0791 ], [ -3.5088, 41.0778 ], [ -3.5097, 41.0764 ], [ -3.5106, 41.076 ], [ -3.5127, 41.0756 ], [ -3.5124, 41.0753 ], [ -3.5122, 41.0742 ], [ -3.5119, 41.0738 ], [ -3.5119, 41.072 ], [ -3.5127, 41.0697 ], [ -3.513, 41.0693 ], [ -3.5136, 41.0687 ], [ -3.5142, 41.0685 ], [ -3.5161, 41.0672 ], [ -3.5168, 41.0666 ], [ -3.517, 41.0662 ], [ -3.5178, 41.0658 ], [ -3.5186, 41.065 ], [ -3.519, 41.0649 ], [ -3.5198, 41.0644 ], [ -3.5205, 41.0642 ], [ -3.5208, 41.0638 ], [ -3.5214, 41.0635 ], [ -3.523, 41.0633 ], [ -3.5232, 41.0631 ], [ -3.5233, 41.0627 ], [ -3.5234, 41.0627 ], [ -3.5234, 41.0625 ], [ -3.5242, 41.062 ], [ -3.5244, 41.062 ], [ -3.5244, 41.0619 ], [ -3.5249, 41.0618 ], [ -3.5257, 41.0603 ], [ -3.5227, 41.0592 ], [ -3.5233, 41.0576 ], [ -3.5239, 41.0575 ], [ -3.5239, 41.0576 ], [ -3.5246, 41.0577 ], [ -3.5257, 41.0577 ], [ -3.5257, 41.0578 ], [ -3.526, 41.0579 ], [ -3.5269, 41.058 ], [ -3.5273, 41.0584 ], [ -3.5275, 41.0584 ], [ -3.5278, 41.0571 ], [ -3.5282, 41.0568 ], [ -3.5295, 41.0567 ], [ -3.5295, 41.0566 ], [ -3.53, 41.0565 ], [ -3.5309, 41.0556 ], [ -3.5322, 41.0555 ], [ -3.535, 41.0544 ], [ -3.5358, 41.0544 ], [ -3.536, 41.0546 ], [ -3.5372, 41.0545 ], [ -3.5377, 41.0546 ], [ -3.5377, 41.0547 ], [ -3.5384, 41.055 ], [ -3.5384, 41.0551 ], [ -3.5389, 41.0551 ], [ -3.5389, 41.0552 ], [ -3.5384, 41.0554 ], [ -3.5381, 41.0559 ], [ -3.5378, 41.056 ], [ -3.5378, 41.0561 ], [ -3.5365, 41.0561 ], [ -3.5364, 41.0558 ], [ -3.5359, 41.0555 ], [ -3.535, 41.0554 ], [ -3.5339, 41.0579 ], [ -3.5344, 41.058 ], [ -3.5348, 41.0574 ], [ -3.535, 41.0573 ], [ -3.5344, 41.0571 ], [ -3.5344, 41.057 ], [ -3.5348, 41.0561 ], [ -3.535, 41.0559 ], [ -3.5352, 41.0559 ], [ -3.5352, 41.0558 ], [ -3.5354, 41.0558 ], [ -3.5355, 41.0561 ], [ -3.5356, 41.0561 ], [ -3.5355, 41.0563 ], [ -3.5357, 41.0564 ], [ -3.5359, 41.0572 ], [ -3.5368, 41.0574 ], [ -3.5368, 41.0573 ], [ -3.5379, 41.0569 ], [ -3.5381, 41.0574 ], [ -3.5385, 41.0577 ], [ -3.5392, 41.0578 ], [ -3.5394, 41.0582 ], [ -3.5394, 41.0584 ], [ -3.5388, 41.0585 ], [ -3.5384, 41.0588 ], [ -3.5383, 41.0591 ], [ -3.5384, 41.0601 ], [ -3.538, 41.0607 ], [ -3.5381, 41.0612 ], [ -3.5386, 41.0612 ], [ -3.54, 41.0606 ], [ -3.5407, 41.058 ], [ -3.5411, 41.0553 ], [ -3.5422, 41.0511 ], [ -3.5422, 41.0504 ], [ -3.5405, 41.0507 ], [ -3.5393, 41.0511 ], [ -3.5376, 41.0514 ], [ -3.5369, 41.0514 ], [ -3.5365, 41.0517 ], [ -3.5359, 41.0519 ], [ -3.5347, 41.0521 ], [ -3.5317, 41.0519 ], [ -3.5301, 41.0516 ], [ -3.5317, 41.0525 ], [ -3.5319, 41.0528 ], [ -3.5317, 41.0536 ], [ -3.5309, 41.0546 ], [ -3.5292, 41.0547 ], [ -3.5283, 41.055 ], [ -3.5272, 41.055 ], [ -3.5272, 41.0549 ], [ -3.5267, 41.0549 ], [ -3.526, 41.0547 ], [ -3.5249, 41.0547 ], [ -3.5239, 41.0544 ], [ -3.5233, 41.0539 ], [ -3.5225, 41.0536 ], [ -3.5225, 41.0535 ], [ -3.522, 41.0534 ], [ -3.522, 41.0533 ], [ -3.5218, 41.0533 ], [ -3.5216, 41.0531 ], [ -3.5213, 41.0531 ], [ -3.5213, 41.053 ], [ -3.5209, 41.0529 ], [ -3.5209, 41.0528 ], [ -3.5205, 41.0527 ], [ -3.5205, 41.0526 ], [ -3.5199, 41.0524 ], [ -3.5199, 41.0523 ], [ -3.5193, 41.0522 ], [ -3.5181, 41.0509 ], [ -3.5183, 41.0508 ], [ -3.517, 41.0509 ], [ -3.5138, 41.0508 ], [ -3.5129, 41.051 ], [ -3.5107, 41.0512 ], [ -3.5101, 41.0515 ], [ -3.5085, 41.0531 ], [ -3.5085, 41.0533 ], [ -3.5083, 41.0535 ], [ -3.5077, 41.0538 ], [ -3.5074, 41.0537 ], [ -3.5074, 41.0535 ], [ -3.5062, 41.053 ], [ -3.5058, 41.053 ], [ -3.5055, 41.0528 ], [ -3.5047, 41.0528 ], [ -3.5046, 41.0529 ], [ -3.5046, 41.0534 ], [ -3.5049, 41.0546 ], [ -3.5043, 41.0555 ], [ -3.5045, 41.0563 ], [ -3.5038, 41.0567 ], [ -3.5026, 41.0567 ], [ -3.502, 41.0565 ], [ -3.501, 41.058 ], [ -3.4999, 41.0586 ], [ -3.4997, 41.0588 ], [ -3.4997, 41.059 ], [ -3.5, 41.0595 ], [ -3.5009, 41.0597 ], [ -3.5024, 41.0596 ], [ -3.5038, 41.0599 ], [ -3.5069, 41.06 ], [ -3.5072, 41.0601 ], [ -3.5073, 41.0604 ], [ -3.5066, 41.0608 ], [ -3.5039, 41.0608 ], [ -3.5022, 41.0613 ], [ -3.5022, 41.0614 ], [ -3.5003, 41.0616 ], [ -3.4988, 41.062 ], [ -3.4983, 41.0624 ], [ -3.4975, 41.0627 ], [ -3.4963, 41.0637 ], [ -3.4947, 41.0655 ], [ -3.4947, 41.0656 ], [ -3.4956, 41.0659 ], [ -3.4958, 41.0662 ], [ -3.4963, 41.0662 ], [ -3.4967, 41.066 ], [ -3.4968, 41.0657 ], [ -3.4973, 41.0652 ], [ -3.4976, 41.0652 ], [ -3.4977, 41.066 ], [ -3.4992, 41.0659 ], [ -3.4998, 41.0662 ], [ -3.5, 41.0666 ], [ -3.5001, 41.0666 ], [ -3.5002, 41.0673 ], [ -3.5, 41.0676 ], [ -3.4999, 41.0681 ], [ -3.5, 41.0703 ], [ -3.5002, 41.0706 ], [ -3.5001, 41.0715 ], [ -3.5007, 41.0721 ], [ -3.5013, 41.0724 ], [ -3.5024, 41.0727 ], [ -3.5024, 41.0731 ], [ -3.502, 41.0737 ], [ -3.5021, 41.075 ], [ -3.5019, 41.0756 ], [ -3.5016, 41.0759 ], [ -3.5009, 41.0772 ], [ -3.5011, 41.0778 ], [ -3.5013, 41.078 ], [ -3.5026, 41.0784 ], [ -3.5029, 41.0787 ], [ -3.5031, 41.079 ], [ -3.5031, 41.0796 ], [ -3.5029, 41.08 ] ] ] } }
]
}
