{
"type": "FeatureCollection",
"name": "vigente.full",
"features": [
{ "type": "Feature", "properties": { "municipio": "Brea de Tajo", "clasificacion": "no-urbanizable-protegido", "calificacion": "sin-asignar", "version": "vigente", "fuente": "SIT-CAM WFS — UsoDelSuelo:VPLA_V_CLASIFICACION (https://idem.comunidad.madrid/geosrvg/ows)", "fecha_dato": "2026-05-12", "ambito": "40", "_raw_CD_SIGLAS": "SNUP", "_raw_DS_CLASIF_GEN": "Suelo No Urbanizable Protegido", "_raw_DS_CLASIF_DET": "Suelo No urbanizable Protegido Vías Pecuarias", "_raw_DS_DOCU": "NORMAS SUBSIDIARIAS", "_raw_DS_LEY": "E RD 1346/1976", "_raw_FC_AC": "1987-10-22", "_raw_NM_AREA_M2": 371259.84089873999, "_cam_code": "025" }, "geometry": { "type": "Polygon", "coordinates": [ [ [ -3.1469, 40.2559 ], [ -3.1472, 40.2562 ], [ -3.1469, 40.257 ], [ -3.1452, 40.2586 ], [ -3.1446, 40.2595 ], [ -3.1439, 40.262 ], [ -3.1435, 40.2626 ], [ -3.1419, 40.2629 ], [ -3.1413, 40.2632 ], [ -3.1394, 40.2648 ], [ -3.1402, 40.2651 ], [ -3.142, 40.2636 ], [ -3.1436, 40.2633 ], [ -3.1444, 40.2629 ], [ -3.1452, 40.2609 ], [ -3.1456, 40.2595 ], [ -3.146, 40.2589 ], [ -3.1466, 40.2584 ], [ -3.1481, 40.2566 ], [ -3.1482, 40.2563 ], [ -3.1477, 40.2562 ], [ -3.1503, 40.2543 ], [ -3.1531, 40.2526 ], [ -3.1545, 40.2515 ], [ -3.1558, 40.25 ], [ -3.1577, 40.2473 ], [ -3.1587, 40.2454 ], [ -3.1587, 40.2444 ], [ -3.159, 40.2429 ], [ -3.1594, 40.2419 ], [ -3.1595, 40.241 ], [ -3.1594, 40.2391 ], [ -3.1598, 40.2383 ], [ -3.1608, 40.2371 ], [ -3.1614, 40.2382 ], [ -3.1656, 40.2385 ], [ -3.1676, 40.239 ], [ -3.1691, 40.2395 ], [ -3.1698, 40.2402 ], [ -3.1711, 40.241 ], [ -3.1714, 40.2407 ], [ -3.1702, 40.2401 ], [ -3.1699, 40.2396 ], [ -3.1696, 40.2396 ], [ -3.169, 40.239 ], [ -3.165, 40.2381 ], [ -3.1617, 40.2379 ], [ -3.1613, 40.2371 ], [ -3.161, 40.2368 ], [ -3.162, 40.2344 ], [ -3.1621, 40.2322 ], [ -3.1626, 40.2312 ], [ -3.1619, 40.2306 ], [ -3.1613, 40.2321 ], [ -3.1611, 40.2342 ], [ -3.1605, 40.2355 ], [ -3.1602, 40.2365 ], [ -3.1597, 40.2373 ], [ -3.159, 40.238 ], [ -3.1586, 40.239 ], [ -3.1585, 40.2395 ], [ -3.1586, 40.2411 ], [ -3.1585, 40.2418 ], [ -3.1581, 40.2427 ], [ -3.1578, 40.2453 ], [ -3.1569, 40.247 ], [ -3.1542, 40.2507 ], [ -3.1526, 40.2519 ], [ -3.1525, 40.2521 ], [ -3.1496, 40.2539 ], [ -3.1469, 40.2559 ] ] ] } },
{ "type": "Feature", "properties": { "municipio": "Brea de Tajo", "clasificacion": "no-urbanizable-protegido", "calificacion": "sin-asignar", "version": "vigente", "fuente": "SIT-CAM WFS — UsoDelSuelo:VPLA_V_CLASIFICACION (https://idem.comunidad.madrid/geosrvg/ows)", "fecha_dato": "2026-05-12", "ambito": "40", "_raw_CD_SIGLAS": "SNUP", "_raw_DS_CLASIF_GEN": "Suelo No Urbanizable Protegido", "_raw_DS_CLASIF_DET": "Suelo No Urbanizable Especialmente Protegido por su interés agrario", "_raw_DS_DOCU": "NORMAS SUBSIDIARIAS", "_raw_DS_LEY": "E RD 1346/1976", "_raw_FC_AC": "1987-10-22", "_raw_NM_AREA_M2": 2570066.6514487299, "_cam_code": "025" }, "geometry": { "type": "Polygon", "coordinates": [ [ [ -3.1041, 40.2498 ], [ -3.104, 40.251 ], [ -3.1042, 40.2514 ], [ -3.1046, 40.2515 ], [ -3.1045, 40.2519 ], [ -3.1047, 40.2524 ], [ -3.1048, 40.2536 ], [ -3.1045, 40.2538 ], [ -3.1049, 40.254 ], [ -3.1047, 40.2554 ], [ -3.1056, 40.2558 ], [ -3.1057, 40.2562 ], [ -3.1061, 40.2566 ], [ -3.1063, 40.2574 ], [ -3.1072, 40.258 ], [ -3.1073, 40.2584 ], [ -3.1076, 40.2588 ], [ -3.1086, 40.2596 ], [ -3.1071, 40.2574 ], [ -3.1068, 40.2559 ], [ -3.1063, 40.2548 ], [ -3.106, 40.251 ], [ -3.1057, 40.25 ], [ -3.1058, 40.2485 ], [ -3.1063, 40.248 ], [ -3.1066, 40.2473 ], [ -3.1066, 40.2468 ], [ -3.1061, 40.2458 ], [ -3.106, 40.2451 ], [ -3.1064, 40.2446 ], [ -3.1079, 40.2433 ], [ -3.1079, 40.243 ], [ -3.1075, 40.2421 ], [ -3.108, 40.2412 ], [ -3.1081, 40.2407 ], [ -3.1078, 40.2396 ], [ -3.108, 40.2388 ], [ -3.109, 40.2374 ], [ -3.1091, 40.2363 ], [ -3.1089, 40.2359 ], [ -3.1076, 40.2345 ], [ -3.1074, 40.2337 ], [ -3.1077, 40.2324 ], [ -3.1074, 40.2321 ], [ -3.1074, 40.2317 ], [ -3.1076, 40.2313 ], [ -3.1073, 40.2308 ], [ -3.1064, 40.231 ], [ -3.106, 40.2308 ], [ -3.1057, 40.2303 ], [ -3.1058, 40.2302 ], [ -3.1055, 40.2299 ], [ -3.1046, 40.2297 ], [ -3.103, 40.2283 ], [ -3.1018, 40.2281 ], [ -3.1008, 40.2274 ], [ -3.0992, 40.2258 ], [ -3.0961, 40.2239 ], [ -3.0946, 40.2227 ], [ -3.0926, 40.2219 ], [ -3.0885, 40.2187 ], [ -3.0881, 40.2178 ], [ -3.0878, 40.2167 ], [ -3.0874, 40.2161 ], [ -3.0865, 40.2152 ], [ -3.0863, 40.2144 ], [ -3.0866, 40.2116 ], [ -3.0862, 40.2109 ], [ -3.0847, 40.2093 ], [ -3.0835, 40.2091 ], [ -3.083, 40.2081 ], [ -3.0807, 40.2058 ], [ -3.0795, 40.2084 ], [ -3.0825, 40.2145 ], [ -3.0818, 40.2166 ], [ -3.0807, 40.2176 ], [ -3.0794, 40.2237 ], [ -3.0795, 40.2249 ], [ -3.0803, 40.2249 ], [ -3.0812, 40.2247 ], [ -3.0823, 40.2249 ], [ -3.083, 40.2247 ], [ -3.0841, 40.225 ], [ -3.0855, 40.225 ], [ -3.0882, 40.2254 ], [ -3.0887, 40.2267 ], [ -3.0883, 40.2279 ], [ -3.0885, 40.2281 ], [ -3.0891, 40.227 ], [ -3.0898, 40.2267 ], [ -3.0895, 40.2262 ], [ -3.0896, 40.2256 ], [ -3.0898, 40.2254 ], [ -3.0906, 40.2251 ], [ -3.091, 40.2253 ], [ -3.092, 40.2253 ], [ -3.0921, 40.2256 ], [ -3.0923, 40.2255 ], [ -3.0925, 40.2246 ], [ -3.0936, 40.2246 ], [ -3.0944, 40.2251 ], [ -3.0949, 40.2251 ], [ -3.0957, 40.2259 ], [ -3.097, 40.2262 ], [ -3.0974, 40.226 ], [ -3.0977, 40.2262 ], [ -3.0972, 40.2265 ], [ -3.0972, 40.2267 ], [ -3.0976, 40.2273 ], [ -3.0969, 40.2276 ], [ -3.097, 40.2284 ], [ -3.0972, 40.2286 ], [ -3.0986, 40.2279 ], [ -3.0987, 40.2281 ], [ -3.0991, 40.2278 ], [ -3.0993, 40.2278 ], [ -3.0998, 40.2283 ], [ -3.0999, 40.2289 ], [ -3.1006, 40.2306 ], [ -3.1007, 40.2315 ], [ -3.1003, 40.2316 ], [ -3.0999, 40.2312 ], [ -3.0995, 40.2304 ], [ -3.0993, 40.2303 ], [ -3.0985, 40.2305 ], [ -3.0988, 40.231 ], [ -3.0983, 40.2313 ], [ -3.0985, 40.2316 ], [ -3.0982, 40.2318 ], [ -3.0982, 40.232 ], [ -3.099, 40.2323 ], [ -3.0995, 40.233 ], [ -3.0995, 40.2333 ], [ -3.0992, 40.2334 ], [ -3.0988, 40.2333 ], [ -3.0987, 40.2339 ], [ -3.1007, 40.2347 ], [ -3.1012, 40.2352 ], [ -3.1019, 40.2356 ], [ -3.1019, 40.2358 ], [ -3.1011, 40.2367 ], [ -3.1012, 40.237 ], [ -3.1021, 40.2372 ], [ -3.1027, 40.2375 ], [ -3.1044, 40.239 ], [ -3.1046, 40.2397 ], [ -3.1051, 40.2407 ], [ -3.1052, 40.2424 ], [ -3.1047, 40.2434 ], [ -3.1045, 40.2441 ], [ -3.1042, 40.2446 ], [ -3.1038, 40.2449 ], [ -3.1032, 40.2449 ], [ -3.1026, 40.2447 ], [ -3.1022, 40.2443 ], [ -3.1009, 40.2439 ], [ -3.1005, 40.2441 ], [ -3.1008, 40.2444 ], [ -3.1016, 40.2448 ], [ -3.1038, 40.2456 ], [ -3.1043, 40.2463 ], [ -3.1042, 40.2469 ], [ -3.1043, 40.2474 ], [ -3.1046, 40.2478 ], [ -3.1045, 40.2482 ], [ -3.1032, 40.2488 ], [ -3.1031, 40.2493 ], [ -3.1027, 40.2497 ], [ -3.1015, 40.2502 ], [ -3.1007, 40.2503 ], [ -3.1003, 40.2505 ], [ -3.1003, 40.2508 ], [ -3.1001, 40.2511 ], [ -3.0996, 40.2513 ], [ -3.0991, 40.2521 ], [ -3.0994, 40.2524 ], [ -3.0996, 40.2524 ], [ -3.1, 40.2522 ], [ -3.1004, 40.2514 ], [ -3.1014, 40.2508 ], [ -3.1018, 40.251 ], [ -3.1037, 40.25 ], [ -3.104, 40.2495 ], [ -3.1041, 40.2498 ] ] ] } },
{ "type": "Feature", "properties": { "municipio": "Brea de Tajo", "clasificacion": "no-urbanizable-protegido", "calificacion": "sin-asignar", "version": "vigente", "fuente": "SIT-CAM WFS — UsoDelSuelo:VPLA_V_CLASIFICACION (https://idem.comunidad.madrid/geosrvg/ows)", "fecha_dato": "2026-05-12", "ambito": "40", "_raw_CD_SIGLAS": "SNUP", "_raw_DS_CLASIF_GEN": "Suelo No Urbanizable Protegido", "_raw_DS_CLASIF_DET": "Suelo No urbanizable Protegido Vías Pecuarias", "_raw_DS_DOCU": "NORMAS SUBSIDIARIAS", "_raw_DS_LEY": "E RD 1346/1976", "_raw_FC_AC": "1987-10-22", "_raw_NM_AREA_M2": 265248.94398404501, "_cam_code": "025" }, "geometry": { "type": "Polygon", "coordinates": [ [ [ -3.109, 40.2833 ], [ -3.109, 40.284 ], [ -3.1134, 40.2826 ], [ -3.1151, 40.2823 ], [ -3.1173, 40.2822 ], [ -3.1186, 40.282 ], [ -3.1227, 40.2806 ], [ -3.1242, 40.2794 ], [ -3.1248, 40.2784 ], [ -3.1263, 40.2772 ], [ -3.1286, 40.2745 ], [ -3.1312, 40.273 ], [ -3.1334, 40.2723 ], [ -3.1343, 40.2712 ], [ -3.1345, 40.2705 ], [ -3.1355, 40.2687 ], [ -3.1357, 40.2678 ], [ -3.1362, 40.2671 ], [ -3.1383, 40.266 ], [ -3.1387, 40.266 ], [ -3.1392, 40.2658 ], [ -3.1401, 40.2652 ], [ -3.1393, 40.2648 ], [ -3.1387, 40.2653 ], [ -3.1377, 40.2655 ], [ -3.1355, 40.2666 ], [ -3.1348, 40.2676 ], [ -3.1346, 40.2685 ], [ -3.1337, 40.2702 ], [ -3.1335, 40.2709 ], [ -3.1328, 40.2718 ], [ -3.1308, 40.2723 ], [ -3.1279, 40.2741 ], [ -3.1256, 40.2768 ], [ -3.1241, 40.2779 ], [ -3.1235, 40.279 ], [ -3.1222, 40.2801 ], [ -3.1183, 40.2813 ], [ -3.1172, 40.2815 ], [ -3.115, 40.2816 ], [ -3.1132, 40.2819 ], [ -3.109, 40.2833 ] ] ] } },
{ "type": "Feature", "properties": { "municipio": "Brea de Tajo", "clasificacion": "urbanizable-no-sectorizado", "calificacion": "sin-asignar", "version": "vigente", "fuente": "SIT-CAM WFS — UsoDelSuelo:VPLA_V_CLASIFICACION (https://idem.comunidad.madrid/geosrvg/ows)", "fecha_dato": "2026-05-12", "ambito": "40", "_raw_CD_SIGLAS": "SUBNS", "_raw_DS_CLASIF_GEN": "Suelo No Urbanizable Común", "_raw_DS_CLASIF_DET": "Suelo No Urbanizable Común", "_raw_DS_DOCU": "NORMAS SUBSIDIARIAS", "_raw_DS_LEY": "E RD 1346/1976", "_raw_FC_AC": "1987-10-22", "_raw_NM_AREA_M2": 38268887.820894003, "_cam_code": "025" }, "geometry": { "type": "Polygon", "coordinates": [ [ [ -3.1401, 40.2652 ], [ -3.1392, 40.2658 ], [ -3.1387, 40.266 ], [ -3.1383, 40.266 ], [ -3.1362, 40.2671 ], [ -3.1357, 40.2678 ], [ -3.1355, 40.2687 ], [ -3.1345, 40.2705 ], [ -3.1343, 40.2712 ], [ -3.1334, 40.2723 ], [ -3.1312, 40.273 ], [ -3.1286, 40.2745 ], [ -3.1263, 40.2772 ], [ -3.1248, 40.2784 ], [ -3.1242, 40.2794 ], [ -3.1227, 40.2806 ], [ -3.1186, 40.282 ], [ -3.1173, 40.2822 ], [ -3.1151, 40.2823 ], [ -3.1134, 40.2826 ], [ -3.109, 40.284 ], [ -3.1094, 40.2852 ], [ -3.1127, 40.2855 ], [ -3.1192, 40.2828 ], [ -3.1229, 40.281 ], [ -3.1282, 40.2788 ], [ -3.1299, 40.2765 ], [ -3.1352, 40.2726 ], [ -3.1377, 40.2715 ], [ -3.1397, 40.2691 ], [ -3.142, 40.2678 ], [ -3.1435, 40.2664 ], [ -3.1505, 40.2653 ], [ -3.1537, 40.2637 ], [ -3.1541, 40.2615 ], [ -3.1556, 40.2594 ], [ -3.1568, 40.2586 ], [ -3.1597, 40.257 ], [ -3.1615, 40.2553 ], [ -3.1633, 40.2525 ], [ -3.1653, 40.2499 ], [ -3.1681, 40.2471 ], [ -3.1705, 40.2437 ], [ -3.1706, 40.2415 ], [ -3.1711, 40.241 ], [ -3.1698, 40.2402 ], [ -3.1691, 40.2395 ], [ -3.1687, 40.2393 ], [ -3.1656, 40.2385 ], [ -3.1614, 40.2382 ], [ -3.1608, 40.2371 ], [ -3.1598, 40.2383 ], [ -3.1594, 40.2391 ], [ -3.1595, 40.241 ], [ -3.1594, 40.2419 ], [ -3.159, 40.2429 ], [ -3.1587, 40.2444 ], [ -3.1587, 40.2454 ], [ -3.1577, 40.2473 ], [ -3.1558, 40.25 ], [ -3.1545, 40.2515 ], [ -3.1531, 40.2526 ], [ -3.1503, 40.2543 ], [ -3.1477, 40.2562 ], [ -3.1482, 40.2563 ], [ -3.1481, 40.2566 ], [ -3.1466, 40.2584 ], [ -3.146, 40.2589 ], [ -3.1456, 40.2595 ], [ -3.1452, 40.2609 ], [ -3.1444, 40.2629 ], [ -3.1436, 40.2633 ], [ -3.142, 40.2636 ], [ -3.1402, 40.2651 ], [ -3.1394, 40.2648 ], [ -3.1413, 40.2632 ], [ -3.1419, 40.2629 ], [ -3.1435, 40.2626 ], [ -3.1439, 40.262 ], [ -3.1446, 40.2595 ], [ -3.1452, 40.2586 ], [ -3.1469, 40.257 ], [ -3.1472, 40.2562 ], [ -3.1469, 40.2559 ], [ -3.1496, 40.2539 ], [ -3.1525, 40.2521 ], [ -3.1526, 40.2519 ], [ -3.1542, 40.2507 ], [ -3.1569, 40.247 ], [ -3.1578, 40.2453 ], [ -3.1581, 40.2427 ], [ -3.1585, 40.2418 ], [ -3.1586, 40.2411 ], [ -3.1585, 40.2399 ], [ -3.1586, 40.239 ], [ -3.159, 40.238 ], [ -3.1597, 40.2373 ], [ -3.1602, 40.2365 ], [ -3.1605, 40.2355 ], [ -3.1611, 40.2342 ], [ -3.1613, 40.2321 ], [ -3.1616, 40.2312 ], [ -3.1619, 40.2308 ], [ -3.1619, 40.2305 ], [ -3.1607, 40.2293 ], [ -3.1574, 40.2275 ], [ -3.1537, 40.2249 ], [ -3.1526, 40.2239 ], [ -3.151, 40.2229 ], [ -3.1502, 40.2222 ], [ -3.1492, 40.2209 ], [ -3.1469, 40.2204 ], [ -3.1468, 40.2205 ], [ -3.1457, 40.2205 ], [ -3.1442, 40.22 ], [ -3.1429, 40.2188 ], [ -3.1418, 40.2183 ], [ -3.1398, 40.2178 ], [ -3.1346, 40.2153 ], [ -3.134, 40.2152 ], [ -3.1298, 40.2136 ], [ -3.1281, 40.2125 ], [ -3.1266, 40.2111 ], [ -3.1262, 40.2105 ], [ -3.1249, 40.2098 ], [ -3.123, 40.2092 ], [ -3.1193, 40.2076 ], [ -3.1184, 40.2074 ], [ -3.1157, 40.2064 ], [ -3.1146, 40.2062 ], [ -3.1134, 40.2054 ], [ -3.1127, 40.205 ], [ -3.1125, 40.205 ], [ -3.1125, 40.2049 ], [ -3.1094, 40.2037 ], [ -3.1077, 40.2034 ], [ -3.1075, 40.2032 ], [ -3.1072, 40.2032 ], [ -3.1068, 40.203 ], [ -3.1049, 40.2027 ], [ -3.1036, 40.2027 ], [ -3.1034, 40.2026 ], [ -3.1005, 40.2027 ], [ -3.0956, 40.202 ], [ -3.0949, 40.2018 ], [ -3.0942, 40.2018 ], [ -3.093, 40.2015 ], [ -3.0913, 40.2014 ], [ -3.0882, 40.2003 ], [ -3.0864, 40.2009 ], [ -3.0833, 40.2025 ], [ -3.0816, 40.2039 ], [ -3.0807, 40.2058 ], [ -3.083, 40.2081 ], [ -3.0835, 40.2091 ], [ -3.0847, 40.2093 ], [ -3.0862, 40.2109 ], [ -3.0866, 40.2116 ], [ -3.0863, 40.2144 ], [ -3.0865, 40.2152 ], [ -3.0874, 40.2161 ], [ -3.0878, 40.2167 ], [ -3.0881, 40.2178 ], [ -3.0885, 40.2187 ], [ -3.0926, 40.2219 ], [ -3.0946, 40.2227 ], [ -3.0961, 40.2239 ], [ -3.0992, 40.2258 ], [ -3.1008, 40.2274 ], [ -3.1018, 40.2281 ], [ -3.103, 40.2283 ], [ -3.1046, 40.2297 ], [ -3.1055, 40.2299 ], [ -3.1056, 40.2296 ], [ -3.1062, 40.2292 ], [ -3.106, 40.2288 ], [ -3.1065, 40.2287 ], [ -3.1067, 40.2289 ], [ -3.1082, 40.2284 ], [ -3.1093, 40.2283 ], [ -3.1093, 40.2282 ], [ -3.1103, 40.2276 ], [ -3.1106, 40.2267 ], [ -3.1113, 40.2264 ], [ -3.1113, 40.2262 ], [ -3.1105, 40.2254 ], [ -3.111, 40.2251 ], [ -3.1134, 40.2247 ], [ -3.1137, 40.2245 ], [ -3.1141, 40.2247 ], [ -3.1141, 40.2249 ], [ -3.1146, 40.2256 ], [ -3.1149, 40.2258 ], [ -3.1149, 40.2261 ], [ -3.1145, 40.2263 ], [ -3.115, 40.2267 ], [ -3.1155, 40.2276 ], [ -3.1159, 40.2279 ], [ -3.1166, 40.2279 ], [ -3.1164, 40.2283 ], [ -3.1164, 40.2288 ], [ -3.1162, 40.2293 ], [ -3.1162, 40.2295 ], [ -3.1165, 40.2298 ], [ -3.1155, 40.2297 ], [ -3.1146, 40.2289 ], [ -3.114, 40.2286 ], [ -3.1134, 40.2285 ], [ -3.1127, 40.2289 ], [ -3.1127, 40.2294 ], [ -3.1128, 40.2294 ], [ -3.1132, 40.2302 ], [ -3.1133, 40.2302 ], [ -3.1132, 40.2303 ], [ -3.1133, 40.2306 ], [ -3.1126, 40.231 ], [ -3.1119, 40.2308 ], [ -3.1112, 40.2311 ], [ -3.1107, 40.2311 ], [ -3.1108, 40.2312 ], [ -3.1105, 40.2316 ], [ -3.1109, 40.2321 ], [ -3.111, 40.2324 ], [ -3.1109, 40.2325 ], [ -3.1107, 40.2326 ], [ -3.1098, 40.232 ], [ -3.1094, 40.2321 ], [ -3.1094, 40.2322 ], [ -3.1087, 40.2323 ], [ -3.1084, 40.2325 ], [ -3.1077, 40.2325 ], [ -3.1077, 40.2324 ], [ -3.1074, 40.2337 ], [ -3.1076, 40.2345 ], [ -3.1089, 40.2359 ], [ -3.1091, 40.2363 ], [ -3.109, 40.2374 ], [ -3.108, 40.2388 ], [ -3.1078, 40.2396 ], [ -3.1081, 40.2407 ], [ -3.108, 40.2412 ], [ -3.1075, 40.2421 ], [ -3.1079, 40.243 ], [ -3.1079, 40.2433 ], [ -3.1064, 40.2446 ], [ -3.106, 40.2451 ], [ -3.1061, 40.2458 ], [ -3.1066, 40.2468 ], [ -3.1066, 40.2473 ], [ -3.1063, 40.248 ], [ -3.1058, 40.2485 ], [ -3.1057, 40.25 ], [ -3.106, 40.251 ], [ -3.1063, 40.2548 ], [ -3.1068, 40.2559 ], [ -3.1071, 40.2574 ], [ -3.1086, 40.2596 ], [ -3.1076, 40.2588 ], [ -3.1073, 40.2584 ], [ -3.1072, 40.258 ], [ -3.1063, 40.2574 ], [ -3.1061, 40.2566 ], [ -3.1057, 40.2562 ], [ -3.1056, 40.2558 ], [ -3.1047, 40.2554 ], [ -3.1049, 40.254 ], [ -3.1045, 40.2538 ], [ -3.1048, 40.2536 ], [ -3.1047, 40.2524 ], [ -3.1045, 40.2519 ], [ -3.1046, 40.2515 ], [ -3.1042, 40.2514 ], [ -3.104, 40.251 ], [ -3.1041, 40.2498 ], [ -3.104, 40.2495 ], [ -3.1037, 40.25 ], [ -3.1025, 40.2507 ], [ -3.1018, 40.251 ], [ -3.1014, 40.2508 ], [ -3.1004, 40.2514 ], [ -3.1, 40.2522 ], [ -3.0994, 40.2524 ], [ -3.0991, 40.2521 ], [ -3.0996, 40.2513 ], [ -3.1001, 40.2511 ], [ -3.1003, 40.2508 ], [ -3.1003, 40.2505 ], [ -3.1007, 40.2503 ], [ -3.1015, 40.2502 ], [ -3.1027, 40.2497 ], [ -3.1031, 40.2493 ], [ -3.1032, 40.2488 ], [ -3.1045, 40.2482 ], [ -3.1046, 40.2478 ], [ -3.1043, 40.2474 ], [ -3.1042, 40.2469 ], [ -3.1043, 40.2463 ], [ -3.1038, 40.2456 ], [ -3.1016, 40.2448 ], [ -3.1008, 40.2444 ], [ -3.1005, 40.2441 ], [ -3.1009, 40.2439 ], [ -3.1022, 40.2443 ], [ -3.1026, 40.2447 ], [ -3.1032, 40.2449 ], [ -3.1038, 40.2449 ], [ -3.1042, 40.2446 ], [ -3.1045, 40.2441 ], [ -3.1047, 40.2434 ], [ -3.1052, 40.2424 ], [ -3.1051, 40.2407 ], [ -3.1046, 40.2397 ], [ -3.1044, 40.239 ], [ -3.1027, 40.2375 ], [ -3.1021, 40.2372 ], [ -3.1012, 40.237 ], [ -3.1011, 40.2367 ], [ -3.101, 40.2367 ], [ -3.1004, 40.2382 ], [ -3.1003, 40.2393 ], [ -3.0996, 40.2399 ], [ -3.099, 40.2401 ], [ -3.0984, 40.2405 ], [ -3.098, 40.241 ], [ -3.0962, 40.2423 ], [ -3.0954, 40.2427 ], [ -3.0937, 40.2425 ], [ -3.0893, 40.2406 ], [ -3.089, 40.2412 ], [ -3.0881, 40.2423 ], [ -3.0872, 40.2444 ], [ -3.0866, 40.2453 ], [ -3.0871, 40.2473 ], [ -3.0878, 40.2484 ], [ -3.0895, 40.2494 ], [ -3.0915, 40.2502 ], [ -3.093, 40.2524 ], [ -3.0943, 40.2537 ], [ -3.0955, 40.256 ], [ -3.0971, 40.257 ], [ -3.099, 40.2606 ], [ -3.0997, 40.2614 ], [ -3.0982, 40.2637 ], [ -3.0964, 40.2669 ], [ -3.096, 40.2691 ], [ -3.097, 40.2714 ], [ -3.0979, 40.2727 ], [ -3.0988, 40.2746 ], [ -3.1015, 40.2781 ], [ -3.1043, 40.2796 ], [ -3.1077, 40.2806 ], [ -3.109, 40.283 ], [ -3.109, 40.2833 ], [ -3.1132, 40.2819 ], [ -3.115, 40.2816 ], [ -3.1172, 40.2815 ], [ -3.1183, 40.2813 ], [ -3.1222, 40.2801 ], [ -3.1235, 40.279 ], [ -3.1241, 40.2779 ], [ -3.1256, 40.2768 ], [ -3.1279, 40.2741 ], [ -3.1308, 40.2723 ], [ -3.1328, 40.2718 ], [ -3.1335, 40.2709 ], [ -3.1337, 40.2702 ], [ -3.1346, 40.2685 ], [ -3.1348, 40.2676 ], [ -3.1355, 40.2666 ], [ -3.1377, 40.2655 ], [ -3.1387, 40.2653 ], [ -3.1393, 40.2648 ], [ -3.1401, 40.2652 ] ], [ [ -3.105, 40.2289 ], [ -3.1053, 40.2289 ], [ -3.1054, 40.2291 ], [ -3.1051, 40.2291 ], [ -3.105, 40.2289 ] ] ] } },
{ "type": "Feature", "properties": { "municipio": "Brea de Tajo", "clasificacion": "urbanizable-no-sectorizado", "calificacion": "sin-asignar", "version": "vigente", "fuente": "SIT-CAM WFS — UsoDelSuelo:VPLA_V_CLASIFICACION (https://idem.comunidad.madrid/geosrvg/ows)", "fecha_dato": "2026-05-12", "ambito": "40", "_raw_CD_SIGLAS": "SUBNS", "_raw_DS_CLASIF_GEN": "Suelo No Urbanizable Común", "_raw_DS_CLASIF_DET": "Ámbitos de Suelo No Urbanizable sujetos a Ley Especial 9/1985", "_raw_DS_DOCU": "NORMAS SUBSIDIARIAS", "_raw_DS_LEY": "E RD 1346/1976", "_raw_FC_AC": "1987-10-22", "_raw_NM_AREA_M2": 1499126.6872730299, "_cam_code": "025" }, "geometry": { "type": "Polygon", "coordinates": [ [ [ -3.0937, 40.2425 ], [ -3.0954, 40.2427 ], [ -3.0962, 40.2423 ], [ -3.098, 40.241 ], [ -3.0984, 40.2405 ], [ -3.099, 40.2401 ], [ -3.0996, 40.2399 ], [ -3.1003, 40.2393 ], [ -3.1004, 40.2382 ], [ -3.1009, 40.2369 ], [ -3.1019, 40.2358 ], [ -3.1019, 40.2356 ], [ -3.1012, 40.2352 ], [ -3.1007, 40.2347 ], [ -3.0987, 40.2339 ], [ -3.0988, 40.2333 ], [ -3.0991, 40.2334 ], [ -3.0995, 40.2333 ], [ -3.0995, 40.233 ], [ -3.099, 40.2323 ], [ -3.0982, 40.232 ], [ -3.0982, 40.2318 ], [ -3.0985, 40.2316 ], [ -3.0983, 40.2313 ], [ -3.0988, 40.231 ], [ -3.0985, 40.2305 ], [ -3.0993, 40.2303 ], [ -3.0995, 40.2304 ], [ -3.0999, 40.2312 ], [ -3.1003, 40.2316 ], [ -3.1007, 40.2315 ], [ -3.1006, 40.2306 ], [ -3.0999, 40.2289 ], [ -3.0998, 40.2283 ], [ -3.0993, 40.2278 ], [ -3.0991, 40.2278 ], [ -3.0987, 40.2281 ], [ -3.0986, 40.2279 ], [ -3.0972, 40.2286 ], [ -3.097, 40.2284 ], [ -3.0969, 40.2276 ], [ -3.0976, 40.2273 ], [ -3.0972, 40.2267 ], [ -3.0972, 40.2265 ], [ -3.0977, 40.2262 ], [ -3.0974, 40.226 ], [ -3.097, 40.2262 ], [ -3.0957, 40.2259 ], [ -3.0949, 40.2251 ], [ -3.0944, 40.2251 ], [ -3.0936, 40.2246 ], [ -3.0925, 40.2246 ], [ -3.0923, 40.2255 ], [ -3.0921, 40.2256 ], [ -3.092, 40.2253 ], [ -3.091, 40.2253 ], [ -3.0906, 40.2251 ], [ -3.0898, 40.2254 ], [ -3.0895, 40.2259 ], [ -3.0895, 40.2262 ], [ -3.0898, 40.2267 ], [ -3.0891, 40.227 ], [ -3.0883, 40.2284 ], [ -3.0883, 40.2287 ], [ -3.0887, 40.2296 ], [ -3.089, 40.2299 ], [ -3.0894, 40.2328 ], [ -3.0897, 40.2337 ], [ -3.0905, 40.2341 ], [ -3.0903, 40.2344 ], [ -3.0904, 40.2347 ], [ -3.0913, 40.2349 ], [ -3.0912, 40.2351 ], [ -3.0915, 40.2358 ], [ -3.0915, 40.2369 ], [ -3.0911, 40.2375 ], [ -3.0905, 40.2389 ], [ -3.0896, 40.2398 ], [ -3.0896, 40.2401 ], [ -3.0894, 40.2406 ], [ -3.0893, 40.2406 ], [ -3.0927, 40.2421 ], [ -3.0937, 40.2425 ] ] ] } },
{ "type": "Feature", "properties": { "municipio": "Brea de Tajo", "clasificacion": "urbanizable-no-sectorizado", "calificacion": "sin-asignar", "version": "vigente", "fuente": "SIT-CAM WFS — UsoDelSuelo:VPLA_V_CLASIFICACION (https://idem.comunidad.madrid/geosrvg/ows)", "fecha_dato": "2026-05-12", "ambito": "40", "_raw_CD_SIGLAS": "SUBNS", "_raw_DS_CLASIF_GEN": "Suelo No Urbanizable Común", "_raw_DS_CLASIF_DET": "Suelo No Urbanizable Común", "_raw_DS_DOCU": "NORMAS SUBSIDIARIAS", "_raw_DS_LEY": "E RD 1346/1976", "_raw_FC_AC": "1987-10-22", "_raw_NM_AREA_M2": 722113.07218822499, "_cam_code": "025" }, "geometry": { "type": "Polygon", "coordinates": [ [ [ -3.0798, 40.2267 ], [ -3.0797, 40.2278 ], [ -3.0809, 40.2294 ], [ -3.0837, 40.2316 ], [ -3.0869, 40.2338 ], [ -3.0869, 40.2346 ], [ -3.0883, 40.2368 ], [ -3.0898, 40.2388 ], [ -3.0896, 40.2398 ], [ -3.0905, 40.2389 ], [ -3.0911, 40.2375 ], [ -3.0915, 40.2369 ], [ -3.0915, 40.2358 ], [ -3.0912, 40.2351 ], [ -3.0913, 40.2349 ], [ -3.0904, 40.2347 ], [ -3.0903, 40.2344 ], [ -3.0905, 40.2341 ], [ -3.0897, 40.2337 ], [ -3.0895, 40.2332 ], [ -3.089, 40.2299 ], [ -3.0887, 40.2296 ], [ -3.0883, 40.2287 ], [ -3.0883, 40.2284 ], [ -3.0885, 40.2281 ], [ -3.0883, 40.2279 ], [ -3.0887, 40.2267 ], [ -3.0882, 40.2254 ], [ -3.0855, 40.225 ], [ -3.0841, 40.225 ], [ -3.083, 40.2247 ], [ -3.0823, 40.2249 ], [ -3.0812, 40.2247 ], [ -3.0803, 40.2249 ], [ -3.0795, 40.2249 ], [ -3.0798, 40.2267 ] ] ] } },
{ "type": "Feature", "properties": { "municipio": "Brea de Tajo", "clasificacion": "urbanizable-no-sectorizado", "calificacion": "sin-asignar", "version": "vigente", "fuente": "SIT-CAM WFS — UsoDelSuelo:VPLA_V_CLASIFICACION (https://idem.comunidad.madrid/geosrvg/ows)", "fecha_dato": "2026-05-12", "ambito": "40", "_raw_CD_SIGLAS": "SUBNS", "_raw_DS_CLASIF_GEN": "Suelo No Urbanizable Común", "_raw_DS_CLASIF_DET": "Suelo No Urbanizable Común", "_raw_DS_DOCU": "NORMAS SUBSIDIARIAS", "_raw_DS_LEY": "E RD 1346/1976", "_raw_FC_AC": "1987-10-22", "_raw_NM_AREA_M2": 642927.20545340201, "_cam_code": "025" }, "geometry": { "type": "Polygon", "coordinates": [ [ [ -3.1626, 40.2312 ], [ -3.1621, 40.2322 ], [ -3.162, 40.2344 ], [ -3.161, 40.2368 ], [ -3.1613, 40.2371 ], [ -3.1617, 40.2379 ], [ -3.165, 40.2381 ], [ -3.169, 40.239 ], [ -3.1696, 40.2396 ], [ -3.1699, 40.2396 ], [ -3.1702, 40.2401 ], [ -3.1714, 40.2407 ], [ -3.1717, 40.2404 ], [ -3.1732, 40.2368 ], [ -3.1734, 40.2342 ], [ -3.172, 40.2341 ], [ -3.1687, 40.2334 ], [ -3.1626, 40.2312 ] ] ] } },
{ "type": "Feature", "properties": { "municipio": "Brea de Tajo", "clasificacion": "urbano-consolidado", "calificacion": "sin-asignar", "version": "vigente", "fuente": "SIT-CAM WFS — UsoDelSuelo:VPLA_V_CLASIFICACION (https://idem.comunidad.madrid/geosrvg/ows)", "fecha_dato": "2026-05-12", "ambito": "40", "_raw_CD_SIGLAS": "SUC", "_raw_DS_CLASIF_GEN": "Suelo Urbano Consolidado", "_raw_DS_CLASIF_DET": "Suelo Urbano", "_raw_DS_DOCU": "NORMAS SUBSIDIARIAS", "_raw_DS_LEY": "E RD 1346/1976", "_raw_FC_AC": "1987-10-22", "_raw_NM_AREA_M2": 741.40644696320999, "_cam_code": "025" }, "geometry": { "type": "Polygon", "coordinates": [ [ [ -3.105, 40.2289 ], [ -3.1051, 40.2291 ], [ -3.1054, 40.2291 ], [ -3.1053, 40.2289 ], [ -3.105, 40.2289 ] ] ] } },
{ "type": "Feature", "properties": { "municipio": "Brea de Tajo", "clasificacion": "urbano-consolidado", "calificacion": "sin-asignar", "version": "vigente", "fuente": "SIT-CAM WFS — UsoDelSuelo:VPLA_V_CLASIFICACION (https://idem.comunidad.madrid/geosrvg/ows)", "fecha_dato": "2026-05-12", "ambito": "40", "_raw_CD_SIGLAS": "SUC", "_raw_DS_CLASIF_GEN": "Suelo Urbano Consolidado", "_raw_DS_CLASIF_DET": "Suelo Urbano", "_raw_DS_DOCU": "NORMAS SUBSIDIARIAS", "_raw_DS_LEY": "E RD 1346/1976", "_raw_FC_AC": "1987-10-22", "_raw_NM_AREA_M2": 254037.04355535301, "_cam_code": "025" }, "geometry": { "type": "Polygon", "coordinates": [ [ [ -3.1098, 40.232 ], [ -3.1107, 40.2326 ], [ -3.111, 40.2324 ], [ -3.1108, 40.2319 ], [ -3.1105, 40.2316 ], [ -3.1108, 40.2312 ], [ -3.1107, 40.2311 ], [ -3.1112, 40.2311 ], [ -3.1119, 40.2308 ], [ -3.1126, 40.231 ], [ -3.1133, 40.2306 ], [ -3.1132, 40.2303 ], [ -3.1133, 40.2302 ], [ -3.1132, 40.2302 ], [ -3.1128, 40.2294 ], [ -3.1127, 40.2294 ], [ -3.1127, 40.2289 ], [ -3.1129, 40.2287 ], [ -3.1135, 40.2285 ], [ -3.1133, 40.2282 ], [ -3.1127, 40.228 ], [ -3.113, 40.2277 ], [ -3.1129, 40.2272 ], [ -3.113, 40.2269 ], [ -3.1134, 40.2263 ], [ -3.114, 40.2268 ], [ -3.1145, 40.2263 ], [ -3.1149, 40.2261 ], [ -3.1149, 40.2258 ], [ -3.1146, 40.2256 ], [ -3.1141, 40.2249 ], [ -3.1141, 40.2247 ], [ -3.1137, 40.2245 ], [ -3.1134, 40.2247 ], [ -3.111, 40.2251 ], [ -3.1105, 40.2254 ], [ -3.1106, 40.2256 ], [ -3.1113, 40.2256 ], [ -3.1113, 40.2258 ], [ -3.1115, 40.226 ], [ -3.112, 40.226 ], [ -3.1122, 40.2262 ], [ -3.1122, 40.2265 ], [ -3.1128, 40.2264 ], [ -3.1126, 40.2266 ], [ -3.1124, 40.2275 ], [ -3.1112, 40.2285 ], [ -3.1099, 40.2288 ], [ -3.1099, 40.2289 ], [ -3.1092, 40.2288 ], [ -3.1092, 40.2289 ], [ -3.1085, 40.2292 ], [ -3.1075, 40.2292 ], [ -3.1073, 40.2293 ], [ -3.1069, 40.2292 ], [ -3.1069, 40.2289 ], [ -3.1073, 40.2287 ], [ -3.1067, 40.2289 ], [ -3.1065, 40.2287 ], [ -3.106, 40.2288 ], [ -3.1062, 40.2292 ], [ -3.1056, 40.2296 ], [ -3.1055, 40.2299 ], [ -3.1058, 40.2302 ], [ -3.1057, 40.2303 ], [ -3.106, 40.2308 ], [ -3.1064, 40.231 ], [ -3.1073, 40.2308 ], [ -3.1076, 40.2313 ], [ -3.1074, 40.2317 ], [ -3.1074, 40.2321 ], [ -3.1077, 40.2325 ], [ -3.1084, 40.2325 ], [ -3.1087, 40.2323 ], [ -3.1094, 40.2322 ], [ -3.1094, 40.2321 ], [ -3.1098, 40.232 ] ] ] } },
{ "type": "Feature", "properties": { "municipio": "Brea de Tajo", "clasificacion": "urbano-consolidado", "calificacion": "sin-asignar", "version": "vigente", "fuente": "SIT-CAM WFS — UsoDelSuelo:VPLA_V_CLASIFICACION (https://idem.comunidad.madrid/geosrvg/ows)", "fecha_dato": "2026-05-12", "ambito": "40", "_raw_CD_SIGLAS": "SUC", "_raw_DS_CLASIF_GEN": "Suelo Urbano Consolidado", "_raw_DS_CLASIF_DET": "Suelo Urbano", "_raw_DS_DOCU": "NORMAS SUBSIDIARIAS", "_raw_DS_LEY": "E RD 1346/1976", "_raw_FC_AC": "1987-10-22", "_raw_NM_AREA_M2": 29260.889643368198, "_cam_code": "025" }, "geometry": { "type": "Polygon", "coordinates": [ [ [ -3.1142, 40.2283 ], [ -3.1144, 40.2285 ], [ -3.1143, 40.2288 ], [ -3.1146, 40.2289 ], [ -3.1153, 40.2296 ], [ -3.1159, 40.2298 ], [ -3.1165, 40.2298 ], [ -3.1162, 40.2295 ], [ -3.1162, 40.2293 ], [ -3.1164, 40.2288 ], [ -3.1164, 40.2283 ], [ -3.1166, 40.2279 ], [ -3.1159, 40.2279 ], [ -3.1155, 40.2276 ], [ -3.1148, 40.2281 ], [ -3.1142, 40.2283 ] ] ] } },
{ "type": "Feature", "properties": { "municipio": "Brea de Tajo", "clasificacion": "urbano-no-consolidado", "calificacion": "sin-asignar", "version": "vigente", "fuente": "SIT-CAM WFS — UsoDelSuelo:VPLA_V_CLASIFICACION (https://idem.comunidad.madrid/geosrvg/ows)", "fecha_dato": "2026-05-12", "ambito": "40", "_raw_CD_SIGLAS": "SUNC", "_raw_DS_CLASIF_GEN": "Suelo Urbano No Consolidado", "_raw_DS_CLASIF_DET": "Suelo Urbano", "_raw_DS_DOCU": "NORMAS SUBSIDIARIAS", "_raw_DS_LEY": "E RD 1346/1976", "_raw_FC_AC": "1987-10-22", "_raw_NM_AREA_M2": 38456.1250888211, "_cam_code": "025" }, "geometry": { "type": "Polygon", "coordinates": [ [ [ -3.1134, 40.2285 ], [ -3.1143, 40.2288 ], [ -3.1144, 40.2285 ], [ -3.1142, 40.2283 ], [ -3.1146, 40.2282 ], [ -3.1146, 40.2281 ], [ -3.1148, 40.2281 ], [ -3.1156, 40.2276 ], [ -3.1155, 40.2276 ], [ -3.115, 40.2267 ], [ -3.1145, 40.2263 ], [ -3.114, 40.2268 ], [ -3.1134, 40.2263 ], [ -3.113, 40.2269 ], [ -3.1129, 40.2272 ], [ -3.113, 40.2277 ], [ -3.1127, 40.228 ], [ -3.1133, 40.2282 ], [ -3.1135, 40.2284 ], [ -3.1134, 40.2285 ] ] ] } },
{ "type": "Feature", "properties": { "municipio": "Brea de Tajo", "clasificacion": "urbano-no-consolidado", "calificacion": "sin-asignar", "version": "vigente", "fuente": "SIT-CAM WFS — UsoDelSuelo:VPLA_V_CLASIFICACION (https://idem.comunidad.madrid/geosrvg/ows)", "fecha_dato": "2026-05-12", "ambito": "40", "_raw_CD_SIGLAS": "SUNC", "_raw_DS_CLASIF_GEN": "Suelo Urbano No Consolidado", "_raw_DS_CLASIF_DET": "Suelo Urbano", "_raw_DS_DOCU": "NORMAS SUBSIDIARIAS", "_raw_DS_LEY": "E RD 1346/1976", "_raw_FC_AC": "1987-10-22", "_raw_NM_AREA_M2": 63651.623749026803, "_cam_code": "025" }, "geometry": { "type": "Polygon", "coordinates": [ [ [ -3.1069, 40.2292 ], [ -3.1071, 40.2293 ], [ -3.1085, 40.2292 ], [ -3.1092, 40.2289 ], [ -3.1092, 40.2288 ], [ -3.1099, 40.2289 ], [ -3.1099, 40.2288 ], [ -3.111, 40.2286 ], [ -3.1124, 40.2275 ], [ -3.1126, 40.2266 ], [ -3.1128, 40.2264 ], [ -3.1122, 40.2265 ], [ -3.1122, 40.2262 ], [ -3.112, 40.226 ], [ -3.1115, 40.226 ], [ -3.1113, 40.2258 ], [ -3.1113, 40.2256 ], [ -3.1108, 40.2256 ], [ -3.1109, 40.2259 ], [ -3.1113, 40.2262 ], [ -3.1113, 40.2264 ], [ -3.1105, 40.2268 ], [ -3.1105, 40.2272 ], [ -3.1103, 40.2276 ], [ -3.1093, 40.2282 ], [ -3.1093, 40.2283 ], [ -3.1074, 40.2286 ], [ -3.1069, 40.2289 ], [ -3.1069, 40.2292 ] ] ] } }
]
}
