{
"type": "FeatureCollection",
"name": "vigente.full",
"features": [
{ "type": "Feature", "properties": { "municipio": "Serranillos del Valle", "clasificacion": "no-urbanizable-protegido", "calificacion": "sin-asignar", "version": "vigente", "fuente": "SIT-CAM WFS — UsoDelSuelo:VPLA_V_CLASIFICACION (https://idem.comunidad.madrid/geosrvg/ows)", "fecha_dato": "2026-05-12", "ambito": "66444", "_raw_CD_SIGLAS": "SNUP", "_raw_DS_CLASIF_GEN": "Suelo No Urbanizable Protegido", "_raw_DS_CLASIF_DET": "Suelo No Urbanizable Especialmente Protegido Inadecuado para el Desarrollo Urbano", "_raw_DS_DOCU": "PLAN GENERAL", "_raw_DS_LEY": "CM Ley 9/2001, E Ley 6/1998", "_raw_FC_AC": "2006-10-26", "_raw_NM_AREA_M2": 21346.066149107501, "_cam_code": "140" }, "geometry": { "type": "Polygon", "coordinates": [ [ [ -3.8906, 40.2005 ], [ -3.8903, 40.2008 ], [ -3.8895, 40.2011 ], [ -3.8896, 40.2015 ], [ -3.8894, 40.2017 ], [ -3.8891, 40.2017 ], [ -3.8888, 40.2019 ], [ -3.8887, 40.2023 ], [ -3.892, 40.2013 ], [ -3.8916, 40.2011 ], [ -3.8914, 40.2008 ], [ -3.8906, 40.2005 ] ] ] } },
{ "type": "Feature", "properties": { "municipio": "Serranillos del Valle", "clasificacion": "no-urbanizable-protegido", "calificacion": "sin-asignar", "version": "vigente", "fuente": "SIT-CAM WFS — UsoDelSuelo:VPLA_V_CLASIFICACION (https://idem.comunidad.madrid/geosrvg/ows)", "fecha_dato": "2026-05-12", "ambito": "66444", "_raw_CD_SIGLAS": "SNUP", "_raw_DS_CLASIF_GEN": "Suelo No Urbanizable Protegido", "_raw_DS_CLASIF_DET": "Suelo No Urbanizable Especialmente Protegido Inadecuado para el Desarrollo Urbano", "_raw_DS_DOCU": "PLAN GENERAL", "_raw_DS_LEY": "CM Ley 9/2001, E Ley 6/1998", "_raw_FC_AC": "2006-10-26", "_raw_NM_AREA_M2": 215257.472144453, "_cam_code": "140" }, "geometry": { "type": "Polygon", "coordinates": [ [ [ -3.893, 40.2317 ], [ -3.8959, 40.2322 ], [ -3.9002, 40.2325 ], [ -3.9041, 40.2347 ], [ -3.9041, 40.2345 ], [ -3.9026, 40.233 ], [ -3.9021, 40.2312 ], [ -3.902, 40.2312 ], [ -3.902, 40.231 ], [ -3.9016, 40.2304 ], [ -3.9016, 40.2302 ], [ -3.9005, 40.2291 ], [ -3.9004, 40.2288 ], [ -3.9001, 40.2285 ], [ -3.8987, 40.2291 ], [ -3.8979, 40.2291 ], [ -3.8969, 40.23 ], [ -3.896, 40.2306 ], [ -3.8949, 40.2309 ], [ -3.894, 40.2314 ], [ -3.893, 40.2317 ] ] ] } },
{ "type": "Feature", "properties": { "municipio": "Serranillos del Valle", "clasificacion": "no-urbanizable-protegido", "calificacion": "sin-asignar", "version": "vigente", "fuente": "SIT-CAM WFS — UsoDelSuelo:VPLA_V_CLASIFICACION (https://idem.comunidad.madrid/geosrvg/ows)", "fecha_dato": "2026-05-12", "ambito": "66444", "_raw_CD_SIGLAS": "SNUP", "_raw_DS_CLASIF_GEN": "Suelo No Urbanizable Protegido", "_raw_DS_CLASIF_DET": "Suelo No Urbanizable Especialmente Protegido Cauces y Riberas", "_raw_DS_DOCU": "PLAN GENERAL", "_raw_DS_LEY": "CM Ley 9/2001, E Ley 6/1998", "_raw_FC_AC": "2006-10-26", "_raw_NM_AREA_M2": 123891.913056358, "_cam_code": "140" }, "geometry": { "type": "Polygon", "coordinates": [ [ [ -3.8971, 40.1914 ], [ -3.8979, 40.1921 ], [ -3.8981, 40.1919 ], [ -3.8995, 40.1913 ], [ -3.9002, 40.1912 ], [ -3.9011, 40.1905 ], [ -3.9002, 40.1902 ], [ -3.8997, 40.1904 ], [ -3.8993, 40.1904 ], [ -3.898, 40.1899 ], [ -3.8971, 40.1902 ], [ -3.8966, 40.1906 ], [ -3.8957, 40.1908 ], [ -3.8928, 40.1909 ], [ -3.8913, 40.1905 ], [ -3.8907, 40.19 ], [ -3.89, 40.1897 ], [ -3.8893, 40.1897 ], [ -3.8886, 40.1901 ], [ -3.8885, 40.1904 ], [ -3.8884, 40.1904 ], [ -3.8885, 40.191 ], [ -3.8893, 40.1904 ], [ -3.89, 40.1907 ], [ -3.8909, 40.1914 ], [ -3.8911, 40.1914 ], [ -3.8911, 40.1915 ], [ -3.8924, 40.1918 ], [ -3.8938, 40.1917 ], [ -3.8958, 40.1918 ], [ -3.8958, 40.1917 ], [ -3.8962, 40.1917 ], [ -3.8971, 40.1914 ] ] ] } },
{ "type": "Feature", "properties": { "municipio": "Serranillos del Valle", "clasificacion": "no-urbanizable-protegido", "calificacion": "sin-asignar", "version": "vigente", "fuente": "SIT-CAM WFS — UsoDelSuelo:VPLA_V_CLASIFICACION (https://idem.comunidad.madrid/geosrvg/ows)", "fecha_dato": "2026-05-12", "ambito": "66444", "_raw_CD_SIGLAS": "SNUP", "_raw_DS_CLASIF_GEN": "Suelo No Urbanizable Protegido", "_raw_DS_CLASIF_DET": "Suelo No Urbanizable Especialmente Protegido Cauces y Riberas", "_raw_DS_DOCU": "PLAN GENERAL", "_raw_DS_LEY": "CM Ley 9/2001, E Ley 6/1998", "_raw_FC_AC": "2006-10-26", "_raw_NM_AREA_M2": 503643.24322716403, "_cam_code": "140" }, "geometry": { "type": "Polygon", "coordinates": [ [ [ -3.9067, 40.2001 ], [ -3.9073, 40.2003 ], [ -3.9089, 40.2002 ], [ -3.9094, 40.2 ], [ -3.9109, 40.1998 ], [ -3.9124, 40.199 ], [ -3.9124, 40.1989 ], [ -3.9136, 40.1984 ], [ -3.9142, 40.198 ], [ -3.9147, 40.1974 ], [ -3.9157, 40.1973 ], [ -3.9164, 40.197 ], [ -3.9171, 40.1964 ], [ -3.9176, 40.1962 ], [ -3.9182, 40.1955 ], [ -3.9186, 40.1954 ], [ -3.9194, 40.1944 ], [ -3.9178, 40.1927 ], [ -3.9167, 40.1921 ], [ -3.9163, 40.1916 ], [ -3.9158, 40.1914 ], [ -3.9154, 40.1915 ], [ -3.9152, 40.1913 ], [ -3.9146, 40.1914 ], [ -3.9146, 40.1913 ], [ -3.9142, 40.1912 ], [ -3.9138, 40.1909 ], [ -3.9128, 40.1907 ], [ -3.9124, 40.1903 ], [ -3.9117, 40.1901 ], [ -3.9112, 40.1901 ], [ -3.9102, 40.1897 ], [ -3.9086, 40.19 ], [ -3.9068, 40.1898 ], [ -3.906, 40.1899 ], [ -3.906, 40.1898 ], [ -3.9056, 40.1897 ], [ -3.9049, 40.1897 ], [ -3.9048, 40.19 ], [ -3.9037, 40.1901 ], [ -3.9032, 40.1905 ], [ -3.9027, 40.1907 ], [ -3.9026, 40.1909 ], [ -3.9015, 40.1915 ], [ -3.9026, 40.1916 ], [ -3.9033, 40.1912 ], [ -3.9055, 40.1906 ], [ -3.9058, 40.1907 ], [ -3.9083, 40.1907 ], [ -3.9085, 40.1908 ], [ -3.9102, 40.1906 ], [ -3.9102, 40.1907 ], [ -3.9106, 40.1908 ], [ -3.9115, 40.1909 ], [ -3.9121, 40.1913 ], [ -3.913, 40.1915 ], [ -3.9141, 40.1921 ], [ -3.9148, 40.1921 ], [ -3.9155, 40.1923 ], [ -3.9162, 40.1928 ], [ -3.9174, 40.1933 ], [ -3.9173, 40.1937 ], [ -3.9166, 40.1941 ], [ -3.9159, 40.1949 ], [ -3.9151, 40.195 ], [ -3.9146, 40.1955 ], [ -3.9141, 40.1955 ], [ -3.9136, 40.1958 ], [ -3.9118, 40.1953 ], [ -3.9117, 40.1954 ], [ -3.9111, 40.1953 ], [ -3.9099, 40.1959 ], [ -3.9082, 40.195 ], [ -3.9078, 40.1949 ], [ -3.9072, 40.195 ], [ -3.9069, 40.1952 ], [ -3.9066, 40.1956 ], [ -3.9066, 40.1961 ], [ -3.9069, 40.1965 ], [ -3.9078, 40.1971 ], [ -3.909, 40.1976 ], [ -3.9097, 40.1977 ], [ -3.9108, 40.1976 ], [ -3.9112, 40.1974 ], [ -3.9113, 40.1974 ], [ -3.91, 40.1981 ], [ -3.9095, 40.1981 ], [ -3.9095, 40.1982 ], [ -3.909, 40.1981 ], [ -3.9084, 40.1984 ], [ -3.9077, 40.1984 ], [ -3.9067, 40.1987 ], [ -3.9064, 40.199 ], [ -3.9063, 40.1996 ], [ -3.9067, 40.2001 ] ] ] } },
{ "type": "Feature", "properties": { "municipio": "Serranillos del Valle", "clasificacion": "no-urbanizable-protegido", "calificacion": "sin-asignar", "version": "vigente", "fuente": "SIT-CAM WFS — UsoDelSuelo:VPLA_V_CLASIFICACION (https://idem.comunidad.madrid/geosrvg/ows)", "fecha_dato": "2026-05-12", "ambito": "66444", "_raw_CD_SIGLAS": "SNUP", "_raw_DS_CLASIF_GEN": "Suelo No Urbanizable Protegido", "_raw_DS_CLASIF_DET": "Suelo No Urbanizable Especialmente Protegido Cauces y Riberas", "_raw_DS_DOCU": "PLAN GENERAL", "_raw_DS_LEY": "CM Ley 9/2001, E Ley 6/1998", "_raw_FC_AC": "2006-10-26", "_raw_NM_AREA_M2": 69443.980477301593, "_cam_code": "140" }, "geometry": { "type": "Polygon", "coordinates": [ [ [ -3.892, 40.2013 ], [ -3.8886, 40.2024 ], [ -3.889, 40.2029 ], [ -3.889, 40.2032 ], [ -3.8891, 40.2032 ], [ -3.8896, 40.203 ], [ -3.8901, 40.203 ], [ -3.8901, 40.2029 ], [ -3.8909, 40.2027 ], [ -3.8911, 40.2025 ], [ -3.893, 40.2022 ], [ -3.8936, 40.2016 ], [ -3.8941, 40.2016 ], [ -3.8939, 40.2011 ], [ -3.8932, 40.2008 ], [ -3.8935, 40.2 ], [ -3.8939, 40.2002 ], [ -3.894, 40.1998 ], [ -3.8934, 40.1998 ], [ -3.8928, 40.2006 ], [ -3.8925, 40.2006 ], [ -3.8919, 40.2001 ], [ -3.8913, 40.1999 ], [ -3.8906, 40.2005 ], [ -3.8914, 40.2008 ], [ -3.8916, 40.2011 ], [ -3.892, 40.2013 ] ] ] } },
{ "type": "Feature", "properties": { "municipio": "Serranillos del Valle", "clasificacion": "no-urbanizable-protegido", "calificacion": "sin-asignar", "version": "vigente", "fuente": "SIT-CAM WFS — UsoDelSuelo:VPLA_V_CLASIFICACION (https://idem.comunidad.madrid/geosrvg/ows)", "fecha_dato": "2026-05-12", "ambito": "66444", "_raw_CD_SIGLAS": "SNUP", "_raw_DS_CLASIF_GEN": "Suelo No Urbanizable Protegido", "_raw_DS_CLASIF_DET": "Suelo No Urbanizable Especialmente Protegido Ecológico", "_raw_DS_DOCU": "PLAN GENERAL", "_raw_DS_LEY": "CM Ley 9/2001, E Ley 6/1998", "_raw_FC_AC": "2006-10-26", "_raw_NM_AREA_M2": 18792.941573692398, "_cam_code": "140" }, "geometry": { "type": "Polygon", "coordinates": [ [ [ -3.9066, 40.1907 ], [ -3.9066, 40.1907 ], [ -3.9067, 40.1907 ], [ -3.9067, 40.1908 ], [ -3.9067, 40.1916 ], [ -3.9072, 40.1916 ], [ -3.9074, 40.1921 ], [ -3.9078, 40.1925 ], [ -3.9084, 40.1915 ], [ -3.9083, 40.1909 ], [ -3.908, 40.1907 ], [ -3.908, 40.1907 ], [ -3.908, 40.1907 ], [ -3.908, 40.1907 ], [ -3.908, 40.1907 ], [ -3.9078, 40.1907 ], [ -3.9076, 40.1907 ], [ -3.9073, 40.1907 ], [ -3.9071, 40.1907 ], [ -3.907, 40.1907 ], [ -3.9068, 40.1907 ], [ -3.9066, 40.1907 ] ] ] } },
{ "type": "Feature", "properties": { "municipio": "Serranillos del Valle", "clasificacion": "no-urbanizable-protegido", "calificacion": "sin-asignar", "version": "vigente", "fuente": "SIT-CAM WFS — UsoDelSuelo:VPLA_V_CLASIFICACION (https://idem.comunidad.madrid/geosrvg/ows)", "fecha_dato": "2026-05-12", "ambito": "66444", "_raw_CD_SIGLAS": "SNUP", "_raw_DS_CLASIF_GEN": "Suelo No Urbanizable Protegido", "_raw_DS_CLASIF_DET": "Suelo No Urbanizable Especialmente Protegido Ecológico", "_raw_DS_DOCU": "PLAN GENERAL", "_raw_DS_LEY": "CM Ley 9/2001, E Ley 6/1998", "_raw_FC_AC": "2006-10-26", "_raw_NM_AREA_M2": 215535.77050606199, "_cam_code": "140" }, "geometry": { "type": "Polygon", "coordinates": [ [ [ -3.9089, 40.1954 ], [ -3.9099, 40.1959 ], [ -3.9111, 40.1953 ], [ -3.9113, 40.1954 ], [ -3.9118, 40.1953 ], [ -3.9136, 40.1958 ], [ -3.9141, 40.1955 ], [ -3.9146, 40.1955 ], [ -3.9151, 40.195 ], [ -3.9159, 40.1949 ], [ -3.9166, 40.1941 ], [ -3.9173, 40.1937 ], [ -3.9174, 40.1933 ], [ -3.9162, 40.1928 ], [ -3.9155, 40.1923 ], [ -3.9148, 40.1921 ], [ -3.9141, 40.1921 ], [ -3.913, 40.1915 ], [ -3.9125, 40.1915 ], [ -3.9125, 40.1916 ], [ -3.9122, 40.1916 ], [ -3.9122, 40.1918 ], [ -3.9119, 40.1922 ], [ -3.9113, 40.1928 ], [ -3.9113, 40.1923 ], [ -3.9112, 40.1923 ], [ -3.9112, 40.1926 ], [ -3.9111, 40.1926 ], [ -3.9108, 40.1923 ], [ -3.9108, 40.1921 ], [ -3.9106, 40.1921 ], [ -3.9108, 40.1932 ], [ -3.9112, 40.1936 ], [ -3.9111, 40.1939 ], [ -3.9099, 40.194 ], [ -3.9086, 40.1937 ], [ -3.9077, 40.1938 ], [ -3.9077, 40.1937 ], [ -3.9074, 40.1936 ], [ -3.9076, 40.194 ], [ -3.9091, 40.195 ], [ -3.9089, 40.1954 ] ] ] } },
{ "type": "Feature", "properties": { "municipio": "Serranillos del Valle", "clasificacion": "no-urbanizable-protegido", "calificacion": "sin-asignar", "version": "vigente", "fuente": "SIT-CAM WFS — UsoDelSuelo:VPLA_V_CLASIFICACION (https://idem.comunidad.madrid/geosrvg/ows)", "fecha_dato": "2026-05-12", "ambito": "66444", "_raw_CD_SIGLAS": "SNUP", "_raw_DS_CLASIF_GEN": "Suelo No Urbanizable Protegido", "_raw_DS_CLASIF_DET": "Suelo No Urbanizable Especialmente Protegido Ecológico", "_raw_DS_DOCU": "PLAN GENERAL", "_raw_DS_LEY": "CM Ley 9/2001, E Ley 6/1998", "_raw_FC_AC": "2006-10-26", "_raw_NM_AREA_M2": 420415.85093189101, "_cam_code": "140" }, "geometry": { "type": "Polygon", "coordinates": [ [ [ -3.911, 40.1998 ], [ -3.9115, 40.2018 ], [ -3.9117, 40.2018 ], [ -3.9135, 40.2014 ], [ -3.9145, 40.2014 ], [ -3.9159, 40.2011 ], [ -3.917, 40.2011 ], [ -3.9178, 40.2 ], [ -3.9181, 40.2001 ], [ -3.9186, 40.2006 ], [ -3.9203, 40.2005 ], [ -3.9199, 40.1998 ], [ -3.9199, 40.1993 ], [ -3.9194, 40.1988 ], [ -3.9198, 40.1986 ], [ -3.92, 40.1986 ], [ -3.9202, 40.1988 ], [ -3.9203, 40.1993 ], [ -3.9204, 40.1993 ], [ -3.9204, 40.1999 ], [ -3.9209, 40.2004 ], [ -3.9213, 40.2002 ], [ -3.9219, 40.1994 ], [ -3.922, 40.1999 ], [ -3.9225, 40.1999 ], [ -3.923, 40.1997 ], [ -3.9249, 40.1998 ], [ -3.9253, 40.1999 ], [ -3.9258, 40.2004 ], [ -3.9258, 40.2003 ], [ -3.9256, 40.2 ], [ -3.9236, 40.1986 ], [ -3.9233, 40.1989 ], [ -3.9227, 40.1986 ], [ -3.9219, 40.1977 ], [ -3.9217, 40.1972 ], [ -3.9206, 40.1955 ], [ -3.9194, 40.1944 ], [ -3.9186, 40.1954 ], [ -3.9182, 40.1955 ], [ -3.9176, 40.1962 ], [ -3.9171, 40.1964 ], [ -3.9164, 40.197 ], [ -3.9157, 40.1973 ], [ -3.9147, 40.1974 ], [ -3.9142, 40.198 ], [ -3.9136, 40.1984 ], [ -3.9124, 40.1989 ], [ -3.9124, 40.199 ], [ -3.9109, 40.1998 ], [ -3.911, 40.1998 ] ] ] } },
{ "type": "Feature", "properties": { "municipio": "Serranillos del Valle", "clasificacion": "no-urbanizable-protegido", "calificacion": "sin-asignar", "version": "vigente", "fuente": "SIT-CAM WFS — UsoDelSuelo:VPLA_V_CLASIFICACION (https://idem.comunidad.madrid/geosrvg/ows)", "fecha_dato": "2026-05-12", "ambito": "66444", "_raw_CD_SIGLAS": "SNUP", "_raw_DS_CLASIF_GEN": "Suelo No Urbanizable Protegido", "_raw_DS_CLASIF_DET": "Suelo No Urbanizable Especialmente Protegido Ecológico", "_raw_DS_DOCU": "PLAN GENERAL", "_raw_DS_LEY": "CM Ley 9/2001, E Ley 6/1998", "_raw_FC_AC": "2006-10-26", "_raw_NM_AREA_M2": 18310.7489029797, "_cam_code": "140" }, "geometry": { "type": "Polygon", "coordinates": [ [ [ -3.9079, 40.1971 ], [ -3.9077, 40.1978 ], [ -3.9078, 40.1984 ], [ -3.9084, 40.1984 ], [ -3.909, 40.1981 ], [ -3.9095, 40.1982 ], [ -3.9095, 40.1981 ], [ -3.91, 40.1981 ], [ -3.9113, 40.1974 ], [ -3.9108, 40.1976 ], [ -3.9097, 40.1977 ], [ -3.909, 40.1976 ], [ -3.9079, 40.1971 ] ] ] } },
{ "type": "Feature", "properties": { "municipio": "Serranillos del Valle", "clasificacion": "no-urbanizable-protegido", "calificacion": "sin-asignar", "version": "vigente", "fuente": "SIT-CAM WFS — UsoDelSuelo:VPLA_V_CLASIFICACION (https://idem.comunidad.madrid/geosrvg/ows)", "fecha_dato": "2026-05-12", "ambito": "66444", "_raw_CD_SIGLAS": "SNUP", "_raw_DS_CLASIF_GEN": "Suelo No Urbanizable Protegido", "_raw_DS_CLASIF_DET": "Suelo No Urbanizable Especialmente Protegido Ecológico", "_raw_DS_DOCU": "PLAN GENERAL", "_raw_DS_LEY": "CM Ley 9/2001, E Ley 6/1998", "_raw_FC_AC": "2006-10-26", "_raw_NM_AREA_M2": 1726.6122885130501, "_cam_code": "140" }, "geometry": { "type": "Polygon", "coordinates": [ [ [ -3.91, 40.1999 ], [ -3.9102, 40.2001 ], [ -3.9102, 40.2004 ], [ -3.9105, 40.2005 ], [ -3.9105, 40.1999 ], [ -3.91, 40.1999 ] ] ] } },
{ "type": "Feature", "properties": { "municipio": "Serranillos del Valle", "clasificacion": "no-urbanizable-protegido", "calificacion": "sin-asignar", "version": "vigente", "fuente": "SIT-CAM WFS — UsoDelSuelo:VPLA_V_CLASIFICACION (https://idem.comunidad.madrid/geosrvg/ows)", "fecha_dato": "2026-05-12", "ambito": "66444", "_raw_CD_SIGLAS": "SNUP", "_raw_DS_CLASIF_GEN": "Suelo No Urbanizable Protegido", "_raw_DS_CLASIF_DET": "Suelo No Urbanizable Especialmente Protegido Máxima Protección", "_raw_DS_DOCU": "PLAN GENERAL", "_raw_DS_LEY": "CM Ley 9/2001, E Ley 6/1998", "_raw_FC_AC": "2006-10-26", "_raw_NM_AREA_M2": 1523.8955776769301, "_cam_code": "140" }, "geometry": { "type": "Polygon", "coordinates": [ [ [ -3.8938, 40.2097 ], [ -3.8941, 40.2097 ], [ -3.8942, 40.2089 ], [ -3.8941, 40.209 ], [ -3.8938, 40.2097 ] ] ] } },
{ "type": "Feature", "properties": { "municipio": "Serranillos del Valle", "clasificacion": "no-urbanizable-protegido", "calificacion": "sin-asignar", "version": "vigente", "fuente": "SIT-CAM WFS — UsoDelSuelo:VPLA_V_CLASIFICACION (https://idem.comunidad.madrid/geosrvg/ows)", "fecha_dato": "2026-05-12", "ambito": "66444", "_raw_CD_SIGLAS": "SNUP", "_raw_DS_CLASIF_GEN": "Suelo No Urbanizable Protegido", "_raw_DS_CLASIF_DET": "Suelo No Urbanizable Especialmente Protección Cauces, Riberas y Arqueológico", "_raw_DS_DOCU": "PLAN GENERAL", "_raw_DS_LEY": "CM Ley 9/2001, E Ley 6/1998", "_raw_FC_AC": "2006-10-26", "_raw_NM_AREA_M2": 10008.821462588099, "_cam_code": "140" }, "geometry": { "type": "Polygon", "coordinates": [ [ [ -3.9504, 40.1995 ], [ -3.9491, 40.202 ], [ -3.9491, 40.2022 ], [ -3.9491, 40.2023 ], [ -3.9491, 40.2024 ], [ -3.9491, 40.2024 ], [ -3.9491, 40.2026 ], [ -3.9491, 40.2027 ], [ -3.9491, 40.2028 ], [ -3.9492, 40.2024 ], [ -3.9503, 40.2008 ], [ -3.9504, 40.1995 ] ] ] } },
{ "type": "Feature", "properties": { "municipio": "Serranillos del Valle", "clasificacion": "no-urbanizable-protegido", "calificacion": "sin-asignar", "version": "vigente", "fuente": "SIT-CAM WFS — UsoDelSuelo:VPLA_V_CLASIFICACION (https://idem.comunidad.madrid/geosrvg/ows)", "fecha_dato": "2026-05-12", "ambito": "66444", "_raw_CD_SIGLAS": "SNUP", "_raw_DS_CLASIF_GEN": "Suelo No Urbanizable Protegido", "_raw_DS_CLASIF_DET": "Suelo No Urbanizable Especialmente Protección Cauces, Riberas y Arqueológico", "_raw_DS_DOCU": "PLAN GENERAL", "_raw_DS_LEY": "CM Ley 9/2001, E Ley 6/1998", "_raw_FC_AC": "2006-10-26", "_raw_NM_AREA_M2": 511417.277155786, "_cam_code": "140" }, "geometry": { "type": "Polygon", "coordinates": [ [ [ -3.9453, 40.2033 ], [ -3.9484, 40.204 ], [ -3.9486, 40.2038 ], [ -3.9486, 40.2039 ], [ -3.9488, 40.2033 ], [ -3.9489, 40.2033 ], [ -3.9488, 40.2028 ], [ -3.9489, 40.2019 ], [ -3.9496, 40.2007 ], [ -3.9504, 40.1988 ], [ -3.9504, 40.1971 ], [ -3.9506, 40.1964 ], [ -3.9509, 40.1962 ], [ -3.9515, 40.1927 ], [ -3.9518, 40.1919 ], [ -3.9518, 40.1912 ], [ -3.9514, 40.19 ], [ -3.9508, 40.1899 ], [ -3.9495, 40.1894 ], [ -3.9487, 40.1894 ], [ -3.9486, 40.1902 ], [ -3.9502, 40.1901 ], [ -3.9493, 40.1909 ], [ -3.9492, 40.1912 ], [ -3.9492, 40.1917 ], [ -3.9496, 40.1931 ], [ -3.9496, 40.1954 ], [ -3.9491, 40.1985 ], [ -3.9487, 40.1986 ], [ -3.9484, 40.1985 ], [ -3.9477, 40.1987 ], [ -3.947, 40.1986 ], [ -3.9466, 40.1984 ], [ -3.9457, 40.1984 ], [ -3.9454, 40.1986 ], [ -3.9446, 40.1986 ], [ -3.9441, 40.1983 ], [ -3.9435, 40.1977 ], [ -3.9428, 40.1973 ], [ -3.9423, 40.1972 ], [ -3.9425, 40.1974 ], [ -3.9418, 40.1978 ], [ -3.9415, 40.1982 ], [ -3.9417, 40.1984 ], [ -3.9413, 40.1986 ], [ -3.9413, 40.1989 ], [ -3.9415, 40.1992 ], [ -3.9412, 40.1997 ], [ -3.9412, 40.2 ], [ -3.9415, 40.2003 ], [ -3.9411, 40.2008 ], [ -3.9409, 40.2018 ], [ -3.9411, 40.202 ], [ -3.944, 40.2032 ], [ -3.9453, 40.2033 ] ], [ [ -3.9473, 40.2017 ], [ -3.9461, 40.2016 ], [ -3.9453, 40.2009 ], [ -3.9449, 40.2008 ], [ -3.9453, 40.2006 ], [ -3.9453, 40.2005 ], [ -3.9461, 40.2003 ], [ -3.9477, 40.2006 ], [ -3.9475, 40.2009 ], [ -3.9473, 40.2017 ] ] ] } },
{ "type": "Feature", "properties": { "municipio": "Serranillos del Valle", "clasificacion": "no-urbanizable-protegido", "calificacion": "sin-asignar", "version": "vigente", "fuente": "SIT-CAM WFS — UsoDelSuelo:VPLA_V_CLASIFICACION (https://idem.comunidad.madrid/geosrvg/ows)", "fecha_dato": "2026-05-12", "ambito": "66444", "_raw_CD_SIGLAS": "SNUP", "_raw_DS_CLASIF_GEN": "Suelo No Urbanizable Protegido", "_raw_DS_CLASIF_DET": "Suelo No Urbanizable Especialmente Protección Cauces, Riberas y Arqueológico", "_raw_DS_DOCU": "PLAN GENERAL", "_raw_DS_LEY": "CM Ley 9/2001, E Ley 6/1998", "_raw_FC_AC": "2006-10-26", "_raw_NM_AREA_M2": 133312.81079069499, "_cam_code": "140" }, "geometry": { "type": "Polygon", "coordinates": [ [ [ -3.9386, 40.2026 ], [ -3.9387, 40.2036 ], [ -3.9405, 40.2041 ], [ -3.9436, 40.2046 ], [ -3.9474, 40.205 ], [ -3.9482, 40.2048 ], [ -3.9484, 40.2043 ], [ -3.9485, 40.2043 ], [ -3.9485, 40.2042 ], [ -3.9482, 40.2043 ], [ -3.9478, 40.2041 ], [ -3.9457, 40.2037 ], [ -3.9453, 40.2035 ], [ -3.9441, 40.2035 ], [ -3.9435, 40.2033 ], [ -3.9409, 40.2021 ], [ -3.9403, 40.2015 ], [ -3.9399, 40.2015 ], [ -3.9396, 40.2019 ], [ -3.9386, 40.2026 ] ] ] } },
{ "type": "Feature", "properties": { "municipio": "Serranillos del Valle", "clasificacion": "no-urbanizable-protegido", "calificacion": "sin-asignar", "version": "vigente", "fuente": "SIT-CAM WFS — UsoDelSuelo:VPLA_V_CLASIFICACION (https://idem.comunidad.madrid/geosrvg/ows)", "fecha_dato": "2026-05-12", "ambito": "66444", "_raw_CD_SIGLAS": "SNUP", "_raw_DS_CLASIF_GEN": "Suelo No Urbanizable Protegido", "_raw_DS_CLASIF_DET": "Suelo No Urbanizable de Especial Protección Cauces y Riberas y Arqueológico", "_raw_DS_DOCU": "PLAN GENERAL", "_raw_DS_LEY": "CM Ley 9/2001, E Ley 6/1998", "_raw_FC_AC": "2006-10-26", "_raw_NM_AREA_M2": 396113.61467294599, "_cam_code": "140" }, "geometry": { "type": "Polygon", "coordinates": [ [ [ -3.8845, 40.2321 ], [ -3.8851, 40.2321 ], [ -3.8857, 40.2323 ], [ -3.8871, 40.2322 ], [ -3.8872, 40.2324 ], [ -3.8877, 40.2324 ], [ -3.8877, 40.2325 ], [ -3.8883, 40.2326 ], [ -3.8884, 40.2328 ], [ -3.89, 40.2328 ], [ -3.8906, 40.2326 ], [ -3.8915, 40.2316 ], [ -3.893, 40.2317 ], [ -3.8935, 40.2316 ], [ -3.8935, 40.2315 ], [ -3.894, 40.2314 ], [ -3.8949, 40.2309 ], [ -3.896, 40.2306 ], [ -3.8969, 40.23 ], [ -3.8979, 40.2291 ], [ -3.8987, 40.2291 ], [ -3.9001, 40.2285 ], [ -3.8993, 40.2275 ], [ -3.8993, 40.2271 ], [ -3.9001, 40.2267 ], [ -3.899, 40.2267 ], [ -3.8983, 40.2272 ], [ -3.8979, 40.2273 ], [ -3.8976, 40.2268 ], [ -3.8973, 40.2266 ], [ -3.8971, 40.2262 ], [ -3.8964, 40.2255 ], [ -3.895, 40.2248 ], [ -3.8939, 40.2238 ], [ -3.8935, 40.2236 ], [ -3.8926, 40.2227 ], [ -3.892, 40.2225 ], [ -3.8914, 40.2226 ], [ -3.891, 40.2228 ], [ -3.8907, 40.2233 ], [ -3.8908, 40.2239 ], [ -3.8916, 40.2247 ], [ -3.8924, 40.2252 ], [ -3.8929, 40.2259 ], [ -3.8944, 40.2266 ], [ -3.8944, 40.2267 ], [ -3.8951, 40.2271 ], [ -3.8952, 40.2275 ], [ -3.8959, 40.2281 ], [ -3.8949, 40.229 ], [ -3.894, 40.2292 ], [ -3.8929, 40.2298 ], [ -3.8921, 40.23 ], [ -3.8911, 40.2305 ], [ -3.8897, 40.2319 ], [ -3.889, 40.2319 ], [ -3.887, 40.2312 ], [ -3.8856, 40.2313 ], [ -3.8848, 40.2311 ], [ -3.8838, 40.2306 ], [ -3.882, 40.2288 ], [ -3.8818, 40.2293 ], [ -3.8845, 40.2321 ] ] ] } },
{ "type": "Feature", "properties": { "municipio": "Serranillos del Valle", "clasificacion": "no-urbanizable-protegido", "calificacion": "sin-asignar", "version": "vigente", "fuente": "SIT-CAM WFS — UsoDelSuelo:VPLA_V_CLASIFICACION (https://idem.comunidad.madrid/geosrvg/ows)", "fecha_dato": "2026-05-12", "ambito": "66444", "_raw_CD_SIGLAS": "SNUP", "_raw_DS_CLASIF_GEN": "Suelo No Urbanizable Protegido", "_raw_DS_CLASIF_DET": "Suelo No Urbanizable Especialmente Protegido Pre-Parque", "_raw_DS_DOCU": "PLAN GENERAL", "_raw_DS_LEY": "CM Ley 9/2001, E Ley 6/1998", "_raw_FC_AC": "2006-10-26", "_raw_NM_AREA_M2": 43784.536246820498, "_cam_code": "140" }, "geometry": { "type": "Polygon", "coordinates": [ [ [ -3.895, 40.2019 ], [ -3.8945, 40.2034 ], [ -3.8944, 40.2043 ], [ -3.8941, 40.2053 ], [ -3.8942, 40.2057 ], [ -3.8936, 40.2082 ], [ -3.8936, 40.2089 ], [ -3.8934, 40.2096 ], [ -3.8938, 40.2097 ], [ -3.8942, 40.2089 ], [ -3.8942, 40.2079 ], [ -3.8947, 40.2062 ], [ -3.8949, 40.2059 ], [ -3.8948, 40.2051 ], [ -3.895, 40.2048 ], [ -3.8951, 40.2038 ], [ -3.8949, 40.2037 ], [ -3.8951, 40.2036 ], [ -3.8957, 40.2026 ], [ -3.8957, 40.2023 ], [ -3.8953, 40.2022 ], [ -3.895, 40.2019 ] ] ] } },
{ "type": "Feature", "properties": { "municipio": "Serranillos del Valle", "clasificacion": "no-urbanizable-protegido", "calificacion": "sin-asignar", "version": "vigente", "fuente": "SIT-CAM WFS — UsoDelSuelo:VPLA_V_CLASIFICACION (https://idem.comunidad.madrid/geosrvg/ows)", "fecha_dato": "2026-05-12", "ambito": "66444", "_raw_CD_SIGLAS": "SNUP", "_raw_DS_CLASIF_GEN": "Suelo No Urbanizable Protegido", "_raw_DS_CLASIF_DET": "Suelo No Urbanizable Especialmente Protegido Pre-Parque", "_raw_DS_DOCU": "PLAN GENERAL", "_raw_DS_LEY": "CM Ley 9/2001, E Ley 6/1998", "_raw_FC_AC": "2006-10-26", "_raw_NM_AREA_M2": 216067.06580829801, "_cam_code": "140" }, "geometry": { "type": "Polygon", "coordinates": [ [ [ -3.8867, 40.2312 ], [ -3.8879, 40.2315 ], [ -3.8885, 40.2301 ], [ -3.8893, 40.2292 ], [ -3.8893, 40.229 ], [ -3.8898, 40.2285 ], [ -3.8898, 40.2283 ], [ -3.8901, 40.2279 ], [ -3.8901, 40.2276 ], [ -3.8895, 40.2267 ], [ -3.8894, 40.2261 ], [ -3.8893, 40.2261 ], [ -3.8892, 40.2256 ], [ -3.889, 40.2254 ], [ -3.8889, 40.223 ], [ -3.8901, 40.2229 ], [ -3.8901, 40.2228 ], [ -3.891, 40.2228 ], [ -3.8918, 40.2225 ], [ -3.8925, 40.2227 ], [ -3.8936, 40.2226 ], [ -3.8936, 40.2225 ], [ -3.8939, 40.2225 ], [ -3.8953, 40.222 ], [ -3.8966, 40.2218 ], [ -3.8968, 40.2216 ], [ -3.8985, 40.2216 ], [ -3.8995, 40.2219 ], [ -3.9004, 40.2218 ], [ -3.9018, 40.2224 ], [ -3.9025, 40.2223 ], [ -3.902, 40.2218 ], [ -3.9016, 40.2216 ], [ -3.9013, 40.221 ], [ -3.8995, 40.2209 ], [ -3.8989, 40.2207 ], [ -3.8968, 40.2207 ], [ -3.8944, 40.2213 ], [ -3.8934, 40.2217 ], [ -3.8885, 40.2221 ], [ -3.8876, 40.2226 ], [ -3.8878, 40.2233 ], [ -3.8878, 40.2243 ], [ -3.888, 40.2257 ], [ -3.8881, 40.226 ], [ -3.8882, 40.226 ], [ -3.8883, 40.2265 ], [ -3.8884, 40.2265 ], [ -3.8885, 40.227 ], [ -3.8889, 40.2278 ], [ -3.889, 40.2278 ], [ -3.8883, 40.2287 ], [ -3.8883, 40.2289 ], [ -3.8876, 40.2296 ], [ -3.887, 40.2307 ], [ -3.887, 40.2309 ], [ -3.8867, 40.2312 ] ] ] } },
{ "type": "Feature", "properties": { "municipio": "Serranillos del Valle", "clasificacion": "no-urbanizable-protegido", "calificacion": "sin-asignar", "version": "vigente", "fuente": "SIT-CAM WFS — UsoDelSuelo:VPLA_V_CLASIFICACION (https://idem.comunidad.madrid/geosrvg/ows)", "fecha_dato": "2026-05-12", "ambito": "66444", "_raw_CD_SIGLAS": "SNUP", "_raw_DS_CLASIF_GEN": "Suelo No Urbanizable Protegido", "_raw_DS_CLASIF_DET": "Suelo No Urbanizable Especialmente Protegido Arqueológico", "_raw_DS_DOCU": "PLAN GENERAL", "_raw_DS_LEY": "CM Ley 9/2001, E Ley 6/1998", "_raw_FC_AC": "2006-10-26", "_raw_NM_AREA_M2": 295255.02054365899, "_cam_code": "140" }, "geometry": { "type": "Polygon", "coordinates": [ [ [ -3.9423, 40.1972 ], [ -3.9428, 40.1973 ], [ -3.9435, 40.1977 ], [ -3.9441, 40.1983 ], [ -3.9446, 40.1986 ], [ -3.9454, 40.1986 ], [ -3.9457, 40.1984 ], [ -3.9466, 40.1984 ], [ -3.947, 40.1986 ], [ -3.9477, 40.1987 ], [ -3.9484, 40.1985 ], [ -3.9487, 40.1986 ], [ -3.9491, 40.1985 ], [ -3.9496, 40.1954 ], [ -3.9496, 40.1931 ], [ -3.9492, 40.1917 ], [ -3.9492, 40.1912 ], [ -3.9493, 40.1909 ], [ -3.9502, 40.1901 ], [ -3.9486, 40.1902 ], [ -3.9478, 40.1918 ], [ -3.9479, 40.1928 ], [ -3.9476, 40.1931 ], [ -3.9475, 40.1936 ], [ -3.9473, 40.1937 ], [ -3.9475, 40.1939 ], [ -3.9475, 40.1941 ], [ -3.9467, 40.1942 ], [ -3.9466, 40.1944 ], [ -3.9461, 40.1946 ], [ -3.9449, 40.1947 ], [ -3.944, 40.1953 ], [ -3.9439, 40.1954 ], [ -3.944, 40.1955 ], [ -3.9433, 40.1956 ], [ -3.9425, 40.1965 ], [ -3.9422, 40.197 ], [ -3.9423, 40.1972 ] ] ] } },
{ "type": "Feature", "properties": { "municipio": "Serranillos del Valle", "clasificacion": "no-urbanizable-protegido", "calificacion": "sin-asignar", "version": "vigente", "fuente": "SIT-CAM WFS — UsoDelSuelo:VPLA_V_CLASIFICACION (https://idem.comunidad.madrid/geosrvg/ows)", "fecha_dato": "2026-05-12", "ambito": "66444", "_raw_CD_SIGLAS": "SNUP", "_raw_DS_CLASIF_GEN": "Suelo No Urbanizable Protegido", "_raw_DS_CLASIF_DET": "Suelo No Urbanizable Especialmente Protegido Arqueológico", "_raw_DS_DOCU": "PLAN GENERAL", "_raw_DS_LEY": "CM Ley 9/2001, E Ley 6/1998", "_raw_FC_AC": "2006-10-26", "_raw_NM_AREA_M2": 22767.035866639199, "_cam_code": "140" }, "geometry": { "type": "Polygon", "coordinates": [ [ [ -3.9461, 40.2016 ], [ -3.9473, 40.2017 ], [ -3.9475, 40.2009 ], [ -3.9477, 40.2006 ], [ -3.9461, 40.2003 ], [ -3.9453, 40.2005 ], [ -3.9453, 40.2006 ], [ -3.9449, 40.2008 ], [ -3.9453, 40.2009 ], [ -3.9461, 40.2016 ] ] ] } },
{ "type": "Feature", "properties": { "municipio": "Serranillos del Valle", "clasificacion": "no-urbanizable-protegido", "calificacion": "sin-asignar", "version": "vigente", "fuente": "SIT-CAM WFS — UsoDelSuelo:VPLA_V_CLASIFICACION (https://idem.comunidad.madrid/geosrvg/ows)", "fecha_dato": "2026-05-12", "ambito": "66444", "_raw_CD_SIGLAS": "SNUP", "_raw_DS_CLASIF_GEN": "Suelo No Urbanizable Protegido", "_raw_DS_CLASIF_DET": "Suelo No Urbanizable Especialmente Protegido Ecológico", "_raw_DS_DOCU": "PLAN GENERAL", "_raw_DS_LEY": "CM Ley 9/2001, E Ley 6/1998", "_raw_FC_AC": "2006-10-26", "_raw_NM_AREA_M2": 71969.548286222504, "_cam_code": "140" }, "geometry": { "type": "Polygon", "coordinates": [ [ [ -3.8741, 40.209 ], [ -3.8741, 40.2099 ], [ -3.8738, 40.2102 ], [ -3.8751, 40.2098 ], [ -3.875, 40.2097 ], [ -3.8751, 40.2088 ], [ -3.8762, 40.209 ], [ -3.8763, 40.2095 ], [ -3.8765, 40.2095 ], [ -3.8765, 40.2093 ], [ -3.8778, 40.2078 ], [ -3.8776, 40.2076 ], [ -3.8771, 40.2076 ], [ -3.8758, 40.2073 ], [ -3.8728, 40.207 ], [ -3.873, 40.2083 ], [ -3.8736, 40.208 ], [ -3.8741, 40.208 ], [ -3.8741, 40.209 ] ] ] } },
{ "type": "Feature", "properties": { "municipio": "Serranillos del Valle", "clasificacion": "no-urbanizable-protegido", "calificacion": "sin-asignar", "version": "vigente", "fuente": "SIT-CAM WFS — UsoDelSuelo:VPLA_V_CLASIFICACION (https://idem.comunidad.madrid/geosrvg/ows)", "fecha_dato": "2026-05-12", "ambito": "66444", "_raw_CD_SIGLAS": "SNUP", "_raw_DS_CLASIF_GEN": "Suelo No Urbanizable Protegido", "_raw_DS_CLASIF_DET": "Suelo No Urbanizable Especialmente Protegido Vías Pecuarias", "_raw_DS_DOCU": "PLAN GENERAL", "_raw_DS_LEY": "CM Ley 9/2001, E Ley 6/1998", "_raw_FC_AC": "2006-10-26", "_raw_NM_AREA_M2": 42058.504838988003, "_cam_code": "140" }, "geometry": { "type": "Polygon", "coordinates": [ [ [ -3.8829, 40.1935 ], [ -3.8842, 40.1927 ], [ -3.8849, 40.1921 ], [ -3.8872, 40.1912 ], [ -3.8879, 40.1917 ], [ -3.8891, 40.1923 ], [ -3.8925, 40.1937 ], [ -3.8941, 40.1946 ], [ -3.895, 40.1948 ], [ -3.895, 40.1949 ], [ -3.8956, 40.1951 ], [ -3.8956, 40.1952 ], [ -3.8958, 40.1952 ], [ -3.8963, 40.1957 ], [ -3.8964, 40.1955 ], [ -3.896, 40.1951 ], [ -3.8953, 40.1948 ], [ -3.8953, 40.1947 ], [ -3.895, 40.1947 ], [ -3.8939, 40.1943 ], [ -3.8923, 40.1934 ], [ -3.8912, 40.1931 ], [ -3.8893, 40.1922 ], [ -3.8891, 40.192 ], [ -3.8885, 40.1918 ], [ -3.8872, 40.191 ], [ -3.8848, 40.192 ], [ -3.8838, 40.1928 ], [ -3.8821, 40.1936 ], [ -3.8815, 40.1936 ], [ -3.8815, 40.1937 ], [ -3.8808, 40.1938 ], [ -3.8808, 40.1939 ], [ -3.8805, 40.1939 ], [ -3.8801, 40.1941 ], [ -3.8797, 40.1941 ], [ -3.8797, 40.1942 ], [ -3.8794, 40.1943 ], [ -3.8787, 40.1944 ], [ -3.8787, 40.1945 ], [ -3.8757, 40.1945 ], [ -3.8749, 40.1943 ], [ -3.8747, 40.1945 ], [ -3.876, 40.1946 ], [ -3.8761, 40.1947 ], [ -3.879, 40.1946 ], [ -3.88, 40.1942 ], [ -3.8811, 40.194 ], [ -3.8811, 40.1939 ], [ -3.8815, 40.1938 ], [ -3.8821, 40.1938 ], [ -3.8824, 40.1936 ], [ -3.8829, 40.1935 ] ] ] } },
{ "type": "Feature", "properties": { "municipio": "Serranillos del Valle", "clasificacion": "no-urbanizable-protegido", "calificacion": "sin-asignar", "version": "vigente", "fuente": "SIT-CAM WFS — UsoDelSuelo:VPLA_V_CLASIFICACION (https://idem.comunidad.madrid/geosrvg/ows)", "fecha_dato": "2026-05-12", "ambito": "66444", "_raw_CD_SIGLAS": "SNUP", "_raw_DS_CLASIF_GEN": "Suelo No Urbanizable Protegido", "_raw_DS_CLASIF_DET": "Suelo No Urbanizable Especialmente Protegido Vías Pecuarias", "_raw_DS_DOCU": "PLAN GENERAL", "_raw_DS_LEY": "CM Ley 9/2001, E Ley 6/1998", "_raw_FC_AC": "2006-10-26", "_raw_NM_AREA_M2": 54202.4474361186, "_cam_code": "140" }, "geometry": { "type": "Polygon", "coordinates": [ [ [ -3.8974, 40.1964 ], [ -3.8993, 40.1982 ], [ -3.9022, 40.1998 ], [ -3.9049, 40.2007 ], [ -3.907, 40.201 ], [ -3.9089, 40.2017 ], [ -3.9103, 40.202 ], [ -3.9103, 40.2021 ], [ -3.911, 40.2021 ], [ -3.9135, 40.2016 ], [ -3.9142, 40.2016 ], [ -3.9165, 40.2012 ], [ -3.9185, 40.2015 ], [ -3.9201, 40.201 ], [ -3.922, 40.2001 ], [ -3.9231, 40.1999 ], [ -3.9249, 40.2 ], [ -3.9256, 40.2004 ], [ -3.926, 40.2009 ], [ -3.9258, 40.2004 ], [ -3.9253, 40.1999 ], [ -3.923, 40.1997 ], [ -3.9225, 40.1999 ], [ -3.9221, 40.1999 ], [ -3.9211, 40.2004 ], [ -3.9186, 40.2013 ], [ -3.918, 40.2013 ], [ -3.9173, 40.2011 ], [ -3.9159, 40.2011 ], [ -3.9145, 40.2014 ], [ -3.9135, 40.2014 ], [ -3.9117, 40.2018 ], [ -3.9103, 40.2019 ], [ -3.907, 40.2008 ], [ -3.9054, 40.2005 ], [ -3.9048, 40.2005 ], [ -3.9023, 40.1996 ], [ -3.8999, 40.1984 ], [ -3.8975, 40.1962 ], [ -3.8974, 40.1964 ] ] ] } },
{ "type": "Feature", "properties": { "municipio": "Serranillos del Valle", "clasificacion": "no-urbanizable-protegido", "calificacion": "sin-asignar", "version": "vigente", "fuente": "SIT-CAM WFS — UsoDelSuelo:VPLA_V_CLASIFICACION (https://idem.comunidad.madrid/geosrvg/ows)", "fecha_dato": "2026-05-12", "ambito": "66444", "_raw_CD_SIGLAS": "SNUP", "_raw_DS_CLASIF_GEN": "Suelo No Urbanizable Protegido", "_raw_DS_CLASIF_DET": "Suelo No Urbanizable Especialmente Protegido Vías Pecuarias", "_raw_DS_DOCU": "PLAN GENERAL", "_raw_DS_LEY": "CM Ley 9/2001, E Ley 6/1998", "_raw_FC_AC": "2006-10-26", "_raw_NM_AREA_M2": 26167.508149650199, "_cam_code": "140" }, "geometry": { "type": "Polygon", "coordinates": [ [ [ -3.8763, 40.1912 ], [ -3.8762, 40.1912 ], [ -3.8753, 40.1932 ], [ -3.8746, 40.1943 ], [ -3.874, 40.195 ], [ -3.873, 40.1966 ], [ -3.8722, 40.1975 ], [ -3.8714, 40.1989 ], [ -3.8702, 40.1998 ], [ -3.8691, 40.2011 ], [ -3.8671, 40.2024 ], [ -3.8653, 40.2038 ], [ -3.8654, 40.2039 ], [ -3.8659, 40.2036 ], [ -3.8665, 40.203 ], [ -3.8668, 40.2029 ], [ -3.8668, 40.2028 ], [ -3.8692, 40.2012 ], [ -3.87, 40.2002 ], [ -3.8707, 40.1998 ], [ -3.8708, 40.1995 ], [ -3.8714, 40.1992 ], [ -3.8754, 40.1933 ], [ -3.8764, 40.1912 ], [ -3.8763, 40.1912 ] ] ] } },
{ "type": "Feature", "properties": { "municipio": "Serranillos del Valle", "clasificacion": "no-urbanizable-protegido", "calificacion": "sin-asignar", "version": "vigente", "fuente": "SIT-CAM WFS — UsoDelSuelo:VPLA_V_CLASIFICACION (https://idem.comunidad.madrid/geosrvg/ows)", "fecha_dato": "2026-05-12", "ambito": "66444", "_raw_CD_SIGLAS": "SNUP", "_raw_DS_CLASIF_GEN": "Suelo No Urbanizable Protegido", "_raw_DS_CLASIF_DET": "Suelo No Urbanizable Especialmente Protegido Vías Pecuarias", "_raw_DS_DOCU": "PLAN GENERAL", "_raw_DS_LEY": "CM Ley 9/2001, E Ley 6/1998", "_raw_FC_AC": "2006-10-26", "_raw_NM_AREA_M2": 14445.124487885199, "_cam_code": "140" }, "geometry": { "type": "Polygon", "coordinates": [ [ [ -3.9509, 40.1962 ], [ -3.9506, 40.1964 ], [ -3.9504, 40.1971 ], [ -3.9504, 40.1988 ], [ -3.9496, 40.2007 ], [ -3.9489, 40.2019 ], [ -3.9488, 40.2023 ], [ -3.9488, 40.2028 ], [ -3.9489, 40.2031 ], [ -3.9489, 40.2032 ], [ -3.9489, 40.2033 ], [ -3.9488, 40.2033 ], [ -3.9489, 40.2032 ], [ -3.949, 40.2029 ], [ -3.9491, 40.2029 ], [ -3.9491, 40.202 ], [ -3.9504, 40.1995 ], [ -3.9505, 40.1981 ], [ -3.9509, 40.1962 ] ] ] } },
{ "type": "Feature", "properties": { "municipio": "Serranillos del Valle", "clasificacion": "no-urbanizable-protegido", "calificacion": "sin-asignar", "version": "vigente", "fuente": "SIT-CAM WFS — UsoDelSuelo:VPLA_V_CLASIFICACION (https://idem.comunidad.madrid/geosrvg/ows)", "fecha_dato": "2026-05-12", "ambito": "66444", "_raw_CD_SIGLAS": "SNUP", "_raw_DS_CLASIF_GEN": "Suelo No Urbanizable Protegido", "_raw_DS_CLASIF_DET": "Suelo No Urbanizable Especialmente Protegido Vías Pecuarias", "_raw_DS_DOCU": "PLAN GENERAL", "_raw_DS_LEY": "CM Ley 9/2001, E Ley 6/1998", "_raw_FC_AC": "2006-10-26", "_raw_NM_AREA_M2": 19486.005716952601, "_cam_code": "140" }, "geometry": { "type": "Polygon", "coordinates": [ [ [ -3.9399, 40.2015 ], [ -3.9403, 40.2015 ], [ -3.9409, 40.2021 ], [ -3.9441, 40.2035 ], [ -3.9453, 40.2035 ], [ -3.9457, 40.2037 ], [ -3.9478, 40.2041 ], [ -3.9482, 40.2043 ], [ -3.9485, 40.2042 ], [ -3.9486, 40.2039 ], [ -3.9486, 40.2038 ], [ -3.9484, 40.204 ], [ -3.9478, 40.204 ], [ -3.9475, 40.2038 ], [ -3.9453, 40.2033 ], [ -3.944, 40.2032 ], [ -3.9411, 40.202 ], [ -3.9402, 40.2011 ], [ -3.9399, 40.2015 ] ] ] } },
{ "type": "Feature", "properties": { "municipio": "Serranillos del Valle", "clasificacion": "no-urbanizable-protegido", "calificacion": "sin-asignar", "version": "vigente", "fuente": "SIT-CAM WFS — UsoDelSuelo:VPLA_V_CLASIFICACION (https://idem.comunidad.madrid/geosrvg/ows)", "fecha_dato": "2026-05-12", "ambito": "66444", "_raw_CD_SIGLAS": "SNUP", "_raw_DS_CLASIF_GEN": "Suelo No Urbanizable Protegido", "_raw_DS_CLASIF_DET": "Suelo No Urbanizable Especialmente Protegido Arqueológico", "_raw_DS_DOCU": "PLAN GENERAL", "_raw_DS_LEY": "CM Ley 9/2001, E Ley 6/1998", "_raw_FC_AC": "2006-10-26", "_raw_NM_AREA_M2": 31550.606890803101, "_cam_code": "140" }, "geometry": { "type": "Polygon", "coordinates": [ [ [ -3.8764, 40.1912 ], [ -3.8754, 40.1933 ], [ -3.8749, 40.1939 ], [ -3.8749, 40.194 ], [ -3.8749, 40.1941 ], [ -3.8747, 40.1944 ], [ -3.8748, 40.1941 ], [ -3.875, 40.1939 ], [ -3.8751, 40.1937 ], [ -3.8753, 40.1936 ], [ -3.8755, 40.1932 ], [ -3.8764, 40.1922 ], [ -3.8765, 40.1918 ], [ -3.8773, 40.191 ], [ -3.8783, 40.1896 ], [ -3.8789, 40.189 ], [ -3.8777, 40.1887 ], [ -3.8773, 40.1896 ], [ -3.8763, 40.1912 ], [ -3.8764, 40.1912 ] ] ] } },
{ "type": "Feature", "properties": { "municipio": "Serranillos del Valle", "clasificacion": "no-urbanizable-protegido", "calificacion": "sin-asignar", "version": "vigente", "fuente": "SIT-CAM WFS — UsoDelSuelo:VPLA_V_CLASIFICACION (https://idem.comunidad.madrid/geosrvg/ows)", "fecha_dato": "2026-05-12", "ambito": "66444", "_raw_CD_SIGLAS": "SNUP", "_raw_DS_CLASIF_GEN": "Suelo No Urbanizable Protegido", "_raw_DS_CLASIF_DET": "Suelo No Urbanizable Especialmente Protegido Arqueológico", "_raw_DS_DOCU": "PLAN GENERAL", "_raw_DS_LEY": "CM Ley 9/2001, E Ley 6/1998", "_raw_FC_AC": "2006-10-26", "_raw_NM_AREA_M2": 339743.93059820402, "_cam_code": "140" }, "geometry": { "type": "Polygon", "coordinates": [ [ [ -3.8748, 40.1943 ], [ -3.8757, 40.1945 ], [ -3.8787, 40.1945 ], [ -3.8787, 40.1944 ], [ -3.8797, 40.1942 ], [ -3.8797, 40.1941 ], [ -3.8801, 40.1941 ], [ -3.8805, 40.1939 ], [ -3.8808, 40.1939 ], [ -3.8808, 40.1938 ], [ -3.8815, 40.1937 ], [ -3.8815, 40.1936 ], [ -3.8821, 40.1936 ], [ -3.8838, 40.1928 ], [ -3.8843, 40.1923 ], [ -3.8847, 40.1921 ], [ -3.8836, 40.189 ], [ -3.8831, 40.1888 ], [ -3.8823, 40.189 ], [ -3.881, 40.1889 ], [ -3.8795, 40.1891 ], [ -3.879, 40.189 ], [ -3.8783, 40.1897 ], [ -3.8748, 40.1943 ] ] ] } },
{ "type": "Feature", "properties": { "municipio": "Serranillos del Valle", "clasificacion": "no-urbanizable-protegido", "calificacion": "sin-asignar", "version": "vigente", "fuente": "SIT-CAM WFS — UsoDelSuelo:VPLA_V_CLASIFICACION (https://idem.comunidad.madrid/geosrvg/ows)", "fecha_dato": "2026-05-12", "ambito": "66444", "_raw_CD_SIGLAS": "SNUP", "_raw_DS_CLASIF_GEN": "Suelo No Urbanizable Protegido", "_raw_DS_CLASIF_DET": "Suelo No Urbanizable Especialmente Protegido Arqueológico", "_raw_DS_DOCU": "PLAN GENERAL", "_raw_DS_LEY": "CM Ley 9/2001, E Ley 6/1998", "_raw_FC_AC": "2006-10-26", "_raw_NM_AREA_M2": 145127.04150563999, "_cam_code": "140" }, "geometry": { "type": "Polygon", "coordinates": [ [ [ -3.8796, 40.1973 ], [ -3.8813, 40.1972 ], [ -3.8821, 40.1973 ], [ -3.8818, 40.197 ], [ -3.8818, 40.1966 ], [ -3.8819, 40.1966 ], [ -3.8819, 40.1962 ], [ -3.8823, 40.1951 ], [ -3.8826, 40.1946 ], [ -3.8826, 40.1942 ], [ -3.8828, 40.1941 ], [ -3.8829, 40.1935 ], [ -3.8824, 40.1936 ], [ -3.8821, 40.1938 ], [ -3.8815, 40.1938 ], [ -3.8811, 40.1939 ], [ -3.8811, 40.194 ], [ -3.88, 40.1942 ], [ -3.879, 40.1946 ], [ -3.8761, 40.1947 ], [ -3.876, 40.1946 ], [ -3.875, 40.1945 ], [ -3.8746, 40.1946 ], [ -3.8755, 40.1947 ], [ -3.8756, 40.1952 ], [ -3.8759, 40.1952 ], [ -3.8759, 40.1953 ], [ -3.8762, 40.1953 ], [ -3.8762, 40.1954 ], [ -3.8766, 40.1955 ], [ -3.8768, 40.1959 ], [ -3.8775, 40.1963 ], [ -3.8779, 40.1963 ], [ -3.8789, 40.1971 ], [ -3.8796, 40.1972 ], [ -3.8796, 40.1973 ] ] ] } },
{ "type": "Feature", "properties": { "municipio": "Serranillos del Valle", "clasificacion": "no-urbanizable-protegido", "calificacion": "sin-asignar", "version": "vigente", "fuente": "SIT-CAM WFS — UsoDelSuelo:VPLA_V_CLASIFICACION (https://idem.comunidad.madrid/geosrvg/ows)", "fecha_dato": "2026-05-12", "ambito": "66444", "_raw_CD_SIGLAS": "SNUP", "_raw_DS_CLASIF_GEN": "Suelo No Urbanizable Protegido", "_raw_DS_CLASIF_DET": "Suelo No Urbanizable Protegido Red Pública Supramunicipal. Equipamiento Social Centro para Menores", "_raw_DS_DOCU": "PLAN GENERAL", "_raw_DS_LEY": "CM Ley 9/2001, E Ley 6/1998", "_raw_FC_AC": "2006-10-26", "_raw_NM_AREA_M2": 21245.972234239998, "_cam_code": "140" }, "geometry": { "type": "Polygon", "coordinates": [ [ [ -3.8832, 40.23 ], [ -3.8839, 40.2301 ], [ -3.8839, 40.2286 ], [ -3.8833, 40.2286 ], [ -3.8832, 40.2285 ], [ -3.883, 40.2286 ], [ -3.883, 40.2285 ], [ -3.8823, 40.2281 ], [ -3.882, 40.2288 ], [ -3.8832, 40.23 ] ] ] } },
{ "type": "Feature", "properties": { "municipio": "Serranillos del Valle", "clasificacion": "no-urbanizable-protegido", "calificacion": "sin-asignar", "version": "vigente", "fuente": "SIT-CAM WFS — UsoDelSuelo:VPLA_V_CLASIFICACION (https://idem.comunidad.madrid/geosrvg/ows)", "fecha_dato": "2026-05-12", "ambito": "66444", "_raw_CD_SIGLAS": "SNUP", "_raw_DS_CLASIF_GEN": "Suelo No Urbanizable Protegido", "_raw_DS_CLASIF_DET": "Suelo No Urbanizable Protegido. Red Pública Supramunicipal de Saneamiento EDAR", "_raw_DS_DOCU": "PLAN GENERAL", "_raw_DS_LEY": "CM Ley 9/2001, E Ley 6/1998", "_raw_FC_AC": "2006-10-26", "_raw_NM_AREA_M2": 19087.222101106599, "_cam_code": "140" }, "geometry": { "type": "Polygon", "coordinates": [ [ [ -3.8942, 40.199 ], [ -3.8939, 40.2002 ], [ -3.8935, 40.2 ], [ -3.8932, 40.2008 ], [ -3.8939, 40.2011 ], [ -3.8939, 40.2012 ], [ -3.8945, 40.2005 ], [ -3.8952, 40.1991 ], [ -3.8942, 40.199 ] ] ] } },
{ "type": "Feature", "properties": { "municipio": "Serranillos del Valle", "clasificacion": "no-urbanizable-protegido", "calificacion": "sin-asignar", "version": "vigente", "fuente": "SIT-CAM WFS — UsoDelSuelo:VPLA_V_CLASIFICACION (https://idem.comunidad.madrid/geosrvg/ows)", "fecha_dato": "2026-05-12", "ambito": "66444", "_raw_CD_SIGLAS": "SNUP", "_raw_DS_CLASIF_GEN": "Suelo No Urbanizable Protegido", "_raw_DS_CLASIF_DET": "Suelo No Urbanizable Especialmente Protegido Infraestructura Viaria", "_raw_DS_DOCU": "PLAN GENERAL", "_raw_DS_LEY": "CM Ley 9/2001, E Ley 6/1998", "_raw_FC_AC": "2006-10-26", "_raw_NM_AREA_M2": 9586.1339570424207, "_cam_code": "140" }, "geometry": { "type": "Polygon", "coordinates": [ [ [ -3.8746, 40.1944 ], [ -3.8741, 40.1953 ], [ -3.871, 40.1998 ], [ -3.8723, 40.1981 ], [ -3.8747, 40.1944 ], [ -3.8768, 40.1918 ], [ -3.8783, 40.1897 ], [ -3.879, 40.189 ], [ -3.8787, 40.1891 ], [ -3.8773, 40.191 ], [ -3.8765, 40.1918 ], [ -3.8764, 40.1922 ], [ -3.8746, 40.1944 ] ] ] } },
{ "type": "Feature", "properties": { "municipio": "Serranillos del Valle", "clasificacion": "no-urbanizable-protegido", "calificacion": "sin-asignar", "version": "vigente", "fuente": "SIT-CAM WFS — UsoDelSuelo:VPLA_V_CLASIFICACION (https://idem.comunidad.madrid/geosrvg/ows)", "fecha_dato": "2026-05-12", "ambito": "66444", "_raw_CD_SIGLAS": "SNUP", "_raw_DS_CLASIF_GEN": "Suelo No Urbanizable Protegido", "_raw_DS_CLASIF_DET": "Suelo No Urbanizable Especialmente Protegido Infraestructura Viaria", "_raw_DS_DOCU": "PLAN GENERAL", "_raw_DS_LEY": "CM Ley 9/2001, E Ley 6/1998", "_raw_FC_AC": "2006-10-26", "_raw_NM_AREA_M2": 462423.04814309301, "_cam_code": "140" }, "geometry": { "type": "Polygon", "coordinates": [ [ [ -3.8924, 40.2101 ], [ -3.8916, 40.2121 ], [ -3.8901, 40.2144 ], [ -3.8887, 40.2164 ], [ -3.8854, 40.2202 ], [ -3.8845, 40.2218 ], [ -3.8842, 40.2221 ], [ -3.8837, 40.2234 ], [ -3.8836, 40.2234 ], [ -3.8828, 40.2247 ], [ -3.8826, 40.2257 ], [ -3.8825, 40.2257 ], [ -3.882, 40.2269 ], [ -3.8817, 40.2271 ], [ -3.8811, 40.2281 ], [ -3.881, 40.2284 ], [ -3.8818, 40.2293 ], [ -3.8826, 40.2272 ], [ -3.8841, 40.2243 ], [ -3.8843, 40.2232 ], [ -3.8844, 40.2232 ], [ -3.8847, 40.2225 ], [ -3.8853, 40.2218 ], [ -3.886, 40.2205 ], [ -3.8881, 40.2181 ], [ -3.8904, 40.2152 ], [ -3.8918, 40.2128 ], [ -3.8924, 40.212 ], [ -3.8932, 40.2101 ], [ -3.8941, 40.2103 ], [ -3.8941, 40.2097 ], [ -3.8934, 40.2096 ], [ -3.8936, 40.2089 ], [ -3.8936, 40.2082 ], [ -3.8942, 40.2057 ], [ -3.8941, 40.2053 ], [ -3.8944, 40.2043 ], [ -3.8945, 40.2034 ], [ -3.8952, 40.2016 ], [ -3.8951, 40.2009 ], [ -3.8953, 40.2008 ], [ -3.8953, 40.2006 ], [ -3.8954, 40.2006 ], [ -3.8957, 40.1999 ], [ -3.8963, 40.197 ], [ -3.8971, 40.1962 ], [ -3.8974, 40.1964 ], [ -3.8978, 40.1957 ], [ -3.898, 40.1956 ], [ -3.898, 40.1954 ], [ -3.8987, 40.1947 ], [ -3.8989, 40.1943 ], [ -3.8994, 40.1939 ], [ -3.8999, 40.1931 ], [ -3.9002, 40.1929 ], [ -3.9002, 40.1927 ], [ -3.9012, 40.1917 ], [ -3.9026, 40.1909 ], [ -3.9027, 40.1907 ], [ -3.9032, 40.1905 ], [ -3.9037, 40.1901 ], [ -3.9033, 40.1902 ], [ -3.9023, 40.1908 ], [ -3.9019, 40.1908 ], [ -3.9011, 40.1905 ], [ -3.9005, 40.1909 ], [ -3.8976, 40.1938 ], [ -3.896, 40.1962 ], [ -3.8948, 40.199 ], [ -3.8948, 40.1991 ], [ -3.8952, 40.1991 ], [ -3.8951, 40.1994 ], [ -3.894, 40.2012 ], [ -3.8941, 40.2016 ], [ -3.8938, 40.2027 ], [ -3.8939, 40.2036 ], [ -3.8936, 40.2048 ], [ -3.8937, 40.2055 ], [ -3.8933, 40.2065 ], [ -3.8934, 40.2074 ], [ -3.8933, 40.2074 ], [ -3.8933, 40.2077 ], [ -3.8932, 40.2077 ], [ -3.8931, 40.208 ], [ -3.8931, 40.2085 ], [ -3.8928, 40.209 ], [ -3.8928, 40.2094 ], [ -3.8882, 40.2084 ], [ -3.8879, 40.2081 ], [ -3.8875, 40.208 ], [ -3.8872, 40.2083 ], [ -3.8866, 40.2084 ], [ -3.881, 40.2086 ], [ -3.8796, 40.2088 ], [ -3.8775, 40.2092 ], [ -3.8694, 40.2113 ], [ -3.8698, 40.2118 ], [ -3.8777, 40.2097 ], [ -3.8803, 40.2092 ], [ -3.8856, 40.209 ], [ -3.8877, 40.2088 ], [ -3.8926, 40.2099 ], [ -3.8924, 40.2101 ] ] ] } },
{ "type": "Feature", "properties": { "municipio": "Serranillos del Valle", "clasificacion": "no-urbanizable-protegido", "calificacion": "sin-asignar", "version": "vigente", "fuente": "SIT-CAM WFS — UsoDelSuelo:VPLA_V_CLASIFICACION (https://idem.comunidad.madrid/geosrvg/ows)", "fecha_dato": "2026-05-12", "ambito": "66444", "_raw_CD_SIGLAS": "SNUP", "_raw_DS_CLASIF_GEN": "Suelo No Urbanizable Protegido", "_raw_DS_CLASIF_DET": "Suelo No Urbanizable Especialmente Protegido Inadecuado para el Desarrollo Urbano", "_raw_DS_DOCU": "PLAN GENERAL", "_raw_DS_LEY": "CM Ley 9/2001, E Ley 6/1998", "_raw_FC_AC": "2006-10-26", "_raw_NM_AREA_M2": 344321.071763699, "_cam_code": "140" }, "geometry": { "type": "Polygon", "coordinates": [ [ [ -3.8925, 40.2227 ], [ -3.895, 40.2248 ], [ -3.8964, 40.2255 ], [ -3.8971, 40.2262 ], [ -3.8973, 40.2266 ], [ -3.8976, 40.2268 ], [ -3.8979, 40.2273 ], [ -3.8983, 40.2272 ], [ -3.899, 40.2267 ], [ -3.9001, 40.2267 ], [ -3.9011, 40.226 ], [ -3.9025, 40.2254 ], [ -3.9031, 40.2249 ], [ -3.9026, 40.2239 ], [ -3.9029, 40.2239 ], [ -3.9033, 40.2237 ], [ -3.9025, 40.2223 ], [ -3.9018, 40.2224 ], [ -3.9004, 40.2218 ], [ -3.8995, 40.2219 ], [ -3.8985, 40.2216 ], [ -3.8968, 40.2216 ], [ -3.8966, 40.2218 ], [ -3.8953, 40.222 ], [ -3.8939, 40.2225 ], [ -3.8936, 40.2225 ], [ -3.8936, 40.2226 ], [ -3.8925, 40.2227 ] ] ] } },
{ "type": "Feature", "properties": { "municipio": "Serranillos del Valle", "clasificacion": "no-urbanizable-protegido", "calificacion": "sin-asignar", "version": "vigente", "fuente": "SIT-CAM WFS — UsoDelSuelo:VPLA_V_CLASIFICACION (https://idem.comunidad.madrid/geosrvg/ows)", "fecha_dato": "2026-05-12", "ambito": "66444", "_raw_CD_SIGLAS": "SNUP", "_raw_DS_CLASIF_GEN": "Suelo No Urbanizable Protegido", "_raw_DS_CLASIF_DET": "Suelo No Urbanizable Especialmente Protegido Inadecuado para el Desarrollo Urbano", "_raw_DS_DOCU": "PLAN GENERAL", "_raw_DS_LEY": "CM Ley 9/2001, E Ley 6/1998", "_raw_FC_AC": "2006-10-26", "_raw_NM_AREA_M2": 1697590.2464473799, "_cam_code": "140" }, "geometry": { "type": "Polygon", "coordinates": [ [ [ -3.8769, 40.223 ], [ -3.8779, 40.2252 ], [ -3.881, 40.2284 ], [ -3.8817, 40.2271 ], [ -3.882, 40.2269 ], [ -3.8825, 40.2257 ], [ -3.8826, 40.2257 ], [ -3.8828, 40.2247 ], [ -3.8836, 40.2234 ], [ -3.8837, 40.2234 ], [ -3.8842, 40.2221 ], [ -3.8845, 40.2218 ], [ -3.8854, 40.2202 ], [ -3.8871, 40.2182 ], [ -3.8861, 40.2187 ], [ -3.8854, 40.2188 ], [ -3.8845, 40.2187 ], [ -3.8839, 40.2188 ], [ -3.883, 40.2185 ], [ -3.882, 40.2185 ], [ -3.8817, 40.2186 ], [ -3.8808, 40.2196 ], [ -3.8799, 40.2201 ], [ -3.8783, 40.2204 ], [ -3.8776, 40.2204 ], [ -3.8772, 40.2202 ], [ -3.8768, 40.2195 ], [ -3.877, 40.219 ], [ -3.8775, 40.2187 ], [ -3.879, 40.2184 ], [ -3.8796, 40.2177 ], [ -3.8784, 40.2168 ], [ -3.8774, 40.2164 ], [ -3.8773, 40.2161 ], [ -3.8769, 40.2161 ], [ -3.8764, 40.2158 ], [ -3.8762, 40.2153 ], [ -3.8763, 40.2149 ], [ -3.8764, 40.2147 ], [ -3.8769, 40.2144 ], [ -3.8775, 40.2143 ], [ -3.879, 40.2146 ], [ -3.8795, 40.215 ], [ -3.8796, 40.2153 ], [ -3.8803, 40.2157 ], [ -3.8807, 40.2161 ], [ -3.8821, 40.2164 ], [ -3.8827, 40.2167 ], [ -3.8834, 40.2167 ], [ -3.8841, 40.2169 ], [ -3.8853, 40.217 ], [ -3.8831, 40.2153 ], [ -3.8825, 40.2153 ], [ -3.8817, 40.2155 ], [ -3.8805, 40.2152 ], [ -3.8799, 40.2147 ], [ -3.8785, 40.2141 ], [ -3.8763, 40.2139 ], [ -3.8758, 40.2134 ], [ -3.8758, 40.2129 ], [ -3.8761, 40.2125 ], [ -3.8766, 40.2122 ], [ -3.8785, 40.2122 ], [ -3.8809, 40.2128 ], [ -3.8814, 40.2132 ], [ -3.8815, 40.2135 ], [ -3.8818, 40.2136 ], [ -3.8822, 40.2135 ], [ -3.8824, 40.2133 ], [ -3.8844, 40.2137 ], [ -3.8864, 40.2151 ], [ -3.8875, 40.2162 ], [ -3.8887, 40.2164 ], [ -3.8916, 40.2121 ], [ -3.8924, 40.2101 ], [ -3.8926, 40.2099 ], [ -3.8877, 40.2088 ], [ -3.8856, 40.209 ], [ -3.8803, 40.2092 ], [ -3.8777, 40.2097 ], [ -3.8697, 40.2118 ], [ -3.8698, 40.2118 ], [ -3.8717, 40.2156 ], [ -3.8738, 40.2201 ], [ -3.8769, 40.223 ] ] ] } },
{ "type": "Feature", "properties": { "municipio": "Serranillos del Valle", "clasificacion": "no-urbanizable-protegido", "calificacion": "sin-asignar", "version": "vigente", "fuente": "SIT-CAM WFS — UsoDelSuelo:VPLA_V_CLASIFICACION (https://idem.comunidad.madrid/geosrvg/ows)", "fecha_dato": "2026-05-12", "ambito": "66444", "_raw_CD_SIGLAS": "SNUP", "_raw_DS_CLASIF_GEN": "Suelo No Urbanizable Protegido", "_raw_DS_CLASIF_DET": "Suelo No Urbanizable Especialmente Protegido Inadecuado para el Desarrollo Urbano", "_raw_DS_DOCU": "PLAN GENERAL", "_raw_DS_LEY": "CM Ley 9/2001, E Ley 6/1998", "_raw_FC_AC": "2006-10-26", "_raw_NM_AREA_M2": 769738.80849327997, "_cam_code": "140" }, "geometry": { "type": "Polygon", "coordinates": [ [ [ -3.8832, 40.23 ], [ -3.8838, 40.2306 ], [ -3.8848, 40.2311 ], [ -3.8856, 40.2313 ], [ -3.8868, 40.2312 ], [ -3.8876, 40.2296 ], [ -3.8883, 40.2289 ], [ -3.8883, 40.2287 ], [ -3.889, 40.2278 ], [ -3.8889, 40.2278 ], [ -3.8885, 40.227 ], [ -3.8884, 40.2265 ], [ -3.8883, 40.2265 ], [ -3.8882, 40.226 ], [ -3.8881, 40.226 ], [ -3.888, 40.2257 ], [ -3.8878, 40.2243 ], [ -3.8878, 40.2233 ], [ -3.8876, 40.2226 ], [ -3.8885, 40.2221 ], [ -3.8934, 40.2217 ], [ -3.8944, 40.2213 ], [ -3.8968, 40.2207 ], [ -3.8989, 40.2207 ], [ -3.8995, 40.2209 ], [ -3.9013, 40.221 ], [ -3.9005, 40.2203 ], [ -3.8998, 40.2185 ], [ -3.8998, 40.2176 ], [ -3.8973, 40.2185 ], [ -3.8967, 40.2186 ], [ -3.8951, 40.2185 ], [ -3.8941, 40.2188 ], [ -3.8914, 40.2185 ], [ -3.8891, 40.2186 ], [ -3.8881, 40.2181 ], [ -3.886, 40.2205 ], [ -3.8853, 40.2218 ], [ -3.8847, 40.2225 ], [ -3.8844, 40.2232 ], [ -3.8843, 40.2232 ], [ -3.8841, 40.2243 ], [ -3.8826, 40.2272 ], [ -3.8823, 40.2281 ], [ -3.883, 40.2285 ], [ -3.883, 40.2286 ], [ -3.8831, 40.2285 ], [ -3.8839, 40.2286 ], [ -3.8839, 40.2301 ], [ -3.8832, 40.23 ] ] ] } },
{ "type": "Feature", "properties": { "municipio": "Serranillos del Valle", "clasificacion": "no-urbanizable-protegido", "calificacion": "sin-asignar", "version": "vigente", "fuente": "SIT-CAM WFS — UsoDelSuelo:VPLA_V_CLASIFICACION (https://idem.comunidad.madrid/geosrvg/ows)", "fecha_dato": "2026-05-12", "ambito": "66444", "_raw_CD_SIGLAS": "SNUP", "_raw_DS_CLASIF_GEN": "Suelo No Urbanizable Protegido", "_raw_DS_CLASIF_DET": "Suelo No Urbanizable Especialmente Protegido Inadecuado para el Desarrollo Urbano", "_raw_DS_DOCU": "PLAN GENERAL", "_raw_DS_LEY": "CM Ley 9/2001, E Ley 6/1998", "_raw_FC_AC": "2006-10-26", "_raw_NM_AREA_M2": 309842.03519703099, "_cam_code": "140" }, "geometry": { "type": "Polygon", "coordinates": [ [ [ -3.889, 40.2319 ], [ -3.8899, 40.2318 ], [ -3.8905, 40.231 ], [ -3.8911, 40.2305 ], [ -3.8921, 40.23 ], [ -3.8929, 40.2298 ], [ -3.894, 40.2292 ], [ -3.8949, 40.229 ], [ -3.8959, 40.2281 ], [ -3.8952, 40.2275 ], [ -3.8951, 40.2271 ], [ -3.8944, 40.2267 ], [ -3.8944, 40.2266 ], [ -3.8929, 40.2259 ], [ -3.8924, 40.2252 ], [ -3.8916, 40.2247 ], [ -3.8908, 40.2239 ], [ -3.8907, 40.2233 ], [ -3.891, 40.2228 ], [ -3.8901, 40.2228 ], [ -3.8901, 40.2229 ], [ -3.8889, 40.223 ], [ -3.889, 40.2254 ], [ -3.8891, 40.2254 ], [ -3.8893, 40.2261 ], [ -3.8894, 40.2261 ], [ -3.8895, 40.2267 ], [ -3.8901, 40.2276 ], [ -3.8901, 40.2279 ], [ -3.8898, 40.2283 ], [ -3.8898, 40.2285 ], [ -3.8885, 40.2301 ], [ -3.8883, 40.2307 ], [ -3.8881, 40.2309 ], [ -3.8881, 40.2312 ], [ -3.8879, 40.2314 ], [ -3.8879, 40.2315 ], [ -3.889, 40.2319 ] ] ] } },
{ "type": "Feature", "properties": { "municipio": "Serranillos del Valle", "clasificacion": "no-urbanizable-protegido", "calificacion": "sin-asignar", "version": "vigente", "fuente": "SIT-CAM WFS — UsoDelSuelo:VPLA_V_CLASIFICACION (https://idem.comunidad.madrid/geosrvg/ows)", "fecha_dato": "2026-05-12", "ambito": "66444", "_raw_CD_SIGLAS": "SNUP", "_raw_DS_CLASIF_GEN": "Suelo No Urbanizable Protegido", "_raw_DS_CLASIF_DET": "Suelo No Urbanizable Especialmente Protegido Cauces y Riberas", "_raw_DS_DOCU": "PLAN GENERAL", "_raw_DS_LEY": "CM Ley 9/2001, E Ley 6/1998", "_raw_FC_AC": "2006-10-26", "_raw_NM_AREA_M2": 323035.04922948498, "_cam_code": "140" }, "geometry": { "type": "Polygon", "coordinates": [ [ [ -3.8881, 40.2181 ], [ -3.8891, 40.2186 ], [ -3.8914, 40.2185 ], [ -3.8935, 40.2187 ], [ -3.8936, 40.2188 ], [ -3.8941, 40.2188 ], [ -3.8951, 40.2185 ], [ -3.8967, 40.2186 ], [ -3.898, 40.2183 ], [ -3.8986, 40.218 ], [ -3.8997, 40.2177 ], [ -3.8999, 40.217 ], [ -3.8996, 40.2165 ], [ -3.9, 40.2162 ], [ -3.8988, 40.215 ], [ -3.898, 40.2146 ], [ -3.8974, 40.214 ], [ -3.8963, 40.2141 ], [ -3.8949, 40.2139 ], [ -3.8948, 40.214 ], [ -3.8939, 40.2139 ], [ -3.8927, 40.2133 ], [ -3.8917, 40.213 ], [ -3.8907, 40.2146 ], [ -3.8921, 40.2151 ], [ -3.8928, 40.2155 ], [ -3.8949, 40.2158 ], [ -3.8951, 40.2157 ], [ -3.8957, 40.2159 ], [ -3.8973, 40.2158 ], [ -3.8984, 40.2162 ], [ -3.8964, 40.2168 ], [ -3.8945, 40.2167 ], [ -3.8938, 40.217 ], [ -3.8894, 40.2165 ], [ -3.8881, 40.2181 ] ], [ [ -3.8921, 40.215 ], [ -3.8915, 40.214 ], [ -3.8933, 40.2146 ], [ -3.8934, 40.2149 ], [ -3.8935, 40.2149 ], [ -3.8935, 40.2152 ], [ -3.8936, 40.2152 ], [ -3.8936, 40.2152 ], [ -3.8936, 40.2152 ], [ -3.8936, 40.2153 ], [ -3.8936, 40.2154 ], [ -3.8935, 40.2152 ], [ -3.8921, 40.215 ] ] ] } },
{ "type": "Feature", "properties": { "municipio": "Serranillos del Valle", "clasificacion": "no-urbanizable-protegido", "calificacion": "sin-asignar", "version": "vigente", "fuente": "SIT-CAM WFS — UsoDelSuelo:VPLA_V_CLASIFICACION (https://idem.comunidad.madrid/geosrvg/ows)", "fecha_dato": "2026-05-12", "ambito": "66444", "_raw_CD_SIGLAS": "SNUP", "_raw_DS_CLASIF_GEN": "Suelo No Urbanizable Protegido", "_raw_DS_CLASIF_DET": "Suelo No Urbanizable Especialmente Protegido Cauces y Riberas", "_raw_DS_DOCU": "PLAN GENERAL", "_raw_DS_LEY": "CM Ley 9/2001, E Ley 6/1998", "_raw_FC_AC": "2006-10-26", "_raw_NM_AREA_M2": 511375.60307444801, "_cam_code": "140" }, "geometry": { "type": "Polygon", "coordinates": [ [ [ -3.8886, 40.2164 ], [ -3.8875, 40.2162 ], [ -3.8864, 40.2151 ], [ -3.8849, 40.214 ], [ -3.8844, 40.2137 ], [ -3.8837, 40.2135 ], [ -3.8833, 40.2134 ], [ -3.883, 40.2135 ], [ -3.8824, 40.2133 ], [ -3.8822, 40.2135 ], [ -3.8818, 40.2136 ], [ -3.8815, 40.2135 ], [ -3.8814, 40.2132 ], [ -3.8809, 40.2128 ], [ -3.8785, 40.2122 ], [ -3.8766, 40.2122 ], [ -3.8761, 40.2125 ], [ -3.8758, 40.2129 ], [ -3.8758, 40.2134 ], [ -3.8763, 40.2139 ], [ -3.8785, 40.2141 ], [ -3.8799, 40.2147 ], [ -3.8805, 40.2152 ], [ -3.8817, 40.2155 ], [ -3.8825, 40.2153 ], [ -3.8831, 40.2153 ], [ -3.8853, 40.217 ], [ -3.8841, 40.2169 ], [ -3.8834, 40.2167 ], [ -3.8827, 40.2167 ], [ -3.8821, 40.2164 ], [ -3.8807, 40.2161 ], [ -3.8803, 40.2157 ], [ -3.8796, 40.2153 ], [ -3.8795, 40.215 ], [ -3.879, 40.2146 ], [ -3.8775, 40.2143 ], [ -3.8769, 40.2144 ], [ -3.8764, 40.2147 ], [ -3.8763, 40.2149 ], [ -3.8762, 40.2153 ], [ -3.8764, 40.2158 ], [ -3.8769, 40.2161 ], [ -3.8773, 40.2161 ], [ -3.8774, 40.2164 ], [ -3.8784, 40.2168 ], [ -3.8796, 40.2177 ], [ -3.879, 40.2184 ], [ -3.8775, 40.2187 ], [ -3.877, 40.219 ], [ -3.8768, 40.2195 ], [ -3.8769, 40.2198 ], [ -3.8772, 40.2202 ], [ -3.8776, 40.2204 ], [ -3.8783, 40.2204 ], [ -3.8799, 40.2201 ], [ -3.8808, 40.2196 ], [ -3.8817, 40.2186 ], [ -3.882, 40.2185 ], [ -3.883, 40.2185 ], [ -3.8839, 40.2188 ], [ -3.8843, 40.2187 ], [ -3.8848, 40.2188 ], [ -3.8861, 40.2187 ], [ -3.8871, 40.2182 ], [ -3.8886, 40.2164 ] ] ] } },
{ "type": "Feature", "properties": { "municipio": "Serranillos del Valle", "clasificacion": "no-urbanizable-protegido", "calificacion": "sin-asignar", "version": "vigente", "fuente": "SIT-CAM WFS — UsoDelSuelo:VPLA_V_CLASIFICACION (https://idem.comunidad.madrid/geosrvg/ows)", "fecha_dato": "2026-05-12", "ambito": "66444", "_raw_CD_SIGLAS": "SNUP", "_raw_DS_CLASIF_GEN": "Suelo No Urbanizable Protegido", "_raw_DS_CLASIF_DET": "Suelo No Urbanizable Protegido. Red Pública General Cementerio", "_raw_DS_DOCU": "PLAN GENERAL", "_raw_DS_LEY": "CM Ley 9/2001, E Ley 6/1998", "_raw_FC_AC": "2006-10-26", "_raw_NM_AREA_M2": 10655.5324645686, "_cam_code": "140" }, "geometry": { "type": "Polygon", "coordinates": [ [ [ -3.8915, 40.214 ], [ -3.8921, 40.215 ], [ -3.8935, 40.2152 ], [ -3.8936, 40.2154 ], [ -3.8935, 40.2149 ], [ -3.8934, 40.2149 ], [ -3.8933, 40.2146 ], [ -3.8915, 40.214 ] ] ] } },
{ "type": "Feature", "properties": { "municipio": "Serranillos del Valle", "clasificacion": "no-urbanizable-protegido", "calificacion": "sin-asignar", "version": "vigente", "fuente": "SIT-CAM WFS — UsoDelSuelo:VPLA_V_CLASIFICACION (https://idem.comunidad.madrid/geosrvg/ows)", "fecha_dato": "2026-05-12", "ambito": "66444", "_raw_CD_SIGLAS": "SNUP", "_raw_DS_CLASIF_GEN": "Suelo No Urbanizable Protegido", "_raw_DS_CLASIF_DET": "Suelo No Urbanizable Especialmente Protegido Ecológico", "_raw_DS_DOCU": "PLAN GENERAL", "_raw_DS_LEY": "CM Ley 9/2001, E Ley 6/1998", "_raw_FC_AC": "2006-10-26", "_raw_NM_AREA_M2": 5264.2469459642998, "_cam_code": "140" }, "geometry": { "type": "Polygon", "coordinates": [ [ [ -3.9094, 40.1907 ], [ -3.9093, 40.1914 ], [ -3.9099, 40.1914 ], [ -3.9102, 40.1906 ], [ -3.9094, 40.1907 ] ] ] } },
{ "type": "Feature", "properties": { "municipio": "Serranillos del Valle", "clasificacion": "no-urbanizable-protegido", "calificacion": "sin-asignar", "version": "vigente", "fuente": "SIT-CAM WFS — UsoDelSuelo:VPLA_V_CLASIFICACION (https://idem.comunidad.madrid/geosrvg/ows)", "fecha_dato": "2026-05-12", "ambito": "66444", "_raw_CD_SIGLAS": "SNUP", "_raw_DS_CLASIF_GEN": "Suelo No Urbanizable Protegido", "_raw_DS_CLASIF_DET": "Suelo No Urbanizable Especialmente Protegido Ecológico", "_raw_DS_DOCU": "PLAN GENERAL", "_raw_DS_LEY": "CM Ley 9/2001, E Ley 6/1998", "_raw_FC_AC": "2006-10-26", "_raw_NM_AREA_M2": 1302.6803561296499, "_cam_code": "140" }, "geometry": { "type": "Polygon", "coordinates": [ [ [ -3.9115, 40.1909 ], [ -3.9114, 40.1914 ], [ -3.9113, 40.1915 ], [ -3.9113, 40.1914 ], [ -3.9114, 40.1914 ], [ -3.9116, 40.1913 ], [ -3.9116, 40.1912 ], [ -3.9116, 40.1912 ], [ -3.9117, 40.1912 ], [ -3.9117, 40.1912 ], [ -3.9118, 40.1912 ], [ -3.9118, 40.1912 ], [ -3.9118, 40.1912 ], [ -3.9119, 40.1912 ], [ -3.9119, 40.1912 ], [ -3.912, 40.1912 ], [ -3.912, 40.1912 ], [ -3.912, 40.1912 ], [ -3.912, 40.1912 ], [ -3.9121, 40.1912 ], [ -3.9121, 40.1913 ], [ -3.9121, 40.1913 ], [ -3.9119, 40.1911 ], [ -3.9115, 40.1909 ] ] ] } },
{ "type": "Feature", "properties": { "municipio": "Serranillos del Valle", "clasificacion": "no-urbanizable-protegido", "calificacion": "sin-asignar", "version": "vigente", "fuente": "SIT-CAM WFS — UsoDelSuelo:VPLA_V_CLASIFICACION (https://idem.comunidad.madrid/geosrvg/ows)", "fecha_dato": "2026-05-12", "ambito": "66444", "_raw_CD_SIGLAS": "SNUP", "_raw_DS_CLASIF_GEN": "Suelo No Urbanizable Protegido", "_raw_DS_CLASIF_DET": "Suelo No Urbanizable Especialmente Protegido Inadecuado para el Desarrollo Urbano", "_raw_DS_DOCU": "PLAN GENERAL", "_raw_DS_LEY": "CM Ley 9/2001, E Ley 6/1998", "_raw_FC_AC": "2006-10-26", "_raw_NM_AREA_M2": 91040.951670366703, "_cam_code": "140" }, "geometry": { "type": "Polygon", "coordinates": [ [ [ -3.8917, 40.213 ], [ -3.8927, 40.2133 ], [ -3.8939, 40.2139 ], [ -3.8948, 40.214 ], [ -3.8949, 40.2139 ], [ -3.8963, 40.2141 ], [ -3.8974, 40.214 ], [ -3.8971, 40.2136 ], [ -3.8961, 40.2128 ], [ -3.895, 40.2125 ], [ -3.8947, 40.2122 ], [ -3.8943, 40.2113 ], [ -3.8939, 40.211 ], [ -3.8941, 40.2103 ], [ -3.8932, 40.2101 ], [ -3.8924, 40.212 ], [ -3.8917, 40.213 ] ] ] } },
{ "type": "Feature", "properties": { "municipio": "Serranillos del Valle", "clasificacion": "no-urbanizable-protegido", "calificacion": "sin-asignar", "version": "vigente", "fuente": "SIT-CAM WFS — UsoDelSuelo:VPLA_V_CLASIFICACION (https://idem.comunidad.madrid/geosrvg/ows)", "fecha_dato": "2026-05-12", "ambito": "66444", "_raw_CD_SIGLAS": "SNUP", "_raw_DS_CLASIF_GEN": "Suelo No Urbanizable Protegido", "_raw_DS_CLASIF_DET": "Suelo No Urbanizable Especialmente Protegido Inadecuado para el Desarrollo Urbano", "_raw_DS_DOCU": "PLAN GENERAL", "_raw_DS_LEY": "CM Ley 9/2001, E Ley 6/1998", "_raw_FC_AC": "2006-10-26", "_raw_NM_AREA_M2": 93749.153988663107, "_cam_code": "140" }, "geometry": { "type": "Polygon", "coordinates": [ [ [ -3.8894, 40.2165 ], [ -3.8938, 40.217 ], [ -3.8945, 40.2167 ], [ -3.8964, 40.2168 ], [ -3.8984, 40.2162 ], [ -3.8973, 40.2158 ], [ -3.8957, 40.2159 ], [ -3.8951, 40.2157 ], [ -3.8949, 40.2158 ], [ -3.8928, 40.2155 ], [ -3.8921, 40.2151 ], [ -3.8907, 40.2146 ], [ -3.8904, 40.2152 ], [ -3.8894, 40.2165 ] ] ] } },
{ "type": "Feature", "properties": { "municipio": "Serranillos del Valle", "clasificacion": "no-urbanizable-protegido", "calificacion": "sin-asignar", "version": "vigente", "fuente": "SIT-CAM WFS — UsoDelSuelo:VPLA_V_CLASIFICACION (https://idem.comunidad.madrid/geosrvg/ows)", "fecha_dato": "2026-05-12", "ambito": "66444", "_raw_CD_SIGLAS": "SNUP", "_raw_DS_CLASIF_GEN": "Suelo No Urbanizable Protegido", "_raw_DS_CLASIF_DET": "Suelo No Urbanizable Especialmente Protegido Inadecuado para el Desarrollo Urbano", "_raw_DS_DOCU": "PLAN GENERAL", "_raw_DS_LEY": "CM Ley 9/2001, E Ley 6/1998", "_raw_FC_AC": "2006-10-26", "_raw_NM_AREA_M2": 811495.41774884705, "_cam_code": "140" }, "geometry": { "type": "Polygon", "coordinates": [ [ [ -3.9054, 40.2005 ], [ -3.907, 40.2008 ], [ -3.9103, 40.2019 ], [ -3.9115, 40.2018 ], [ -3.911, 40.1998 ], [ -3.9105, 40.1999 ], [ -3.9105, 40.2005 ], [ -3.9102, 40.2004 ], [ -3.9102, 40.2001 ], [ -3.91, 40.1999 ], [ -3.9089, 40.2002 ], [ -3.9079, 40.2003 ], [ -3.9069, 40.2002 ], [ -3.9065, 40.1999 ], [ -3.9063, 40.1996 ], [ -3.9064, 40.199 ], [ -3.9069, 40.1986 ], [ -3.9078, 40.1984 ], [ -3.9077, 40.1978 ], [ -3.9079, 40.1971 ], [ -3.9068, 40.1964 ], [ -3.9066, 40.1961 ], [ -3.9066, 40.1956 ], [ -3.9072, 40.195 ], [ -3.9078, 40.1949 ], [ -3.9089, 40.1954 ], [ -3.9091, 40.1951 ], [ -3.9089, 40.1948 ], [ -3.9087, 40.1948 ], [ -3.9086, 40.1946 ], [ -3.9084, 40.1946 ], [ -3.9083, 40.1944 ], [ -3.9081, 40.1944 ], [ -3.908, 40.1942 ], [ -3.9076, 40.194 ], [ -3.9074, 40.1936 ], [ -3.9077, 40.1937 ], [ -3.9077, 40.1938 ], [ -3.9086, 40.1937 ], [ -3.9099, 40.194 ], [ -3.9111, 40.1939 ], [ -3.9112, 40.1936 ], [ -3.9108, 40.1932 ], [ -3.9106, 40.1921 ], [ -3.9108, 40.1921 ], [ -3.9108, 40.1923 ], [ -3.9111, 40.1926 ], [ -3.9112, 40.1926 ], [ -3.9112, 40.1923 ], [ -3.9113, 40.1923 ], [ -3.9113, 40.1928 ], [ -3.9119, 40.1922 ], [ -3.9122, 40.1918 ], [ -3.9122, 40.1916 ], [ -3.9127, 40.1915 ], [ -3.9121, 40.1913 ], [ -3.9121, 40.1912 ], [ -3.9116, 40.1912 ], [ -3.9116, 40.1913 ], [ -3.9115, 40.1913 ], [ -3.9114, 40.1914 ], [ -3.9113, 40.1914 ], [ -3.9113, 40.1915 ], [ -3.9114, 40.1914 ], [ -3.9115, 40.1909 ], [ -3.9106, 40.1908 ], [ -3.9102, 40.1907 ], [ -3.9102, 40.1906 ], [ -3.9099, 40.1914 ], [ -3.9093, 40.1914 ], [ -3.9094, 40.1907 ], [ -3.9089, 40.1908 ], [ -3.908, 40.1907 ], [ -3.9083, 40.1909 ], [ -3.9084, 40.1915 ], [ -3.9078, 40.1925 ], [ -3.9074, 40.1921 ], [ -3.9072, 40.1916 ], [ -3.9067, 40.1916 ], [ -3.9067, 40.1907 ], [ -3.9055, 40.1906 ], [ -3.9033, 40.1912 ], [ -3.9026, 40.1916 ], [ -3.9015, 40.1915 ], [ -3.9002, 40.1927 ], [ -3.9002, 40.1929 ], [ -3.8999, 40.1931 ], [ -3.8998, 40.1934 ], [ -3.8989, 40.1943 ], [ -3.8987, 40.1947 ], [ -3.8985, 40.1948 ], [ -3.8976, 40.196 ], [ -3.8975, 40.1962 ], [ -3.8999, 40.1984 ], [ -3.9023, 40.1996 ], [ -3.9048, 40.2005 ], [ -3.9054, 40.2005 ] ] ] } },
{ "type": "Feature", "properties": { "municipio": "Serranillos del Valle", "clasificacion": "no-urbanizable-protegido", "calificacion": "sin-asignar", "version": "vigente", "fuente": "SIT-CAM WFS — UsoDelSuelo:VPLA_V_CLASIFICACION (https://idem.comunidad.madrid/geosrvg/ows)", "fecha_dato": "2026-05-12", "ambito": "66444", "_raw_CD_SIGLAS": "SNUP", "_raw_DS_CLASIF_GEN": "Suelo No Urbanizable Protegido", "_raw_DS_CLASIF_DET": "Suelo No Urbanizable Especialmente Protegido Inadecuado para el Desarrollo Urbano", "_raw_DS_DOCU": "PLAN GENERAL", "_raw_DS_LEY": "CM Ley 9/2001, E Ley 6/1998", "_raw_FC_AC": "2006-10-26", "_raw_NM_AREA_M2": 32900.673724933797, "_cam_code": "140" }, "geometry": { "type": "Polygon", "coordinates": [ [ [ -3.917, 40.2011 ], [ -3.9186, 40.2013 ], [ -3.9187, 40.2012 ], [ -3.9198, 40.2009 ], [ -3.922, 40.2 ], [ -3.9221, 40.1999 ], [ -3.922, 40.1999 ], [ -3.922, 40.1995 ], [ -3.9219, 40.1994 ], [ -3.9213, 40.2002 ], [ -3.9209, 40.2004 ], [ -3.9204, 40.1999 ], [ -3.9204, 40.1993 ], [ -3.9203, 40.1993 ], [ -3.9202, 40.1988 ], [ -3.92, 40.1986 ], [ -3.9198, 40.1986 ], [ -3.9194, 40.1988 ], [ -3.9199, 40.1993 ], [ -3.9199, 40.1998 ], [ -3.9203, 40.2005 ], [ -3.9186, 40.2006 ], [ -3.9181, 40.2001 ], [ -3.9178, 40.2 ], [ -3.917, 40.2011 ] ] ] } },
{ "type": "Feature", "properties": { "municipio": "Serranillos del Valle", "clasificacion": "no-urbanizable-protegido", "calificacion": "sin-asignar", "version": "vigente", "fuente": "SIT-CAM WFS — UsoDelSuelo:VPLA_V_CLASIFICACION (https://idem.comunidad.madrid/geosrvg/ows)", "fecha_dato": "2026-05-12", "ambito": "66444", "_raw_CD_SIGLAS": "SNUP", "_raw_DS_CLASIF_GEN": "Suelo No Urbanizable Protegido", "_raw_DS_CLASIF_DET": "Suelo No Urbanizable Especialmente Protegido Inadecuado para el Desarrollo Urbano", "_raw_DS_DOCU": "PLAN GENERAL", "_raw_DS_LEY": "CM Ley 9/2001, E Ley 6/1998", "_raw_FC_AC": "2006-10-26", "_raw_NM_AREA_M2": 11945.6225853953, "_cam_code": "140" }, "geometry": { "type": "Polygon", "coordinates": [ [ [ -3.8979, 40.1921 ], [ -3.8986, 40.1927 ], [ -3.9002, 40.1912 ], [ -3.8995, 40.1913 ], [ -3.8981, 40.1919 ], [ -3.8979, 40.1921 ] ] ] } },
{ "type": "Feature", "properties": { "municipio": "Serranillos del Valle", "clasificacion": "no-urbanizable-protegido", "calificacion": "sin-asignar", "version": "vigente", "fuente": "SIT-CAM WFS — UsoDelSuelo:VPLA_V_CLASIFICACION (https://idem.comunidad.madrid/geosrvg/ows)", "fecha_dato": "2026-05-12", "ambito": "66444", "_raw_CD_SIGLAS": "SNUP", "_raw_DS_CLASIF_GEN": "Suelo No Urbanizable Protegido", "_raw_DS_CLASIF_DET": "Suelo No Urbanizable Especialmente Protegido Inadecuado para el Desarrollo Urbano", "_raw_DS_DOCU": "PLAN GENERAL", "_raw_DS_LEY": "CM Ley 9/2001, E Ley 6/1998", "_raw_FC_AC": "2006-10-26", "_raw_NM_AREA_M2": 201785.63199368899, "_cam_code": "140" }, "geometry": { "type": "Polygon", "coordinates": [ [ [ -3.8847, 40.1921 ], [ -3.8854, 40.1917 ], [ -3.8872, 40.191 ], [ -3.8879, 40.1914 ], [ -3.8879, 40.1913 ], [ -3.8885, 40.191 ], [ -3.8884, 40.1907 ], [ -3.8885, 40.1902 ], [ -3.8893, 40.1897 ], [ -3.89, 40.1897 ], [ -3.8907, 40.19 ], [ -3.8913, 40.1905 ], [ -3.8928, 40.1909 ], [ -3.8957, 40.1908 ], [ -3.8966, 40.1906 ], [ -3.8971, 40.1902 ], [ -3.898, 40.1899 ], [ -3.8952, 40.1891 ], [ -3.8942, 40.1887 ], [ -3.8854, 40.1895 ], [ -3.8843, 40.1895 ], [ -3.8836, 40.189 ], [ -3.8847, 40.1921 ] ] ] } },
{ "type": "Feature", "properties": { "municipio": "Serranillos del Valle", "clasificacion": "urbanizable-no-sectorizado", "calificacion": "sin-asignar", "version": "vigente", "fuente": "SIT-CAM WFS — UsoDelSuelo:VPLA_V_CLASIFICACION (https://idem.comunidad.madrid/geosrvg/ows)", "fecha_dato": "2026-05-12", "ambito": "66444", "_raw_CD_SIGLAS": "SUBNS", "_raw_DS_CLASIF_GEN": "Suelo Urbanizable No Sectorizado", "_raw_DS_CLASIF_DET": "Suelo Urbanizable No Sectorizado", "_raw_DS_DOCU": "PLAN GENERAL", "_raw_DS_LEY": "CM Ley 9/2001, E Ley 6/1998", "_raw_FC_AC": "2006-10-26", "_raw_NM_AREA_M2": 257155.17970385001, "_cam_code": "140" }, "geometry": { "type": "Polygon", "coordinates": [ [ [ -3.8706, 40.1998 ], [ -3.87, 40.2002 ], [ -3.8692, 40.2012 ], [ -3.8668, 40.2028 ], [ -3.8668, 40.2029 ], [ -3.8665, 40.203 ], [ -3.8659, 40.2036 ], [ -3.8654, 40.2039 ], [ -3.8669, 40.2058 ], [ -3.8675, 40.2082 ], [ -3.8693, 40.2111 ], [ -3.8694, 40.211 ], [ -3.8694, 40.2103 ], [ -3.8698, 40.208 ], [ -3.8703, 40.2036 ], [ -3.8704, 40.2035 ], [ -3.8705, 40.2019 ], [ -3.8706, 40.2019 ], [ -3.8707, 40.2004 ], [ -3.8705, 40.2003 ], [ -3.8705, 40.1999 ], [ -3.871, 40.1998 ], [ -3.8714, 40.1992 ], [ -3.8708, 40.1995 ], [ -3.8707, 40.1998 ], [ -3.8706, 40.1998 ] ] ] } },
{ "type": "Feature", "properties": { "municipio": "Serranillos del Valle", "clasificacion": "urbanizable-no-sectorizado", "calificacion": "sin-asignar", "version": "vigente", "fuente": "SIT-CAM WFS — UsoDelSuelo:VPLA_V_CLASIFICACION (https://idem.comunidad.madrid/geosrvg/ows)", "fecha_dato": "2026-05-12", "ambito": "66444", "_raw_CD_SIGLAS": "SUBNS", "_raw_DS_CLASIF_GEN": "Suelo Urbanizable No Sectorizado", "_raw_DS_CLASIF_DET": "Suelo Urbanizable No Sectorizado", "_raw_DS_DOCU": "PLAN GENERAL", "_raw_DS_LEY": "CM Ley 9/2001, E Ley 6/1998", "_raw_FC_AC": "2006-10-26", "_raw_NM_AREA_M2": 207948.835583229, "_cam_code": "140" }, "geometry": { "type": "Polygon", "coordinates": [ [ [ -3.8878, 40.1914 ], [ -3.8912, 40.1931 ], [ -3.8923, 40.1934 ], [ -3.8939, 40.1943 ], [ -3.895, 40.1947 ], [ -3.8953, 40.1947 ], [ -3.8953, 40.1948 ], [ -3.896, 40.1951 ], [ -3.8964, 40.1955 ], [ -3.8976, 40.1938 ], [ -3.8986, 40.1928 ], [ -3.8971, 40.1914 ], [ -3.8962, 40.1917 ], [ -3.8958, 40.1917 ], [ -3.8958, 40.1918 ], [ -3.8953, 40.1917 ], [ -3.8924, 40.1918 ], [ -3.8911, 40.1915 ], [ -3.8911, 40.1914 ], [ -3.8909, 40.1914 ], [ -3.89, 40.1907 ], [ -3.8893, 40.1904 ], [ -3.8878, 40.1914 ] ] ] } },
{ "type": "Feature", "properties": { "municipio": "Serranillos del Valle", "clasificacion": "urbanizable-no-sectorizado", "calificacion": "sin-asignar", "version": "vigente", "fuente": "SIT-CAM WFS — UsoDelSuelo:VPLA_V_CLASIFICACION (https://idem.comunidad.madrid/geosrvg/ows)", "fecha_dato": "2026-05-12", "ambito": "66444", "_raw_CD_SIGLAS": "SUBNS", "_raw_DS_CLASIF_GEN": "Suelo Urbanizable No Sectorizado", "_raw_DS_CLASIF_DET": "Suelo Urbanizable No Sectorizado", "_raw_DS_DOCU": "PLAN GENERAL", "_raw_DS_LEY": "CM Ley 9/2001, E Ley 6/1998", "_raw_FC_AC": "2006-10-26", "_raw_NM_AREA_M2": 718077.51213131298, "_cam_code": "140" }, "geometry": { "type": "Polygon", "coordinates": [ [ [ -3.8899, 40.1992 ], [ -3.8919, 40.2001 ], [ -3.8925, 40.2006 ], [ -3.8928, 40.2006 ], [ -3.8934, 40.1998 ], [ -3.894, 40.1998 ], [ -3.8942, 40.199 ], [ -3.8948, 40.1991 ], [ -3.8958, 40.1966 ], [ -3.8963, 40.1957 ], [ -3.8958, 40.1952 ], [ -3.8956, 40.1952 ], [ -3.8956, 40.1951 ], [ -3.895, 40.1949 ], [ -3.895, 40.1948 ], [ -3.8941, 40.1946 ], [ -3.8925, 40.1937 ], [ -3.8891, 40.1923 ], [ -3.8879, 40.1917 ], [ -3.8872, 40.1912 ], [ -3.8849, 40.1921 ], [ -3.8842, 40.1927 ], [ -3.8829, 40.1935 ], [ -3.8828, 40.1941 ], [ -3.8826, 40.1942 ], [ -3.8826, 40.1946 ], [ -3.8823, 40.1951 ], [ -3.8819, 40.1962 ], [ -3.8819, 40.1966 ], [ -3.8818, 40.1966 ], [ -3.8818, 40.197 ], [ -3.8821, 40.1973 ], [ -3.8831, 40.197 ], [ -3.8841, 40.197 ], [ -3.8841, 40.1971 ], [ -3.8844, 40.1972 ], [ -3.8856, 40.1973 ], [ -3.8856, 40.1974 ], [ -3.886, 40.1975 ], [ -3.886, 40.1976 ], [ -3.8864, 40.1977 ], [ -3.8868, 40.1981 ], [ -3.8872, 40.1982 ], [ -3.8876, 40.1987 ], [ -3.888, 40.1989 ], [ -3.8884, 40.1989 ], [ -3.8892, 40.1991 ], [ -3.8892, 40.1992 ], [ -3.8899, 40.1992 ] ] ] } },
{ "type": "Feature", "properties": { "municipio": "Serranillos del Valle", "clasificacion": "urbanizable-sectorizado", "calificacion": "sin-asignar", "version": "vigente", "fuente": "SIT-CAM WFS — UsoDelSuelo:VPLA_V_CLASIFICACION (https://idem.comunidad.madrid/geosrvg/ows)", "fecha_dato": "2026-05-12", "ambito": "66444", "_raw_CD_SIGLAS": "SUBS", "_raw_DS_CLASIF_GEN": "Suelo Urbanizable Sectorizado", "_raw_DS_CLASIF_DET": "Suelo Urbanizable Sectorizado", "_raw_DS_DOCU": "PLAN GENERAL", "_raw_DS_LEY": "CM Ley 9/2001, E Ley 6/1998", "_raw_FC_AC": "2006-10-26", "_raw_NM_AREA_M2": 1117089.5327522999, "_cam_code": "140" }, "geometry": { "type": "Polygon", "coordinates": [ [ [ -3.8876, 40.208 ], [ -3.8879, 40.2081 ], [ -3.8882, 40.2084 ], [ -3.8928, 40.2094 ], [ -3.8928, 40.209 ], [ -3.8931, 40.2085 ], [ -3.8931, 40.208 ], [ -3.8932, 40.2077 ], [ -3.8933, 40.2077 ], [ -3.8933, 40.2074 ], [ -3.8934, 40.2074 ], [ -3.8933, 40.2065 ], [ -3.8937, 40.2055 ], [ -3.8936, 40.2048 ], [ -3.8939, 40.2036 ], [ -3.8938, 40.2027 ], [ -3.8941, 40.2016 ], [ -3.8936, 40.2016 ], [ -3.893, 40.2022 ], [ -3.8915, 40.2024 ], [ -3.8909, 40.2026 ], [ -3.8909, 40.2027 ], [ -3.8906, 40.2027 ], [ -3.8906, 40.2028 ], [ -3.8903, 40.2028 ], [ -3.8901, 40.203 ], [ -3.8896, 40.203 ], [ -3.889, 40.2032 ], [ -3.889, 40.2029 ], [ -3.8886, 40.2024 ], [ -3.8887, 40.202 ], [ -3.8891, 40.2017 ], [ -3.8894, 40.2017 ], [ -3.8896, 40.2015 ], [ -3.8895, 40.2011 ], [ -3.8903, 40.2008 ], [ -3.8913, 40.1999 ], [ -3.8899, 40.1992 ], [ -3.8892, 40.1992 ], [ -3.8892, 40.1991 ], [ -3.8884, 40.1989 ], [ -3.888, 40.1989 ], [ -3.8876, 40.1987 ], [ -3.8872, 40.1982 ], [ -3.8868, 40.1981 ], [ -3.8864, 40.1977 ], [ -3.8856, 40.1974 ], [ -3.8856, 40.1973 ], [ -3.8844, 40.1972 ], [ -3.8841, 40.1971 ], [ -3.8841, 40.197 ], [ -3.8831, 40.197 ], [ -3.8823, 40.1973 ], [ -3.8818, 40.1973 ], [ -3.8818, 40.1972 ], [ -3.8796, 40.1973 ], [ -3.8796, 40.1972 ], [ -3.8789, 40.1971 ], [ -3.8789, 40.197 ], [ -3.8779, 40.1964 ], [ -3.877, 40.1976 ], [ -3.8768, 40.1977 ], [ -3.8767, 40.1981 ], [ -3.8765, 40.1982 ], [ -3.8759, 40.1992 ], [ -3.8724, 40.1979 ], [ -3.8711, 40.1998 ], [ -3.8705, 40.1999 ], [ -3.8705, 40.2003 ], [ -3.8708, 40.2005 ], [ -3.8706, 40.2021 ], [ -3.8729, 40.2038 ], [ -3.8738, 40.2041 ], [ -3.8738, 40.2042 ], [ -3.8741, 40.2042 ], [ -3.8741, 40.2043 ], [ -3.8745, 40.2043 ], [ -3.8753, 40.2047 ], [ -3.8762, 40.2049 ], [ -3.8776, 40.2048 ], [ -3.8779, 40.2019 ], [ -3.8778, 40.2014 ], [ -3.8789, 40.2015 ], [ -3.8789, 40.2016 ], [ -3.8795, 40.2017 ], [ -3.8795, 40.2018 ], [ -3.8812, 40.2019 ], [ -3.8812, 40.2018 ], [ -3.8821, 40.2016 ], [ -3.8821, 40.2005 ], [ -3.8822, 40.2004 ], [ -3.8842, 40.2002 ], [ -3.8839, 40.2013 ], [ -3.8844, 40.2013 ], [ -3.885, 40.2008 ], [ -3.8853, 40.2008 ], [ -3.8855, 40.2006 ], [ -3.8863, 40.2006 ], [ -3.8863, 40.2005 ], [ -3.8869, 40.2003 ], [ -3.8869, 40.2002 ], [ -3.8874, 40.2001 ], [ -3.8876, 40.2005 ], [ -3.8885, 40.201 ], [ -3.8885, 40.2011 ], [ -3.8887, 40.2011 ], [ -3.8887, 40.2015 ], [ -3.8877, 40.2021 ], [ -3.8885, 40.2029 ], [ -3.8884, 40.2029 ], [ -3.8885, 40.2036 ], [ -3.8876, 40.2038 ], [ -3.8881, 40.2058 ], [ -3.8882, 40.206 ], [ -3.8885, 40.2061 ], [ -3.8884, 40.2063 ], [ -3.8887, 40.2064 ], [ -3.8887, 40.2065 ], [ -3.8885, 40.2072 ], [ -3.8869, 40.2076 ], [ -3.8873, 40.2081 ], [ -3.8876, 40.208 ] ] ] } },
{ "type": "Feature", "properties": { "municipio": "Serranillos del Valle", "clasificacion": "urbano-consolidado", "calificacion": "sin-asignar", "version": "vigente", "fuente": "SIT-CAM WFS — UsoDelSuelo:VPLA_V_CLASIFICACION (https://idem.comunidad.madrid/geosrvg/ows)", "fecha_dato": "2026-05-12", "ambito": "66444", "_raw_CD_SIGLAS": "SUC", "_raw_DS_CLASIF_GEN": "Suelo Urbano Consolidado", "_raw_DS_CLASIF_DET": "Suelo Urbano Consolidado", "_raw_DS_DOCU": "PLAN GENERAL", "_raw_DS_LEY": "CM Ley 9/2001, E Ley 6/1998", "_raw_FC_AC": "2006-10-26", "_raw_NM_AREA_M2": 1084401.8155432099, "_cam_code": "140" }, "geometry": { "type": "Polygon", "coordinates": [ [ [ -3.8707, 40.2005 ], [ -3.8694, 40.2103 ], [ -3.8694, 40.211 ], [ -3.8693, 40.211 ], [ -3.8694, 40.2113 ], [ -3.8738, 40.2102 ], [ -3.8741, 40.2099 ], [ -3.8741, 40.208 ], [ -3.8736, 40.208 ], [ -3.873, 40.2083 ], [ -3.8728, 40.207 ], [ -3.8776, 40.2076 ], [ -3.8778, 40.2078 ], [ -3.8765, 40.2093 ], [ -3.8765, 40.2095 ], [ -3.8775, 40.2092 ], [ -3.881, 40.2086 ], [ -3.8828, 40.2086 ], [ -3.8872, 40.2083 ], [ -3.8873, 40.2081 ], [ -3.8869, 40.2076 ], [ -3.8885, 40.2072 ], [ -3.8886, 40.207 ], [ -3.8887, 40.2064 ], [ -3.8885, 40.2064 ], [ -3.8884, 40.2063 ], [ -3.8885, 40.2061 ], [ -3.8882, 40.206 ], [ -3.8881, 40.2058 ], [ -3.8876, 40.2038 ], [ -3.8885, 40.2036 ], [ -3.8884, 40.2031 ], [ -3.8884, 40.2029 ], [ -3.8885, 40.2029 ], [ -3.8877, 40.2021 ], [ -3.8887, 40.2015 ], [ -3.8887, 40.2011 ], [ -3.8885, 40.2011 ], [ -3.8885, 40.201 ], [ -3.8876, 40.2005 ], [ -3.8874, 40.2001 ], [ -3.8869, 40.2002 ], [ -3.8869, 40.2003 ], [ -3.8863, 40.2005 ], [ -3.8863, 40.2006 ], [ -3.8855, 40.2006 ], [ -3.8853, 40.2008 ], [ -3.885, 40.2008 ], [ -3.8844, 40.2013 ], [ -3.8839, 40.2013 ], [ -3.8842, 40.2002 ], [ -3.8822, 40.2004 ], [ -3.8821, 40.2005 ], [ -3.8821, 40.2016 ], [ -3.8812, 40.2018 ], [ -3.8812, 40.2028 ], [ -3.8801, 40.203 ], [ -3.8778, 40.2029 ], [ -3.8776, 40.2048 ], [ -3.8762, 40.2049 ], [ -3.8753, 40.2047 ], [ -3.8745, 40.2043 ], [ -3.8741, 40.2043 ], [ -3.8741, 40.2042 ], [ -3.8738, 40.2042 ], [ -3.8738, 40.2041 ], [ -3.8729, 40.2038 ], [ -3.8706, 40.2021 ], [ -3.8708, 40.2009 ], [ -3.8708, 40.2005 ], [ -3.8707, 40.2005 ] ] ] } },
{ "type": "Feature", "properties": { "municipio": "Serranillos del Valle", "clasificacion": "urbano-consolidado", "calificacion": "sin-asignar", "version": "vigente", "fuente": "SIT-CAM WFS — UsoDelSuelo:VPLA_V_CLASIFICACION (https://idem.comunidad.madrid/geosrvg/ows)", "fecha_dato": "2026-05-12", "ambito": "66444", "_raw_CD_SIGLAS": "SUC", "_raw_DS_CLASIF_GEN": "Suelo Urbano Consolidado", "_raw_DS_CLASIF_DET": "Suelo Urbano Consolidado", "_raw_DS_DOCU": "PLAN GENERAL", "_raw_DS_LEY": "CM Ley 9/2001, E Ley 6/1998", "_raw_FC_AC": "2006-10-26", "_raw_NM_AREA_M2": 8799.6500248861994, "_cam_code": "140" }, "geometry": { "type": "Polygon", "coordinates": [ [ [ -3.8763, 40.2095 ], [ -3.8762, 40.209 ], [ -3.8751, 40.2088 ], [ -3.875, 40.2097 ], [ -3.8751, 40.2098 ], [ -3.8763, 40.2095 ] ] ] } },
{ "type": "Feature", "properties": { "municipio": "Serranillos del Valle", "clasificacion": "urbano-consolidado", "calificacion": "sin-asignar", "version": "vigente", "fuente": "SIT-CAM WFS — UsoDelSuelo:VPLA_V_CLASIFICACION (https://idem.comunidad.madrid/geosrvg/ows)", "fecha_dato": "2026-05-12", "ambito": "66444", "_raw_CD_SIGLAS": "SUC", "_raw_DS_CLASIF_GEN": "Suelo Urbano Consolidado", "_raw_DS_CLASIF_DET": "Suelo Urbano Consolidado", "_raw_DS_DOCU": "PLAN GENERAL", "_raw_DS_LEY": "CM Ley 9/2001, E Ley 6/1998", "_raw_FC_AC": "2006-10-26", "_raw_NM_AREA_M2": 130421.714424335, "_cam_code": "140" }, "geometry": { "type": "Polygon", "coordinates": [ [ [ -3.8746, 40.1946 ], [ -3.8724, 40.1979 ], [ -3.8759, 40.1992 ], [ -3.8765, 40.1982 ], [ -3.8767, 40.1981 ], [ -3.8768, 40.1977 ], [ -3.877, 40.1976 ], [ -3.8779, 40.1963 ], [ -3.8775, 40.1963 ], [ -3.8768, 40.1959 ], [ -3.8766, 40.1955 ], [ -3.8762, 40.1954 ], [ -3.8762, 40.1953 ], [ -3.8759, 40.1953 ], [ -3.8759, 40.1952 ], [ -3.8756, 40.1952 ], [ -3.8755, 40.1947 ], [ -3.8746, 40.1946 ] ] ] } },
{ "type": "Feature", "properties": { "municipio": "Serranillos del Valle", "clasificacion": "urbano-no-consolidado", "calificacion": "sin-asignar", "version": "vigente", "fuente": "SIT-CAM WFS — UsoDelSuelo:VPLA_V_CLASIFICACION (https://idem.comunidad.madrid/geosrvg/ows)", "fecha_dato": "2026-05-12", "ambito": "66444", "_raw_CD_SIGLAS": "SUNC", "_raw_DS_CLASIF_GEN": "Suelo Urbano No Consolidado", "_raw_DS_CLASIF_DET": "Suelo Urbano No Consolidado", "_raw_DS_DOCU": "PLAN GENERAL", "_raw_DS_LEY": "CM Ley 9/2001, E Ley 6/1998", "_raw_FC_AC": "2006-10-26", "_raw_NM_AREA_M2": 40086.048904212097, "_cam_code": "140" }, "geometry": { "type": "Polygon", "coordinates": [ [ [ -3.8779, 40.2018 ], [ -3.8778, 40.2029 ], [ -3.8787, 40.203 ], [ -3.8801, 40.203 ], [ -3.8812, 40.2028 ], [ -3.8812, 40.2019 ], [ -3.8795, 40.2018 ], [ -3.8795, 40.2017 ], [ -3.8792, 40.2017 ], [ -3.8789, 40.2016 ], [ -3.8789, 40.2015 ], [ -3.8778, 40.2014 ], [ -3.8778, 40.2018 ], [ -3.8779, 40.2018 ] ] ] } }
]
}
