{
"type": "FeatureCollection",
"name": "vigente.full",
"features": [
{ "type": "Feature", "properties": { "municipio": "Colmenar del Arroyo", "clasificacion": "no-urbanizable-protegido", "calificacion": "sin-asignar", "version": "vigente", "fuente": "SIT-CAM WFS — UsoDelSuelo:VPLA_V_CLASIFICACION (https://idem.comunidad.madrid/geosrvg/ows)", "fecha_dato": "2026-05-12", "ambito": "57", "_raw_CD_SIGLAS": "SNUP", "_raw_DS_CLASIF_GEN": "Suelo No Urbanizable Protegido", "_raw_DS_CLASIF_DET": "Suelo No Urbanizable sujeto a Régimen Normal", "_raw_DS_DOCU": "NORMAS SUBSIDIARIAS", "_raw_DS_LEY": "CM Ley 4/1984, E RD 1346/1976", "_raw_FC_AC": "1988-02-23", "_raw_NM_AREA_M2": 110806.74047396801, "_cam_code": "042" }, "geometry": { "type": "Polygon", "coordinates": [ [ [ -4.2061, 40.4041 ], [ -4.2059, 40.4051 ], [ -4.2055, 40.4062 ], [ -4.2051, 40.4069 ], [ -4.2055, 40.4072 ], [ -4.2063, 40.4068 ], [ -4.2072, 40.4066 ], [ -4.2078, 40.4065 ], [ -4.2083, 40.4067 ], [ -4.2097, 40.4058 ], [ -4.2093, 40.4054 ], [ -4.2089, 40.4047 ], [ -4.2092, 40.4042 ], [ -4.2105, 40.4035 ], [ -4.2108, 40.4031 ], [ -4.2096, 40.4029 ], [ -4.2061, 40.4041 ] ] ] } },
{ "type": "Feature", "properties": { "municipio": "Colmenar del Arroyo", "clasificacion": "no-urbanizable-protegido", "calificacion": "sin-asignar", "version": "vigente", "fuente": "SIT-CAM WFS — UsoDelSuelo:VPLA_V_CLASIFICACION (https://idem.comunidad.madrid/geosrvg/ows)", "fecha_dato": "2026-05-12", "ambito": "57", "_raw_CD_SIGLAS": "SNUP", "_raw_DS_CLASIF_GEN": "Suelo No Urbanizable Protegido", "_raw_DS_CLASIF_DET": "Suelo No Urbanizable sujeto a Régimen Normal", "_raw_DS_DOCU": "NORMAS SUBSIDIARIAS", "_raw_DS_LEY": "CM Ley 4/1984, E RD 1346/1976", "_raw_FC_AC": "1988-02-23", "_raw_NM_AREA_M2": 1219383.6840719599, "_cam_code": "042" }, "geometry": { "type": "Polygon", "coordinates": [ [ [ -4.1935, 40.4031 ], [ -4.1931, 40.4034 ], [ -4.1922, 40.4036 ], [ -4.1917, 40.4039 ], [ -4.1909, 40.4041 ], [ -4.1907, 40.4043 ], [ -4.1907, 40.4046 ], [ -4.1916, 40.4051 ], [ -4.1919, 40.4056 ], [ -4.1921, 40.4065 ], [ -4.1916, 40.4069 ], [ -4.1905, 40.4072 ], [ -4.1881, 40.4071 ], [ -4.1873, 40.4069 ], [ -4.1864, 40.4075 ], [ -4.1838, 40.4079 ], [ -4.182, 40.4092 ], [ -4.1814, 40.4102 ], [ -4.1809, 40.4107 ], [ -4.1796, 40.4113 ], [ -4.1791, 40.4113 ], [ -4.1767, 40.4104 ], [ -4.1758, 40.4087 ], [ -4.1763, 40.4071 ], [ -4.1763, 40.4065 ], [ -4.176, 40.406 ], [ -4.1752, 40.4054 ], [ -4.1751, 40.4041 ], [ -4.1747, 40.4035 ], [ -4.1744, 40.4034 ], [ -4.1741, 40.4035 ], [ -4.1738, 40.4043 ], [ -4.1734, 40.4047 ], [ -4.1726, 40.4051 ], [ -4.1724, 40.4054 ], [ -4.1723, 40.4058 ], [ -4.1728, 40.4063 ], [ -4.1727, 40.4066 ], [ -4.1717, 40.4079 ], [ -4.1718, 40.4083 ], [ -4.1716, 40.4091 ], [ -4.1705, 40.4103 ], [ -4.1702, 40.4109 ], [ -4.1703, 40.4114 ], [ -4.1708, 40.412 ], [ -4.1724, 40.413 ], [ -4.1747, 40.4133 ], [ -4.1764, 40.4132 ], [ -4.181, 40.4139 ], [ -4.1817, 40.4137 ], [ -4.1812, 40.4131 ], [ -4.1814, 40.4127 ], [ -4.1818, 40.4125 ], [ -4.1825, 40.4124 ], [ -4.1829, 40.4125 ], [ -4.1833, 40.4128 ], [ -4.1839, 40.4128 ], [ -4.1845, 40.4126 ], [ -4.1864, 40.4112 ], [ -4.1875, 40.4111 ], [ -4.1876, 40.4106 ], [ -4.1875, 40.4097 ], [ -4.1881, 40.4091 ], [ -4.1891, 40.409 ], [ -4.1902, 40.4092 ], [ -4.1917, 40.4089 ], [ -4.1927, 40.409 ], [ -4.1936, 40.4088 ], [ -4.1945, 40.4081 ], [ -4.1955, 40.4077 ], [ -4.1964, 40.4076 ], [ -4.1971, 40.4067 ], [ -4.2014, 40.4041 ], [ -4.2022, 40.4038 ], [ -4.2012, 40.4034 ], [ -4.1986, 40.4017 ], [ -4.197, 40.4017 ], [ -4.1961, 40.402 ], [ -4.1956, 40.4025 ], [ -4.1953, 40.4026 ], [ -4.1951, 40.4031 ], [ -4.1949, 40.4031 ], [ -4.1947, 40.4033 ], [ -4.1941, 40.4033 ], [ -4.1935, 40.4031 ] ] ] } },
{ "type": "Feature", "properties": { "municipio": "Colmenar del Arroyo", "clasificacion": "no-urbanizable-protegido", "calificacion": "sin-asignar", "version": "vigente", "fuente": "SIT-CAM WFS — UsoDelSuelo:VPLA_V_CLASIFICACION (https://idem.comunidad.madrid/geosrvg/ows)", "fecha_dato": "2026-05-12", "ambito": "57", "_raw_CD_SIGLAS": "SNUP", "_raw_DS_CLASIF_GEN": "Suelo No Urbanizable Protegido", "_raw_DS_CLASIF_DET": "Suelo No Urbanizable Espacialmente Protegido. Protección ganadera y ecológica", "_raw_DS_DOCU": "NORMAS SUBSIDIARIAS", "_raw_DS_LEY": "CM Ley 4/1984, E RD 1346/1976", "_raw_FC_AC": "1988-02-23", "_raw_NM_AREA_M2": 680646.54938811297, "_cam_code": "042" }, "geometry": { "type": "Polygon", "coordinates": [ [ [ -4.1518, 40.358 ], [ -4.1538, 40.3581 ], [ -4.1547, 40.3584 ], [ -4.1573, 40.3577 ], [ -4.1585, 40.3575 ], [ -4.1597, 40.3569 ], [ -4.1604, 40.3568 ], [ -4.1609, 40.3568 ], [ -4.162, 40.3577 ], [ -4.1626, 40.3572 ], [ -4.1621, 40.3567 ], [ -4.1621, 40.3563 ], [ -4.1625, 40.3558 ], [ -4.1661, 40.3559 ], [ -4.1677, 40.3555 ], [ -4.1683, 40.3556 ], [ -4.1696, 40.3551 ], [ -4.1707, 40.355 ], [ -4.1712, 40.3545 ], [ -4.1721, 40.3544 ], [ -4.1729, 40.3541 ], [ -4.1739, 40.354 ], [ -4.1749, 40.3543 ], [ -4.1756, 40.3543 ], [ -4.1758, 40.3541 ], [ -4.1762, 40.354 ], [ -4.1779, 40.3539 ], [ -4.1792, 40.3535 ], [ -4.1821, 40.3523 ], [ -4.1831, 40.3525 ], [ -4.1833, 40.3523 ], [ -4.183, 40.3517 ], [ -4.1832, 40.3513 ], [ -4.1839, 40.3508 ], [ -4.1841, 40.3505 ], [ -4.1847, 40.3504 ], [ -4.1848, 40.3499 ], [ -4.1846, 40.3496 ], [ -4.184, 40.3495 ], [ -4.1839, 40.3491 ], [ -4.1834, 40.3488 ], [ -4.1831, 40.3485 ], [ -4.183, 40.3482 ], [ -4.1827, 40.3481 ], [ -4.1824, 40.3478 ], [ -4.1823, 40.3486 ], [ -4.1812, 40.3512 ], [ -4.179, 40.3515 ], [ -4.1782, 40.3514 ], [ -4.1771, 40.3515 ], [ -4.1754, 40.352 ], [ -4.1729, 40.3532 ], [ -4.172, 40.3535 ], [ -4.1684, 40.354 ], [ -4.1675, 40.3542 ], [ -4.1675, 40.3543 ], [ -4.1664, 40.3543 ], [ -4.1646, 40.3546 ], [ -4.1631, 40.3546 ], [ -4.1584, 40.3539 ], [ -4.157, 40.354 ], [ -4.1561, 40.3542 ], [ -4.1539, 40.3554 ], [ -4.1528, 40.3555 ], [ -4.1513, 40.356 ], [ -4.1511, 40.3564 ], [ -4.1509, 40.3565 ], [ -4.1509, 40.3567 ], [ -4.1512, 40.3573 ], [ -4.1518, 40.358 ] ] ] } },
{ "type": "Feature", "properties": { "municipio": "Colmenar del Arroyo", "clasificacion": "no-urbanizable-protegido", "calificacion": "sin-asignar", "version": "vigente", "fuente": "SIT-CAM WFS — UsoDelSuelo:VPLA_V_CLASIFICACION (https://idem.comunidad.madrid/geosrvg/ows)", "fecha_dato": "2026-05-12", "ambito": "57", "_raw_CD_SIGLAS": "SNUP", "_raw_DS_CLASIF_GEN": "Suelo No Urbanizable Protegido", "_raw_DS_CLASIF_DET": "Suelo No Urbanizable Espacialmente Protegido. Protección Ecológica", "_raw_DS_DOCU": "NORMAS SUBSIDIARIAS", "_raw_DS_LEY": "CM Ley 4/1984, E RD 1346/1976", "_raw_FC_AC": "1988-02-23", "_raw_NM_AREA_M2": 5210185.9467860097, "_cam_code": "042" }, "geometry": { "type": "Polygon", "coordinates": [ [ [ -4.1604, 40.3568 ], [ -4.1601, 40.3574 ], [ -4.16, 40.3581 ], [ -4.1597, 40.3583 ], [ -4.1593, 40.3579 ], [ -4.159, 40.358 ], [ -4.1587, 40.3584 ], [ -4.1587, 40.3596 ], [ -4.1596, 40.3597 ], [ -4.1605, 40.3591 ], [ -4.1609, 40.3591 ], [ -4.1612, 40.3593 ], [ -4.1614, 40.3599 ], [ -4.1608, 40.3601 ], [ -4.1594, 40.3619 ], [ -4.1598, 40.3623 ], [ -4.1605, 40.3619 ], [ -4.1608, 40.3615 ], [ -4.1613, 40.3613 ], [ -4.1618, 40.3614 ], [ -4.162, 40.3616 ], [ -4.1618, 40.3621 ], [ -4.1624, 40.3628 ], [ -4.1629, 40.3629 ], [ -4.163, 40.3631 ], [ -4.1622, 40.3637 ], [ -4.162, 40.3641 ], [ -4.1619, 40.3645 ], [ -4.1622, 40.3649 ], [ -4.1622, 40.3651 ], [ -4.1619, 40.3656 ], [ -4.1614, 40.3658 ], [ -4.1613, 40.3663 ], [ -4.1611, 40.3666 ], [ -4.1612, 40.3672 ], [ -4.1607, 40.3678 ], [ -4.1614, 40.3682 ], [ -4.1625, 40.3682 ], [ -4.163, 40.3685 ], [ -4.1634, 40.3691 ], [ -4.1637, 40.3708 ], [ -4.1643, 40.3724 ], [ -4.1648, 40.3731 ], [ -4.1651, 40.3731 ], [ -4.1652, 40.3729 ], [ -4.1653, 40.372 ], [ -4.1653, 40.3715 ], [ -4.1649, 40.3708 ], [ -4.1649, 40.3702 ], [ -4.1646, 40.3699 ], [ -4.1648, 40.3689 ], [ -4.1646, 40.3682 ], [ -4.1648, 40.368 ], [ -4.1649, 40.3676 ], [ -4.1653, 40.367 ], [ -4.1655, 40.3669 ], [ -4.1666, 40.3672 ], [ -4.1679, 40.3684 ], [ -4.1681, 40.3698 ], [ -4.168, 40.3717 ], [ -4.169, 40.3739 ], [ -4.1687, 40.3745 ], [ -4.1689, 40.3751 ], [ -4.1691, 40.3755 ], [ -4.1703, 40.3759 ], [ -4.1707, 40.3763 ], [ -4.1707, 40.3769 ], [ -4.1709, 40.377 ], [ -4.1715, 40.3769 ], [ -4.1716, 40.3771 ], [ -4.1716, 40.378 ], [ -4.1721, 40.3782 ], [ -4.1721, 40.3784 ], [ -4.1718, 40.3785 ], [ -4.1716, 40.3792 ], [ -4.1725, 40.379 ], [ -4.1733, 40.3786 ], [ -4.1735, 40.3788 ], [ -4.1735, 40.3791 ], [ -4.173, 40.38 ], [ -4.1734, 40.3804 ], [ -4.1736, 40.3815 ], [ -4.1739, 40.3817 ], [ -4.175, 40.3819 ], [ -4.176, 40.3819 ], [ -4.1759, 40.3813 ], [ -4.1755, 40.3806 ], [ -4.1757, 40.3804 ], [ -4.1765, 40.3802 ], [ -4.1765, 40.3799 ], [ -4.1763, 40.3796 ], [ -4.1754, 40.3791 ], [ -4.1749, 40.3779 ], [ -4.1749, 40.3774 ], [ -4.1747, 40.3771 ], [ -4.1736, 40.3767 ], [ -4.1732, 40.3764 ], [ -4.1724, 40.3744 ], [ -4.1725, 40.3737 ], [ -4.1723, 40.3727 ], [ -4.1716, 40.372 ], [ -4.1714, 40.3714 ], [ -4.1705, 40.3707 ], [ -4.1693, 40.3692 ], [ -4.1693, 40.3688 ], [ -4.1697, 40.3685 ], [ -4.1709, 40.3682 ], [ -4.1714, 40.3684 ], [ -4.1723, 40.3685 ], [ -4.1729, 40.3683 ], [ -4.1747, 40.3684 ], [ -4.175, 40.3689 ], [ -4.1754, 40.3689 ], [ -4.1758, 40.3693 ], [ -4.1762, 40.3694 ], [ -4.1764, 40.371 ], [ -4.1767, 40.3714 ], [ -4.177, 40.3722 ], [ -4.177, 40.3727 ], [ -4.1772, 40.3731 ], [ -4.1782, 40.374 ], [ -4.1785, 40.3745 ], [ -4.1786, 40.3752 ], [ -4.1788, 40.3756 ], [ -4.1791, 40.3758 ], [ -4.1798, 40.3756 ], [ -4.1809, 40.3762 ], [ -4.1813, 40.3762 ], [ -4.1821, 40.3756 ], [ -4.1818, 40.3755 ], [ -4.1808, 40.3747 ], [ -4.1806, 40.3743 ], [ -4.1803, 40.3728 ], [ -4.1809, 40.3726 ], [ -4.1818, 40.3728 ], [ -4.1825, 40.3719 ], [ -4.1822, 40.3712 ], [ -4.183, 40.371 ], [ -4.1849, 40.3714 ], [ -4.1862, 40.3713 ], [ -4.1882, 40.3716 ], [ -4.1885, 40.3711 ], [ -4.1884, 40.3704 ], [ -4.1893, 40.3692 ], [ -4.1892, 40.369 ], [ -4.1906, 40.3682 ], [ -4.1921, 40.3679 ], [ -4.1929, 40.3679 ], [ -4.1939, 40.3676 ], [ -4.1946, 40.3678 ], [ -4.1952, 40.3677 ], [ -4.1954, 40.3678 ], [ -4.1956, 40.3683 ], [ -4.1976, 40.3666 ], [ -4.1974, 40.3661 ], [ -4.1972, 40.3645 ], [ -4.1971, 40.3644 ], [ -4.1967, 40.3642 ], [ -4.1961, 40.3645 ], [ -4.1956, 40.3645 ], [ -4.195, 40.3642 ], [ -4.1952, 40.3632 ], [ -4.1958, 40.3628 ], [ -4.1959, 40.3626 ], [ -4.1963, 40.3625 ], [ -4.1966, 40.3622 ], [ -4.1968, 40.3616 ], [ -4.1975, 40.3613 ], [ -4.1972, 40.3608 ], [ -4.1968, 40.3606 ], [ -4.1954, 40.3603 ], [ -4.1947, 40.3597 ], [ -4.1937, 40.3597 ], [ -4.1935, 40.3595 ], [ -4.1934, 40.3591 ], [ -4.193, 40.359 ], [ -4.193, 40.3589 ], [ -4.1918, 40.3589 ], [ -4.1902, 40.3593 ], [ -4.1897, 40.3593 ], [ -4.1893, 40.3595 ], [ -4.1893, 40.3596 ], [ -4.1889, 40.3597 ], [ -4.1882, 40.3597 ], [ -4.188, 40.3595 ], [ -4.1881, 40.3593 ], [ -4.188, 40.3588 ], [ -4.1876, 40.3583 ], [ -4.1877, 40.3578 ], [ -4.188, 40.3576 ], [ -4.1877, 40.3569 ], [ -4.1867, 40.3571 ], [ -4.1866, 40.3573 ], [ -4.1858, 40.3574 ], [ -4.1857, 40.357 ], [ -4.1855, 40.357 ], [ -4.185, 40.3566 ], [ -4.185, 40.3562 ], [ -4.1848, 40.3558 ], [ -4.1849, 40.3553 ], [ -4.1853, 40.3552 ], [ -4.1857, 40.3555 ], [ -4.1872, 40.3555 ], [ -4.1874, 40.3552 ], [ -4.1877, 40.3541 ], [ -4.1885, 40.3544 ], [ -4.1885, 40.3545 ], [ -4.1889, 40.3544 ], [ -4.1889, 40.3541 ], [ -4.1885, 40.3536 ], [ -4.1879, 40.3533 ], [ -4.1879, 40.353 ], [ -4.1881, 40.353 ], [ -4.1887, 40.3524 ], [ -4.1887, 40.3521 ], [ -4.1885, 40.3519 ], [ -4.1881, 40.352 ], [ -4.1872, 40.3519 ], [ -4.1869, 40.3516 ], [ -4.1863, 40.3515 ], [ -4.1859, 40.3516 ], [ -4.1859, 40.3515 ], [ -4.1857, 40.3515 ], [ -4.1856, 40.351 ], [ -4.1858, 40.3508 ], [ -4.1859, 40.3504 ], [ -4.1858, 40.3501 ], [ -4.185, 40.3502 ], [ -4.1848, 40.35 ], [ -4.1847, 40.3504 ], [ -4.1841, 40.3505 ], [ -4.1839, 40.3508 ], [ -4.1835, 40.351 ], [ -4.183, 40.3517 ], [ -4.1833, 40.3523 ], [ -4.1831, 40.3525 ], [ -4.1821, 40.3523 ], [ -4.1792, 40.3535 ], [ -4.1779, 40.3539 ], [ -4.1762, 40.354 ], [ -4.1758, 40.3541 ], [ -4.1756, 40.3543 ], [ -4.1749, 40.3543 ], [ -4.1739, 40.354 ], [ -4.1729, 40.3541 ], [ -4.1721, 40.3544 ], [ -4.1712, 40.3545 ], [ -4.1707, 40.355 ], [ -4.1696, 40.3551 ], [ -4.1683, 40.3556 ], [ -4.1677, 40.3555 ], [ -4.1661, 40.3559 ], [ -4.1625, 40.3558 ], [ -4.1621, 40.3563 ], [ -4.1621, 40.3567 ], [ -4.1626, 40.3572 ], [ -4.162, 40.3577 ], [ -4.1609, 40.3568 ], [ -4.1604, 40.3568 ] ] ] } },
{ "type": "Feature", "properties": { "municipio": "Colmenar del Arroyo", "clasificacion": "no-urbanizable-protegido", "calificacion": "sin-asignar", "version": "vigente", "fuente": "SIT-CAM WFS — UsoDelSuelo:VPLA_V_CLASIFICACION (https://idem.comunidad.madrid/geosrvg/ows)", "fecha_dato": "2026-05-12", "ambito": "57", "_raw_CD_SIGLAS": "SNUP", "_raw_DS_CLASIF_GEN": "Suelo No Urbanizable Protegido", "_raw_DS_CLASIF_DET": "Suelo No Urbanizable Espacialmente Protegido. Protección ganadera", "_raw_DS_DOCU": "NORMAS SUBSIDIARIAS", "_raw_DS_LEY": "CM Ley 4/1984, E RD 1346/1976", "_raw_FC_AC": "1988-02-23", "_raw_NM_AREA_M2": 2123288.0186914201, "_cam_code": "042" }, "geometry": { "type": "Polygon", "coordinates": [ [ [ -4.1706, 40.3956 ], [ -4.171, 40.3958 ], [ -4.1717, 40.3959 ], [ -4.1736, 40.3959 ], [ -4.1749, 40.3961 ], [ -4.1765, 40.396 ], [ -4.1783, 40.3961 ], [ -4.1807, 40.3959 ], [ -4.1813, 40.3965 ], [ -4.1816, 40.3963 ], [ -4.1884, 40.3939 ], [ -4.1933, 40.3919 ], [ -4.1944, 40.3919 ], [ -4.1932, 40.3906 ], [ -4.1926, 40.3895 ], [ -4.1927, 40.3893 ], [ -4.1926, 40.3891 ], [ -4.1922, 40.3889 ], [ -4.1915, 40.3881 ], [ -4.1911, 40.388 ], [ -4.191, 40.3879 ], [ -4.191, 40.3874 ], [ -4.1902, 40.3869 ], [ -4.1902, 40.3865 ], [ -4.19, 40.3862 ], [ -4.1901, 40.3862 ], [ -4.1902, 40.3859 ], [ -4.1901, 40.3854 ], [ -4.1903, 40.3853 ], [ -4.1903, 40.3848 ], [ -4.191, 40.3847 ], [ -4.1912, 40.3845 ], [ -4.1903, 40.384 ], [ -4.1893, 40.3828 ], [ -4.1889, 40.3828 ], [ -4.1887, 40.3826 ], [ -4.1885, 40.3826 ], [ -4.1883, 40.3822 ], [ -4.1879, 40.382 ], [ -4.1877, 40.3815 ], [ -4.1867, 40.3805 ], [ -4.1866, 40.379 ], [ -4.1868, 40.3785 ], [ -4.187, 40.3786 ], [ -4.1879, 40.3777 ], [ -4.1873, 40.3769 ], [ -4.1872, 40.3765 ], [ -4.186, 40.3759 ], [ -4.1851, 40.3757 ], [ -4.1841, 40.3758 ], [ -4.1837, 40.3764 ], [ -4.1826, 40.3771 ], [ -4.1821, 40.3776 ], [ -4.182, 40.378 ], [ -4.1814, 40.3783 ], [ -4.1813, 40.3787 ], [ -4.1813, 40.379 ], [ -4.1815, 40.3793 ], [ -4.1814, 40.3796 ], [ -4.1807, 40.3802 ], [ -4.1804, 40.3808 ], [ -4.1798, 40.381 ], [ -4.1788, 40.3821 ], [ -4.1775, 40.3829 ], [ -4.176, 40.3846 ], [ -4.175, 40.3853 ], [ -4.1748, 40.3856 ], [ -4.175, 40.3873 ], [ -4.1757, 40.3885 ], [ -4.1765, 40.3892 ], [ -4.1784, 40.3896 ], [ -4.1793, 40.3903 ], [ -4.1803, 40.3907 ], [ -4.1813, 40.3908 ], [ -4.183, 40.3907 ], [ -4.1832, 40.3911 ], [ -4.1832, 40.3916 ], [ -4.1826, 40.3929 ], [ -4.182, 40.3934 ], [ -4.1812, 40.3936 ], [ -4.1797, 40.3939 ], [ -4.1784, 40.3939 ], [ -4.1775, 40.3935 ], [ -4.1763, 40.3925 ], [ -4.1748, 40.3921 ], [ -4.1743, 40.3922 ], [ -4.1727, 40.3938 ], [ -4.1727, 40.3942 ], [ -4.1718, 40.3946 ], [ -4.1714, 40.3946 ], [ -4.1706, 40.3956 ] ] ] } },
{ "type": "Feature", "properties": { "municipio": "Colmenar del Arroyo", "clasificacion": "no-urbanizable-protegido", "calificacion": "sin-asignar", "version": "vigente", "fuente": "SIT-CAM WFS — UsoDelSuelo:VPLA_V_CLASIFICACION (https://idem.comunidad.madrid/geosrvg/ows)", "fecha_dato": "2026-05-12", "ambito": "57", "_raw_CD_SIGLAS": "SNUP", "_raw_DS_CLASIF_GEN": "Suelo No Urbanizable Protegido", "_raw_DS_CLASIF_DET": "Suelo No Urbanizable sujeto a Régimen Normal", "_raw_DS_DOCU": "NORMAS SUBSIDIARIAS", "_raw_DS_LEY": "CM Ley 4/1984, E RD 1346/1976", "_raw_FC_AC": "1988-02-23", "_raw_NM_AREA_M2": 6711733.4036747403, "_cam_code": "042" }, "geometry": { "type": "Polygon", "coordinates": [ [ [ -4.1492, 40.3716 ], [ -4.1497, 40.3715 ], [ -4.1516, 40.3731 ], [ -4.1541, 40.374 ], [ -4.1548, 40.3752 ], [ -4.1547, 40.3759 ], [ -4.1542, 40.3768 ], [ -4.1545, 40.3774 ], [ -4.1549, 40.3776 ], [ -4.1555, 40.3786 ], [ -4.1568, 40.3794 ], [ -4.1582, 40.3798 ], [ -4.158, 40.3802 ], [ -4.1579, 40.3809 ], [ -4.1588, 40.3823 ], [ -4.1594, 40.3841 ], [ -4.1605, 40.3845 ], [ -4.1605, 40.3847 ], [ -4.1599, 40.385 ], [ -4.1606, 40.3859 ], [ -4.1613, 40.3875 ], [ -4.1613, 40.3881 ], [ -4.1611, 40.3885 ], [ -4.1608, 40.39 ], [ -4.1619, 40.3906 ], [ -4.1621, 40.3913 ], [ -4.1627, 40.3919 ], [ -4.1629, 40.3923 ], [ -4.1628, 40.3931 ], [ -4.163, 40.3937 ], [ -4.1638, 40.3937 ], [ -4.166, 40.395 ], [ -4.1661, 40.3954 ], [ -4.1666, 40.396 ], [ -4.1664, 40.3962 ], [ -4.1664, 40.3969 ], [ -4.1667, 40.397 ], [ -4.1672, 40.3969 ], [ -4.1682, 40.3964 ], [ -4.169, 40.3964 ], [ -4.1691, 40.396 ], [ -4.1706, 40.3956 ], [ -4.1714, 40.3946 ], [ -4.1718, 40.3946 ], [ -4.1727, 40.3942 ], [ -4.1727, 40.3938 ], [ -4.1743, 40.3922 ], [ -4.1748, 40.3921 ], [ -4.1763, 40.3925 ], [ -4.1775, 40.3935 ], [ -4.1784, 40.3939 ], [ -4.1797, 40.3939 ], [ -4.1812, 40.3936 ], [ -4.182, 40.3934 ], [ -4.1826, 40.3929 ], [ -4.1832, 40.3916 ], [ -4.1832, 40.3911 ], [ -4.183, 40.3907 ], [ -4.1825, 40.3908 ], [ -4.1803, 40.3907 ], [ -4.1793, 40.3903 ], [ -4.1784, 40.3896 ], [ -4.1765, 40.3892 ], [ -4.1757, 40.3885 ], [ -4.175, 40.3873 ], [ -4.1748, 40.3856 ], [ -4.175, 40.3853 ], [ -4.176, 40.3846 ], [ -4.1775, 40.3829 ], [ -4.1788, 40.3821 ], [ -4.1798, 40.381 ], [ -4.1804, 40.3808 ], [ -4.1807, 40.3802 ], [ -4.1814, 40.3796 ], [ -4.1815, 40.3793 ], [ -4.1813, 40.379 ], [ -4.1814, 40.3783 ], [ -4.182, 40.378 ], [ -4.1821, 40.3776 ], [ -4.1826, 40.3771 ], [ -4.1837, 40.3764 ], [ -4.1841, 40.3758 ], [ -4.1851, 40.3757 ], [ -4.186, 40.3759 ], [ -4.1869, 40.3763 ], [ -4.1872, 40.3765 ], [ -4.1873, 40.3769 ], [ -4.1879, 40.3777 ], [ -4.1895, 40.3759 ], [ -4.1916, 40.3739 ], [ -4.1916, 40.3736 ], [ -4.1917, 40.3736 ], [ -4.1919, 40.3731 ], [ -4.1926, 40.3726 ], [ -4.1929, 40.372 ], [ -4.1932, 40.3718 ], [ -4.1935, 40.3713 ], [ -4.1945, 40.3703 ], [ -4.1947, 40.37 ], [ -4.1947, 40.3697 ], [ -4.1957, 40.3685 ], [ -4.1954, 40.3678 ], [ -4.1952, 40.3677 ], [ -4.1946, 40.3678 ], [ -4.1939, 40.3676 ], [ -4.1929, 40.3679 ], [ -4.1921, 40.3679 ], [ -4.1906, 40.3682 ], [ -4.1892, 40.369 ], [ -4.1893, 40.3692 ], [ -4.1884, 40.3704 ], [ -4.1885, 40.3711 ], [ -4.1882, 40.3716 ], [ -4.1862, 40.3713 ], [ -4.1849, 40.3714 ], [ -4.183, 40.371 ], [ -4.1822, 40.3712 ], [ -4.1825, 40.3719 ], [ -4.1818, 40.3728 ], [ -4.1809, 40.3726 ], [ -4.1803, 40.3728 ], [ -4.1806, 40.3743 ], [ -4.1808, 40.3747 ], [ -4.1818, 40.3755 ], [ -4.1821, 40.3756 ], [ -4.1813, 40.3762 ], [ -4.1809, 40.3762 ], [ -4.1798, 40.3756 ], [ -4.1791, 40.3758 ], [ -4.1788, 40.3756 ], [ -4.1786, 40.3752 ], [ -4.1785, 40.3745 ], [ -4.1782, 40.374 ], [ -4.1772, 40.3731 ], [ -4.177, 40.3727 ], [ -4.177, 40.3722 ], [ -4.1767, 40.3714 ], [ -4.1764, 40.371 ], [ -4.1762, 40.3694 ], [ -4.1758, 40.3693 ], [ -4.1754, 40.3689 ], [ -4.175, 40.3689 ], [ -4.1747, 40.3684 ], [ -4.1729, 40.3683 ], [ -4.1723, 40.3685 ], [ -4.1714, 40.3684 ], [ -4.1709, 40.3682 ], [ -4.1697, 40.3685 ], [ -4.1693, 40.3688 ], [ -4.1693, 40.3692 ], [ -4.1705, 40.3707 ], [ -4.1714, 40.3714 ], [ -4.1716, 40.372 ], [ -4.1723, 40.3727 ], [ -4.1725, 40.3737 ], [ -4.1724, 40.3744 ], [ -4.1732, 40.3764 ], [ -4.1736, 40.3767 ], [ -4.1747, 40.3771 ], [ -4.1749, 40.3774 ], [ -4.1749, 40.3779 ], [ -4.1754, 40.3791 ], [ -4.1763, 40.3796 ], [ -4.1765, 40.3799 ], [ -4.1765, 40.3802 ], [ -4.1757, 40.3804 ], [ -4.1755, 40.3806 ], [ -4.1759, 40.3813 ], [ -4.176, 40.3819 ], [ -4.175, 40.3819 ], [ -4.1739, 40.3817 ], [ -4.1736, 40.3815 ], [ -4.1734, 40.3804 ], [ -4.173, 40.38 ], [ -4.1735, 40.3791 ], [ -4.1735, 40.3788 ], [ -4.1733, 40.3786 ], [ -4.1725, 40.379 ], [ -4.1716, 40.3792 ], [ -4.1718, 40.3785 ], [ -4.1721, 40.3784 ], [ -4.1721, 40.3782 ], [ -4.1716, 40.378 ], [ -4.1716, 40.3771 ], [ -4.1715, 40.3769 ], [ -4.1712, 40.377 ], [ -4.1707, 40.3769 ], [ -4.1707, 40.3763 ], [ -4.1703, 40.3759 ], [ -4.1691, 40.3755 ], [ -4.1689, 40.3751 ], [ -4.1687, 40.3745 ], [ -4.169, 40.3739 ], [ -4.168, 40.3717 ], [ -4.1681, 40.3698 ], [ -4.1679, 40.3684 ], [ -4.1666, 40.3672 ], [ -4.1655, 40.3669 ], [ -4.1653, 40.367 ], [ -4.1649, 40.3676 ], [ -4.1648, 40.368 ], [ -4.1646, 40.3682 ], [ -4.1648, 40.3689 ], [ -4.1646, 40.3699 ], [ -4.1649, 40.3702 ], [ -4.1649, 40.3708 ], [ -4.1653, 40.3715 ], [ -4.1653, 40.372 ], [ -4.1652, 40.3729 ], [ -4.1651, 40.3731 ], [ -4.1648, 40.3731 ], [ -4.1643, 40.3724 ], [ -4.1637, 40.3708 ], [ -4.1634, 40.3691 ], [ -4.163, 40.3685 ], [ -4.1625, 40.3682 ], [ -4.1614, 40.3682 ], [ -4.1607, 40.3678 ], [ -4.1612, 40.3672 ], [ -4.1611, 40.3666 ], [ -4.1613, 40.3663 ], [ -4.1614, 40.3658 ], [ -4.1619, 40.3656 ], [ -4.1622, 40.3651 ], [ -4.1622, 40.3649 ], [ -4.1619, 40.3645 ], [ -4.162, 40.3641 ], [ -4.1622, 40.3637 ], [ -4.163, 40.3631 ], [ -4.1629, 40.3629 ], [ -4.1624, 40.3628 ], [ -4.1618, 40.3621 ], [ -4.162, 40.3616 ], [ -4.1618, 40.3614 ], [ -4.1613, 40.3613 ], [ -4.1608, 40.3615 ], [ -4.1605, 40.3619 ], [ -4.1598, 40.3623 ], [ -4.1594, 40.3619 ], [ -4.1608, 40.3601 ], [ -4.1614, 40.3599 ], [ -4.1612, 40.3593 ], [ -4.1609, 40.3591 ], [ -4.1605, 40.3591 ], [ -4.1596, 40.3597 ], [ -4.1587, 40.3596 ], [ -4.1587, 40.3584 ], [ -4.159, 40.358 ], [ -4.1593, 40.3579 ], [ -4.1597, 40.3583 ], [ -4.16, 40.3581 ], [ -4.1601, 40.3574 ], [ -4.1604, 40.3568 ], [ -4.1597, 40.3569 ], [ -4.1585, 40.3575 ], [ -4.1573, 40.3577 ], [ -4.1547, 40.3584 ], [ -4.1538, 40.3581 ], [ -4.1518, 40.358 ], [ -4.152, 40.3586 ], [ -4.152, 40.3591 ], [ -4.1514, 40.3616 ], [ -4.1514, 40.3624 ], [ -4.1501, 40.3633 ], [ -4.1485, 40.3641 ], [ -4.1482, 40.3644 ], [ -4.1477, 40.3646 ], [ -4.1469, 40.3647 ], [ -4.147, 40.3653 ], [ -4.1475, 40.3662 ], [ -4.1475, 40.3666 ], [ -4.1465, 40.3673 ], [ -4.1463, 40.3677 ], [ -4.1464, 40.3683 ], [ -4.1475, 40.3697 ], [ -4.1476, 40.3705 ], [ -4.1492, 40.3716 ] ] ] } },
{ "type": "Feature", "properties": { "municipio": "Colmenar del Arroyo", "clasificacion": "no-urbanizable-protegido", "calificacion": "sin-asignar", "version": "vigente", "fuente": "SIT-CAM WFS — UsoDelSuelo:VPLA_V_CLASIFICACION (https://idem.comunidad.madrid/geosrvg/ows)", "fecha_dato": "2026-05-12", "ambito": "57", "_raw_CD_SIGLAS": "SNUP", "_raw_DS_CLASIF_GEN": "Suelo No Urbanizable Protegido", "_raw_DS_CLASIF_DET": "Suelo No Urbanizable Espacialmente Protegido. Protección ganadera y ecológica", "_raw_DS_DOCU": "NORMAS SUBSIDIARIAS", "_raw_DS_LEY": "CM Ley 4/1984, E RD 1346/1976", "_raw_FC_AC": "1988-02-23", "_raw_NM_AREA_M2": 447057.23957888799, "_cam_code": "042" }, "geometry": { "type": "Polygon", "coordinates": [ [ [ -4.1699, 40.4127 ], [ -4.1679, 40.4133 ], [ -4.1635, 40.4153 ], [ -4.1622, 40.4155 ], [ -4.1619, 40.416 ], [ -4.1622, 40.4166 ], [ -4.1625, 40.4168 ], [ -4.1634, 40.4169 ], [ -4.1642, 40.4172 ], [ -4.1642, 40.4178 ], [ -4.1654, 40.4189 ], [ -4.1659, 40.419 ], [ -4.1662, 40.4192 ], [ -4.1664, 40.4197 ], [ -4.1668, 40.42 ], [ -4.167, 40.42 ], [ -4.1687, 40.4191 ], [ -4.1696, 40.419 ], [ -4.1705, 40.4187 ], [ -4.1712, 40.4187 ], [ -4.1713, 40.4185 ], [ -4.1711, 40.4178 ], [ -4.172, 40.4173 ], [ -4.1726, 40.4172 ], [ -4.173, 40.4165 ], [ -4.1727, 40.4162 ], [ -4.1725, 40.4143 ], [ -4.1719, 40.4138 ], [ -4.1719, 40.4133 ], [ -4.1717, 40.413 ], [ -4.1712, 40.4128 ], [ -4.1699, 40.4127 ] ] ] } },
{ "type": "Feature", "properties": { "municipio": "Colmenar del Arroyo", "clasificacion": "no-urbanizable-protegido", "calificacion": "sin-asignar", "version": "vigente", "fuente": "SIT-CAM WFS — UsoDelSuelo:VPLA_V_CLASIFICACION (https://idem.comunidad.madrid/geosrvg/ows)", "fecha_dato": "2026-05-12", "ambito": "57", "_raw_CD_SIGLAS": "SNUP", "_raw_DS_CLASIF_GEN": "Suelo No Urbanizable Protegido", "_raw_DS_CLASIF_DET": "Suelo No Urbanizable Espacialmente Protegido. Protección ganadera", "_raw_DS_DOCU": "NORMAS SUBSIDIARIAS", "_raw_DS_LEY": "CM Ley 4/1984, E RD 1346/1976", "_raw_FC_AC": "1988-02-23", "_raw_NM_AREA_M2": 25302460.591235701, "_cam_code": "042" }, "geometry": { "type": "Polygon", "coordinates": [ [ [ -4.1804, 40.4416 ], [ -4.1818, 40.4433 ], [ -4.185, 40.4449 ], [ -4.1897, 40.4476 ], [ -4.1936, 40.4509 ], [ -4.1973, 40.4533 ], [ -4.2006, 40.4552 ], [ -4.2059, 40.455 ], [ -4.2072, 40.454 ], [ -4.207, 40.4531 ], [ -4.2085, 40.4515 ], [ -4.2144, 40.4478 ], [ -4.2189, 40.4393 ], [ -4.2247, 40.4421 ], [ -4.2248, 40.4405 ], [ -4.2242, 40.4382 ], [ -4.2238, 40.4353 ], [ -4.2246, 40.433 ], [ -4.2245, 40.4321 ], [ -4.2241, 40.4314 ], [ -4.2237, 40.431 ], [ -4.2207, 40.43 ], [ -4.2197, 40.4295 ], [ -4.2191, 40.4294 ], [ -4.2162, 40.4294 ], [ -4.2156, 40.4296 ], [ -4.2151, 40.4292 ], [ -4.2146, 40.4285 ], [ -4.2137, 40.4284 ], [ -4.2134, 40.428 ], [ -4.2136, 40.4274 ], [ -4.214, 40.4271 ], [ -4.2151, 40.4258 ], [ -4.2151, 40.4254 ], [ -4.2146, 40.4245 ], [ -4.2147, 40.4237 ], [ -4.2138, 40.4232 ], [ -4.2132, 40.4232 ], [ -4.2123, 40.4227 ], [ -4.2107, 40.4222 ], [ -4.2099, 40.4223 ], [ -4.2088, 40.4221 ], [ -4.2083, 40.4224 ], [ -4.208, 40.423 ], [ -4.2072, 40.4233 ], [ -4.2057, 40.4234 ], [ -4.2049, 40.4241 ], [ -4.204, 40.4242 ], [ -4.2033, 40.4245 ], [ -4.2043, 40.4248 ], [ -4.2046, 40.4251 ], [ -4.2047, 40.4259 ], [ -4.2058, 40.4268 ], [ -4.2071, 40.427 ], [ -4.2085, 40.4275 ], [ -4.2082, 40.428 ], [ -4.208, 40.4279 ], [ -4.2067, 40.428 ], [ -4.2056, 40.4278 ], [ -4.2037, 40.428 ], [ -4.2031, 40.4284 ], [ -4.2025, 40.4292 ], [ -4.2021, 40.4293 ], [ -4.2017, 40.4292 ], [ -4.2014, 40.4295 ], [ -4.2011, 40.4296 ], [ -4.2006, 40.4296 ], [ -4.2001, 40.4289 ], [ -4.1996, 40.4287 ], [ -4.1986, 40.4286 ], [ -4.1972, 40.4291 ], [ -4.1965, 40.4298 ], [ -4.1951, 40.4303 ], [ -4.1933, 40.4302 ], [ -4.1926, 40.4306 ], [ -4.1925, 40.4308 ], [ -4.192, 40.4309 ], [ -4.1911, 40.4307 ], [ -4.1897, 40.4309 ], [ -4.1887, 40.4308 ], [ -4.1877, 40.431 ], [ -4.1873, 40.431 ], [ -4.1869, 40.4308 ], [ -4.1859, 40.4309 ], [ -4.1855, 40.4305 ], [ -4.1914, 40.4269 ], [ -4.1919, 40.4264 ], [ -4.1921, 40.4259 ], [ -4.1919, 40.425 ], [ -4.192, 40.4248 ], [ -4.1922, 40.4247 ], [ -4.1922, 40.4248 ], [ -4.1936, 40.4235 ], [ -4.193, 40.4231 ], [ -4.1926, 40.4226 ], [ -4.1923, 40.4226 ], [ -4.1922, 40.4222 ], [ -4.1918, 40.4218 ], [ -4.1912, 40.4223 ], [ -4.1901, 40.4227 ], [ -4.1898, 40.4227 ], [ -4.1869, 40.4207 ], [ -4.1871, 40.4202 ], [ -4.1876, 40.4199 ], [ -4.1879, 40.4195 ], [ -4.1878, 40.4187 ], [ -4.1906, 40.418 ], [ -4.1915, 40.4174 ], [ -4.1919, 40.4167 ], [ -4.1918, 40.4156 ], [ -4.1919, 40.4155 ], [ -4.1933, 40.4153 ], [ -4.1939, 40.415 ], [ -4.1945, 40.414 ], [ -4.1949, 40.4137 ], [ -4.1947, 40.4137 ], [ -4.1947, 40.4136 ], [ -4.1952, 40.413 ], [ -4.1984, 40.4115 ], [ -4.1986, 40.4116 ], [ -4.1988, 40.4115 ], [ -4.199, 40.4117 ], [ -4.1998, 40.4116 ], [ -4.2001, 40.4123 ], [ -4.2002, 40.4132 ], [ -4.2004, 40.4133 ], [ -4.2008, 40.4139 ], [ -4.2013, 40.4141 ], [ -4.2017, 40.4148 ], [ -4.2017, 40.4151 ], [ -4.2031, 40.4155 ], [ -4.2029, 40.4161 ], [ -4.203, 40.4165 ], [ -4.2044, 40.4168 ], [ -4.2047, 40.4164 ], [ -4.2052, 40.4161 ], [ -4.2056, 40.4161 ], [ -4.2059, 40.4163 ], [ -4.2063, 40.4175 ], [ -4.2063, 40.418 ], [ -4.207, 40.4181 ], [ -4.2073, 40.4183 ], [ -4.2081, 40.4183 ], [ -4.2082, 40.4178 ], [ -4.2103, 40.4181 ], [ -4.2104, 40.4179 ], [ -4.2103, 40.4175 ], [ -4.2107, 40.4164 ], [ -4.2122, 40.416 ], [ -4.2131, 40.4156 ], [ -4.2153, 40.4142 ], [ -4.2184, 40.4132 ], [ -4.2194, 40.4131 ], [ -4.2203, 40.4132 ], [ -4.2206, 40.4139 ], [ -4.2208, 40.414 ], [ -4.2216, 40.4136 ], [ -4.2233, 40.4138 ], [ -4.2238, 40.4142 ], [ -4.2241, 40.4148 ], [ -4.2239, 40.4151 ], [ -4.2239, 40.4161 ], [ -4.2237, 40.4165 ], [ -4.2237, 40.4169 ], [ -4.2241, 40.417 ], [ -4.2246, 40.4167 ], [ -4.2263, 40.4168 ], [ -4.229, 40.4159 ], [ -4.2298, 40.4158 ], [ -4.2306, 40.4154 ], [ -4.2325, 40.4153 ], [ -4.2344, 40.4158 ], [ -4.2357, 40.4157 ], [ -4.2381, 40.4149 ], [ -4.2396, 40.415 ], [ -4.2404, 40.4149 ], [ -4.2417, 40.4145 ], [ -4.2436, 40.4148 ], [ -4.2444, 40.4137 ], [ -4.2452, 40.413 ], [ -4.2503, 40.4071 ], [ -4.2531, 40.4053 ], [ -4.2501, 40.4012 ], [ -4.2464, 40.3958 ], [ -4.2434, 40.3953 ], [ -4.2411, 40.3957 ], [ -4.2356, 40.3933 ], [ -4.2326, 40.3941 ], [ -4.2312, 40.3952 ], [ -4.2276, 40.397 ], [ -4.2263, 40.3982 ], [ -4.2259, 40.3979 ], [ -4.2233, 40.3997 ], [ -4.2216, 40.4012 ], [ -4.2172, 40.4039 ], [ -4.2156, 40.4022 ], [ -4.2139, 40.4027 ], [ -4.2108, 40.4031 ], [ -4.2105, 40.4035 ], [ -4.2092, 40.4042 ], [ -4.2089, 40.4047 ], [ -4.2093, 40.4054 ], [ -4.2097, 40.4058 ], [ -4.2083, 40.4067 ], [ -4.2078, 40.4065 ], [ -4.2072, 40.4066 ], [ -4.2063, 40.4068 ], [ -4.2055, 40.4072 ], [ -4.2051, 40.4069 ], [ -4.2055, 40.4062 ], [ -4.2059, 40.4051 ], [ -4.2061, 40.4041 ], [ -4.206, 40.4042 ], [ -4.2028, 40.4041 ], [ -4.2022, 40.4038 ], [ -4.2014, 40.4041 ], [ -4.1971, 40.4067 ], [ -4.1964, 40.4076 ], [ -4.1955, 40.4077 ], [ -4.1945, 40.4081 ], [ -4.1936, 40.4088 ], [ -4.1927, 40.409 ], [ -4.1917, 40.4089 ], [ -4.1902, 40.4092 ], [ -4.1891, 40.409 ], [ -4.1881, 40.4091 ], [ -4.1875, 40.4097 ], [ -4.1876, 40.4106 ], [ -4.1875, 40.4111 ], [ -4.1864, 40.4112 ], [ -4.1845, 40.4126 ], [ -4.1839, 40.4128 ], [ -4.1833, 40.4128 ], [ -4.1829, 40.4125 ], [ -4.1825, 40.4124 ], [ -4.1818, 40.4125 ], [ -4.1814, 40.4127 ], [ -4.1812, 40.4131 ], [ -4.1817, 40.4137 ], [ -4.181, 40.4139 ], [ -4.1764, 40.4132 ], [ -4.1747, 40.4133 ], [ -4.1724, 40.413 ], [ -4.1708, 40.412 ], [ -4.1703, 40.4114 ], [ -4.1702, 40.4109 ], [ -4.1705, 40.4103 ], [ -4.1716, 40.4091 ], [ -4.1718, 40.4083 ], [ -4.1717, 40.4079 ], [ -4.1727, 40.4066 ], [ -4.1728, 40.4063 ], [ -4.1723, 40.4058 ], [ -4.1724, 40.4054 ], [ -4.1726, 40.4051 ], [ -4.1734, 40.4047 ], [ -4.1738, 40.4043 ], [ -4.1741, 40.4035 ], [ -4.1744, 40.4034 ], [ -4.1747, 40.4035 ], [ -4.1751, 40.4041 ], [ -4.1752, 40.4054 ], [ -4.176, 40.406 ], [ -4.1763, 40.4065 ], [ -4.1763, 40.4071 ], [ -4.1758, 40.4087 ], [ -4.1767, 40.4104 ], [ -4.1791, 40.4113 ], [ -4.1796, 40.4113 ], [ -4.1809, 40.4107 ], [ -4.1814, 40.4102 ], [ -4.182, 40.4092 ], [ -4.1838, 40.4079 ], [ -4.1864, 40.4075 ], [ -4.1873, 40.4069 ], [ -4.1881, 40.4071 ], [ -4.1898, 40.4072 ], [ -4.1905, 40.4072 ], [ -4.1916, 40.4069 ], [ -4.1921, 40.4065 ], [ -4.1919, 40.4056 ], [ -4.1916, 40.4051 ], [ -4.1907, 40.4046 ], [ -4.1907, 40.4043 ], [ -4.1909, 40.4041 ], [ -4.1917, 40.4039 ], [ -4.1922, 40.4036 ], [ -4.1931, 40.4034 ], [ -4.1935, 40.4031 ], [ -4.1917, 40.4027 ], [ -4.1912, 40.4022 ], [ -4.1907, 40.4022 ], [ -4.1907, 40.4021 ], [ -4.1891, 40.4018 ], [ -4.1889, 40.4015 ], [ -4.1882, 40.4015 ], [ -4.1878, 40.4016 ], [ -4.1868, 40.4024 ], [ -4.1864, 40.4025 ], [ -4.1862, 40.4028 ], [ -4.1857, 40.4028 ], [ -4.1851, 40.4031 ], [ -4.1845, 40.4036 ], [ -4.184, 40.4036 ], [ -4.1829, 40.4033 ], [ -4.1805, 40.4034 ], [ -4.1803, 40.4032 ], [ -4.1803, 40.4025 ], [ -4.1797, 40.4022 ], [ -4.1785, 40.4011 ], [ -4.1785, 40.4009 ], [ -4.178, 40.4002 ], [ -4.178, 40.3999 ], [ -4.1783, 40.3997 ], [ -4.1783, 40.3994 ], [ -4.1781, 40.3991 ], [ -4.1776, 40.3989 ], [ -4.1792, 40.3977 ], [ -4.1813, 40.3965 ], [ -4.1807, 40.3959 ], [ -4.1783, 40.3961 ], [ -4.1765, 40.396 ], [ -4.1749, 40.3961 ], [ -4.1736, 40.3959 ], [ -4.1717, 40.3959 ], [ -4.171, 40.3958 ], [ -4.1706, 40.3956 ], [ -4.1691, 40.396 ], [ -4.169, 40.3964 ], [ -4.1682, 40.3964 ], [ -4.1672, 40.3969 ], [ -4.1667, 40.397 ], [ -4.1664, 40.3969 ], [ -4.1664, 40.3962 ], [ -4.1666, 40.396 ], [ -4.1661, 40.3954 ], [ -4.166, 40.395 ], [ -4.1638, 40.3937 ], [ -4.163, 40.3937 ], [ -4.1628, 40.3931 ], [ -4.1629, 40.3923 ], [ -4.1627, 40.3919 ], [ -4.1621, 40.3913 ], [ -4.1619, 40.3906 ], [ -4.1608, 40.39 ], [ -4.1611, 40.3885 ], [ -4.1613, 40.3881 ], [ -4.1613, 40.3875 ], [ -4.1606, 40.3859 ], [ -4.1599, 40.385 ], [ -4.1605, 40.3847 ], [ -4.1605, 40.3845 ], [ -4.1594, 40.3841 ], [ -4.1588, 40.3823 ], [ -4.1579, 40.3809 ], [ -4.158, 40.3802 ], [ -4.1582, 40.3798 ], [ -4.1568, 40.3794 ], [ -4.1555, 40.3786 ], [ -4.1549, 40.3776 ], [ -4.1545, 40.3774 ], [ -4.1542, 40.3768 ], [ -4.1547, 40.3759 ], [ -4.1548, 40.3752 ], [ -4.1541, 40.374 ], [ -4.1516, 40.3731 ], [ -4.1497, 40.3715 ], [ -4.1492, 40.3716 ], [ -4.1494, 40.3718 ], [ -4.1498, 40.3728 ], [ -4.1499, 40.3736 ], [ -4.1501, 40.3738 ], [ -4.1501, 40.3743 ], [ -4.1505, 40.3753 ], [ -4.151, 40.3758 ], [ -4.1511, 40.3762 ], [ -4.1513, 40.3764 ], [ -4.1521, 40.3766 ], [ -4.1526, 40.377 ], [ -4.1529, 40.3778 ], [ -4.1529, 40.3785 ], [ -4.1531, 40.3788 ], [ -4.1539, 40.3791 ], [ -4.1542, 40.3797 ], [ -4.1539, 40.381 ], [ -4.154, 40.3815 ], [ -4.1553, 40.3825 ], [ -4.1566, 40.3838 ], [ -4.1576, 40.3842 ], [ -4.158, 40.3849 ], [ -4.1586, 40.3855 ], [ -4.1595, 40.3877 ], [ -4.1591, 40.3884 ], [ -4.159, 40.3889 ], [ -4.1593, 40.3899 ], [ -4.1592, 40.3905 ], [ -4.16, 40.3922 ], [ -4.1623, 40.3934 ], [ -4.1638, 40.3946 ], [ -4.1641, 40.3951 ], [ -4.1637, 40.3961 ], [ -4.1626, 40.3963 ], [ -4.162, 40.3969 ], [ -4.1614, 40.3972 ], [ -4.161, 40.3982 ], [ -4.1604, 40.3986 ], [ -4.1605, 40.3994 ], [ -4.1604, 40.3998 ], [ -4.1616, 40.4003 ], [ -4.162, 40.4007 ], [ -4.1619, 40.4009 ], [ -4.1618, 40.401 ], [ -4.161, 40.4009 ], [ -4.1605, 40.401 ], [ -4.1595, 40.4016 ], [ -4.1586, 40.4032 ], [ -4.1587, 40.4035 ], [ -4.1591, 40.4039 ], [ -4.1593, 40.4049 ], [ -4.1589, 40.4052 ], [ -4.1575, 40.4051 ], [ -4.1566, 40.4054 ], [ -4.1565, 40.4056 ], [ -4.157, 40.4072 ], [ -4.1558, 40.4081 ], [ -4.1554, 40.4085 ], [ -4.1553, 40.4088 ], [ -4.1557, 40.4099 ], [ -4.156, 40.4103 ], [ -4.156, 40.4109 ], [ -4.1562, 40.4113 ], [ -4.1562, 40.4115 ], [ -4.1553, 40.4125 ], [ -4.1552, 40.4129 ], [ -4.1553, 40.4134 ], [ -4.157, 40.4148 ], [ -4.1574, 40.4148 ], [ -4.1584, 40.4143 ], [ -4.1587, 40.4143 ], [ -4.159, 40.4145 ], [ -4.159, 40.4147 ], [ -4.1586, 40.4151 ], [ -4.1596, 40.416 ], [ -4.1599, 40.4161 ], [ -4.1608, 40.416 ], [ -4.1614, 40.418 ], [ -4.1614, 40.4185 ], [ -4.1612, 40.4191 ], [ -4.1608, 40.4197 ], [ -4.1603, 40.4198 ], [ -4.1596, 40.4197 ], [ -4.159, 40.4203 ], [ -4.1583, 40.4205 ], [ -4.158, 40.4208 ], [ -4.1582, 40.4218 ], [ -4.1583, 40.4218 ], [ -4.1583, 40.422 ], [ -4.1587, 40.4226 ], [ -4.159, 40.4226 ], [ -4.1593, 40.4228 ], [ -4.1596, 40.4234 ], [ -4.1603, 40.4232 ], [ -4.1609, 40.4232 ], [ -4.1613, 40.4241 ], [ -4.1616, 40.4242 ], [ -4.1619, 40.4246 ], [ -4.1627, 40.4249 ], [ -4.1641, 40.4248 ], [ -4.1644, 40.425 ], [ -4.1646, 40.4256 ], [ -4.1642, 40.4265 ], [ -4.1634, 40.4269 ], [ -4.1627, 40.4268 ], [ -4.1628, 40.4279 ], [ -4.1625, 40.4281 ], [ -4.162, 40.4282 ], [ -4.1618, 40.4284 ], [ -4.1619, 40.4286 ], [ -4.1628, 40.429 ], [ -4.1633, 40.4294 ], [ -4.1646, 40.4298 ], [ -4.165, 40.4301 ], [ -4.165, 40.4303 ], [ -4.1646, 40.431 ], [ -4.1646, 40.4318 ], [ -4.1654, 40.4326 ], [ -4.167, 40.4336 ], [ -4.1673, 40.4339 ], [ -4.1675, 40.4344 ], [ -4.1687, 40.4349 ], [ -4.1689, 40.4353 ], [ -4.1696, 40.4359 ], [ -4.1699, 40.4366 ], [ -4.1699, 40.4369 ], [ -4.1706, 40.437 ], [ -4.1714, 40.4373 ], [ -4.1725, 40.4371 ], [ -4.1729, 40.4373 ], [ -4.1732, 40.4373 ], [ -4.1735, 40.4377 ], [ -4.1737, 40.4375 ], [ -4.1736, 40.437 ], [ -4.172, 40.4361 ], [ -4.1718, 40.4361 ], [ -4.1718, 40.436 ], [ -4.1716, 40.436 ], [ -4.1716, 40.4354 ], [ -4.1714, 40.4352 ], [ -4.171, 40.4339 ], [ -4.1712, 40.4334 ], [ -4.1713, 40.4334 ], [ -4.1713, 40.433 ], [ -4.1711, 40.4327 ], [ -4.1716, 40.4315 ], [ -4.173, 40.431 ], [ -4.1738, 40.4298 ], [ -4.1747, 40.4293 ], [ -4.1762, 40.4292 ], [ -4.1763, 40.4298 ], [ -4.1766, 40.4304 ], [ -4.1762, 40.4307 ], [ -4.1758, 40.4307 ], [ -4.1748, 40.4313 ], [ -4.1757, 40.4318 ], [ -4.1758, 40.4322 ], [ -4.176, 40.4324 ], [ -4.1772, 40.4331 ], [ -4.1776, 40.4335 ], [ -4.1776, 40.4338 ], [ -4.1778, 40.4336 ], [ -4.1783, 40.4341 ], [ -4.179, 40.4337 ], [ -4.1798, 40.4345 ], [ -4.1778, 40.4359 ], [ -4.1776, 40.4359 ], [ -4.1767, 40.4364 ], [ -4.1746, 40.4382 ], [ -4.1748, 40.4382 ], [ -4.1751, 40.4386 ], [ -4.1759, 40.4388 ], [ -4.1804, 40.4416 ] ], [ [ -4.1719, 40.4138 ], [ -4.1725, 40.4143 ], [ -4.1727, 40.4162 ], [ -4.173, 40.4165 ], [ -4.1726, 40.4172 ], [ -4.172, 40.4173 ], [ -4.1711, 40.4178 ], [ -4.1713, 40.4185 ], [ -4.1712, 40.4187 ], [ -4.1705, 40.4187 ], [ -4.1696, 40.419 ], [ -4.1687, 40.4191 ], [ -4.167, 40.42 ], [ -4.1668, 40.42 ], [ -4.1664, 40.4197 ], [ -4.1662, 40.4192 ], [ -4.1659, 40.419 ], [ -4.1654, 40.4189 ], [ -4.1642, 40.4178 ], [ -4.1642, 40.4172 ], [ -4.1634, 40.4169 ], [ -4.1625, 40.4168 ], [ -4.1622, 40.4166 ], [ -4.1619, 40.416 ], [ -4.1622, 40.4155 ], [ -4.1635, 40.4153 ], [ -4.1679, 40.4133 ], [ -4.1699, 40.4127 ], [ -4.1712, 40.4128 ], [ -4.1717, 40.413 ], [ -4.1719, 40.4133 ], [ -4.1719, 40.4138 ] ] ] } },
{ "type": "Feature", "properties": { "municipio": "Colmenar del Arroyo", "clasificacion": "no-urbanizable-protegido", "calificacion": "sin-asignar", "version": "vigente", "fuente": "SIT-CAM WFS — UsoDelSuelo:VPLA_V_CLASIFICACION (https://idem.comunidad.madrid/geosrvg/ows)", "fecha_dato": "2026-05-12", "ambito": "57", "_raw_CD_SIGLAS": "SNUP", "_raw_DS_CLASIF_GEN": "Suelo No Urbanizable Protegido", "_raw_DS_CLASIF_DET": "Suelo No Urbanizable Espacialmente Protegido. Protección ganadera y ecológica", "_raw_DS_DOCU": "NORMAS SUBSIDIARIAS", "_raw_DS_LEY": "CM Ley 4/1984, E RD 1346/1976", "_raw_FC_AC": "1988-02-23", "_raw_NM_AREA_M2": 144398.06022006899, "_cam_code": "042" }, "geometry": { "type": "Polygon", "coordinates": [ [ [ -4.193, 40.4153 ], [ -4.1927, 40.4157 ], [ -4.1919, 40.4176 ], [ -4.1917, 40.4188 ], [ -4.1918, 40.4218 ], [ -4.1921, 40.4216 ], [ -4.1919, 40.4213 ], [ -4.1921, 40.4209 ], [ -4.1933, 40.4204 ], [ -4.1929, 40.4194 ], [ -4.1939, 40.4193 ], [ -4.1936, 40.4186 ], [ -4.1936, 40.418 ], [ -4.1931, 40.4179 ], [ -4.1963, 40.4164 ], [ -4.1956, 40.4161 ], [ -4.1959, 40.4159 ], [ -4.1957, 40.4155 ], [ -4.1968, 40.4147 ], [ -4.197, 40.4144 ], [ -4.1958, 40.4143 ], [ -4.1955, 40.4137 ], [ -4.1949, 40.4137 ], [ -4.1945, 40.414 ], [ -4.1939, 40.415 ], [ -4.1933, 40.4153 ], [ -4.193, 40.4153 ] ] ] } },
{ "type": "Feature", "properties": { "municipio": "Colmenar del Arroyo", "clasificacion": "no-urbanizable-protegido", "calificacion": "sin-asignar", "version": "vigente", "fuente": "SIT-CAM WFS — UsoDelSuelo:VPLA_V_CLASIFICACION (https://idem.comunidad.madrid/geosrvg/ows)", "fecha_dato": "2026-05-12", "ambito": "57", "_raw_CD_SIGLAS": "SNUP", "_raw_DS_CLASIF_GEN": "Suelo No Urbanizable Protegido", "_raw_DS_CLASIF_DET": "Suelo No Urbanizable sujeto a Régimen Normal", "_raw_DS_DOCU": "NORMAS SUBSIDIARIAS", "_raw_DS_LEY": "CM Ley 4/1984, E RD 1346/1976", "_raw_FC_AC": "1988-02-23", "_raw_NM_AREA_M2": 168163.03635686301, "_cam_code": "042" }, "geometry": { "type": "Polygon", "coordinates": [ [ [ -4.193, 40.4153 ], [ -4.1918, 40.4156 ], [ -4.1919, 40.4167 ], [ -4.1915, 40.4174 ], [ -4.1906, 40.418 ], [ -4.1878, 40.4187 ], [ -4.1879, 40.4195 ], [ -4.1876, 40.4199 ], [ -4.1871, 40.4202 ], [ -4.1869, 40.4207 ], [ -4.1898, 40.4227 ], [ -4.1901, 40.4227 ], [ -4.1912, 40.4223 ], [ -4.1916, 40.422 ], [ -4.1918, 40.4218 ], [ -4.1917, 40.4188 ], [ -4.1919, 40.4176 ], [ -4.1927, 40.4157 ], [ -4.193, 40.4153 ] ] ] } },
{ "type": "Feature", "properties": { "municipio": "Colmenar del Arroyo", "clasificacion": "no-urbanizable-protegido", "calificacion": "sin-asignar", "version": "vigente", "fuente": "SIT-CAM WFS — UsoDelSuelo:VPLA_V_CLASIFICACION (https://idem.comunidad.madrid/geosrvg/ows)", "fecha_dato": "2026-05-12", "ambito": "57", "_raw_CD_SIGLAS": "SNUP", "_raw_DS_CLASIF_GEN": "Suelo No Urbanizable Protegido", "_raw_DS_CLASIF_DET": "Suelo No Urbanizable Espacialmente Protegido. Protección ganadera y ecológica", "_raw_DS_DOCU": "NORMAS SUBSIDIARIAS", "_raw_DS_LEY": "CM Ley 4/1984, E RD 1346/1976", "_raw_FC_AC": "1988-02-23", "_raw_NM_AREA_M2": 242854.08316968, "_cam_code": "042" }, "geometry": { "type": "Polygon", "coordinates": [ [ [ -4.192, 40.4251 ], [ -4.1921, 40.4259 ], [ -4.1919, 40.4264 ], [ -4.1914, 40.4269 ], [ -4.1855, 40.4305 ], [ -4.1859, 40.4309 ], [ -4.1869, 40.4308 ], [ -4.1873, 40.431 ], [ -4.1887, 40.4308 ], [ -4.1897, 40.4309 ], [ -4.1911, 40.4307 ], [ -4.192, 40.4309 ], [ -4.1925, 40.4308 ], [ -4.1926, 40.4306 ], [ -4.1933, 40.4302 ], [ -4.1951, 40.4303 ], [ -4.1965, 40.4298 ], [ -4.1971, 40.4292 ], [ -4.1966, 40.4287 ], [ -4.1963, 40.4281 ], [ -4.1958, 40.4283 ], [ -4.1953, 40.4288 ], [ -4.1944, 40.4291 ], [ -4.1928, 40.428 ], [ -4.1929, 40.4277 ], [ -4.1923, 40.4271 ], [ -4.1934, 40.4262 ], [ -4.192, 40.4251 ] ] ] } },
{ "type": "Feature", "properties": { "municipio": "Colmenar del Arroyo", "clasificacion": "no-urbanizable-protegido", "calificacion": "sin-asignar", "version": "vigente", "fuente": "SIT-CAM WFS — UsoDelSuelo:VPLA_V_CLASIFICACION (https://idem.comunidad.madrid/geosrvg/ows)", "fecha_dato": "2026-05-12", "ambito": "57", "_raw_CD_SIGLAS": "SNUP", "_raw_DS_CLASIF_GEN": "Suelo No Urbanizable Protegido", "_raw_DS_CLASIF_DET": "Suelo No Urbanizable Espacialmente Protegido. Protección ganadera y ecológica", "_raw_DS_DOCU": "NORMAS SUBSIDIARIAS", "_raw_DS_LEY": "CM Ley 4/1984, E RD 1346/1976", "_raw_FC_AC": "1988-02-23", "_raw_NM_AREA_M2": 1371231.8322982499, "_cam_code": "042" }, "geometry": { "type": "Polygon", "coordinates": [ [ [ -4.2006, 40.4296 ], [ -4.2014, 40.4295 ], [ -4.2017, 40.4292 ], [ -4.2021, 40.4293 ], [ -4.2025, 40.4292 ], [ -4.2031, 40.4284 ], [ -4.2037, 40.428 ], [ -4.2056, 40.4278 ], [ -4.2067, 40.428 ], [ -4.2077, 40.4279 ], [ -4.2082, 40.428 ], [ -4.2085, 40.4275 ], [ -4.2071, 40.427 ], [ -4.2058, 40.4268 ], [ -4.2047, 40.4259 ], [ -4.2046, 40.4251 ], [ -4.2043, 40.4248 ], [ -4.2033, 40.4245 ], [ -4.204, 40.4242 ], [ -4.2049, 40.4241 ], [ -4.2057, 40.4234 ], [ -4.2072, 40.4233 ], [ -4.208, 40.423 ], [ -4.2083, 40.4224 ], [ -4.2088, 40.4221 ], [ -4.2099, 40.4223 ], [ -4.2107, 40.4222 ], [ -4.2143, 40.4204 ], [ -4.2156, 40.4201 ], [ -4.2192, 40.4186 ], [ -4.2199, 40.4182 ], [ -4.2227, 40.4176 ], [ -4.2233, 40.4173 ], [ -4.2238, 40.4169 ], [ -4.2237, 40.4169 ], [ -4.2237, 40.4165 ], [ -4.2239, 40.4161 ], [ -4.2239, 40.4151 ], [ -4.2241, 40.4148 ], [ -4.2238, 40.4142 ], [ -4.2233, 40.4138 ], [ -4.2216, 40.4136 ], [ -4.2208, 40.414 ], [ -4.2206, 40.4139 ], [ -4.2203, 40.4132 ], [ -4.2194, 40.4131 ], [ -4.2184, 40.4132 ], [ -4.2153, 40.4142 ], [ -4.2131, 40.4156 ], [ -4.2122, 40.416 ], [ -4.2107, 40.4164 ], [ -4.2103, 40.4175 ], [ -4.2104, 40.4178 ], [ -4.2103, 40.4181 ], [ -4.2082, 40.4178 ], [ -4.2081, 40.4183 ], [ -4.2073, 40.4183 ], [ -4.207, 40.4181 ], [ -4.2063, 40.418 ], [ -4.2063, 40.4175 ], [ -4.2059, 40.4163 ], [ -4.2056, 40.4161 ], [ -4.2052, 40.4161 ], [ -4.2047, 40.4164 ], [ -4.2044, 40.4168 ], [ -4.2036, 40.4167 ], [ -4.203, 40.4165 ], [ -4.2029, 40.4161 ], [ -4.2031, 40.4155 ], [ -4.2018, 40.4151 ], [ -4.2023, 40.4156 ], [ -4.2029, 40.4169 ], [ -4.2025, 40.4174 ], [ -4.2026, 40.4181 ], [ -4.2029, 40.4183 ], [ -4.203, 40.4188 ], [ -4.2028, 40.4189 ], [ -4.2027, 40.4193 ], [ -4.2033, 40.4197 ], [ -4.2023, 40.421 ], [ -4.2032, 40.4212 ], [ -4.2034, 40.4215 ], [ -4.2032, 40.4215 ], [ -4.203, 40.4218 ], [ -4.2026, 40.4217 ], [ -4.2026, 40.4218 ], [ -4.2023, 40.4218 ], [ -4.202, 40.4219 ], [ -4.202, 40.422 ], [ -4.2015, 40.4218 ], [ -4.2004, 40.4221 ], [ -4.2002, 40.4228 ], [ -4.2012, 40.4233 ], [ -4.201, 40.4236 ], [ -4.2006, 40.4238 ], [ -4.2007, 40.424 ], [ -4.2013, 40.4243 ], [ -4.2017, 40.4243 ], [ -4.2019, 40.4245 ], [ -4.2004, 40.4255 ], [ -4.201, 40.426 ], [ -4.2009, 40.4261 ], [ -4.2002, 40.4265 ], [ -4.2002, 40.4266 ], [ -4.1996, 40.4267 ], [ -4.199, 40.4271 ], [ -4.1985, 40.4276 ], [ -4.1983, 40.4281 ], [ -4.1972, 40.4291 ], [ -4.1986, 40.4286 ], [ -4.1996, 40.4287 ], [ -4.2001, 40.4289 ], [ -4.2006, 40.4296 ] ] ] } },
{ "type": "Feature", "properties": { "municipio": "Colmenar del Arroyo", "clasificacion": "no-urbanizable-protegido", "calificacion": "sin-asignar", "version": "vigente", "fuente": "SIT-CAM WFS — UsoDelSuelo:VPLA_V_CLASIFICACION (https://idem.comunidad.madrid/geosrvg/ows)", "fecha_dato": "2026-05-12", "ambito": "57", "_raw_CD_SIGLAS": "SNUP", "_raw_DS_CLASIF_GEN": "Suelo No Urbanizable Protegido", "_raw_DS_CLASIF_DET": "Suelo No Urbanizable Espacialmente Protegido. Protección forestal", "_raw_DS_DOCU": "NORMAS SUBSIDIARIAS", "_raw_DS_LEY": "CM Ley 4/1984, E RD 1346/1976", "_raw_FC_AC": "1988-02-23", "_raw_NM_AREA_M2": 3956624.5164461699, "_cam_code": "042" }, "geometry": { "type": "Polygon", "coordinates": [ [ [ -4.2247, 40.4421 ], [ -4.2252, 40.4423 ], [ -4.2268, 40.442 ], [ -4.2276, 40.4396 ], [ -4.2298, 40.4367 ], [ -4.2313, 40.4354 ], [ -4.236, 40.4333 ], [ -4.2366, 40.4323 ], [ -4.2385, 40.4234 ], [ -4.2387, 40.4215 ], [ -4.2436, 40.4148 ], [ -4.2417, 40.4145 ], [ -4.2404, 40.4149 ], [ -4.2396, 40.415 ], [ -4.2381, 40.4149 ], [ -4.2357, 40.4157 ], [ -4.2344, 40.4158 ], [ -4.2325, 40.4153 ], [ -4.2306, 40.4154 ], [ -4.2298, 40.4158 ], [ -4.229, 40.4159 ], [ -4.2263, 40.4168 ], [ -4.2246, 40.4167 ], [ -4.2241, 40.417 ], [ -4.2238, 40.4169 ], [ -4.2227, 40.4176 ], [ -4.2199, 40.4182 ], [ -4.2192, 40.4186 ], [ -4.2156, 40.4201 ], [ -4.2143, 40.4204 ], [ -4.2107, 40.4222 ], [ -4.2123, 40.4227 ], [ -4.2132, 40.4232 ], [ -4.2138, 40.4232 ], [ -4.2147, 40.4237 ], [ -4.2146, 40.4245 ], [ -4.2151, 40.4254 ], [ -4.2151, 40.4258 ], [ -4.214, 40.4271 ], [ -4.2136, 40.4274 ], [ -4.2134, 40.428 ], [ -4.2137, 40.4284 ], [ -4.2146, 40.4285 ], [ -4.2151, 40.4292 ], [ -4.2156, 40.4296 ], [ -4.2162, 40.4294 ], [ -4.2191, 40.4294 ], [ -4.2197, 40.4295 ], [ -4.2207, 40.43 ], [ -4.2237, 40.431 ], [ -4.2241, 40.4314 ], [ -4.2245, 40.4321 ], [ -4.2246, 40.433 ], [ -4.2238, 40.4353 ], [ -4.2242, 40.4382 ], [ -4.2248, 40.4405 ], [ -4.2247, 40.4421 ] ] ] } },
{ "type": "Feature", "properties": { "municipio": "Colmenar del Arroyo", "clasificacion": "urbano-consolidado", "calificacion": "sin-asignar", "version": "vigente", "fuente": "SIT-CAM WFS — UsoDelSuelo:VPLA_V_CLASIFICACION (https://idem.comunidad.madrid/geosrvg/ows)", "fecha_dato": "2026-05-12", "ambito": "57", "_raw_CD_SIGLAS": "SU", "_raw_DS_CLASIF_GEN": "Suelo Urbano", "_raw_DS_CLASIF_DET": null, "_raw_DS_DOCU": "NORMAS SUBSIDIARIAS", "_raw_DS_LEY": "CM Ley 4/1984, E RD 1346/1976", "_raw_FC_AC": "1988-02-23", "_raw_NM_AREA_M2": 380134.04141655099, "_cam_code": "042" }, "geometry": { "type": "Polygon", "coordinates": [ [ [ -4.1735, 40.4377 ], [ -4.1737, 40.438 ], [ -4.1746, 40.4382 ], [ -4.1767, 40.4364 ], [ -4.1776, 40.4359 ], [ -4.1778, 40.4359 ], [ -4.1798, 40.4345 ], [ -4.179, 40.4337 ], [ -4.1783, 40.4341 ], [ -4.1778, 40.4336 ], [ -4.1776, 40.4338 ], [ -4.1776, 40.4335 ], [ -4.1772, 40.4331 ], [ -4.176, 40.4324 ], [ -4.1758, 40.4322 ], [ -4.1757, 40.4318 ], [ -4.1748, 40.4313 ], [ -4.1758, 40.4307 ], [ -4.1762, 40.4307 ], [ -4.1766, 40.4304 ], [ -4.1763, 40.4298 ], [ -4.1762, 40.4292 ], [ -4.1747, 40.4293 ], [ -4.1738, 40.4298 ], [ -4.173, 40.431 ], [ -4.1716, 40.4315 ], [ -4.1711, 40.4327 ], [ -4.1713, 40.433 ], [ -4.1713, 40.4334 ], [ -4.1712, 40.4334 ], [ -4.171, 40.4339 ], [ -4.1714, 40.4352 ], [ -4.1716, 40.4354 ], [ -4.1716, 40.436 ], [ -4.1718, 40.436 ], [ -4.1718, 40.4361 ], [ -4.172, 40.4361 ], [ -4.1736, 40.437 ], [ -4.1737, 40.4375 ], [ -4.1735, 40.4377 ] ] ] } },
{ "type": "Feature", "properties": { "municipio": "Colmenar del Arroyo", "clasificacion": "urbano-consolidado", "calificacion": "sin-asignar", "version": "vigente", "fuente": "SIT-CAM WFS — UsoDelSuelo:VPLA_V_CLASIFICACION (https://idem.comunidad.madrid/geosrvg/ows)", "fecha_dato": "2026-05-12", "ambito": "57", "_raw_CD_SIGLAS": "SU", "_raw_DS_CLASIF_GEN": "Suelo Urbano", "_raw_DS_CLASIF_DET": null, "_raw_DS_DOCU": "NORMAS SUBSIDIARIAS", "_raw_DS_LEY": "CM Ley 4/1984, E RD 1346/1976", "_raw_FC_AC": "1988-02-23", "_raw_NM_AREA_M2": 1121866.2763976301, "_cam_code": "042" }, "geometry": { "type": "Polygon", "coordinates": [ [ [ -4.1966, 40.4287 ], [ -4.1971, 40.4292 ], [ -4.1974, 40.429 ], [ -4.1983, 40.4281 ], [ -4.1985, 40.4276 ], [ -4.199, 40.4271 ], [ -4.1996, 40.4267 ], [ -4.2002, 40.4266 ], [ -4.2002, 40.4265 ], [ -4.201, 40.426 ], [ -4.2004, 40.4255 ], [ -4.2019, 40.4245 ], [ -4.2017, 40.4243 ], [ -4.2013, 40.4243 ], [ -4.2007, 40.424 ], [ -4.2006, 40.4238 ], [ -4.201, 40.4236 ], [ -4.2012, 40.4233 ], [ -4.2002, 40.4228 ], [ -4.2004, 40.4221 ], [ -4.2015, 40.4218 ], [ -4.202, 40.422 ], [ -4.202, 40.4219 ], [ -4.2026, 40.4218 ], [ -4.2026, 40.4217 ], [ -4.203, 40.4218 ], [ -4.2032, 40.4215 ], [ -4.2034, 40.4215 ], [ -4.2032, 40.4212 ], [ -4.2023, 40.421 ], [ -4.2033, 40.4197 ], [ -4.2027, 40.4193 ], [ -4.2028, 40.4189 ], [ -4.203, 40.4188 ], [ -4.2029, 40.4183 ], [ -4.2026, 40.4181 ], [ -4.2025, 40.4174 ], [ -4.2029, 40.4169 ], [ -4.2023, 40.4156 ], [ -4.2018, 40.4151 ], [ -4.1984, 40.4148 ], [ -4.1982, 40.4141 ], [ -4.1982, 40.4136 ], [ -4.1985, 40.4126 ], [ -4.199, 40.4117 ], [ -4.1988, 40.4115 ], [ -4.1978, 40.4117 ], [ -4.1952, 40.413 ], [ -4.1947, 40.4136 ], [ -4.1947, 40.4137 ], [ -4.1955, 40.4137 ], [ -4.1956, 40.4141 ], [ -4.1958, 40.4143 ], [ -4.197, 40.4144 ], [ -4.197, 40.4145 ], [ -4.1957, 40.4155 ], [ -4.1959, 40.4159 ], [ -4.1956, 40.4161 ], [ -4.1963, 40.4164 ], [ -4.1931, 40.4179 ], [ -4.1936, 40.418 ], [ -4.1936, 40.4186 ], [ -4.1939, 40.4193 ], [ -4.1929, 40.4194 ], [ -4.1933, 40.4204 ], [ -4.1921, 40.4209 ], [ -4.1919, 40.4213 ], [ -4.1921, 40.4216 ], [ -4.1918, 40.4218 ], [ -4.1922, 40.4222 ], [ -4.1923, 40.4226 ], [ -4.1926, 40.4226 ], [ -4.193, 40.4231 ], [ -4.1936, 40.4235 ], [ -4.1922, 40.4248 ], [ -4.1922, 40.4247 ], [ -4.192, 40.4248 ], [ -4.1919, 40.425 ], [ -4.1934, 40.4262 ], [ -4.1923, 40.4271 ], [ -4.1929, 40.4277 ], [ -4.1928, 40.428 ], [ -4.1944, 40.4291 ], [ -4.1953, 40.4288 ], [ -4.1958, 40.4283 ], [ -4.1963, 40.4281 ], [ -4.1966, 40.4287 ] ] ] } },
{ "type": "Feature", "properties": { "municipio": "Colmenar del Arroyo", "clasificacion": "urbanizable-sectorizado", "calificacion": "sin-asignar", "version": "vigente", "fuente": "SIT-CAM WFS — UsoDelSuelo:VPLA_V_CLASIFICACION (https://idem.comunidad.madrid/geosrvg/ows)", "fecha_dato": "2026-05-12", "ambito": "57", "_raw_CD_SIGLAS": "SUBS", "_raw_DS_CLASIF_GEN": "Suelo Apto Para Urbanizar", "_raw_DS_CLASIF_DET": null, "_raw_DS_DOCU": "NORMAS SUBSIDIARIAS", "_raw_DS_LEY": "CM Ley 4/1984, E RD 1346/1976", "_raw_FC_AC": "1988-02-23", "_raw_NM_AREA_M2": 67337.503571367502, "_cam_code": "042" }, "geometry": { "type": "Polygon", "coordinates": [ [ [ -4.1998, 40.4116 ], [ -4.1993, 40.4116 ], [ -4.1988, 40.4119 ], [ -4.1982, 40.4136 ], [ -4.1982, 40.4141 ], [ -4.1984, 40.4148 ], [ -4.2001, 40.415 ], [ -4.2011, 40.415 ], [ -4.2014, 40.4151 ], [ -4.2018, 40.4151 ], [ -4.2017, 40.4151 ], [ -4.2017, 40.4148 ], [ -4.2013, 40.4141 ], [ -4.2008, 40.4139 ], [ -4.2004, 40.4133 ], [ -4.2002, 40.4132 ], [ -4.2001, 40.4123 ], [ -4.1998, 40.4116 ] ] ] } }
]
}
