{
"type": "FeatureCollection",
"name": "vigente.full",
"features": [
{ "type": "Feature", "properties": { "municipio": "Tielmes", "clasificacion": "urbano-consolidado", "calificacion": "sin-asignar", "version": "vigente", "fuente": "SIT-CAM WFS — UsoDelSuelo:VPLA_V_CLASIFICACION (https://idem.comunidad.madrid/geosrvg/ows)", "fecha_dato": "2026-05-12", "ambito": "26876", "_raw_CD_SIGLAS": "SU", "_raw_DS_CLASIF_GEN": "Suelo Urbano", "_raw_DS_CLASIF_DET": "Suelo Urbano", "_raw_DS_DOCU": "PROYECTO DE DELIMITACIÓN SUELO URBANO", "_raw_DS_LEY": null, "_raw_FC_AC": "1995-03-23", "_raw_NM_AREA_M2": 430038.31670771498, "_cam_code": "146" }, "geometry": { "type": "Polygon", "coordinates": [ [ [ -3.3049, 40.2489 ], [ -3.306, 40.2501 ], [ -3.3062, 40.25 ], [ -3.3066, 40.2494 ], [ -3.3069, 40.2493 ], [ -3.308, 40.2494 ], [ -3.3089, 40.2493 ], [ -3.3088, 40.2493 ], [ -3.3096, 40.2484 ], [ -3.3099, 40.2485 ], [ -3.31, 40.2481 ], [ -3.3103, 40.2481 ], [ -3.3105, 40.2484 ], [ -3.3113, 40.2481 ], [ -3.3112, 40.2479 ], [ -3.3118, 40.2477 ], [ -3.3118, 40.2483 ], [ -3.3123, 40.2484 ], [ -3.3125, 40.2479 ], [ -3.3136, 40.248 ], [ -3.3139, 40.2478 ], [ -3.3145, 40.2478 ], [ -3.3149, 40.248 ], [ -3.3157, 40.248 ], [ -3.3155, 40.2476 ], [ -3.317, 40.2475 ], [ -3.317, 40.2471 ], [ -3.3168, 40.2471 ], [ -3.3167, 40.2466 ], [ -3.3169, 40.2466 ], [ -3.3172, 40.2469 ], [ -3.3179, 40.2466 ], [ -3.3183, 40.2466 ], [ -3.3184, 40.2465 ], [ -3.3183, 40.2465 ], [ -3.3183, 40.2462 ], [ -3.3186, 40.2458 ], [ -3.3192, 40.2455 ], [ -3.3191, 40.245 ], [ -3.3197, 40.2447 ], [ -3.3201, 40.2443 ], [ -3.3204, 40.2437 ], [ -3.3207, 40.2435 ], [ -3.3212, 40.2436 ], [ -3.3216, 40.2434 ], [ -3.3211, 40.2431 ], [ -3.3212, 40.242 ], [ -3.3215, 40.2413 ], [ -3.3213, 40.2409 ], [ -3.3213, 40.2403 ], [ -3.3203, 40.2415 ], [ -3.3198, 40.242 ], [ -3.3195, 40.2421 ], [ -3.319, 40.2428 ], [ -3.3184, 40.2431 ], [ -3.3144, 40.2445 ], [ -3.3141, 40.2445 ], [ -3.3116, 40.2457 ], [ -3.3102, 40.246 ], [ -3.3097, 40.2463 ], [ -3.3092, 40.2463 ], [ -3.3085, 40.2465 ], [ -3.308, 40.2465 ], [ -3.3079, 40.2464 ], [ -3.3079, 40.2465 ], [ -3.3072, 40.2466 ], [ -3.3071, 40.2464 ], [ -3.3061, 40.2465 ], [ -3.3064, 40.2473 ], [ -3.3072, 40.2472 ], [ -3.3065, 40.2478 ], [ -3.3058, 40.2482 ], [ -3.3056, 40.2485 ], [ -3.3049, 40.2489 ] ] ] } },
{ "type": "Feature", "properties": { "municipio": "Tielmes", "clasificacion": "urbanizable-no-sectorizado", "calificacion": "sin-asignar", "version": "vigente", "fuente": "SIT-CAM WFS — UsoDelSuelo:VPLA_V_CLASIFICACION (https://idem.comunidad.madrid/geosrvg/ows)", "fecha_dato": "2026-05-12", "ambito": "26876", "_raw_CD_SIGLAS": "SUBNS", "_raw_DS_CLASIF_GEN": "Suelo No Urbanizable Común", "_raw_DS_CLASIF_DET": "Suelo No Urbanizable", "_raw_DS_DOCU": "PROYECTO DE DELIMITACIÓN SUELO URBANO", "_raw_DS_LEY": null, "_raw_FC_AC": "1995-03-23", "_raw_NM_AREA_M2": 26151985.766077001, "_cam_code": "146" }, "geometry": { "type": "Polygon", "coordinates": [ [ [ -3.321, 40.2603 ], [ -3.3339, 40.2642 ], [ -3.3339, 40.2629 ], [ -3.3346, 40.2613 ], [ -3.3348, 40.2601 ], [ -3.3354, 40.2584 ], [ -3.3362, 40.2567 ], [ -3.3368, 40.2549 ], [ -3.3356, 40.2527 ], [ -3.3357, 40.2512 ], [ -3.3354, 40.2483 ], [ -3.3357, 40.2463 ], [ -3.3354, 40.2435 ], [ -3.3357, 40.2421 ], [ -3.3349, 40.2401 ], [ -3.3342, 40.2388 ], [ -3.331, 40.2364 ], [ -3.3298, 40.2354 ], [ -3.329, 40.2345 ], [ -3.3232, 40.2297 ], [ -3.3223, 40.2282 ], [ -3.3224, 40.2279 ], [ -3.3229, 40.2276 ], [ -3.3218, 40.2269 ], [ -3.321, 40.2259 ], [ -3.3205, 40.2257 ], [ -3.3202, 40.2254 ], [ -3.3187, 40.2251 ], [ -3.3187, 40.225 ], [ -3.3186, 40.2251 ], [ -3.3181, 40.225 ], [ -3.3177, 40.2244 ], [ -3.3176, 40.2237 ], [ -3.3169, 40.2231 ], [ -3.3147, 40.2217 ], [ -3.3135, 40.2215 ], [ -3.3135, 40.2214 ], [ -3.313, 40.2212 ], [ -3.3126, 40.2206 ], [ -3.3126, 40.2203 ], [ -3.3121, 40.2201 ], [ -3.3116, 40.2195 ], [ -3.3116, 40.2193 ], [ -3.3109, 40.2191 ], [ -3.3101, 40.2185 ], [ -3.3099, 40.2178 ], [ -3.3104, 40.217 ], [ -3.3103, 40.2151 ], [ -3.3099, 40.2147 ], [ -3.3097, 40.2141 ], [ -3.3096, 40.2141 ], [ -3.3093, 40.2135 ], [ -3.3084, 40.2131 ], [ -3.3071, 40.2115 ], [ -3.3067, 40.2094 ], [ -3.3079, 40.2063 ], [ -3.3095, 40.2029 ], [ -3.3075, 40.1999 ], [ -3.3057, 40.1982 ], [ -3.3036, 40.1959 ], [ -3.3006, 40.1933 ], [ -3.2994, 40.1918 ], [ -3.298, 40.1905 ], [ -3.2919, 40.1966 ], [ -3.2876, 40.2003 ], [ -3.2843, 40.2029 ], [ -3.2815, 40.207 ], [ -3.2789, 40.2096 ], [ -3.2764, 40.2106 ], [ -3.2704, 40.2148 ], [ -3.2719, 40.2181 ], [ -3.2727, 40.2204 ], [ -3.2744, 40.2262 ], [ -3.2756, 40.2291 ], [ -3.2762, 40.2317 ], [ -3.2784, 40.2338 ], [ -3.2783, 40.2356 ], [ -3.2788, 40.238 ], [ -3.2788, 40.2399 ], [ -3.279, 40.2417 ], [ -3.2793, 40.2476 ], [ -3.2827, 40.2496 ], [ -3.2839, 40.25 ], [ -3.2843, 40.251 ], [ -3.2837, 40.2524 ], [ -3.283, 40.2557 ], [ -3.2833, 40.2596 ], [ -3.2836, 40.2612 ], [ -3.2849, 40.2623 ], [ -3.2874, 40.2618 ], [ -3.2911, 40.2615 ], [ -3.2971, 40.2605 ], [ -3.3013, 40.2603 ], [ -3.3045, 40.2604 ], [ -3.3063, 40.2603 ], [ -3.3079, 40.261 ], [ -3.3138, 40.2604 ], [ -3.321, 40.2603 ] ], [ [ -3.3069, 40.2493 ], [ -3.306, 40.2501 ], [ -3.3049, 40.249 ], [ -3.3072, 40.2472 ], [ -3.3064, 40.2473 ], [ -3.3061, 40.2465 ], [ -3.3071, 40.2464 ], [ -3.3072, 40.2466 ], [ -3.3079, 40.2465 ], [ -3.3079, 40.2464 ], [ -3.308, 40.2465 ], [ -3.3085, 40.2465 ], [ -3.3092, 40.2463 ], [ -3.3097, 40.2463 ], [ -3.3102, 40.246 ], [ -3.3116, 40.2457 ], [ -3.3141, 40.2445 ], [ -3.3144, 40.2445 ], [ -3.3184, 40.2431 ], [ -3.319, 40.2428 ], [ -3.3195, 40.2421 ], [ -3.3198, 40.242 ], [ -3.3203, 40.2415 ], [ -3.3213, 40.2403 ], [ -3.3213, 40.2409 ], [ -3.3215, 40.2413 ], [ -3.3212, 40.242 ], [ -3.3211, 40.2431 ], [ -3.3216, 40.2434 ], [ -3.3212, 40.2436 ], [ -3.3207, 40.2435 ], [ -3.3204, 40.2437 ], [ -3.3201, 40.2443 ], [ -3.3197, 40.2447 ], [ -3.3191, 40.245 ], [ -3.3192, 40.2455 ], [ -3.3186, 40.2458 ], [ -3.3183, 40.2462 ], [ -3.3183, 40.2465 ], [ -3.3184, 40.2465 ], [ -3.3183, 40.2466 ], [ -3.3179, 40.2466 ], [ -3.3172, 40.2469 ], [ -3.3169, 40.2466 ], [ -3.3167, 40.2466 ], [ -3.3168, 40.2471 ], [ -3.317, 40.2471 ], [ -3.317, 40.2475 ], [ -3.3155, 40.2476 ], [ -3.3157, 40.248 ], [ -3.3149, 40.248 ], [ -3.3145, 40.2478 ], [ -3.3139, 40.2478 ], [ -3.3136, 40.248 ], [ -3.3125, 40.2479 ], [ -3.3123, 40.2484 ], [ -3.3118, 40.2483 ], [ -3.3118, 40.2477 ], [ -3.3112, 40.2479 ], [ -3.3113, 40.2481 ], [ -3.3105, 40.2484 ], [ -3.3103, 40.2481 ], [ -3.31, 40.2481 ], [ -3.3099, 40.2485 ], [ -3.3096, 40.2484 ], [ -3.3093, 40.2488 ], [ -3.3089, 40.2492 ], [ -3.3088, 40.2493 ], [ -3.3089, 40.2493 ], [ -3.3082, 40.2494 ], [ -3.3069, 40.2493 ] ] ] } }
]
}
