{
"type": "FeatureCollection",
"name": "vigente.full",
"features": [
{ "type": "Feature", "properties": { "municipio": "Pozuelo del Rey", "clasificacion": "urbano-consolidado", "calificacion": "sin-asignar", "version": "vigente", "fuente": "SIT-CAM WFS — UsoDelSuelo:VPLA_V_CLASIFICACION (https://idem.comunidad.madrid/geosrvg/ows)", "fecha_dato": "2026-05-12", "ambito": "116", "_raw_CD_SIGLAS": "SU", "_raw_DS_CLASIF_GEN": "Suelo Urbano", "_raw_DS_CLASIF_DET": "Suelo Urbano", "_raw_DS_DOCU": "NORMAS SUBSIDIARIAS", "_raw_DS_LEY": "E Ley 12/05/1956", "_raw_FC_AC": "1975-04-30", "_raw_NM_AREA_M2": 200341.27158148299, "_cam_code": "116" }, "geometry": { "type": "Polygon", "coordinates": [ [ [ -3.3163, 40.3674 ], [ -3.317, 40.3682 ], [ -3.3173, 40.3683 ], [ -3.3181, 40.3684 ], [ -3.3185, 40.3686 ], [ -3.3199, 40.3689 ], [ -3.3215, 40.369 ], [ -3.3219, 40.3686 ], [ -3.3223, 40.3685 ], [ -3.3227, 40.368 ], [ -3.3238, 40.3673 ], [ -3.3243, 40.3668 ], [ -3.3245, 40.3664 ], [ -3.3229, 40.3657 ], [ -3.3217, 40.3655 ], [ -3.3216, 40.3653 ], [ -3.3185, 40.3651 ], [ -3.3176, 40.3654 ], [ -3.3177, 40.3659 ], [ -3.3174, 40.3665 ], [ -3.3174, 40.3668 ], [ -3.3165, 40.3671 ], [ -3.3163, 40.3674 ] ] ] } },
{ "type": "Feature", "properties": { "municipio": "Pozuelo del Rey", "clasificacion": "urbanizable-no-sectorizado", "calificacion": "sin-asignar", "version": "vigente", "fuente": "SIT-CAM WFS — UsoDelSuelo:VPLA_V_CLASIFICACION (https://idem.comunidad.madrid/geosrvg/ows)", "fecha_dato": "2026-05-12", "ambito": "116", "_raw_CD_SIGLAS": "SUBNS", "_raw_DS_CLASIF_GEN": "Suelo Rústico", "_raw_DS_CLASIF_DET": "Suelo Rústico", "_raw_DS_DOCU": "NORMAS SUBSIDIARIAS", "_raw_DS_LEY": "E Ley 12/05/1956", "_raw_FC_AC": "1975-04-30", "_raw_NM_AREA_M2": 30597852.715724401, "_cam_code": "116" }, "geometry": { "type": "Polygon", "coordinates": [ [ [ -3.3121, 40.4006 ], [ -3.3157, 40.399 ], [ -3.3203, 40.3957 ], [ -3.3226, 40.3952 ], [ -3.3239, 40.3924 ], [ -3.325, 40.3897 ], [ -3.3234, 40.3882 ], [ -3.3217, 40.3875 ], [ -3.3196, 40.384 ], [ -3.3239, 40.3811 ], [ -3.3269, 40.3789 ], [ -3.3321, 40.3777 ], [ -3.3335, 40.3778 ], [ -3.3371, 40.3771 ], [ -3.3414, 40.3748 ], [ -3.3444, 40.3724 ], [ -3.3476, 40.3696 ], [ -3.3504, 40.3682 ], [ -3.3526, 40.3665 ], [ -3.356, 40.3623 ], [ -3.3502, 40.3592 ], [ -3.3476, 40.3568 ], [ -3.3448, 40.3555 ], [ -3.3414, 40.353 ], [ -3.3384, 40.351 ], [ -3.3356, 40.3486 ], [ -3.3281, 40.3434 ], [ -3.3255, 40.3419 ], [ -3.3202, 40.3376 ], [ -3.3173, 40.3356 ], [ -3.314, 40.3321 ], [ -3.3134, 40.3306 ], [ -3.3129, 40.3286 ], [ -3.3077, 40.3292 ], [ -3.3047, 40.3297 ], [ -3.3011, 40.3297 ], [ -3.2976, 40.3301 ], [ -3.2929, 40.331 ], [ -3.2906, 40.3316 ], [ -3.2882, 40.3327 ], [ -3.2875, 40.334 ], [ -3.2823, 40.3401 ], [ -3.2801, 40.3438 ], [ -3.2792, 40.3447 ], [ -3.2785, 40.3462 ], [ -3.2799, 40.3462 ], [ -3.2791, 40.3487 ], [ -3.2779, 40.3517 ], [ -3.2719, 40.3589 ], [ -3.2704, 40.3602 ], [ -3.2714, 40.3615 ], [ -3.2746, 40.3663 ], [ -3.2755, 40.3672 ], [ -3.277, 40.3705 ], [ -3.2792, 40.374 ], [ -3.2791, 40.3755 ], [ -3.277, 40.3772 ], [ -3.2737, 40.3805 ], [ -3.2761, 40.3809 ], [ -3.28, 40.3813 ], [ -3.2819, 40.3817 ], [ -3.2869, 40.3824 ], [ -3.2915, 40.384 ], [ -3.2927, 40.3841 ], [ -3.3002, 40.3858 ], [ -3.3054, 40.3859 ], [ -3.3072, 40.3875 ], [ -3.3098, 40.3912 ], [ -3.3112, 40.394 ], [ -3.3098, 40.3985 ], [ -3.3121, 40.4006 ] ], [ [ -3.3163, 40.3674 ], [ -3.3156, 40.3681 ], [ -3.3151, 40.369 ], [ -3.3143, 40.3698 ], [ -3.3134, 40.3704 ], [ -3.3123, 40.3682 ], [ -3.312, 40.368 ], [ -3.3116, 40.368 ], [ -3.311, 40.3672 ], [ -3.3118, 40.3671 ], [ -3.3118, 40.367 ], [ -3.3132, 40.3669 ], [ -3.3133, 40.3668 ], [ -3.3151, 40.3667 ], [ -3.3171, 40.3657 ], [ -3.3173, 40.3657 ], [ -3.3173, 40.3656 ], [ -3.3176, 40.3656 ], [ -3.3176, 40.3654 ], [ -3.3185, 40.3651 ], [ -3.3216, 40.3653 ], [ -3.3217, 40.3655 ], [ -3.3229, 40.3657 ], [ -3.3245, 40.3664 ], [ -3.3243, 40.3668 ], [ -3.3238, 40.3673 ], [ -3.3227, 40.368 ], [ -3.3223, 40.3685 ], [ -3.3219, 40.3686 ], [ -3.3215, 40.369 ], [ -3.3199, 40.3689 ], [ -3.3185, 40.3686 ], [ -3.3181, 40.3684 ], [ -3.3173, 40.3683 ], [ -3.317, 40.3682 ], [ -3.3163, 40.3674 ] ] ] } },
{ "type": "Feature", "properties": { "municipio": "Pozuelo del Rey", "clasificacion": "urbanizable-sectorizado", "calificacion": "sin-asignar", "version": "vigente", "fuente": "SIT-CAM WFS — UsoDelSuelo:VPLA_V_CLASIFICACION (https://idem.comunidad.madrid/geosrvg/ows)", "fecha_dato": "2026-05-12", "ambito": "116", "_raw_CD_SIGLAS": "SUBS", "_raw_DS_CLASIF_GEN": "Suelo de Reserva Urbana", "_raw_DS_CLASIF_DET": "Suelo de Reserva Urbana", "_raw_DS_DOCU": "NORMAS SUBSIDIARIAS", "_raw_DS_LEY": "E Ley 12/05/1956", "_raw_FC_AC": "1975-04-30", "_raw_NM_AREA_M2": 113789.880722075, "_cam_code": "116" }, "geometry": { "type": "Polygon", "coordinates": [ [ [ -3.3176, 40.3656 ], [ -3.3173, 40.3656 ], [ -3.3173, 40.3657 ], [ -3.3171, 40.3657 ], [ -3.3151, 40.3667 ], [ -3.3133, 40.3668 ], [ -3.3132, 40.3669 ], [ -3.3118, 40.367 ], [ -3.3118, 40.3671 ], [ -3.311, 40.3672 ], [ -3.3116, 40.368 ], [ -3.312, 40.368 ], [ -3.3123, 40.3682 ], [ -3.3134, 40.3704 ], [ -3.3143, 40.3698 ], [ -3.3151, 40.369 ], [ -3.3153, 40.3685 ], [ -3.3165, 40.3671 ], [ -3.3174, 40.3668 ], [ -3.3174, 40.3665 ], [ -3.3177, 40.3659 ], [ -3.3176, 40.3656 ] ] ] } }
]
}
