{
"type": "FeatureCollection",
"name": "vigente.full",
"features": [
{ "type": "Feature", "properties": { "municipio": "Lozoya", "clasificacion": "no-urbanizable-protegido", "calificacion": "sin-asignar", "version": "vigente", "fuente": "SIT-CAM WFS — UsoDelSuelo:VPLA_V_CLASIFICACION (https://idem.comunidad.madrid/geosrvg/ows)", "fecha_dato": "2026-05-12", "ambito": "2155", "_raw_CD_SIGLAS": "SNUP", "_raw_DS_CLASIF_GEN": "Suelo No Urbanizable Protegido", "_raw_DS_CLASIF_DET": null, "_raw_DS_DOCU": "NORMAS SUBSIDIARIAS", "_raw_DS_LEY": "CM Ley 4/1984, E RD 1346/1976", "_raw_FC_AC": "1984-11-22", "_raw_NM_AREA_M2": 38799439.473397501, "_cam_code": "076" }, "geometry": { "type": "Polygon", "coordinates": [ [ [ -3.7497, 40.9899 ], [ -3.7514, 40.9909 ], [ -3.7522, 40.9917 ], [ -3.7532, 40.992 ], [ -3.7545, 40.9929 ], [ -3.7555, 40.9938 ], [ -3.7559, 40.9951 ], [ -3.757, 40.9976 ], [ -3.7574, 40.9991 ], [ -3.7581, 41.0008 ], [ -3.7584, 41.001 ], [ -3.7588, 41.0016 ], [ -3.7597, 41.0031 ], [ -3.76, 41.0039 ], [ -3.761, 41.005 ], [ -3.7617, 41.0057 ], [ -3.762, 41.0057 ], [ -3.7645, 41.0066 ], [ -3.7677, 41.0084 ], [ -3.7693, 41.01 ], [ -3.7706, 41.012 ], [ -3.7711, 41.0123 ], [ -3.7726, 41.01 ], [ -3.7763, 41.0056 ], [ -3.7772, 41.0046 ], [ -3.7808, 41.0013 ], [ -3.7814, 41.0003 ], [ -3.7839, 41.001 ], [ -3.7993, 40.9934 ], [ -3.8, 40.9936 ], [ -3.8031, 40.9923 ], [ -3.8057, 40.9907 ], [ -3.8094, 40.9878 ], [ -3.8127, 40.9871 ], [ -3.814, 40.9866 ], [ -3.8194, 40.9859 ], [ -3.8212, 40.9848 ], [ -3.8291, 40.9867 ], [ -3.8352, 40.9842 ], [ -3.8393, 40.9839 ], [ -3.8445, 40.9823 ], [ -3.8437, 40.9817 ], [ -3.8433, 40.9812 ], [ -3.8417, 40.9801 ], [ -3.8403, 40.9778 ], [ -3.8388, 40.975 ], [ -3.8374, 40.9744 ], [ -3.8366, 40.9734 ], [ -3.8356, 40.9714 ], [ -3.8329, 40.9673 ], [ -3.8336, 40.9648 ], [ -3.8338, 40.9611 ], [ -3.8332, 40.9574 ], [ -3.8305, 40.9503 ], [ -3.8286, 40.9484 ], [ -3.8279, 40.9471 ], [ -3.8269, 40.946 ], [ -3.8257, 40.9456 ], [ -3.8247, 40.945 ], [ -3.8235, 40.9438 ], [ -3.821, 40.9421 ], [ -3.8204, 40.9424 ], [ -3.8204, 40.9427 ], [ -3.8201, 40.9434 ], [ -3.8194, 40.9439 ], [ -3.8192, 40.9445 ], [ -3.8181, 40.9457 ], [ -3.8181, 40.9461 ], [ -3.8186, 40.9466 ], [ -3.8185, 40.9465 ], [ -3.818, 40.9465 ], [ -3.8179, 40.9462 ], [ -3.8172, 40.9457 ], [ -3.8172, 40.9454 ], [ -3.817, 40.9453 ], [ -3.8163, 40.9454 ], [ -3.8157, 40.9456 ], [ -3.8155, 40.9465 ], [ -3.8153, 40.9467 ], [ -3.8153, 40.9469 ], [ -3.8152, 40.9469 ], [ -3.8152, 40.9472 ], [ -3.8149, 40.9473 ], [ -3.8148, 40.9475 ], [ -3.8146, 40.9475 ], [ -3.8147, 40.947 ], [ -3.8143, 40.9463 ], [ -3.8142, 40.9457 ], [ -3.8138, 40.9453 ], [ -3.8123, 40.9446 ], [ -3.8114, 40.9449 ], [ -3.8103, 40.945 ], [ -3.8088, 40.946 ], [ -3.8079, 40.9464 ], [ -3.8072, 40.947 ], [ -3.8058, 40.9474 ], [ -3.8046, 40.9475 ], [ -3.8045, 40.9476 ], [ -3.8044, 40.9475 ], [ -3.8045, 40.9468 ], [ -3.8063, 40.9459 ], [ -3.808, 40.9441 ], [ -3.8084, 40.9436 ], [ -3.8086, 40.9432 ], [ -3.8086, 40.9429 ], [ -3.8087, 40.9429 ], [ -3.809, 40.9422 ], [ -3.8107, 40.9401 ], [ -3.8116, 40.9396 ], [ -3.8121, 40.9395 ], [ -3.8164, 40.9377 ], [ -3.8144, 40.9357 ], [ -3.8143, 40.9368 ], [ -3.8141, 40.937 ], [ -3.8135, 40.9371 ], [ -3.8124, 40.9379 ], [ -3.811, 40.9386 ], [ -3.8112, 40.9389 ], [ -3.8108, 40.9393 ], [ -3.81, 40.9398 ], [ -3.808, 40.9418 ], [ -3.8077, 40.9425 ], [ -3.8076, 40.9433 ], [ -3.8071, 40.9439 ], [ -3.807, 40.9442 ], [ -3.8061, 40.9446 ], [ -3.8051, 40.9447 ], [ -3.804, 40.9452 ], [ -3.8019, 40.9452 ], [ -3.8011, 40.9443 ], [ -3.8009, 40.9435 ], [ -3.7998, 40.9427 ], [ -3.7991, 40.9425 ], [ -3.7986, 40.9422 ], [ -3.7974, 40.9423 ], [ -3.7969, 40.9426 ], [ -3.7963, 40.9426 ], [ -3.7961, 40.9423 ], [ -3.7958, 40.9423 ], [ -3.7955, 40.9427 ], [ -3.7949, 40.9428 ], [ -3.7935, 40.9435 ], [ -3.7932, 40.9437 ], [ -3.7928, 40.9443 ], [ -3.7918, 40.944 ], [ -3.7913, 40.9443 ], [ -3.7909, 40.9454 ], [ -3.7903, 40.9458 ], [ -3.7898, 40.9457 ], [ -3.7889, 40.9465 ], [ -3.7881, 40.947 ], [ -3.7881, 40.9473 ], [ -3.7885, 40.9476 ], [ -3.789, 40.9476 ], [ -3.7892, 40.9478 ], [ -3.7892, 40.9483 ], [ -3.7909, 40.9494 ], [ -3.7914, 40.9495 ], [ -3.7917, 40.9497 ], [ -3.7924, 40.9497 ], [ -3.7926, 40.9489 ], [ -3.7946, 40.9493 ], [ -3.7958, 40.9498 ], [ -3.796, 40.95 ], [ -3.796, 40.9502 ], [ -3.7955, 40.95 ], [ -3.7953, 40.95 ], [ -3.7951, 40.9502 ], [ -3.7951, 40.9504 ], [ -3.7957, 40.9509 ], [ -3.7962, 40.9509 ], [ -3.7961, 40.951 ], [ -3.7966, 40.951 ], [ -3.7967, 40.9511 ], [ -3.797, 40.9511 ], [ -3.797, 40.951 ], [ -3.7977, 40.9512 ], [ -3.7985, 40.9512 ], [ -3.7997, 40.9516 ], [ -3.8004, 40.9516 ], [ -3.8008, 40.9519 ], [ -3.8027, 40.9518 ], [ -3.8036, 40.9522 ], [ -3.8044, 40.953 ], [ -3.8047, 40.953 ], [ -3.8048, 40.9528 ], [ -3.806, 40.9525 ], [ -3.8073, 40.9524 ], [ -3.8088, 40.9529 ], [ -3.8091, 40.9529 ], [ -3.8095, 40.9527 ], [ -3.8101, 40.9527 ], [ -3.8104, 40.953 ], [ -3.8108, 40.9531 ], [ -3.8111, 40.9534 ], [ -3.8114, 40.9535 ], [ -3.8114, 40.9538 ], [ -3.8112, 40.9539 ], [ -3.8112, 40.9544 ], [ -3.811, 40.9551 ], [ -3.8109, 40.9549 ], [ -3.8105, 40.955 ], [ -3.8106, 40.9556 ], [ -3.8105, 40.9556 ], [ -3.8104, 40.956 ], [ -3.8102, 40.956 ], [ -3.8102, 40.9559 ], [ -3.8091, 40.9552 ], [ -3.8079, 40.9552 ], [ -3.8068, 40.9556 ], [ -3.8058, 40.9557 ], [ -3.8058, 40.9558 ], [ -3.8053, 40.956 ], [ -3.8052, 40.9562 ], [ -3.8049, 40.9563 ], [ -3.8047, 40.9565 ], [ -3.8045, 40.9571 ], [ -3.8044, 40.9571 ], [ -3.8044, 40.9574 ], [ -3.8047, 40.9579 ], [ -3.8053, 40.9585 ], [ -3.8053, 40.9588 ], [ -3.8051, 40.9585 ], [ -3.8048, 40.9585 ], [ -3.8046, 40.9583 ], [ -3.8044, 40.9583 ], [ -3.8046, 40.9592 ], [ -3.8037, 40.9583 ], [ -3.8035, 40.9583 ], [ -3.8035, 40.9582 ], [ -3.8029, 40.958 ], [ -3.8029, 40.9579 ], [ -3.8023, 40.958 ], [ -3.8015, 40.9585 ], [ -3.8013, 40.9588 ], [ -3.8011, 40.9588 ], [ -3.8011, 40.9589 ], [ -3.8004, 40.959 ], [ -3.7999, 40.9599 ], [ -3.7995, 40.9602 ], [ -3.7994, 40.9617 ], [ -3.7987, 40.9618 ], [ -3.7979, 40.9621 ], [ -3.7977, 40.9624 ], [ -3.7977, 40.9627 ], [ -3.7966, 40.9625 ], [ -3.7967, 40.9623 ], [ -3.7967, 40.961 ], [ -3.7972, 40.961 ], [ -3.7975, 40.9608 ], [ -3.7974, 40.9596 ], [ -3.7972, 40.9596 ], [ -3.797, 40.9594 ], [ -3.7968, 40.9584 ], [ -3.7962, 40.9585 ], [ -3.7957, 40.9588 ], [ -3.7951, 40.9588 ], [ -3.7946, 40.9586 ], [ -3.7957, 40.9575 ], [ -3.7954, 40.957 ], [ -3.7949, 40.9566 ], [ -3.7941, 40.9569 ], [ -3.7937, 40.9573 ], [ -3.7933, 40.9574 ], [ -3.7932, 40.9579 ], [ -3.7924, 40.9578 ], [ -3.7925, 40.9587 ], [ -3.7926, 40.9586 ], [ -3.7932, 40.9589 ], [ -3.793, 40.9595 ], [ -3.793, 40.96 ], [ -3.7929, 40.96 ], [ -3.7928, 40.9604 ], [ -3.7925, 40.9604 ], [ -3.7926, 40.9606 ], [ -3.7924, 40.9606 ], [ -3.7925, 40.9609 ], [ -3.7921, 40.9609 ], [ -3.7915, 40.9603 ], [ -3.7903, 40.9603 ], [ -3.79, 40.9605 ], [ -3.7898, 40.9611 ], [ -3.7891, 40.9615 ], [ -3.7888, 40.9618 ], [ -3.7887, 40.9621 ], [ -3.7884, 40.9619 ], [ -3.7877, 40.962 ], [ -3.7877, 40.9619 ], [ -3.787, 40.9618 ], [ -3.7862, 40.9614 ], [ -3.7855, 40.9614 ], [ -3.7853, 40.9617 ], [ -3.785, 40.9634 ], [ -3.7847, 40.9636 ], [ -3.7848, 40.9636 ], [ -3.7849, 40.9639 ], [ -3.7845, 40.9641 ], [ -3.7844, 40.9644 ], [ -3.7844, 40.9643 ], [ -3.7836, 40.9639 ], [ -3.7836, 40.9638 ], [ -3.7834, 40.9638 ], [ -3.7828, 40.9631 ], [ -3.7826, 40.963 ], [ -3.7818, 40.9631 ], [ -3.7811, 40.9634 ], [ -3.7808, 40.9638 ], [ -3.7807, 40.9648 ], [ -3.7809, 40.9654 ], [ -3.7805, 40.965 ], [ -3.78, 40.9642 ], [ -3.78, 40.964 ], [ -3.7797, 40.9637 ], [ -3.7786, 40.9634 ], [ -3.778, 40.9634 ], [ -3.7773, 40.9643 ], [ -3.7773, 40.9645 ], [ -3.7763, 40.9649 ], [ -3.7755, 40.9655 ], [ -3.7756, 40.9654 ], [ -3.7756, 40.9647 ], [ -3.7755, 40.9647 ], [ -3.7753, 40.9642 ], [ -3.7751, 40.9641 ], [ -3.7751, 40.9639 ], [ -3.7755, 40.9635 ], [ -3.7757, 40.963 ], [ -3.7757, 40.9626 ], [ -3.7758, 40.9626 ], [ -3.7765, 40.9613 ], [ -3.7773, 40.9602 ], [ -3.7777, 40.9591 ], [ -3.7786, 40.9584 ], [ -3.779, 40.9579 ], [ -3.7796, 40.9576 ], [ -3.781, 40.9575 ], [ -3.7827, 40.957 ], [ -3.7837, 40.9563 ], [ -3.7839, 40.9565 ], [ -3.7839, 40.9568 ], [ -3.784, 40.9568 ], [ -3.7839, 40.9569 ], [ -3.784, 40.9574 ], [ -3.7847, 40.9572 ], [ -3.785, 40.9568 ], [ -3.7856, 40.9568 ], [ -3.7861, 40.957 ], [ -3.7864, 40.9573 ], [ -3.7864, 40.9576 ], [ -3.7862, 40.958 ], [ -3.7862, 40.9582 ], [ -3.7864, 40.9582 ], [ -3.7868, 40.9578 ], [ -3.7868, 40.9576 ], [ -3.7872, 40.9571 ], [ -3.7873, 40.9567 ], [ -3.7878, 40.9567 ], [ -3.7879, 40.9568 ], [ -3.7883, 40.9567 ], [ -3.7885, 40.9565 ], [ -3.7883, 40.9563 ], [ -3.7883, 40.9561 ], [ -3.7876, 40.9557 ], [ -3.7876, 40.9556 ], [ -3.7872, 40.9556 ], [ -3.7866, 40.9559 ], [ -3.7852, 40.9559 ], [ -3.7845, 40.9555 ], [ -3.7844, 40.9553 ], [ -3.7846, 40.9551 ], [ -3.7859, 40.9545 ], [ -3.7867, 40.9543 ], [ -3.787, 40.954 ], [ -3.7878, 40.9548 ], [ -3.7881, 40.9549 ], [ -3.7883, 40.9547 ], [ -3.7886, 40.955 ], [ -3.789, 40.955 ], [ -3.7893, 40.9552 ], [ -3.7895, 40.9554 ], [ -3.7895, 40.9556 ], [ -3.7898, 40.9556 ], [ -3.7904, 40.9552 ], [ -3.7907, 40.9544 ], [ -3.7909, 40.9542 ], [ -3.7918, 40.954 ], [ -3.7928, 40.9542 ], [ -3.7933, 40.9536 ], [ -3.7939, 40.9533 ], [ -3.7931, 40.9526 ], [ -3.793, 40.9527 ], [ -3.7925, 40.9527 ], [ -3.7922, 40.9525 ], [ -3.7923, 40.9524 ], [ -3.7916, 40.9524 ], [ -3.7911, 40.9521 ], [ -3.7909, 40.9523 ], [ -3.7907, 40.9522 ], [ -3.7906, 40.9524 ], [ -3.7898, 40.9524 ], [ -3.7899, 40.9523 ], [ -3.7898, 40.9521 ], [ -3.7892, 40.9523 ], [ -3.7891, 40.952 ], [ -3.7888, 40.9519 ], [ -3.7879, 40.9526 ], [ -3.7878, 40.9526 ], [ -3.7878, 40.9524 ], [ -3.7876, 40.9524 ], [ -3.7876, 40.9525 ], [ -3.7874, 40.9524 ], [ -3.7875, 40.9523 ], [ -3.7874, 40.952 ], [ -3.7876, 40.9513 ], [ -3.7877, 40.9513 ], [ -3.7881, 40.95 ], [ -3.7888, 40.9494 ], [ -3.7896, 40.9492 ], [ -3.7898, 40.9489 ], [ -3.7895, 40.9486 ], [ -3.789, 40.9484 ], [ -3.7892, 40.9483 ], [ -3.789, 40.9482 ], [ -3.789, 40.948 ], [ -3.7886, 40.948 ], [ -3.7885, 40.9483 ], [ -3.7878, 40.9484 ], [ -3.7873, 40.949 ], [ -3.7874, 40.9495 ], [ -3.7869, 40.9498 ], [ -3.7869, 40.9501 ], [ -3.7861, 40.9508 ], [ -3.7862, 40.951 ], [ -3.7861, 40.9515 ], [ -3.7863, 40.9517 ], [ -3.7862, 40.9518 ], [ -3.7863, 40.952 ], [ -3.7858, 40.9526 ], [ -3.7855, 40.9527 ], [ -3.7854, 40.953 ], [ -3.7851, 40.9531 ], [ -3.7852, 40.9534 ], [ -3.785, 40.9537 ], [ -3.7846, 40.9539 ], [ -3.7841, 40.9534 ], [ -3.7839, 40.9535 ], [ -3.7839, 40.9537 ], [ -3.7841, 40.9539 ], [ -3.7841, 40.9542 ], [ -3.7836, 40.9547 ], [ -3.7827, 40.9546 ], [ -3.7825, 40.9548 ], [ -3.782, 40.9547 ], [ -3.7818, 40.9549 ], [ -3.7815, 40.9548 ], [ -3.7811, 40.9544 ], [ -3.7804, 40.9543 ], [ -3.7803, 40.954 ], [ -3.7798, 40.9541 ], [ -3.7786, 40.954 ], [ -3.7786, 40.9537 ], [ -3.7781, 40.9535 ], [ -3.7768, 40.9526 ], [ -3.7757, 40.9531 ], [ -3.7754, 40.953 ], [ -3.7763, 40.9517 ], [ -3.7779, 40.9504 ], [ -3.7788, 40.9495 ], [ -3.779, 40.9491 ], [ -3.7789, 40.9486 ], [ -3.7791, 40.9482 ], [ -3.779, 40.9478 ], [ -3.7782, 40.9472 ], [ -3.7758, 40.9476 ], [ -3.7762, 40.9484 ], [ -3.7765, 40.9494 ], [ -3.7764, 40.9499 ], [ -3.7763, 40.9499 ], [ -3.7764, 40.95 ], [ -3.7764, 40.9505 ], [ -3.7762, 40.9511 ], [ -3.7751, 40.9524 ], [ -3.7737, 40.9534 ], [ -3.7726, 40.954 ], [ -3.7712, 40.9544 ], [ -3.7702, 40.9544 ], [ -3.7691, 40.9537 ], [ -3.767, 40.9532 ], [ -3.7637, 40.9528 ], [ -3.763, 40.9523 ], [ -3.7623, 40.9525 ], [ -3.7618, 40.9525 ], [ -3.7576, 40.951 ], [ -3.7573, 40.951 ], [ -3.7573, 40.9509 ], [ -3.7562, 40.951 ], [ -3.7547, 40.9509 ], [ -3.7542, 40.951 ], [ -3.7542, 40.9511 ], [ -3.7529, 40.9509 ], [ -3.7519, 40.9513 ], [ -3.7516, 40.9516 ], [ -3.7513, 40.9517 ], [ -3.7499, 40.9519 ], [ -3.7499, 40.9522 ], [ -3.7497, 40.9524 ], [ -3.7497, 40.9526 ], [ -3.7491, 40.9532 ], [ -3.7488, 40.953 ], [ -3.7486, 40.9524 ], [ -3.7478, 40.9521 ], [ -3.7472, 40.9517 ], [ -3.7472, 40.9518 ], [ -3.7471, 40.9517 ], [ -3.7461, 40.9516 ], [ -3.7451, 40.9516 ], [ -3.7442, 40.9514 ], [ -3.7434, 40.9519 ], [ -3.7427, 40.9526 ], [ -3.7426, 40.9529 ], [ -3.7425, 40.9529 ], [ -3.7425, 40.9533 ], [ -3.7419, 40.9539 ], [ -3.7418, 40.9542 ], [ -3.7416, 40.9539 ], [ -3.7412, 40.9537 ], [ -3.7397, 40.9533 ], [ -3.7388, 40.9526 ], [ -3.7375, 40.952 ], [ -3.7373, 40.9517 ], [ -3.7363, 40.9518 ], [ -3.7362, 40.952 ], [ -3.7364, 40.9531 ], [ -3.7383, 40.9576 ], [ -3.7388, 40.9591 ], [ -3.7361, 40.9622 ], [ -3.7361, 40.963 ], [ -3.7393, 40.9659 ], [ -3.7414, 40.9696 ], [ -3.7419, 40.9714 ], [ -3.7418, 40.9725 ], [ -3.741, 40.9727 ], [ -3.7409, 40.9729 ], [ -3.7406, 40.973 ], [ -3.7402, 40.973 ], [ -3.7396, 40.9735 ], [ -3.7381, 40.9743 ], [ -3.7387, 40.975 ], [ -3.7387, 40.9754 ], [ -3.7402, 40.9797 ], [ -3.7404, 40.9799 ], [ -3.741, 40.9813 ], [ -3.7421, 40.9827 ], [ -3.7425, 40.9834 ], [ -3.744, 40.9849 ], [ -3.7459, 40.9873 ], [ -3.7468, 40.988 ], [ -3.7485, 40.9883 ], [ -3.7494, 40.9893 ], [ -3.7497, 40.9899 ] ] ] } },
{ "type": "Feature", "properties": { "municipio": "Lozoya", "clasificacion": "no-urbanizable-protegido", "calificacion": "sin-asignar", "version": "vigente", "fuente": "SIT-CAM WFS — UsoDelSuelo:VPLA_V_CLASIFICACION (https://idem.comunidad.madrid/geosrvg/ows)", "fecha_dato": "2026-05-12", "ambito": "2155", "_raw_CD_SIGLAS": "SNUP", "_raw_DS_CLASIF_GEN": "Suelo No Urbanizable Protegido", "_raw_DS_CLASIF_DET": null, "_raw_DS_DOCU": "NORMAS SUBSIDIARIAS", "_raw_DS_LEY": "CM Ley 4/1984, E RD 1346/1976", "_raw_FC_AC": "1984-11-22", "_raw_NM_AREA_M2": 9153997.26418446, "_cam_code": "076" }, "geometry": { "type": "Polygon", "coordinates": [ [ [ -3.7671, 40.944 ], [ -3.7678, 40.9444 ], [ -3.7678, 40.9451 ], [ -3.7677, 40.9454 ], [ -3.7676, 40.9454 ], [ -3.7676, 40.946 ], [ -3.7678, 40.9462 ], [ -3.769, 40.9467 ], [ -3.7712, 40.9466 ], [ -3.7716, 40.9464 ], [ -3.7719, 40.9464 ], [ -3.7721, 40.9462 ], [ -3.7725, 40.9461 ], [ -3.7725, 40.946 ], [ -3.7728, 40.946 ], [ -3.7737, 40.9455 ], [ -3.7745, 40.9454 ], [ -3.7734, 40.9441 ], [ -3.7736, 40.9441 ], [ -3.7746, 40.9435 ], [ -3.776, 40.9429 ], [ -3.7767, 40.9431 ], [ -3.7786, 40.9432 ], [ -3.7787, 40.9435 ], [ -3.7793, 40.9441 ], [ -3.7793, 40.9445 ], [ -3.7796, 40.945 ], [ -3.7799, 40.9451 ], [ -3.7801, 40.945 ], [ -3.7809, 40.9453 ], [ -3.7814, 40.9453 ], [ -3.7819, 40.9449 ], [ -3.7819, 40.9444 ], [ -3.7823, 40.9443 ], [ -3.7833, 40.9429 ], [ -3.7837, 40.9426 ], [ -3.7854, 40.9405 ], [ -3.786, 40.9399 ], [ -3.7872, 40.9395 ], [ -3.7874, 40.9392 ], [ -3.7878, 40.939 ], [ -3.788, 40.9386 ], [ -3.7901, 40.9364 ], [ -3.7918, 40.9354 ], [ -3.7927, 40.9346 ], [ -3.7938, 40.9339 ], [ -3.7944, 40.9338 ], [ -3.7947, 40.9335 ], [ -3.7954, 40.9338 ], [ -3.7957, 40.9337 ], [ -3.7959, 40.9329 ], [ -3.7962, 40.9328 ], [ -3.797, 40.9333 ], [ -3.7974, 40.9332 ], [ -3.798, 40.9329 ], [ -3.7979, 40.9326 ], [ -3.798, 40.9324 ], [ -3.7991, 40.9322 ], [ -3.7995, 40.9319 ], [ -3.8001, 40.9317 ], [ -3.8005, 40.931 ], [ -3.8009, 40.931 ], [ -3.801, 40.9312 ], [ -3.8014, 40.931 ], [ -3.8017, 40.9305 ], [ -3.8022, 40.9302 ], [ -3.8029, 40.93 ], [ -3.8032, 40.9296 ], [ -3.8032, 40.9287 ], [ -3.8036, 40.9281 ], [ -3.8044, 40.9272 ], [ -3.805, 40.9269 ], [ -3.8017, 40.924 ], [ -3.8008, 40.9234 ], [ -3.7968, 40.9194 ], [ -3.7925, 40.9159 ], [ -3.7894, 40.9138 ], [ -3.787, 40.9133 ], [ -3.7856, 40.9143 ], [ -3.785, 40.9152 ], [ -3.7837, 40.9164 ], [ -3.783, 40.9168 ], [ -3.7826, 40.9172 ], [ -3.7812, 40.9179 ], [ -3.7803, 40.9188 ], [ -3.7793, 40.9193 ], [ -3.7792, 40.9195 ], [ -3.7779, 40.9203 ], [ -3.7778, 40.9208 ], [ -3.7771, 40.922 ], [ -3.7771, 40.9222 ], [ -3.7764, 40.9231 ], [ -3.7743, 40.9248 ], [ -3.7718, 40.9254 ], [ -3.771, 40.9253 ], [ -3.7686, 40.9253 ], [ -3.7685, 40.9254 ], [ -3.7679, 40.9253 ], [ -3.7672, 40.9254 ], [ -3.7666, 40.9259 ], [ -3.7649, 40.9264 ], [ -3.7643, 40.9272 ], [ -3.7638, 40.9272 ], [ -3.7635, 40.9274 ], [ -3.7627, 40.9283 ], [ -3.7622, 40.9286 ], [ -3.7606, 40.9294 ], [ -3.7579, 40.9301 ], [ -3.7569, 40.9308 ], [ -3.7563, 40.931 ], [ -3.755, 40.9318 ], [ -3.7546, 40.9319 ], [ -3.7533, 40.933 ], [ -3.753, 40.9331 ], [ -3.7507, 40.9347 ], [ -3.7501, 40.9349 ], [ -3.7493, 40.9354 ], [ -3.7477, 40.9358 ], [ -3.7468, 40.9363 ], [ -3.7465, 40.9366 ], [ -3.7463, 40.9366 ], [ -3.745, 40.9379 ], [ -3.7441, 40.9385 ], [ -3.7438, 40.939 ], [ -3.743, 40.9397 ], [ -3.7432, 40.94 ], [ -3.744, 40.9405 ], [ -3.7442, 40.9405 ], [ -3.7449, 40.9411 ], [ -3.7457, 40.9413 ], [ -3.7459, 40.9416 ], [ -3.7461, 40.9416 ], [ -3.7463, 40.9418 ], [ -3.7467, 40.9418 ], [ -3.747, 40.9422 ], [ -3.7493, 40.9423 ], [ -3.7504, 40.9421 ], [ -3.7508, 40.9419 ], [ -3.7515, 40.9419 ], [ -3.7543, 40.9434 ], [ -3.7551, 40.9435 ], [ -3.756, 40.9434 ], [ -3.7563, 40.943 ], [ -3.7567, 40.9428 ], [ -3.7568, 40.9426 ], [ -3.7567, 40.9425 ], [ -3.7569, 40.9424 ], [ -3.758, 40.9425 ], [ -3.7587, 40.9429 ], [ -3.7588, 40.9431 ], [ -3.7587, 40.9432 ], [ -3.7589, 40.9434 ], [ -3.7596, 40.9436 ], [ -3.76, 40.9442 ], [ -3.7604, 40.9443 ], [ -3.7614, 40.9451 ], [ -3.7622, 40.9455 ], [ -3.7624, 40.9458 ], [ -3.7623, 40.9458 ], [ -3.7623, 40.9461 ], [ -3.7626, 40.9462 ], [ -3.7641, 40.9461 ], [ -3.765, 40.9457 ], [ -3.7661, 40.9448 ], [ -3.7663, 40.9442 ], [ -3.7665, 40.944 ], [ -3.7671, 40.944 ] ] ] } },
{ "type": "Feature", "properties": { "municipio": "Lozoya", "clasificacion": "no-urbanizable-protegido", "calificacion": "sin-asignar", "version": "vigente", "fuente": "SIT-CAM WFS — UsoDelSuelo:VPLA_V_CLASIFICACION (https://idem.comunidad.madrid/geosrvg/ows)", "fecha_dato": "2026-05-12", "ambito": "2155", "_raw_CD_SIGLAS": "SNUP", "_raw_DS_CLASIF_GEN": "Suelo No Urbanizable Protegido", "_raw_DS_CLASIF_DET": null, "_raw_DS_DOCU": "NORMAS SUBSIDIARIAS", "_raw_DS_LEY": "CM Ley 4/1984, E RD 1346/1976", "_raw_FC_AC": "1984-11-22", "_raw_NM_AREA_M2": 6318.6143063735699, "_cam_code": "076" }, "geometry": { "type": "Polygon", "coordinates": [ [ [ -3.7934, 40.9499 ], [ -3.7943, 40.9506 ], [ -3.7949, 40.9508 ], [ -3.7952, 40.9507 ], [ -3.795, 40.9502 ], [ -3.7944, 40.95 ], [ -3.7939, 40.9501 ], [ -3.7937, 40.9499 ], [ -3.7936, 40.9499 ], [ -3.7936, 40.9499 ], [ -3.7936, 40.9499 ], [ -3.7935, 40.9499 ], [ -3.7934, 40.9499 ] ] ] } },
{ "type": "Feature", "properties": { "municipio": "Lozoya", "clasificacion": "no-urbanizable-protegido", "calificacion": "sin-asignar", "version": "vigente", "fuente": "SIT-CAM WFS — UsoDelSuelo:VPLA_V_CLASIFICACION (https://idem.comunidad.madrid/geosrvg/ows)", "fecha_dato": "2026-05-12", "ambito": "2155", "_raw_CD_SIGLAS": "SNUP", "_raw_DS_CLASIF_GEN": "Suelo No Urbanizable Protegido", "_raw_DS_CLASIF_DET": null, "_raw_DS_DOCU": "NORMAS SUBSIDIARIAS", "_raw_DS_LEY": "CM Ley 4/1984, E RD 1346/1976", "_raw_FC_AC": "1984-11-22", "_raw_NM_AREA_M2": 2372.0477760437702, "_cam_code": "076" }, "geometry": { "type": "Polygon", "coordinates": [ [ [ -3.7974, 40.9513 ], [ -3.7978, 40.9516 ], [ -3.7987, 40.9517 ], [ -3.7986, 40.9515 ], [ -3.798, 40.9513 ], [ -3.7974, 40.9513 ] ] ] } },
{ "type": "Feature", "properties": { "municipio": "Lozoya", "clasificacion": "no-urbanizable-protegido", "calificacion": "sin-asignar", "version": "vigente", "fuente": "SIT-CAM WFS — UsoDelSuelo:VPLA_V_CLASIFICACION (https://idem.comunidad.madrid/geosrvg/ows)", "fecha_dato": "2026-05-12", "ambito": "2155", "_raw_CD_SIGLAS": "SNUP", "_raw_DS_CLASIF_GEN": "Suelo No Urbanizable Protegido", "_raw_DS_CLASIF_DET": null, "_raw_DS_DOCU": "NORMAS SUBSIDIARIAS", "_raw_DS_LEY": "CM Ley 4/1984, E RD 1346/1976", "_raw_FC_AC": "1984-11-22", "_raw_NM_AREA_M2": 9061.9618383977304, "_cam_code": "076" }, "geometry": { "type": "Polygon", "coordinates": [ [ [ -3.7991, 40.952 ], [ -3.7994, 40.9524 ], [ -3.7999, 40.9528 ], [ -3.8005, 40.953 ], [ -3.8007, 40.953 ], [ -3.8009, 40.9528 ], [ -3.8007, 40.9525 ], [ -3.7999, 40.952 ], [ -3.7996, 40.9519 ], [ -3.7994, 40.952 ], [ -3.7994, 40.9518 ], [ -3.7991, 40.9518 ], [ -3.7991, 40.952 ] ] ] } },
{ "type": "Feature", "properties": { "municipio": "Lozoya", "clasificacion": "no-urbanizable-protegido", "calificacion": "sin-asignar", "version": "vigente", "fuente": "SIT-CAM WFS — UsoDelSuelo:VPLA_V_CLASIFICACION (https://idem.comunidad.madrid/geosrvg/ows)", "fecha_dato": "2026-05-12", "ambito": "2155", "_raw_CD_SIGLAS": "SNUP", "_raw_DS_CLASIF_GEN": "Suelo No Urbanizable Protegido", "_raw_DS_CLASIF_DET": null, "_raw_DS_DOCU": "NORMAS SUBSIDIARIAS", "_raw_DS_LEY": "CM Ley 4/1984, E RD 1346/1976", "_raw_FC_AC": "1984-11-22", "_raw_NM_AREA_M2": 65807.420564806598, "_cam_code": "076" }, "geometry": { "type": "Polygon", "coordinates": [ [ [ -3.8006, 40.9538 ], [ -3.8009, 40.954 ], [ -3.8009, 40.9535 ], [ -3.8006, 40.9531 ], [ -3.8, 40.953 ], [ -3.7992, 40.9526 ], [ -3.7987, 40.9519 ], [ -3.7969, 40.9514 ], [ -3.7967, 40.9512 ], [ -3.796, 40.9512 ], [ -3.7958, 40.951 ], [ -3.7957, 40.951 ], [ -3.7956, 40.951 ], [ -3.7955, 40.951 ], [ -3.7954, 40.951 ], [ -3.7962, 40.9514 ], [ -3.7963, 40.9518 ], [ -3.796, 40.9521 ], [ -3.7957, 40.9522 ], [ -3.7955, 40.9525 ], [ -3.7952, 40.9526 ], [ -3.7953, 40.9527 ], [ -3.7968, 40.9533 ], [ -3.7983, 40.9535 ], [ -3.7988, 40.9537 ], [ -3.7991, 40.9537 ], [ -3.7994, 40.9534 ], [ -3.7994, 40.9532 ], [ -3.8, 40.9535 ], [ -3.8004, 40.9539 ], [ -3.8006, 40.9538 ] ] ] } },
{ "type": "Feature", "properties": { "municipio": "Lozoya", "clasificacion": "no-urbanizable-protegido", "calificacion": "sin-asignar", "version": "vigente", "fuente": "SIT-CAM WFS — UsoDelSuelo:VPLA_V_CLASIFICACION (https://idem.comunidad.madrid/geosrvg/ows)", "fecha_dato": "2026-05-12", "ambito": "2155", "_raw_CD_SIGLAS": "SNUP", "_raw_DS_CLASIF_GEN": "Suelo No Urbanizable Protegido", "_raw_DS_CLASIF_DET": null, "_raw_DS_DOCU": "NORMAS SUBSIDIARIAS", "_raw_DS_LEY": "CM Ley 4/1984, E RD 1346/1976", "_raw_FC_AC": "1984-11-22", "_raw_NM_AREA_M2": 6191.1112473247404, "_cam_code": "076" }, "geometry": { "type": "Polygon", "coordinates": [ [ [ -3.7928, 40.9546 ], [ -3.7933, 40.9548 ], [ -3.7937, 40.9546 ], [ -3.7938, 40.9543 ], [ -3.7928, 40.9543 ], [ -3.7921, 40.9541 ], [ -3.7921, 40.9544 ], [ -3.7922, 40.9544 ], [ -3.7923, 40.9547 ], [ -3.7928, 40.9547 ], [ -3.7928, 40.9546 ] ] ] } },
{ "type": "Feature", "properties": { "municipio": "Lozoya", "clasificacion": "no-urbanizable-protegido", "calificacion": "sin-asignar", "version": "vigente", "fuente": "SIT-CAM WFS — UsoDelSuelo:VPLA_V_CLASIFICACION (https://idem.comunidad.madrid/geosrvg/ows)", "fecha_dato": "2026-05-12", "ambito": "2155", "_raw_CD_SIGLAS": "SNUP", "_raw_DS_CLASIF_GEN": "Suelo No Urbanizable Protegido", "_raw_DS_CLASIF_DET": "Embalse", "_raw_DS_DOCU": "NORMAS SUBSIDIARIAS", "_raw_DS_LEY": "CM Ley 4/1984, E RD 1346/1976", "_raw_FC_AC": "1984-11-22", "_raw_NM_AREA_M2": 3687890.4587624399, "_cam_code": "076" }, "geometry": { "type": "Polygon", "coordinates": [ [ [ -3.7782, 40.9472 ], [ -3.779, 40.9478 ], [ -3.7791, 40.9482 ], [ -3.7789, 40.9486 ], [ -3.779, 40.9491 ], [ -3.7788, 40.9495 ], [ -3.7779, 40.9504 ], [ -3.7763, 40.9517 ], [ -3.7754, 40.953 ], [ -3.7757, 40.9531 ], [ -3.7768, 40.9526 ], [ -3.7781, 40.9535 ], [ -3.7786, 40.9537 ], [ -3.7786, 40.954 ], [ -3.7789, 40.9541 ], [ -3.7803, 40.954 ], [ -3.7804, 40.9543 ], [ -3.7811, 40.9544 ], [ -3.7815, 40.9548 ], [ -3.7818, 40.9549 ], [ -3.782, 40.9547 ], [ -3.7825, 40.9548 ], [ -3.7827, 40.9546 ], [ -3.7836, 40.9547 ], [ -3.7841, 40.9542 ], [ -3.7841, 40.9539 ], [ -3.7839, 40.9537 ], [ -3.7839, 40.9535 ], [ -3.7841, 40.9534 ], [ -3.7846, 40.9539 ], [ -3.785, 40.9537 ], [ -3.7852, 40.9534 ], [ -3.7851, 40.9531 ], [ -3.7854, 40.953 ], [ -3.7855, 40.9527 ], [ -3.7858, 40.9526 ], [ -3.7863, 40.952 ], [ -3.7862, 40.9518 ], [ -3.7863, 40.9517 ], [ -3.7861, 40.9515 ], [ -3.7862, 40.951 ], [ -3.7861, 40.9508 ], [ -3.7869, 40.9501 ], [ -3.7869, 40.9498 ], [ -3.7874, 40.9495 ], [ -3.7873, 40.949 ], [ -3.7878, 40.9484 ], [ -3.7885, 40.9483 ], [ -3.7886, 40.948 ], [ -3.789, 40.948 ], [ -3.789, 40.9482 ], [ -3.7892, 40.9483 ], [ -3.7892, 40.9478 ], [ -3.789, 40.9476 ], [ -3.7885, 40.9476 ], [ -3.7881, 40.9473 ], [ -3.7881, 40.947 ], [ -3.7889, 40.9465 ], [ -3.7898, 40.9457 ], [ -3.7903, 40.9458 ], [ -3.7909, 40.9454 ], [ -3.7913, 40.9443 ], [ -3.7918, 40.944 ], [ -3.7928, 40.9443 ], [ -3.7932, 40.9437 ], [ -3.7935, 40.9435 ], [ -3.7949, 40.9428 ], [ -3.7955, 40.9427 ], [ -3.7958, 40.9423 ], [ -3.7961, 40.9423 ], [ -3.7963, 40.9426 ], [ -3.7969, 40.9426 ], [ -3.7974, 40.9423 ], [ -3.7986, 40.9422 ], [ -3.7991, 40.9425 ], [ -3.7998, 40.9427 ], [ -3.8009, 40.9435 ], [ -3.8011, 40.9443 ], [ -3.8019, 40.9452 ], [ -3.804, 40.9452 ], [ -3.8051, 40.9447 ], [ -3.8061, 40.9446 ], [ -3.807, 40.9442 ], [ -3.8071, 40.9439 ], [ -3.8076, 40.9433 ], [ -3.8077, 40.9425 ], [ -3.808, 40.9418 ], [ -3.81, 40.9398 ], [ -3.8108, 40.9393 ], [ -3.8112, 40.9389 ], [ -3.811, 40.9386 ], [ -3.8124, 40.9379 ], [ -3.8135, 40.9371 ], [ -3.8141, 40.937 ], [ -3.8143, 40.9368 ], [ -3.8144, 40.9357 ], [ -3.8095, 40.9312 ], [ -3.8064, 40.9281 ], [ -3.805, 40.9269 ], [ -3.8044, 40.9272 ], [ -3.8036, 40.9281 ], [ -3.8032, 40.9287 ], [ -3.8032, 40.9296 ], [ -3.8029, 40.93 ], [ -3.8022, 40.9302 ], [ -3.8017, 40.9305 ], [ -3.8014, 40.931 ], [ -3.801, 40.9312 ], [ -3.8009, 40.931 ], [ -3.8005, 40.931 ], [ -3.8001, 40.9317 ], [ -3.7995, 40.9319 ], [ -3.7991, 40.9322 ], [ -3.798, 40.9324 ], [ -3.7979, 40.9326 ], [ -3.798, 40.9329 ], [ -3.7974, 40.9332 ], [ -3.797, 40.9333 ], [ -3.7962, 40.9328 ], [ -3.7959, 40.9329 ], [ -3.7957, 40.9337 ], [ -3.7954, 40.9338 ], [ -3.7947, 40.9335 ], [ -3.7944, 40.9338 ], [ -3.7938, 40.9339 ], [ -3.7927, 40.9346 ], [ -3.7918, 40.9354 ], [ -3.7901, 40.9364 ], [ -3.788, 40.9386 ], [ -3.7878, 40.939 ], [ -3.7874, 40.9392 ], [ -3.7872, 40.9395 ], [ -3.786, 40.9399 ], [ -3.7854, 40.9405 ], [ -3.7837, 40.9426 ], [ -3.7833, 40.9429 ], [ -3.7823, 40.9443 ], [ -3.7819, 40.9444 ], [ -3.7819, 40.9449 ], [ -3.7814, 40.9453 ], [ -3.7809, 40.9453 ], [ -3.7801, 40.945 ], [ -3.7799, 40.9451 ], [ -3.7796, 40.945 ], [ -3.7793, 40.9445 ], [ -3.7793, 40.9441 ], [ -3.7787, 40.9435 ], [ -3.7786, 40.9432 ], [ -3.7767, 40.9431 ], [ -3.776, 40.9429 ], [ -3.7746, 40.9435 ], [ -3.7736, 40.9441 ], [ -3.7734, 40.9441 ], [ -3.7751, 40.946 ], [ -3.7754, 40.946 ], [ -3.7758, 40.9457 ], [ -3.7764, 40.9458 ], [ -3.7769, 40.9464 ], [ -3.7773, 40.9463 ], [ -3.7777, 40.9465 ], [ -3.7781, 40.9469 ], [ -3.7782, 40.9472 ] ] ] } },
{ "type": "Feature", "properties": { "municipio": "Lozoya", "clasificacion": "no-urbanizable-protegido", "calificacion": "sin-asignar", "version": "vigente", "fuente": "SIT-CAM WFS — UsoDelSuelo:VPLA_V_CLASIFICACION (https://idem.comunidad.madrid/geosrvg/ows)", "fecha_dato": "2026-05-12", "ambito": "2155", "_raw_CD_SIGLAS": "SNUP", "_raw_DS_CLASIF_GEN": "Suelo No Urbanizable Protegido", "_raw_DS_CLASIF_DET": null, "_raw_DS_DOCU": "NORMAS SUBSIDIARIAS", "_raw_DS_LEY": "CM Ley 4/1984, E RD 1346/1976", "_raw_FC_AC": "1984-11-22", "_raw_NM_AREA_M2": 2826.4813349139399, "_cam_code": "076" }, "geometry": { "type": "Polygon", "coordinates": [ [ [ -3.8018, 40.9549 ], [ -3.8011, 40.9548 ], [ -3.8011, 40.9549 ], [ -3.8018, 40.9556 ], [ -3.8018, 40.9549 ] ] ] } },
{ "type": "Feature", "properties": { "municipio": "Lozoya", "clasificacion": "urbano-consolidado", "calificacion": "sin-asignar", "version": "vigente", "fuente": "SIT-CAM WFS — UsoDelSuelo:VPLA_V_CLASIFICACION (https://idem.comunidad.madrid/geosrvg/ows)", "fecha_dato": "2026-05-12", "ambito": "2155", "_raw_CD_SIGLAS": "SU", "_raw_DS_CLASIF_GEN": "Suelo Urbano", "_raw_DS_CLASIF_DET": null, "_raw_DS_DOCU": "NORMAS SUBSIDIARIAS", "_raw_DS_LEY": "CM Ley 4/1984, E RD 1346/1976", "_raw_FC_AC": "1984-11-22", "_raw_NM_AREA_M2": 910539.07305022306, "_cam_code": "076" }, "geometry": { "type": "Polygon", "coordinates": [ [ [ -3.7967, 40.9611 ], [ -3.7967, 40.9623 ], [ -3.7966, 40.9625 ], [ -3.7973, 40.9627 ], [ -3.7977, 40.9627 ], [ -3.7977, 40.9624 ], [ -3.7979, 40.9621 ], [ -3.7987, 40.9618 ], [ -3.7994, 40.9617 ], [ -3.7995, 40.9602 ], [ -3.7999, 40.9599 ], [ -3.7999, 40.9595 ], [ -3.8001, 40.9593 ], [ -3.7999, 40.9583 ], [ -3.8001, 40.9582 ], [ -3.8002, 40.9579 ], [ -3.8004, 40.9566 ], [ -3.8006, 40.9565 ], [ -3.8011, 40.9558 ], [ -3.8019, 40.9562 ], [ -3.8023, 40.9562 ], [ -3.8022, 40.9552 ], [ -3.8016, 40.9541 ], [ -3.8016, 40.9535 ], [ -3.8013, 40.953 ], [ -3.8005, 40.9523 ], [ -3.8009, 40.9519 ], [ -3.8004, 40.9516 ], [ -3.7997, 40.9516 ], [ -3.7985, 40.9512 ], [ -3.7977, 40.9512 ], [ -3.797, 40.951 ], [ -3.797, 40.9511 ], [ -3.7967, 40.9511 ], [ -3.7966, 40.951 ], [ -3.7966, 40.951 ], [ -3.7965, 40.951 ], [ -3.7964, 40.951 ], [ -3.7964, 40.951 ], [ -3.7963, 40.951 ], [ -3.7962, 40.951 ], [ -3.7961, 40.951 ], [ -3.7962, 40.9509 ], [ -3.7957, 40.9509 ], [ -3.7951, 40.9504 ], [ -3.7951, 40.9502 ], [ -3.7953, 40.95 ], [ -3.796, 40.9502 ], [ -3.796, 40.95 ], [ -3.7956, 40.9497 ], [ -3.7954, 40.9497 ], [ -3.7954, 40.9496 ], [ -3.7946, 40.9493 ], [ -3.7926, 40.9489 ], [ -3.7924, 40.9497 ], [ -3.7917, 40.9497 ], [ -3.7914, 40.9495 ], [ -3.7909, 40.9494 ], [ -3.7898, 40.9486 ], [ -3.7891, 40.9483 ], [ -3.789, 40.9484 ], [ -3.7895, 40.9486 ], [ -3.7898, 40.9489 ], [ -3.7896, 40.9492 ], [ -3.7888, 40.9494 ], [ -3.7881, 40.95 ], [ -3.7877, 40.9513 ], [ -3.7876, 40.9513 ], [ -3.7874, 40.952 ], [ -3.7875, 40.9523 ], [ -3.7874, 40.9524 ], [ -3.7876, 40.9525 ], [ -3.7876, 40.9524 ], [ -3.7878, 40.9524 ], [ -3.7878, 40.9526 ], [ -3.7879, 40.9526 ], [ -3.7888, 40.9519 ], [ -3.7891, 40.952 ], [ -3.7892, 40.9523 ], [ -3.7892, 40.9522 ], [ -3.7893, 40.9523 ], [ -3.7893, 40.9522 ], [ -3.7898, 40.9521 ], [ -3.7899, 40.9522 ], [ -3.7898, 40.9524 ], [ -3.7906, 40.9524 ], [ -3.7907, 40.9522 ], [ -3.7909, 40.9523 ], [ -3.7911, 40.9521 ], [ -3.7916, 40.9524 ], [ -3.7923, 40.9524 ], [ -3.7922, 40.9525 ], [ -3.7925, 40.9527 ], [ -3.793, 40.9527 ], [ -3.7931, 40.9526 ], [ -3.7939, 40.9533 ], [ -3.7933, 40.9536 ], [ -3.7928, 40.9542 ], [ -3.7919, 40.954 ], [ -3.7909, 40.9542 ], [ -3.7907, 40.9544 ], [ -3.7904, 40.9552 ], [ -3.7898, 40.9556 ], [ -3.7895, 40.9556 ], [ -3.7895, 40.9554 ], [ -3.7893, 40.9552 ], [ -3.789, 40.955 ], [ -3.7886, 40.955 ], [ -3.7883, 40.9547 ], [ -3.7881, 40.9549 ], [ -3.7878, 40.9548 ], [ -3.787, 40.954 ], [ -3.7867, 40.9543 ], [ -3.7859, 40.9545 ], [ -3.7846, 40.9551 ], [ -3.7844, 40.9553 ], [ -3.7845, 40.9555 ], [ -3.7852, 40.9559 ], [ -3.7866, 40.9559 ], [ -3.7872, 40.9556 ], [ -3.7876, 40.9556 ], [ -3.7876, 40.9557 ], [ -3.7882, 40.956 ], [ -3.7884, 40.9565 ], [ -3.789, 40.9568 ], [ -3.789, 40.9569 ], [ -3.7892, 40.9569 ], [ -3.7897, 40.9574 ], [ -3.7908, 40.958 ], [ -3.7908, 40.9584 ], [ -3.791, 40.9588 ], [ -3.7911, 40.9588 ], [ -3.7914, 40.9596 ], [ -3.7919, 40.9602 ], [ -3.7919, 40.9607 ], [ -3.7921, 40.9609 ], [ -3.7925, 40.9609 ], [ -3.7924, 40.9606 ], [ -3.7926, 40.9606 ], [ -3.7925, 40.9604 ], [ -3.7928, 40.9604 ], [ -3.7929, 40.96 ], [ -3.793, 40.96 ], [ -3.793, 40.9595 ], [ -3.7932, 40.9589 ], [ -3.7926, 40.9586 ], [ -3.7925, 40.9587 ], [ -3.7924, 40.9578 ], [ -3.7932, 40.9579 ], [ -3.7933, 40.9574 ], [ -3.7937, 40.9573 ], [ -3.7941, 40.9569 ], [ -3.795, 40.9566 ], [ -3.7957, 40.9575 ], [ -3.7946, 40.9586 ], [ -3.7951, 40.9588 ], [ -3.7957, 40.9588 ], [ -3.7962, 40.9585 ], [ -3.7968, 40.9584 ], [ -3.797, 40.9594 ], [ -3.7972, 40.9596 ], [ -3.7974, 40.9596 ], [ -3.7975, 40.9608 ], [ -3.7972, 40.961 ], [ -3.7967, 40.961 ], [ -3.7967, 40.9611 ] ], [ [ -3.7974, 40.9513 ], [ -3.798, 40.9513 ], [ -3.7986, 40.9515 ], [ -3.7987, 40.9517 ], [ -3.7978, 40.9516 ], [ -3.7974, 40.9513 ] ], [ [ -3.8011, 40.9548 ], [ -3.8018, 40.9549 ], [ -3.8018, 40.9556 ], [ -3.8011, 40.9549 ], [ -3.8011, 40.9548 ] ], [ [ -3.7933, 40.9543 ], [ -3.7938, 40.9543 ], [ -3.7937, 40.9546 ], [ -3.7933, 40.9548 ], [ -3.7928, 40.9546 ], [ -3.7928, 40.9547 ], [ -3.7923, 40.9547 ], [ -3.7922, 40.9544 ], [ -3.7921, 40.9544 ], [ -3.7921, 40.9541 ], [ -3.7928, 40.9543 ], [ -3.7933, 40.9543 ] ], [ [ -3.7944, 40.95 ], [ -3.795, 40.9502 ], [ -3.7952, 40.9507 ], [ -3.7949, 40.9508 ], [ -3.7943, 40.9506 ], [ -3.7934, 40.9499 ], [ -3.7937, 40.9499 ], [ -3.7939, 40.9501 ], [ -3.7944, 40.95 ] ], [ [ -3.7994, 40.9524 ], [ -3.7991, 40.952 ], [ -3.7991, 40.9518 ], [ -3.7994, 40.9518 ], [ -3.7994, 40.952 ], [ -3.7995, 40.9519 ], [ -3.7999, 40.952 ], [ -3.8007, 40.9525 ], [ -3.8009, 40.9528 ], [ -3.8007, 40.953 ], [ -3.7999, 40.9528 ], [ -3.7994, 40.9524 ] ], [ [ -3.8003, 40.9531 ], [ -3.8006, 40.9531 ], [ -3.8009, 40.9535 ], [ -3.8009, 40.954 ], [ -3.8006, 40.9538 ], [ -3.8004, 40.9539 ], [ -3.8, 40.9535 ], [ -3.7994, 40.9532 ], [ -3.7994, 40.9534 ], [ -3.7991, 40.9537 ], [ -3.7988, 40.9537 ], [ -3.7983, 40.9535 ], [ -3.7968, 40.9533 ], [ -3.7955, 40.9528 ], [ -3.7952, 40.9526 ], [ -3.796, 40.9521 ], [ -3.7963, 40.9518 ], [ -3.7963, 40.9515 ], [ -3.7954, 40.951 ], [ -3.7958, 40.951 ], [ -3.796, 40.9512 ], [ -3.7967, 40.9512 ], [ -3.7969, 40.9514 ], [ -3.7975, 40.9515 ], [ -3.7978, 40.9517 ], [ -3.7985, 40.9518 ], [ -3.7989, 40.9521 ], [ -3.7989, 40.9523 ], [ -3.7992, 40.9526 ], [ -3.8003, 40.9531 ] ] ] } },
{ "type": "Feature", "properties": { "municipio": "Lozoya", "clasificacion": "urbanizable-no-sectorizado", "calificacion": "sin-asignar", "version": "vigente", "fuente": "SIT-CAM WFS — UsoDelSuelo:VPLA_V_CLASIFICACION (https://idem.comunidad.madrid/geosrvg/ows)", "fecha_dato": "2026-05-12", "ambito": "2155", "_raw_CD_SIGLAS": "SUBNS", "_raw_DS_CLASIF_GEN": "Suelo No Urbanizable Común", "_raw_DS_CLASIF_DET": null, "_raw_DS_DOCU": "NORMAS SUBSIDIARIAS", "_raw_DS_LEY": "CM Ley 4/1984, E RD 1346/1976", "_raw_FC_AC": "1984-11-22", "_raw_NM_AREA_M2": 746253.942990546, "_cam_code": "076" }, "geometry": { "type": "Polygon", "coordinates": [ [ [ -3.7755, 40.9635 ], [ -3.7751, 40.9639 ], [ -3.7751, 40.9641 ], [ -3.7753, 40.9642 ], [ -3.7755, 40.9647 ], [ -3.7756, 40.9647 ], [ -3.7756, 40.9654 ], [ -3.7755, 40.9655 ], [ -3.7763, 40.9649 ], [ -3.7773, 40.9645 ], [ -3.7773, 40.9643 ], [ -3.778, 40.9634 ], [ -3.7786, 40.9634 ], [ -3.7797, 40.9637 ], [ -3.78, 40.964 ], [ -3.78, 40.9642 ], [ -3.7805, 40.965 ], [ -3.7809, 40.9654 ], [ -3.7807, 40.9648 ], [ -3.7807, 40.9641 ], [ -3.7809, 40.9636 ], [ -3.7813, 40.9633 ], [ -3.7818, 40.9631 ], [ -3.7826, 40.963 ], [ -3.7834, 40.9638 ], [ -3.7836, 40.9638 ], [ -3.7836, 40.9639 ], [ -3.7844, 40.9643 ], [ -3.7844, 40.9644 ], [ -3.7845, 40.9641 ], [ -3.7849, 40.9639 ], [ -3.7848, 40.9636 ], [ -3.7847, 40.9636 ], [ -3.785, 40.9634 ], [ -3.7853, 40.9617 ], [ -3.7855, 40.9614 ], [ -3.7862, 40.9614 ], [ -3.787, 40.9618 ], [ -3.7877, 40.9619 ], [ -3.7877, 40.962 ], [ -3.7884, 40.9619 ], [ -3.7887, 40.9621 ], [ -3.7888, 40.9618 ], [ -3.7891, 40.9615 ], [ -3.7898, 40.9611 ], [ -3.7901, 40.9604 ], [ -3.7903, 40.9603 ], [ -3.7915, 40.9603 ], [ -3.7919, 40.9606 ], [ -3.7919, 40.9602 ], [ -3.7914, 40.9596 ], [ -3.7914, 40.9594 ], [ -3.7911, 40.959 ], [ -3.7911, 40.9588 ], [ -3.791, 40.9588 ], [ -3.7908, 40.9584 ], [ -3.7908, 40.958 ], [ -3.7897, 40.9574 ], [ -3.7895, 40.9571 ], [ -3.789, 40.9569 ], [ -3.7885, 40.9565 ], [ -3.7883, 40.9567 ], [ -3.7879, 40.9568 ], [ -3.7878, 40.9567 ], [ -3.7873, 40.9567 ], [ -3.7872, 40.9571 ], [ -3.7868, 40.9576 ], [ -3.7868, 40.9578 ], [ -3.7864, 40.9582 ], [ -3.7862, 40.9582 ], [ -3.7864, 40.9573 ], [ -3.7861, 40.957 ], [ -3.7856, 40.9568 ], [ -3.785, 40.9568 ], [ -3.7847, 40.9572 ], [ -3.784, 40.9574 ], [ -3.7839, 40.9573 ], [ -3.784, 40.9568 ], [ -3.7839, 40.9568 ], [ -3.7839, 40.9565 ], [ -3.7837, 40.9563 ], [ -3.7827, 40.957 ], [ -3.781, 40.9575 ], [ -3.7796, 40.9576 ], [ -3.779, 40.9579 ], [ -3.7786, 40.9584 ], [ -3.7777, 40.9591 ], [ -3.7773, 40.9602 ], [ -3.7765, 40.9613 ], [ -3.7758, 40.9626 ], [ -3.7757, 40.9626 ], [ -3.7757, 40.963 ], [ -3.7755, 40.9635 ] ] ] } },
{ "type": "Feature", "properties": { "municipio": "Lozoya", "clasificacion": "urbanizable-no-sectorizado", "calificacion": "sin-asignar", "version": "vigente", "fuente": "SIT-CAM WFS — UsoDelSuelo:VPLA_V_CLASIFICACION (https://idem.comunidad.madrid/geosrvg/ows)", "fecha_dato": "2026-05-12", "ambito": "2155", "_raw_CD_SIGLAS": "SUBNS", "_raw_DS_CLASIF_GEN": "Suelo No Urbanizable Común", "_raw_DS_CLASIF_DET": null, "_raw_DS_DOCU": "NORMAS SUBSIDIARIAS", "_raw_DS_LEY": "CM Ley 4/1984, E RD 1346/1976", "_raw_FC_AC": "1984-11-22", "_raw_NM_AREA_M2": 382913.78682645003, "_cam_code": "076" }, "geometry": { "type": "Polygon", "coordinates": [ [ [ -3.8003, 40.9575 ], [ -3.8001, 40.9582 ], [ -3.7999, 40.9583 ], [ -3.8, 40.9589 ], [ -3.8001, 40.9589 ], [ -3.8001, 40.9593 ], [ -3.7999, 40.9595 ], [ -3.7999, 40.9598 ], [ -3.8004, 40.959 ], [ -3.8013, 40.9588 ], [ -3.8015, 40.9585 ], [ -3.8025, 40.9579 ], [ -3.8029, 40.9579 ], [ -3.8029, 40.958 ], [ -3.8035, 40.9582 ], [ -3.8035, 40.9583 ], [ -3.8037, 40.9583 ], [ -3.8046, 40.9592 ], [ -3.8044, 40.9583 ], [ -3.8046, 40.9583 ], [ -3.8048, 40.9585 ], [ -3.8051, 40.9585 ], [ -3.8053, 40.9588 ], [ -3.8053, 40.9585 ], [ -3.8047, 40.9579 ], [ -3.8044, 40.9574 ], [ -3.8044, 40.9571 ], [ -3.8045, 40.9571 ], [ -3.8047, 40.9565 ], [ -3.8049, 40.9563 ], [ -3.8052, 40.9562 ], [ -3.8053, 40.956 ], [ -3.8058, 40.9558 ], [ -3.8058, 40.9557 ], [ -3.8068, 40.9556 ], [ -3.8079, 40.9552 ], [ -3.8091, 40.9552 ], [ -3.8102, 40.9559 ], [ -3.8102, 40.956 ], [ -3.8104, 40.956 ], [ -3.8105, 40.9556 ], [ -3.8106, 40.9556 ], [ -3.8105, 40.955 ], [ -3.8109, 40.9549 ], [ -3.811, 40.9551 ], [ -3.8112, 40.9544 ], [ -3.8112, 40.9539 ], [ -3.8114, 40.9538 ], [ -3.8114, 40.9535 ], [ -3.8111, 40.9534 ], [ -3.8108, 40.9531 ], [ -3.8104, 40.953 ], [ -3.8101, 40.9527 ], [ -3.8095, 40.9527 ], [ -3.8091, 40.9529 ], [ -3.8088, 40.9529 ], [ -3.8073, 40.9524 ], [ -3.8067, 40.9524 ], [ -3.8048, 40.9528 ], [ -3.8047, 40.953 ], [ -3.8044, 40.953 ], [ -3.8036, 40.9522 ], [ -3.8031, 40.952 ], [ -3.8031, 40.9519 ], [ -3.8027, 40.9518 ], [ -3.8009, 40.9519 ], [ -3.8005, 40.9523 ], [ -3.8013, 40.953 ], [ -3.8016, 40.9535 ], [ -3.8016, 40.9541 ], [ -3.8022, 40.9552 ], [ -3.8023, 40.9562 ], [ -3.8019, 40.9562 ], [ -3.8011, 40.9558 ], [ -3.8003, 40.9568 ], [ -3.8003, 40.9575 ] ] ] } },
{ "type": "Feature", "properties": { "municipio": "Lozoya", "clasificacion": "urbanizable-no-sectorizado", "calificacion": "sin-asignar", "version": "vigente", "fuente": "SIT-CAM WFS — UsoDelSuelo:VPLA_V_CLASIFICACION (https://idem.comunidad.madrid/geosrvg/ows)", "fecha_dato": "2026-05-12", "ambito": "2155", "_raw_CD_SIGLAS": "SUBNS", "_raw_DS_CLASIF_GEN": "Suelo No Urbanizable Común", "_raw_DS_CLASIF_DET": null, "_raw_DS_DOCU": "NORMAS SUBSIDIARIAS", "_raw_DS_LEY": "CM Ley 4/1984, E RD 1346/1976", "_raw_FC_AC": "1984-11-22", "_raw_NM_AREA_M2": 3352897.27621831, "_cam_code": "076" }, "geometry": { "type": "Polygon", "coordinates": [ [ [ -3.7629, 40.9523 ], [ -3.7637, 40.9528 ], [ -3.7641, 40.9529 ], [ -3.7658, 40.953 ], [ -3.7688, 40.9536 ], [ -3.7695, 40.9539 ], [ -3.7702, 40.9544 ], [ -3.7712, 40.9544 ], [ -3.7726, 40.954 ], [ -3.7737, 40.9534 ], [ -3.7751, 40.9524 ], [ -3.7762, 40.9511 ], [ -3.7764, 40.9505 ], [ -3.7764, 40.95 ], [ -3.7763, 40.9499 ], [ -3.7764, 40.9499 ], [ -3.7765, 40.9494 ], [ -3.7762, 40.9484 ], [ -3.7758, 40.9476 ], [ -3.7782, 40.9472 ], [ -3.7781, 40.9469 ], [ -3.7773, 40.9463 ], [ -3.7769, 40.9464 ], [ -3.7764, 40.9458 ], [ -3.7758, 40.9457 ], [ -3.7754, 40.946 ], [ -3.7751, 40.946 ], [ -3.7745, 40.9454 ], [ -3.7737, 40.9455 ], [ -3.7728, 40.946 ], [ -3.7725, 40.946 ], [ -3.7725, 40.9461 ], [ -3.7721, 40.9462 ], [ -3.7719, 40.9464 ], [ -3.7716, 40.9464 ], [ -3.7712, 40.9466 ], [ -3.769, 40.9467 ], [ -3.7678, 40.9462 ], [ -3.7676, 40.946 ], [ -3.7676, 40.9454 ], [ -3.7677, 40.9454 ], [ -3.7678, 40.9451 ], [ -3.7678, 40.9444 ], [ -3.7671, 40.944 ], [ -3.7665, 40.944 ], [ -3.7663, 40.9442 ], [ -3.7661, 40.9448 ], [ -3.7648, 40.9458 ], [ -3.7636, 40.9462 ], [ -3.7626, 40.9462 ], [ -3.7623, 40.9461 ], [ -3.7623, 40.9458 ], [ -3.7624, 40.9458 ], [ -3.7622, 40.9455 ], [ -3.7614, 40.9451 ], [ -3.7604, 40.9443 ], [ -3.76, 40.9442 ], [ -3.7596, 40.9436 ], [ -3.7589, 40.9434 ], [ -3.7587, 40.9432 ], [ -3.7588, 40.9431 ], [ -3.7587, 40.9429 ], [ -3.7583, 40.9427 ], [ -3.7583, 40.9426 ], [ -3.7569, 40.9424 ], [ -3.7567, 40.9425 ], [ -3.7568, 40.9426 ], [ -3.7567, 40.9428 ], [ -3.7563, 40.943 ], [ -3.756, 40.9434 ], [ -3.7551, 40.9435 ], [ -3.7543, 40.9434 ], [ -3.7515, 40.9419 ], [ -3.7508, 40.9419 ], [ -3.7504, 40.9421 ], [ -3.7493, 40.9423 ], [ -3.747, 40.9422 ], [ -3.7467, 40.9418 ], [ -3.7463, 40.9418 ], [ -3.7461, 40.9416 ], [ -3.7459, 40.9416 ], [ -3.7457, 40.9413 ], [ -3.7449, 40.9411 ], [ -3.7442, 40.9405 ], [ -3.744, 40.9405 ], [ -3.7432, 40.94 ], [ -3.743, 40.9397 ], [ -3.742, 40.9392 ], [ -3.7416, 40.9392 ], [ -3.7397, 40.94 ], [ -3.7389, 40.941 ], [ -3.7373, 40.9417 ], [ -3.7369, 40.9417 ], [ -3.7368, 40.9419 ], [ -3.7368, 40.9423 ], [ -3.7376, 40.9431 ], [ -3.7375, 40.9448 ], [ -3.737, 40.9475 ], [ -3.7369, 40.9475 ], [ -3.7363, 40.9485 ], [ -3.736, 40.9493 ], [ -3.7353, 40.95 ], [ -3.7357, 40.9507 ], [ -3.7357, 40.951 ], [ -3.7362, 40.9519 ], [ -3.7363, 40.9518 ], [ -3.7373, 40.9517 ], [ -3.7375, 40.952 ], [ -3.7388, 40.9526 ], [ -3.7397, 40.9533 ], [ -3.7412, 40.9537 ], [ -3.7416, 40.9539 ], [ -3.7418, 40.9542 ], [ -3.7419, 40.9539 ], [ -3.7425, 40.9533 ], [ -3.7425, 40.9529 ], [ -3.7426, 40.9529 ], [ -3.7427, 40.9526 ], [ -3.7434, 40.9519 ], [ -3.7442, 40.9514 ], [ -3.7451, 40.9516 ], [ -3.7461, 40.9516 ], [ -3.7471, 40.9517 ], [ -3.7472, 40.9518 ], [ -3.7472, 40.9517 ], [ -3.7478, 40.9521 ], [ -3.7486, 40.9524 ], [ -3.7488, 40.953 ], [ -3.7491, 40.9532 ], [ -3.7497, 40.9526 ], [ -3.7497, 40.9524 ], [ -3.7499, 40.9522 ], [ -3.7499, 40.9519 ], [ -3.7513, 40.9517 ], [ -3.7516, 40.9516 ], [ -3.7519, 40.9513 ], [ -3.7529, 40.9509 ], [ -3.7533, 40.9509 ], [ -3.7537, 40.951 ], [ -3.7537, 40.9511 ], [ -3.7539, 40.951 ], [ -3.7542, 40.9511 ], [ -3.7542, 40.951 ], [ -3.7547, 40.9509 ], [ -3.7556, 40.9509 ], [ -3.7557, 40.951 ], [ -3.7573, 40.9509 ], [ -3.7573, 40.951 ], [ -3.7576, 40.951 ], [ -3.7618, 40.9525 ], [ -3.7623, 40.9525 ], [ -3.7629, 40.9523 ] ] ] } },
{ "type": "Feature", "properties": { "municipio": "Lozoya", "clasificacion": "urbanizable-no-sectorizado", "calificacion": "sin-asignar", "version": "vigente", "fuente": "SIT-CAM WFS — UsoDelSuelo:VPLA_V_CLASIFICACION (https://idem.comunidad.madrid/geosrvg/ows)", "fecha_dato": "2026-05-12", "ambito": "2155", "_raw_CD_SIGLAS": "SUBNS", "_raw_DS_CLASIF_GEN": "Suelo No Urbanizable Común", "_raw_DS_CLASIF_DET": null, "_raw_DS_DOCU": "NORMAS SUBSIDIARIAS", "_raw_DS_LEY": "CM Ley 4/1984, E RD 1346/1976", "_raw_FC_AC": "1984-11-22", "_raw_NM_AREA_M2": 696269.21026102197, "_cam_code": "076" }, "geometry": { "type": "Polygon", "coordinates": [ [ [ -3.8139, 40.9454 ], [ -3.8142, 40.9457 ], [ -3.8143, 40.9463 ], [ -3.8146, 40.9467 ], [ -3.8147, 40.947 ], [ -3.8146, 40.9475 ], [ -3.8148, 40.9475 ], [ -3.8149, 40.9473 ], [ -3.8152, 40.9472 ], [ -3.8152, 40.9469 ], [ -3.8153, 40.9469 ], [ -3.8153, 40.9467 ], [ -3.8155, 40.9465 ], [ -3.8157, 40.9456 ], [ -3.8163, 40.9454 ], [ -3.8168, 40.9454 ], [ -3.8169, 40.9453 ], [ -3.8172, 40.9454 ], [ -3.8172, 40.9457 ], [ -3.8179, 40.9462 ], [ -3.818, 40.9465 ], [ -3.818, 40.9465 ], [ -3.8181, 40.9465 ], [ -3.8181, 40.9465 ], [ -3.8181, 40.9465 ], [ -3.8181, 40.9465 ], [ -3.8181, 40.9465 ], [ -3.8182, 40.9465 ], [ -3.8182, 40.9465 ], [ -3.8182, 40.9465 ], [ -3.8183, 40.9465 ], [ -3.8183, 40.9465 ], [ -3.8184, 40.9465 ], [ -3.8185, 40.9465 ], [ -3.8185, 40.9465 ], [ -3.8186, 40.9466 ], [ -3.8181, 40.9461 ], [ -3.8181, 40.9457 ], [ -3.8192, 40.9445 ], [ -3.8194, 40.9439 ], [ -3.8201, 40.9434 ], [ -3.8204, 40.9427 ], [ -3.8204, 40.9424 ], [ -3.821, 40.9421 ], [ -3.8198, 40.9413 ], [ -3.8194, 40.9407 ], [ -3.8191, 40.9405 ], [ -3.8189, 40.94 ], [ -3.8164, 40.9376 ], [ -3.8162, 40.9378 ], [ -3.8155, 40.938 ], [ -3.8148, 40.9384 ], [ -3.8143, 40.9385 ], [ -3.8121, 40.9395 ], [ -3.8116, 40.9396 ], [ -3.8107, 40.9401 ], [ -3.809, 40.9422 ], [ -3.8087, 40.9429 ], [ -3.8086, 40.9429 ], [ -3.8086, 40.9432 ], [ -3.8084, 40.9436 ], [ -3.808, 40.9441 ], [ -3.8063, 40.9459 ], [ -3.8045, 40.9468 ], [ -3.8044, 40.9475 ], [ -3.8045, 40.9476 ], [ -3.8046, 40.9475 ], [ -3.8058, 40.9474 ], [ -3.8072, 40.947 ], [ -3.8079, 40.9464 ], [ -3.8088, 40.946 ], [ -3.8103, 40.945 ], [ -3.8114, 40.9449 ], [ -3.8123, 40.9446 ], [ -3.8139, 40.9454 ] ] ] } }
]
}
