{
"type": "FeatureCollection",
"name": "vigente.full",
"features": [
{ "type": "Feature", "properties": { "municipio": "Torrejón de la Calzada", "clasificacion": "urbano-consolidado", "calificacion": "equipamiento", "version": "vigente", "fuente": "SIT-CAM WFS — UsoDelSuelo:VPLA_V_CLASIFICACION (https://idem.comunidad.madrid/geosrvg/ows)", "fecha_dato": "2026-05-12", "ambito": "47249", "_raw_CD_SIGLAS": "SG", "_raw_DS_CLASIF_GEN": "Sistemas Generales", "_raw_DS_CLASIF_DET": "Sistema General de Carretera", "_raw_DS_DOCU": "NORMAS SUBSIDIARIAS", "_raw_DS_LEY": "CM Ley 4/1984, E RDL 1/1992", "_raw_FC_AC": "2001-08-02", "_raw_NM_AREA_M2": 75686.880857540295, "_cam_code": "149" }, "geometry": { "type": "Polygon", "coordinates": [ [ [ -3.8022, 40.1911 ], [ -3.8008, 40.1918 ], [ -3.7978, 40.193 ], [ -3.798, 40.1935 ], [ -3.8035, 40.1912 ], [ -3.8037, 40.191 ], [ -3.8039, 40.1912 ], [ -3.8044, 40.1912 ], [ -3.8049, 40.1907 ], [ -3.8054, 40.1905 ], [ -3.8058, 40.1901 ], [ -3.8063, 40.1892 ], [ -3.8052, 40.1891 ], [ -3.804, 40.1888 ], [ -3.8041, 40.1883 ], [ -3.8035, 40.1886 ], [ -3.8037, 40.1891 ], [ -3.8032, 40.1904 ], [ -3.8022, 40.1911 ] ] ] } },
{ "type": "Feature", "properties": { "municipio": "Torrejón de la Calzada", "clasificacion": "no-urbanizable-protegido", "calificacion": "sin-asignar", "version": "vigente", "fuente": "SIT-CAM WFS — UsoDelSuelo:VPLA_V_CLASIFICACION (https://idem.comunidad.madrid/geosrvg/ows)", "fecha_dato": "2026-05-12", "ambito": "47249", "_raw_CD_SIGLAS": "SNUP", "_raw_DS_CLASIF_GEN": "Suelo No Urbanizable Protegido", "_raw_DS_CLASIF_DET": "Suelo No Urbanizable de Especial Proteccion por si Interes Edafologico", "_raw_DS_DOCU": "NORMAS SUBSIDIARIAS", "_raw_DS_LEY": "CM Ley 4/1984, E RDL 1/1992", "_raw_FC_AC": "2001-08-02", "_raw_NM_AREA_M2": 205872.191744501, "_cam_code": "149" }, "geometry": { "type": "Polygon", "coordinates": [ [ [ -3.7981, 40.1788 ], [ -3.7978, 40.1799 ], [ -3.7996, 40.1802 ], [ -3.8, 40.1804 ], [ -3.7989, 40.1825 ], [ -3.8, 40.1821 ], [ -3.8023, 40.1817 ], [ -3.8055, 40.1804 ], [ -3.8055, 40.1802 ], [ -3.8027, 40.179 ], [ -3.8017, 40.1784 ], [ -3.8013, 40.1778 ], [ -3.801, 40.177 ], [ -3.8009, 40.1761 ], [ -3.8006, 40.1756 ], [ -3.8001, 40.1754 ], [ -3.8, 40.1754 ], [ -3.8, 40.1774 ], [ -3.7988, 40.1774 ], [ -3.7981, 40.1788 ] ] ] } },
{ "type": "Feature", "properties": { "municipio": "Torrejón de la Calzada", "clasificacion": "no-urbanizable-protegido", "calificacion": "sin-asignar", "version": "vigente", "fuente": "SIT-CAM WFS — UsoDelSuelo:VPLA_V_CLASIFICACION (https://idem.comunidad.madrid/geosrvg/ows)", "fecha_dato": "2026-05-12", "ambito": "47249", "_raw_CD_SIGLAS": "SNUP", "_raw_DS_CLASIF_GEN": "Suelo No Urbanizable Protegido", "_raw_DS_CLASIF_DET": "Suelo No Urbanizable de Especial Proteccion por si Interes Edafologico", "_raw_DS_DOCU": "NORMAS SUBSIDIARIAS", "_raw_DS_LEY": "CM Ley 4/1984, E RDL 1/1992", "_raw_FC_AC": "2001-08-02", "_raw_NM_AREA_M2": 1872973.8306092699, "_cam_code": "149" }, "geometry": { "type": "Polygon", "coordinates": [ [ [ -3.8034, 40.2199 ], [ -3.8042, 40.2191 ], [ -3.8063, 40.2159 ], [ -3.8069, 40.2153 ], [ -3.8133, 40.2118 ], [ -3.815, 40.2106 ], [ -3.8153, 40.2103 ], [ -3.8153, 40.21 ], [ -3.8157, 40.2096 ], [ -3.816, 40.209 ], [ -3.8179, 40.208 ], [ -3.821, 40.2052 ], [ -3.8074, 40.2023 ], [ -3.8071, 40.2025 ], [ -3.8072, 40.2038 ], [ -3.807, 40.2041 ], [ -3.8062, 40.2046 ], [ -3.8062, 40.2047 ], [ -3.8054, 40.2051 ], [ -3.8036, 40.2057 ], [ -3.8032, 40.2057 ], [ -3.8032, 40.2058 ], [ -3.8012, 40.2058 ], [ -3.8002, 40.2055 ], [ -3.7984, 40.2047 ], [ -3.7979, 40.2053 ], [ -3.7978, 40.2056 ], [ -3.7966, 40.207 ], [ -3.7977, 40.2074 ], [ -3.7982, 40.2079 ], [ -3.7989, 40.2082 ], [ -3.7997, 40.2092 ], [ -3.8004, 40.2095 ], [ -3.8007, 40.2099 ], [ -3.8011, 40.2099 ], [ -3.8015, 40.2101 ], [ -3.8019, 40.2108 ], [ -3.8024, 40.211 ], [ -3.8029, 40.2116 ], [ -3.8032, 40.2115 ], [ -3.8047, 40.2116 ], [ -3.8066, 40.2121 ], [ -3.8063, 40.213 ], [ -3.8045, 40.2125 ], [ -3.8038, 40.2125 ], [ -3.8037, 40.2124 ], [ -3.8028, 40.2125 ], [ -3.8024, 40.2124 ], [ -3.8024, 40.2123 ], [ -3.8022, 40.2123 ], [ -3.8018, 40.212 ], [ -3.8017, 40.2117 ], [ -3.801, 40.2114 ], [ -3.8007, 40.2108 ], [ -3.8, 40.2106 ], [ -3.7994, 40.21 ], [ -3.799, 40.2099 ], [ -3.7983, 40.2093 ], [ -3.7983, 40.2091 ], [ -3.7981, 40.2089 ], [ -3.7973, 40.2085 ], [ -3.7971, 40.2082 ], [ -3.796, 40.2077 ], [ -3.7954, 40.2096 ], [ -3.7974, 40.2118 ], [ -3.7994, 40.2145 ], [ -3.8001, 40.2151 ], [ -3.8015, 40.2168 ], [ -3.8025, 40.2186 ], [ -3.8034, 40.2199 ] ] ] } },
{ "type": "Feature", "properties": { "municipio": "Torrejón de la Calzada", "clasificacion": "no-urbanizable-protegido", "calificacion": "sin-asignar", "version": "vigente", "fuente": "SIT-CAM WFS — UsoDelSuelo:VPLA_V_CLASIFICACION (https://idem.comunidad.madrid/geosrvg/ows)", "fecha_dato": "2026-05-12", "ambito": "47249", "_raw_CD_SIGLAS": "SNUP", "_raw_DS_CLASIF_GEN": "Suelo No Urbanizable Protegido", "_raw_DS_CLASIF_DET": "Suelo No Urbanizable de Especial Proteccion por si Interes Edafologico", "_raw_DS_DOCU": "NORMAS SUBSIDIARIAS", "_raw_DS_LEY": "CM Ley 4/1984, E RDL 1/1992", "_raw_FC_AC": "2001-08-02", "_raw_NM_AREA_M2": 2451108.53894107, "_cam_code": "149" }, "geometry": { "type": "Polygon", "coordinates": [ [ [ -3.7922, 40.2171 ], [ -3.7909, 40.2195 ], [ -3.7948, 40.2205 ], [ -3.8009, 40.2216 ], [ -3.8022, 40.2213 ], [ -3.8033, 40.2201 ], [ -3.8023, 40.2187 ], [ -3.8017, 40.2175 ], [ -3.8006, 40.216 ], [ -3.7992, 40.2146 ], [ -3.7972, 40.2119 ], [ -3.7961, 40.2106 ], [ -3.7955, 40.2101 ], [ -3.7952, 40.2109 ], [ -3.7919, 40.2169 ], [ -3.7902, 40.2164 ], [ -3.79, 40.2162 ], [ -3.7886, 40.2157 ], [ -3.791, 40.2129 ], [ -3.7914, 40.2121 ], [ -3.7928, 40.2106 ], [ -3.7942, 40.2088 ], [ -3.7941, 40.2087 ], [ -3.7926, 40.2105 ], [ -3.7918, 40.2108 ], [ -3.7917, 40.2091 ], [ -3.7909, 40.2063 ], [ -3.7922, 40.207 ], [ -3.7922, 40.2071 ], [ -3.7927, 40.2071 ], [ -3.7928, 40.2072 ], [ -3.7932, 40.2071 ], [ -3.7921, 40.2053 ], [ -3.7918, 40.2042 ], [ -3.7905, 40.2025 ], [ -3.7893, 40.2004 ], [ -3.7892, 40.1999 ], [ -3.792, 40.2041 ], [ -3.7926, 40.2057 ], [ -3.7934, 40.207 ], [ -3.7937, 40.207 ], [ -3.7937, 40.2069 ], [ -3.7941, 40.2068 ], [ -3.7949, 40.207 ], [ -3.7959, 40.2054 ], [ -3.7957, 40.2054 ], [ -3.7967, 40.2038 ], [ -3.7968, 40.2038 ], [ -3.7954, 40.2031 ], [ -3.7941, 40.2022 ], [ -3.7922, 40.2005 ], [ -3.792, 40.2001 ], [ -3.7921, 40.1995 ], [ -3.7929, 40.1988 ], [ -3.7933, 40.1991 ], [ -3.7935, 40.199 ], [ -3.7918, 40.1977 ], [ -3.7919, 40.1976 ], [ -3.7917, 40.1972 ], [ -3.7912, 40.1966 ], [ -3.7933, 40.1956 ], [ -3.7912, 40.1958 ], [ -3.7903, 40.197 ], [ -3.7885, 40.198 ], [ -3.7888, 40.1989 ], [ -3.7887, 40.1993 ], [ -3.7883, 40.1981 ], [ -3.7847, 40.1981 ], [ -3.7846, 40.197 ], [ -3.7832, 40.1973 ], [ -3.7837, 40.198 ], [ -3.7838, 40.1988 ], [ -3.7836, 40.2018 ], [ -3.7823, 40.2029 ], [ -3.7833, 40.2029 ], [ -3.7835, 40.2031 ], [ -3.7843, 40.2029 ], [ -3.7846, 40.203 ], [ -3.7849, 40.2033 ], [ -3.7869, 40.2041 ], [ -3.7884, 40.2049 ], [ -3.7888, 40.2055 ], [ -3.7894, 40.2057 ], [ -3.7894, 40.2058 ], [ -3.7901, 40.2058 ], [ -3.7904, 40.2068 ], [ -3.7893, 40.2067 ], [ -3.7884, 40.2064 ], [ -3.7879, 40.2061 ], [ -3.7875, 40.2055 ], [ -3.7872, 40.2053 ], [ -3.7861, 40.2049 ], [ -3.7857, 40.2046 ], [ -3.7841, 40.2039 ], [ -3.7834, 40.204 ], [ -3.7829, 40.2038 ], [ -3.7824, 40.2038 ], [ -3.7824, 40.2039 ], [ -3.7821, 40.204 ], [ -3.7819, 40.2042 ], [ -3.7825, 40.2046 ], [ -3.7827, 40.2051 ], [ -3.783, 40.2053 ], [ -3.782, 40.2058 ], [ -3.7816, 40.2054 ], [ -3.7815, 40.2051 ], [ -3.7812, 40.2049 ], [ -3.7812, 40.205 ], [ -3.7805, 40.205 ], [ -3.7796, 40.2047 ], [ -3.7786, 40.2041 ], [ -3.7782, 40.204 ], [ -3.7783, 40.2048 ], [ -3.7786, 40.2055 ], [ -3.7787, 40.2055 ], [ -3.7788, 40.2062 ], [ -3.7789, 40.2062 ], [ -3.779, 40.2065 ], [ -3.7791, 40.2075 ], [ -3.7802, 40.2102 ], [ -3.7808, 40.2126 ], [ -3.7844, 40.2136 ], [ -3.7853, 40.2137 ], [ -3.7865, 40.2156 ], [ -3.7903, 40.2165 ], [ -3.7922, 40.2171 ] ] ] } },
{ "type": "Feature", "properties": { "municipio": "Torrejón de la Calzada", "clasificacion": "no-urbanizable-protegido", "calificacion": "sin-asignar", "version": "vigente", "fuente": "SIT-CAM WFS — UsoDelSuelo:VPLA_V_CLASIFICACION (https://idem.comunidad.madrid/geosrvg/ows)", "fecha_dato": "2026-05-12", "ambito": "47249", "_raw_CD_SIGLAS": "SNUP", "_raw_DS_CLASIF_GEN": "Suelo No Urbanizable Protegido", "_raw_DS_CLASIF_DET": "Suelo No Urbanizable de Especial Proteccion por Vias Pecuarias", "_raw_DS_DOCU": "NORMAS SUBSIDIARIAS", "_raw_DS_LEY": "CM Ley 4/1984, E RDL 1/1992", "_raw_FC_AC": "2001-08-02", "_raw_NM_AREA_M2": 20076.572093578099, "_cam_code": "149" }, "geometry": { "type": "Polygon", "coordinates": [ [ [ -3.8046, 40.1851 ], [ -3.8051, 40.1851 ], [ -3.8057, 40.1826 ], [ -3.8059, 40.1803 ], [ -3.8055, 40.1802 ], [ -3.8053, 40.1825 ], [ -3.8046, 40.1851 ] ] ] } },
{ "type": "Feature", "properties": { "municipio": "Torrejón de la Calzada", "clasificacion": "no-urbanizable-protegido", "calificacion": "sin-asignar", "version": "vigente", "fuente": "SIT-CAM WFS — UsoDelSuelo:VPLA_V_CLASIFICACION (https://idem.comunidad.madrid/geosrvg/ows)", "fecha_dato": "2026-05-12", "ambito": "47249", "_raw_CD_SIGLAS": "SNUP", "_raw_DS_CLASIF_GEN": "Suelo No Urbanizable Protegido", "_raw_DS_CLASIF_DET": "Suelo No Urbanizable de Especial Proteccion por Vias Pecuarias", "_raw_DS_DOCU": "NORMAS SUBSIDIARIAS", "_raw_DS_LEY": "CM Ley 4/1984, E RDL 1/1992", "_raw_FC_AC": "2001-08-02", "_raw_NM_AREA_M2": 17534.916885133702, "_cam_code": "149" }, "geometry": { "type": "Polygon", "coordinates": [ [ [ -3.7934, 40.207 ], [ -3.7926, 40.2057 ], [ -3.792, 40.2041 ], [ -3.7892, 40.1999 ], [ -3.7893, 40.2004 ], [ -3.7905, 40.2025 ], [ -3.7918, 40.2042 ], [ -3.7921, 40.2053 ], [ -3.7931, 40.207 ], [ -3.7932, 40.2071 ], [ -3.7934, 40.207 ] ] ] } },
{ "type": "Feature", "properties": { "municipio": "Torrejón de la Calzada", "clasificacion": "no-urbanizable-protegido", "calificacion": "sin-asignar", "version": "vigente", "fuente": "SIT-CAM WFS — UsoDelSuelo:VPLA_V_CLASIFICACION (https://idem.comunidad.madrid/geosrvg/ows)", "fecha_dato": "2026-05-12", "ambito": "47249", "_raw_CD_SIGLAS": "SNUP", "_raw_DS_CLASIF_GEN": "Suelo No Urbanizable Protegido", "_raw_DS_CLASIF_DET": "Suelo No Urbanizable de Especial Proteccion por Vias Pecuarias", "_raw_DS_DOCU": "NORMAS SUBSIDIARIAS", "_raw_DS_LEY": "CM Ley 4/1984, E RDL 1/1992", "_raw_FC_AC": "2001-08-02", "_raw_NM_AREA_M2": 24164.0457495472, "_cam_code": "149" }, "geometry": { "type": "Polygon", "coordinates": [ [ [ -3.8048, 40.2016 ], [ -3.8047, 40.2018 ], [ -3.8055, 40.202 ], [ -3.8074, 40.2023 ], [ -3.8076, 40.2024 ], [ -3.8166, 40.2043 ], [ -3.8205, 40.2051 ], [ -3.8211, 40.2052 ], [ -3.8138, 40.2036 ], [ -3.8138, 40.2035 ], [ -3.8048, 40.2016 ] ] ] } },
{ "type": "Feature", "properties": { "municipio": "Torrejón de la Calzada", "clasificacion": "no-urbanizable-protegido", "calificacion": "sin-asignar", "version": "vigente", "fuente": "SIT-CAM WFS — UsoDelSuelo:VPLA_V_CLASIFICACION (https://idem.comunidad.madrid/geosrvg/ows)", "fecha_dato": "2026-05-12", "ambito": "47249", "_raw_CD_SIGLAS": "SNUP", "_raw_DS_CLASIF_GEN": "Suelo No Urbanizable Protegido", "_raw_DS_CLASIF_DET": "Suelo No Urbanizable de Especial Proteccion por Vias Pecuarias", "_raw_DS_DOCU": "NORMAS SUBSIDIARIAS", "_raw_DS_LEY": "CM Ley 4/1984, E RDL 1/1992", "_raw_FC_AC": "2001-08-02", "_raw_NM_AREA_M2": 7874.1373856078499, "_cam_code": "149" }, "geometry": { "type": "Polygon", "coordinates": [ [ [ -3.7917, 40.1963 ], [ -3.7958, 40.1989 ], [ -3.7959, 40.1988 ], [ -3.7946, 40.198 ], [ -3.7946, 40.1979 ], [ -3.794, 40.1977 ], [ -3.7937, 40.1975 ], [ -3.7937, 40.1973 ], [ -3.7927, 40.1967 ], [ -3.792, 40.1963 ], [ -3.7917, 40.1963 ] ] ] } },
{ "type": "Feature", "properties": { "municipio": "Torrejón de la Calzada", "clasificacion": "no-urbanizable-protegido", "calificacion": "sin-asignar", "version": "vigente", "fuente": "SIT-CAM WFS — UsoDelSuelo:VPLA_V_CLASIFICACION (https://idem.comunidad.madrid/geosrvg/ows)", "fecha_dato": "2026-05-12", "ambito": "47249", "_raw_CD_SIGLAS": "SNUP", "_raw_DS_CLASIF_GEN": "Suelo No Urbanizable Protegido", "_raw_DS_CLASIF_DET": "Suelo No Urbanizable de Especial Proteccion por Vias Pecuarias", "_raw_DS_DOCU": "NORMAS SUBSIDIARIAS", "_raw_DS_LEY": "CM Ley 4/1984, E RDL 1/1992", "_raw_FC_AC": "2001-08-02", "_raw_NM_AREA_M2": 32957.2383235581, "_cam_code": "149" }, "geometry": { "type": "Polygon", "coordinates": [ [ [ -3.7941, 40.2087 ], [ -3.7961, 40.2106 ], [ -3.7972, 40.2119 ], [ -3.7992, 40.2146 ], [ -3.8006, 40.216 ], [ -3.8017, 40.2175 ], [ -3.8023, 40.2187 ], [ -3.8033, 40.2201 ], [ -3.8034, 40.2199 ], [ -3.8025, 40.2186 ], [ -3.8015, 40.2168 ], [ -3.8001, 40.2151 ], [ -3.7994, 40.2145 ], [ -3.7963, 40.2105 ], [ -3.7947, 40.209 ], [ -3.7938, 40.2078 ], [ -3.7937, 40.2079 ], [ -3.7941, 40.2087 ] ] ] } },
{ "type": "Feature", "properties": { "municipio": "Torrejón de la Calzada", "clasificacion": "no-urbanizable-protegido", "calificacion": "sin-asignar", "version": "vigente", "fuente": "SIT-CAM WFS — UsoDelSuelo:VPLA_V_CLASIFICACION (https://idem.comunidad.madrid/geosrvg/ows)", "fecha_dato": "2026-05-12", "ambito": "47249", "_raw_CD_SIGLAS": "SNUP", "_raw_DS_CLASIF_GEN": "Suelo No Urbanizable Protegido", "_raw_DS_CLASIF_DET": "Suelo No Urbanizable de Especial Proteccion por Vias Pecuarias", "_raw_DS_DOCU": "NORMAS SUBSIDIARIAS", "_raw_DS_LEY": "CM Ley 4/1984, E RDL 1/1992", "_raw_FC_AC": "2001-08-02", "_raw_NM_AREA_M2": 2623.1825741190801, "_cam_code": "149" }, "geometry": { "type": "Polygon", "coordinates": [ [ [ -3.7883, 40.1981 ], [ -3.7886, 40.1991 ], [ -3.7887, 40.1993 ], [ -3.7888, 40.1989 ], [ -3.7885, 40.198 ], [ -3.7883, 40.1981 ] ] ] } },
{ "type": "Feature", "properties": { "municipio": "Torrejón de la Calzada", "clasificacion": "no-urbanizable-protegido", "calificacion": "sin-asignar", "version": "vigente", "fuente": "SIT-CAM WFS — UsoDelSuelo:VPLA_V_CLASIFICACION (https://idem.comunidad.madrid/geosrvg/ows)", "fecha_dato": "2026-05-12", "ambito": "47249", "_raw_CD_SIGLAS": "SNUP", "_raw_DS_CLASIF_GEN": "Suelo No Urbanizable Protegido", "_raw_DS_CLASIF_DET": "Suelo No Urbanizable de Especial Proteccion por Vias Pecuarias", "_raw_DS_DOCU": "NORMAS SUBSIDIARIAS", "_raw_DS_LEY": "CM Ley 4/1984, E RDL 1/1992", "_raw_FC_AC": "2001-08-02", "_raw_NM_AREA_M2": 6160.8831436783203, "_cam_code": "149" }, "geometry": { "type": "Polygon", "coordinates": [ [ [ -3.8057, 40.1793 ], [ -3.8061, 40.1794 ], [ -3.8064, 40.178 ], [ -3.8062, 40.1774 ], [ -3.8057, 40.1793 ] ] ] } },
{ "type": "Feature", "properties": { "municipio": "Torrejón de la Calzada", "clasificacion": "no-urbanizable-protegido", "calificacion": "sin-asignar", "version": "vigente", "fuente": "SIT-CAM WFS — UsoDelSuelo:VPLA_V_CLASIFICACION (https://idem.comunidad.madrid/geosrvg/ows)", "fecha_dato": "2026-05-12", "ambito": "47249", "_raw_CD_SIGLAS": "SNUP", "_raw_DS_CLASIF_GEN": "Suelo No Urbanizable Protegido", "_raw_DS_CLASIF_DET": "Suelo No Urbanizable Protegido por si Interes Arqueologico", "_raw_DS_DOCU": "NORMAS SUBSIDIARIAS", "_raw_DS_LEY": "CM Ley 4/1984, E RDL 1/1992", "_raw_FC_AC": "2001-08-02", "_raw_NM_AREA_M2": 240438.91159074701, "_cam_code": "149" }, "geometry": { "type": "Polygon", "coordinates": [ [ [ -3.796, 40.222 ], [ -3.7976, 40.2221 ], [ -3.7976, 40.2222 ], [ -3.7982, 40.2224 ], [ -3.7985, 40.2228 ], [ -3.7997, 40.2229 ], [ -3.7999, 40.2227 ], [ -3.7999, 40.2225 ], [ -3.8009, 40.2216 ], [ -3.7948, 40.2205 ], [ -3.7909, 40.2195 ], [ -3.7922, 40.2171 ], [ -3.7903, 40.2165 ], [ -3.7865, 40.2156 ], [ -3.7853, 40.2137 ], [ -3.7844, 40.2136 ], [ -3.7856, 40.2158 ], [ -3.788, 40.2164 ], [ -3.7899, 40.2167 ], [ -3.7915, 40.2173 ], [ -3.7909, 40.2181 ], [ -3.7903, 40.2193 ], [ -3.79, 40.2201 ], [ -3.79, 40.2208 ], [ -3.7895, 40.2219 ], [ -3.7902, 40.2223 ], [ -3.7919, 40.2223 ], [ -3.793, 40.2227 ], [ -3.7932, 40.2225 ], [ -3.7937, 40.2225 ], [ -3.7941, 40.2222 ], [ -3.7948, 40.2223 ], [ -3.7952, 40.2221 ], [ -3.796, 40.222 ] ] ] } },
{ "type": "Feature", "properties": { "municipio": "Torrejón de la Calzada", "clasificacion": "no-urbanizable-protegido", "calificacion": "sin-asignar", "version": "vigente", "fuente": "SIT-CAM WFS — UsoDelSuelo:VPLA_V_CLASIFICACION (https://idem.comunidad.madrid/geosrvg/ows)", "fecha_dato": "2026-05-12", "ambito": "47249", "_raw_CD_SIGLAS": "SNUP", "_raw_DS_CLASIF_GEN": "Suelo No Urbanizable Protegido", "_raw_DS_CLASIF_DET": "Suelo No Urbanizable Protegido por si Interes Arqueologico", "_raw_DS_DOCU": "NORMAS SUBSIDIARIAS", "_raw_DS_LEY": "CM Ley 4/1984, E RDL 1/1992", "_raw_FC_AC": "2001-08-02", "_raw_NM_AREA_M2": 57185.003934863802, "_cam_code": "149" }, "geometry": { "type": "Polygon", "coordinates": [ [ [ -3.7859, 40.1951 ], [ -3.7858, 40.1968 ], [ -3.7846, 40.197 ], [ -3.7847, 40.1981 ], [ -3.7883, 40.1981 ], [ -3.7874, 40.1968 ], [ -3.787, 40.1953 ], [ -3.7859, 40.1951 ] ] ] } },
{ "type": "Feature", "properties": { "municipio": "Torrejón de la Calzada", "clasificacion": "no-urbanizable-protegido", "calificacion": "sin-asignar", "version": "vigente", "fuente": "SIT-CAM WFS — UsoDelSuelo:VPLA_V_CLASIFICACION (https://idem.comunidad.madrid/geosrvg/ows)", "fecha_dato": "2026-05-12", "ambito": "47249", "_raw_CD_SIGLAS": "SNUP", "_raw_DS_CLASIF_GEN": "Suelo No Urbanizable Protegido", "_raw_DS_CLASIF_DET": "Suelo No Urbanizable Protegido por su Interes Arqueologico y Po", "_raw_DS_DOCU": "NORMAS SUBSIDIARIAS", "_raw_DS_LEY": "CM Ley 4/1984, E RDL 1/1992", "_raw_FC_AC": "2001-08-02", "_raw_NM_AREA_M2": 3073.6179775026098, "_cam_code": "149" }, "geometry": { "type": "Polygon", "coordinates": [ [ [ -3.7903, 40.1953 ], [ -3.791, 40.1958 ], [ -3.7913, 40.1957 ], [ -3.789, 40.1947 ], [ -3.7885, 40.1947 ], [ -3.7903, 40.1953 ] ] ] } },
{ "type": "Feature", "properties": { "municipio": "Torrejón de la Calzada", "clasificacion": "no-urbanizable-protegido", "calificacion": "sin-asignar", "version": "vigente", "fuente": "SIT-CAM WFS — UsoDelSuelo:VPLA_V_CLASIFICACION (https://idem.comunidad.madrid/geosrvg/ows)", "fecha_dato": "2026-05-12", "ambito": "47249", "_raw_CD_SIGLAS": "SNUP", "_raw_DS_CLASIF_GEN": "Suelo No Urbanizable Protegido", "_raw_DS_CLASIF_DET": "Suelo No Urbanizable de Especial Proteccion de Cauces y Riberas", "_raw_DS_DOCU": "NORMAS SUBSIDIARIAS", "_raw_DS_LEY": "CM Ley 4/1984, E RDL 1/1992", "_raw_FC_AC": "2001-08-02", "_raw_NM_AREA_M2": 29662.083999685201, "_cam_code": "149" }, "geometry": { "type": "Polygon", "coordinates": [ [ [ -3.8115, 40.1973 ], [ -3.812, 40.1975 ], [ -3.8122, 40.1974 ], [ -3.8121, 40.1971 ], [ -3.8117, 40.197 ], [ -3.8117, 40.1969 ], [ -3.8098, 40.1968 ], [ -3.8095, 40.1966 ], [ -3.8089, 40.1965 ], [ -3.8083, 40.1961 ], [ -3.808, 40.1956 ], [ -3.8067, 40.1954 ], [ -3.8065, 40.1951 ], [ -3.8065, 40.1948 ], [ -3.8061, 40.1945 ], [ -3.8052, 40.1944 ], [ -3.8049, 40.1946 ], [ -3.805, 40.1948 ], [ -3.806, 40.1949 ], [ -3.8061, 40.1954 ], [ -3.8065, 40.1958 ], [ -3.8077, 40.1959 ], [ -3.8079, 40.1963 ], [ -3.8082, 40.1964 ], [ -3.8084, 40.1967 ], [ -3.81, 40.1972 ], [ -3.8115, 40.1973 ] ] ] } },
{ "type": "Feature", "properties": { "municipio": "Torrejón de la Calzada", "clasificacion": "no-urbanizable-protegido", "calificacion": "sin-asignar", "version": "vigente", "fuente": "SIT-CAM WFS — UsoDelSuelo:VPLA_V_CLASIFICACION (https://idem.comunidad.madrid/geosrvg/ows)", "fecha_dato": "2026-05-12", "ambito": "47249", "_raw_CD_SIGLAS": "SNUP", "_raw_DS_CLASIF_GEN": "Suelo No Urbanizable Protegido", "_raw_DS_CLASIF_DET": "Suelo No Urbanizable de Especial Proteccion por si Interes Edafologico", "_raw_DS_DOCU": "NORMAS SUBSIDIARIAS", "_raw_DS_LEY": "CM Ley 4/1984, E RDL 1/1992", "_raw_FC_AC": "2001-08-02", "_raw_NM_AREA_M2": 1937.84251371965, "_cam_code": "149" }, "geometry": { "type": "Polygon", "coordinates": [ [ [ -3.7954, 40.2074 ], [ -3.7951, 40.2075 ], [ -3.7943, 40.2085 ], [ -3.7944, 40.2086 ], [ -3.7954, 40.2074 ] ] ] } },
{ "type": "Feature", "properties": { "municipio": "Torrejón de la Calzada", "clasificacion": "no-urbanizable-protegido", "calificacion": "sin-asignar", "version": "vigente", "fuente": "SIT-CAM WFS — UsoDelSuelo:VPLA_V_CLASIFICACION (https://idem.comunidad.madrid/geosrvg/ows)", "fecha_dato": "2026-05-12", "ambito": "47249", "_raw_CD_SIGLAS": "SNUP", "_raw_DS_CLASIF_GEN": "Suelo No Urbanizable Protegido", "_raw_DS_CLASIF_DET": "Suelo No Urbanizable Protegido por si Interes Arqueologico", "_raw_DS_DOCU": "NORMAS SUBSIDIARIAS", "_raw_DS_LEY": "CM Ley 4/1984, E RDL 1/1992", "_raw_FC_AC": "2001-08-02", "_raw_NM_AREA_M2": 98923.369063937396, "_cam_code": "149" }, "geometry": { "type": "Polygon", "coordinates": [ [ [ -3.7876, 40.1967 ], [ -3.7885, 40.198 ], [ -3.7903, 40.197 ], [ -3.7912, 40.1958 ], [ -3.7933, 40.1956 ], [ -3.798, 40.1935 ], [ -3.7978, 40.193 ], [ -3.7932, 40.195 ], [ -3.7906, 40.196 ], [ -3.7899, 40.1961 ], [ -3.7893, 40.1958 ], [ -3.7885, 40.1951 ], [ -3.7887, 40.1948 ], [ -3.7877, 40.1946 ], [ -3.7871, 40.1942 ], [ -3.7864, 40.1935 ], [ -3.7859, 40.1933 ], [ -3.7867, 40.194 ], [ -3.7872, 40.1949 ], [ -3.7873, 40.1958 ], [ -3.7876, 40.1967 ] ] ] } },
{ "type": "Feature", "properties": { "municipio": "Torrejón de la Calzada", "clasificacion": "no-urbanizable-protegido", "calificacion": "sin-asignar", "version": "vigente", "fuente": "SIT-CAM WFS — UsoDelSuelo:VPLA_V_CLASIFICACION (https://idem.comunidad.madrid/geosrvg/ows)", "fecha_dato": "2026-05-12", "ambito": "47249", "_raw_CD_SIGLAS": "SNUP", "_raw_DS_CLASIF_GEN": "Suelo No Urbanizable Protegido", "_raw_DS_CLASIF_DET": "Suelo No Urbanizable de Especial Proteccion de Cauces y Riberas", "_raw_DS_DOCU": "NORMAS SUBSIDIARIAS", "_raw_DS_LEY": "CM Ley 4/1984, E RDL 1/1992", "_raw_FC_AC": "2001-08-02", "_raw_NM_AREA_M2": 64918.526899966098, "_cam_code": "149" }, "geometry": { "type": "Polygon", "coordinates": [ [ [ -3.8009, 40.1761 ], [ -3.801, 40.177 ], [ -3.8013, 40.1778 ], [ -3.8017, 40.1784 ], [ -3.8027, 40.179 ], [ -3.8059, 40.1803 ], [ -3.8061, 40.1794 ], [ -3.8043, 40.1787 ], [ -3.8025, 40.1777 ], [ -3.8022, 40.1766 ], [ -3.8021, 40.1766 ], [ -3.8021, 40.176 ], [ -3.8006, 40.1756 ], [ -3.8009, 40.1761 ] ] ] } },
{ "type": "Feature", "properties": { "municipio": "Torrejón de la Calzada", "clasificacion": "no-urbanizable-protegido", "calificacion": "sin-asignar", "version": "vigente", "fuente": "SIT-CAM WFS — UsoDelSuelo:VPLA_V_CLASIFICACION (https://idem.comunidad.madrid/geosrvg/ows)", "fecha_dato": "2026-05-12", "ambito": "47249", "_raw_CD_SIGLAS": "SNUP", "_raw_DS_CLASIF_GEN": "Suelo No Urbanizable Protegido", "_raw_DS_CLASIF_DET": "Suelo No Urbanizable de Especial Proteccion de Cauces y Riberas", "_raw_DS_DOCU": "NORMAS SUBSIDIARIAS", "_raw_DS_LEY": "CM Ley 4/1984, E RDL 1/1992", "_raw_FC_AC": "2001-08-02", "_raw_NM_AREA_M2": 110619.684267263, "_cam_code": "149" }, "geometry": { "type": "Polygon", "coordinates": [ [ [ -3.796, 40.2077 ], [ -3.7971, 40.2082 ], [ -3.7973, 40.2085 ], [ -3.7981, 40.2089 ], [ -3.7983, 40.2091 ], [ -3.7983, 40.2093 ], [ -3.799, 40.2099 ], [ -3.7994, 40.21 ], [ -3.8, 40.2106 ], [ -3.8007, 40.2108 ], [ -3.8009, 40.2113 ], [ -3.8017, 40.2117 ], [ -3.8018, 40.212 ], [ -3.8022, 40.2123 ], [ -3.8028, 40.2125 ], [ -3.8037, 40.2124 ], [ -3.8038, 40.2125 ], [ -3.8051, 40.2126 ], [ -3.8063, 40.213 ], [ -3.8066, 40.2121 ], [ -3.8047, 40.2116 ], [ -3.8038, 40.2115 ], [ -3.8029, 40.2116 ], [ -3.8024, 40.211 ], [ -3.8019, 40.2108 ], [ -3.8015, 40.2101 ], [ -3.8011, 40.2099 ], [ -3.8007, 40.2099 ], [ -3.8004, 40.2095 ], [ -3.7997, 40.2092 ], [ -3.7989, 40.2082 ], [ -3.7982, 40.2079 ], [ -3.7977, 40.2074 ], [ -3.7966, 40.207 ], [ -3.796, 40.2077 ] ] ] } },
{ "type": "Feature", "properties": { "municipio": "Torrejón de la Calzada", "clasificacion": "no-urbanizable-protegido", "calificacion": "sin-asignar", "version": "vigente", "fuente": "SIT-CAM WFS — UsoDelSuelo:VPLA_V_CLASIFICACION (https://idem.comunidad.madrid/geosrvg/ows)", "fecha_dato": "2026-05-12", "ambito": "47249", "_raw_CD_SIGLAS": "SNUP", "_raw_DS_CLASIF_GEN": "Suelo No Urbanizable Protegido", "_raw_DS_CLASIF_DET": "Suelo No Urbanizable de Especial Proteccion de Cauces y Riberas", "_raw_DS_DOCU": "NORMAS SUBSIDIARIAS", "_raw_DS_LEY": "CM Ley 4/1984, E RDL 1/1992", "_raw_FC_AC": "2001-08-02", "_raw_NM_AREA_M2": 18955.442303471998, "_cam_code": "149" }, "geometry": { "type": "Polygon", "coordinates": [ [ [ -3.7937, 40.2079 ], [ -3.7939, 40.2078 ], [ -3.7937, 40.2074 ], [ -3.7939, 40.2074 ], [ -3.7939, 40.2073 ], [ -3.7946, 40.2074 ], [ -3.7949, 40.207 ], [ -3.7941, 40.2068 ], [ -3.7937, 40.2069 ], [ -3.7937, 40.207 ], [ -3.793, 40.2071 ], [ -3.793, 40.2072 ], [ -3.7922, 40.2071 ], [ -3.7922, 40.207 ], [ -3.7909, 40.2063 ], [ -3.7911, 40.2069 ], [ -3.7916, 40.2073 ], [ -3.7929, 40.2077 ], [ -3.7934, 40.2075 ], [ -3.7937, 40.2079 ] ] ] } },
{ "type": "Feature", "properties": { "municipio": "Torrejón de la Calzada", "clasificacion": "no-urbanizable-protegido", "calificacion": "sin-asignar", "version": "vigente", "fuente": "SIT-CAM WFS — UsoDelSuelo:VPLA_V_CLASIFICACION (https://idem.comunidad.madrid/geosrvg/ows)", "fecha_dato": "2026-05-12", "ambito": "47249", "_raw_CD_SIGLAS": "SNUP", "_raw_DS_CLASIF_GEN": "Suelo No Urbanizable Protegido", "_raw_DS_CLASIF_DET": "Suelo No Urbanizable de Especial Proteccion de Cauces y Riberas", "_raw_DS_DOCU": "NORMAS SUBSIDIARIAS", "_raw_DS_LEY": "CM Ley 4/1984, E RDL 1/1992", "_raw_FC_AC": "2001-08-02", "_raw_NM_AREA_M2": 137364.77663549001, "_cam_code": "149" }, "geometry": { "type": "Polygon", "coordinates": [ [ [ -3.7841, 40.2039 ], [ -3.7857, 40.2046 ], [ -3.7861, 40.2049 ], [ -3.7872, 40.2053 ], [ -3.7875, 40.2055 ], [ -3.7879, 40.2061 ], [ -3.7884, 40.2064 ], [ -3.7893, 40.2067 ], [ -3.7904, 40.2068 ], [ -3.7901, 40.2058 ], [ -3.7894, 40.2058 ], [ -3.7894, 40.2057 ], [ -3.7888, 40.2055 ], [ -3.7884, 40.2049 ], [ -3.7881, 40.2047 ], [ -3.7849, 40.2033 ], [ -3.7846, 40.203 ], [ -3.7843, 40.2029 ], [ -3.784, 40.2029 ], [ -3.7836, 40.2031 ], [ -3.7833, 40.203 ], [ -3.7833, 40.2029 ], [ -3.7823, 40.2029 ], [ -3.7816, 40.2036 ], [ -3.7809, 40.2035 ], [ -3.78, 40.2037 ], [ -3.7797, 40.2037 ], [ -3.7797, 40.2036 ], [ -3.7788, 40.2031 ], [ -3.7781, 40.2031 ], [ -3.7782, 40.204 ], [ -3.7786, 40.2041 ], [ -3.7796, 40.2047 ], [ -3.7805, 40.205 ], [ -3.7812, 40.205 ], [ -3.7812, 40.2049 ], [ -3.7815, 40.2051 ], [ -3.7816, 40.2054 ], [ -3.782, 40.2058 ], [ -3.783, 40.2053 ], [ -3.7827, 40.2051 ], [ -3.7825, 40.2046 ], [ -3.7819, 40.2042 ], [ -3.7821, 40.204 ], [ -3.7824, 40.2039 ], [ -3.7824, 40.2038 ], [ -3.7829, 40.2038 ], [ -3.7834, 40.204 ], [ -3.7841, 40.2039 ] ] ] } },
{ "type": "Feature", "properties": { "municipio": "Torrejón de la Calzada", "clasificacion": "no-urbanizable-protegido", "calificacion": "sin-asignar", "version": "vigente", "fuente": "SIT-CAM WFS — UsoDelSuelo:VPLA_V_CLASIFICACION (https://idem.comunidad.madrid/geosrvg/ows)", "fecha_dato": "2026-05-12", "ambito": "47249", "_raw_CD_SIGLAS": "SNUP", "_raw_DS_CLASIF_GEN": "Suelo No Urbanizable Protegido", "_raw_DS_CLASIF_DET": "Suelo No Urbanizable de Especial Proteccion por si Interes Edafologico", "_raw_DS_DOCU": "NORMAS SUBSIDIARIAS", "_raw_DS_LEY": "CM Ley 4/1984, E RDL 1/1992", "_raw_FC_AC": "2001-08-02", "_raw_NM_AREA_M2": 98851.559758078802, "_cam_code": "149" }, "geometry": { "type": "Polygon", "coordinates": [ [ [ -3.8132, 40.1999 ], [ -3.8127, 40.2001 ], [ -3.8082, 40.2023 ], [ -3.8138, 40.2035 ], [ -3.8137, 40.201 ], [ -3.8132, 40.1999 ] ] ] } },
{ "type": "Feature", "properties": { "municipio": "Torrejón de la Calzada", "clasificacion": "no-urbanizable-protegido", "calificacion": "sin-asignar", "version": "vigente", "fuente": "SIT-CAM WFS — UsoDelSuelo:VPLA_V_CLASIFICACION (https://idem.comunidad.madrid/geosrvg/ows)", "fecha_dato": "2026-05-12", "ambito": "47249", "_raw_CD_SIGLAS": "SNUP", "_raw_DS_CLASIF_GEN": "Suelo No Urbanizable Protegido", "_raw_DS_CLASIF_DET": "Suelo No Urbanizable de Especial Proteccion por si Interes Edafologico", "_raw_DS_DOCU": "NORMAS SUBSIDIARIAS", "_raw_DS_LEY": "CM Ley 4/1984, E RDL 1/1992", "_raw_FC_AC": "2001-08-02", "_raw_NM_AREA_M2": 4486.1073027786297, "_cam_code": "149" }, "geometry": { "type": "Polygon", "coordinates": [ [ [ -3.7788, 40.2031 ], [ -3.7797, 40.2036 ], [ -3.7797, 40.2037 ], [ -3.7811, 40.2035 ], [ -3.7788, 40.2031 ] ] ] } },
{ "type": "Feature", "properties": { "municipio": "Torrejón de la Calzada", "clasificacion": "no-urbanizable-protegido", "calificacion": "sin-asignar", "version": "vigente", "fuente": "SIT-CAM WFS — UsoDelSuelo:VPLA_V_CLASIFICACION (https://idem.comunidad.madrid/geosrvg/ows)", "fecha_dato": "2026-05-12", "ambito": "47249", "_raw_CD_SIGLAS": "SNUP", "_raw_DS_CLASIF_GEN": "Suelo No Urbanizable Protegido", "_raw_DS_CLASIF_DET": "Suelo No Urbanizable de Especial Proteccion por si Interes Edafologico", "_raw_DS_DOCU": "NORMAS SUBSIDIARIAS", "_raw_DS_LEY": "CM Ley 4/1984, E RDL 1/1992", "_raw_FC_AC": "2001-08-02", "_raw_NM_AREA_M2": 65317.054003920697, "_cam_code": "149" }, "geometry": { "type": "Polygon", "coordinates": [ [ [ -3.8021, 40.176 ], [ -3.8021, 40.1766 ], [ -3.8022, 40.1766 ], [ -3.8023, 40.1772 ], [ -3.8026, 40.1778 ], [ -3.8043, 40.1787 ], [ -3.8057, 40.1792 ], [ -3.8057, 40.1793 ], [ -3.8062, 40.1772 ], [ -3.8051, 40.177 ], [ -3.8021, 40.176 ] ] ] } },
{ "type": "Feature", "properties": { "municipio": "Torrejón de la Calzada", "clasificacion": "no-urbanizable-protegido", "calificacion": "sin-asignar", "version": "vigente", "fuente": "SIT-CAM WFS — UsoDelSuelo:VPLA_V_CLASIFICACION (https://idem.comunidad.madrid/geosrvg/ows)", "fecha_dato": "2026-05-12", "ambito": "47249", "_raw_CD_SIGLAS": "SNUP", "_raw_DS_CLASIF_GEN": "Suelo No Urbanizable Protegido", "_raw_DS_CLASIF_DET": "Suelo No Urbanizable Protegido por su Interes Arqueologico y Po", "_raw_DS_DOCU": "NORMAS SUBSIDIARIAS", "_raw_DS_LEY": "CM Ley 4/1984, E RDL 1/1992", "_raw_FC_AC": "2001-08-02", "_raw_NM_AREA_M2": 9425.7356390611003, "_cam_code": "149" }, "geometry": { "type": "Polygon", "coordinates": [ [ [ -3.787, 40.1953 ], [ -3.7874, 40.1968 ], [ -3.7882, 40.198 ], [ -3.7883, 40.1981 ], [ -3.7885, 40.198 ], [ -3.7876, 40.1967 ], [ -3.7873, 40.1958 ], [ -3.7872, 40.1949 ], [ -3.7867, 40.194 ], [ -3.7859, 40.1933 ], [ -3.7857, 40.1934 ], [ -3.7866, 40.194 ], [ -3.787, 40.1949 ], [ -3.7871, 40.1949 ], [ -3.7871, 40.1953 ], [ -3.787, 40.1953 ] ] ] } },
{ "type": "Feature", "properties": { "municipio": "Torrejón de la Calzada", "clasificacion": "urbano-consolidado", "calificacion": "sin-asignar", "version": "vigente", "fuente": "SIT-CAM WFS — UsoDelSuelo:VPLA_V_CLASIFICACION (https://idem.comunidad.madrid/geosrvg/ows)", "fecha_dato": "2026-05-12", "ambito": "47249", "_raw_CD_SIGLAS": "SU", "_raw_DS_CLASIF_GEN": "Suelo Urbano", "_raw_DS_CLASIF_DET": "Suelo Urbano", "_raw_DS_DOCU": "NORMAS SUBSIDIARIAS", "_raw_DS_LEY": "CM Ley 4/1984, E RDL 1/1992", "_raw_FC_AC": "2001-08-02", "_raw_NM_AREA_M2": 738547.26630078396, "_cam_code": "149" }, "geometry": { "type": "Polygon", "coordinates": [ [ [ -3.7959, 40.2054 ], [ -3.7946, 40.2074 ], [ -3.795, 40.2075 ], [ -3.7954, 40.2074 ], [ -3.7983, 40.2039 ], [ -3.7985, 40.2037 ], [ -3.7989, 40.2038 ], [ -3.7992, 40.2031 ], [ -3.8007, 40.2039 ], [ -3.8011, 40.2039 ], [ -3.8014, 40.2032 ], [ -3.8013, 40.2031 ], [ -3.8019, 40.2028 ], [ -3.802, 40.2026 ], [ -3.802, 40.2026 ], [ -3.802, 40.2025 ], [ -3.802, 40.2025 ], [ -3.802, 40.2024 ], [ -3.802, 40.2023 ], [ -3.802, 40.2022 ], [ -3.802, 40.2022 ], [ -3.802, 40.2022 ], [ -3.8019, 40.2022 ], [ -3.8039, 40.2019 ], [ -3.8036, 40.2032 ], [ -3.8053, 40.2035 ], [ -3.8055, 40.202 ], [ -3.8047, 40.2018 ], [ -3.8047, 40.2017 ], [ -3.8054, 40.2005 ], [ -3.8058, 40.1995 ], [ -3.8048, 40.1991 ], [ -3.8051, 40.1986 ], [ -3.8053, 40.1985 ], [ -3.8052, 40.1982 ], [ -3.8072, 40.1983 ], [ -3.8072, 40.198 ], [ -3.8075, 40.198 ], [ -3.8075, 40.1976 ], [ -3.8072, 40.1975 ], [ -3.8072, 40.1969 ], [ -3.8064, 40.1968 ], [ -3.8036, 40.1969 ], [ -3.8036, 40.1967 ], [ -3.8048, 40.1948 ], [ -3.8049, 40.1948 ], [ -3.8049, 40.1946 ], [ -3.8056, 40.194 ], [ -3.8055, 40.1939 ], [ -3.8058, 40.1935 ], [ -3.8043, 40.1926 ], [ -3.8044, 40.1922 ], [ -3.8037, 40.192 ], [ -3.804, 40.1913 ], [ -3.8041, 40.1913 ], [ -3.8038, 40.191 ], [ -3.8029, 40.1914 ], [ -3.8025, 40.1926 ], [ -3.8023, 40.1928 ], [ -3.8023, 40.1929 ], [ -3.8025, 40.1928 ], [ -3.8025, 40.1929 ], [ -3.8028, 40.193 ], [ -3.8029, 40.1935 ], [ -3.8012, 40.1971 ], [ -3.8011, 40.197 ], [ -3.8012, 40.1966 ], [ -3.8004, 40.1965 ], [ -3.7995, 40.1967 ], [ -3.7984, 40.1971 ], [ -3.7962, 40.1985 ], [ -3.7961, 40.1988 ], [ -3.7958, 40.1988 ], [ -3.7958, 40.1989 ], [ -3.7945, 40.1981 ], [ -3.7935, 40.199 ], [ -3.7933, 40.1991 ], [ -3.793, 40.199 ], [ -3.7926, 40.1993 ], [ -3.7931, 40.2 ], [ -3.7933, 40.2001 ], [ -3.7932, 40.2002 ], [ -3.7947, 40.2011 ], [ -3.7974, 40.2021 ], [ -3.7976, 40.2018 ], [ -3.7981, 40.202 ], [ -3.7973, 40.2032 ], [ -3.7983, 40.2036 ], [ -3.7983, 40.2038 ], [ -3.7971, 40.2051 ], [ -3.7967, 40.2057 ], [ -3.7959, 40.2054 ] ] ] } },
{ "type": "Feature", "properties": { "municipio": "Torrejón de la Calzada", "clasificacion": "urbano-consolidado", "calificacion": "sin-asignar", "version": "vigente", "fuente": "SIT-CAM WFS — UsoDelSuelo:VPLA_V_CLASIFICACION (https://idem.comunidad.madrid/geosrvg/ows)", "fecha_dato": "2026-05-12", "ambito": "47249", "_raw_CD_SIGLAS": "SU", "_raw_DS_CLASIF_GEN": "Suelo Urbano", "_raw_DS_CLASIF_DET": "Suelo Urbano", "_raw_DS_DOCU": "NORMAS SUBSIDIARIAS", "_raw_DS_LEY": "CM Ley 4/1984, E RDL 1/1992", "_raw_FC_AC": "2001-08-02", "_raw_NM_AREA_M2": 337668.77462081698, "_cam_code": "149" }, "geometry": { "type": "Polygon", "coordinates": [ [ [ -3.7976, 40.1898 ], [ -3.7977, 40.1909 ], [ -3.7985, 40.191 ], [ -3.8004, 40.1919 ], [ -3.8008, 40.1918 ], [ -3.8029, 40.1907 ], [ -3.8034, 40.1901 ], [ -3.8037, 40.1891 ], [ -3.8035, 40.1886 ], [ -3.8041, 40.1883 ], [ -3.8044, 40.1866 ], [ -3.8051, 40.1851 ], [ -3.8046, 40.1851 ], [ -3.8036, 40.1848 ], [ -3.8022, 40.1848 ], [ -3.8017, 40.1846 ], [ -3.8009, 40.1846 ], [ -3.8006, 40.1854 ], [ -3.8008, 40.1855 ], [ -3.8006, 40.1862 ], [ -3.801, 40.1863 ], [ -3.8005, 40.1872 ], [ -3.7991, 40.1874 ], [ -3.7981, 40.1874 ], [ -3.7973, 40.1873 ], [ -3.7973, 40.1869 ], [ -3.7964, 40.1868 ], [ -3.7958, 40.1889 ], [ -3.7966, 40.1891 ], [ -3.7975, 40.1891 ], [ -3.7988, 40.1888 ], [ -3.7987, 40.1898 ], [ -3.7986, 40.1899 ], [ -3.7976, 40.1898 ] ] ] } },
{ "type": "Feature", "properties": { "municipio": "Torrejón de la Calzada", "clasificacion": "urbanizable-sectorizado", "calificacion": "sin-asignar", "version": "vigente", "fuente": "SIT-CAM WFS — UsoDelSuelo:VPLA_V_CLASIFICACION (https://idem.comunidad.madrid/geosrvg/ows)", "fecha_dato": "2026-05-12", "ambito": "47249", "_raw_CD_SIGLAS": "SUBS", "_raw_DS_CLASIF_GEN": "Suelo Apto Para Urbanizar", "_raw_DS_CLASIF_DET": "Suelo Apto Para Urbanizar", "_raw_DS_DOCU": "NORMAS SUBSIDIARIAS", "_raw_DS_LEY": "CM Ley 4/1984, E RDL 1/1992", "_raw_FC_AC": "2001-08-02", "_raw_NM_AREA_M2": 39237.988979667898, "_cam_code": "149" }, "geometry": { "type": "Polygon", "coordinates": [ [ [ -3.7944, 40.2086 ], [ -3.7954, 40.2096 ], [ -3.796, 40.2077 ], [ -3.7978, 40.2056 ], [ -3.7979, 40.2053 ], [ -3.7984, 40.2047 ], [ -3.7979, 40.2045 ], [ -3.7979, 40.2044 ], [ -3.7944, 40.2086 ] ] ] } },
{ "type": "Feature", "properties": { "municipio": "Torrejón de la Calzada", "clasificacion": "urbanizable-sectorizado", "calificacion": "sin-asignar", "version": "vigente", "fuente": "SIT-CAM WFS — UsoDelSuelo:VPLA_V_CLASIFICACION (https://idem.comunidad.madrid/geosrvg/ows)", "fecha_dato": "2026-05-12", "ambito": "47249", "_raw_CD_SIGLAS": "SUBS", "_raw_DS_CLASIF_GEN": "Suelo Apto Para Urbanizar", "_raw_DS_CLASIF_DET": "Suelo Apto Para Urbanizar", "_raw_DS_DOCU": "NORMAS SUBSIDIARIAS", "_raw_DS_LEY": "CM Ley 4/1984, E RDL 1/1992", "_raw_FC_AC": "2001-08-02", "_raw_NM_AREA_M2": 8420.5829988908499, "_cam_code": "149" }, "geometry": { "type": "Polygon", "coordinates": [ [ [ -3.794, 40.2073 ], [ -3.7937, 40.2074 ], [ -3.7943, 40.2085 ], [ -3.7951, 40.2075 ], [ -3.794, 40.2073 ] ] ] } },
{ "type": "Feature", "properties": { "municipio": "Torrejón de la Calzada", "clasificacion": "urbanizable-sectorizado", "calificacion": "sin-asignar", "version": "vigente", "fuente": "SIT-CAM WFS — UsoDelSuelo:VPLA_V_CLASIFICACION (https://idem.comunidad.madrid/geosrvg/ows)", "fecha_dato": "2026-05-12", "ambito": "47249", "_raw_CD_SIGLAS": "SUBS", "_raw_DS_CLASIF_GEN": "Suelo Apto Para Urbanizar", "_raw_DS_CLASIF_DET": "Suelo Apto Para Urbanizar", "_raw_DS_DOCU": "NORMAS SUBSIDIARIAS", "_raw_DS_LEY": "CM Ley 4/1984, E RDL 1/1992", "_raw_FC_AC": "2001-08-02", "_raw_NM_AREA_M2": 207219.842947408, "_cam_code": "149" }, "geometry": { "type": "Polygon", "coordinates": [ [ [ -3.7942, 40.2088 ], [ -3.7914, 40.2121 ], [ -3.791, 40.2129 ], [ -3.7886, 40.2157 ], [ -3.79, 40.2162 ], [ -3.7902, 40.2164 ], [ -3.7919, 40.2169 ], [ -3.7921, 40.2167 ], [ -3.7955, 40.2102 ], [ -3.7946, 40.2091 ], [ -3.7942, 40.2088 ] ] ] } },
{ "type": "Feature", "properties": { "municipio": "Torrejón de la Calzada", "clasificacion": "urbanizable-sectorizado", "calificacion": "sin-asignar", "version": "vigente", "fuente": "SIT-CAM WFS — UsoDelSuelo:VPLA_V_CLASIFICACION (https://idem.comunidad.madrid/geosrvg/ows)", "fecha_dato": "2026-05-12", "ambito": "47249", "_raw_CD_SIGLAS": "SUBS", "_raw_DS_CLASIF_GEN": "Suelo Apto Para Urbanizar", "_raw_DS_CLASIF_DET": "Suelo Apto Para Urbanizar", "_raw_DS_DOCU": "NORMAS SUBSIDIARIAS", "_raw_DS_LEY": "CM Ley 4/1984, E RDL 1/1992", "_raw_FC_AC": "2001-08-02", "_raw_NM_AREA_M2": 57049.875754046698, "_cam_code": "149" }, "geometry": { "type": "Polygon", "coordinates": [ [ [ -3.7911, 40.2069 ], [ -3.7917, 40.2091 ], [ -3.7918, 40.2108 ], [ -3.7926, 40.2105 ], [ -3.7941, 40.2087 ], [ -3.7934, 40.2075 ], [ -3.7929, 40.2077 ], [ -3.792, 40.2075 ], [ -3.7911, 40.2069 ] ] ] } },
{ "type": "Feature", "properties": { "municipio": "Torrejón de la Calzada", "clasificacion": "urbanizable-sectorizado", "calificacion": "sin-asignar", "version": "vigente", "fuente": "SIT-CAM WFS — UsoDelSuelo:VPLA_V_CLASIFICACION (https://idem.comunidad.madrid/geosrvg/ows)", "fecha_dato": "2026-05-12", "ambito": "47249", "_raw_CD_SIGLAS": "SUBS", "_raw_DS_CLASIF_GEN": "Suelo Apto Para Urbanizar", "_raw_DS_CLASIF_DET": "Suelo Apto Para Urbanizar", "_raw_DS_DOCU": "NORMAS SUBSIDIARIAS", "_raw_DS_LEY": "CM Ley 4/1984, E RDL 1/1992", "_raw_FC_AC": "2001-08-02", "_raw_NM_AREA_M2": 32816.007337828203, "_cam_code": "149" }, "geometry": { "type": "Polygon", "coordinates": [ [ [ -3.7917, 40.1963 ], [ -3.7912, 40.1966 ], [ -3.7917, 40.1972 ], [ -3.7919, 40.1976 ], [ -3.7918, 40.1977 ], [ -3.7934, 40.199 ], [ -3.7938, 40.1988 ], [ -3.7945, 40.1981 ], [ -3.7917, 40.1963 ] ] ] } },
{ "type": "Feature", "properties": { "municipio": "Torrejón de la Calzada", "clasificacion": "urbanizable-sectorizado", "calificacion": "sin-asignar", "version": "vigente", "fuente": "SIT-CAM WFS — UsoDelSuelo:VPLA_V_CLASIFICACION (https://idem.comunidad.madrid/geosrvg/ows)", "fecha_dato": "2026-05-12", "ambito": "47249", "_raw_CD_SIGLAS": "SUBS", "_raw_DS_CLASIF_GEN": "Suelo Apto Para Urbanizar", "_raw_DS_CLASIF_DET": "Suelo Apto Para Urbanizar", "_raw_DS_DOCU": "NORMAS SUBSIDIARIAS", "_raw_DS_LEY": "CM Ley 4/1984, E RDL 1/1992", "_raw_FC_AC": "2001-08-02", "_raw_NM_AREA_M2": 15555.8599076672, "_cam_code": "149" }, "geometry": { "type": "Polygon", "coordinates": [ [ [ -3.7887, 40.1948 ], [ -3.7885, 40.1951 ], [ -3.7893, 40.1958 ], [ -3.7899, 40.1961 ], [ -3.7906, 40.196 ], [ -3.791, 40.1958 ], [ -3.7903, 40.1953 ], [ -3.7887, 40.1948 ] ] ] } },
{ "type": "Feature", "properties": { "municipio": "Torrejón de la Calzada", "clasificacion": "urbanizable-sectorizado", "calificacion": "sin-asignar", "version": "vigente", "fuente": "SIT-CAM WFS — UsoDelSuelo:VPLA_V_CLASIFICACION (https://idem.comunidad.madrid/geosrvg/ows)", "fecha_dato": "2026-05-12", "ambito": "47249", "_raw_CD_SIGLAS": "SUBS", "_raw_DS_CLASIF_GEN": "Suelo Apto Para Urbanizar", "_raw_DS_CLASIF_DET": "Suelo Apto Para Urbanizar", "_raw_DS_DOCU": "NORMAS SUBSIDIARIAS", "_raw_DS_LEY": "CM Ley 4/1984, E RDL 1/1992", "_raw_FC_AC": "2001-08-02", "_raw_NM_AREA_M2": 359724.59698638099, "_cam_code": "149" }, "geometry": { "type": "Polygon", "coordinates": [ [ [ -3.7913, 40.1899 ], [ -3.7914, 40.191 ], [ -3.7907, 40.1931 ], [ -3.7903, 40.1951 ], [ -3.7904, 40.1953 ], [ -3.7913, 40.1957 ], [ -3.7949, 40.1943 ], [ -3.8005, 40.1919 ], [ -3.7998, 40.1917 ], [ -3.7993, 40.1913 ], [ -3.7985, 40.191 ], [ -3.7977, 40.1909 ], [ -3.7976, 40.1898 ], [ -3.7986, 40.1899 ], [ -3.7987, 40.1898 ], [ -3.7988, 40.1888 ], [ -3.7975, 40.1891 ], [ -3.7966, 40.1891 ], [ -3.7949, 40.1886 ], [ -3.7947, 40.1901 ], [ -3.7942, 40.1901 ], [ -3.794, 40.1899 ], [ -3.7933, 40.19 ], [ -3.793, 40.1899 ], [ -3.793, 40.1898 ], [ -3.7925, 40.1897 ], [ -3.7924, 40.19 ], [ -3.7913, 40.1899 ] ] ] } },
{ "type": "Feature", "properties": { "municipio": "Torrejón de la Calzada", "clasificacion": "urbanizable-sectorizado", "calificacion": "sin-asignar", "version": "vigente", "fuente": "SIT-CAM WFS — UsoDelSuelo:VPLA_V_CLASIFICACION (https://idem.comunidad.madrid/geosrvg/ows)", "fecha_dato": "2026-05-12", "ambito": "47249", "_raw_CD_SIGLAS": "SUBS", "_raw_DS_CLASIF_GEN": "Suelo Apto Para Urbanizar", "_raw_DS_CLASIF_DET": "Suelo Apto Para Urbanizar", "_raw_DS_DOCU": "NORMAS SUBSIDIARIAS", "_raw_DS_LEY": "CM Ley 4/1984, E RDL 1/1992", "_raw_FC_AC": "2001-08-02", "_raw_NM_AREA_M2": 271472.43564911903, "_cam_code": "149" }, "geometry": { "type": "Polygon", "coordinates": [ [ [ -3.7987, 40.1874 ], [ -3.8005, 40.1872 ], [ -3.8006, 40.1871 ], [ -3.801, 40.1863 ], [ -3.8006, 40.1862 ], [ -3.8008, 40.1856 ], [ -3.8006, 40.1854 ], [ -3.8009, 40.1846 ], [ -3.8017, 40.1846 ], [ -3.8022, 40.1848 ], [ -3.8036, 40.1848 ], [ -3.8046, 40.1851 ], [ -3.8053, 40.1825 ], [ -3.8054, 40.1806 ], [ -3.8055, 40.1804 ], [ -3.8023, 40.1817 ], [ -3.8, 40.1821 ], [ -3.7989, 40.1825 ], [ -3.7975, 40.1867 ], [ -3.7964, 40.1868 ], [ -3.7973, 40.1869 ], [ -3.7973, 40.1873 ], [ -3.7987, 40.1874 ] ] ] } },
{ "type": "Feature", "properties": { "municipio": "Torrejón de la Calzada", "clasificacion": "urbanizable-sectorizado", "calificacion": "sin-asignar", "version": "vigente", "fuente": "SIT-CAM WFS — UsoDelSuelo:VPLA_V_CLASIFICACION (https://idem.comunidad.madrid/geosrvg/ows)", "fecha_dato": "2026-05-12", "ambito": "47249", "_raw_CD_SIGLAS": "SUBS", "_raw_DS_CLASIF_GEN": "Suelo Apto Para Urbanizar", "_raw_DS_CLASIF_DET": "Suelo Apto Para Urbanizar", "_raw_DS_DOCU": "NORMAS SUBSIDIARIAS", "_raw_DS_LEY": "CM Ley 4/1984, E RDL 1/1992", "_raw_FC_AC": "2001-08-02", "_raw_NM_AREA_M2": 110691.155173815, "_cam_code": "149" }, "geometry": { "type": "Polygon", "coordinates": [ [ [ -3.7957, 40.2054 ], [ -3.7967, 40.2057 ], [ -3.7971, 40.2051 ], [ -3.7983, 40.2038 ], [ -3.7983, 40.2036 ], [ -3.7973, 40.2032 ], [ -3.7981, 40.202 ], [ -3.7976, 40.2018 ], [ -3.7974, 40.2021 ], [ -3.7947, 40.2011 ], [ -3.7932, 40.2002 ], [ -3.7933, 40.2001 ], [ -3.7931, 40.2 ], [ -3.7926, 40.1993 ], [ -3.7931, 40.199 ], [ -3.7929, 40.1988 ], [ -3.792, 40.1997 ], [ -3.792, 40.2001 ], [ -3.7922, 40.2005 ], [ -3.7941, 40.2022 ], [ -3.7954, 40.2031 ], [ -3.7968, 40.2038 ], [ -3.7967, 40.2038 ], [ -3.7957, 40.2054 ] ] ] } },
{ "type": "Feature", "properties": { "municipio": "Torrejón de la Calzada", "clasificacion": "urbanizable-sectorizado", "calificacion": "sin-asignar", "version": "vigente", "fuente": "SIT-CAM WFS — UsoDelSuelo:VPLA_V_CLASIFICACION (https://idem.comunidad.madrid/geosrvg/ows)", "fecha_dato": "2026-05-12", "ambito": "47249", "_raw_CD_SIGLAS": "SUBS", "_raw_DS_CLASIF_GEN": "Suelo Apto Para Urbanizar", "_raw_DS_CLASIF_DET": "Suelo Apto Para Urbanizar", "_raw_DS_DOCU": "NORMAS SUBSIDIARIAS", "_raw_DS_LEY": "CM Ley 4/1984, E RDL 1/1992", "_raw_FC_AC": "2001-08-02", "_raw_NM_AREA_M2": 337809.87417007901, "_cam_code": "149" }, "geometry": { "type": "Polygon", "coordinates": [ [ [ -3.7942, 40.1977 ], [ -3.7959, 40.1988 ], [ -3.7961, 40.1988 ], [ -3.7962, 40.1985 ], [ -3.7984, 40.1971 ], [ -3.7989, 40.1969 ], [ -3.8007, 40.1965 ], [ -3.8012, 40.1966 ], [ -3.8011, 40.197 ], [ -3.8012, 40.1971 ], [ -3.8029, 40.1935 ], [ -3.8028, 40.193 ], [ -3.8025, 40.1929 ], [ -3.8025, 40.1928 ], [ -3.8023, 40.1929 ], [ -3.8029, 40.1914 ], [ -3.7986, 40.1932 ], [ -3.7979, 40.1936 ], [ -3.7972, 40.1938 ], [ -3.7918, 40.1963 ], [ -3.792, 40.1963 ], [ -3.7927, 40.1967 ], [ -3.7937, 40.1973 ], [ -3.7937, 40.1975 ], [ -3.7942, 40.1977 ] ] ] } },
{ "type": "Feature", "properties": { "municipio": "Torrejón de la Calzada", "clasificacion": "urbanizable-sectorizado", "calificacion": "sin-asignar", "version": "vigente", "fuente": "SIT-CAM WFS — UsoDelSuelo:VPLA_V_CLASIFICACION (https://idem.comunidad.madrid/geosrvg/ows)", "fecha_dato": "2026-05-12", "ambito": "47249", "_raw_CD_SIGLAS": "SUBS", "_raw_DS_CLASIF_GEN": "Suelo Urbanizable (INCORPORADO)", "_raw_DS_CLASIF_DET": "Suelo Urbanizable Incorporado", "_raw_DS_DOCU": "NORMAS SUBSIDIARIAS", "_raw_DS_LEY": "CM Ley 4/1984, E RDL 1/1992", "_raw_FC_AC": "2001-08-02", "_raw_NM_AREA_M2": 71954.495456852499, "_cam_code": "149" }, "geometry": { "type": "Polygon", "coordinates": [ [ [ -3.8063, 40.1892 ], [ -3.8058, 40.1901 ], [ -3.8054, 40.1905 ], [ -3.8049, 40.1907 ], [ -3.8044, 40.1912 ], [ -3.804, 40.1913 ], [ -3.8037, 40.192 ], [ -3.8044, 40.1922 ], [ -3.8043, 40.1926 ], [ -3.8058, 40.1935 ], [ -3.8055, 40.1939 ], [ -3.8059, 40.1942 ], [ -3.8063, 40.193 ], [ -3.8064, 40.1922 ], [ -3.8065, 40.1922 ], [ -3.8068, 40.1904 ], [ -3.8072, 40.1892 ], [ -3.8063, 40.1892 ] ] ] } },
{ "type": "Feature", "properties": { "municipio": "Torrejón de la Calzada", "clasificacion": "urbanizable-sectorizado", "calificacion": "sin-asignar", "version": "vigente", "fuente": "SIT-CAM WFS — UsoDelSuelo:VPLA_V_CLASIFICACION (https://idem.comunidad.madrid/geosrvg/ows)", "fecha_dato": "2026-05-12", "ambito": "47249", "_raw_CD_SIGLAS": "SUBS", "_raw_DS_CLASIF_GEN": "Suelo Apto Para Urbanizar", "_raw_DS_CLASIF_DET": "Suelo Apto Para Urbanizar", "_raw_DS_DOCU": "NORMAS SUBSIDIARIAS", "_raw_DS_LEY": "CM Ley 4/1984, E RDL 1/1992", "_raw_FC_AC": "2001-08-02", "_raw_NM_AREA_M2": 345680.29712748103, "_cam_code": "149" }, "geometry": { "type": "Polygon", "coordinates": [ [ [ -3.8052, 40.1982 ], [ -3.8053, 40.1985 ], [ -3.8051, 40.1986 ], [ -3.8048, 40.1991 ], [ -3.8058, 40.1995 ], [ -3.8048, 40.2016 ], [ -3.8074, 40.2022 ], [ -3.8082, 40.2023 ], [ -3.8132, 40.1999 ], [ -3.8122, 40.1974 ], [ -3.812, 40.1975 ], [ -3.8117, 40.1973 ], [ -3.81, 40.1972 ], [ -3.8093, 40.1969 ], [ -3.8089, 40.1969 ], [ -3.8084, 40.1967 ], [ -3.8082, 40.1964 ], [ -3.8079, 40.1963 ], [ -3.8077, 40.1959 ], [ -3.8065, 40.1958 ], [ -3.8061, 40.1954 ], [ -3.806, 40.1949 ], [ -3.805, 40.1948 ], [ -3.8049, 40.1947 ], [ -3.8036, 40.1967 ], [ -3.8036, 40.1969 ], [ -3.8049, 40.1968 ], [ -3.8072, 40.1969 ], [ -3.8072, 40.1975 ], [ -3.8075, 40.1976 ], [ -3.8075, 40.198 ], [ -3.8072, 40.198 ], [ -3.8072, 40.1983 ], [ -3.8052, 40.1982 ] ] ] } },
{ "type": "Feature", "properties": { "municipio": "Torrejón de la Calzada", "clasificacion": "urbanizable-sectorizado", "calificacion": "sin-asignar", "version": "vigente", "fuente": "SIT-CAM WFS — UsoDelSuelo:VPLA_V_CLASIFICACION (https://idem.comunidad.madrid/geosrvg/ows)", "fecha_dato": "2026-05-12", "ambito": "47249", "_raw_CD_SIGLAS": "SUBS", "_raw_DS_CLASIF_GEN": "Suelo Apto Para Urbanizar", "_raw_DS_CLASIF_DET": "Suelo Apto Para Urbanizar", "_raw_DS_DOCU": "NORMAS SUBSIDIARIAS", "_raw_DS_LEY": "CM Ley 4/1984, E RDL 1/1992", "_raw_FC_AC": "2001-08-02", "_raw_NM_AREA_M2": 170870.33723018301, "_cam_code": "149" }, "geometry": { "type": "Polygon", "coordinates": [ [ [ -3.8116, 40.1969 ], [ -3.8122, 40.1971 ], [ -3.8122, 40.1966 ], [ -3.8125, 40.1954 ], [ -3.8106, 40.195 ], [ -3.8104, 40.195 ], [ -3.8079, 40.195 ], [ -3.8077, 40.195 ], [ -3.8078, 40.195 ], [ -3.8078, 40.195 ], [ -3.8078, 40.195 ], [ -3.8078, 40.1949 ], [ -3.8078, 40.1948 ], [ -3.8081, 40.1939 ], [ -3.8084, 40.1933 ], [ -3.8085, 40.1926 ], [ -3.808, 40.1924 ], [ -3.8088, 40.1893 ], [ -3.8072, 40.1892 ], [ -3.8068, 40.1904 ], [ -3.8065, 40.1922 ], [ -3.8064, 40.1922 ], [ -3.8063, 40.193 ], [ -3.8059, 40.1942 ], [ -3.8056, 40.194 ], [ -3.8052, 40.1944 ], [ -3.8063, 40.1946 ], [ -3.8065, 40.1948 ], [ -3.8065, 40.1951 ], [ -3.8067, 40.1954 ], [ -3.808, 40.1956 ], [ -3.8083, 40.1961 ], [ -3.8089, 40.1965 ], [ -3.8095, 40.1966 ], [ -3.8098, 40.1968 ], [ -3.8116, 40.1969 ] ] ] } },
{ "type": "Feature", "properties": { "municipio": "Torrejón de la Calzada", "clasificacion": "urbanizable-sectorizado", "calificacion": "sin-asignar", "version": "vigente", "fuente": "SIT-CAM WFS — UsoDelSuelo:VPLA_V_CLASIFICACION (https://idem.comunidad.madrid/geosrvg/ows)", "fecha_dato": "2026-05-12", "ambito": "47249", "_raw_CD_SIGLAS": "SUBS", "_raw_DS_CLASIF_GEN": "Suelo Urbanizable (INCORPORADO)", "_raw_DS_CLASIF_DET": "Suelo Urbanizable Incorporado", "_raw_DS_DOCU": "NORMAS SUBSIDIARIAS", "_raw_DS_LEY": "CM Ley 4/1984, E RDL 1/1992", "_raw_FC_AC": "2001-08-02", "_raw_NM_AREA_M2": 116944.103931429, "_cam_code": "149" }, "geometry": { "type": "Polygon", "coordinates": [ [ [ -3.7985, 40.2037 ], [ -3.7979, 40.2045 ], [ -3.8002, 40.2055 ], [ -3.8012, 40.2058 ], [ -3.8032, 40.2058 ], [ -3.8032, 40.2057 ], [ -3.8036, 40.2057 ], [ -3.8054, 40.2051 ], [ -3.8061, 40.2047 ], [ -3.8014, 40.2033 ], [ -3.8013, 40.2033 ], [ -3.8011, 40.2039 ], [ -3.8007, 40.2039 ], [ -3.7992, 40.2031 ], [ -3.7989, 40.2038 ], [ -3.7985, 40.2037 ] ] ] } },
{ "type": "Feature", "properties": { "municipio": "Torrejón de la Calzada", "clasificacion": "urbanizable-sectorizado", "calificacion": "sin-asignar", "version": "vigente", "fuente": "SIT-CAM WFS — UsoDelSuelo:VPLA_V_CLASIFICACION (https://idem.comunidad.madrid/geosrvg/ows)", "fecha_dato": "2026-05-12", "ambito": "47249", "_raw_CD_SIGLAS": "SUBS", "_raw_DS_CLASIF_GEN": "Suelo Apto Para Urbanizar", "_raw_DS_CLASIF_DET": "Suelo Apto Para Urbanizar", "_raw_DS_DOCU": "NORMAS SUBSIDIARIAS", "_raw_DS_LEY": "CM Ley 4/1984, E RDL 1/1992", "_raw_FC_AC": "2001-08-02", "_raw_NM_AREA_M2": 84594.551020109997, "_cam_code": "149" }, "geometry": { "type": "Polygon", "coordinates": [ [ [ -3.8013, 40.2033 ], [ -3.8062, 40.2047 ], [ -3.8062, 40.2046 ], [ -3.807, 40.2041 ], [ -3.8072, 40.2038 ], [ -3.8071, 40.2025 ], [ -3.8074, 40.2023 ], [ -3.8055, 40.202 ], [ -3.8053, 40.2035 ], [ -3.8036, 40.2032 ], [ -3.8039, 40.2019 ], [ -3.8019, 40.2022 ], [ -3.802, 40.2022 ], [ -3.8019, 40.2028 ], [ -3.8014, 40.203 ], [ -3.8013, 40.2033 ] ] ] } }
]
}
