{
"type": "FeatureCollection",
"name": "vigente.full",
"features": [
{ "type": "Feature", "properties": { "municipio": "Griñón", "clasificacion": "no-urbanizable-protegido", "calificacion": "sin-asignar", "version": "vigente", "fuente": "SIT-CAM WFS — UsoDelSuelo:VPLA_V_CLASIFICACION (https://idem.comunidad.madrid/geosrvg/ows)", "fecha_dato": "2026-05-12", "ambito": "25399", "_raw_CD_SIGLAS": "SNUP", "_raw_DS_CLASIF_GEN": "Suelo No Urbanizable Protegido", "_raw_DS_CLASIF_DET": "Suelo No Urbanizable Especialmente Protegido. Reserva de infraestructura", "_raw_DS_DOCU": "NORMAS SUBSIDIARIAS", "_raw_DS_LEY": null, "_raw_FC_AC": "1994-09-26", "_raw_NM_AREA_M2": 143291.59401430099, "_cam_code": "066" }, "geometry": { "type": "Polygon", "coordinates": [ [ [ -3.8473, 40.2347 ], [ -3.848, 40.2348 ], [ -3.8487, 40.2338 ], [ -3.8541, 40.2212 ], [ -3.8566, 40.2219 ], [ -3.859, 40.2219 ], [ -3.8657, 40.2214 ], [ -3.8665, 40.221 ], [ -3.8672, 40.2204 ], [ -3.8676, 40.2196 ], [ -3.8678, 40.2187 ], [ -3.8687, 40.2134 ], [ -3.8682, 40.2119 ], [ -3.8687, 40.2119 ], [ -3.8697, 40.2116 ], [ -3.8694, 40.2112 ], [ -3.8693, 40.2113 ], [ -3.8681, 40.2113 ], [ -3.8672, 40.2111 ], [ -3.866, 40.2102 ], [ -3.8651, 40.2092 ], [ -3.8635, 40.2078 ], [ -3.8626, 40.2067 ], [ -3.8623, 40.2069 ], [ -3.8642, 40.2089 ], [ -3.8649, 40.2094 ], [ -3.8663, 40.2108 ], [ -3.8673, 40.2115 ], [ -3.8669, 40.212 ], [ -3.8678, 40.2118 ], [ -3.8685, 40.2131 ], [ -3.8673, 40.2198 ], [ -3.867, 40.2203 ], [ -3.866, 40.2211 ], [ -3.8653, 40.2213 ], [ -3.8633, 40.2215 ], [ -3.857, 40.2218 ], [ -3.8563, 40.2217 ], [ -3.8538, 40.2209 ], [ -3.8528, 40.2232 ], [ -3.8526, 40.2232 ], [ -3.8525, 40.2234 ], [ -3.8524, 40.2239 ], [ -3.8522, 40.2241 ], [ -3.8518, 40.2253 ], [ -3.8516, 40.2255 ], [ -3.8514, 40.2262 ], [ -3.8513, 40.2262 ], [ -3.8505, 40.2283 ], [ -3.8504, 40.2283 ], [ -3.8495, 40.2306 ], [ -3.8491, 40.2313 ], [ -3.8486, 40.2327 ], [ -3.8475, 40.2346 ], [ -3.8473, 40.2347 ] ] ] } },
{ "type": "Feature", "properties": { "municipio": "Griñón", "clasificacion": "no-urbanizable-protegido", "calificacion": "sin-asignar", "version": "vigente", "fuente": "SIT-CAM WFS — UsoDelSuelo:VPLA_V_CLASIFICACION (https://idem.comunidad.madrid/geosrvg/ows)", "fecha_dato": "2026-05-12", "ambito": "25399", "_raw_CD_SIGLAS": "SNUP", "_raw_DS_CLASIF_GEN": "Suelo No Urbanizable Protegido", "_raw_DS_CLASIF_DET": "Suelo No Urbanizable especialmente protegido. Protección cauces y vaguadas", "_raw_DS_DOCU": "NORMAS SUBSIDIARIAS", "_raw_DS_LEY": null, "_raw_FC_AC": "1994-09-26", "_raw_NM_AREA_M2": 58287.050527195599, "_cam_code": "066" }, "geometry": { "type": "Polygon", "coordinates": [ [ [ -3.8434, 40.2073 ], [ -3.8452, 40.2076 ], [ -3.8461, 40.2081 ], [ -3.8464, 40.2079 ], [ -3.8453, 40.2073 ], [ -3.8432, 40.207 ], [ -3.8432, 40.2069 ], [ -3.843, 40.2069 ], [ -3.8429, 40.2067 ], [ -3.8424, 40.2065 ], [ -3.8424, 40.2064 ], [ -3.842, 40.2065 ], [ -3.8404, 40.2064 ], [ -3.8403, 40.2061 ], [ -3.8399, 40.2058 ], [ -3.839, 40.2057 ], [ -3.839, 40.2056 ], [ -3.8386, 40.2055 ], [ -3.8386, 40.2054 ], [ -3.8381, 40.2053 ], [ -3.8371, 40.2055 ], [ -3.8367, 40.2057 ], [ -3.835, 40.2057 ], [ -3.8346, 40.2058 ], [ -3.833, 40.2057 ], [ -3.833, 40.2056 ], [ -3.8321, 40.2055 ], [ -3.8321, 40.206 ], [ -3.8349, 40.2061 ], [ -3.8351, 40.2062 ], [ -3.8387, 40.2061 ], [ -3.8387, 40.2062 ], [ -3.8391, 40.2062 ], [ -3.8391, 40.2063 ], [ -3.8397, 40.2063 ], [ -3.8408, 40.2067 ], [ -3.8408, 40.2068 ], [ -3.8423, 40.2067 ], [ -3.8434, 40.2073 ] ] ] } },
{ "type": "Feature", "properties": { "municipio": "Griñón", "clasificacion": "no-urbanizable-protegido", "calificacion": "sin-asignar", "version": "vigente", "fuente": "SIT-CAM WFS — UsoDelSuelo:VPLA_V_CLASIFICACION (https://idem.comunidad.madrid/geosrvg/ows)", "fecha_dato": "2026-05-12", "ambito": "25399", "_raw_CD_SIGLAS": "SNUP", "_raw_DS_CLASIF_GEN": "Suelo No Urbanizable Protegido", "_raw_DS_CLASIF_DET": "Suelo No Urbanizable especialmente protegido. Protección cauces y vaguadas", "_raw_DS_DOCU": "NORMAS SUBSIDIARIAS", "_raw_DS_LEY": null, "_raw_FC_AC": "1994-09-26", "_raw_NM_AREA_M2": 2621.6839072144098, "_cam_code": "066" }, "geometry": { "type": "Polygon", "coordinates": [ [ [ -3.8734, 40.2191 ], [ -3.873, 40.219 ], [ -3.8721, 40.219 ], [ -3.8721, 40.2191 ], [ -3.8725, 40.2191 ], [ -3.8732, 40.2194 ], [ -3.8735, 40.2194 ], [ -3.8734, 40.2191 ] ] ] } },
{ "type": "Feature", "properties": { "municipio": "Griñón", "clasificacion": "no-urbanizable-protegido", "calificacion": "sin-asignar", "version": "vigente", "fuente": "SIT-CAM WFS — UsoDelSuelo:VPLA_V_CLASIFICACION (https://idem.comunidad.madrid/geosrvg/ows)", "fecha_dato": "2026-05-12", "ambito": "25399", "_raw_CD_SIGLAS": "SNUP", "_raw_DS_CLASIF_GEN": "Suelo No Urbanizable Protegido", "_raw_DS_CLASIF_DET": "Suelo No Urbanizable especialmente protegido. Protección cauces y vaguadas", "_raw_DS_DOCU": "NORMAS SUBSIDIARIAS", "_raw_DS_LEY": null, "_raw_FC_AC": "1994-09-26", "_raw_NM_AREA_M2": 192549.31917313, "_cam_code": "066" }, "geometry": { "type": "Polygon", "coordinates": [ [ [ -3.8296, 40.2079 ], [ -3.8294, 40.2081 ], [ -3.8286, 40.2084 ], [ -3.8284, 40.2086 ], [ -3.8284, 40.2091 ], [ -3.8287, 40.2095 ], [ -3.8294, 40.2098 ], [ -3.8301, 40.2105 ], [ -3.8304, 40.2109 ], [ -3.8304, 40.2111 ], [ -3.8305, 40.2111 ], [ -3.8305, 40.2116 ], [ -3.831, 40.2124 ], [ -3.831, 40.2126 ], [ -3.8311, 40.2126 ], [ -3.8309, 40.2138 ], [ -3.8311, 40.2139 ], [ -3.8312, 40.2143 ], [ -3.8308, 40.2147 ], [ -3.8302, 40.2148 ], [ -3.8303, 40.215 ], [ -3.8312, 40.2153 ], [ -3.8312, 40.2155 ], [ -3.8307, 40.2158 ], [ -3.8309, 40.216 ], [ -3.8309, 40.2162 ], [ -3.8307, 40.2164 ], [ -3.8307, 40.2166 ], [ -3.8306, 40.2166 ], [ -3.8306, 40.2173 ], [ -3.8307, 40.2174 ], [ -3.8306, 40.2179 ], [ -3.8307, 40.2179 ], [ -3.8308, 40.2182 ], [ -3.8313, 40.2185 ], [ -3.8322, 40.2194 ], [ -3.8326, 40.2201 ], [ -3.8335, 40.2194 ], [ -3.8342, 40.2194 ], [ -3.8353, 40.2188 ], [ -3.8348, 40.2187 ], [ -3.834, 40.2183 ], [ -3.833, 40.2173 ], [ -3.8326, 40.2161 ], [ -3.832, 40.2119 ], [ -3.8309, 40.2099 ], [ -3.8296, 40.2079 ] ] ] } },
{ "type": "Feature", "properties": { "municipio": "Griñón", "clasificacion": "no-urbanizable-protegido", "calificacion": "sin-asignar", "version": "vigente", "fuente": "SIT-CAM WFS — UsoDelSuelo:VPLA_V_CLASIFICACION (https://idem.comunidad.madrid/geosrvg/ows)", "fecha_dato": "2026-05-12", "ambito": "25399", "_raw_CD_SIGLAS": "SNUP", "_raw_DS_CLASIF_GEN": "Suelo No Urbanizable Protegido", "_raw_DS_CLASIF_DET": "Suelo No Urbanizable especialmente protegido. Protección cauces y vaguadas", "_raw_DS_DOCU": "NORMAS SUBSIDIARIAS", "_raw_DS_LEY": null, "_raw_FC_AC": "1994-09-26", "_raw_NM_AREA_M2": 50950.8155204094, "_cam_code": "066" }, "geometry": { "type": "Polygon", "coordinates": [ [ [ -3.8065, 40.2255 ], [ -3.8077, 40.226 ], [ -3.8077, 40.2261 ], [ -3.8084, 40.2263 ], [ -3.809, 40.2266 ], [ -3.809, 40.2267 ], [ -3.8092, 40.2267 ], [ -3.8092, 40.2268 ], [ -3.8107, 40.2269 ], [ -3.8107, 40.227 ], [ -3.8111, 40.227 ], [ -3.8111, 40.2269 ], [ -3.8129, 40.227 ], [ -3.813, 40.2269 ], [ -3.8143, 40.2268 ], [ -3.8146, 40.2267 ], [ -3.8146, 40.2266 ], [ -3.8169, 40.2266 ], [ -3.8174, 40.2264 ], [ -3.8176, 40.2264 ], [ -3.8176, 40.2265 ], [ -3.818, 40.2264 ], [ -3.8179, 40.2261 ], [ -3.8168, 40.2261 ], [ -3.8168, 40.2262 ], [ -3.8149, 40.2261 ], [ -3.8136, 40.2264 ], [ -3.8136, 40.2265 ], [ -3.8106, 40.2265 ], [ -3.8105, 40.2264 ], [ -3.8095, 40.2264 ], [ -3.8089, 40.226 ], [ -3.808, 40.2257 ], [ -3.8069, 40.2251 ], [ -3.8063, 40.2251 ], [ -3.8065, 40.2255 ] ] ] } },
{ "type": "Feature", "properties": { "municipio": "Griñón", "clasificacion": "no-urbanizable-protegido", "calificacion": "sin-asignar", "version": "vigente", "fuente": "SIT-CAM WFS — UsoDelSuelo:VPLA_V_CLASIFICACION (https://idem.comunidad.madrid/geosrvg/ows)", "fecha_dato": "2026-05-12", "ambito": "25399", "_raw_CD_SIGLAS": "SNUP", "_raw_DS_CLASIF_GEN": "Suelo No Urbanizable Protegido", "_raw_DS_CLASIF_DET": "Suelo No Urbanizable especialmente protegido. Protección cauces y vaguadas", "_raw_DS_DOCU": "NORMAS SUBSIDIARIAS", "_raw_DS_LEY": null, "_raw_FC_AC": "1994-09-26", "_raw_NM_AREA_M2": 21480.508881995102, "_cam_code": "066" }, "geometry": { "type": "Polygon", "coordinates": [ [ [ -3.8804, 40.233 ], [ -3.8809, 40.2328 ], [ -3.8815, 40.233 ], [ -3.8824, 40.233 ], [ -3.883, 40.2326 ], [ -3.8839, 40.2323 ], [ -3.8843, 40.2323 ], [ -3.8845, 40.2321 ], [ -3.884, 40.2316 ], [ -3.8832, 40.2313 ], [ -3.8827, 40.2309 ], [ -3.8825, 40.2305 ], [ -3.8824, 40.2307 ], [ -3.8816, 40.2306 ], [ -3.8809, 40.2302 ], [ -3.8809, 40.2301 ], [ -3.8802, 40.2298 ], [ -3.8801, 40.2296 ], [ -3.8799, 40.2296 ], [ -3.8798, 40.2297 ], [ -3.8806, 40.2303 ], [ -3.8812, 40.2306 ], [ -3.882, 40.2308 ], [ -3.883, 40.2315 ], [ -3.8839, 40.2319 ], [ -3.8833, 40.2321 ], [ -3.8827, 40.2326 ], [ -3.8823, 40.2326 ], [ -3.8823, 40.2327 ], [ -3.882, 40.2328 ], [ -3.8808, 40.2327 ], [ -3.8804, 40.233 ] ] ] } },
{ "type": "Feature", "properties": { "municipio": "Griñón", "clasificacion": "no-urbanizable-protegido", "calificacion": "sin-asignar", "version": "vigente", "fuente": "SIT-CAM WFS — UsoDelSuelo:VPLA_V_CLASIFICACION (https://idem.comunidad.madrid/geosrvg/ows)", "fecha_dato": "2026-05-12", "ambito": "25399", "_raw_CD_SIGLAS": "SNUP", "_raw_DS_CLASIF_GEN": "Suelo No Urbanizable Protegido", "_raw_DS_CLASIF_DET": "Suelo No Urbanizable Especialmente Protegido. Reserva de infraestructura", "_raw_DS_DOCU": "NORMAS SUBSIDIARIAS", "_raw_DS_LEY": null, "_raw_FC_AC": "1994-09-26", "_raw_NM_AREA_M2": 91799.083615167096, "_cam_code": "066" }, "geometry": { "type": "Polygon", "coordinates": [ [ [ -3.8457, 40.2084 ], [ -3.8458, 40.2084 ], [ -3.8458, 40.2086 ], [ -3.8461, 40.2087 ], [ -3.8467, 40.2081 ], [ -3.8501, 40.2061 ], [ -3.8514, 40.2051 ], [ -3.8527, 40.2043 ], [ -3.8527, 40.2042 ], [ -3.853, 40.2041 ], [ -3.853, 40.204 ], [ -3.8543, 40.2036 ], [ -3.8569, 40.2034 ], [ -3.8592, 40.2035 ], [ -3.8601, 40.204 ], [ -3.8605, 40.2044 ], [ -3.8617, 40.206 ], [ -3.8618, 40.2057 ], [ -3.862, 40.2059 ], [ -3.8611, 40.2046 ], [ -3.8604, 40.2039 ], [ -3.8596, 40.2034 ], [ -3.858, 40.2031 ], [ -3.8559, 40.2032 ], [ -3.8556, 40.1998 ], [ -3.8554, 40.1998 ], [ -3.8549, 40.2 ], [ -3.8551, 40.2004 ], [ -3.8554, 40.2033 ], [ -3.8548, 40.2033 ], [ -3.8535, 40.2036 ], [ -3.8521, 40.2042 ], [ -3.8487, 40.2011 ], [ -3.8481, 40.2012 ], [ -3.8517, 40.2044 ], [ -3.8492, 40.2062 ], [ -3.8483, 40.2068 ], [ -3.8467, 40.2076 ], [ -3.8457, 40.2084 ] ] ] } },
{ "type": "Feature", "properties": { "municipio": "Griñón", "clasificacion": "no-urbanizable-protegido", "calificacion": "sin-asignar", "version": "vigente", "fuente": "SIT-CAM WFS — UsoDelSuelo:VPLA_V_CLASIFICACION (https://idem.comunidad.madrid/geosrvg/ows)", "fecha_dato": "2026-05-12", "ambito": "25399", "_raw_CD_SIGLAS": "SNUP", "_raw_DS_CLASIF_GEN": "Suelo No Urbanizable Protegido", "_raw_DS_CLASIF_DET": "Suelo No Urbanizable especialmente protegido. Valor paisajístico", "_raw_DS_DOCU": "NORMAS SUBSIDIARIAS", "_raw_DS_LEY": null, "_raw_FC_AC": "1994-09-26", "_raw_NM_AREA_M2": 250511.41872719699, "_cam_code": "066" }, "geometry": { "type": "Polygon", "coordinates": [ [ [ -3.8335, 40.217 ], [ -3.8341, 40.2178 ], [ -3.8356, 40.2185 ], [ -3.8376, 40.2188 ], [ -3.8419, 40.219 ], [ -3.8431, 40.2181 ], [ -3.844, 40.2169 ], [ -3.8443, 40.216 ], [ -3.8442, 40.2151 ], [ -3.8428, 40.215 ], [ -3.8407, 40.2157 ], [ -3.8381, 40.216 ], [ -3.8381, 40.2161 ], [ -3.8378, 40.2162 ], [ -3.8367, 40.2164 ], [ -3.8356, 40.2167 ], [ -3.8356, 40.2168 ], [ -3.8335, 40.217 ] ] ] } },
{ "type": "Feature", "properties": { "municipio": "Griñón", "clasificacion": "no-urbanizable-protegido", "calificacion": "sin-asignar", "version": "vigente", "fuente": "SIT-CAM WFS — UsoDelSuelo:VPLA_V_CLASIFICACION (https://idem.comunidad.madrid/geosrvg/ows)", "fecha_dato": "2026-05-12", "ambito": "25399", "_raw_CD_SIGLAS": "SNUP", "_raw_DS_CLASIF_GEN": "Suelo No Urbanizable Protegido", "_raw_DS_CLASIF_DET": "Suelo No Urbanizable especialmente protegido. Valor paisajístico", "_raw_DS_DOCU": "NORMAS SUBSIDIARIAS", "_raw_DS_LEY": null, "_raw_FC_AC": "1994-09-26", "_raw_NM_AREA_M2": 4426419.74352773, "_cam_code": "066" }, "geometry": { "type": "Polygon", "coordinates": [ [ [ -3.8077, 40.2295 ], [ -3.8083, 40.23 ], [ -3.8107, 40.2311 ], [ -3.8127, 40.23 ], [ -3.8149, 40.2277 ], [ -3.8163, 40.2282 ], [ -3.8182, 40.2297 ], [ -3.8194, 40.2285 ], [ -3.821, 40.2277 ], [ -3.8213, 40.2271 ], [ -3.8272, 40.2284 ], [ -3.829, 40.2292 ], [ -3.8294, 40.2281 ], [ -3.8295, 40.2281 ], [ -3.8294, 40.228 ], [ -3.8295, 40.2275 ], [ -3.8296, 40.2275 ], [ -3.8297, 40.2258 ], [ -3.8296, 40.2258 ], [ -3.8296, 40.2246 ], [ -3.8295, 40.2245 ], [ -3.8296, 40.2236 ], [ -3.8295, 40.2232 ], [ -3.8293, 40.223 ], [ -3.8288, 40.2229 ], [ -3.8288, 40.2227 ], [ -3.8291, 40.2223 ], [ -3.8291, 40.222 ], [ -3.8292, 40.222 ], [ -3.8292, 40.2218 ], [ -3.8288, 40.2215 ], [ -3.8304, 40.221 ], [ -3.8304, 40.2209 ], [ -3.8313, 40.2206 ], [ -3.8313, 40.2205 ], [ -3.8318, 40.2204 ], [ -3.8318, 40.2203 ], [ -3.8326, 40.2201 ], [ -3.8322, 40.2194 ], [ -3.8313, 40.2185 ], [ -3.8308, 40.2182 ], [ -3.8307, 40.2179 ], [ -3.8306, 40.2179 ], [ -3.8307, 40.2178 ], [ -3.8306, 40.2166 ], [ -3.8307, 40.2166 ], [ -3.8307, 40.2164 ], [ -3.8309, 40.2162 ], [ -3.8309, 40.216 ], [ -3.8307, 40.2158 ], [ -3.8312, 40.2155 ], [ -3.8312, 40.2153 ], [ -3.8303, 40.215 ], [ -3.8302, 40.2148 ], [ -3.8308, 40.2147 ], [ -3.8312, 40.2143 ], [ -3.8311, 40.2139 ], [ -3.8309, 40.2138 ], [ -3.8311, 40.2126 ], [ -3.831, 40.2126 ], [ -3.831, 40.2124 ], [ -3.8305, 40.2116 ], [ -3.8305, 40.2111 ], [ -3.8304, 40.2111 ], [ -3.8304, 40.2109 ], [ -3.8301, 40.2105 ], [ -3.8294, 40.2098 ], [ -3.8287, 40.2095 ], [ -3.8284, 40.2091 ], [ -3.8284, 40.2086 ], [ -3.8286, 40.2084 ], [ -3.8294, 40.2081 ], [ -3.8296, 40.2079 ], [ -3.8287, 40.2069 ], [ -3.8285, 40.2072 ], [ -3.8281, 40.207 ], [ -3.8276, 40.2075 ], [ -3.8277, 40.2077 ], [ -3.8274, 40.2079 ], [ -3.8263, 40.2092 ], [ -3.8256, 40.2091 ], [ -3.8267, 40.207 ], [ -3.8272, 40.2067 ], [ -3.821, 40.2053 ], [ -3.8179, 40.208 ], [ -3.816, 40.209 ], [ -3.8157, 40.2096 ], [ -3.8153, 40.21 ], [ -3.8153, 40.2103 ], [ -3.815, 40.2106 ], [ -3.8133, 40.2118 ], [ -3.8075, 40.2149 ], [ -3.8063, 40.2159 ], [ -3.8042, 40.2191 ], [ -3.8034, 40.2199 ], [ -3.8035, 40.2203 ], [ -3.8044, 40.2219 ], [ -3.8044, 40.2221 ], [ -3.8045, 40.2221 ], [ -3.8056, 40.2238 ], [ -3.8059, 40.224 ], [ -3.8062, 40.2245 ], [ -3.8063, 40.2251 ], [ -3.8072, 40.2252 ], [ -3.8074, 40.2254 ], [ -3.8089, 40.226 ], [ -3.8095, 40.2264 ], [ -3.8136, 40.2265 ], [ -3.8136, 40.2264 ], [ -3.8149, 40.2261 ], [ -3.8161, 40.2261 ], [ -3.8161, 40.2262 ], [ -3.8179, 40.2261 ], [ -3.818, 40.2262 ], [ -3.818, 40.2264 ], [ -3.8178, 40.2265 ], [ -3.8174, 40.2264 ], [ -3.8169, 40.2266 ], [ -3.8146, 40.2266 ], [ -3.8146, 40.2267 ], [ -3.8143, 40.2268 ], [ -3.813, 40.2269 ], [ -3.8129, 40.227 ], [ -3.8116, 40.227 ], [ -3.8115, 40.2269 ], [ -3.8107, 40.227 ], [ -3.8107, 40.2269 ], [ -3.8092, 40.2268 ], [ -3.8092, 40.2267 ], [ -3.809, 40.2267 ], [ -3.809, 40.2266 ], [ -3.8084, 40.2263 ], [ -3.8077, 40.2261 ], [ -3.8077, 40.226 ], [ -3.8065, 40.2255 ], [ -3.8071, 40.2272 ], [ -3.8071, 40.2282 ], [ -3.8077, 40.2295 ] ], [ [ -3.8214, 40.2143 ], [ -3.821, 40.2143 ], [ -3.8207, 40.2139 ], [ -3.82, 40.2134 ], [ -3.82, 40.2132 ], [ -3.8204, 40.2129 ], [ -3.8208, 40.2129 ], [ -3.8212, 40.2133 ], [ -3.8224, 40.2134 ], [ -3.8223, 40.2138 ], [ -3.8221, 40.2138 ], [ -3.8221, 40.214 ], [ -3.822, 40.214 ], [ -3.8222, 40.2142 ], [ -3.8221, 40.2146 ], [ -3.8216, 40.2146 ], [ -3.8215, 40.2143 ], [ -3.8214, 40.2143 ] ] ] } },
{ "type": "Feature", "properties": { "municipio": "Griñón", "clasificacion": "no-urbanizable-protegido", "calificacion": "sin-asignar", "version": "vigente", "fuente": "SIT-CAM WFS — UsoDelSuelo:VPLA_V_CLASIFICACION (https://idem.comunidad.madrid/geosrvg/ows)", "fecha_dato": "2026-05-12", "ambito": "25399", "_raw_CD_SIGLAS": "SNUP", "_raw_DS_CLASIF_GEN": "Suelo No Urbanizable Protegido", "_raw_DS_CLASIF_DET": "Suelo No Urbanizable especialmente protegido. Valor paisajístico", "_raw_DS_DOCU": "NORMAS SUBSIDIARIAS", "_raw_DS_LEY": null, "_raw_FC_AC": "1994-09-26", "_raw_NM_AREA_M2": 71313.6382443115, "_cam_code": "066" }, "geometry": { "type": "Polygon", "coordinates": [ [ [ -3.848, 40.2348 ], [ -3.8492, 40.2358 ], [ -3.8513, 40.2363 ], [ -3.8506, 40.2343 ], [ -3.8504, 40.2332 ], [ -3.8498, 40.2313 ], [ -3.8487, 40.2338 ], [ -3.848, 40.2348 ] ] ] } },
{ "type": "Feature", "properties": { "municipio": "Griñón", "clasificacion": "no-urbanizable-protegido", "calificacion": "sin-asignar", "version": "vigente", "fuente": "SIT-CAM WFS — UsoDelSuelo:VPLA_V_CLASIFICACION (https://idem.comunidad.madrid/geosrvg/ows)", "fecha_dato": "2026-05-12", "ambito": "25399", "_raw_CD_SIGLAS": "SNUP", "_raw_DS_CLASIF_GEN": "Suelo No Urbanizable Protegido", "_raw_DS_CLASIF_DET": "Suelo No Urbanizable especialmente protegido. Valor paisajístico", "_raw_DS_DOCU": "NORMAS SUBSIDIARIAS", "_raw_DS_LEY": null, "_raw_FC_AC": "1994-09-26", "_raw_NM_AREA_M2": 3030121.07627586, "_cam_code": "066" }, "geometry": { "type": "Polygon", "coordinates": [ [ [ -3.8516, 40.2369 ], [ -3.8538, 40.2381 ], [ -3.8562, 40.2381 ], [ -3.8573, 40.2363 ], [ -3.857, 40.2361 ], [ -3.857, 40.2358 ], [ -3.8552, 40.2358 ], [ -3.8552, 40.2357 ], [ -3.8571, 40.2355 ], [ -3.8576, 40.236 ], [ -3.8601, 40.2334 ], [ -3.8606, 40.2336 ], [ -3.8612, 40.2329 ], [ -3.8628, 40.2304 ], [ -3.8644, 40.2311 ], [ -3.8659, 40.2292 ], [ -3.8679, 40.2257 ], [ -3.871, 40.2275 ], [ -3.8715, 40.2279 ], [ -3.8777, 40.2293 ], [ -3.8785, 40.2304 ], [ -3.8788, 40.2313 ], [ -3.8789, 40.2313 ], [ -3.8793, 40.232 ], [ -3.8793, 40.2323 ], [ -3.88, 40.233 ], [ -3.8804, 40.233 ], [ -3.8808, 40.2327 ], [ -3.882, 40.2328 ], [ -3.8823, 40.2327 ], [ -3.8823, 40.2326 ], [ -3.8827, 40.2326 ], [ -3.8833, 40.2321 ], [ -3.8839, 40.2319 ], [ -3.883, 40.2315 ], [ -3.882, 40.2308 ], [ -3.8812, 40.2306 ], [ -3.8806, 40.2303 ], [ -3.8798, 40.2297 ], [ -3.8799, 40.2296 ], [ -3.8801, 40.2296 ], [ -3.8802, 40.2298 ], [ -3.8809, 40.2301 ], [ -3.8809, 40.2302 ], [ -3.8816, 40.2306 ], [ -3.8824, 40.2307 ], [ -3.8825, 40.2305 ], [ -3.8826, 40.2308 ], [ -3.8832, 40.2313 ], [ -3.8834, 40.2313 ], [ -3.8834, 40.2314 ], [ -3.8841, 40.2317 ], [ -3.8779, 40.2252 ], [ -3.8769, 40.223 ], [ -3.8738, 40.2201 ], [ -3.8735, 40.2194 ], [ -3.8732, 40.2194 ], [ -3.8725, 40.2191 ], [ -3.8721, 40.2191 ], [ -3.8721, 40.219 ], [ -3.8734, 40.2191 ], [ -3.8698, 40.2118 ], [ -3.8697, 40.2118 ], [ -3.8697, 40.2116 ], [ -3.8687, 40.2119 ], [ -3.8682, 40.2119 ], [ -3.8687, 40.2134 ], [ -3.8678, 40.2187 ], [ -3.8674, 40.2201 ], [ -3.8665, 40.221 ], [ -3.8657, 40.2214 ], [ -3.865, 40.2215 ], [ -3.859, 40.2219 ], [ -3.8566, 40.2219 ], [ -3.8541, 40.2212 ], [ -3.8499, 40.231 ], [ -3.8503, 40.2323 ], [ -3.8506, 40.2328 ], [ -3.8509, 40.2344 ], [ -3.8515, 40.2361 ], [ -3.8516, 40.2369 ] ], [ [ -3.8581, 40.2293 ], [ -3.8575, 40.229 ], [ -3.8572, 40.2292 ], [ -3.8573, 40.2292 ], [ -3.8572, 40.2292 ], [ -3.8571, 40.2297 ], [ -3.8567, 40.2296 ], [ -3.8568, 40.2293 ], [ -3.8573, 40.2288 ], [ -3.8579, 40.2278 ], [ -3.8582, 40.2281 ], [ -3.8578, 40.2286 ], [ -3.8582, 40.2292 ], [ -3.8584, 40.229 ], [ -3.8588, 40.2294 ], [ -3.8585, 40.2301 ], [ -3.8578, 40.2299 ], [ -3.8581, 40.2293 ] ] ] } },
{ "type": "Feature", "properties": { "municipio": "Griñón", "clasificacion": "no-urbanizable-protegido", "calificacion": "sin-asignar", "version": "vigente", "fuente": "SIT-CAM WFS — UsoDelSuelo:VPLA_V_CLASIFICACION (https://idem.comunidad.madrid/geosrvg/ows)", "fecha_dato": "2026-05-12", "ambito": "25399", "_raw_CD_SIGLAS": "SNUP", "_raw_DS_CLASIF_GEN": "Suelo No Urbanizable Protegido", "_raw_DS_CLASIF_DET": "Suelo No Urbanizable Especialmente Protegido. Vías Pecuarias", "_raw_DS_DOCU": "NORMAS SUBSIDIARIAS", "_raw_DS_LEY": null, "_raw_FC_AC": "1994-09-26", "_raw_NM_AREA_M2": 9128.2747150695104, "_cam_code": "066" }, "geometry": { "type": "Polygon", "coordinates": [ [ [ -3.843, 40.2068 ], [ -3.8432, 40.207 ], [ -3.843, 40.2057 ], [ -3.8428, 40.2052 ], [ -3.842, 40.204 ], [ -3.8419, 40.2034 ], [ -3.8417, 40.2033 ], [ -3.8418, 40.2042 ], [ -3.8428, 40.2059 ], [ -3.843, 40.2068 ] ] ] } },
{ "type": "Feature", "properties": { "municipio": "Griñón", "clasificacion": "no-urbanizable-protegido", "calificacion": "sin-asignar", "version": "vigente", "fuente": "SIT-CAM WFS — UsoDelSuelo:VPLA_V_CLASIFICACION (https://idem.comunidad.madrid/geosrvg/ows)", "fecha_dato": "2026-05-12", "ambito": "25399", "_raw_CD_SIGLAS": "SNUP", "_raw_DS_CLASIF_GEN": "Suelo No Urbanizable Protegido", "_raw_DS_CLASIF_DET": "Suelo No Urbanizable Especialmente Protegido. Vías Pecuarias", "_raw_DS_DOCU": "NORMAS SUBSIDIARIAS", "_raw_DS_LEY": null, "_raw_FC_AC": "1994-09-26", "_raw_NM_AREA_M2": 6294.1402747343, "_cam_code": "066" }, "geometry": { "type": "Polygon", "coordinates": [ [ [ -3.8431, 40.2072 ], [ -3.8433, 40.2077 ], [ -3.8437, 40.2102 ], [ -3.8438, 40.2102 ], [ -3.8439, 40.2097 ], [ -3.8435, 40.2077 ], [ -3.8434, 40.2073 ], [ -3.8431, 40.2072 ] ] ] } },
{ "type": "Feature", "properties": { "municipio": "Griñón", "clasificacion": "no-urbanizable-protegido", "calificacion": "sin-asignar", "version": "vigente", "fuente": "SIT-CAM WFS — UsoDelSuelo:VPLA_V_CLASIFICACION (https://idem.comunidad.madrid/geosrvg/ows)", "fecha_dato": "2026-05-12", "ambito": "25399", "_raw_CD_SIGLAS": "SNUP", "_raw_DS_CLASIF_GEN": "Suelo No Urbanizable Protegido", "_raw_DS_CLASIF_DET": "Suelo No Urbanizable Especialmente Protegido. Vías Pecuarias", "_raw_DS_DOCU": "NORMAS SUBSIDIARIAS", "_raw_DS_LEY": null, "_raw_FC_AC": "1994-09-26", "_raw_NM_AREA_M2": 7828.6710314841903, "_cam_code": "066" }, "geometry": { "type": "Polygon", "coordinates": [ [ [ -3.8419, 40.219 ], [ -3.8422, 40.219 ], [ -3.8435, 40.218 ], [ -3.8443, 40.2168 ], [ -3.8444, 40.2164 ], [ -3.8443, 40.216 ], [ -3.844, 40.2169 ], [ -3.8431, 40.2181 ], [ -3.8419, 40.219 ] ] ] } },
{ "type": "Feature", "properties": { "municipio": "Griñón", "clasificacion": "no-urbanizable-protegido", "calificacion": "sin-asignar", "version": "vigente", "fuente": "SIT-CAM WFS — UsoDelSuelo:VPLA_V_CLASIFICACION (https://idem.comunidad.madrid/geosrvg/ows)", "fecha_dato": "2026-05-12", "ambito": "25399", "_raw_CD_SIGLAS": "SNUP", "_raw_DS_CLASIF_GEN": "Suelo No Urbanizable Protegido", "_raw_DS_CLASIF_DET": "Suelo No Urbanizable Especialmente Protegido. Vías Pecuarias", "_raw_DS_DOCU": "NORMAS SUBSIDIARIAS", "_raw_DS_LEY": null, "_raw_FC_AC": "1994-09-26", "_raw_NM_AREA_M2": 24868.344901478398, "_cam_code": "066" }, "geometry": { "type": "Polygon", "coordinates": [ [ [ -3.8376, 40.23 ], [ -3.8378, 40.23 ], [ -3.8379, 40.2295 ], [ -3.838, 40.2296 ], [ -3.8385, 40.2281 ], [ -3.8386, 40.2271 ], [ -3.8388, 40.227 ], [ -3.839, 40.2265 ], [ -3.84, 40.2235 ], [ -3.84, 40.2231 ], [ -3.8406, 40.2221 ], [ -3.8412, 40.2203 ], [ -3.8418, 40.2195 ], [ -3.8415, 40.2194 ], [ -3.8411, 40.22 ], [ -3.8408, 40.2206 ], [ -3.8407, 40.2213 ], [ -3.8398, 40.223 ], [ -3.8398, 40.2235 ], [ -3.8386, 40.2268 ], [ -3.8384, 40.227 ], [ -3.8383, 40.228 ], [ -3.8375, 40.23 ], [ -3.8376, 40.23 ] ] ] } },
{ "type": "Feature", "properties": { "municipio": "Griñón", "clasificacion": "no-urbanizable-protegido", "calificacion": "sin-asignar", "version": "vigente", "fuente": "SIT-CAM WFS — UsoDelSuelo:VPLA_V_CLASIFICACION (https://idem.comunidad.madrid/geosrvg/ows)", "fecha_dato": "2026-05-12", "ambito": "25399", "_raw_CD_SIGLAS": "SNUP", "_raw_DS_CLASIF_GEN": "Suelo No Urbanizable Protegido", "_raw_DS_CLASIF_DET": "Suelo No Urbanizable Especialmente Protegido. Vías Pecuarias", "_raw_DS_DOCU": "NORMAS SUBSIDIARIAS", "_raw_DS_LEY": null, "_raw_FC_AC": "1994-09-26", "_raw_NM_AREA_M2": 15248.660386539101, "_cam_code": "066" }, "geometry": { "type": "Polygon", "coordinates": [ [ [ -3.8469, 40.224 ], [ -3.849, 40.2293 ], [ -3.8494, 40.23 ], [ -3.8495, 40.2304 ], [ -3.8496, 40.2302 ], [ -3.8494, 40.2295 ], [ -3.8488, 40.2282 ], [ -3.8485, 40.2272 ], [ -3.8481, 40.2265 ], [ -3.848, 40.2259 ], [ -3.8471, 40.224 ], [ -3.8469, 40.224 ] ] ] } },
{ "type": "Feature", "properties": { "municipio": "Griñón", "clasificacion": "no-urbanizable-protegido", "calificacion": "sin-asignar", "version": "vigente", "fuente": "SIT-CAM WFS — UsoDelSuelo:VPLA_V_CLASIFICACION (https://idem.comunidad.madrid/geosrvg/ows)", "fecha_dato": "2026-05-12", "ambito": "25399", "_raw_CD_SIGLAS": "SNUP", "_raw_DS_CLASIF_GEN": "Suelo No Urbanizable Protegido", "_raw_DS_CLASIF_DET": "Suelo No Urbanizable Especialmente Protegido. Vías Pecuarias", "_raw_DS_DOCU": "NORMAS SUBSIDIARIAS", "_raw_DS_LEY": null, "_raw_FC_AC": "1994-09-26", "_raw_NM_AREA_M2": 13402.4702588213, "_cam_code": "066" }, "geometry": { "type": "Polygon", "coordinates": [ [ [ -3.8515, 40.2364 ], [ -3.8516, 40.2369 ], [ -3.8515, 40.2361 ], [ -3.8509, 40.2344 ], [ -3.8506, 40.2328 ], [ -3.8503, 40.2323 ], [ -3.8499, 40.231 ], [ -3.8498, 40.2313 ], [ -3.8504, 40.2332 ], [ -3.8506, 40.2343 ], [ -3.8511, 40.2355 ], [ -3.8512, 40.2362 ], [ -3.8515, 40.2364 ] ] ] } },
{ "type": "Feature", "properties": { "municipio": "Griñón", "clasificacion": "no-urbanizable-protegido", "calificacion": "sin-asignar", "version": "vigente", "fuente": "SIT-CAM WFS — UsoDelSuelo:VPLA_V_CLASIFICACION (https://idem.comunidad.madrid/geosrvg/ows)", "fecha_dato": "2026-05-12", "ambito": "25399", "_raw_CD_SIGLAS": "SNUP", "_raw_DS_CLASIF_GEN": "Suelo No Urbanizable Protegido", "_raw_DS_CLASIF_DET": "Suelo No Urbanizable especialmente protegido. Valor paisajístico", "_raw_DS_DOCU": "NORMAS SUBSIDIARIAS", "_raw_DS_LEY": null, "_raw_FC_AC": "1994-09-26", "_raw_NM_AREA_M2": 152232.91520425299, "_cam_code": "066" }, "geometry": { "type": "Polygon", "coordinates": [ [ [ -3.8487, 40.2011 ], [ -3.8515, 40.2036 ], [ -3.852, 40.2042 ], [ -3.8535, 40.2036 ], [ -3.8548, 40.2033 ], [ -3.8554, 40.2033 ], [ -3.8551, 40.2004 ], [ -3.8549, 40.2 ], [ -3.8531, 40.2003 ], [ -3.8515, 40.201 ], [ -3.8512, 40.201 ], [ -3.8512, 40.2011 ], [ -3.8487, 40.2011 ] ] ] } },
{ "type": "Feature", "properties": { "municipio": "Griñón", "clasificacion": "no-urbanizable-protegido", "calificacion": "sin-asignar", "version": "vigente", "fuente": "SIT-CAM WFS — UsoDelSuelo:VPLA_V_CLASIFICACION (https://idem.comunidad.madrid/geosrvg/ows)", "fecha_dato": "2026-05-12", "ambito": "25399", "_raw_CD_SIGLAS": "SNUP", "_raw_DS_CLASIF_GEN": "Suelo No Urbanizable Protegido", "_raw_DS_CLASIF_DET": "Suelo No Urbanizable especialmente protegido. Valor paisajístico", "_raw_DS_DOCU": "NORMAS SUBSIDIARIAS", "_raw_DS_LEY": null, "_raw_FC_AC": "1994-09-26", "_raw_NM_AREA_M2": 312622.29801157501, "_cam_code": "066" }, "geometry": { "type": "Polygon", "coordinates": [ [ [ -3.8321, 40.2055 ], [ -3.833, 40.2056 ], [ -3.833, 40.2057 ], [ -3.8346, 40.2058 ], [ -3.835, 40.2057 ], [ -3.8367, 40.2057 ], [ -3.8371, 40.2055 ], [ -3.8381, 40.2053 ], [ -3.8386, 40.2054 ], [ -3.8386, 40.2055 ], [ -3.839, 40.2056 ], [ -3.839, 40.2057 ], [ -3.8399, 40.2058 ], [ -3.8403, 40.2061 ], [ -3.8404, 40.2064 ], [ -3.8409, 40.2065 ], [ -3.8424, 40.2064 ], [ -3.8424, 40.2065 ], [ -3.843, 40.2068 ], [ -3.8428, 40.2059 ], [ -3.8418, 40.2042 ], [ -3.8417, 40.2033 ], [ -3.8401, 40.2031 ], [ -3.836, 40.202 ], [ -3.8331, 40.2023 ], [ -3.833, 40.2024 ], [ -3.832, 40.2024 ], [ -3.8321, 40.2055 ] ] ] } },
{ "type": "Feature", "properties": { "municipio": "Griñón", "clasificacion": "no-urbanizable-protegido", "calificacion": "sin-asignar", "version": "vigente", "fuente": "SIT-CAM WFS — UsoDelSuelo:VPLA_V_CLASIFICACION (https://idem.comunidad.madrid/geosrvg/ows)", "fecha_dato": "2026-05-12", "ambito": "25399", "_raw_CD_SIGLAS": "SNUP", "_raw_DS_CLASIF_GEN": "Suelo No Urbanizable Protegido", "_raw_DS_CLASIF_DET": "Suelo No Urbanizable especialmente protegido. Valor paisajístico", "_raw_DS_DOCU": "NORMAS SUBSIDIARIAS", "_raw_DS_LEY": null, "_raw_FC_AC": "1994-09-26", "_raw_NM_AREA_M2": 21102.908666962099, "_cam_code": "066" }, "geometry": { "type": "Polygon", "coordinates": [ [ [ -3.8434, 40.2073 ], [ -3.8439, 40.2101 ], [ -3.844, 40.2101 ], [ -3.8441, 40.21 ], [ -3.8439, 40.2092 ], [ -3.8438, 40.2092 ], [ -3.8437, 40.2082 ], [ -3.8442, 40.2086 ], [ -3.845, 40.2089 ], [ -3.8452, 40.2079 ], [ -3.8457, 40.2084 ], [ -3.8461, 40.2081 ], [ -3.8452, 40.2076 ], [ -3.8434, 40.2073 ] ] ] } },
{ "type": "Feature", "properties": { "municipio": "Griñón", "clasificacion": "no-urbanizable-protegido", "calificacion": "sin-asignar", "version": "vigente", "fuente": "SIT-CAM WFS — UsoDelSuelo:VPLA_V_CLASIFICACION (https://idem.comunidad.madrid/geosrvg/ows)", "fecha_dato": "2026-05-12", "ambito": "25399", "_raw_CD_SIGLAS": "SNUP", "_raw_DS_CLASIF_GEN": "Suelo No Urbanizable Protegido", "_raw_DS_CLASIF_DET": "Suelo No Urbanizable especialmente protegido. Protección cauces y vaguadas", "_raw_DS_DOCU": "NORMAS SUBSIDIARIAS", "_raw_DS_LEY": null, "_raw_FC_AC": "1994-09-26", "_raw_NM_AREA_M2": 5587.2394395046304, "_cam_code": "066" }, "geometry": { "type": "Polygon", "coordinates": [ [ [ -3.8576, 40.236 ], [ -3.8571, 40.2355 ], [ -3.8552, 40.2357 ], [ -3.8552, 40.2358 ], [ -3.857, 40.2358 ], [ -3.857, 40.2361 ], [ -3.8573, 40.2363 ], [ -3.8576, 40.236 ] ] ] } },
{ "type": "Feature", "properties": { "municipio": "Griñón", "clasificacion": "no-urbanizable-protegido", "calificacion": "sin-asignar", "version": "vigente", "fuente": "SIT-CAM WFS — UsoDelSuelo:VPLA_V_CLASIFICACION (https://idem.comunidad.madrid/geosrvg/ows)", "fecha_dato": "2026-05-12", "ambito": "25399", "_raw_CD_SIGLAS": "SNUP", "_raw_DS_CLASIF_GEN": "Suelo No Urbanizable Protegido", "_raw_DS_CLASIF_DET": "Suelo No Urbanizable especialmente protegido. Valor ecológico", "_raw_DS_DOCU": "NORMAS SUBSIDIARIAS", "_raw_DS_LEY": null, "_raw_FC_AC": "1994-09-26", "_raw_NM_AREA_M2": 951974.159441481, "_cam_code": "066" }, "geometry": { "type": "Polygon", "coordinates": [ [ [ -3.8296, 40.2295 ], [ -3.8375, 40.23 ], [ -3.8383, 40.228 ], [ -3.8384, 40.227 ], [ -3.8386, 40.2268 ], [ -3.8398, 40.2235 ], [ -3.8398, 40.223 ], [ -3.8407, 40.2213 ], [ -3.8408, 40.2206 ], [ -3.8415, 40.2194 ], [ -3.8371, 40.2192 ], [ -3.8358, 40.219 ], [ -3.8353, 40.2188 ], [ -3.8342, 40.2194 ], [ -3.8335, 40.2194 ], [ -3.8326, 40.2201 ], [ -3.8318, 40.2203 ], [ -3.8318, 40.2204 ], [ -3.8313, 40.2205 ], [ -3.8311, 40.2207 ], [ -3.8296, 40.2213 ], [ -3.8288, 40.2215 ], [ -3.8292, 40.2218 ], [ -3.8288, 40.2229 ], [ -3.8293, 40.223 ], [ -3.8295, 40.2232 ], [ -3.8296, 40.2236 ], [ -3.8295, 40.2245 ], [ -3.8296, 40.2246 ], [ -3.8296, 40.2258 ], [ -3.8297, 40.2258 ], [ -3.8296, 40.2275 ], [ -3.8295, 40.2275 ], [ -3.8294, 40.228 ], [ -3.8295, 40.2281 ], [ -3.8294, 40.2281 ], [ -3.829, 40.2292 ], [ -3.8296, 40.2295 ] ] ] } },
{ "type": "Feature", "properties": { "municipio": "Griñón", "clasificacion": "no-urbanizable-protegido", "calificacion": "sin-asignar", "version": "vigente", "fuente": "SIT-CAM WFS — UsoDelSuelo:VPLA_V_CLASIFICACION (https://idem.comunidad.madrid/geosrvg/ows)", "fecha_dato": "2026-05-12", "ambito": "25399", "_raw_CD_SIGLAS": "SNUP", "_raw_DS_CLASIF_GEN": "Suelo No Urbanizable Protegido", "_raw_DS_CLASIF_DET": "Suelo No Urbanizable Especialmente Protegido. Reserva de infraestructura", "_raw_DS_DOCU": "NORMAS SUBSIDIARIAS", "_raw_DS_LEY": null, "_raw_FC_AC": "1994-09-26", "_raw_NM_AREA_M2": 19201.634164348201, "_cam_code": "066" }, "geometry": { "type": "Polygon", "coordinates": [ [ [ -3.821, 40.2053 ], [ -3.8272, 40.2067 ], [ -3.8273, 40.2067 ], [ -3.8274, 40.2064 ], [ -3.8228, 40.2053 ], [ -3.8221, 40.2054 ], [ -3.8215, 40.2052 ], [ -3.821, 40.2052 ], [ -3.821, 40.2053 ] ] ] } },
{ "type": "Feature", "properties": { "municipio": "Griñón", "clasificacion": "no-urbanizable-protegido", "calificacion": "sin-asignar", "version": "vigente", "fuente": "SIT-CAM WFS — UsoDelSuelo:VPLA_V_CLASIFICACION (https://idem.comunidad.madrid/geosrvg/ows)", "fecha_dato": "2026-05-12", "ambito": "25399", "_raw_CD_SIGLAS": "SNUP", "_raw_DS_CLASIF_GEN": "Suelo No Urbanizable Protegido", "_raw_DS_CLASIF_DET": "Suelo No Urbanizable Especialmente Protegido. Reserva de infraestructura", "_raw_DS_DOCU": "NORMAS SUBSIDIARIAS", "_raw_DS_LEY": null, "_raw_FC_AC": "1994-09-26", "_raw_NM_AREA_M2": 105252.24557235101, "_cam_code": "066" }, "geometry": { "type": "Polygon", "coordinates": [ [ [ -3.8415, 40.2194 ], [ -3.844, 40.2196 ], [ -3.8437, 40.2191 ], [ -3.8367, 40.2187 ], [ -3.8356, 40.2185 ], [ -3.8341, 40.2178 ], [ -3.8334, 40.2169 ], [ -3.8325, 40.2116 ], [ -3.8305, 40.2082 ], [ -3.8301, 40.2077 ], [ -3.8296, 40.2076 ], [ -3.8291, 40.2073 ], [ -3.8309, 40.2099 ], [ -3.832, 40.2119 ], [ -3.8328, 40.2169 ], [ -3.8332, 40.2176 ], [ -3.8337, 40.2181 ], [ -3.8348, 40.2187 ], [ -3.8358, 40.219 ], [ -3.8371, 40.2192 ], [ -3.8415, 40.2194 ] ] ] } },
{ "type": "Feature", "properties": { "municipio": "Griñón", "clasificacion": "no-urbanizable-protegido", "calificacion": "sin-asignar", "version": "vigente", "fuente": "SIT-CAM WFS — UsoDelSuelo:VPLA_V_CLASIFICACION (https://idem.comunidad.madrid/geosrvg/ows)", "fecha_dato": "2026-05-12", "ambito": "25399", "_raw_CD_SIGLAS": "SNUP", "_raw_DS_CLASIF_GEN": "Suelo No Urbanizable Protegido", "_raw_DS_CLASIF_DET": "Suelo No Urbanizable especialmente protegido. Valor paisajístico", "_raw_DS_DOCU": "NORMAS SUBSIDIARIAS", "_raw_DS_LEY": null, "_raw_FC_AC": "1994-09-26", "_raw_NM_AREA_M2": 365920.13179730403, "_cam_code": "066" }, "geometry": { "type": "Polygon", "coordinates": [ [ [ -3.8432, 40.207 ], [ -3.8453, 40.2073 ], [ -3.8464, 40.2079 ], [ -3.8472, 40.2073 ], [ -3.8483, 40.2068 ], [ -3.8517, 40.2044 ], [ -3.8481, 40.2012 ], [ -3.8448, 40.2018 ], [ -3.844, 40.2033 ], [ -3.8419, 40.2034 ], [ -3.842, 40.204 ], [ -3.8428, 40.2052 ], [ -3.843, 40.2057 ], [ -3.8432, 40.207 ] ] ] } },
{ "type": "Feature", "properties": { "municipio": "Griñón", "clasificacion": "no-urbanizable-protegido", "calificacion": "sin-asignar", "version": "vigente", "fuente": "SIT-CAM WFS — UsoDelSuelo:VPLA_V_CLASIFICACION (https://idem.comunidad.madrid/geosrvg/ows)", "fecha_dato": "2026-05-12", "ambito": "25399", "_raw_CD_SIGLAS": "SNUP", "_raw_DS_CLASIF_GEN": "Suelo No Urbanizable Protegido", "_raw_DS_CLASIF_DET": "Suelo No Urbanizable especialmente protegido. Valor paisajístico", "_raw_DS_DOCU": "NORMAS SUBSIDIARIAS", "_raw_DS_LEY": null, "_raw_FC_AC": "1994-09-26", "_raw_NM_AREA_M2": 245698.130285644, "_cam_code": "066" }, "geometry": { "type": "Polygon", "coordinates": [ [ [ -3.8349, 40.2061 ], [ -3.835, 40.207 ], [ -3.8358, 40.2082 ], [ -3.8359, 40.2085 ], [ -3.8358, 40.2087 ], [ -3.8419, 40.2104 ], [ -3.8428, 40.2104 ], [ -3.8437, 40.2102 ], [ -3.8432, 40.2073 ], [ -3.8423, 40.2067 ], [ -3.8408, 40.2068 ], [ -3.8408, 40.2067 ], [ -3.8397, 40.2063 ], [ -3.8391, 40.2063 ], [ -3.8391, 40.2062 ], [ -3.8387, 40.2062 ], [ -3.8387, 40.2061 ], [ -3.8377, 40.2061 ], [ -3.8375, 40.2062 ], [ -3.8351, 40.2062 ], [ -3.8349, 40.2061 ] ] ] } },
{ "type": "Feature", "properties": { "municipio": "Griñón", "clasificacion": "no-urbanizable-protegido", "calificacion": "sin-asignar", "version": "vigente", "fuente": "SIT-CAM WFS — UsoDelSuelo:VPLA_V_CLASIFICACION (https://idem.comunidad.madrid/geosrvg/ows)", "fecha_dato": "2026-05-12", "ambito": "25399", "_raw_CD_SIGLAS": "SNUP", "_raw_DS_CLASIF_GEN": "Suelo No Urbanizable Protegido", "_raw_DS_CLASIF_DET": "Suelo No Urbanizable especialmente protegido. Valor paisajístico", "_raw_DS_DOCU": "NORMAS SUBSIDIARIAS", "_raw_DS_LEY": null, "_raw_FC_AC": "1994-09-26", "_raw_NM_AREA_M2": 637453.02591647801, "_cam_code": "066" }, "geometry": { "type": "Polygon", "coordinates": [ [ [ -3.8626, 40.2067 ], [ -3.8635, 40.2078 ], [ -3.8651, 40.2092 ], [ -3.866, 40.2102 ], [ -3.8672, 40.2111 ], [ -3.8681, 40.2113 ], [ -3.8693, 40.2113 ], [ -3.8694, 40.2112 ], [ -3.8675, 40.2082 ], [ -3.8669, 40.2058 ], [ -3.8653, 40.2038 ], [ -3.8671, 40.2024 ], [ -3.8691, 40.2011 ], [ -3.8675, 40.2002 ], [ -3.8665, 40.2013 ], [ -3.8626, 40.1996 ], [ -3.8597, 40.1995 ], [ -3.8575, 40.1996 ], [ -3.8573, 40.2004 ], [ -3.857, 40.2008 ], [ -3.8572, 40.2009 ], [ -3.857, 40.2017 ], [ -3.8566, 40.2022 ], [ -3.8562, 40.2032 ], [ -3.858, 40.2031 ], [ -3.8596, 40.2034 ], [ -3.8604, 40.2039 ], [ -3.8611, 40.2046 ], [ -3.862, 40.2059 ], [ -3.863, 40.2064 ], [ -3.8626, 40.2067 ] ] ] } },
{ "type": "Feature", "properties": { "municipio": "Griñón", "clasificacion": "urbano-consolidado", "calificacion": "sin-asignar", "version": "vigente", "fuente": "SIT-CAM WFS — UsoDelSuelo:VPLA_V_CLASIFICACION (https://idem.comunidad.madrid/geosrvg/ows)", "fecha_dato": "2026-05-12", "ambito": "25399", "_raw_CD_SIGLAS": "SU", "_raw_DS_CLASIF_GEN": "Suelo Urbano", "_raw_DS_CLASIF_DET": "Suelo Urbano", "_raw_DS_DOCU": "NORMAS SUBSIDIARIAS", "_raw_DS_LEY": null, "_raw_FC_AC": "1994-09-26", "_raw_NM_AREA_M2": 8836.3221118615002, "_cam_code": "066" }, "geometry": { "type": "Polygon", "coordinates": [ [ [ -3.8611, 40.2081 ], [ -3.8609, 40.2084 ], [ -3.861, 40.2085 ], [ -3.8614, 40.2086 ], [ -3.8613, 40.2087 ], [ -3.8614, 40.2088 ], [ -3.8628, 40.2094 ], [ -3.8629, 40.2089 ], [ -3.8611, 40.2081 ] ] ] } },
{ "type": "Feature", "properties": { "municipio": "Griñón", "clasificacion": "urbano-consolidado", "calificacion": "sin-asignar", "version": "vigente", "fuente": "SIT-CAM WFS — UsoDelSuelo:VPLA_V_CLASIFICACION (https://idem.comunidad.madrid/geosrvg/ows)", "fecha_dato": "2026-05-12", "ambito": "25399", "_raw_CD_SIGLAS": "SU", "_raw_DS_CLASIF_GEN": "Suelo Urbano", "_raw_DS_CLASIF_DET": "Suelo Urbano", "_raw_DS_DOCU": "NORMAS SUBSIDIARIAS", "_raw_DS_LEY": null, "_raw_FC_AC": "1994-09-26", "_raw_NM_AREA_M2": 3527333.03185865, "_cam_code": "066" }, "geometry": { "type": "MultiPolygon", "coordinates": [ [ [ [ -3.8468, 40.2216 ], [ -3.8454, 40.2246 ], [ -3.8462, 40.2248 ], [ -3.8464, 40.2244 ], [ -3.8464, 40.224 ], [ -3.8474, 40.224 ], [ -3.8474, 40.2239 ], [ -3.8481, 40.2236 ], [ -3.8483, 40.2226 ], [ -3.8496, 40.2229 ], [ -3.8503, 40.2214 ], [ -3.8505, 40.2205 ], [ -3.8489, 40.2201 ], [ -3.8494, 40.2194 ], [ -3.8502, 40.2197 ], [ -3.8507, 40.2189 ], [ -3.849, 40.2183 ], [ -3.8507, 40.2163 ], [ -3.8514, 40.2159 ], [ -3.8517, 40.2166 ], [ -3.853, 40.2164 ], [ -3.853, 40.2167 ], [ -3.8532, 40.2168 ], [ -3.8546, 40.217 ], [ -3.8543, 40.2176 ], [ -3.8552, 40.2178 ], [ -3.8547, 40.219 ], [ -3.8534, 40.219 ], [ -3.8528, 40.2188 ], [ -3.8519, 40.2199 ], [ -3.8516, 40.2199 ], [ -3.8514, 40.2201 ], [ -3.8517, 40.2203 ], [ -3.8516, 40.2206 ], [ -3.8524, 40.2207 ], [ -3.8524, 40.2199 ], [ -3.8526, 40.2197 ], [ -3.8526, 40.2195 ], [ -3.8529, 40.2193 ], [ -3.8531, 40.2197 ], [ -3.853, 40.2206 ], [ -3.8537, 40.2207 ], [ -3.8538, 40.221 ], [ -3.8538, 40.2209 ], [ -3.854, 40.2209 ], [ -3.8542, 40.2205 ], [ -3.8549, 40.2207 ], [ -3.8551, 40.2203 ], [ -3.8546, 40.2201 ], [ -3.8542, 40.2204 ], [ -3.8543, 40.2201 ], [ -3.8548, 40.2191 ], [ -3.8556, 40.219 ], [ -3.8554, 40.2192 ], [ -3.8555, 40.2193 ], [ -3.8565, 40.2197 ], [ -3.8565, 40.2201 ], [ -3.8576, 40.2207 ], [ -3.8595, 40.2212 ], [ -3.8603, 40.2212 ], [ -3.8606, 40.2216 ], [ -3.8612, 40.2211 ], [ -3.8607, 40.2209 ], [ -3.8608, 40.2209 ], [ -3.8612, 40.2201 ], [ -3.8605, 40.2194 ], [ -3.8606, 40.2191 ], [ -3.8607, 40.2191 ], [ -3.8606, 40.2187 ], [ -3.8587, 40.2183 ], [ -3.8586, 40.2181 ], [ -3.8589, 40.2179 ], [ -3.8603, 40.2176 ], [ -3.8607, 40.2172 ], [ -3.8637, 40.2197 ], [ -3.8641, 40.2192 ], [ -3.8648, 40.2193 ], [ -3.8648, 40.2195 ], [ -3.8649, 40.2195 ], [ -3.8648, 40.2195 ], [ -3.8646, 40.2201 ], [ -3.8642, 40.2199 ], [ -3.8641, 40.22 ], [ -3.8658, 40.221 ], [ -3.8661, 40.2205 ], [ -3.8663, 40.2206 ], [ -3.8664, 40.22 ], [ -3.8667, 40.2196 ], [ -3.8664, 40.2195 ], [ -3.8665, 40.2194 ], [ -3.8655, 40.2193 ], [ -3.8654, 40.2192 ], [ -3.8666, 40.2174 ], [ -3.8656, 40.2171 ], [ -3.8668, 40.2149 ], [ -3.8673, 40.2137 ], [ -3.8673, 40.2133 ], [ -3.8675, 40.2129 ], [ -3.8672, 40.2127 ], [ -3.8677, 40.2122 ], [ -3.8678, 40.2118 ], [ -3.8636, 40.2128 ], [ -3.8631, 40.2128 ], [ -3.8625, 40.2126 ], [ -3.8625, 40.2124 ], [ -3.8618, 40.2122 ], [ -3.8614, 40.2128 ], [ -3.8611, 40.2129 ], [ -3.8605, 40.2134 ], [ -3.8606, 40.2135 ], [ -3.8605, 40.2136 ], [ -3.8588, 40.214 ], [ -3.8595, 40.2122 ], [ -3.8596, 40.2122 ], [ -3.8602, 40.2111 ], [ -3.8595, 40.2109 ], [ -3.8575, 40.2107 ], [ -3.8572, 40.2105 ], [ -3.8572, 40.21 ], [ -3.8578, 40.2098 ], [ -3.8596, 40.2088 ], [ -3.8596, 40.2087 ], [ -3.8608, 40.2081 ], [ -3.8619, 40.2073 ], [ -3.8613, 40.2069 ], [ -3.8612, 40.2067 ], [ -3.8616, 40.2065 ], [ -3.8617, 40.206 ], [ -3.8605, 40.2044 ], [ -3.8596, 40.2037 ], [ -3.8587, 40.2034 ], [ -3.8578, 40.2034 ], [ -3.8575, 40.204 ], [ -3.8572, 40.2051 ], [ -3.8566, 40.205 ], [ -3.8565, 40.2044 ], [ -3.856, 40.2043 ], [ -3.856, 40.2035 ], [ -3.8543, 40.2036 ], [ -3.8535, 40.2038 ], [ -3.8527, 40.2042 ], [ -3.8527, 40.2043 ], [ -3.8523, 40.2045 ], [ -3.852, 40.2048 ], [ -3.8521, 40.2047 ], [ -3.8524, 40.2048 ], [ -3.8545, 40.2068 ], [ -3.8545, 40.2071 ], [ -3.8537, 40.2069 ], [ -3.8537, 40.2075 ], [ -3.8544, 40.2075 ], [ -3.8542, 40.2088 ], [ -3.853, 40.2087 ], [ -3.8529, 40.2094 ], [ -3.8523, 40.2092 ], [ -3.8521, 40.2093 ], [ -3.8518, 40.2092 ], [ -3.8515, 40.2095 ], [ -3.851, 40.2089 ], [ -3.8506, 40.2088 ], [ -3.8504, 40.2083 ], [ -3.8497, 40.2084 ], [ -3.8489, 40.2068 ], [ -3.8481, 40.2073 ], [ -3.8487, 40.2079 ], [ -3.8487, 40.2101 ], [ -3.8483, 40.21 ], [ -3.848, 40.2105 ], [ -3.8482, 40.2107 ], [ -3.8496, 40.2113 ], [ -3.8507, 40.2116 ], [ -3.8506, 40.2118 ], [ -3.8509, 40.2119 ], [ -3.851, 40.2117 ], [ -3.8515, 40.2118 ], [ -3.8514, 40.2121 ], [ -3.8517, 40.2123 ], [ -3.852, 40.2122 ], [ -3.8523, 40.2123 ], [ -3.8522, 40.2125 ], [ -3.8523, 40.2126 ], [ -3.8521, 40.2127 ], [ -3.8521, 40.2126 ], [ -3.8519, 40.2127 ], [ -3.8519, 40.2126 ], [ -3.8516, 40.2128 ], [ -3.8509, 40.2127 ], [ -3.8508, 40.2123 ], [ -3.8506, 40.2123 ], [ -3.8506, 40.2125 ], [ -3.85, 40.2124 ], [ -3.8499, 40.2125 ], [ -3.8489, 40.2122 ], [ -3.8491, 40.2116 ], [ -3.8484, 40.2115 ], [ -3.8485, 40.2114 ], [ -3.8484, 40.2113 ], [ -3.8482, 40.2113 ], [ -3.8476, 40.2108 ], [ -3.8468, 40.2104 ], [ -3.8468, 40.2102 ], [ -3.8465, 40.2101 ], [ -3.847, 40.2096 ], [ -3.8465, 40.2093 ], [ -3.8458, 40.2086 ], [ -3.8458, 40.2084 ], [ -3.8452, 40.2079 ], [ -3.845, 40.2089 ], [ -3.8442, 40.2086 ], [ -3.8437, 40.2082 ], [ -3.8438, 40.2092 ], [ -3.8439, 40.2092 ], [ -3.8441, 40.21 ], [ -3.844, 40.2101 ], [ -3.8428, 40.2104 ], [ -3.8419, 40.2104 ], [ -3.8358, 40.2087 ], [ -3.8359, 40.2085 ], [ -3.8358, 40.2082 ], [ -3.835, 40.207 ], [ -3.8349, 40.2061 ], [ -3.8325, 40.206 ], [ -3.831, 40.2061 ], [ -3.8298, 40.2059 ], [ -3.8284, 40.2059 ], [ -3.8283, 40.2063 ], [ -3.8274, 40.2064 ], [ -3.8273, 40.2067 ], [ -3.8267, 40.207 ], [ -3.8256, 40.2091 ], [ -3.8263, 40.2092 ], [ -3.8274, 40.2079 ], [ -3.8277, 40.2077 ], [ -3.8276, 40.2075 ], [ -3.8281, 40.207 ], [ -3.8285, 40.2072 ], [ -3.8287, 40.2069 ], [ -3.8294, 40.2075 ], [ -3.8308, 40.2079 ], [ -3.8332, 40.2092 ], [ -3.8337, 40.2096 ], [ -3.8342, 40.2098 ], [ -3.8353, 40.2099 ], [ -3.8363, 40.2102 ], [ -3.8359, 40.2111 ], [ -3.8354, 40.2109 ], [ -3.8351, 40.2121 ], [ -3.8365, 40.2122 ], [ -3.8389, 40.2126 ], [ -3.839, 40.2124 ], [ -3.8396, 40.2123 ], [ -3.8413, 40.2124 ], [ -3.8419, 40.2131 ], [ -3.844, 40.2137 ], [ -3.8441, 40.2138 ], [ -3.8442, 40.2151 ], [ -3.8443, 40.215 ], [ -3.8459, 40.215 ], [ -3.8466, 40.2146 ], [ -3.8466, 40.2145 ], [ -3.8468, 40.2145 ], [ -3.8472, 40.2141 ], [ -3.8474, 40.2141 ], [ -3.8474, 40.214 ], [ -3.8482, 40.214 ], [ -3.8489, 40.2138 ], [ -3.8489, 40.2142 ], [ -3.8472, 40.2142 ], [ -3.847, 40.2152 ], [ -3.8484, 40.2153 ], [ -3.8484, 40.2154 ], [ -3.8506, 40.2163 ], [ -3.8494, 40.2177 ], [ -3.8494, 40.2176 ], [ -3.8487, 40.2173 ], [ -3.8487, 40.2174 ], [ -3.8482, 40.2172 ], [ -3.8479, 40.2178 ], [ -3.8481, 40.218 ], [ -3.8475, 40.2188 ], [ -3.8482, 40.2188 ], [ -3.8474, 40.2198 ], [ -3.8454, 40.2193 ], [ -3.8454, 40.2192 ], [ -3.8452, 40.2193 ], [ -3.8454, 40.2194 ], [ -3.8454, 40.22 ], [ -3.8461, 40.22 ], [ -3.8471, 40.2202 ], [ -3.8467, 40.2209 ], [ -3.8467, 40.2212 ], [ -3.8466, 40.2212 ], [ -3.8466, 40.2216 ], [ -3.8468, 40.2216 ] ], [ [ -3.8468, 40.2216 ], [ -3.8474, 40.2202 ], [ -3.8487, 40.2205 ], [ -3.8486, 40.2209 ], [ -3.8473, 40.2212 ], [ -3.8474, 40.2216 ], [ -3.8472, 40.2217 ], [ -3.8468, 40.2216 ] ], [ [ -3.8575, 40.2139 ], [ -3.8572, 40.2138 ], [ -3.8592, 40.2126 ], [ -3.8591, 40.2129 ], [ -3.8588, 40.213 ], [ -3.8588, 40.2133 ], [ -3.8589, 40.2133 ], [ -3.8575, 40.2139 ] ], [ [ -3.8377, 40.2114 ], [ -3.8392, 40.2117 ], [ -3.8389, 40.2123 ], [ -3.8385, 40.2123 ], [ -3.8385, 40.212 ], [ -3.8367, 40.2116 ], [ -3.8365, 40.2112 ], [ -3.8368, 40.2113 ], [ -3.8368, 40.2114 ], [ -3.8377, 40.2114 ] ], [ [ -3.8549, 40.2141 ], [ -3.8557, 40.2144 ], [ -3.8556, 40.2144 ], [ -3.8553, 40.2151 ], [ -3.853, 40.2147 ], [ -3.8531, 40.2144 ], [ -3.8534, 40.2145 ], [ -3.8536, 40.2141 ], [ -3.8541, 40.2141 ], [ -3.8542, 40.2138 ], [ -3.8546, 40.2139 ], [ -3.8544, 40.2142 ], [ -3.8549, 40.2141 ] ] ], [ [ [ -3.8436, 40.2283 ], [ -3.8428, 40.23 ], [ -3.8431, 40.2301 ], [ -3.8433, 40.2301 ], [ -3.844, 40.2297 ], [ -3.8439, 40.2296 ], [ -3.8444, 40.2294 ], [ -3.8446, 40.2292 ], [ -3.8445, 40.2291 ], [ -3.8446, 40.229 ], [ -3.8451, 40.2287 ], [ -3.8456, 40.2293 ], [ -3.8465, 40.229 ], [ -3.8456, 40.2282 ], [ -3.846, 40.2279 ], [ -3.8462, 40.2275 ], [ -3.8463, 40.2268 ], [ -3.8458, 40.2266 ], [ -3.8444, 40.2265 ], [ -3.8453, 40.2248 ], [ -3.8435, 40.2243 ], [ -3.8426, 40.2257 ], [ -3.8422, 40.2257 ], [ -3.8411, 40.2263 ], [ -3.842, 40.2265 ], [ -3.8424, 40.2268 ], [ -3.8432, 40.227 ], [ -3.8432, 40.2271 ], [ -3.844, 40.2274 ], [ -3.8437, 40.2279 ], [ -3.8426, 40.2275 ], [ -3.8425, 40.2275 ], [ -3.8425, 40.2277 ], [ -3.8423, 40.2279 ], [ -3.8433, 40.2283 ], [ -3.8436, 40.2283 ] ] ], [ [ [ -3.8523, 40.2177 ], [ -3.8514, 40.2188 ], [ -3.8512, 40.219 ], [ -3.8516, 40.2191 ], [ -3.852, 40.2187 ], [ -3.8525, 40.2181 ], [ -3.8523, 40.2177 ] ] ], [ [ [ -3.8512, 40.2126 ], [ -3.8513, 40.2125 ], [ -3.8511, 40.2125 ], [ -3.8512, 40.2126 ] ] ] ] } },
{ "type": "Feature", "properties": { "municipio": "Griñón", "clasificacion": "urbano-consolidado", "calificacion": "sin-asignar", "version": "vigente", "fuente": "SIT-CAM WFS — UsoDelSuelo:VPLA_V_CLASIFICACION (https://idem.comunidad.madrid/geosrvg/ows)", "fecha_dato": "2026-05-12", "ambito": "25399", "_raw_CD_SIGLAS": "SU", "_raw_DS_CLASIF_GEN": "Suelo Urbano", "_raw_DS_CLASIF_DET": "Suelo Urbano", "_raw_DS_DOCU": "NORMAS SUBSIDIARIAS", "_raw_DS_LEY": null, "_raw_FC_AC": "1994-09-26", "_raw_NM_AREA_M2": 38849.678685165898, "_cam_code": "066" }, "geometry": { "type": "Polygon", "coordinates": [ [ [ -3.8556, 40.1998 ], [ -3.8559, 40.2032 ], [ -3.8562, 40.2032 ], [ -3.8566, 40.2022 ], [ -3.857, 40.2017 ], [ -3.8572, 40.2009 ], [ -3.857, 40.2008 ], [ -3.8573, 40.2004 ], [ -3.8575, 40.1996 ], [ -3.8556, 40.1998 ] ] ] } },
{ "type": "Feature", "properties": { "municipio": "Griñón", "clasificacion": "urbanizable-no-sectorizado", "calificacion": "sin-asignar", "version": "vigente", "fuente": "SIT-CAM WFS — UsoDelSuelo:VPLA_V_CLASIFICACION (https://idem.comunidad.madrid/geosrvg/ows)", "fecha_dato": "2026-05-12", "ambito": "25399", "_raw_CD_SIGLAS": "SUBNS", "_raw_DS_CLASIF_GEN": "Suelo No Urbanizable Común", "_raw_DS_CLASIF_DET": "Suelo No Urbanizable Común", "_raw_DS_DOCU": "NORMAS SUBSIDIARIAS", "_raw_DS_LEY": null, "_raw_FC_AC": "1994-09-26", "_raw_NM_AREA_M2": 314770.59624678403, "_cam_code": "066" }, "geometry": { "type": "Polygon", "coordinates": [ [ [ -3.8458, 40.2347 ], [ -3.8475, 40.2346 ], [ -3.8486, 40.2327 ], [ -3.8495, 40.2304 ], [ -3.847, 40.2241 ], [ -3.8469, 40.224 ], [ -3.8464, 40.224 ], [ -3.8462, 40.225 ], [ -3.8465, 40.2251 ], [ -3.8466, 40.2253 ], [ -3.8468, 40.2253 ], [ -3.8464, 40.2263 ], [ -3.8464, 40.2266 ], [ -3.8463, 40.2266 ], [ -3.8462, 40.2275 ], [ -3.846, 40.2279 ], [ -3.8456, 40.2282 ], [ -3.8465, 40.229 ], [ -3.8456, 40.2293 ], [ -3.845, 40.23 ], [ -3.844, 40.2315 ], [ -3.8434, 40.2321 ], [ -3.8431, 40.2333 ], [ -3.8458, 40.2347 ] ] ] } },
{ "type": "Feature", "properties": { "municipio": "Griñón", "clasificacion": "urbanizable-no-sectorizado", "calificacion": "sin-asignar", "version": "vigente", "fuente": "SIT-CAM WFS — UsoDelSuelo:VPLA_V_CLASIFICACION (https://idem.comunidad.madrid/geosrvg/ows)", "fecha_dato": "2026-05-12", "ambito": "25399", "_raw_CD_SIGLAS": "SUBNS", "_raw_DS_CLASIF_GEN": "Suelo No Urbanizable Común", "_raw_DS_CLASIF_DET": "Suelo No Urbanizable Común", "_raw_DS_DOCU": "NORMAS SUBSIDIARIAS", "_raw_DS_LEY": null, "_raw_FC_AC": "1994-09-26", "_raw_NM_AREA_M2": 196533.05364939501, "_cam_code": "066" }, "geometry": { "type": "Polygon", "coordinates": [ [ [ -3.8471, 40.224 ], [ -3.848, 40.2259 ], [ -3.8481, 40.2265 ], [ -3.8485, 40.2272 ], [ -3.8496, 40.2302 ], [ -3.8504, 40.2283 ], [ -3.8505, 40.2283 ], [ -3.851, 40.2269 ], [ -3.8511, 40.2269 ], [ -3.8513, 40.2262 ], [ -3.8514, 40.2262 ], [ -3.8516, 40.2255 ], [ -3.8518, 40.2253 ], [ -3.8522, 40.2241 ], [ -3.8524, 40.2239 ], [ -3.8525, 40.2234 ], [ -3.8527, 40.2232 ], [ -3.852, 40.2229 ], [ -3.8515, 40.2225 ], [ -3.8514, 40.2225 ], [ -3.851, 40.2233 ], [ -3.8483, 40.2226 ], [ -3.8481, 40.2236 ], [ -3.8474, 40.2239 ], [ -3.8474, 40.224 ], [ -3.8471, 40.224 ] ] ] } },
{ "type": "Feature", "properties": { "municipio": "Griñón", "clasificacion": "urbanizable-no-sectorizado", "calificacion": "sin-asignar", "version": "vigente", "fuente": "SIT-CAM WFS — UsoDelSuelo:VPLA_V_CLASIFICACION (https://idem.comunidad.madrid/geosrvg/ows)", "fecha_dato": "2026-05-12", "ambito": "25399", "_raw_CD_SIGLAS": "SUBNS", "_raw_DS_CLASIF_GEN": "Suelo No Urbanizable Común", "_raw_DS_CLASIF_DET": "Suelo No Urbanizable Común", "_raw_DS_DOCU": "NORMAS SUBSIDIARIAS", "_raw_DS_LEY": null, "_raw_FC_AC": "1994-09-26", "_raw_NM_AREA_M2": 163819.68779434601, "_cam_code": "066" }, "geometry": { "type": "Polygon", "coordinates": [ [ [ -3.8612, 40.2201 ], [ -3.8608, 40.2209 ], [ -3.8607, 40.2209 ], [ -3.8612, 40.2211 ], [ -3.8606, 40.2216 ], [ -3.8653, 40.2213 ], [ -3.866, 40.2211 ], [ -3.867, 40.2203 ], [ -3.8674, 40.2196 ], [ -3.8685, 40.2133 ], [ -3.8685, 40.2131 ], [ -3.8678, 40.2118 ], [ -3.8677, 40.2122 ], [ -3.8672, 40.2127 ], [ -3.8675, 40.2129 ], [ -3.8673, 40.2133 ], [ -3.8673, 40.2137 ], [ -3.8668, 40.2149 ], [ -3.8656, 40.2171 ], [ -3.8666, 40.2174 ], [ -3.8654, 40.2192 ], [ -3.8655, 40.2193 ], [ -3.8665, 40.2194 ], [ -3.8664, 40.2195 ], [ -3.8667, 40.2196 ], [ -3.8664, 40.22 ], [ -3.8663, 40.2206 ], [ -3.8661, 40.2205 ], [ -3.8658, 40.221 ], [ -3.8641, 40.22 ], [ -3.8637, 40.2204 ], [ -3.8632, 40.2201 ], [ -3.8627, 40.2206 ], [ -3.8625, 40.2205 ], [ -3.8625, 40.2203 ], [ -3.862, 40.2198 ], [ -3.8614, 40.2202 ], [ -3.8612, 40.2201 ] ] ] } },
{ "type": "Feature", "properties": { "municipio": "Griñón", "clasificacion": "urbanizable-no-sectorizado", "calificacion": "sin-asignar", "version": "vigente", "fuente": "SIT-CAM WFS — UsoDelSuelo:VPLA_V_CLASIFICACION (https://idem.comunidad.madrid/geosrvg/ows)", "fecha_dato": "2026-05-12", "ambito": "25399", "_raw_CD_SIGLAS": "SUBNS", "_raw_DS_CLASIF_GEN": "Suelo No Urbanizable Común", "_raw_DS_CLASIF_DET": "Suelo No Urbanizable Común", "_raw_DS_DOCU": "NORMAS SUBSIDIARIAS", "_raw_DS_LEY": null, "_raw_FC_AC": "1994-09-26", "_raw_NM_AREA_M2": 20699.861505929399, "_cam_code": "066" }, "geometry": { "type": "Polygon", "coordinates": [ [ [ -3.8214, 40.2143 ], [ -3.8215, 40.2143 ], [ -3.8216, 40.2146 ], [ -3.8221, 40.2146 ], [ -3.8222, 40.2142 ], [ -3.822, 40.214 ], [ -3.8221, 40.214 ], [ -3.8221, 40.2138 ], [ -3.8223, 40.2138 ], [ -3.8224, 40.2134 ], [ -3.8212, 40.2133 ], [ -3.8208, 40.2129 ], [ -3.8204, 40.2129 ], [ -3.82, 40.2132 ], [ -3.82, 40.2134 ], [ -3.8207, 40.2139 ], [ -3.821, 40.2143 ], [ -3.8214, 40.2143 ] ] ] } },
{ "type": "Feature", "properties": { "municipio": "Griñón", "clasificacion": "urbanizable-no-sectorizado", "calificacion": "sin-asignar", "version": "vigente", "fuente": "SIT-CAM WFS — UsoDelSuelo:VPLA_V_CLASIFICACION (https://idem.comunidad.madrid/geosrvg/ows)", "fecha_dato": "2026-05-12", "ambito": "25399", "_raw_CD_SIGLAS": "SUBNS", "_raw_DS_CLASIF_GEN": "Suelo No Urbanizable Común", "_raw_DS_CLASIF_DET": "Suelo No Urbanizable Común. Polígono Reserva Municipal", "_raw_DS_DOCU": "NORMAS SUBSIDIARIAS", "_raw_DS_LEY": null, "_raw_FC_AC": "1994-09-26", "_raw_NM_AREA_M2": 338032.22947145603, "_cam_code": "066" }, "geometry": { "type": "Polygon", "coordinates": [ [ [ -3.8333, 40.2165 ], [ -3.8335, 40.217 ], [ -3.8342, 40.217 ], [ -3.835, 40.2168 ], [ -3.8356, 40.2168 ], [ -3.8356, 40.2167 ], [ -3.8388, 40.2159 ], [ -3.839, 40.2155 ], [ -3.8388, 40.2152 ], [ -3.8389, 40.2151 ], [ -3.838, 40.2148 ], [ -3.838, 40.2146 ], [ -3.8387, 40.2135 ], [ -3.8389, 40.2126 ], [ -3.8365, 40.2122 ], [ -3.8326, 40.212 ], [ -3.8333, 40.2165 ] ] ] } },
{ "type": "Feature", "properties": { "municipio": "Griñón", "clasificacion": "urbanizable-no-sectorizado", "calificacion": "sin-asignar", "version": "vigente", "fuente": "SIT-CAM WFS — UsoDelSuelo:VPLA_V_CLASIFICACION (https://idem.comunidad.madrid/geosrvg/ows)", "fecha_dato": "2026-05-12", "ambito": "25399", "_raw_CD_SIGLAS": "SUBNS", "_raw_DS_CLASIF_GEN": "Suelo No Urbanizable Común", "_raw_DS_CLASIF_DET": "Suelo No Urbanizable Común", "_raw_DS_DOCU": "NORMAS SUBSIDIARIAS", "_raw_DS_LEY": null, "_raw_FC_AC": "1994-09-26", "_raw_NM_AREA_M2": 27394.1817330782, "_cam_code": "066" }, "geometry": { "type": "Polygon", "coordinates": [ [ [ -3.8422, 40.219 ], [ -3.8437, 40.2191 ], [ -3.8437, 40.219 ], [ -3.8443, 40.2189 ], [ -3.8448, 40.2186 ], [ -3.8444, 40.2179 ], [ -3.8452, 40.2179 ], [ -3.8452, 40.2178 ], [ -3.8444, 40.2164 ], [ -3.8443, 40.2168 ], [ -3.8435, 40.218 ], [ -3.8422, 40.219 ] ] ] } },
{ "type": "Feature", "properties": { "municipio": "Griñón", "clasificacion": "urbanizable-no-sectorizado", "calificacion": "sin-asignar", "version": "vigente", "fuente": "SIT-CAM WFS — UsoDelSuelo:VPLA_V_CLASIFICACION (https://idem.comunidad.madrid/geosrvg/ows)", "fecha_dato": "2026-05-12", "ambito": "25399", "_raw_CD_SIGLAS": "SUBNS", "_raw_DS_CLASIF_GEN": "Suelo No Urbanizable Común", "_raw_DS_CLASIF_DET": "Suelo No Urbanizable Común", "_raw_DS_DOCU": "NORMAS SUBSIDIARIAS", "_raw_DS_LEY": null, "_raw_FC_AC": "1994-09-26", "_raw_NM_AREA_M2": 67864.628109918995, "_cam_code": "066" }, "geometry": { "type": "Polygon", "coordinates": [ [ [ -3.854, 40.2209 ], [ -3.8556, 40.2215 ], [ -3.857, 40.2218 ], [ -3.8606, 40.2216 ], [ -3.8603, 40.2212 ], [ -3.8595, 40.2212 ], [ -3.859, 40.221 ], [ -3.8578, 40.2208 ], [ -3.8565, 40.2201 ], [ -3.8565, 40.2197 ], [ -3.8554, 40.2192 ], [ -3.8546, 40.2201 ], [ -3.8551, 40.2203 ], [ -3.8549, 40.2207 ], [ -3.8542, 40.2205 ], [ -3.854, 40.2209 ] ] ] } },
{ "type": "Feature", "properties": { "municipio": "Griñón", "clasificacion": "urbanizable-no-sectorizado", "calificacion": "sin-asignar", "version": "vigente", "fuente": "SIT-CAM WFS — UsoDelSuelo:VPLA_V_CLASIFICACION (https://idem.comunidad.madrid/geosrvg/ows)", "fecha_dato": "2026-05-12", "ambito": "25399", "_raw_CD_SIGLAS": "SUBNS", "_raw_DS_CLASIF_GEN": "Suelo No Urbanizable Común", "_raw_DS_CLASIF_DET": "Suelo No Urbanizable Común", "_raw_DS_DOCU": "NORMAS SUBSIDIARIAS", "_raw_DS_LEY": null, "_raw_FC_AC": "1994-09-26", "_raw_NM_AREA_M2": 281192.41633690702, "_cam_code": "066" }, "geometry": { "type": "Polygon", "coordinates": [ [ [ -3.8418, 40.2195 ], [ -3.8412, 40.2203 ], [ -3.8406, 40.2221 ], [ -3.84, 40.2231 ], [ -3.84, 40.2235 ], [ -3.839, 40.2265 ], [ -3.8388, 40.227 ], [ -3.8386, 40.2271 ], [ -3.8385, 40.2281 ], [ -3.8381, 40.2293 ], [ -3.838, 40.2296 ], [ -3.8379, 40.2295 ], [ -3.8379, 40.2298 ], [ -3.8378, 40.2298 ], [ -3.8378, 40.2298 ], [ -3.8378, 40.2299 ], [ -3.8378, 40.2299 ], [ -3.8378, 40.2299 ], [ -3.8378, 40.23 ], [ -3.8377, 40.23 ], [ -3.8379, 40.23 ], [ -3.8403, 40.2296 ], [ -3.84, 40.2285 ], [ -3.8408, 40.2278 ], [ -3.8406, 40.2268 ], [ -3.8415, 40.226 ], [ -3.8427, 40.2256 ], [ -3.8433, 40.2246 ], [ -3.8427, 40.2242 ], [ -3.8428, 40.2233 ], [ -3.8434, 40.2228 ], [ -3.8436, 40.2228 ], [ -3.8446, 40.2212 ], [ -3.8449, 40.2202 ], [ -3.8448, 40.2201 ], [ -3.8454, 40.22 ], [ -3.8454, 40.2194 ], [ -3.8453, 40.2193 ], [ -3.844, 40.2196 ], [ -3.8418, 40.2195 ] ] ] } },
{ "type": "Feature", "properties": { "municipio": "Griñón", "clasificacion": "urbanizable-no-sectorizado", "calificacion": "sin-asignar", "version": "vigente", "fuente": "SIT-CAM WFS — UsoDelSuelo:VPLA_V_CLASIFICACION (https://idem.comunidad.madrid/geosrvg/ows)", "fecha_dato": "2026-05-12", "ambito": "25399", "_raw_CD_SIGLAS": "SUBNS", "_raw_DS_CLASIF_GEN": "Suelo No Urbanizable Común", "_raw_DS_CLASIF_DET": "Suelo No Urbanizable Común", "_raw_DS_DOCU": "NORMAS SUBSIDIARIAS", "_raw_DS_LEY": null, "_raw_FC_AC": "1994-09-26", "_raw_NM_AREA_M2": 14322.461383551699, "_cam_code": "066" }, "geometry": { "type": "Polygon", "coordinates": [ [ [ -3.8581, 40.2293 ], [ -3.8578, 40.2299 ], [ -3.8585, 40.2301 ], [ -3.8588, 40.2294 ], [ -3.8584, 40.229 ], [ -3.8582, 40.2292 ], [ -3.8578, 40.2286 ], [ -3.8582, 40.2281 ], [ -3.8579, 40.2278 ], [ -3.8573, 40.2288 ], [ -3.8568, 40.2293 ], [ -3.8567, 40.2296 ], [ -3.8571, 40.2297 ], [ -3.8572, 40.2292 ], [ -3.8575, 40.229 ], [ -3.8581, 40.2293 ] ] ] } },
{ "type": "Feature", "properties": { "municipio": "Griñón", "clasificacion": "urbanizable-no-sectorizado", "calificacion": "sin-asignar", "version": "vigente", "fuente": "SIT-CAM WFS — UsoDelSuelo:VPLA_V_CLASIFICACION (https://idem.comunidad.madrid/geosrvg/ows)", "fecha_dato": "2026-05-12", "ambito": "25399", "_raw_CD_SIGLAS": "SUBNS", "_raw_DS_CLASIF_GEN": "Suelo No Urbanizable Común", "_raw_DS_CLASIF_DET": "Suelo No Urbanizable Común", "_raw_DS_DOCU": "NORMAS SUBSIDIARIAS", "_raw_DS_LEY": null, "_raw_FC_AC": "1994-09-26", "_raw_NM_AREA_M2": 338032.22947145603, "_cam_code": "066" }, "geometry": { "type": "Polygon", "coordinates": [ [ [ -3.8326, 40.212 ], [ -3.8351, 40.2121 ], [ -3.8354, 40.2109 ], [ -3.8359, 40.2111 ], [ -3.8363, 40.2102 ], [ -3.8353, 40.2099 ], [ -3.8342, 40.2098 ], [ -3.8337, 40.2096 ], [ -3.8332, 40.2092 ], [ -3.8308, 40.2079 ], [ -3.8301, 40.2077 ], [ -3.8322, 40.211 ], [ -3.8326, 40.212 ] ] ] } },
{ "type": "Feature", "properties": { "municipio": "Griñón", "clasificacion": "urbanizable-sectorizado", "calificacion": "sin-asignar", "version": "vigente", "fuente": "SIT-CAM WFS — UsoDelSuelo:VPLA_V_CLASIFICACION (https://idem.comunidad.madrid/geosrvg/ows)", "fecha_dato": "2026-05-12", "ambito": "25399", "_raw_CD_SIGLAS": "SUBS", "_raw_DS_CLASIF_GEN": "Suelo Apto Para Urbanizar", "_raw_DS_CLASIF_DET": "Suelo Apto Para Urbanizar", "_raw_DS_DOCU": "NORMAS SUBSIDIARIAS", "_raw_DS_LEY": null, "_raw_FC_AC": "1994-09-26", "_raw_NM_AREA_M2": 151373.36192477701, "_cam_code": "066" }, "geometry": { "type": "Polygon", "coordinates": [ [ [ -3.8489, 40.2068 ], [ -3.8497, 40.2084 ], [ -3.8504, 40.2083 ], [ -3.8506, 40.2088 ], [ -3.851, 40.2089 ], [ -3.8515, 40.2095 ], [ -3.8518, 40.2092 ], [ -3.8519, 40.2093 ], [ -3.8523, 40.2092 ], [ -3.8529, 40.2094 ], [ -3.853, 40.2087 ], [ -3.8542, 40.2088 ], [ -3.8544, 40.2075 ], [ -3.8537, 40.2075 ], [ -3.8537, 40.2069 ], [ -3.8545, 40.2071 ], [ -3.8545, 40.2068 ], [ -3.8532, 40.2055 ], [ -3.8522, 40.2047 ], [ -3.8514, 40.2051 ], [ -3.8504, 40.2059 ], [ -3.8489, 40.2068 ] ] ] } },
{ "type": "Feature", "properties": { "municipio": "Griñón", "clasificacion": "urbanizable-sectorizado", "calificacion": "sin-asignar", "version": "vigente", "fuente": "SIT-CAM WFS — UsoDelSuelo:VPLA_V_CLASIFICACION (https://idem.comunidad.madrid/geosrvg/ows)", "fecha_dato": "2026-05-12", "ambito": "25399", "_raw_CD_SIGLAS": "SUBS", "_raw_DS_CLASIF_GEN": "Suelo Apto Para Urbanizar", "_raw_DS_CLASIF_DET": "Suelo Apto Para Urbanizar", "_raw_DS_DOCU": "NORMAS SUBSIDIARIAS", "_raw_DS_LEY": null, "_raw_FC_AC": "1994-09-26", "_raw_NM_AREA_M2": 136306.04324929899, "_cam_code": "066" }, "geometry": { "type": "Polygon", "coordinates": [ [ [ -3.839, 40.2124 ], [ -3.8387, 40.2135 ], [ -3.838, 40.2146 ], [ -3.838, 40.2148 ], [ -3.8389, 40.2151 ], [ -3.8388, 40.2152 ], [ -3.839, 40.2155 ], [ -3.8388, 40.2159 ], [ -3.8407, 40.2157 ], [ -3.8428, 40.215 ], [ -3.8442, 40.2151 ], [ -3.8441, 40.2138 ], [ -3.844, 40.2137 ], [ -3.8419, 40.2131 ], [ -3.8413, 40.2124 ], [ -3.8396, 40.2123 ], [ -3.839, 40.2124 ] ] ] } },
{ "type": "Feature", "properties": { "municipio": "Griñón", "clasificacion": "urbanizable-sectorizado", "calificacion": "sin-asignar", "version": "vigente", "fuente": "SIT-CAM WFS — UsoDelSuelo:VPLA_V_CLASIFICACION (https://idem.comunidad.madrid/geosrvg/ows)", "fecha_dato": "2026-05-12", "ambito": "25399", "_raw_CD_SIGLAS": "SUBS", "_raw_DS_CLASIF_GEN": "Suelo Apto Para Urbanizar", "_raw_DS_CLASIF_DET": "Suelo Apto Para Urbanizar", "_raw_DS_DOCU": "NORMAS SUBSIDIARIAS", "_raw_DS_LEY": null, "_raw_FC_AC": "1994-09-26", "_raw_NM_AREA_M2": 181866.40375301, "_cam_code": "066" }, "geometry": { "type": "Polygon", "coordinates": [ [ [ -3.8228, 40.2053 ], [ -3.8273, 40.2064 ], [ -3.8283, 40.2063 ], [ -3.8284, 40.2059 ], [ -3.8298, 40.2059 ], [ -3.831, 40.2061 ], [ -3.8321, 40.206 ], [ -3.832, 40.2025 ], [ -3.8301, 40.2026 ], [ -3.8284, 40.2032 ], [ -3.8264, 40.2037 ], [ -3.8263, 40.2038 ], [ -3.8261, 40.2054 ], [ -3.8228, 40.2053 ] ] ] } },
{ "type": "Feature", "properties": { "municipio": "Griñón", "clasificacion": "urbanizable-sectorizado", "calificacion": "sin-asignar", "version": "vigente", "fuente": "SIT-CAM WFS — UsoDelSuelo:VPLA_V_CLASIFICACION (https://idem.comunidad.madrid/geosrvg/ows)", "fecha_dato": "2026-05-12", "ambito": "25399", "_raw_CD_SIGLAS": "SUBS", "_raw_DS_CLASIF_GEN": "Suelo Apto Para Urbanizar", "_raw_DS_CLASIF_DET": "Suelo Apto Para Urbanizar", "_raw_DS_DOCU": "NORMAS SUBSIDIARIAS", "_raw_DS_LEY": null, "_raw_FC_AC": "1994-09-26", "_raw_NM_AREA_M2": 92180.732213905503, "_cam_code": "066" }, "geometry": { "type": "Polygon", "coordinates": [ [ [ -3.844, 40.2196 ], [ -3.8454, 40.2192 ], [ -3.8454, 40.2193 ], [ -3.8467, 40.2196 ], [ -3.8471, 40.219 ], [ -3.8473, 40.2189 ], [ -3.8466, 40.2181 ], [ -3.8471, 40.2174 ], [ -3.8461, 40.2172 ], [ -3.8461, 40.217 ], [ -3.8465, 40.2167 ], [ -3.8471, 40.2159 ], [ -3.8455, 40.2152 ], [ -3.8458, 40.215 ], [ -3.8443, 40.215 ], [ -3.8442, 40.2151 ], [ -3.8443, 40.2162 ], [ -3.8444, 40.2162 ], [ -3.8444, 40.2164 ], [ -3.8452, 40.2179 ], [ -3.8444, 40.2179 ], [ -3.8448, 40.2186 ], [ -3.8443, 40.2189 ], [ -3.8437, 40.219 ], [ -3.8437, 40.2192 ], [ -3.844, 40.2196 ] ] ] } },
{ "type": "Feature", "properties": { "municipio": "Griñón", "clasificacion": "urbanizable-sectorizado", "calificacion": "sin-asignar", "version": "vigente", "fuente": "SIT-CAM WFS — UsoDelSuelo:VPLA_V_CLASIFICACION (https://idem.comunidad.madrid/geosrvg/ows)", "fecha_dato": "2026-05-12", "ambito": "25399", "_raw_CD_SIGLAS": "SUBS", "_raw_DS_CLASIF_GEN": "Suelo Apto Para Urbanizar", "_raw_DS_CLASIF_DET": "Suelo Apto Para Urbanizar", "_raw_DS_DOCU": "NORMAS SUBSIDIARIAS", "_raw_DS_LEY": null, "_raw_FC_AC": "1994-09-26", "_raw_NM_AREA_M2": 50843.197241165602, "_cam_code": "066" }, "geometry": { "type": "Polygon", "coordinates": [ [ [ -3.8419, 40.2316 ], [ -3.8421, 40.2318 ], [ -3.8423, 40.2318 ], [ -3.8423, 40.2319 ], [ -3.8433, 40.2323 ], [ -3.8456, 40.2293 ], [ -3.8451, 40.2287 ], [ -3.8446, 40.229 ], [ -3.8445, 40.2291 ], [ -3.8446, 40.2292 ], [ -3.8444, 40.2294 ], [ -3.8439, 40.2296 ], [ -3.844, 40.2297 ], [ -3.8435, 40.23 ], [ -3.8433, 40.2301 ], [ -3.8428, 40.23 ], [ -3.8419, 40.2316 ] ] ] } },
{ "type": "Feature", "properties": { "municipio": "Griñón", "clasificacion": "urbanizable-sectorizado", "calificacion": "sin-asignar", "version": "vigente", "fuente": "SIT-CAM WFS — UsoDelSuelo:VPLA_V_CLASIFICACION (https://idem.comunidad.madrid/geosrvg/ows)", "fecha_dato": "2026-05-12", "ambito": "25399", "_raw_CD_SIGLAS": "SUBS", "_raw_DS_CLASIF_GEN": "Suelo Apto Para Urbanizar", "_raw_DS_CLASIF_DET": "Suelo Apto Para Urbanizar", "_raw_DS_DOCU": "NORMAS SUBSIDIARIAS", "_raw_DS_LEY": null, "_raw_FC_AC": "1994-09-26", "_raw_NM_AREA_M2": 241709.96592118699, "_cam_code": "066" }, "geometry": { "type": "Polygon", "coordinates": [ [ [ -3.8643, 40.2126 ], [ -3.8669, 40.212 ], [ -3.8673, 40.2115 ], [ -3.8663, 40.2108 ], [ -3.8649, 40.2094 ], [ -3.8642, 40.2089 ], [ -3.8623, 40.2069 ], [ -3.8608, 40.2081 ], [ -3.8578, 40.2098 ], [ -3.8572, 40.21 ], [ -3.8572, 40.2105 ], [ -3.8575, 40.2107 ], [ -3.8595, 40.2109 ], [ -3.8603, 40.2112 ], [ -3.8613, 40.2113 ], [ -3.8625, 40.2116 ], [ -3.8625, 40.2118 ], [ -3.863, 40.2119 ], [ -3.8643, 40.2126 ] ], [ [ -3.8611, 40.2081 ], [ -3.8629, 40.2089 ], [ -3.8628, 40.2094 ], [ -3.8614, 40.2088 ], [ -3.8613, 40.2087 ], [ -3.8614, 40.2086 ], [ -3.861, 40.2085 ], [ -3.8609, 40.2084 ], [ -3.8611, 40.2081 ] ] ] } },
{ "type": "Feature", "properties": { "municipio": "Griñón", "clasificacion": "urbano-no-consolidado", "calificacion": "sin-asignar", "version": "vigente", "fuente": "SIT-CAM WFS — UsoDelSuelo:VPLA_V_CLASIFICACION (https://idem.comunidad.madrid/geosrvg/ows)", "fecha_dato": "2026-05-12", "ambito": "25399", "_raw_CD_SIGLAS": "SUNC", "_raw_DS_CLASIF_GEN": "Suelo Urbano", "_raw_DS_CLASIF_DET": "Suelo Urbano", "_raw_DS_DOCU": "NORMAS SUBSIDIARIAS", "_raw_DS_LEY": null, "_raw_FC_AC": "1994-09-26", "_raw_NM_AREA_M2": 3527333.03185865, "_cam_code": "066" }, "geometry": { "type": "Polygon", "coordinates": [ [ [ -3.8406, 40.2268 ], [ -3.8408, 40.2278 ], [ -3.84, 40.2285 ], [ -3.8401, 40.229 ], [ -3.8403, 40.2296 ], [ -3.8419, 40.2316 ], [ -3.8436, 40.2283 ], [ -3.8433, 40.2283 ], [ -3.8423, 40.2279 ], [ -3.8425, 40.2277 ], [ -3.8425, 40.2275 ], [ -3.8437, 40.2279 ], [ -3.844, 40.2274 ], [ -3.8432, 40.2271 ], [ -3.8432, 40.227 ], [ -3.8424, 40.2268 ], [ -3.842, 40.2265 ], [ -3.8411, 40.2263 ], [ -3.8406, 40.2268 ] ] ] } },
{ "type": "Feature", "properties": { "municipio": "Griñón", "clasificacion": "urbano-no-consolidado", "calificacion": "sin-asignar", "version": "vigente", "fuente": "SIT-CAM WFS — UsoDelSuelo:VPLA_V_CLASIFICACION (https://idem.comunidad.madrid/geosrvg/ows)", "fecha_dato": "2026-05-12", "ambito": "25399", "_raw_CD_SIGLAS": "SUNC", "_raw_DS_CLASIF_GEN": "Suelo Urbano", "_raw_DS_CLASIF_DET": "Suelo Urbano", "_raw_DS_DOCU": "NORMAS SUBSIDIARIAS", "_raw_DS_LEY": null, "_raw_FC_AC": "1994-09-26", "_raw_NM_AREA_M2": 3527333.03185865, "_cam_code": "066" }, "geometry": { "type": "Polygon", "coordinates": [ [ [ -3.8468, 40.2216 ], [ -3.8466, 40.2216 ], [ -3.8466, 40.2212 ], [ -3.8467, 40.2212 ], [ -3.8467, 40.2209 ], [ -3.8471, 40.2202 ], [ -3.8461, 40.22 ], [ -3.8448, 40.2201 ], [ -3.8449, 40.2202 ], [ -3.8446, 40.2212 ], [ -3.8436, 40.2228 ], [ -3.8434, 40.2228 ], [ -3.8428, 40.2233 ], [ -3.8427, 40.2242 ], [ -3.8433, 40.2246 ], [ -3.8435, 40.2243 ], [ -3.8453, 40.2248 ], [ -3.8444, 40.2265 ], [ -3.8458, 40.2266 ], [ -3.8463, 40.2268 ], [ -3.8463, 40.2266 ], [ -3.8464, 40.2266 ], [ -3.8464, 40.2263 ], [ -3.8468, 40.2253 ], [ -3.8463, 40.2251 ], [ -3.8462, 40.2248 ], [ -3.8454, 40.2246 ], [ -3.8468, 40.2216 ] ] ] } },
{ "type": "Feature", "properties": { "municipio": "Griñón", "clasificacion": "urbano-no-consolidado", "calificacion": "sin-asignar", "version": "vigente", "fuente": "SIT-CAM WFS — UsoDelSuelo:VPLA_V_CLASIFICACION (https://idem.comunidad.madrid/geosrvg/ows)", "fecha_dato": "2026-05-12", "ambito": "25399", "_raw_CD_SIGLAS": "SUNC", "_raw_DS_CLASIF_GEN": "Suelo Urbano", "_raw_DS_CLASIF_DET": "Suelo Urbano", "_raw_DS_DOCU": "NORMAS SUBSIDIARIAS", "_raw_DS_LEY": null, "_raw_FC_AC": "1994-09-26", "_raw_NM_AREA_M2": 3527333.03185865, "_cam_code": "066" }, "geometry": { "type": "Polygon", "coordinates": [ [ [ -3.8496, 40.2229 ], [ -3.851, 40.2233 ], [ -3.8514, 40.2225 ], [ -3.8515, 40.2225 ], [ -3.852, 40.2229 ], [ -3.8528, 40.2232 ], [ -3.8538, 40.2209 ], [ -3.8537, 40.2207 ], [ -3.853, 40.2206 ], [ -3.8531, 40.2197 ], [ -3.8529, 40.2193 ], [ -3.8526, 40.2195 ], [ -3.8526, 40.2197 ], [ -3.8524, 40.2199 ], [ -3.8524, 40.2207 ], [ -3.8516, 40.2206 ], [ -3.8517, 40.2203 ], [ -3.8514, 40.2201 ], [ -3.8516, 40.2199 ], [ -3.8519, 40.2199 ], [ -3.8528, 40.2188 ], [ -3.8534, 40.219 ], [ -3.8547, 40.219 ], [ -3.8552, 40.2178 ], [ -3.8543, 40.2176 ], [ -3.8546, 40.217 ], [ -3.8532, 40.2168 ], [ -3.853, 40.2167 ], [ -3.853, 40.2164 ], [ -3.8517, 40.2166 ], [ -3.8514, 40.2159 ], [ -3.8507, 40.2163 ], [ -3.8501, 40.2169 ], [ -3.8498, 40.2174 ], [ -3.8496, 40.2175 ], [ -3.8495, 40.2178 ], [ -3.849, 40.2183 ], [ -3.8507, 40.2189 ], [ -3.8502, 40.2197 ], [ -3.8494, 40.2194 ], [ -3.8489, 40.2201 ], [ -3.8505, 40.2205 ], [ -3.8503, 40.2214 ], [ -3.8496, 40.2229 ] ], [ [ -3.8525, 40.2181 ], [ -3.8516, 40.2191 ], [ -3.8512, 40.219 ], [ -3.8523, 40.2177 ], [ -3.8525, 40.2181 ] ] ] } },
{ "type": "Feature", "properties": { "municipio": "Griñón", "clasificacion": "urbano-no-consolidado", "calificacion": "sin-asignar", "version": "vigente", "fuente": "SIT-CAM WFS — UsoDelSuelo:VPLA_V_CLASIFICACION (https://idem.comunidad.madrid/geosrvg/ows)", "fecha_dato": "2026-05-12", "ambito": "25399", "_raw_CD_SIGLAS": "SUNC", "_raw_DS_CLASIF_GEN": "Suelo Urbano", "_raw_DS_CLASIF_DET": "Suelo Urbano", "_raw_DS_DOCU": "NORMAS SUBSIDIARIAS", "_raw_DS_LEY": null, "_raw_FC_AC": "1994-09-26", "_raw_NM_AREA_M2": 3527333.03185865, "_cam_code": "066" }, "geometry": { "type": "Polygon", "coordinates": [ [ [ -3.8468, 40.2216 ], [ -3.847, 40.2217 ], [ -3.8474, 40.2216 ], [ -3.8473, 40.2212 ], [ -3.8486, 40.2209 ], [ -3.8487, 40.2205 ], [ -3.8474, 40.2202 ], [ -3.8468, 40.2216 ] ] ] } },
{ "type": "Feature", "properties": { "municipio": "Griñón", "clasificacion": "urbano-no-consolidado", "calificacion": "sin-asignar", "version": "vigente", "fuente": "SIT-CAM WFS — UsoDelSuelo:VPLA_V_CLASIFICACION (https://idem.comunidad.madrid/geosrvg/ows)", "fecha_dato": "2026-05-12", "ambito": "25399", "_raw_CD_SIGLAS": "SUNC", "_raw_DS_CLASIF_GEN": "Suelo Urbano", "_raw_DS_CLASIF_DET": "Suelo Urbano", "_raw_DS_DOCU": "NORMAS SUBSIDIARIAS", "_raw_DS_LEY": null, "_raw_FC_AC": "1994-09-26", "_raw_NM_AREA_M2": 3527333.03185865, "_cam_code": "066" }, "geometry": { "type": "Polygon", "coordinates": [ [ [ -3.8365, 40.2112 ], [ -3.8367, 40.2116 ], [ -3.8385, 40.212 ], [ -3.8385, 40.2123 ], [ -3.8389, 40.2123 ], [ -3.8392, 40.2117 ], [ -3.8377, 40.2114 ], [ -3.8368, 40.2114 ], [ -3.8368, 40.2113 ], [ -3.8365, 40.2112 ] ] ] } },
{ "type": "Feature", "properties": { "municipio": "Griñón", "clasificacion": "urbano-no-consolidado", "calificacion": "sin-asignar", "version": "vigente", "fuente": "SIT-CAM WFS — UsoDelSuelo:VPLA_V_CLASIFICACION (https://idem.comunidad.madrid/geosrvg/ows)", "fecha_dato": "2026-05-12", "ambito": "25399", "_raw_CD_SIGLAS": "SUNC", "_raw_DS_CLASIF_GEN": "Suelo Urbano", "_raw_DS_CLASIF_DET": "Suelo Urbano", "_raw_DS_DOCU": "NORMAS SUBSIDIARIAS", "_raw_DS_LEY": null, "_raw_FC_AC": "1994-09-26", "_raw_NM_AREA_M2": 3527333.03185865, "_cam_code": "066" }, "geometry": { "type": "Polygon", "coordinates": [ [ [ -3.8618, 40.2057 ], [ -3.8616, 40.2065 ], [ -3.8612, 40.2067 ], [ -3.8613, 40.2069 ], [ -3.8619, 40.2073 ], [ -3.863, 40.2064 ], [ -3.8618, 40.2057 ] ] ] } },
{ "type": "Feature", "properties": { "municipio": "Griñón", "clasificacion": "urbano-no-consolidado", "calificacion": "sin-asignar", "version": "vigente", "fuente": "SIT-CAM WFS — UsoDelSuelo:VPLA_V_CLASIFICACION (https://idem.comunidad.madrid/geosrvg/ows)", "fecha_dato": "2026-05-12", "ambito": "25399", "_raw_CD_SIGLAS": "SUNC", "_raw_DS_CLASIF_GEN": "Suelo Urbano", "_raw_DS_CLASIF_DET": "Suelo Urbano", "_raw_DS_DOCU": "NORMAS SUBSIDIARIAS", "_raw_DS_LEY": null, "_raw_FC_AC": "1994-09-26", "_raw_NM_AREA_M2": 3527333.03185865, "_cam_code": "066" }, "geometry": { "type": "Polygon", "coordinates": [ [ [ -3.8564, 40.2043 ], [ -3.8566, 40.205 ], [ -3.8572, 40.2051 ], [ -3.8575, 40.204 ], [ -3.8578, 40.2034 ], [ -3.856, 40.2035 ], [ -3.856, 40.2043 ], [ -3.8564, 40.2043 ] ] ] } },
{ "type": "Feature", "properties": { "municipio": "Griñón", "clasificacion": "urbano-no-consolidado", "calificacion": "sin-asignar", "version": "vigente", "fuente": "SIT-CAM WFS — UsoDelSuelo:VPLA_V_CLASIFICACION (https://idem.comunidad.madrid/geosrvg/ows)", "fecha_dato": "2026-05-12", "ambito": "25399", "_raw_CD_SIGLAS": "SUNC", "_raw_DS_CLASIF_GEN": "Suelo Urbano", "_raw_DS_CLASIF_DET": "Suelo Urbano", "_raw_DS_DOCU": "NORMAS SUBSIDIARIAS", "_raw_DS_LEY": null, "_raw_FC_AC": "1994-09-26", "_raw_NM_AREA_M2": 3527333.03185865, "_cam_code": "066" }, "geometry": { "type": "Polygon", "coordinates": [ [ [ -3.862, 40.2198 ], [ -3.8625, 40.2203 ], [ -3.8626, 40.2206 ], [ -3.8629, 40.2205 ], [ -3.8632, 40.2201 ], [ -3.8637, 40.2204 ], [ -3.8642, 40.2199 ], [ -3.8646, 40.2201 ], [ -3.8648, 40.2195 ], [ -3.8649, 40.2195 ], [ -3.8648, 40.2195 ], [ -3.8648, 40.2193 ], [ -3.8641, 40.2192 ], [ -3.8637, 40.2197 ], [ -3.8607, 40.2172 ], [ -3.8603, 40.2176 ], [ -3.8589, 40.2179 ], [ -3.8586, 40.2181 ], [ -3.8587, 40.2183 ], [ -3.8606, 40.2187 ], [ -3.8607, 40.2191 ], [ -3.8606, 40.2191 ], [ -3.8605, 40.2194 ], [ -3.8612, 40.2201 ], [ -3.8614, 40.2202 ], [ -3.862, 40.2198 ] ] ] } },
{ "type": "Feature", "properties": { "municipio": "Griñón", "clasificacion": "urbano-no-consolidado", "calificacion": "sin-asignar", "version": "vigente", "fuente": "SIT-CAM WFS — UsoDelSuelo:VPLA_V_CLASIFICACION (https://idem.comunidad.madrid/geosrvg/ows)", "fecha_dato": "2026-05-12", "ambito": "25399", "_raw_CD_SIGLAS": "SUNC", "_raw_DS_CLASIF_GEN": "Suelo Urbano", "_raw_DS_CLASIF_DET": "Suelo Urbano", "_raw_DS_DOCU": "NORMAS SUBSIDIARIAS", "_raw_DS_LEY": null, "_raw_FC_AC": "1994-09-26", "_raw_NM_AREA_M2": 3527333.03185865, "_cam_code": "066" }, "geometry": { "type": "Polygon", "coordinates": [ [ [ -3.8548, 40.2191 ], [ -3.8542, 40.2204 ], [ -3.8556, 40.219 ], [ -3.8548, 40.2191 ] ] ] } },
{ "type": "Feature", "properties": { "municipio": "Griñón", "clasificacion": "urbano-no-consolidado", "calificacion": "sin-asignar", "version": "vigente", "fuente": "SIT-CAM WFS — UsoDelSuelo:VPLA_V_CLASIFICACION (https://idem.comunidad.madrid/geosrvg/ows)", "fecha_dato": "2026-05-12", "ambito": "25399", "_raw_CD_SIGLAS": "SUNC", "_raw_DS_CLASIF_GEN": "Suelo Urbano", "_raw_DS_CLASIF_DET": "Suelo Urbano", "_raw_DS_DOCU": "NORMAS SUBSIDIARIAS", "_raw_DS_LEY": null, "_raw_FC_AC": "1994-09-26", "_raw_NM_AREA_M2": 3527333.03185865, "_cam_code": "066" }, "geometry": { "type": "Polygon", "coordinates": [ [ [ -3.8462, 40.2173 ], [ -3.8471, 40.2174 ], [ -3.8466, 40.2181 ], [ -3.8473, 40.2189 ], [ -3.8471, 40.219 ], [ -3.8467, 40.2196 ], [ -3.8474, 40.2198 ], [ -3.8482, 40.2188 ], [ -3.8475, 40.2188 ], [ -3.8481, 40.218 ], [ -3.8479, 40.2178 ], [ -3.8482, 40.2172 ], [ -3.8487, 40.2174 ], [ -3.8487, 40.2173 ], [ -3.8494, 40.2176 ], [ -3.8494, 40.2177 ], [ -3.8506, 40.2163 ], [ -3.8484, 40.2154 ], [ -3.8484, 40.2153 ], [ -3.847, 40.2152 ], [ -3.8472, 40.2142 ], [ -3.8489, 40.2142 ], [ -3.8489, 40.2138 ], [ -3.8482, 40.214 ], [ -3.8474, 40.214 ], [ -3.8474, 40.2141 ], [ -3.8469, 40.2143 ], [ -3.8468, 40.2145 ], [ -3.8466, 40.2145 ], [ -3.8466, 40.2146 ], [ -3.8455, 40.2152 ], [ -3.8471, 40.2159 ], [ -3.8465, 40.2167 ], [ -3.8461, 40.217 ], [ -3.8462, 40.2173 ] ] ] } },
{ "type": "Feature", "properties": { "municipio": "Griñón", "clasificacion": "urbano-no-consolidado", "calificacion": "sin-asignar", "version": "vigente", "fuente": "SIT-CAM WFS — UsoDelSuelo:VPLA_V_CLASIFICACION (https://idem.comunidad.madrid/geosrvg/ows)", "fecha_dato": "2026-05-12", "ambito": "25399", "_raw_CD_SIGLAS": "SUNC", "_raw_DS_CLASIF_GEN": "Suelo Urbano", "_raw_DS_CLASIF_DET": "Suelo Urbano", "_raw_DS_DOCU": "NORMAS SUBSIDIARIAS", "_raw_DS_LEY": null, "_raw_FC_AC": "1994-09-26", "_raw_NM_AREA_M2": 3527333.03185865, "_cam_code": "066" }, "geometry": { "type": "Polygon", "coordinates": [ [ [ -3.853, 40.2147 ], [ -3.8553, 40.2151 ], [ -3.8556, 40.2144 ], [ -3.8557, 40.2144 ], [ -3.8549, 40.2141 ], [ -3.8544, 40.2142 ], [ -3.8546, 40.2139 ], [ -3.8542, 40.2138 ], [ -3.8541, 40.2141 ], [ -3.8536, 40.2141 ], [ -3.8534, 40.2145 ], [ -3.8531, 40.2144 ], [ -3.853, 40.2147 ] ] ] } },
{ "type": "Feature", "properties": { "municipio": "Griñón", "clasificacion": "urbano-no-consolidado", "calificacion": "sin-asignar", "version": "vigente", "fuente": "SIT-CAM WFS — UsoDelSuelo:VPLA_V_CLASIFICACION (https://idem.comunidad.madrid/geosrvg/ows)", "fecha_dato": "2026-05-12", "ambito": "25399", "_raw_CD_SIGLAS": "SUNC", "_raw_DS_CLASIF_GEN": "Suelo Urbano", "_raw_DS_CLASIF_DET": "Suelo Urbano", "_raw_DS_DOCU": "NORMAS SUBSIDIARIAS", "_raw_DS_LEY": null, "_raw_FC_AC": "1994-09-26", "_raw_NM_AREA_M2": 3527333.03185865, "_cam_code": "066" }, "geometry": { "type": "Polygon", "coordinates": [ [ [ -3.8595, 40.2122 ], [ -3.8588, 40.214 ], [ -3.8605, 40.2136 ], [ -3.8606, 40.2135 ], [ -3.8605, 40.2134 ], [ -3.8611, 40.2129 ], [ -3.8614, 40.2128 ], [ -3.8618, 40.2122 ], [ -3.8623, 40.2123 ], [ -3.8625, 40.2124 ], [ -3.8625, 40.2126 ], [ -3.8631, 40.2128 ], [ -3.8636, 40.2128 ], [ -3.8643, 40.2126 ], [ -3.863, 40.2119 ], [ -3.8625, 40.2118 ], [ -3.8625, 40.2116 ], [ -3.8602, 40.2111 ], [ -3.8596, 40.2122 ], [ -3.8595, 40.2122 ] ] ] } },
{ "type": "Feature", "properties": { "municipio": "Griñón", "clasificacion": "urbano-no-consolidado", "calificacion": "sin-asignar", "version": "vigente", "fuente": "SIT-CAM WFS — UsoDelSuelo:VPLA_V_CLASIFICACION (https://idem.comunidad.madrid/geosrvg/ows)", "fecha_dato": "2026-05-12", "ambito": "25399", "_raw_CD_SIGLAS": "SUNC", "_raw_DS_CLASIF_GEN": "Suelo Urbano", "_raw_DS_CLASIF_DET": "Suelo Urbano", "_raw_DS_DOCU": "NORMAS SUBSIDIARIAS", "_raw_DS_LEY": null, "_raw_FC_AC": "1994-09-26", "_raw_NM_AREA_M2": 3527333.03185865, "_cam_code": "066" }, "geometry": { "type": "Polygon", "coordinates": [ [ [ -3.8592, 40.2126 ], [ -3.8583, 40.2131 ], [ -3.8572, 40.2138 ], [ -3.8575, 40.2139 ], [ -3.8578, 40.2137 ], [ -3.8586, 40.2135 ], [ -3.8589, 40.2133 ], [ -3.8588, 40.2133 ], [ -3.8588, 40.213 ], [ -3.8591, 40.2129 ], [ -3.8592, 40.2126 ] ] ] } },
{ "type": "Feature", "properties": { "municipio": "Griñón", "clasificacion": "urbano-no-consolidado", "calificacion": "sin-asignar", "version": "vigente", "fuente": "SIT-CAM WFS — UsoDelSuelo:VPLA_V_CLASIFICACION (https://idem.comunidad.madrid/geosrvg/ows)", "fecha_dato": "2026-05-12", "ambito": "25399", "_raw_CD_SIGLAS": "SUNC", "_raw_DS_CLASIF_GEN": "Suelo Urbano", "_raw_DS_CLASIF_DET": "Suelo Urbano", "_raw_DS_DOCU": "NORMAS SUBSIDIARIAS", "_raw_DS_LEY": null, "_raw_FC_AC": "1994-09-26", "_raw_NM_AREA_M2": 3527333.03185865, "_cam_code": "066" }, "geometry": { "type": "Polygon", "coordinates": [ [ [ -3.8509, 40.2127 ], [ -3.8514, 40.2128 ], [ -3.8519, 40.2126 ], [ -3.8519, 40.2127 ], [ -3.852, 40.2126 ], [ -3.8521, 40.2127 ], [ -3.8523, 40.2126 ], [ -3.8522, 40.2125 ], [ -3.8523, 40.2123 ], [ -3.8521, 40.2122 ], [ -3.8517, 40.2123 ], [ -3.8514, 40.2121 ], [ -3.8515, 40.2118 ], [ -3.851, 40.2117 ], [ -3.8509, 40.2119 ], [ -3.8506, 40.2118 ], [ -3.8507, 40.2116 ], [ -3.8496, 40.2113 ], [ -3.8482, 40.2107 ], [ -3.848, 40.2105 ], [ -3.8483, 40.21 ], [ -3.8487, 40.2101 ], [ -3.8487, 40.2079 ], [ -3.8481, 40.2073 ], [ -3.8467, 40.2081 ], [ -3.846, 40.2087 ], [ -3.8465, 40.2093 ], [ -3.847, 40.2096 ], [ -3.8465, 40.2101 ], [ -3.8468, 40.2102 ], [ -3.8468, 40.2104 ], [ -3.8476, 40.2108 ], [ -3.8482, 40.2113 ], [ -3.8484, 40.2113 ], [ -3.8485, 40.2114 ], [ -3.8484, 40.2115 ], [ -3.8491, 40.2116 ], [ -3.8489, 40.2122 ], [ -3.8499, 40.2125 ], [ -3.85, 40.2124 ], [ -3.8506, 40.2125 ], [ -3.8506, 40.2123 ], [ -3.8508, 40.2123 ], [ -3.8509, 40.2127 ] ], [ [ -3.8513, 40.2125 ], [ -3.8512, 40.2126 ], [ -3.8511, 40.2125 ], [ -3.8513, 40.2125 ] ] ] } }
]
}
