{
"type": "FeatureCollection",
"name": "vigente.full",
"features": [
{ "type": "Feature", "properties": { "municipio": "Horcajo de la Sierra-Aoslos", "clasificacion": "no-urbanizable-protegido", "calificacion": "sin-asignar", "version": "vigente", "fuente": "SIT-CAM WFS — UsoDelSuelo:VPLA_V_CLASIFICACION (https://idem.comunidad.madrid/geosrvg/ows)", "fecha_dato": "2026-05-12", "ambito": "81", "_raw_CD_SIGLAS": "SNUP", "_raw_DS_CLASIF_GEN": "Suelo No Urbanizable Protegido", "_raw_DS_CLASIF_DET": "Suelo No Urbanizable de Especial Protección Interés Agropecuario", "_raw_DS_DOCU": "NORMAS SUBSIDIARIAS", "_raw_DS_LEY": "CM Ley 4/1984, E RD 1346/1976", "_raw_FC_AC": "1986-04-10", "_raw_NM_AREA_M2": 1220162.22520415, "_cam_code": "070" }, "geometry": { "type": "Polygon", "coordinates": [ [ [ -3.558, 41.0845 ], [ -3.5558, 41.0911 ], [ -3.5558, 41.0922 ], [ -3.5578, 41.0913 ], [ -3.5606, 41.0904 ], [ -3.5629, 41.0899 ], [ -3.5636, 41.0899 ], [ -3.5633, 41.0897 ], [ -3.563, 41.0892 ], [ -3.5621, 41.0892 ], [ -3.5615, 41.0887 ], [ -3.5609, 41.0884 ], [ -3.5606, 41.0877 ], [ -3.5606, 41.0868 ], [ -3.5608, 41.086 ], [ -3.5615, 41.0852 ], [ -3.5616, 41.0847 ], [ -3.5619, 41.0843 ], [ -3.5619, 41.084 ], [ -3.5622, 41.0834 ], [ -3.5623, 41.0834 ], [ -3.5624, 41.083 ], [ -3.5632, 41.082 ], [ -3.5637, 41.0817 ], [ -3.5637, 41.0815 ], [ -3.5639, 41.0814 ], [ -3.5641, 41.0809 ], [ -3.564, 41.0808 ], [ -3.5639, 41.0798 ], [ -3.5635, 41.079 ], [ -3.5634, 41.079 ], [ -3.5634, 41.0788 ], [ -3.5632, 41.0787 ], [ -3.5632, 41.0785 ], [ -3.5627, 41.0776 ], [ -3.5628, 41.0762 ], [ -3.5632, 41.0758 ], [ -3.5635, 41.075 ], [ -3.5642, 41.0743 ], [ -3.5643, 41.074 ], [ -3.5645, 41.0739 ], [ -3.5647, 41.0734 ], [ -3.5655, 41.0728 ], [ -3.5694, 41.0717 ], [ -3.5699, 41.0714 ], [ -3.571, 41.0713 ], [ -3.571, 41.0709 ], [ -3.5704, 41.0704 ], [ -3.5698, 41.0704 ], [ -3.5697, 41.0705 ], [ -3.5689, 41.0704 ], [ -3.5691, 41.0685 ], [ -3.5692, 41.0685 ], [ -3.5692, 41.0681 ], [ -3.5694, 41.0679 ], [ -3.5694, 41.0675 ], [ -3.5695, 41.0675 ], [ -3.5696, 41.0665 ], [ -3.5696, 41.0658 ], [ -3.5694, 41.0653 ], [ -3.5695, 41.0639 ], [ -3.5691, 41.0632 ], [ -3.5682, 41.0624 ], [ -3.568, 41.0618 ], [ -3.5679, 41.0618 ], [ -3.5677, 41.0614 ], [ -3.5678, 41.0614 ], [ -3.5678, 41.0612 ], [ -3.5677, 41.0612 ], [ -3.5678, 41.0607 ], [ -3.5679, 41.0607 ], [ -3.5682, 41.0601 ], [ -3.5689, 41.0596 ], [ -3.5694, 41.0589 ], [ -3.567, 41.0588 ], [ -3.5632, 41.0591 ], [ -3.5632, 41.0599 ], [ -3.5637, 41.0614 ], [ -3.5638, 41.0631 ], [ -3.5641, 41.0638 ], [ -3.5642, 41.0647 ], [ -3.5642, 41.065 ], [ -3.5639, 41.0656 ], [ -3.564, 41.066 ], [ -3.5642, 41.0661 ], [ -3.5641, 41.0669 ], [ -3.564, 41.0669 ], [ -3.5636, 41.0677 ], [ -3.5636, 41.068 ], [ -3.5637, 41.068 ], [ -3.5634, 41.0686 ], [ -3.5627, 41.0697 ], [ -3.5632, 41.0741 ], [ -3.5618, 41.0773 ], [ -3.5608, 41.0805 ], [ -3.5599, 41.0816 ], [ -3.559, 41.0838 ], [ -3.558, 41.0845 ] ] ] } },
{ "type": "Feature", "properties": { "municipio": "Horcajo de la Sierra-Aoslos", "clasificacion": "no-urbanizable-protegido", "calificacion": "sin-asignar", "version": "vigente", "fuente": "SIT-CAM WFS — UsoDelSuelo:VPLA_V_CLASIFICACION (https://idem.comunidad.madrid/geosrvg/ows)", "fecha_dato": "2026-05-12", "ambito": "81", "_raw_CD_SIGLAS": "SNUP", "_raw_DS_CLASIF_GEN": "Suelo No Urbanizable Protegido", "_raw_DS_CLASIF_DET": "Suelo No Urbanizable de Especial Protección Interés Ecológico", "_raw_DS_DOCU": "NORMAS SUBSIDIARIAS", "_raw_DS_LEY": "CM Ley 4/1984, E RD 1346/1976", "_raw_FC_AC": "1986-04-10", "_raw_NM_AREA_M2": 390702.74582600303, "_cam_code": "070" }, "geometry": { "type": "Polygon", "coordinates": [ [ [ -3.6048, 41.0776 ], [ -3.6071, 41.0767 ], [ -3.6091, 41.0764 ], [ -3.6094, 41.0748 ], [ -3.6095, 41.0716 ], [ -3.6091, 41.0715 ], [ -3.6083, 41.0706 ], [ -3.6081, 41.0702 ], [ -3.6077, 41.0699 ], [ -3.6075, 41.0699 ], [ -3.6075, 41.0698 ], [ -3.6054, 41.0715 ], [ -3.6045, 41.0718 ], [ -3.6041, 41.0722 ], [ -3.6026, 41.0731 ], [ -3.6019, 41.0739 ], [ -3.6017, 41.0746 ], [ -3.6016, 41.0746 ], [ -3.6016, 41.0764 ], [ -3.6021, 41.0767 ], [ -3.6023, 41.0772 ], [ -3.6026, 41.0775 ], [ -3.6029, 41.0776 ], [ -3.6045, 41.0774 ], [ -3.6048, 41.0776 ] ] ] } },
{ "type": "Feature", "properties": { "municipio": "Horcajo de la Sierra-Aoslos", "clasificacion": "no-urbanizable-protegido", "calificacion": "sin-asignar", "version": "vigente", "fuente": "SIT-CAM WFS — UsoDelSuelo:VPLA_V_CLASIFICACION (https://idem.comunidad.madrid/geosrvg/ows)", "fecha_dato": "2026-05-12", "ambito": "81", "_raw_CD_SIGLAS": "SNUP", "_raw_DS_CLASIF_GEN": "Suelo No Urbanizable Protegido", "_raw_DS_CLASIF_DET": "Suelo No Urbanizable de Especial Protección Interés Ecológico", "_raw_DS_DOCU": "NORMAS SUBSIDIARIAS", "_raw_DS_LEY": "CM Ley 4/1984, E RD 1346/1976", "_raw_FC_AC": "1986-04-10", "_raw_NM_AREA_M2": 2219293.7470924999, "_cam_code": "070" }, "geometry": { "type": "Polygon", "coordinates": [ [ [ -3.5627, 41.0892 ], [ -3.563, 41.0892 ], [ -3.5633, 41.0897 ], [ -3.5636, 41.0899 ], [ -3.5641, 41.0899 ], [ -3.5651, 41.0895 ], [ -3.5668, 41.0891 ], [ -3.5693, 41.0881 ], [ -3.5715, 41.0875 ], [ -3.5727, 41.0874 ], [ -3.5736, 41.0876 ], [ -3.5754, 41.0875 ], [ -3.576, 41.0877 ], [ -3.5772, 41.0875 ], [ -3.5781, 41.0872 ], [ -3.5782, 41.0869 ], [ -3.5785, 41.0869 ], [ -3.5785, 41.0868 ], [ -3.5806, 41.0857 ], [ -3.5808, 41.0857 ], [ -3.5822, 41.0848 ], [ -3.5823, 41.0844 ], [ -3.5819, 41.0831 ], [ -3.5816, 41.0826 ], [ -3.5807, 41.0819 ], [ -3.5808, 41.0807 ], [ -3.5806, 41.0805 ], [ -3.5806, 41.0801 ], [ -3.5801, 41.0795 ], [ -3.58, 41.0792 ], [ -3.5798, 41.0791 ], [ -3.5796, 41.0784 ], [ -3.5778, 41.078 ], [ -3.5763, 41.078 ], [ -3.5748, 41.0786 ], [ -3.5745, 41.0786 ], [ -3.5741, 41.0784 ], [ -3.5737, 41.0776 ], [ -3.5737, 41.0765 ], [ -3.5736, 41.0764 ], [ -3.5725, 41.0757 ], [ -3.5721, 41.0756 ], [ -3.5712, 41.0757 ], [ -3.571, 41.0755 ], [ -3.5708, 41.0746 ], [ -3.5705, 41.0742 ], [ -3.5705, 41.0739 ], [ -3.5721, 41.0725 ], [ -3.5739, 41.0718 ], [ -3.5741, 41.0713 ], [ -3.574, 41.071 ], [ -3.5741, 41.0707 ], [ -3.573, 41.0712 ], [ -3.5699, 41.0714 ], [ -3.5694, 41.0717 ], [ -3.5655, 41.0728 ], [ -3.5647, 41.0734 ], [ -3.5645, 41.0739 ], [ -3.5643, 41.074 ], [ -3.5642, 41.0743 ], [ -3.5635, 41.075 ], [ -3.5632, 41.0758 ], [ -3.5628, 41.0762 ], [ -3.5627, 41.0776 ], [ -3.5632, 41.0785 ], [ -3.5632, 41.0787 ], [ -3.5634, 41.0788 ], [ -3.5634, 41.079 ], [ -3.5635, 41.079 ], [ -3.5639, 41.0798 ], [ -3.564, 41.0808 ], [ -3.5641, 41.0809 ], [ -3.5639, 41.0814 ], [ -3.5637, 41.0815 ], [ -3.5637, 41.0817 ], [ -3.5632, 41.082 ], [ -3.5624, 41.083 ], [ -3.5623, 41.0834 ], [ -3.5622, 41.0834 ], [ -3.5619, 41.084 ], [ -3.5619, 41.0843 ], [ -3.5616, 41.0847 ], [ -3.5615, 41.0852 ], [ -3.5608, 41.086 ], [ -3.5606, 41.0868 ], [ -3.5606, 41.0877 ], [ -3.5608, 41.0883 ], [ -3.5621, 41.0892 ], [ -3.5627, 41.0892 ] ] ] } },
{ "type": "Feature", "properties": { "municipio": "Horcajo de la Sierra-Aoslos", "clasificacion": "no-urbanizable-protegido", "calificacion": "sin-asignar", "version": "vigente", "fuente": "SIT-CAM WFS — UsoDelSuelo:VPLA_V_CLASIFICACION (https://idem.comunidad.madrid/geosrvg/ows)", "fecha_dato": "2026-05-12", "ambito": "81", "_raw_CD_SIGLAS": "SNUP", "_raw_DS_CLASIF_GEN": "Suelo No Urbanizable Protegido", "_raw_DS_CLASIF_DET": "Suelo No Urbanizable de Especial Protección Interés Forestal", "_raw_DS_DOCU": "NORMAS SUBSIDIARIAS", "_raw_DS_LEY": "CM Ley 4/1984, E RD 1346/1976", "_raw_FC_AC": "1986-04-10", "_raw_NM_AREA_M2": 2112846.8947056802, "_cam_code": "070" }, "geometry": { "type": "Polygon", "coordinates": [ [ [ -3.5574, 41.1053 ], [ -3.5589, 41.1089 ], [ -3.5623, 41.1133 ], [ -3.5644, 41.1143 ], [ -3.566, 41.1139 ], [ -3.5693, 41.1111 ], [ -3.5695, 41.1108 ], [ -3.5728, 41.1086 ], [ -3.5732, 41.1082 ], [ -3.5752, 41.1073 ], [ -3.5747, 41.1066 ], [ -3.574, 41.1063 ], [ -3.5735, 41.1058 ], [ -3.5732, 41.1052 ], [ -3.5731, 41.1047 ], [ -3.5732, 41.1042 ], [ -3.573, 41.1034 ], [ -3.5723, 41.102 ], [ -3.5723, 41.1017 ], [ -3.5725, 41.1012 ], [ -3.5726, 41.1012 ], [ -3.5726, 41.1008 ], [ -3.5728, 41.1005 ], [ -3.5736, 41.0998 ], [ -3.5736, 41.0995 ], [ -3.5738, 41.0995 ], [ -3.5742, 41.099 ], [ -3.5744, 41.099 ], [ -3.5746, 41.0988 ], [ -3.575, 41.0982 ], [ -3.5752, 41.0982 ], [ -3.5762, 41.0975 ], [ -3.5765, 41.0975 ], [ -3.5769, 41.0971 ], [ -3.5776, 41.097 ], [ -3.5784, 41.0967 ], [ -3.5787, 41.0963 ], [ -3.5778, 41.0955 ], [ -3.5773, 41.0953 ], [ -3.5768, 41.0956 ], [ -3.5761, 41.0966 ], [ -3.5757, 41.0965 ], [ -3.5755, 41.0968 ], [ -3.575, 41.0967 ], [ -3.5742, 41.0959 ], [ -3.574, 41.095 ], [ -3.5738, 41.0948 ], [ -3.5735, 41.094 ], [ -3.5735, 41.0934 ], [ -3.5736, 41.0933 ], [ -3.5735, 41.0931 ], [ -3.5728, 41.0926 ], [ -3.5722, 41.0927 ], [ -3.5715, 41.0938 ], [ -3.5711, 41.0954 ], [ -3.5712, 41.0956 ], [ -3.5711, 41.0964 ], [ -3.5709, 41.0966 ], [ -3.5703, 41.0967 ], [ -3.57, 41.097 ], [ -3.569, 41.0974 ], [ -3.5683, 41.0974 ], [ -3.568, 41.0972 ], [ -3.568, 41.097 ], [ -3.5684, 41.0966 ], [ -3.5683, 41.0962 ], [ -3.568, 41.0959 ], [ -3.5679, 41.0956 ], [ -3.5677, 41.0955 ], [ -3.5676, 41.0951 ], [ -3.5671, 41.0947 ], [ -3.5667, 41.0948 ], [ -3.5666, 41.095 ], [ -3.5663, 41.0951 ], [ -3.5652, 41.0952 ], [ -3.5643, 41.096 ], [ -3.5638, 41.0962 ], [ -3.5634, 41.0962 ], [ -3.5627, 41.0946 ], [ -3.5623, 41.0943 ], [ -3.5621, 41.0943 ], [ -3.562, 41.0945 ], [ -3.5621, 41.0954 ], [ -3.5619, 41.0958 ], [ -3.5619, 41.0961 ], [ -3.5614, 41.0967 ], [ -3.5612, 41.0973 ], [ -3.5615, 41.0977 ], [ -3.5615, 41.0987 ], [ -3.5617, 41.0991 ], [ -3.5625, 41.0988 ], [ -3.563, 41.0989 ], [ -3.5622, 41.1011 ], [ -3.5615, 41.1023 ], [ -3.5607, 41.1031 ], [ -3.5596, 41.1036 ], [ -3.559, 41.1042 ], [ -3.5578, 41.105 ], [ -3.5577, 41.1052 ], [ -3.5574, 41.1053 ] ] ] } },
{ "type": "Feature", "properties": { "municipio": "Horcajo de la Sierra-Aoslos", "clasificacion": "no-urbanizable-protegido", "calificacion": "sin-asignar", "version": "vigente", "fuente": "SIT-CAM WFS — UsoDelSuelo:VPLA_V_CLASIFICACION (https://idem.comunidad.madrid/geosrvg/ows)", "fecha_dato": "2026-05-12", "ambito": "81", "_raw_CD_SIGLAS": "SNUP", "_raw_DS_CLASIF_GEN": "Suelo No Urbanizable Protegido", "_raw_DS_CLASIF_DET": "Suelo No Urbanizable de Especial Protección Interés Paisajístico", "_raw_DS_DOCU": "NORMAS SUBSIDIARIAS", "_raw_DS_LEY": "CM Ley 4/1984, E RD 1346/1976", "_raw_FC_AC": "1986-04-10", "_raw_NM_AREA_M2": 872361.90693097399, "_cam_code": "070" }, "geometry": { "type": "Polygon", "coordinates": [ [ [ -3.5576, 41.0968 ], [ -3.557, 41.1001 ], [ -3.557, 41.1043 ], [ -3.5574, 41.1053 ], [ -3.5575, 41.1053 ], [ -3.559, 41.1042 ], [ -3.5596, 41.1036 ], [ -3.5607, 41.1031 ], [ -3.5615, 41.1023 ], [ -3.5622, 41.1011 ], [ -3.563, 41.0989 ], [ -3.5625, 41.0988 ], [ -3.5617, 41.0991 ], [ -3.5615, 41.0987 ], [ -3.5615, 41.0977 ], [ -3.5612, 41.0973 ], [ -3.5614, 41.0967 ], [ -3.5619, 41.0961 ], [ -3.5619, 41.0958 ], [ -3.5621, 41.0954 ], [ -3.5621, 41.0949 ], [ -3.562, 41.0948 ], [ -3.5621, 41.0943 ], [ -3.5623, 41.0943 ], [ -3.5627, 41.0946 ], [ -3.5634, 41.0962 ], [ -3.5638, 41.0962 ], [ -3.5643, 41.096 ], [ -3.5652, 41.0952 ], [ -3.5663, 41.0951 ], [ -3.5666, 41.095 ], [ -3.5669, 41.0947 ], [ -3.5675, 41.0949 ], [ -3.5674, 41.0944 ], [ -3.5668, 41.0937 ], [ -3.5667, 41.0934 ], [ -3.5669, 41.0923 ], [ -3.5665, 41.0916 ], [ -3.5665, 41.0913 ], [ -3.5667, 41.0909 ], [ -3.5667, 41.0903 ], [ -3.5664, 41.0899 ], [ -3.5664, 41.0892 ], [ -3.5651, 41.0895 ], [ -3.5641, 41.0899 ], [ -3.5629, 41.0899 ], [ -3.5606, 41.0904 ], [ -3.5578, 41.0913 ], [ -3.5558, 41.0922 ], [ -3.556, 41.094 ], [ -3.5576, 41.0968 ] ] ] } },
{ "type": "Feature", "properties": { "municipio": "Horcajo de la Sierra-Aoslos", "clasificacion": "no-urbanizable-protegido", "calificacion": "sin-asignar", "version": "vigente", "fuente": "SIT-CAM WFS — UsoDelSuelo:VPLA_V_CLASIFICACION (https://idem.comunidad.madrid/geosrvg/ows)", "fecha_dato": "2026-05-12", "ambito": "81", "_raw_CD_SIGLAS": "SNUP", "_raw_DS_CLASIF_GEN": "Suelo No Urbanizable Protegido", "_raw_DS_CLASIF_DET": "Suelo No Urbanizable de Especial Protección Interés Paisajístico", "_raw_DS_DOCU": "NORMAS SUBSIDIARIAS", "_raw_DS_LEY": "CM Ley 4/1984, E RD 1346/1976", "_raw_FC_AC": "1986-04-10", "_raw_NM_AREA_M2": 486308.21388973697, "_cam_code": "070" }, "geometry": { "type": "Polygon", "coordinates": [ [ [ -3.5724, 41.1022 ], [ -3.573, 41.1034 ], [ -3.5732, 41.1042 ], [ -3.5731, 41.1046 ], [ -3.5732, 41.1052 ], [ -3.5735, 41.1058 ], [ -3.574, 41.1063 ], [ -3.5747, 41.1066 ], [ -3.5752, 41.1073 ], [ -3.578, 41.1059 ], [ -3.578, 41.1058 ], [ -3.5785, 41.1056 ], [ -3.5785, 41.1055 ], [ -3.5793, 41.105 ], [ -3.579, 41.1047 ], [ -3.5776, 41.1041 ], [ -3.5775, 41.1039 ], [ -3.5771, 41.1037 ], [ -3.5764, 41.1029 ], [ -3.5764, 41.1025 ], [ -3.5765, 41.1023 ], [ -3.5773, 41.1021 ], [ -3.5777, 41.1022 ], [ -3.5796, 41.1022 ], [ -3.5799, 41.1021 ], [ -3.58, 41.1017 ], [ -3.5795, 41.1015 ], [ -3.5792, 41.101 ], [ -3.579, 41.1009 ], [ -3.5788, 41.1001 ], [ -3.5794, 41.0995 ], [ -3.5801, 41.0996 ], [ -3.5809, 41.0992 ], [ -3.5812, 41.0988 ], [ -3.5811, 41.0981 ], [ -3.5801, 41.0975 ], [ -3.5799, 41.0964 ], [ -3.5789, 41.0964 ], [ -3.5789, 41.0963 ], [ -3.5788, 41.0964 ], [ -3.5787, 41.0963 ], [ -3.5782, 41.0968 ], [ -3.5769, 41.0971 ], [ -3.5765, 41.0975 ], [ -3.5762, 41.0975 ], [ -3.5752, 41.0982 ], [ -3.575, 41.0982 ], [ -3.5744, 41.099 ], [ -3.5742, 41.099 ], [ -3.5738, 41.0995 ], [ -3.5736, 41.0995 ], [ -3.5736, 41.0998 ], [ -3.5726, 41.1008 ], [ -3.5726, 41.1012 ], [ -3.5725, 41.1012 ], [ -3.5723, 41.1017 ], [ -3.5724, 41.1022 ] ] ] } },
{ "type": "Feature", "properties": { "municipio": "Horcajo de la Sierra-Aoslos", "clasificacion": "no-urbanizable-protegido", "calificacion": "sin-asignar", "version": "vigente", "fuente": "SIT-CAM WFS — UsoDelSuelo:VPLA_V_CLASIFICACION (https://idem.comunidad.madrid/geosrvg/ows)", "fecha_dato": "2026-05-12", "ambito": "81", "_raw_CD_SIGLAS": "SNUP", "_raw_DS_CLASIF_GEN": "Suelo No Urbanizable Protegido", "_raw_DS_CLASIF_DET": "Suelo No Urbanizable de Especial Protección Interés Agropecuario", "_raw_DS_DOCU": "NORMAS SUBSIDIARIAS", "_raw_DS_LEY": "CM Ley 4/1984, E RD 1346/1976", "_raw_FC_AC": "1986-04-10", "_raw_NM_AREA_M2": 1084574.3036496199, "_cam_code": "070" }, "geometry": { "type": "Polygon", "coordinates": [ [ [ -3.5669, 41.0923 ], [ -3.5667, 41.093 ], [ -3.5668, 41.0937 ], [ -3.5674, 41.0944 ], [ -3.5675, 41.0946 ], [ -3.5675, 41.0949 ], [ -3.5674, 41.0949 ], [ -3.5676, 41.0951 ], [ -3.5677, 41.0955 ], [ -3.5682, 41.096 ], [ -3.5684, 41.0965 ], [ -3.5683, 41.0968 ], [ -3.568, 41.097 ], [ -3.568, 41.0972 ], [ -3.5683, 41.0974 ], [ -3.569, 41.0974 ], [ -3.57, 41.097 ], [ -3.5703, 41.0967 ], [ -3.5709, 41.0966 ], [ -3.5711, 41.0964 ], [ -3.5712, 41.0962 ], [ -3.5711, 41.0954 ], [ -3.5713, 41.0949 ], [ -3.5713, 41.0943 ], [ -3.572, 41.0929 ], [ -3.5724, 41.0926 ], [ -3.5728, 41.0926 ], [ -3.5735, 41.0931 ], [ -3.5736, 41.0933 ], [ -3.5735, 41.0934 ], [ -3.5735, 41.094 ], [ -3.5738, 41.0948 ], [ -3.574, 41.095 ], [ -3.5742, 41.0959 ], [ -3.575, 41.0967 ], [ -3.5755, 41.0968 ], [ -3.5757, 41.0965 ], [ -3.5761, 41.0966 ], [ -3.5768, 41.0956 ], [ -3.5773, 41.0953 ], [ -3.5782, 41.0958 ], [ -3.5787, 41.0964 ], [ -3.5788, 41.0963 ], [ -3.5788, 41.0964 ], [ -3.5789, 41.0963 ], [ -3.5789, 41.0964 ], [ -3.5799, 41.0964 ], [ -3.5799, 41.095 ], [ -3.5803, 41.0943 ], [ -3.581, 41.0942 ], [ -3.5817, 41.0945 ], [ -3.5822, 41.0944 ], [ -3.5839, 41.0929 ], [ -3.584, 41.0923 ], [ -3.5836, 41.092 ], [ -3.5823, 41.0918 ], [ -3.5823, 41.0906 ], [ -3.582, 41.0897 ], [ -3.5815, 41.0895 ], [ -3.5812, 41.0896 ], [ -3.5803, 41.0895 ], [ -3.5791, 41.0883 ], [ -3.5782, 41.087 ], [ -3.5779, 41.0873 ], [ -3.5763, 41.0876 ], [ -3.5763, 41.0877 ], [ -3.5754, 41.0875 ], [ -3.5747, 41.0875 ], [ -3.5746, 41.0876 ], [ -3.5736, 41.0876 ], [ -3.5727, 41.0874 ], [ -3.5715, 41.0875 ], [ -3.5687, 41.0883 ], [ -3.5679, 41.0887 ], [ -3.5664, 41.0892 ], [ -3.5664, 41.0899 ], [ -3.5667, 41.0903 ], [ -3.5667, 41.0909 ], [ -3.5665, 41.0913 ], [ -3.5665, 41.0916 ], [ -3.5669, 41.0923 ] ] ] } },
{ "type": "Feature", "properties": { "municipio": "Horcajo de la Sierra-Aoslos", "clasificacion": "no-urbanizable-protegido", "calificacion": "sin-asignar", "version": "vigente", "fuente": "SIT-CAM WFS — UsoDelSuelo:VPLA_V_CLASIFICACION (https://idem.comunidad.madrid/geosrvg/ows)", "fecha_dato": "2026-05-12", "ambito": "81", "_raw_CD_SIGLAS": "SNUP", "_raw_DS_CLASIF_GEN": "Suelo No Urbanizable Protegido", "_raw_DS_CLASIF_DET": "Suelo No Urbanizable de Especial Protección Interés Agropecuario", "_raw_DS_DOCU": "NORMAS SUBSIDIARIAS", "_raw_DS_LEY": "CM Ley 4/1984, E RD 1346/1976", "_raw_FC_AC": "1986-04-10", "_raw_NM_AREA_M2": 4745331.3202888202, "_cam_code": "070" }, "geometry": { "type": "Polygon", "coordinates": [ [ [ -3.5894, 41.0802 ], [ -3.5894, 41.0797 ], [ -3.5897, 41.0789 ], [ -3.5897, 41.078 ], [ -3.5894, 41.0768 ], [ -3.5895, 41.0763 ], [ -3.5893, 41.0752 ], [ -3.5885, 41.0733 ], [ -3.5884, 41.0726 ], [ -3.5873, 41.0716 ], [ -3.5873, 41.0722 ], [ -3.587, 41.0728 ], [ -3.5863, 41.0736 ], [ -3.5842, 41.0752 ], [ -3.5837, 41.0752 ], [ -3.5821, 41.0757 ], [ -3.5819, 41.076 ], [ -3.5806, 41.0769 ], [ -3.5798, 41.0777 ], [ -3.5796, 41.0784 ], [ -3.5778, 41.078 ], [ -3.5763, 41.078 ], [ -3.5748, 41.0786 ], [ -3.5745, 41.0786 ], [ -3.5741, 41.0784 ], [ -3.5737, 41.0776 ], [ -3.5737, 41.0765 ], [ -3.5725, 41.0757 ], [ -3.5714, 41.0756 ], [ -3.5712, 41.0757 ], [ -3.571, 41.0755 ], [ -3.5708, 41.0746 ], [ -3.5705, 41.0742 ], [ -3.5705, 41.0739 ], [ -3.5721, 41.0725 ], [ -3.574, 41.0717 ], [ -3.5741, 41.0711 ], [ -3.574, 41.0709 ], [ -3.5741, 41.0709 ], [ -3.5741, 41.0707 ], [ -3.5746, 41.0705 ], [ -3.575, 41.0694 ], [ -3.5756, 41.0692 ], [ -3.5767, 41.0681 ], [ -3.5769, 41.0668 ], [ -3.5774, 41.0664 ], [ -3.5783, 41.0651 ], [ -3.5793, 41.0644 ], [ -3.5794, 41.0642 ], [ -3.5799, 41.064 ], [ -3.5803, 41.0635 ], [ -3.5813, 41.0632 ], [ -3.5825, 41.0631 ], [ -3.5837, 41.0636 ], [ -3.5848, 41.0636 ], [ -3.5853, 41.0634 ], [ -3.5861, 41.0628 ], [ -3.5865, 41.061 ], [ -3.5866, 41.0583 ], [ -3.5865, 41.0576 ], [ -3.5871, 41.0571 ], [ -3.5871, 41.0567 ], [ -3.5865, 41.0547 ], [ -3.5865, 41.0538 ], [ -3.5863, 41.0529 ], [ -3.5862, 41.0484 ], [ -3.5865, 41.0478 ], [ -3.5865, 41.0467 ], [ -3.5868, 41.046 ], [ -3.5869, 41.0459 ], [ -3.5874, 41.0459 ], [ -3.5873, 41.0455 ], [ -3.5887, 41.0446 ], [ -3.5886, 41.0444 ], [ -3.5879, 41.0442 ], [ -3.5875, 41.0437 ], [ -3.5875, 41.0435 ], [ -3.5874, 41.0434 ], [ -3.5874, 41.0435 ], [ -3.5875, 41.0436 ], [ -3.5876, 41.0438 ], [ -3.5879, 41.0441 ], [ -3.5881, 41.044 ], [ -3.589, 41.044 ], [ -3.5893, 41.0441 ], [ -3.5893, 41.0448 ], [ -3.5895, 41.0453 ], [ -3.5895, 41.0472 ], [ -3.5893, 41.0477 ], [ -3.5893, 41.0481 ], [ -3.5889, 41.0488 ], [ -3.5886, 41.0498 ], [ -3.5886, 41.0502 ], [ -3.589, 41.0514 ], [ -3.5894, 41.052 ], [ -3.5896, 41.053 ], [ -3.5895, 41.0535 ], [ -3.5896, 41.0542 ], [ -3.5888, 41.0558 ], [ -3.5889, 41.0564 ], [ -3.5892, 41.0568 ], [ -3.5899, 41.0569 ], [ -3.5905, 41.0566 ], [ -3.5905, 41.0561 ], [ -3.5902, 41.0558 ], [ -3.5902, 41.0546 ], [ -3.591, 41.0535 ], [ -3.591, 41.053 ], [ -3.5907, 41.052 ], [ -3.5908, 41.052 ], [ -3.5911, 41.0514 ], [ -3.591, 41.0513 ], [ -3.591, 41.0508 ], [ -3.5916, 41.0503 ], [ -3.592, 41.0493 ], [ -3.5922, 41.0491 ], [ -3.593, 41.0487 ], [ -3.5939, 41.0485 ], [ -3.5961, 41.0495 ], [ -3.5961, 41.0496 ], [ -3.597, 41.0498 ], [ -3.6002, 41.0509 ], [ -3.6047, 41.0543 ], [ -3.6069, 41.0567 ], [ -3.607, 41.0584 ], [ -3.6048, 41.0587 ], [ -3.6027, 41.0599 ], [ -3.602, 41.0604 ], [ -3.6018, 41.0607 ], [ -3.6021, 41.0617 ], [ -3.6029, 41.0625 ], [ -3.6035, 41.0626 ], [ -3.6043, 41.0624 ], [ -3.6066, 41.0632 ], [ -3.6072, 41.0636 ], [ -3.6096, 41.0672 ], [ -3.6096, 41.0693 ], [ -3.6095, 41.0696 ], [ -3.6087, 41.0686 ], [ -3.6083, 41.0678 ], [ -3.6074, 41.0671 ], [ -3.6071, 41.067 ], [ -3.6071, 41.0669 ], [ -3.6066, 41.0668 ], [ -3.6064, 41.0666 ], [ -3.6054, 41.0662 ], [ -3.6053, 41.066 ], [ -3.6049, 41.0661 ], [ -3.6049, 41.066 ], [ -3.6038, 41.0656 ], [ -3.6029, 41.0655 ], [ -3.6011, 41.065 ], [ -3.6, 41.0649 ], [ -3.6, 41.0648 ], [ -3.5988, 41.0647 ], [ -3.5988, 41.0646 ], [ -3.5983, 41.0645 ], [ -3.598, 41.0642 ], [ -3.5974, 41.064 ], [ -3.5974, 41.0639 ], [ -3.5965, 41.0636 ], [ -3.5965, 41.0635 ], [ -3.5943, 41.0623 ], [ -3.5933, 41.0621 ], [ -3.5929, 41.0623 ], [ -3.5924, 41.0627 ], [ -3.5924, 41.0639 ], [ -3.5923, 41.0641 ], [ -3.5915, 41.0647 ], [ -3.5915, 41.0649 ], [ -3.5933, 41.0656 ], [ -3.5948, 41.067 ], [ -3.5957, 41.0676 ], [ -3.598, 41.0685 ], [ -3.5984, 41.0688 ], [ -3.5996, 41.0693 ], [ -3.6008, 41.0701 ], [ -3.6012, 41.0706 ], [ -3.601, 41.0715 ], [ -3.601, 41.0722 ], [ -3.6023, 41.0735 ], [ -3.6019, 41.0739 ], [ -3.6017, 41.0746 ], [ -3.6016, 41.0746 ], [ -3.6016, 41.0764 ], [ -3.6006, 41.0769 ], [ -3.5994, 41.0767 ], [ -3.5989, 41.0768 ], [ -3.5986, 41.0769 ], [ -3.5983, 41.0773 ], [ -3.598, 41.0773 ], [ -3.5977, 41.077 ], [ -3.5976, 41.0767 ], [ -3.5969, 41.0762 ], [ -3.5967, 41.0762 ], [ -3.5963, 41.0757 ], [ -3.5959, 41.0746 ], [ -3.5957, 41.073 ], [ -3.5952, 41.0721 ], [ -3.5952, 41.0719 ], [ -3.5941, 41.0706 ], [ -3.5927, 41.0694 ], [ -3.5909, 41.0684 ], [ -3.5891, 41.067 ], [ -3.5886, 41.067 ], [ -3.5884, 41.0672 ], [ -3.5883, 41.0676 ], [ -3.588, 41.0679 ], [ -3.588, 41.0684 ], [ -3.5877, 41.0687 ], [ -3.5877, 41.0695 ], [ -3.5876, 41.0696 ], [ -3.5881, 41.071 ], [ -3.5883, 41.0712 ], [ -3.5885, 41.0722 ], [ -3.5888, 41.0723 ], [ -3.5899, 41.0743 ], [ -3.5904, 41.0757 ], [ -3.5907, 41.0762 ], [ -3.5909, 41.0772 ], [ -3.5912, 41.0778 ], [ -3.5913, 41.0778 ], [ -3.591, 41.0782 ], [ -3.591, 41.0785 ], [ -3.5908, 41.0788 ], [ -3.5908, 41.0796 ], [ -3.591, 41.0802 ], [ -3.5917, 41.0801 ], [ -3.5917, 41.0806 ], [ -3.5909, 41.0819 ], [ -3.5896, 41.0829 ], [ -3.5894, 41.0829 ], [ -3.5892, 41.0831 ], [ -3.5886, 41.0831 ], [ -3.5885, 41.0829 ], [ -3.5886, 41.0826 ], [ -3.5886, 41.081 ], [ -3.5894, 41.0802 ] ], [ [ -3.5958, 41.0573 ], [ -3.5954, 41.0572 ], [ -3.5953, 41.057 ], [ -3.5953, 41.0571 ], [ -3.5949, 41.057 ], [ -3.5952, 41.0567 ], [ -3.5958, 41.0565 ], [ -3.5957, 41.0562 ], [ -3.596, 41.0557 ], [ -3.5953, 41.0554 ], [ -3.5954, 41.0551 ], [ -3.5961, 41.055 ], [ -3.5965, 41.0545 ], [ -3.5972, 41.0545 ], [ -3.5971, 41.0543 ], [ -3.5979, 41.053 ], [ -3.5983, 41.0532 ], [ -3.5984, 41.0531 ], [ -3.5986, 41.0532 ], [ -3.5996, 41.0527 ], [ -3.5996, 41.0528 ], [ -3.6004, 41.0529 ], [ -3.6001, 41.0537 ], [ -3.5997, 41.0536 ], [ -3.5998, 41.0543 ], [ -3.5982, 41.0544 ], [ -3.5977, 41.0552 ], [ -3.5972, 41.0557 ], [ -3.5974, 41.056 ], [ -3.5962, 41.0572 ], [ -3.596, 41.057 ], [ -3.5958, 41.0573 ] ], [ [ -3.5866, 41.067 ], [ -3.5865, 41.0677 ], [ -3.5863, 41.0679 ], [ -3.5862, 41.0685 ], [ -3.5853, 41.069 ], [ -3.5845, 41.069 ], [ -3.5843, 41.0688 ], [ -3.5844, 41.0686 ], [ -3.5841, 41.0682 ], [ -3.5837, 41.0684 ], [ -3.5834, 41.0684 ], [ -3.5833, 41.0682 ], [ -3.5834, 41.068 ], [ -3.583, 41.0675 ], [ -3.5837, 41.0675 ], [ -3.5836, 41.067 ], [ -3.584, 41.0669 ], [ -3.5839, 41.0666 ], [ -3.5842, 41.0665 ], [ -3.5846, 41.0666 ], [ -3.5847, 41.0656 ], [ -3.585, 41.0653 ], [ -3.585, 41.0654 ], [ -3.5852, 41.0654 ], [ -3.5853, 41.0653 ], [ -3.5852, 41.0653 ], [ -3.5852, 41.0651 ], [ -3.5855, 41.065 ], [ -3.5857, 41.0653 ], [ -3.5866, 41.0654 ], [ -3.5866, 41.066 ], [ -3.5865, 41.066 ], [ -3.5867, 41.0665 ], [ -3.5866, 41.0665 ], [ -3.5866, 41.0669 ], [ -3.5865, 41.0668 ], [ -3.5865, 41.067 ], [ -3.5866, 41.067 ] ] ] } },
{ "type": "Feature", "properties": { "municipio": "Horcajo de la Sierra-Aoslos", "clasificacion": "urbano-consolidado", "calificacion": "sin-asignar", "version": "vigente", "fuente": "SIT-CAM WFS — UsoDelSuelo:VPLA_V_CLASIFICACION (https://idem.comunidad.madrid/geosrvg/ows)", "fecha_dato": "2026-05-12", "ambito": "81", "_raw_CD_SIGLAS": "SU", "_raw_DS_CLASIF_GEN": "Suelo Urbano", "_raw_DS_CLASIF_DET": "Suelo Urbano", "_raw_DS_DOCU": "NORMAS SUBSIDIARIAS", "_raw_DS_LEY": "CM Ley 4/1984, E RD 1346/1976", "_raw_FC_AC": "1986-04-10", "_raw_NM_AREA_M2": 80365.481248573604, "_cam_code": "070" }, "geometry": { "type": "Polygon", "coordinates": [ [ [ -3.584, 41.0682 ], [ -3.5844, 41.0686 ], [ -3.5843, 41.0688 ], [ -3.5845, 41.069 ], [ -3.5853, 41.069 ], [ -3.5862, 41.0685 ], [ -3.5863, 41.0679 ], [ -3.5865, 41.0677 ], [ -3.5865, 41.0673 ], [ -3.5866, 41.0673 ], [ -3.5865, 41.0668 ], [ -3.5866, 41.0669 ], [ -3.5866, 41.0665 ], [ -3.5867, 41.0665 ], [ -3.5865, 41.066 ], [ -3.5866, 41.066 ], [ -3.5866, 41.0654 ], [ -3.5857, 41.0653 ], [ -3.5855, 41.065 ], [ -3.5852, 41.0651 ], [ -3.5852, 41.0653 ], [ -3.5853, 41.0653 ], [ -3.5852, 41.0654 ], [ -3.585, 41.0654 ], [ -3.585, 41.0653 ], [ -3.5847, 41.0656 ], [ -3.5846, 41.0666 ], [ -3.5844, 41.0665 ], [ -3.5839, 41.0666 ], [ -3.584, 41.0669 ], [ -3.5836, 41.067 ], [ -3.5837, 41.0675 ], [ -3.583, 41.0675 ], [ -3.5834, 41.068 ], [ -3.5833, 41.0681 ], [ -3.5834, 41.0684 ], [ -3.5837, 41.0684 ], [ -3.584, 41.0682 ] ] ] } },
{ "type": "Feature", "properties": { "municipio": "Horcajo de la Sierra-Aoslos", "clasificacion": "urbano-consolidado", "calificacion": "sin-asignar", "version": "vigente", "fuente": "SIT-CAM WFS — UsoDelSuelo:VPLA_V_CLASIFICACION (https://idem.comunidad.madrid/geosrvg/ows)", "fecha_dato": "2026-05-12", "ambito": "81", "_raw_CD_SIGLAS": "SU", "_raw_DS_CLASIF_GEN": "Suelo Urbano", "_raw_DS_CLASIF_DET": "Suelo Urbano", "_raw_DS_DOCU": "NORMAS SUBSIDIARIAS", "_raw_DS_LEY": "CM Ley 4/1984, E RD 1346/1976", "_raw_FC_AC": "1986-04-10", "_raw_NM_AREA_M2": 73038.528427679805, "_cam_code": "070" }, "geometry": { "type": "Polygon", "coordinates": [ [ [ -3.5954, 41.0571 ], [ -3.5953, 41.0571 ], [ -3.5958, 41.0573 ], [ -3.596, 41.057 ], [ -3.5962, 41.0572 ], [ -3.5974, 41.056 ], [ -3.5972, 41.0557 ], [ -3.5977, 41.0552 ], [ -3.5982, 41.0544 ], [ -3.5998, 41.0543 ], [ -3.5997, 41.0536 ], [ -3.6001, 41.0537 ], [ -3.6004, 41.0529 ], [ -3.5996, 41.0528 ], [ -3.5996, 41.0527 ], [ -3.5986, 41.0532 ], [ -3.5985, 41.0531 ], [ -3.5983, 41.0532 ], [ -3.5979, 41.053 ], [ -3.5971, 41.0543 ], [ -3.5972, 41.0545 ], [ -3.5965, 41.0545 ], [ -3.5961, 41.055 ], [ -3.5954, 41.0551 ], [ -3.5953, 41.0554 ], [ -3.596, 41.0557 ], [ -3.5957, 41.0562 ], [ -3.5958, 41.0565 ], [ -3.5956, 41.0565 ], [ -3.5949, 41.0569 ], [ -3.5949, 41.057 ], [ -3.5954, 41.0571 ] ] ] } },
{ "type": "Feature", "properties": { "municipio": "Horcajo de la Sierra-Aoslos", "clasificacion": "urbanizable-no-sectorizado", "calificacion": "sin-asignar", "version": "vigente", "fuente": "SIT-CAM WFS — UsoDelSuelo:VPLA_V_CLASIFICACION (https://idem.comunidad.madrid/geosrvg/ows)", "fecha_dato": "2026-05-12", "ambito": "81", "_raw_CD_SIGLAS": "SUBNS", "_raw_DS_CLASIF_GEN": "Suelo No Urbanizable Común", "_raw_DS_CLASIF_DET": "Suelo No Urbanizable Común", "_raw_DS_DOCU": "NORMAS SUBSIDIARIAS", "_raw_DS_LEY": "CM Ley 4/1984, E RD 1346/1976", "_raw_FC_AC": "1986-04-10", "_raw_NM_AREA_M2": 5456358.3415839104, "_cam_code": "070" }, "geometry": { "type": "Polygon", "coordinates": [ [ [ -3.5776, 41.1021 ], [ -3.5765, 41.1023 ], [ -3.5764, 41.1025 ], [ -3.5764, 41.1029 ], [ -3.5768, 41.1034 ], [ -3.5775, 41.1039 ], [ -3.5776, 41.1041 ], [ -3.579, 41.1047 ], [ -3.5793, 41.105 ], [ -3.5818, 41.1033 ], [ -3.5821, 41.1029 ], [ -3.5836, 41.1017 ], [ -3.5837, 41.1015 ], [ -3.5875, 41.0988 ], [ -3.5883, 41.0985 ], [ -3.5891, 41.0985 ], [ -3.5892, 41.0986 ], [ -3.5909, 41.0986 ], [ -3.5909, 41.0985 ], [ -3.5935, 41.0986 ], [ -3.5951, 41.0971 ], [ -3.5962, 41.0966 ], [ -3.5982, 41.0954 ], [ -3.5992, 41.0953 ], [ -3.5998, 41.0961 ], [ -3.6002, 41.0957 ], [ -3.601, 41.0954 ], [ -3.6011, 41.0949 ], [ -3.6006, 41.0942 ], [ -3.6007, 41.094 ], [ -3.6012, 41.0939 ], [ -3.6014, 41.0937 ], [ -3.6014, 41.0932 ], [ -3.6012, 41.0925 ], [ -3.6011, 41.0924 ], [ -3.6006, 41.0924 ], [ -3.6005, 41.0922 ], [ -3.6008, 41.0919 ], [ -3.602, 41.0917 ], [ -3.6022, 41.0915 ], [ -3.6022, 41.091 ], [ -3.6026, 41.0909 ], [ -3.6026, 41.0908 ], [ -3.6028, 41.0909 ], [ -3.6044, 41.0908 ], [ -3.6053, 41.0913 ], [ -3.6058, 41.0913 ], [ -3.606, 41.0909 ], [ -3.6057, 41.0897 ], [ -3.6058, 41.0897 ], [ -3.6059, 41.0892 ], [ -3.6066, 41.0886 ], [ -3.6066, 41.0881 ], [ -3.6062, 41.0878 ], [ -3.6064, 41.0875 ], [ -3.6064, 41.0868 ], [ -3.6068, 41.0865 ], [ -3.6072, 41.0865 ], [ -3.6075, 41.0863 ], [ -3.6075, 41.086 ], [ -3.6074, 41.086 ], [ -3.6074, 41.0858 ], [ -3.6066, 41.0847 ], [ -3.6065, 41.0842 ], [ -3.6065, 41.084 ], [ -3.6067, 41.0838 ], [ -3.6073, 41.0837 ], [ -3.6074, 41.0835 ], [ -3.607, 41.083 ], [ -3.6059, 41.0824 ], [ -3.6057, 41.0824 ], [ -3.6055, 41.0822 ], [ -3.6055, 41.0819 ], [ -3.6063, 41.0817 ], [ -3.6064, 41.0813 ], [ -3.6063, 41.0812 ], [ -3.6054, 41.0812 ], [ -3.6053, 41.0811 ], [ -3.6054, 41.0806 ], [ -3.605, 41.0803 ], [ -3.6049, 41.0791 ], [ -3.6058, 41.0789 ], [ -3.6058, 41.0786 ], [ -3.6045, 41.0774 ], [ -3.6029, 41.0776 ], [ -3.6026, 41.0775 ], [ -3.6023, 41.0772 ], [ -3.6021, 41.0767 ], [ -3.6016, 41.0764 ], [ -3.6006, 41.0769 ], [ -3.5994, 41.0767 ], [ -3.5989, 41.0768 ], [ -3.5986, 41.0769 ], [ -3.5983, 41.0773 ], [ -3.598, 41.0773 ], [ -3.5977, 41.077 ], [ -3.5976, 41.0767 ], [ -3.5969, 41.0762 ], [ -3.5967, 41.0762 ], [ -3.5963, 41.0757 ], [ -3.5959, 41.0746 ], [ -3.5957, 41.073 ], [ -3.5952, 41.0721 ], [ -3.5952, 41.0719 ], [ -3.5941, 41.0706 ], [ -3.5927, 41.0694 ], [ -3.5909, 41.0684 ], [ -3.5891, 41.067 ], [ -3.5886, 41.067 ], [ -3.5884, 41.0672 ], [ -3.5883, 41.0676 ], [ -3.588, 41.0679 ], [ -3.588, 41.0684 ], [ -3.5877, 41.0687 ], [ -3.5877, 41.0695 ], [ -3.5876, 41.0696 ], [ -3.5881, 41.071 ], [ -3.5883, 41.0712 ], [ -3.5885, 41.0722 ], [ -3.5888, 41.0723 ], [ -3.5899, 41.0743 ], [ -3.5904, 41.0757 ], [ -3.5907, 41.0762 ], [ -3.5909, 41.0772 ], [ -3.5912, 41.0778 ], [ -3.5913, 41.0778 ], [ -3.591, 41.0782 ], [ -3.591, 41.0785 ], [ -3.5908, 41.0788 ], [ -3.5908, 41.0796 ], [ -3.591, 41.0802 ], [ -3.5917, 41.0801 ], [ -3.5917, 41.0806 ], [ -3.5909, 41.0819 ], [ -3.5896, 41.0829 ], [ -3.5894, 41.0829 ], [ -3.5892, 41.0831 ], [ -3.5886, 41.0831 ], [ -3.5885, 41.0829 ], [ -3.5886, 41.0826 ], [ -3.5886, 41.081 ], [ -3.5894, 41.0802 ], [ -3.5894, 41.0797 ], [ -3.5897, 41.0789 ], [ -3.5897, 41.078 ], [ -3.5894, 41.0768 ], [ -3.5895, 41.0763 ], [ -3.5893, 41.0752 ], [ -3.5885, 41.0733 ], [ -3.5884, 41.0726 ], [ -3.5873, 41.0716 ], [ -3.5873, 41.0722 ], [ -3.587, 41.0728 ], [ -3.5863, 41.0736 ], [ -3.5842, 41.0752 ], [ -3.5837, 41.0752 ], [ -3.5821, 41.0757 ], [ -3.5819, 41.076 ], [ -3.5806, 41.0769 ], [ -3.5798, 41.0777 ], [ -3.5796, 41.0783 ], [ -3.5798, 41.0791 ], [ -3.58, 41.0792 ], [ -3.5801, 41.0795 ], [ -3.5806, 41.0801 ], [ -3.5806, 41.0805 ], [ -3.5808, 41.0807 ], [ -3.5807, 41.0819 ], [ -3.5816, 41.0826 ], [ -3.5818, 41.0829 ], [ -3.5822, 41.0839 ], [ -3.5823, 41.0845 ], [ -3.5821, 41.0849 ], [ -3.5808, 41.0857 ], [ -3.5806, 41.0857 ], [ -3.5785, 41.0868 ], [ -3.5785, 41.0869 ], [ -3.5782, 41.0869 ], [ -3.5782, 41.087 ], [ -3.5791, 41.0883 ], [ -3.5803, 41.0895 ], [ -3.5807, 41.0896 ], [ -3.5815, 41.0895 ], [ -3.582, 41.0897 ], [ -3.5823, 41.0906 ], [ -3.5823, 41.0918 ], [ -3.5838, 41.0921 ], [ -3.584, 41.0923 ], [ -3.584, 41.0927 ], [ -3.5838, 41.093 ], [ -3.5831, 41.0935 ], [ -3.5822, 41.0944 ], [ -3.5817, 41.0945 ], [ -3.581, 41.0942 ], [ -3.5807, 41.0942 ], [ -3.5803, 41.0943 ], [ -3.58, 41.0947 ], [ -3.5799, 41.095 ], [ -3.5799, 41.0964 ], [ -3.5801, 41.0975 ], [ -3.5809, 41.0979 ], [ -3.5811, 41.0981 ], [ -3.5812, 41.0985 ], [ -3.5812, 41.0988 ], [ -3.5809, 41.0992 ], [ -3.5801, 41.0996 ], [ -3.5794, 41.0995 ], [ -3.5788, 41.1001 ], [ -3.579, 41.1009 ], [ -3.5792, 41.101 ], [ -3.5795, 41.1015 ], [ -3.58, 41.1017 ], [ -3.58, 41.102 ], [ -3.5796, 41.1022 ], [ -3.5777, 41.1022 ], [ -3.5776, 41.1021 ] ] ] } },
{ "type": "Feature", "properties": { "municipio": "Horcajo de la Sierra-Aoslos", "clasificacion": "urbanizable-no-sectorizado", "calificacion": "sin-asignar", "version": "vigente", "fuente": "SIT-CAM WFS — UsoDelSuelo:VPLA_V_CLASIFICACION (https://idem.comunidad.madrid/geosrvg/ows)", "fecha_dato": "2026-05-12", "ambito": "81", "_raw_CD_SIGLAS": "SUBNS", "_raw_DS_CLASIF_GEN": "Suelo No Urbanizable Común", "_raw_DS_CLASIF_DET": "Suelo No Urbanizable Común", "_raw_DS_DOCU": "NORMAS SUBSIDIARIAS", "_raw_DS_LEY": "CM Ley 4/1984, E RD 1346/1976", "_raw_FC_AC": "1986-04-10", "_raw_NM_AREA_M2": 755352.89039665402, "_cam_code": "070" }, "geometry": { "type": "Polygon", "coordinates": [ [ [ -3.6006, 41.07 ], [ -3.6012, 41.0706 ], [ -3.601, 41.0715 ], [ -3.601, 41.0722 ], [ -3.6019, 41.0732 ], [ -3.6023, 41.0734 ], [ -3.6026, 41.0731 ], [ -3.6041, 41.0722 ], [ -3.6045, 41.0718 ], [ -3.6054, 41.0715 ], [ -3.607, 41.0703 ], [ -3.6074, 41.0698 ], [ -3.608, 41.0701 ], [ -3.6091, 41.0715 ], [ -3.6095, 41.0716 ], [ -3.6095, 41.0696 ], [ -3.6087, 41.0686 ], [ -3.6083, 41.0678 ], [ -3.6074, 41.0671 ], [ -3.6071, 41.067 ], [ -3.6071, 41.0669 ], [ -3.6066, 41.0668 ], [ -3.6064, 41.0666 ], [ -3.6056, 41.0663 ], [ -3.6056, 41.0662 ], [ -3.6054, 41.0662 ], [ -3.6053, 41.066 ], [ -3.6049, 41.0661 ], [ -3.6049, 41.066 ], [ -3.6038, 41.0656 ], [ -3.6029, 41.0655 ], [ -3.6011, 41.065 ], [ -3.6, 41.0649 ], [ -3.6, 41.0648 ], [ -3.5988, 41.0647 ], [ -3.5988, 41.0646 ], [ -3.5983, 41.0645 ], [ -3.598, 41.0642 ], [ -3.5974, 41.064 ], [ -3.5974, 41.0639 ], [ -3.5965, 41.0636 ], [ -3.5965, 41.0635 ], [ -3.5947, 41.0625 ], [ -3.5937, 41.0621 ], [ -3.5933, 41.0621 ], [ -3.5924, 41.0627 ], [ -3.5924, 41.0639 ], [ -3.5919, 41.0645 ], [ -3.5915, 41.0647 ], [ -3.5916, 41.065 ], [ -3.5933, 41.0656 ], [ -3.5952, 41.0673 ], [ -3.5996, 41.0693 ], [ -3.6006, 41.07 ] ] ] } },
{ "type": "Feature", "properties": { "municipio": "Horcajo de la Sierra-Aoslos", "clasificacion": "urbanizable-no-sectorizado", "calificacion": "sin-asignar", "version": "vigente", "fuente": "SIT-CAM WFS — UsoDelSuelo:VPLA_V_CLASIFICACION (https://idem.comunidad.madrid/geosrvg/ows)", "fecha_dato": "2026-05-12", "ambito": "81", "_raw_CD_SIGLAS": "SUBNS", "_raw_DS_CLASIF_GEN": "Suelo No Urbanizable Común", "_raw_DS_CLASIF_DET": "Suelo No Urbanizable Común", "_raw_DS_DOCU": "NORMAS SUBSIDIARIAS", "_raw_DS_LEY": "CM Ley 4/1984, E RD 1346/1976", "_raw_FC_AC": "1986-04-10", "_raw_NM_AREA_M2": 1290204.4620010101, "_cam_code": "070" }, "geometry": { "type": "Polygon", "coordinates": [ [ [ -3.571, 41.0713 ], [ -3.5734, 41.0711 ], [ -3.5746, 41.0705 ], [ -3.575, 41.0694 ], [ -3.5756, 41.0692 ], [ -3.5767, 41.0681 ], [ -3.5769, 41.0668 ], [ -3.5774, 41.0664 ], [ -3.5783, 41.0651 ], [ -3.5793, 41.0644 ], [ -3.5794, 41.0642 ], [ -3.5799, 41.064 ], [ -3.5803, 41.0635 ], [ -3.5813, 41.0632 ], [ -3.5825, 41.0631 ], [ -3.5837, 41.0636 ], [ -3.5848, 41.0636 ], [ -3.5853, 41.0634 ], [ -3.5861, 41.0628 ], [ -3.5865, 41.061 ], [ -3.5866, 41.0591 ], [ -3.5865, 41.0576 ], [ -3.5863, 41.0579 ], [ -3.585, 41.0586 ], [ -3.5806, 41.0595 ], [ -3.5778, 41.059 ], [ -3.5728, 41.0588 ], [ -3.5694, 41.0589 ], [ -3.5689, 41.0596 ], [ -3.5682, 41.0601 ], [ -3.5679, 41.0607 ], [ -3.5678, 41.0607 ], [ -3.5677, 41.0611 ], [ -3.5678, 41.0612 ], [ -3.5678, 41.0614 ], [ -3.5677, 41.0614 ], [ -3.5679, 41.0618 ], [ -3.568, 41.0618 ], [ -3.5682, 41.0624 ], [ -3.5691, 41.0632 ], [ -3.5695, 41.0639 ], [ -3.5694, 41.0653 ], [ -3.5696, 41.0658 ], [ -3.5696, 41.0665 ], [ -3.5695, 41.0675 ], [ -3.5694, 41.0675 ], [ -3.5694, 41.0679 ], [ -3.5692, 41.0681 ], [ -3.5692, 41.0685 ], [ -3.5691, 41.0685 ], [ -3.5689, 41.0704 ], [ -3.5694, 41.0705 ], [ -3.5704, 41.0704 ], [ -3.571, 41.0709 ], [ -3.571, 41.0713 ] ] ] } },
{ "type": "Feature", "properties": { "municipio": "Horcajo de la Sierra-Aoslos", "clasificacion": "urbanizable-no-sectorizado", "calificacion": "sin-asignar", "version": "vigente", "fuente": "SIT-CAM WFS — UsoDelSuelo:VPLA_V_CLASIFICACION (https://idem.comunidad.madrid/geosrvg/ows)", "fecha_dato": "2026-05-12", "ambito": "81", "_raw_CD_SIGLAS": "SUBNS", "_raw_DS_CLASIF_GEN": "Suelo No Urbanizable Común", "_raw_DS_CLASIF_DET": "Suelo No Urbanizable Común", "_raw_DS_DOCU": "NORMAS SUBSIDIARIAS", "_raw_DS_LEY": "CM Ley 4/1984, E RD 1346/1976", "_raw_FC_AC": "1986-04-10", "_raw_NM_AREA_M2": 170491.92578042299, "_cam_code": "070" }, "geometry": { "type": "Polygon", "coordinates": [ [ [ -3.6043, 41.0624 ], [ -3.6066, 41.0632 ], [ -3.6072, 41.0636 ], [ -3.607, 41.0584 ], [ -3.6048, 41.0587 ], [ -3.603, 41.0597 ], [ -3.6019, 41.0605 ], [ -3.6018, 41.0607 ], [ -3.602, 41.0615 ], [ -3.6026, 41.0623 ], [ -3.6033, 41.0626 ], [ -3.6043, 41.0624 ] ] ] } },
{ "type": "Feature", "properties": { "municipio": "Horcajo de la Sierra-Aoslos", "clasificacion": "urbanizable-no-sectorizado", "calificacion": "sin-asignar", "version": "vigente", "fuente": "SIT-CAM WFS — UsoDelSuelo:VPLA_V_CLASIFICACION (https://idem.comunidad.madrid/geosrvg/ows)", "fecha_dato": "2026-05-12", "ambito": "81", "_raw_CD_SIGLAS": "SUBNS", "_raw_DS_CLASIF_GEN": "Suelo No Urbanizable Común", "_raw_DS_CLASIF_DET": "Suelo No Urbanizable Común", "_raw_DS_DOCU": "NORMAS SUBSIDIARIAS", "_raw_DS_LEY": "CM Ley 4/1984, E RD 1346/1976", "_raw_FC_AC": "1986-04-10", "_raw_NM_AREA_M2": 245501.65671070601, "_cam_code": "070" }, "geometry": { "type": "Polygon", "coordinates": [ [ [ -3.5888, 41.0558 ], [ -3.5889, 41.0564 ], [ -3.5894, 41.0569 ], [ -3.5899, 41.0569 ], [ -3.5905, 41.0566 ], [ -3.5905, 41.0561 ], [ -3.5902, 41.0558 ], [ -3.5902, 41.0546 ], [ -3.591, 41.0535 ], [ -3.591, 41.053 ], [ -3.5907, 41.0522 ], [ -3.5907, 41.052 ], [ -3.5908, 41.052 ], [ -3.5911, 41.0514 ], [ -3.591, 41.0513 ], [ -3.591, 41.0508 ], [ -3.5916, 41.0503 ], [ -3.5918, 41.05 ], [ -3.5918, 41.0497 ], [ -3.5922, 41.0491 ], [ -3.593, 41.0487 ], [ -3.5939, 41.0485 ], [ -3.5927, 41.0479 ], [ -3.5924, 41.0475 ], [ -3.5911, 41.0448 ], [ -3.59, 41.0445 ], [ -3.5894, 41.0441 ], [ -3.5893, 41.0441 ], [ -3.5893, 41.0448 ], [ -3.5895, 41.0453 ], [ -3.5895, 41.0472 ], [ -3.5893, 41.0477 ], [ -3.5893, 41.0481 ], [ -3.5888, 41.0491 ], [ -3.5886, 41.0502 ], [ -3.589, 41.0514 ], [ -3.5895, 41.0523 ], [ -3.5896, 41.0542 ], [ -3.5888, 41.0558 ] ] ] } }
]
}
