{
"type": "FeatureCollection",
"name": "vigente.full",
"features": [
{ "type": "Feature", "properties": { "municipio": "Campo Real", "clasificacion": "no-urbanizable-protegido", "calificacion": "sin-asignar", "version": "vigente", "fuente": "SIT-CAM WFS — UsoDelSuelo:VPLA_V_CLASIFICACION (https://idem.comunidad.madrid/geosrvg/ows)", "fecha_dato": "2026-05-12", "ambito": "38692", "_raw_CD_SIGLAS": "SNUP_A", "_raw_DS_CLASIF_GEN": "Suelo No Urbanizable Protegido (APLAZADO)", "_raw_DS_CLASIF_DET": "Suelo No Urbanizable Protegido Vías Pecuarias", "_raw_DS_DOCU": "NORMAS SUBSIDIARIAS", "_raw_DS_LEY": "CM Ley 9/1995, E RDL 1/1992", "_raw_FC_AC": "1999-03-18", "_raw_NM_AREA_M2": 46528.580501131502, "_cam_code": "033" }, "geometry": { "type": "Polygon", "coordinates": [ [ [ -3.394, 40.3136 ], [ -3.3933, 40.3143 ], [ -3.3924, 40.3148 ], [ -3.3917, 40.3156 ], [ -3.3916, 40.3162 ], [ -3.3918, 40.3176 ], [ -3.391, 40.3191 ], [ -3.3894, 40.3206 ], [ -3.3877, 40.3233 ], [ -3.386, 40.3247 ], [ -3.3839, 40.3278 ], [ -3.3833, 40.3289 ], [ -3.3828, 40.3302 ], [ -3.3827, 40.3313 ], [ -3.3817, 40.3335 ], [ -3.3817, 40.3339 ], [ -3.3812, 40.3349 ], [ -3.381, 40.3358 ], [ -3.3812, 40.3358 ], [ -3.3814, 40.3348 ], [ -3.3828, 40.3313 ], [ -3.3829, 40.3304 ], [ -3.3837, 40.3283 ], [ -3.3859, 40.325 ], [ -3.3879, 40.3233 ], [ -3.3893, 40.321 ], [ -3.3896, 40.3207 ], [ -3.3896, 40.3205 ], [ -3.3902, 40.3201 ], [ -3.3911, 40.3192 ], [ -3.3919, 40.3176 ], [ -3.3918, 40.3168 ], [ -3.3918, 40.3157 ], [ -3.3919, 40.3155 ], [ -3.3925, 40.3148 ], [ -3.3936, 40.3142 ], [ -3.3941, 40.3137 ], [ -3.3942, 40.3126 ], [ -3.3951, 40.3122 ], [ -3.3956, 40.3116 ], [ -3.3961, 40.3114 ], [ -3.3965, 40.311 ], [ -3.3967, 40.3106 ], [ -3.3967, 40.3089 ], [ -3.3965, 40.3084 ], [ -3.3967, 40.3072 ], [ -3.397, 40.3067 ], [ -3.3979, 40.3061 ], [ -3.3984, 40.3045 ], [ -3.3986, 40.3042 ], [ -3.3984, 40.3042 ], [ -3.3983, 40.3044 ], [ -3.3978, 40.3061 ], [ -3.3969, 40.3067 ], [ -3.3965, 40.3075 ], [ -3.3964, 40.3084 ], [ -3.3966, 40.309 ], [ -3.3966, 40.3105 ], [ -3.3961, 40.3113 ], [ -3.3957, 40.3114 ], [ -3.3948, 40.3123 ], [ -3.3941, 40.3126 ], [ -3.394, 40.3136 ] ] ] } },
{ "type": "Feature", "properties": { "municipio": "Campo Real", "clasificacion": "no-urbanizable-protegido", "calificacion": "sin-asignar", "version": "vigente", "fuente": "SIT-CAM WFS — UsoDelSuelo:VPLA_V_CLASIFICACION (https://idem.comunidad.madrid/geosrvg/ows)", "fecha_dato": "2026-05-12", "ambito": "38692", "_raw_CD_SIGLAS": "SNUP_A", "_raw_DS_CLASIF_GEN": "Suelo No Urbanizable Protegido (APLAZADO)", "_raw_DS_CLASIF_DET": "Suelo No Urbanizable Protegido de Interés Agrícola", "_raw_DS_DOCU": "NORMAS SUBSIDIARIAS", "_raw_DS_LEY": "CM Ley 9/1995, E RDL 1/1992", "_raw_FC_AC": "1999-03-18", "_raw_NM_AREA_M2": 11204244.459115701, "_cam_code": "033" }, "geometry": { "type": "Polygon", "coordinates": [ [ [ -3.3404, 40.3224 ], [ -3.3507, 40.3242 ], [ -3.3633, 40.3316 ], [ -3.3639, 40.3306 ], [ -3.3644, 40.3294 ], [ -3.3697, 40.3293 ], [ -3.3729, 40.329 ], [ -3.3734, 40.3284 ], [ -3.3739, 40.3281 ], [ -3.3766, 40.3273 ], [ -3.3753, 40.3208 ], [ -3.3667, 40.3031 ], [ -3.3651, 40.3024 ], [ -3.3644, 40.3025 ], [ -3.3637, 40.3023 ], [ -3.3631, 40.3023 ], [ -3.363, 40.3026 ], [ -3.3607, 40.3025 ], [ -3.359, 40.3022 ], [ -3.3587, 40.3018 ], [ -3.3588, 40.3015 ], [ -3.3593, 40.3012 ], [ -3.3594, 40.3008 ], [ -3.3597, 40.3007 ], [ -3.3605, 40.3008 ], [ -3.3608, 40.3011 ], [ -3.3609, 40.301 ], [ -3.362, 40.301 ], [ -3.3627, 40.3013 ], [ -3.3631, 40.3013 ], [ -3.3634, 40.3012 ], [ -3.3635, 40.301 ], [ -3.3638, 40.301 ], [ -3.3642, 40.3008 ], [ -3.3647, 40.3004 ], [ -3.3647, 40.3001 ], [ -3.3687, 40.2907 ], [ -3.3704, 40.2837 ], [ -3.3705, 40.2832 ], [ -3.3704, 40.2831 ], [ -3.3688, 40.283 ], [ -3.3684, 40.2828 ], [ -3.3667, 40.2829 ], [ -3.364, 40.2824 ], [ -3.3635, 40.2826 ], [ -3.3628, 40.2826 ], [ -3.3625, 40.2829 ], [ -3.3625, 40.2831 ], [ -3.3615, 40.2831 ], [ -3.3598, 40.2838 ], [ -3.3573, 40.284 ], [ -3.3554, 40.2847 ], [ -3.3541, 40.2846 ], [ -3.3519, 40.2848 ], [ -3.3503, 40.2851 ], [ -3.3486, 40.2858 ], [ -3.3471, 40.2862 ], [ -3.3445, 40.2866 ], [ -3.3434, 40.2865 ], [ -3.3423, 40.2867 ], [ -3.3409, 40.2899 ], [ -3.3404, 40.2935 ], [ -3.3402, 40.2961 ], [ -3.3393, 40.2995 ], [ -3.3407, 40.2991 ], [ -3.3406, 40.3043 ], [ -3.3461, 40.3044 ], [ -3.3461, 40.3155 ], [ -3.3402, 40.3156 ], [ -3.3404, 40.3224 ] ] ] } },
{ "type": "Feature", "properties": { "municipio": "Campo Real", "clasificacion": "no-urbanizable-protegido", "calificacion": "sin-asignar", "version": "vigente", "fuente": "SIT-CAM WFS — UsoDelSuelo:VPLA_V_CLASIFICACION (https://idem.comunidad.madrid/geosrvg/ows)", "fecha_dato": "2026-05-12", "ambito": "38692", "_raw_CD_SIGLAS": "SNUP_A", "_raw_DS_CLASIF_GEN": "Suelo No Urbanizable Protegido (APLAZADO)", "_raw_DS_CLASIF_DET": "Suelo No Urbanizable Protegido de Interés Agrícola", "_raw_DS_DOCU": "NORMAS SUBSIDIARIAS", "_raw_DS_LEY": "CM Ley 9/1995, E RDL 1/1992", "_raw_FC_AC": "1999-03-18", "_raw_NM_AREA_M2": 903432.95915478596, "_cam_code": "033" }, "geometry": { "type": "Polygon", "coordinates": [ [ [ -3.3838, 40.3424 ], [ -3.3846, 40.3425 ], [ -3.386, 40.3419 ], [ -3.3878, 40.342 ], [ -3.3882, 40.3417 ], [ -3.3892, 40.3414 ], [ -3.3919, 40.3403 ], [ -3.3928, 40.3398 ], [ -3.3935, 40.3396 ], [ -3.3945, 40.3398 ], [ -3.3956, 40.3402 ], [ -3.3969, 40.3413 ], [ -3.398, 40.3407 ], [ -3.4, 40.3399 ], [ -3.4015, 40.3388 ], [ -3.4041, 40.3362 ], [ -3.4051, 40.3361 ], [ -3.4086, 40.3361 ], [ -3.4114, 40.3367 ], [ -3.4121, 40.3374 ], [ -3.4124, 40.3381 ], [ -3.4129, 40.3379 ], [ -3.4136, 40.3379 ], [ -3.414, 40.3383 ], [ -3.4143, 40.3383 ], [ -3.4145, 40.3386 ], [ -3.4141, 40.3389 ], [ -3.414, 40.3394 ], [ -3.4131, 40.3399 ], [ -3.413, 40.3402 ], [ -3.4136, 40.3407 ], [ -3.4139, 40.3407 ], [ -3.4142, 40.3402 ], [ -3.4148, 40.3398 ], [ -3.4159, 40.3396 ], [ -3.4157, 40.339 ], [ -3.4161, 40.3377 ], [ -3.4162, 40.3368 ], [ -3.4191, 40.3355 ], [ -3.42, 40.3347 ], [ -3.4231, 40.3329 ], [ -3.4232, 40.3325 ], [ -3.4229, 40.3319 ], [ -3.4232, 40.3318 ], [ -3.4234, 40.3306 ], [ -3.4241, 40.3296 ], [ -3.4248, 40.3291 ], [ -3.4259, 40.3286 ], [ -3.4263, 40.3281 ], [ -3.4275, 40.3272 ], [ -3.4297, 40.326 ], [ -3.4309, 40.3256 ], [ -3.4318, 40.3258 ], [ -3.432, 40.3231 ], [ -3.4302, 40.3245 ], [ -3.4287, 40.3245 ], [ -3.4265, 40.3248 ], [ -3.4255, 40.3251 ], [ -3.4233, 40.3249 ], [ -3.4226, 40.3252 ], [ -3.4179, 40.3261 ], [ -3.4174, 40.3261 ], [ -3.4178, 40.3266 ], [ -3.4189, 40.3264 ], [ -3.4196, 40.3261 ], [ -3.4234, 40.3257 ], [ -3.4259, 40.3264 ], [ -3.4265, 40.3269 ], [ -3.4265, 40.3273 ], [ -3.426, 40.3283 ], [ -3.4256, 40.3286 ], [ -3.4225, 40.3287 ], [ -3.4229, 40.3297 ], [ -3.4227, 40.3301 ], [ -3.4217, 40.3305 ], [ -3.4206, 40.3305 ], [ -3.42, 40.3308 ], [ -3.42, 40.331 ], [ -3.4211, 40.3317 ], [ -3.421, 40.3324 ], [ -3.4204, 40.3332 ], [ -3.42, 40.3332 ], [ -3.4193, 40.3336 ], [ -3.4187, 40.3337 ], [ -3.4177, 40.3342 ], [ -3.4169, 40.3342 ], [ -3.415, 40.3356 ], [ -3.4144, 40.3355 ], [ -3.4134, 40.3356 ], [ -3.4109, 40.3353 ], [ -3.4106, 40.335 ], [ -3.4101, 40.3348 ], [ -3.4089, 40.335 ], [ -3.408, 40.335 ], [ -3.4068, 40.3346 ], [ -3.4053, 40.3345 ], [ -3.4026, 40.3337 ], [ -3.4029, 40.3343 ], [ -3.4028, 40.3348 ], [ -3.4022, 40.3351 ], [ -3.4015, 40.3364 ], [ -3.4012, 40.3366 ], [ -3.4008, 40.3366 ], [ -3.4003, 40.337 ], [ -3.3997, 40.338 ], [ -3.3987, 40.3388 ], [ -3.3977, 40.339 ], [ -3.3962, 40.339 ], [ -3.3937, 40.3387 ], [ -3.393, 40.3384 ], [ -3.3913, 40.3382 ], [ -3.3906, 40.3385 ], [ -3.3905, 40.3388 ], [ -3.3909, 40.3396 ], [ -3.3905, 40.3401 ], [ -3.3889, 40.3404 ], [ -3.3884, 40.3407 ], [ -3.3872, 40.3409 ], [ -3.3861, 40.3415 ], [ -3.3844, 40.342 ], [ -3.3843, 40.3422 ], [ -3.3838, 40.3424 ] ] ] } },
{ "type": "Feature", "properties": { "municipio": "Campo Real", "clasificacion": "no-urbanizable-protegido", "calificacion": "sin-asignar", "version": "vigente", "fuente": "SIT-CAM WFS — UsoDelSuelo:VPLA_V_CLASIFICACION (https://idem.comunidad.madrid/geosrvg/ows)", "fecha_dato": "2026-05-12", "ambito": "38692", "_raw_CD_SIGLAS": "SNUP_A", "_raw_DS_CLASIF_GEN": "Suelo No Urbanizable Protegido (APLAZADO)", "_raw_DS_CLASIF_DET": "Suelo No Urbanizable Protegido de Interés Agrícola. Tolerancia de Extracción de Áridos", "_raw_DS_DOCU": "NORMAS SUBSIDIARIAS", "_raw_DS_LEY": "CM Ley 9/1995, E RDL 1/1992", "_raw_FC_AC": "1999-03-18", "_raw_NM_AREA_M2": 1794438.8025847501, "_cam_code": "033" }, "geometry": { "type": "Polygon", "coordinates": [ [ [ -3.3249, 40.3211 ], [ -3.3348, 40.3214 ], [ -3.3404, 40.3224 ], [ -3.3402, 40.3156 ], [ -3.3461, 40.3155 ], [ -3.3461, 40.3044 ], [ -3.3406, 40.3043 ], [ -3.3407, 40.2991 ], [ -3.3393, 40.2995 ], [ -3.3386, 40.3021 ], [ -3.3369, 40.3074 ], [ -3.3341, 40.3149 ], [ -3.3337, 40.3156 ], [ -3.3285, 40.319 ], [ -3.3249, 40.3211 ] ] ] } },
{ "type": "Feature", "properties": { "municipio": "Campo Real", "clasificacion": "no-urbanizable-protegido", "calificacion": "sin-asignar", "version": "vigente", "fuente": "SIT-CAM WFS — UsoDelSuelo:VPLA_V_CLASIFICACION (https://idem.comunidad.madrid/geosrvg/ows)", "fecha_dato": "2026-05-12", "ambito": "38692", "_raw_CD_SIGLAS": "SNUP_A", "_raw_DS_CLASIF_GEN": "Suelo No Urbanizable Protegido (APLAZADO)", "_raw_DS_CLASIF_DET": "Suelo No Urbanizable Protegido de Interés forestal", "_raw_DS_DOCU": "NORMAS SUBSIDIARIAS", "_raw_DS_LEY": "CM Ley 9/1995, E RDL 1/1992", "_raw_FC_AC": "1999-03-18", "_raw_NM_AREA_M2": 50905.482620212999, "_cam_code": "033" }, "geometry": { "type": "Polygon", "coordinates": [ [ [ -3.4239, 40.3147 ], [ -3.4234, 40.3155 ], [ -3.423, 40.3155 ], [ -3.4226, 40.3157 ], [ -3.4237, 40.316 ], [ -3.4244, 40.3169 ], [ -3.4254, 40.3167 ], [ -3.4268, 40.3168 ], [ -3.4269, 40.3164 ], [ -3.4274, 40.3161 ], [ -3.4244, 40.3148 ], [ -3.4239, 40.3147 ] ] ] } },
{ "type": "Feature", "properties": { "municipio": "Campo Real", "clasificacion": "no-urbanizable-protegido", "calificacion": "sin-asignar", "version": "vigente", "fuente": "SIT-CAM WFS — UsoDelSuelo:VPLA_V_CLASIFICACION (https://idem.comunidad.madrid/geosrvg/ows)", "fecha_dato": "2026-05-12", "ambito": "38692", "_raw_CD_SIGLAS": "SNUP_A", "_raw_DS_CLASIF_GEN": "Suelo No Urbanizable Protegido (APLAZADO)", "_raw_DS_CLASIF_DET": "Suelo No Urbanizable Protegido de Interés paisajístico", "_raw_DS_DOCU": "NORMAS SUBSIDIARIAS", "_raw_DS_LEY": "CM Ley 9/1995, E RDL 1/1992", "_raw_FC_AC": "1999-03-18", "_raw_NM_AREA_M2": 2946917.7769742501, "_cam_code": "033" }, "geometry": { "type": "Polygon", "coordinates": [ [ [ -3.3546, 40.3615 ], [ -3.356, 40.3623 ], [ -3.357, 40.3622 ], [ -3.3615, 40.3622 ], [ -3.3663, 40.3608 ], [ -3.3676, 40.3607 ], [ -3.3677, 40.3595 ], [ -3.3672, 40.359 ], [ -3.3672, 40.3587 ], [ -3.3668, 40.3583 ], [ -3.366, 40.3579 ], [ -3.3659, 40.3575 ], [ -3.3666, 40.357 ], [ -3.3672, 40.3568 ], [ -3.3678, 40.3563 ], [ -3.3687, 40.3559 ], [ -3.3691, 40.3555 ], [ -3.3693, 40.3551 ], [ -3.3693, 40.3547 ], [ -3.369, 40.3537 ], [ -3.3692, 40.3525 ], [ -3.3693, 40.3522 ], [ -3.3698, 40.3518 ], [ -3.3698, 40.351 ], [ -3.3704, 40.3504 ], [ -3.3707, 40.3497 ], [ -3.3708, 40.3489 ], [ -3.3705, 40.3476 ], [ -3.3698, 40.3471 ], [ -3.3697, 40.3472 ], [ -3.3692, 40.3472 ], [ -3.3687, 40.347 ], [ -3.368, 40.3462 ], [ -3.3677, 40.3448 ], [ -3.368, 40.3443 ], [ -3.3659, 40.3445 ], [ -3.3638, 40.3453 ], [ -3.3623, 40.3456 ], [ -3.357, 40.3482 ], [ -3.3569, 40.3484 ], [ -3.3544, 40.3487 ], [ -3.3533, 40.3482 ], [ -3.353, 40.3479 ], [ -3.3507, 40.3472 ], [ -3.3507, 40.3476 ], [ -3.3498, 40.3486 ], [ -3.3486, 40.3488 ], [ -3.3481, 40.3487 ], [ -3.3455, 40.3487 ], [ -3.346, 40.3493 ], [ -3.3448, 40.3499 ], [ -3.3445, 40.3502 ], [ -3.3444, 40.3505 ], [ -3.3446, 40.3508 ], [ -3.3456, 40.351 ], [ -3.3459, 40.3512 ], [ -3.3452, 40.3519 ], [ -3.3442, 40.3524 ], [ -3.3435, 40.3524 ], [ -3.342, 40.3528 ], [ -3.3428, 40.3531 ], [ -3.3438, 40.3543 ], [ -3.3458, 40.3551 ], [ -3.3462, 40.3561 ], [ -3.3476, 40.3568 ], [ -3.3484, 40.3576 ], [ -3.3491, 40.3574 ], [ -3.3502, 40.3575 ], [ -3.3507, 40.358 ], [ -3.3514, 40.3583 ], [ -3.3515, 40.3585 ], [ -3.3521, 40.3589 ], [ -3.3523, 40.3593 ], [ -3.3537, 40.3599 ], [ -3.3543, 40.3606 ], [ -3.3543, 40.3609 ], [ -3.3546, 40.3611 ], [ -3.3546, 40.3615 ] ] ] } },
{ "type": "Feature", "properties": { "municipio": "Campo Real", "clasificacion": "no-urbanizable-protegido", "calificacion": "sin-asignar", "version": "vigente", "fuente": "SIT-CAM WFS — UsoDelSuelo:VPLA_V_CLASIFICACION (https://idem.comunidad.madrid/geosrvg/ows)", "fecha_dato": "2026-05-12", "ambito": "38692", "_raw_CD_SIGLAS": "SNUP_A", "_raw_DS_CLASIF_GEN": "Suelo No Urbanizable Protegido (APLAZADO)", "_raw_DS_CLASIF_DET": "Suelo No Urbanizable Protegido de Interés paisajístico", "_raw_DS_DOCU": "NORMAS SUBSIDIARIAS", "_raw_DS_LEY": "CM Ley 9/1995, E RDL 1/1992", "_raw_FC_AC": "1999-03-18", "_raw_NM_AREA_M2": 25909.123621770701, "_cam_code": "033" }, "geometry": { "type": "Polygon", "coordinates": [ [ [ -3.379, 40.3608 ], [ -3.3799, 40.3616 ], [ -3.38, 40.3618 ], [ -3.3799, 40.3624 ], [ -3.3809, 40.3622 ], [ -3.3817, 40.3618 ], [ -3.3814, 40.3614 ], [ -3.38, 40.3606 ], [ -3.3796, 40.3602 ], [ -3.3792, 40.3603 ], [ -3.379, 40.3608 ] ] ] } },
{ "type": "Feature", "properties": { "municipio": "Campo Real", "clasificacion": "no-urbanizable-protegido", "calificacion": "sin-asignar", "version": "vigente", "fuente": "SIT-CAM WFS — UsoDelSuelo:VPLA_V_CLASIFICACION (https://idem.comunidad.madrid/geosrvg/ows)", "fecha_dato": "2026-05-12", "ambito": "38692", "_raw_CD_SIGLAS": "SNUP_A", "_raw_DS_CLASIF_GEN": "Suelo No Urbanizable Protegido (APLAZADO)", "_raw_DS_CLASIF_DET": "Suelo No Urbanizable Protegido de Interés paisajístico", "_raw_DS_DOCU": "NORMAS SUBSIDIARIAS", "_raw_DS_LEY": "CM Ley 9/1995, E RDL 1/1992", "_raw_FC_AC": "1999-03-18", "_raw_NM_AREA_M2": 7438.10534326576, "_cam_code": "033" }, "geometry": { "type": "Polygon", "coordinates": [ [ [ -3.3782, 40.3622 ], [ -3.3781, 40.3629 ], [ -3.3799, 40.3624 ], [ -3.3794, 40.3622 ], [ -3.3784, 40.3621 ], [ -3.3782, 40.3622 ] ] ] } },
{ "type": "Feature", "properties": { "municipio": "Campo Real", "clasificacion": "no-urbanizable-protegido", "calificacion": "sin-asignar", "version": "vigente", "fuente": "SIT-CAM WFS — UsoDelSuelo:VPLA_V_CLASIFICACION (https://idem.comunidad.madrid/geosrvg/ows)", "fecha_dato": "2026-05-12", "ambito": "38692", "_raw_CD_SIGLAS": "SNUP_A", "_raw_DS_CLASIF_GEN": "Suelo No Urbanizable Protegido (APLAZADO)", "_raw_DS_CLASIF_DET": "Suelo No Urbanizable Protegido Vías Pecuarias", "_raw_DS_DOCU": "NORMAS SUBSIDIARIAS", "_raw_DS_LEY": "CM Ley 9/1995, E RDL 1/1992", "_raw_FC_AC": "1999-03-18", "_raw_NM_AREA_M2": 50001.241418781799, "_cam_code": "033" }, "geometry": { "type": "Polygon", "coordinates": [ [ [ -3.3424, 40.2865 ], [ -3.3423, 40.2867 ], [ -3.3434, 40.2865 ], [ -3.3445, 40.2866 ], [ -3.3471, 40.2862 ], [ -3.3486, 40.2858 ], [ -3.3503, 40.2851 ], [ -3.3519, 40.2848 ], [ -3.3541, 40.2846 ], [ -3.3554, 40.2847 ], [ -3.3573, 40.284 ], [ -3.3598, 40.2838 ], [ -3.3615, 40.2831 ], [ -3.3625, 40.2831 ], [ -3.3625, 40.2829 ], [ -3.3628, 40.2826 ], [ -3.3635, 40.2826 ], [ -3.364, 40.2824 ], [ -3.3667, 40.2829 ], [ -3.3684, 40.2828 ], [ -3.3688, 40.283 ], [ -3.3697, 40.283 ], [ -3.3705, 40.2832 ], [ -3.3726, 40.283 ], [ -3.3745, 40.283 ], [ -3.3791, 40.2833 ], [ -3.3811, 40.2833 ], [ -3.3814, 40.2834 ], [ -3.3817, 40.2833 ], [ -3.3814, 40.2832 ], [ -3.3735, 40.2828 ], [ -3.3704, 40.283 ], [ -3.3683, 40.2827 ], [ -3.3673, 40.2827 ], [ -3.3672, 40.2828 ], [ -3.3661, 40.2827 ], [ -3.3641, 40.2823 ], [ -3.3634, 40.2825 ], [ -3.3627, 40.2825 ], [ -3.3624, 40.2827 ], [ -3.3624, 40.283 ], [ -3.3621, 40.2829 ], [ -3.3616, 40.283 ], [ -3.3597, 40.2837 ], [ -3.3571, 40.2839 ], [ -3.3552, 40.2845 ], [ -3.3552, 40.2846 ], [ -3.3547, 40.2844 ], [ -3.353, 40.2845 ], [ -3.3496, 40.2852 ], [ -3.3488, 40.2856 ], [ -3.3465, 40.2862 ], [ -3.3452, 40.2864 ], [ -3.3424, 40.2865 ] ] ] } },
{ "type": "Feature", "properties": { "municipio": "Campo Real", "clasificacion": "no-urbanizable-protegido", "calificacion": "sin-asignar", "version": "vigente", "fuente": "SIT-CAM WFS — UsoDelSuelo:VPLA_V_CLASIFICACION (https://idem.comunidad.madrid/geosrvg/ows)", "fecha_dato": "2026-05-12", "ambito": "38692", "_raw_CD_SIGLAS": "SNUP_A", "_raw_DS_CLASIF_GEN": "Suelo No Urbanizable Protegido (APLAZADO)", "_raw_DS_CLASIF_DET": "Suelo No Urbanizable Protegido de Interés Agrícola", "_raw_DS_DOCU": "NORMAS SUBSIDIARIAS", "_raw_DS_LEY": "CM Ley 9/1995, E RDL 1/1992", "_raw_FC_AC": "1999-03-18", "_raw_NM_AREA_M2": 488149.96140264499, "_cam_code": "033" }, "geometry": { "type": "Polygon", "coordinates": [ [ [ -3.4068, 40.3232 ], [ -3.4073, 40.3236 ], [ -3.4064, 40.3241 ], [ -3.4049, 40.3245 ], [ -3.4043, 40.325 ], [ -3.4037, 40.3258 ], [ -3.4026, 40.3265 ], [ -3.4019, 40.3272 ], [ -3.4021, 40.3273 ], [ -3.4024, 40.327 ], [ -3.4035, 40.3266 ], [ -3.4038, 40.3261 ], [ -3.4042, 40.3259 ], [ -3.4046, 40.3254 ], [ -3.4064, 40.3248 ], [ -3.4074, 40.3247 ], [ -3.4079, 40.324 ], [ -3.4081, 40.324 ], [ -3.4083, 40.3237 ], [ -3.4094, 40.3234 ], [ -3.41, 40.3234 ], [ -3.4107, 40.3227 ], [ -3.4124, 40.3221 ], [ -3.4133, 40.3219 ], [ -3.414, 40.3219 ], [ -3.4149, 40.3216 ], [ -3.4161, 40.3215 ], [ -3.4188, 40.3207 ], [ -3.42, 40.3205 ], [ -3.4272, 40.3184 ], [ -3.4302, 40.3182 ], [ -3.4297, 40.3171 ], [ -3.4274, 40.3161 ], [ -3.4269, 40.3164 ], [ -3.4268, 40.3168 ], [ -3.4258, 40.3167 ], [ -3.4244, 40.3169 ], [ -3.4238, 40.3168 ], [ -3.4227, 40.3173 ], [ -3.4203, 40.3175 ], [ -3.4172, 40.3171 ], [ -3.4166, 40.3169 ], [ -3.4132, 40.3173 ], [ -3.4117, 40.3168 ], [ -3.4108, 40.3169 ], [ -3.4121, 40.3172 ], [ -3.4132, 40.3178 ], [ -3.4141, 40.318 ], [ -3.4178, 40.318 ], [ -3.4198, 40.3182 ], [ -3.4209, 40.3185 ], [ -3.4164, 40.3203 ], [ -3.4132, 40.3205 ], [ -3.4121, 40.321 ], [ -3.4106, 40.3212 ], [ -3.4085, 40.3211 ], [ -3.4072, 40.3214 ], [ -3.4086, 40.3217 ], [ -3.4085, 40.322 ], [ -3.4077, 40.3225 ], [ -3.406, 40.3229 ], [ -3.406, 40.3233 ], [ -3.4068, 40.3232 ] ] ] } },
{ "type": "Feature", "properties": { "municipio": "Campo Real", "clasificacion": "no-urbanizable-protegido", "calificacion": "sin-asignar", "version": "vigente", "fuente": "SIT-CAM WFS — UsoDelSuelo:VPLA_V_CLASIFICACION (https://idem.comunidad.madrid/geosrvg/ows)", "fecha_dato": "2026-05-12", "ambito": "38692", "_raw_CD_SIGLAS": "SNUP_A", "_raw_DS_CLASIF_GEN": "Suelo No Urbanizable Protegido (APLAZADO)", "_raw_DS_CLASIF_DET": "Suelo No Urbanizable Protegido Vías Pecuarias", "_raw_DS_DOCU": "NORMAS SUBSIDIARIAS", "_raw_DS_LEY": "CM Ley 9/1995, E RDL 1/1992", "_raw_FC_AC": "1999-03-18", "_raw_NM_AREA_M2": 65926.521992929105, "_cam_code": "033" }, "geometry": { "type": "Polygon", "coordinates": [ [ [ -3.3442, 40.2823 ], [ -3.3454, 40.282 ], [ -3.3458, 40.2817 ], [ -3.3465, 40.2815 ], [ -3.3468, 40.2812 ], [ -3.3471, 40.2808 ], [ -3.3475, 40.2798 ], [ -3.3485, 40.2783 ], [ -3.3504, 40.2768 ], [ -3.3508, 40.2752 ], [ -3.3526, 40.272 ], [ -3.3534, 40.2717 ], [ -3.3539, 40.2716 ], [ -3.3537, 40.2716 ], [ -3.3533, 40.2719 ], [ -3.3531, 40.2721 ], [ -3.3525, 40.2732 ], [ -3.3515, 40.2746 ], [ -3.3513, 40.275 ], [ -3.3509, 40.2767 ], [ -3.3504, 40.2775 ], [ -3.3495, 40.2781 ], [ -3.3487, 40.2789 ], [ -3.348, 40.28 ], [ -3.3474, 40.2811 ], [ -3.3474, 40.2814 ], [ -3.3478, 40.2816 ], [ -3.3476, 40.2818 ], [ -3.3467, 40.2818 ], [ -3.3455, 40.2824 ], [ -3.3441, 40.2827 ], [ -3.3442, 40.2823 ] ] ] } },
{ "type": "Feature", "properties": { "municipio": "Campo Real", "clasificacion": "no-urbanizable-protegido", "calificacion": "sin-asignar", "version": "vigente", "fuente": "SIT-CAM WFS — UsoDelSuelo:VPLA_V_CLASIFICACION (https://idem.comunidad.madrid/geosrvg/ows)", "fecha_dato": "2026-05-12", "ambito": "38692", "_raw_CD_SIGLAS": "SNUP_A", "_raw_DS_CLASIF_GEN": "Suelo No Urbanizable Protegido (APLAZADO)", "_raw_DS_CLASIF_DET": "Suelo No Urbanizable Protegido de Interés forestal", "_raw_DS_DOCU": "NORMAS SUBSIDIARIAS", "_raw_DS_LEY": "CM Ley 9/1995, E RDL 1/1992", "_raw_FC_AC": "1999-03-18", "_raw_NM_AREA_M2": 1845923.1015248699, "_cam_code": "033" }, "geometry": { "type": "Polygon", "coordinates": [ [ [ -3.396, 40.3523 ], [ -3.3974, 40.3525 ], [ -3.3984, 40.3529 ], [ -3.3986, 40.3526 ], [ -3.3986, 40.3519 ], [ -3.3988, 40.3511 ], [ -3.3992, 40.351 ], [ -3.399, 40.3507 ], [ -3.3994, 40.3488 ], [ -3.4002, 40.3483 ], [ -3.4011, 40.3483 ], [ -3.4018, 40.3475 ], [ -3.4027, 40.3454 ], [ -3.4028, 40.3449 ], [ -3.4026, 40.3434 ], [ -3.4029, 40.3424 ], [ -3.403, 40.3412 ], [ -3.4032, 40.341 ], [ -3.4029, 40.3406 ], [ -3.4031, 40.3405 ], [ -3.4027, 40.3399 ], [ -3.4025, 40.3398 ], [ -3.4024, 40.3392 ], [ -3.404, 40.3394 ], [ -3.4041, 40.3393 ], [ -3.4042, 40.339 ], [ -3.4039, 40.3387 ], [ -3.4036, 40.3379 ], [ -3.4036, 40.3374 ], [ -3.4038, 40.3371 ], [ -3.4043, 40.3369 ], [ -3.405, 40.3374 ], [ -3.4048, 40.3385 ], [ -3.405, 40.3391 ], [ -3.4053, 40.3392 ], [ -3.4056, 40.3398 ], [ -3.4058, 40.3407 ], [ -3.4057, 40.3409 ], [ -3.4049, 40.3411 ], [ -3.4046, 40.3417 ], [ -3.4047, 40.342 ], [ -3.4046, 40.3425 ], [ -3.4043, 40.3427 ], [ -3.4047, 40.343 ], [ -3.4052, 40.343 ], [ -3.4055, 40.3432 ], [ -3.4052, 40.3443 ], [ -3.4048, 40.3448 ], [ -3.4042, 40.3452 ], [ -3.4043, 40.3456 ], [ -3.4045, 40.3458 ], [ -3.4047, 40.3466 ], [ -3.4059, 40.3477 ], [ -3.4088, 40.3487 ], [ -3.4098, 40.3487 ], [ -3.4105, 40.3489 ], [ -3.4118, 40.349 ], [ -3.413, 40.349 ], [ -3.4146, 40.3483 ], [ -3.4147, 40.3476 ], [ -3.4144, 40.3468 ], [ -3.4146, 40.3459 ], [ -3.4156, 40.3453 ], [ -3.4158, 40.3445 ], [ -3.4156, 40.3435 ], [ -3.4162, 40.3431 ], [ -3.4161, 40.3427 ], [ -3.4162, 40.342 ], [ -3.4166, 40.3416 ], [ -3.4159, 40.3396 ], [ -3.4148, 40.3398 ], [ -3.4142, 40.3402 ], [ -3.4139, 40.3407 ], [ -3.4136, 40.3407 ], [ -3.413, 40.3402 ], [ -3.4131, 40.3399 ], [ -3.414, 40.3394 ], [ -3.4141, 40.3389 ], [ -3.4145, 40.3386 ], [ -3.4143, 40.3383 ], [ -3.414, 40.3383 ], [ -3.4136, 40.3379 ], [ -3.4129, 40.3379 ], [ -3.4124, 40.3381 ], [ -3.4121, 40.3374 ], [ -3.4114, 40.3367 ], [ -3.4086, 40.3361 ], [ -3.4041, 40.3362 ], [ -3.4009, 40.3393 ], [ -3.4, 40.3399 ], [ -3.3957, 40.3418 ], [ -3.3955, 40.3429 ], [ -3.3957, 40.3432 ], [ -3.3962, 40.3428 ], [ -3.3966, 40.3427 ], [ -3.3971, 40.3431 ], [ -3.3975, 40.3431 ], [ -3.3983, 40.3426 ], [ -3.3984, 40.3428 ], [ -3.3971, 40.3445 ], [ -3.3963, 40.3448 ], [ -3.3963, 40.3458 ], [ -3.3968, 40.3459 ], [ -3.397, 40.3464 ], [ -3.3967, 40.3466 ], [ -3.396, 40.3476 ], [ -3.3955, 40.3491 ], [ -3.3952, 40.3491 ], [ -3.3949, 40.3493 ], [ -3.395, 40.3498 ], [ -3.3947, 40.3496 ], [ -3.3945, 40.3508 ], [ -3.3942, 40.3506 ], [ -3.3933, 40.3508 ], [ -3.3931, 40.3509 ], [ -3.3932, 40.3513 ], [ -3.3929, 40.3516 ], [ -3.3921, 40.3517 ], [ -3.3917, 40.3515 ], [ -3.3913, 40.3515 ], [ -3.3912, 40.3517 ], [ -3.3913, 40.3523 ], [ -3.3915, 40.3525 ], [ -3.393, 40.3529 ], [ -3.3939, 40.3524 ], [ -3.396, 40.3523 ] ] ] } },
{ "type": "Feature", "properties": { "municipio": "Campo Real", "clasificacion": "no-urbanizable-protegido", "calificacion": "sin-asignar", "version": "vigente", "fuente": "SIT-CAM WFS — UsoDelSuelo:VPLA_V_CLASIFICACION (https://idem.comunidad.madrid/geosrvg/ows)", "fecha_dato": "2026-05-12", "ambito": "38692", "_raw_CD_SIGLAS": "SNUP_A", "_raw_DS_CLASIF_GEN": "Suelo No Urbanizable Protegido (APLAZADO)", "_raw_DS_CLASIF_DET": "Suelo No Urbanizable Protegido de Interés forestal", "_raw_DS_DOCU": "NORMAS SUBSIDIARIAS", "_raw_DS_LEY": "CM Ley 9/1995, E RDL 1/1992", "_raw_FC_AC": "1999-03-18", "_raw_NM_AREA_M2": 160422.495560104, "_cam_code": "033" }, "geometry": { "type": "Polygon", "coordinates": [ [ [ -3.3389, 40.3513 ], [ -3.3413, 40.353 ], [ -3.3425, 40.3526 ], [ -3.3435, 40.3524 ], [ -3.3442, 40.3524 ], [ -3.3452, 40.3519 ], [ -3.3459, 40.3512 ], [ -3.3456, 40.351 ], [ -3.3446, 40.3508 ], [ -3.3444, 40.3505 ], [ -3.3445, 40.3502 ], [ -3.3448, 40.3499 ], [ -3.346, 40.3493 ], [ -3.3455, 40.3487 ], [ -3.3446, 40.3488 ], [ -3.3436, 40.3487 ], [ -3.3424, 40.3491 ], [ -3.3407, 40.3505 ], [ -3.3398, 40.3506 ], [ -3.3396, 40.3509 ], [ -3.3389, 40.3513 ] ] ] } },
{ "type": "Feature", "properties": { "municipio": "Campo Real", "clasificacion": "no-urbanizable-protegido", "calificacion": "sin-asignar", "version": "vigente", "fuente": "SIT-CAM WFS — UsoDelSuelo:VPLA_V_CLASIFICACION (https://idem.comunidad.madrid/geosrvg/ows)", "fecha_dato": "2026-05-12", "ambito": "38692", "_raw_CD_SIGLAS": "SNUP_A", "_raw_DS_CLASIF_GEN": "Suelo No Urbanizable Protegido (APLAZADO)", "_raw_DS_CLASIF_DET": "Suelo No Urbanizable Protegido de Interés paisajístico", "_raw_DS_DOCU": "NORMAS SUBSIDIARIAS", "_raw_DS_LEY": "CM Ley 9/1995, E RDL 1/1992", "_raw_FC_AC": "1999-03-18", "_raw_NM_AREA_M2": 255954.20424467101, "_cam_code": "033" }, "geometry": { "type": "Polygon", "coordinates": [ [ [ -3.4111, 40.3519 ], [ -3.4131, 40.3516 ], [ -3.4157, 40.3522 ], [ -3.4188, 40.3514 ], [ -3.4186, 40.3513 ], [ -3.4186, 40.3504 ], [ -3.4185, 40.3502 ], [ -3.4176, 40.3499 ], [ -3.417, 40.349 ], [ -3.4159, 40.3489 ], [ -3.4156, 40.3487 ], [ -3.4158, 40.3484 ], [ -3.4158, 40.3477 ], [ -3.4146, 40.3474 ], [ -3.4147, 40.3476 ], [ -3.4146, 40.3483 ], [ -3.413, 40.349 ], [ -3.4118, 40.349 ], [ -3.4105, 40.3489 ], [ -3.4098, 40.3487 ], [ -3.4088, 40.3487 ], [ -3.4079, 40.3484 ], [ -3.4085, 40.3491 ], [ -3.4089, 40.3492 ], [ -3.409, 40.3494 ], [ -3.4089, 40.3499 ], [ -3.4093, 40.3501 ], [ -3.4099, 40.3509 ], [ -3.4111, 40.3519 ] ] ] } },
{ "type": "Feature", "properties": { "municipio": "Campo Real", "clasificacion": "no-urbanizable-protegido", "calificacion": "sin-asignar", "version": "vigente", "fuente": "SIT-CAM WFS — UsoDelSuelo:VPLA_V_CLASIFICACION (https://idem.comunidad.madrid/geosrvg/ows)", "fecha_dato": "2026-05-12", "ambito": "38692", "_raw_CD_SIGLAS": "SNUP_A", "_raw_DS_CLASIF_GEN": "Suelo No Urbanizable Protegido (APLAZADO)", "_raw_DS_CLASIF_DET": "Suelo No Urbanizable Protegido de Interés Agrícola", "_raw_DS_DOCU": "NORMAS SUBSIDIARIAS", "_raw_DS_LEY": "CM Ley 9/1995, E RDL 1/1992", "_raw_FC_AC": "1999-03-18", "_raw_NM_AREA_M2": 3288380.2560880701, "_cam_code": "033" }, "geometry": { "type": "Polygon", "coordinates": [ [ [ -3.3424, 40.2865 ], [ -3.3452, 40.2864 ], [ -3.3465, 40.2862 ], [ -3.3488, 40.2856 ], [ -3.3496, 40.2852 ], [ -3.353, 40.2845 ], [ -3.3547, 40.2844 ], [ -3.3552, 40.2846 ], [ -3.3552, 40.2845 ], [ -3.3571, 40.2839 ], [ -3.3597, 40.2837 ], [ -3.3616, 40.283 ], [ -3.362, 40.2829 ], [ -3.3624, 40.283 ], [ -3.3624, 40.2827 ], [ -3.3627, 40.2825 ], [ -3.3634, 40.2825 ], [ -3.3641, 40.2823 ], [ -3.3661, 40.2827 ], [ -3.3671, 40.2828 ], [ -3.3673, 40.2827 ], [ -3.3683, 40.2827 ], [ -3.3706, 40.283 ], [ -3.3735, 40.2712 ], [ -3.3739, 40.2712 ], [ -3.3739, 40.2711 ], [ -3.3736, 40.271 ], [ -3.3737, 40.2706 ], [ -3.3735, 40.2702 ], [ -3.3715, 40.2673 ], [ -3.3697, 40.2653 ], [ -3.3681, 40.2661 ], [ -3.367, 40.2662 ], [ -3.3648, 40.267 ], [ -3.3636, 40.2677 ], [ -3.3593, 40.2695 ], [ -3.3574, 40.2706 ], [ -3.3537, 40.2716 ], [ -3.3531, 40.2721 ], [ -3.3525, 40.2732 ], [ -3.3515, 40.2746 ], [ -3.3513, 40.275 ], [ -3.3509, 40.2767 ], [ -3.3504, 40.2775 ], [ -3.3495, 40.2781 ], [ -3.3487, 40.2789 ], [ -3.348, 40.28 ], [ -3.3474, 40.2811 ], [ -3.3474, 40.2814 ], [ -3.3478, 40.2816 ], [ -3.3476, 40.2818 ], [ -3.3467, 40.2818 ], [ -3.3455, 40.2824 ], [ -3.3441, 40.2827 ], [ -3.3424, 40.2865 ] ] ] } },
{ "type": "Feature", "properties": { "municipio": "Campo Real", "clasificacion": "no-urbanizable-protegido", "calificacion": "sin-asignar", "version": "vigente", "fuente": "SIT-CAM WFS — UsoDelSuelo:VPLA_V_CLASIFICACION (https://idem.comunidad.madrid/geosrvg/ows)", "fecha_dato": "2026-05-12", "ambito": "38692", "_raw_CD_SIGLAS": "SNUP_A", "_raw_DS_CLASIF_GEN": "Suelo No Urbanizable Protegido (APLAZADO)", "_raw_DS_CLASIF_DET": "Suelo No Urbanizable Protegido de Interés paisajístico", "_raw_DS_DOCU": "NORMAS SUBSIDIARIAS", "_raw_DS_LEY": "CM Ley 9/1995, E RDL 1/1992", "_raw_FC_AC": "1999-03-18", "_raw_NM_AREA_M2": 16495.283185558699, "_cam_code": "033" }, "geometry": { "type": "Polygon", "coordinates": [ [ [ -3.4194, 40.3509 ], [ -3.419, 40.3514 ], [ -3.422, 40.3507 ], [ -3.4209, 40.3506 ], [ -3.4206, 40.3503 ], [ -3.4203, 40.3497 ], [ -3.4199, 40.3496 ], [ -3.4196, 40.3499 ], [ -3.4194, 40.3509 ] ] ] } },
{ "type": "Feature", "properties": { "municipio": "Campo Real", "clasificacion": "no-urbanizable-protegido", "calificacion": "sin-asignar", "version": "vigente", "fuente": "SIT-CAM WFS — UsoDelSuelo:VPLA_V_CLASIFICACION (https://idem.comunidad.madrid/geosrvg/ows)", "fecha_dato": "2026-05-12", "ambito": "38692", "_raw_CD_SIGLAS": "SNUP_A", "_raw_DS_CLASIF_GEN": "Suelo No Urbanizable Protegido (APLAZADO)", "_raw_DS_CLASIF_DET": "Suelo No Urbanizable Protegido de Interés paisajístico", "_raw_DS_DOCU": "NORMAS SUBSIDIARIAS", "_raw_DS_LEY": "CM Ley 9/1995, E RDL 1/1992", "_raw_FC_AC": "1999-03-18", "_raw_NM_AREA_M2": 234303.49592510299, "_cam_code": "033" }, "geometry": { "type": "Polygon", "coordinates": [ [ [ -3.4184, 40.3468 ], [ -3.4186, 40.3473 ], [ -3.4182, 40.3478 ], [ -3.4194, 40.3482 ], [ -3.4202, 40.3476 ], [ -3.4207, 40.3474 ], [ -3.4208, 40.3471 ], [ -3.4211, 40.3468 ], [ -3.4214, 40.3467 ], [ -3.4222, 40.3469 ], [ -3.4224, 40.3475 ], [ -3.4223, 40.3477 ], [ -3.4232, 40.3475 ], [ -3.4237, 40.3469 ], [ -3.4237, 40.3467 ], [ -3.4236, 40.3465 ], [ -3.423, 40.3463 ], [ -3.4231, 40.3459 ], [ -3.4234, 40.3459 ], [ -3.4242, 40.3463 ], [ -3.4257, 40.3468 ], [ -3.4265, 40.3469 ], [ -3.4271, 40.3466 ], [ -3.427, 40.3462 ], [ -3.4265, 40.3456 ], [ -3.4249, 40.3449 ], [ -3.4251, 40.3446 ], [ -3.4266, 40.3443 ], [ -3.4274, 40.3435 ], [ -3.4284, 40.3434 ], [ -3.4292, 40.3421 ], [ -3.429, 40.342 ], [ -3.4278, 40.3421 ], [ -3.4267, 40.3425 ], [ -3.4264, 40.3425 ], [ -3.425, 40.3433 ], [ -3.4248, 40.3436 ], [ -3.424, 40.344 ], [ -3.423, 40.3441 ], [ -3.4225, 40.344 ], [ -3.4212, 40.3443 ], [ -3.4205, 40.345 ], [ -3.4203, 40.3455 ], [ -3.4197, 40.3457 ], [ -3.4184, 40.3468 ] ] ] } },
{ "type": "Feature", "properties": { "municipio": "Campo Real", "clasificacion": "no-urbanizable-protegido", "calificacion": "sin-asignar", "version": "vigente", "fuente": "SIT-CAM WFS — UsoDelSuelo:VPLA_V_CLASIFICACION (https://idem.comunidad.madrid/geosrvg/ows)", "fecha_dato": "2026-05-12", "ambito": "38692", "_raw_CD_SIGLAS": "SNUP_A", "_raw_DS_CLASIF_GEN": "Suelo No Urbanizable Protegido (APLAZADO)", "_raw_DS_CLASIF_DET": "Suelo No Urbanizable Protegido de Interés paisajístico", "_raw_DS_DOCU": "NORMAS SUBSIDIARIAS", "_raw_DS_LEY": "CM Ley 9/1995, E RDL 1/1992", "_raw_FC_AC": "1999-03-18", "_raw_NM_AREA_M2": 7610220.9415970603, "_cam_code": "033" }, "geometry": { "type": "Polygon", "coordinates": [ [ [ -3.3827, 40.3414 ], [ -3.3838, 40.3424 ], [ -3.3843, 40.3422 ], [ -3.3844, 40.342 ], [ -3.3842, 40.3422 ], [ -3.3838, 40.3419 ], [ -3.384, 40.3417 ], [ -3.3844, 40.342 ], [ -3.3861, 40.3415 ], [ -3.3872, 40.3409 ], [ -3.3884, 40.3407 ], [ -3.3889, 40.3404 ], [ -3.3905, 40.3401 ], [ -3.3909, 40.3396 ], [ -3.3905, 40.3388 ], [ -3.3906, 40.3385 ], [ -3.3913, 40.3382 ], [ -3.393, 40.3384 ], [ -3.3937, 40.3387 ], [ -3.3962, 40.339 ], [ -3.3977, 40.339 ], [ -3.3987, 40.3388 ], [ -3.3997, 40.338 ], [ -3.4003, 40.337 ], [ -3.4008, 40.3366 ], [ -3.4012, 40.3366 ], [ -3.4015, 40.3364 ], [ -3.4022, 40.3351 ], [ -3.4028, 40.3348 ], [ -3.4029, 40.3343 ], [ -3.4026, 40.3337 ], [ -3.4053, 40.3345 ], [ -3.4068, 40.3346 ], [ -3.408, 40.335 ], [ -3.4089, 40.335 ], [ -3.4101, 40.3348 ], [ -3.4106, 40.335 ], [ -3.4109, 40.3353 ], [ -3.4134, 40.3356 ], [ -3.4144, 40.3355 ], [ -3.415, 40.3356 ], [ -3.4169, 40.3342 ], [ -3.4177, 40.3342 ], [ -3.4187, 40.3337 ], [ -3.4193, 40.3336 ], [ -3.42, 40.3332 ], [ -3.4204, 40.3332 ], [ -3.421, 40.3324 ], [ -3.4211, 40.3317 ], [ -3.42, 40.331 ], [ -3.42, 40.3308 ], [ -3.4206, 40.3305 ], [ -3.4217, 40.3305 ], [ -3.4227, 40.3301 ], [ -3.4229, 40.3297 ], [ -3.4225, 40.3287 ], [ -3.4256, 40.3286 ], [ -3.426, 40.3283 ], [ -3.4265, 40.3273 ], [ -3.4265, 40.3269 ], [ -3.4259, 40.3264 ], [ -3.4234, 40.3257 ], [ -3.4196, 40.3261 ], [ -3.4189, 40.3264 ], [ -3.4178, 40.3266 ], [ -3.4174, 40.3261 ], [ -3.4179, 40.3261 ], [ -3.4226, 40.3252 ], [ -3.4233, 40.3249 ], [ -3.4255, 40.3251 ], [ -3.4265, 40.3248 ], [ -3.4287, 40.3245 ], [ -3.4302, 40.3245 ], [ -3.432, 40.3231 ], [ -3.432, 40.3218 ], [ -3.4302, 40.3182 ], [ -3.4272, 40.3184 ], [ -3.42, 40.3205 ], [ -3.4188, 40.3207 ], [ -3.4161, 40.3215 ], [ -3.4149, 40.3216 ], [ -3.414, 40.3219 ], [ -3.4133, 40.3219 ], [ -3.4124, 40.3221 ], [ -3.4107, 40.3227 ], [ -3.41, 40.3234 ], [ -3.4094, 40.3234 ], [ -3.4083, 40.3237 ], [ -3.4081, 40.324 ], [ -3.4079, 40.324 ], [ -3.4074, 40.3247 ], [ -3.4064, 40.3248 ], [ -3.4046, 40.3254 ], [ -3.4042, 40.3259 ], [ -3.4038, 40.3261 ], [ -3.4035, 40.3266 ], [ -3.4024, 40.327 ], [ -3.4021, 40.3273 ], [ -3.4019, 40.3272 ], [ -3.4026, 40.3265 ], [ -3.4037, 40.3258 ], [ -3.4043, 40.325 ], [ -3.4049, 40.3245 ], [ -3.4064, 40.3241 ], [ -3.4073, 40.3236 ], [ -3.4068, 40.3232 ], [ -3.406, 40.3233 ], [ -3.406, 40.3229 ], [ -3.4077, 40.3225 ], [ -3.4085, 40.322 ], [ -3.4086, 40.3217 ], [ -3.4072, 40.3214 ], [ -3.4085, 40.3211 ], [ -3.4106, 40.3212 ], [ -3.4121, 40.321 ], [ -3.4132, 40.3205 ], [ -3.4164, 40.3203 ], [ -3.4209, 40.3185 ], [ -3.4198, 40.3182 ], [ -3.4178, 40.318 ], [ -3.4141, 40.318 ], [ -3.4132, 40.3178 ], [ -3.4121, 40.3172 ], [ -3.4108, 40.3169 ], [ -3.4117, 40.3168 ], [ -3.4132, 40.3173 ], [ -3.4166, 40.3169 ], [ -3.4172, 40.3171 ], [ -3.4203, 40.3175 ], [ -3.4227, 40.3173 ], [ -3.4238, 40.3168 ], [ -3.4244, 40.3169 ], [ -3.4237, 40.316 ], [ -3.4226, 40.3157 ], [ -3.423, 40.3155 ], [ -3.4234, 40.3155 ], [ -3.4239, 40.3147 ], [ -3.4218, 40.3142 ], [ -3.4154, 40.3134 ], [ -3.4123, 40.311 ], [ -3.4079, 40.3091 ], [ -3.4084, 40.3078 ], [ -3.4083, 40.3063 ], [ -3.404, 40.3054 ], [ -3.4019, 40.3051 ], [ -3.4005, 40.303 ], [ -3.4004, 40.303 ], [ -3.3986, 40.3042 ], [ -3.3984, 40.3045 ], [ -3.3979, 40.3061 ], [ -3.397, 40.3067 ], [ -3.3967, 40.3072 ], [ -3.3965, 40.308 ], [ -3.3965, 40.3084 ], [ -3.3967, 40.3089 ], [ -3.3967, 40.3106 ], [ -3.3965, 40.311 ], [ -3.3961, 40.3114 ], [ -3.3956, 40.3116 ], [ -3.3951, 40.3122 ], [ -3.3942, 40.3126 ], [ -3.3941, 40.3137 ], [ -3.3953, 40.3148 ], [ -3.3953, 40.3152 ], [ -3.3958, 40.3162 ], [ -3.396, 40.3171 ], [ -3.3954, 40.3181 ], [ -3.3954, 40.3187 ], [ -3.3946, 40.3192 ], [ -3.3937, 40.3203 ], [ -3.3929, 40.3209 ], [ -3.3922, 40.321 ], [ -3.3922, 40.3212 ], [ -3.3915, 40.3224 ], [ -3.3913, 40.323 ], [ -3.3876, 40.326 ], [ -3.3865, 40.3275 ], [ -3.3857, 40.3279 ], [ -3.3843, 40.3298 ], [ -3.3843, 40.3302 ], [ -3.3849, 40.3308 ], [ -3.3855, 40.3308 ], [ -3.3862, 40.3304 ], [ -3.3869, 40.3302 ], [ -3.3879, 40.3303 ], [ -3.3883, 40.3305 ], [ -3.3884, 40.3308 ], [ -3.3883, 40.3311 ], [ -3.3876, 40.3314 ], [ -3.3872, 40.3313 ], [ -3.3866, 40.3314 ], [ -3.3858, 40.3324 ], [ -3.3857, 40.3328 ], [ -3.3854, 40.333 ], [ -3.3857, 40.3343 ], [ -3.3857, 40.3352 ], [ -3.3861, 40.335 ], [ -3.3864, 40.335 ], [ -3.3865, 40.3347 ], [ -3.3864, 40.3342 ], [ -3.3865, 40.3341 ], [ -3.387, 40.3342 ], [ -3.3873, 40.3339 ], [ -3.3878, 40.3341 ], [ -3.3885, 40.3331 ], [ -3.3893, 40.3323 ], [ -3.39, 40.3319 ], [ -3.3906, 40.3319 ], [ -3.392, 40.3322 ], [ -3.3948, 40.3321 ], [ -3.3951, 40.3326 ], [ -3.3953, 40.3325 ], [ -3.396, 40.3332 ], [ -3.3974, 40.3325 ], [ -3.4011, 40.3317 ], [ -3.4012, 40.332 ], [ -3.4015, 40.3321 ], [ -3.4012, 40.3332 ], [ -3.4003, 40.3335 ], [ -3.3995, 40.3335 ], [ -3.3995, 40.3336 ], [ -3.4001, 40.3337 ], [ -3.4013, 40.3336 ], [ -3.4027, 40.3343 ], [ -3.4027, 40.3346 ], [ -3.4022, 40.3349 ], [ -3.4017, 40.3348 ], [ -3.4017, 40.3351 ], [ -3.4013, 40.3359 ], [ -3.4013, 40.3362 ], [ -3.4001, 40.3359 ], [ -3.4003, 40.3363 ], [ -3.4003, 40.3368 ], [ -3.4001, 40.3369 ], [ -3.3987, 40.337 ], [ -3.3979, 40.3367 ], [ -3.3979, 40.3369 ], [ -3.3986, 40.3373 ], [ -3.3993, 40.3375 ], [ -3.3995, 40.3378 ], [ -3.3992, 40.3381 ], [ -3.3987, 40.3383 ], [ -3.3968, 40.3382 ], [ -3.3953, 40.3386 ], [ -3.3934, 40.338 ], [ -3.3919, 40.3377 ], [ -3.3914, 40.3373 ], [ -3.3902, 40.3368 ], [ -3.3899, 40.3369 ], [ -3.3888, 40.3367 ], [ -3.3885, 40.3368 ], [ -3.3886, 40.337 ], [ -3.3896, 40.3372 ], [ -3.3899, 40.3374 ], [ -3.3899, 40.3377 ], [ -3.3892, 40.3379 ], [ -3.389, 40.3382 ], [ -3.3886, 40.338 ], [ -3.3878, 40.338 ], [ -3.3887, 40.3387 ], [ -3.3886, 40.339 ], [ -3.3887, 40.3391 ], [ -3.3855, 40.3401 ], [ -3.3853, 40.3404 ], [ -3.3839, 40.341 ], [ -3.3839, 40.3411 ], [ -3.3838, 40.341 ], [ -3.3832, 40.3411 ], [ -3.3827, 40.3414 ] ] ] } },
{ "type": "Feature", "properties": { "municipio": "Campo Real", "clasificacion": "no-urbanizable-protegido", "calificacion": "sin-asignar", "version": "vigente", "fuente": "SIT-CAM WFS — UsoDelSuelo:VPLA_V_CLASIFICACION (https://idem.comunidad.madrid/geosrvg/ows)", "fecha_dato": "2026-05-12", "ambito": "38692", "_raw_CD_SIGLAS": "SNUP_A", "_raw_DS_CLASIF_GEN": "Suelo No Urbanizable Protegido (APLAZADO)", "_raw_DS_CLASIF_DET": "Suelo No Urbanizable Protegido de Interés paisajístico", "_raw_DS_DOCU": "NORMAS SUBSIDIARIAS", "_raw_DS_LEY": "CM Ley 9/1995, E RDL 1/1992", "_raw_FC_AC": "1999-03-18", "_raw_NM_AREA_M2": 3682083.4171985602, "_cam_code": "033" }, "geometry": { "type": "Polygon", "coordinates": [ [ [ -3.387, 40.3164 ], [ -3.3876, 40.3169 ], [ -3.3876, 40.3171 ], [ -3.3875, 40.3174 ], [ -3.3865, 40.3185 ], [ -3.3864, 40.3188 ], [ -3.3866, 40.3196 ], [ -3.3862, 40.3202 ], [ -3.3861, 40.3208 ], [ -3.3867, 40.321 ], [ -3.3869, 40.3213 ], [ -3.3868, 40.3217 ], [ -3.3872, 40.3221 ], [ -3.3871, 40.323 ], [ -3.3876, 40.3226 ], [ -3.3875, 40.3213 ], [ -3.3887, 40.3201 ], [ -3.3887, 40.3196 ], [ -3.3893, 40.3188 ], [ -3.3892, 40.3184 ], [ -3.3894, 40.3182 ], [ -3.3898, 40.3182 ], [ -3.3908, 40.3174 ], [ -3.3916, 40.3165 ], [ -3.3915, 40.3162 ], [ -3.3907, 40.3161 ], [ -3.3892, 40.3153 ], [ -3.3893, 40.315 ], [ -3.389, 40.313 ], [ -3.3891, 40.3127 ], [ -3.3894, 40.3124 ], [ -3.3899, 40.3123 ], [ -3.3903, 40.3127 ], [ -3.391, 40.3131 ], [ -3.3919, 40.3132 ], [ -3.3922, 40.313 ], [ -3.3927, 40.313 ], [ -3.3935, 40.3135 ], [ -3.394, 40.3136 ], [ -3.3941, 40.3126 ], [ -3.3948, 40.3123 ], [ -3.3957, 40.3114 ], [ -3.3961, 40.3113 ], [ -3.3966, 40.3105 ], [ -3.3966, 40.309 ], [ -3.3964, 40.3084 ], [ -3.3965, 40.3075 ], [ -3.3969, 40.3067 ], [ -3.3978, 40.3061 ], [ -3.3984, 40.3042 ], [ -3.3971, 40.3041 ], [ -3.396, 40.3035 ], [ -3.396, 40.3026 ], [ -3.3954, 40.3018 ], [ -3.3918, 40.3004 ], [ -3.3867, 40.2995 ], [ -3.3854, 40.2995 ], [ -3.3838, 40.3 ], [ -3.3824, 40.2994 ], [ -3.3824, 40.2977 ], [ -3.3796, 40.2978 ], [ -3.3774, 40.2949 ], [ -3.3768, 40.2939 ], [ -3.3761, 40.2939 ], [ -3.3751, 40.2944 ], [ -3.3746, 40.2944 ], [ -3.374, 40.2947 ], [ -3.3724, 40.2949 ], [ -3.3723, 40.2954 ], [ -3.372, 40.2956 ], [ -3.3719, 40.2961 ], [ -3.3715, 40.2964 ], [ -3.3715, 40.2968 ], [ -3.3723, 40.2977 ], [ -3.3712, 40.2986 ], [ -3.3694, 40.2989 ], [ -3.3682, 40.2989 ], [ -3.3681, 40.2993 ], [ -3.3679, 40.2995 ], [ -3.3669, 40.2987 ], [ -3.3666, 40.2989 ], [ -3.3665, 40.2991 ], [ -3.3666, 40.2994 ], [ -3.3677, 40.301 ], [ -3.3675, 40.3012 ], [ -3.3669, 40.3013 ], [ -3.3665, 40.3008 ], [ -3.366, 40.3009 ], [ -3.3654, 40.3007 ], [ -3.3652, 40.3009 ], [ -3.3647, 40.3004 ], [ -3.3642, 40.3008 ], [ -3.3638, 40.301 ], [ -3.3635, 40.301 ], [ -3.3634, 40.3012 ], [ -3.3631, 40.3013 ], [ -3.3627, 40.3013 ], [ -3.362, 40.301 ], [ -3.3609, 40.301 ], [ -3.3608, 40.3011 ], [ -3.3605, 40.3008 ], [ -3.3597, 40.3007 ], [ -3.3594, 40.3008 ], [ -3.3593, 40.3012 ], [ -3.3588, 40.3015 ], [ -3.3587, 40.3018 ], [ -3.3588, 40.302 ], [ -3.3593, 40.3023 ], [ -3.3622, 40.3026 ], [ -3.3623, 40.3025 ], [ -3.363, 40.3026 ], [ -3.3631, 40.3023 ], [ -3.3637, 40.3023 ], [ -3.3644, 40.3025 ], [ -3.3651, 40.3024 ], [ -3.3667, 40.3031 ], [ -3.3671, 40.3038 ], [ -3.3686, 40.3041 ], [ -3.3691, 40.3033 ], [ -3.3692, 40.3025 ], [ -3.3713, 40.3006 ], [ -3.3727, 40.3008 ], [ -3.3745, 40.3006 ], [ -3.3758, 40.3008 ], [ -3.377, 40.3017 ], [ -3.3772, 40.3022 ], [ -3.3772, 40.3033 ], [ -3.375, 40.305 ], [ -3.3746, 40.305 ], [ -3.3725, 40.3061 ], [ -3.3722, 40.3065 ], [ -3.3723, 40.307 ], [ -3.3722, 40.3077 ], [ -3.3726, 40.3079 ], [ -3.3727, 40.3082 ], [ -3.3733, 40.3087 ], [ -3.3741, 40.3092 ], [ -3.3756, 40.3097 ], [ -3.3769, 40.3097 ], [ -3.3777, 40.3099 ], [ -3.3788, 40.3107 ], [ -3.3792, 40.3112 ], [ -3.3797, 40.3125 ], [ -3.3799, 40.3139 ], [ -3.3807, 40.3163 ], [ -3.3823, 40.317 ], [ -3.3844, 40.3174 ], [ -3.3848, 40.3173 ], [ -3.3862, 40.3163 ], [ -3.387, 40.3164 ] ] ] } },
{ "type": "Feature", "properties": { "municipio": "Campo Real", "clasificacion": "no-urbanizable-protegido", "calificacion": "sin-asignar", "version": "vigente", "fuente": "SIT-CAM WFS — UsoDelSuelo:VPLA_V_CLASIFICACION (https://idem.comunidad.madrid/geosrvg/ows)", "fecha_dato": "2026-05-12", "ambito": "38692", "_raw_CD_SIGLAS": "SNUP_A", "_raw_DS_CLASIF_GEN": "Suelo No Urbanizable Protegido (APLAZADO)", "_raw_DS_CLASIF_DET": "Suelo No Urbanizable Protegido de Interés paisajístico", "_raw_DS_DOCU": "NORMAS SUBSIDIARIAS", "_raw_DS_LEY": "CM Ley 9/1995, E RDL 1/1992", "_raw_FC_AC": "1999-03-18", "_raw_NM_AREA_M2": 1599069.8567439299, "_cam_code": "033" }, "geometry": { "type": "Polygon", "coordinates": [ [ [ -3.4157, 40.339 ], [ -3.4166, 40.3416 ], [ -3.4162, 40.342 ], [ -3.4161, 40.3427 ], [ -3.4162, 40.3431 ], [ -3.4156, 40.3435 ], [ -3.4158, 40.3445 ], [ -3.4156, 40.3453 ], [ -3.4146, 40.3459 ], [ -3.4144, 40.3468 ], [ -3.4154, 40.3462 ], [ -3.4159, 40.3461 ], [ -3.4173, 40.3464 ], [ -3.4175, 40.3462 ], [ -3.4172, 40.3455 ], [ -3.4172, 40.345 ], [ -3.4177, 40.3447 ], [ -3.4189, 40.3436 ], [ -3.4217, 40.3427 ], [ -3.4227, 40.342 ], [ -3.4232, 40.3419 ], [ -3.4238, 40.3422 ], [ -3.4246, 40.3423 ], [ -3.4248, 40.3421 ], [ -3.4261, 40.3419 ], [ -3.4269, 40.3416 ], [ -3.4276, 40.3411 ], [ -3.4285, 40.3408 ], [ -3.4298, 40.3407 ], [ -3.4307, 40.3409 ], [ -3.4316, 40.3387 ], [ -3.4316, 40.3376 ], [ -3.4302, 40.3379 ], [ -3.4296, 40.3384 ], [ -3.4295, 40.3365 ], [ -3.4293, 40.3362 ], [ -3.4287, 40.3361 ], [ -3.4284, 40.3357 ], [ -3.4286, 40.3355 ], [ -3.4288, 40.3355 ], [ -3.4289, 40.3351 ], [ -3.4288, 40.3341 ], [ -3.4289, 40.3338 ], [ -3.4294, 40.3338 ], [ -3.4297, 40.3342 ], [ -3.43, 40.3343 ], [ -3.4315, 40.3343 ], [ -3.4312, 40.332 ], [ -3.4316, 40.3294 ], [ -3.4318, 40.3258 ], [ -3.4309, 40.3256 ], [ -3.4297, 40.326 ], [ -3.4275, 40.3272 ], [ -3.4263, 40.3281 ], [ -3.4259, 40.3286 ], [ -3.4248, 40.3291 ], [ -3.4241, 40.3296 ], [ -3.4234, 40.3306 ], [ -3.4232, 40.3318 ], [ -3.4229, 40.3319 ], [ -3.4232, 40.3325 ], [ -3.4231, 40.3329 ], [ -3.42, 40.3347 ], [ -3.4191, 40.3355 ], [ -3.4162, 40.3368 ], [ -3.4161, 40.3377 ], [ -3.4157, 40.339 ] ] ] } },
{ "type": "Feature", "properties": { "municipio": "Campo Real", "clasificacion": "no-urbanizable-protegido", "calificacion": "sin-asignar", "version": "vigente", "fuente": "SIT-CAM WFS — UsoDelSuelo:VPLA_V_CLASIFICACION (https://idem.comunidad.madrid/geosrvg/ows)", "fecha_dato": "2026-05-12", "ambito": "38692", "_raw_CD_SIGLAS": "SNUP_A", "_raw_DS_CLASIF_GEN": "Suelo No Urbanizable Protegido (APLAZADO)", "_raw_DS_CLASIF_DET": "Suelo No Urbanizable Protegido de Interés forestal", "_raw_DS_DOCU": "NORMAS SUBSIDIARIAS", "_raw_DS_LEY": "CM Ley 9/1995, E RDL 1/1992", "_raw_FC_AC": "1999-03-18", "_raw_NM_AREA_M2": 6185.1309251817001, "_cam_code": "033" }, "geometry": { "type": "Polygon", "coordinates": [ [ [ -3.3726, 40.3616 ], [ -3.3736, 40.3622 ], [ -3.3732, 40.3618 ], [ -3.3732, 40.3615 ], [ -3.3733, 40.3615 ], [ -3.3734, 40.3612 ], [ -3.3733, 40.361 ], [ -3.3727, 40.361 ], [ -3.3726, 40.3616 ] ] ] } },
{ "type": "Feature", "properties": { "municipio": "Campo Real", "clasificacion": "no-urbanizable-protegido", "calificacion": "sin-asignar", "version": "vigente", "fuente": "SIT-CAM WFS — UsoDelSuelo:VPLA_V_CLASIFICACION (https://idem.comunidad.madrid/geosrvg/ows)", "fecha_dato": "2026-05-12", "ambito": "38692", "_raw_CD_SIGLAS": "SNUP_A", "_raw_DS_CLASIF_GEN": "Suelo No Urbanizable Protegido (APLAZADO)", "_raw_DS_CLASIF_DET": "Suelo No Urbanizable Protegido de Interés forestal", "_raw_DS_DOCU": "NORMAS SUBSIDIARIAS", "_raw_DS_LEY": "CM Ley 9/1995, E RDL 1/1992", "_raw_FC_AC": "1999-03-18", "_raw_NM_AREA_M2": 11739.6395331, "_cam_code": "033" }, "geometry": { "type": "Polygon", "coordinates": [ [ [ -3.3855, 40.3595 ], [ -3.3849, 40.3607 ], [ -3.3869, 40.3601 ], [ -3.3865, 40.3597 ], [ -3.3855, 40.3595 ] ] ] } },
{ "type": "Feature", "properties": { "municipio": "Campo Real", "clasificacion": "no-urbanizable-protegido", "calificacion": "sin-asignar", "version": "vigente", "fuente": "SIT-CAM WFS — UsoDelSuelo:VPLA_V_CLASIFICACION (https://idem.comunidad.madrid/geosrvg/ows)", "fecha_dato": "2026-05-12", "ambito": "38692", "_raw_CD_SIGLAS": "SNUP_A", "_raw_DS_CLASIF_GEN": "Suelo No Urbanizable Protegido (APLAZADO)", "_raw_DS_CLASIF_DET": "Suelo No Urbanizable Protegido de Interés forestal", "_raw_DS_DOCU": "NORMAS SUBSIDIARIAS", "_raw_DS_LEY": "CM Ley 9/1995, E RDL 1/1992", "_raw_FC_AC": "1999-03-18", "_raw_NM_AREA_M2": 2394.5778234407298, "_cam_code": "033" }, "geometry": { "type": "Polygon", "coordinates": [ [ [ -3.3889, 40.3589 ], [ -3.3892, 40.3593 ], [ -3.3901, 40.359 ], [ -3.3891, 40.3588 ], [ -3.3889, 40.3589 ] ] ] } },
{ "type": "Feature", "properties": { "municipio": "Campo Real", "clasificacion": "no-urbanizable-protegido", "calificacion": "sin-asignar", "version": "vigente", "fuente": "SIT-CAM WFS — UsoDelSuelo:VPLA_V_CLASIFICACION (https://idem.comunidad.madrid/geosrvg/ows)", "fecha_dato": "2026-05-12", "ambito": "38692", "_raw_CD_SIGLAS": "SNUP_A", "_raw_DS_CLASIF_GEN": "Suelo No Urbanizable Protegido (APLAZADO)", "_raw_DS_CLASIF_DET": "Suelo No Urbanizable Protegido de Interés forestal", "_raw_DS_DOCU": "NORMAS SUBSIDIARIAS", "_raw_DS_LEY": "CM Ley 9/1995, E RDL 1/1992", "_raw_FC_AC": "1999-03-18", "_raw_NM_AREA_M2": 88706.132943878503, "_cam_code": "033" }, "geometry": { "type": "Polygon", "coordinates": [ [ [ -3.4069, 40.3513 ], [ -3.4073, 40.3514 ], [ -3.4075, 40.3516 ], [ -3.4085, 40.353 ], [ -3.4089, 40.353 ], [ -3.4093, 40.3521 ], [ -3.4111, 40.3519 ], [ -3.4099, 40.3509 ], [ -3.4093, 40.3501 ], [ -3.4083, 40.3496 ], [ -3.4082, 40.3493 ], [ -3.4075, 40.3493 ], [ -3.407, 40.3495 ], [ -3.4068, 40.3497 ], [ -3.4068, 40.3502 ], [ -3.4066, 40.3504 ], [ -3.4064, 40.3504 ], [ -3.4061, 40.3507 ], [ -3.4058, 40.3506 ], [ -3.4056, 40.3508 ], [ -3.4059, 40.3516 ], [ -3.4069, 40.3513 ] ] ] } },
{ "type": "Feature", "properties": { "municipio": "Campo Real", "clasificacion": "no-urbanizable-protegido", "calificacion": "sin-asignar", "version": "vigente", "fuente": "SIT-CAM WFS — UsoDelSuelo:VPLA_V_CLASIFICACION (https://idem.comunidad.madrid/geosrvg/ows)", "fecha_dato": "2026-05-12", "ambito": "38692", "_raw_CD_SIGLAS": "SNUP_A", "_raw_DS_CLASIF_GEN": "Suelo No Urbanizable Protegido (APLAZADO)", "_raw_DS_CLASIF_DET": "Suelo No Urbanizable Protegido de Interés Agrícola", "_raw_DS_DOCU": "NORMAS SUBSIDIARIAS", "_raw_DS_LEY": "CM Ley 9/1995, E RDL 1/1992", "_raw_FC_AC": "1999-03-18", "_raw_NM_AREA_M2": 224781.47276352599, "_cam_code": "033" }, "geometry": { "type": "Polygon", "coordinates": [ [ [ -3.3484, 40.2738 ], [ -3.3476, 40.2759 ], [ -3.3464, 40.2779 ], [ -3.3442, 40.2823 ], [ -3.3454, 40.282 ], [ -3.3458, 40.2817 ], [ -3.3465, 40.2815 ], [ -3.3471, 40.2808 ], [ -3.3475, 40.2798 ], [ -3.3485, 40.2783 ], [ -3.3504, 40.2768 ], [ -3.3508, 40.2752 ], [ -3.3526, 40.272 ], [ -3.3484, 40.2738 ] ] ] } },
{ "type": "Feature", "properties": { "municipio": "Campo Real", "clasificacion": "urbano-consolidado", "calificacion": "sin-asignar", "version": "vigente", "fuente": "SIT-CAM WFS — UsoDelSuelo:VPLA_V_CLASIFICACION (https://idem.comunidad.madrid/geosrvg/ows)", "fecha_dato": "2026-05-12", "ambito": "38692", "_raw_CD_SIGLAS": "SU", "_raw_DS_CLASIF_GEN": "Suelo Urbano", "_raw_DS_CLASIF_DET": "Suelo Urbano", "_raw_DS_DOCU": "NORMAS SUBSIDIARIAS", "_raw_DS_LEY": "CM Ley 9/1995, E RDL 1/1992", "_raw_FC_AC": "1999-03-18", "_raw_NM_AREA_M2": 8849.2411236768094, "_cam_code": "033" }, "geometry": { "type": "Polygon", "coordinates": [ [ [ -3.3791, 40.3427 ], [ -3.3786, 40.343 ], [ -3.38, 40.3429 ], [ -3.38, 40.3428 ], [ -3.3802, 40.3428 ], [ -3.3802, 40.3424 ], [ -3.3798, 40.342 ], [ -3.3793, 40.3422 ], [ -3.379, 40.342 ], [ -3.3791, 40.3427 ] ] ] } },
{ "type": "Feature", "properties": { "municipio": "Campo Real", "clasificacion": "urbano-consolidado", "calificacion": "sin-asignar", "version": "vigente", "fuente": "SIT-CAM WFS — UsoDelSuelo:VPLA_V_CLASIFICACION (https://idem.comunidad.madrid/geosrvg/ows)", "fecha_dato": "2026-05-12", "ambito": "38692", "_raw_CD_SIGLAS": "SU", "_raw_DS_CLASIF_GEN": "Suelo Urbano", "_raw_DS_CLASIF_DET": "Suelo Urbano", "_raw_DS_DOCU": "NORMAS SUBSIDIARIAS", "_raw_DS_LEY": "CM Ley 9/1995, E RDL 1/1992", "_raw_FC_AC": "1999-03-18", "_raw_NM_AREA_M2": 427696.83159567899, "_cam_code": "033" }, "geometry": { "type": "Polygon", "coordinates": [ [ [ -3.3934, 40.338 ], [ -3.3953, 40.3386 ], [ -3.3968, 40.3382 ], [ -3.3987, 40.3383 ], [ -3.3995, 40.3379 ], [ -3.3993, 40.3375 ], [ -3.3982, 40.3371 ], [ -3.3979, 40.3369 ], [ -3.3979, 40.3367 ], [ -3.3987, 40.337 ], [ -3.4001, 40.3369 ], [ -3.4003, 40.3368 ], [ -3.4003, 40.3363 ], [ -3.4001, 40.3359 ], [ -3.4013, 40.3362 ], [ -3.4013, 40.3359 ], [ -3.4017, 40.3351 ], [ -3.4017, 40.3348 ], [ -3.4022, 40.3349 ], [ -3.4027, 40.3346 ], [ -3.4027, 40.3343 ], [ -3.4013, 40.3336 ], [ -3.4001, 40.3337 ], [ -3.3995, 40.3336 ], [ -3.3995, 40.3335 ], [ -3.4003, 40.3335 ], [ -3.4012, 40.3332 ], [ -3.4015, 40.3321 ], [ -3.4012, 40.332 ], [ -3.4011, 40.3317 ], [ -3.401, 40.3317 ], [ -3.3974, 40.3325 ], [ -3.3947, 40.3339 ], [ -3.3941, 40.3341 ], [ -3.3924, 40.3352 ], [ -3.3918, 40.3354 ], [ -3.3918, 40.3359 ], [ -3.3916, 40.3359 ], [ -3.3915, 40.3374 ], [ -3.3919, 40.3377 ], [ -3.3934, 40.338 ] ] ] } },
{ "type": "Feature", "properties": { "municipio": "Campo Real", "clasificacion": "urbano-consolidado", "calificacion": "sin-asignar", "version": "vigente", "fuente": "SIT-CAM WFS — UsoDelSuelo:VPLA_V_CLASIFICACION (https://idem.comunidad.madrid/geosrvg/ows)", "fecha_dato": "2026-05-12", "ambito": "38692", "_raw_CD_SIGLAS": "SU", "_raw_DS_CLASIF_GEN": "Suelo Urbano", "_raw_DS_CLASIF_DET": "Suelo Urbano", "_raw_DS_DOCU": "NORMAS SUBSIDIARIAS", "_raw_DS_LEY": "CM Ley 9/1995, E RDL 1/1992", "_raw_FC_AC": "1999-03-18", "_raw_NM_AREA_M2": 1581.25292500765, "_cam_code": "033" }, "geometry": { "type": "Polygon", "coordinates": [ [ [ -3.384, 40.3417 ], [ -3.3838, 40.3419 ], [ -3.3842, 40.3422 ], [ -3.3844, 40.342 ], [ -3.384, 40.3417 ] ] ] } },
{ "type": "Feature", "properties": { "municipio": "Campo Real", "clasificacion": "urbano-consolidado", "calificacion": "sin-asignar", "version": "vigente", "fuente": "SIT-CAM WFS — UsoDelSuelo:VPLA_V_CLASIFICACION (https://idem.comunidad.madrid/geosrvg/ows)", "fecha_dato": "2026-05-12", "ambito": "38692", "_raw_CD_SIGLAS": "SU", "_raw_DS_CLASIF_GEN": "Suelo Urbano", "_raw_DS_CLASIF_DET": "Suelo Urbano", "_raw_DS_DOCU": "NORMAS SUBSIDIARIAS", "_raw_DS_LEY": "CM Ley 9/1995, E RDL 1/1992", "_raw_FC_AC": "1999-03-18", "_raw_NM_AREA_M2": 1239678.04457005, "_cam_code": "033" }, "geometry": { "type": "Polygon", "coordinates": [ [ [ -3.3761, 40.3463 ], [ -3.3766, 40.3459 ], [ -3.3773, 40.3456 ], [ -3.3784, 40.3444 ], [ -3.3786, 40.344 ], [ -3.3784, 40.3432 ], [ -3.3791, 40.3427 ], [ -3.379, 40.342 ], [ -3.3793, 40.3422 ], [ -3.3798, 40.342 ], [ -3.3802, 40.3424 ], [ -3.3802, 40.3428 ], [ -3.3805, 40.3428 ], [ -3.3805, 40.3425 ], [ -3.3803, 40.3423 ], [ -3.3809, 40.3418 ], [ -3.3815, 40.3418 ], [ -3.3816, 40.3416 ], [ -3.3821, 40.3416 ], [ -3.3832, 40.3411 ], [ -3.3838, 40.341 ], [ -3.3839, 40.3411 ], [ -3.3839, 40.341 ], [ -3.3853, 40.3404 ], [ -3.3855, 40.3401 ], [ -3.3887, 40.3391 ], [ -3.3886, 40.339 ], [ -3.3887, 40.3387 ], [ -3.3878, 40.338 ], [ -3.3886, 40.338 ], [ -3.389, 40.3382 ], [ -3.3892, 40.3379 ], [ -3.3899, 40.3377 ], [ -3.3898, 40.3373 ], [ -3.3886, 40.337 ], [ -3.3884, 40.3367 ], [ -3.3886, 40.3363 ], [ -3.3894, 40.3356 ], [ -3.389, 40.3355 ], [ -3.3892, 40.3349 ], [ -3.3887, 40.3346 ], [ -3.3888, 40.3339 ], [ -3.3882, 40.3336 ], [ -3.3878, 40.3341 ], [ -3.3873, 40.3339 ], [ -3.387, 40.3342 ], [ -3.3865, 40.3341 ], [ -3.3864, 40.3342 ], [ -3.3865, 40.3345 ], [ -3.3864, 40.335 ], [ -3.3861, 40.335 ], [ -3.3854, 40.3353 ], [ -3.3849, 40.3353 ], [ -3.384, 40.336 ], [ -3.3839, 40.3364 ], [ -3.3833, 40.3365 ], [ -3.383, 40.337 ], [ -3.3826, 40.3372 ], [ -3.3815, 40.3365 ], [ -3.3812, 40.3358 ], [ -3.3802, 40.336 ], [ -3.3798, 40.3362 ], [ -3.3801, 40.3365 ], [ -3.3796, 40.3381 ], [ -3.3792, 40.3385 ], [ -3.3788, 40.3385 ], [ -3.3781, 40.3395 ], [ -3.3778, 40.3397 ], [ -3.3775, 40.3396 ], [ -3.3774, 40.3397 ], [ -3.377, 40.3392 ], [ -3.3773, 40.3384 ], [ -3.377, 40.3382 ], [ -3.3767, 40.3382 ], [ -3.3763, 40.3379 ], [ -3.3757, 40.3381 ], [ -3.376, 40.3372 ], [ -3.3766, 40.3365 ], [ -3.3765, 40.3365 ], [ -3.376, 40.337 ], [ -3.3756, 40.338 ], [ -3.3762, 40.3393 ], [ -3.3762, 40.3396 ], [ -3.3761, 40.3396 ], [ -3.3745, 40.3384 ], [ -3.3747, 40.3383 ], [ -3.3736, 40.3374 ], [ -3.3731, 40.3368 ], [ -3.3722, 40.3361 ], [ -3.3714, 40.3359 ], [ -3.3718, 40.3354 ], [ -3.3721, 40.3353 ], [ -3.3719, 40.3347 ], [ -3.3723, 40.3348 ], [ -3.3734, 40.3347 ], [ -3.3739, 40.3352 ], [ -3.3743, 40.3352 ], [ -3.3749, 40.3346 ], [ -3.3749, 40.3344 ], [ -3.3754, 40.3342 ], [ -3.3753, 40.3339 ], [ -3.3757, 40.3341 ], [ -3.3763, 40.3341 ], [ -3.376, 40.3337 ], [ -3.376, 40.3335 ], [ -3.3766, 40.3333 ], [ -3.3767, 40.3331 ], [ -3.3774, 40.3334 ], [ -3.3779, 40.3339 ], [ -3.377, 40.3294 ], [ -3.3692, 40.3303 ], [ -3.3698, 40.3329 ], [ -3.3705, 40.333 ], [ -3.37, 40.3331 ], [ -3.3685, 40.3345 ], [ -3.3682, 40.3344 ], [ -3.3698, 40.3354 ], [ -3.3723, 40.3364 ], [ -3.3734, 40.3374 ], [ -3.3728, 40.3381 ], [ -3.3726, 40.338 ], [ -3.3724, 40.3382 ], [ -3.3725, 40.3384 ], [ -3.3723, 40.3385 ], [ -3.3722, 40.3384 ], [ -3.3713, 40.339 ], [ -3.3708, 40.339 ], [ -3.3715, 40.3399 ], [ -3.3715, 40.3402 ], [ -3.3712, 40.3409 ], [ -3.3713, 40.3409 ], [ -3.3714, 40.3415 ], [ -3.3724, 40.3416 ], [ -3.3724, 40.3407 ], [ -3.3732, 40.3407 ], [ -3.3746, 40.3424 ], [ -3.375, 40.3427 ], [ -3.3752, 40.3427 ], [ -3.3756, 40.3423 ], [ -3.3756, 40.3425 ], [ -3.3751, 40.343 ], [ -3.3748, 40.3438 ], [ -3.3744, 40.3435 ], [ -3.3733, 40.3438 ], [ -3.3731, 40.3437 ], [ -3.3728, 40.3441 ], [ -3.3737, 40.3449 ], [ -3.3739, 40.345 ], [ -3.3741, 40.3449 ], [ -3.3747, 40.3454 ], [ -3.3753, 40.3457 ], [ -3.3751, 40.3459 ], [ -3.3761, 40.3463 ] ] ] } },
{ "type": "Feature", "properties": { "municipio": "Campo Real", "clasificacion": "urbano-consolidado", "calificacion": "sin-asignar", "version": "vigente", "fuente": "SIT-CAM WFS — UsoDelSuelo:VPLA_V_CLASIFICACION (https://idem.comunidad.madrid/geosrvg/ows)", "fecha_dato": "2026-05-12", "ambito": "38692", "_raw_CD_SIGLAS": "SU_A", "_raw_DS_CLASIF_GEN": "Suelo Urbano (APLAZADO)", "_raw_DS_CLASIF_DET": "Suelo Urbano", "_raw_DS_DOCU": "NORMAS SUBSIDIARIAS", "_raw_DS_LEY": "CM Ley 9/1995, E RDL 1/1992", "_raw_FC_AC": "1999-03-18", "_raw_NM_AREA_M2": 2574.1581212411002, "_cam_code": "033" }, "geometry": { "type": "Polygon", "coordinates": [ [ [ -3.3797, 40.343 ], [ -3.3806, 40.3431 ], [ -3.3803, 40.3428 ], [ -3.3786, 40.343 ], [ -3.3786, 40.3431 ], [ -3.3788, 40.343 ], [ -3.379, 40.3431 ], [ -3.3797, 40.343 ] ] ] } },
{ "type": "Feature", "properties": { "municipio": "Campo Real", "clasificacion": "urbano-consolidado", "calificacion": "sin-asignar", "version": "vigente", "fuente": "SIT-CAM WFS — UsoDelSuelo:VPLA_V_CLASIFICACION (https://idem.comunidad.madrid/geosrvg/ows)", "fecha_dato": "2026-05-12", "ambito": "38692", "_raw_CD_SIGLAS": "SU_A", "_raw_DS_CLASIF_GEN": "Suelo Urbano (APLAZADO)", "_raw_DS_CLASIF_DET": "Suelo Urbano", "_raw_DS_DOCU": "NORMAS SUBSIDIARIAS", "_raw_DS_LEY": "CM Ley 9/1995, E RDL 1/1992", "_raw_FC_AC": "1999-03-18", "_raw_NM_AREA_M2": 2385.4725375007301, "_cam_code": "033" }, "geometry": { "type": "Polygon", "coordinates": [ [ [ -3.376, 40.3372 ], [ -3.3758, 40.338 ], [ -3.3757, 40.3381 ], [ -3.3763, 40.3379 ], [ -3.376, 40.3372 ] ] ] } },
{ "type": "Feature", "properties": { "municipio": "Campo Real", "clasificacion": "urbano-consolidado", "calificacion": "sin-asignar", "version": "vigente", "fuente": "SIT-CAM WFS — UsoDelSuelo:VPLA_V_CLASIFICACION (https://idem.comunidad.madrid/geosrvg/ows)", "fecha_dato": "2026-05-12", "ambito": "38692", "_raw_CD_SIGLAS": "SU_A", "_raw_DS_CLASIF_GEN": "Suelo Urbano (APLAZADO)", "_raw_DS_CLASIF_DET": "Suelo Urbano", "_raw_DS_DOCU": "NORMAS SUBSIDIARIAS", "_raw_DS_LEY": "CM Ley 9/1995, E RDL 1/1992", "_raw_FC_AC": "1999-03-18", "_raw_NM_AREA_M2": 293089.49270020699, "_cam_code": "033" }, "geometry": { "type": "Polygon", "coordinates": [ [ [ -3.3639, 40.3306 ], [ -3.3633, 40.3316 ], [ -3.3667, 40.3336 ], [ -3.3685, 40.3345 ], [ -3.3699, 40.3332 ], [ -3.3698, 40.333 ], [ -3.3682, 40.3321 ], [ -3.3693, 40.331 ], [ -3.3692, 40.3303 ], [ -3.377, 40.3294 ], [ -3.3766, 40.3273 ], [ -3.3739, 40.3281 ], [ -3.3734, 40.3284 ], [ -3.3729, 40.329 ], [ -3.3697, 40.3293 ], [ -3.3644, 40.3294 ], [ -3.3639, 40.3306 ] ] ] } },
{ "type": "Feature", "properties": { "municipio": "Campo Real", "clasificacion": "urbano-consolidado", "calificacion": "sin-asignar", "version": "vigente", "fuente": "SIT-CAM WFS — UsoDelSuelo:VPLA_V_CLASIFICACION (https://idem.comunidad.madrid/geosrvg/ows)", "fecha_dato": "2026-05-12", "ambito": "38692", "_raw_CD_SIGLAS": "SU_A", "_raw_DS_CLASIF_GEN": "Suelo Urbano (APLAZADO)", "_raw_DS_CLASIF_DET": "Suelo Urbano", "_raw_DS_DOCU": "NORMAS SUBSIDIARIAS", "_raw_DS_LEY": "CM Ley 9/1995, E RDL 1/1992", "_raw_FC_AC": "1999-03-18", "_raw_NM_AREA_M2": 13449.070474980401, "_cam_code": "033" }, "geometry": { "type": "Polygon", "coordinates": [ [ [ -3.3699, 40.3332 ], [ -3.3701, 40.3331 ], [ -3.3702, 40.333 ], [ -3.3705, 40.333 ], [ -3.3698, 40.3329 ], [ -3.3693, 40.331 ], [ -3.3682, 40.3321 ], [ -3.3698, 40.333 ], [ -3.3699, 40.3332 ] ] ] } },
{ "type": "Feature", "properties": { "municipio": "Campo Real", "clasificacion": "urbano-consolidado", "calificacion": "sin-asignar", "version": "vigente", "fuente": "SIT-CAM WFS — UsoDelSuelo:VPLA_V_CLASIFICACION (https://idem.comunidad.madrid/geosrvg/ows)", "fecha_dato": "2026-05-12", "ambito": "38692", "_raw_CD_SIGLAS": "SU_A", "_raw_DS_CLASIF_GEN": "Suelo Urbano (APLAZADO)", "_raw_DS_CLASIF_DET": "Suelo Urbano", "_raw_DS_DOCU": "NORMAS SUBSIDIARIAS", "_raw_DS_LEY": "CM Ley 9/1995, E RDL 1/1992", "_raw_FC_AC": "1999-03-18", "_raw_NM_AREA_M2": 23630.2857446403, "_cam_code": "033" }, "geometry": { "type": "Polygon", "coordinates": [ [ [ -3.3765, 40.3365 ], [ -3.3751, 40.3366 ], [ -3.375, 40.3369 ], [ -3.3751, 40.3374 ], [ -3.3749, 40.3378 ], [ -3.3749, 40.3381 ], [ -3.3745, 40.3384 ], [ -3.3762, 40.3396 ], [ -3.3762, 40.3393 ], [ -3.3756, 40.338 ], [ -3.376, 40.337 ], [ -3.3765, 40.3365 ] ] ] } },
{ "type": "Feature", "properties": { "municipio": "Campo Real", "clasificacion": "urbanizable-no-sectorizado", "calificacion": "sin-asignar", "version": "vigente", "fuente": "SIT-CAM WFS — UsoDelSuelo:VPLA_V_CLASIFICACION (https://idem.comunidad.madrid/geosrvg/ows)", "fecha_dato": "2026-05-12", "ambito": "38692", "_raw_CD_SIGLAS": "SUBNS_A", "_raw_DS_CLASIF_GEN": "Suelo No Urbanizable Común (APLAZADO)", "_raw_DS_CLASIF_DET": "Suelo No Urbanizable Común", "_raw_DS_DOCU": "NORMAS SUBSIDIARIAS", "_raw_DS_LEY": "CM Ley 9/1995, E RDL 1/1992", "_raw_FC_AC": "1999-03-18", "_raw_NM_AREA_M2": 2949345.0507854298, "_cam_code": "033" }, "geometry": { "type": "Polygon", "coordinates": [ [ [ -3.3776, 40.3397 ], [ -3.3781, 40.3395 ], [ -3.3788, 40.3385 ], [ -3.3792, 40.3385 ], [ -3.3796, 40.3381 ], [ -3.3801, 40.3365 ], [ -3.3798, 40.3362 ], [ -3.381, 40.3358 ], [ -3.3812, 40.3349 ], [ -3.3817, 40.3339 ], [ -3.3817, 40.3335 ], [ -3.3826, 40.3316 ], [ -3.3828, 40.3302 ], [ -3.3833, 40.3289 ], [ -3.3845, 40.3268 ], [ -3.386, 40.3247 ], [ -3.3877, 40.3233 ], [ -3.3894, 40.3206 ], [ -3.391, 40.3191 ], [ -3.3918, 40.3176 ], [ -3.3916, 40.3162 ], [ -3.3917, 40.3156 ], [ -3.3924, 40.3148 ], [ -3.3933, 40.3143 ], [ -3.394, 40.3136 ], [ -3.3935, 40.3135 ], [ -3.3927, 40.313 ], [ -3.3922, 40.313 ], [ -3.3919, 40.3132 ], [ -3.391, 40.3131 ], [ -3.3903, 40.3127 ], [ -3.3899, 40.3123 ], [ -3.3894, 40.3124 ], [ -3.3891, 40.3127 ], [ -3.389, 40.313 ], [ -3.3893, 40.315 ], [ -3.3892, 40.3153 ], [ -3.3907, 40.3161 ], [ -3.3915, 40.3162 ], [ -3.3916, 40.3165 ], [ -3.3908, 40.3174 ], [ -3.3898, 40.3182 ], [ -3.3894, 40.3182 ], [ -3.3892, 40.3184 ], [ -3.3893, 40.3188 ], [ -3.3887, 40.3196 ], [ -3.3887, 40.3201 ], [ -3.3875, 40.3213 ], [ -3.3876, 40.3226 ], [ -3.3871, 40.323 ], [ -3.3872, 40.3221 ], [ -3.3868, 40.3217 ], [ -3.3869, 40.3213 ], [ -3.3867, 40.321 ], [ -3.3861, 40.3208 ], [ -3.3861, 40.3206 ], [ -3.3862, 40.3202 ], [ -3.3866, 40.3196 ], [ -3.3864, 40.3188 ], [ -3.3865, 40.3185 ], [ -3.3875, 40.3174 ], [ -3.3876, 40.3169 ], [ -3.387, 40.3164 ], [ -3.3862, 40.3163 ], [ -3.3848, 40.3173 ], [ -3.3844, 40.3174 ], [ -3.3823, 40.317 ], [ -3.3807, 40.3163 ], [ -3.3799, 40.3139 ], [ -3.3797, 40.3125 ], [ -3.3792, 40.3112 ], [ -3.3788, 40.3107 ], [ -3.3777, 40.3099 ], [ -3.3769, 40.3097 ], [ -3.3756, 40.3097 ], [ -3.3741, 40.3092 ], [ -3.3733, 40.3087 ], [ -3.3727, 40.3082 ], [ -3.3726, 40.3079 ], [ -3.3722, 40.3077 ], [ -3.3723, 40.307 ], [ -3.3722, 40.3065 ], [ -3.3725, 40.3061 ], [ -3.3746, 40.305 ], [ -3.375, 40.305 ], [ -3.3772, 40.3033 ], [ -3.3772, 40.3022 ], [ -3.377, 40.3017 ], [ -3.3758, 40.3008 ], [ -3.3745, 40.3006 ], [ -3.3727, 40.3008 ], [ -3.3713, 40.3006 ], [ -3.3692, 40.3025 ], [ -3.3691, 40.3033 ], [ -3.3686, 40.3041 ], [ -3.3671, 40.3038 ], [ -3.3753, 40.3208 ], [ -3.3758, 40.3237 ], [ -3.3779, 40.3335 ], [ -3.3779, 40.3339 ], [ -3.3774, 40.3334 ], [ -3.3767, 40.3331 ], [ -3.3766, 40.3333 ], [ -3.376, 40.3335 ], [ -3.376, 40.3337 ], [ -3.3763, 40.3341 ], [ -3.3757, 40.3341 ], [ -3.3753, 40.3339 ], [ -3.3754, 40.3342 ], [ -3.3749, 40.3344 ], [ -3.3749, 40.3346 ], [ -3.3743, 40.3352 ], [ -3.3739, 40.3352 ], [ -3.3734, 40.3347 ], [ -3.3725, 40.3348 ], [ -3.3719, 40.3347 ], [ -3.3721, 40.3353 ], [ -3.3718, 40.3354 ], [ -3.3714, 40.3359 ], [ -3.3722, 40.3361 ], [ -3.3747, 40.3383 ], [ -3.3749, 40.3381 ], [ -3.3749, 40.3378 ], [ -3.3751, 40.3374 ], [ -3.375, 40.337 ], [ -3.3751, 40.3366 ], [ -3.3766, 40.3365 ], [ -3.376, 40.3372 ], [ -3.3765, 40.3381 ], [ -3.377, 40.3382 ], [ -3.3773, 40.3384 ], [ -3.377, 40.3392 ], [ -3.3774, 40.3397 ], [ -3.3775, 40.3396 ], [ -3.3776, 40.3397 ] ] ] } },
{ "type": "Feature", "properties": { "municipio": "Campo Real", "clasificacion": "urbanizable-no-sectorizado", "calificacion": "sin-asignar", "version": "vigente", "fuente": "SIT-CAM WFS — UsoDelSuelo:VPLA_V_CLASIFICACION (https://idem.comunidad.madrid/geosrvg/ows)", "fecha_dato": "2026-05-12", "ambito": "38692", "_raw_CD_SIGLAS": "SUBNS_A", "_raw_DS_CLASIF_GEN": "Suelo No Urbanizable Común (APLAZADO)", "_raw_DS_CLASIF_DET": "Suelo No Urbanizable Común", "_raw_DS_DOCU": "NORMAS SUBSIDIARIAS", "_raw_DS_LEY": "CM Ley 9/1995, E RDL 1/1992", "_raw_FC_AC": "1999-03-18", "_raw_NM_AREA_M2": 622356.51744539395, "_cam_code": "033" }, "geometry": { "type": "Polygon", "coordinates": [ [ [ -3.4176, 40.3499 ], [ -3.4185, 40.3502 ], [ -3.4186, 40.3504 ], [ -3.4186, 40.3513 ], [ -3.419, 40.3514 ], [ -3.4194, 40.3509 ], [ -3.4196, 40.3499 ], [ -3.4199, 40.3496 ], [ -3.4203, 40.3497 ], [ -3.4206, 40.3503 ], [ -3.4209, 40.3506 ], [ -3.4212, 40.3507 ], [ -3.422, 40.3507 ], [ -3.4262, 40.3497 ], [ -3.4272, 40.3466 ], [ -3.4291, 40.3451 ], [ -3.4298, 40.3428 ], [ -3.4307, 40.3409 ], [ -3.4298, 40.3407 ], [ -3.4285, 40.3408 ], [ -3.4276, 40.3411 ], [ -3.4269, 40.3416 ], [ -3.4261, 40.3419 ], [ -3.4248, 40.3421 ], [ -3.4246, 40.3423 ], [ -3.4238, 40.3422 ], [ -3.4232, 40.3419 ], [ -3.4227, 40.342 ], [ -3.4217, 40.3427 ], [ -3.4189, 40.3436 ], [ -3.4177, 40.3447 ], [ -3.4172, 40.345 ], [ -3.4172, 40.3455 ], [ -3.4175, 40.3462 ], [ -3.4173, 40.3464 ], [ -3.4159, 40.3461 ], [ -3.4154, 40.3462 ], [ -3.4144, 40.3468 ], [ -3.4146, 40.3474 ], [ -3.4158, 40.3477 ], [ -3.4158, 40.3484 ], [ -3.4156, 40.3487 ], [ -3.4157, 40.3488 ], [ -3.417, 40.349 ], [ -3.4176, 40.3499 ] ], [ [ -3.4207, 40.3474 ], [ -3.4194, 40.3482 ], [ -3.4182, 40.3478 ], [ -3.4186, 40.3473 ], [ -3.4184, 40.3468 ], [ -3.4197, 40.3457 ], [ -3.4203, 40.3455 ], [ -3.4205, 40.345 ], [ -3.4212, 40.3443 ], [ -3.4225, 40.344 ], [ -3.423, 40.3441 ], [ -3.424, 40.344 ], [ -3.4248, 40.3436 ], [ -3.425, 40.3433 ], [ -3.4264, 40.3425 ], [ -3.4267, 40.3425 ], [ -3.4278, 40.3421 ], [ -3.4288, 40.342 ], [ -3.4292, 40.3421 ], [ -3.4284, 40.3434 ], [ -3.4274, 40.3435 ], [ -3.4266, 40.3443 ], [ -3.4251, 40.3446 ], [ -3.4249, 40.3449 ], [ -3.4265, 40.3456 ], [ -3.427, 40.3462 ], [ -3.4271, 40.3466 ], [ -3.4265, 40.3469 ], [ -3.4257, 40.3468 ], [ -3.4242, 40.3463 ], [ -3.4234, 40.3459 ], [ -3.4231, 40.3459 ], [ -3.423, 40.3463 ], [ -3.4236, 40.3465 ], [ -3.4237, 40.3467 ], [ -3.4237, 40.3469 ], [ -3.4232, 40.3475 ], [ -3.4223, 40.3477 ], [ -3.4224, 40.3475 ], [ -3.4222, 40.3469 ], [ -3.4214, 40.3467 ], [ -3.4211, 40.3468 ], [ -3.4208, 40.3471 ], [ -3.4207, 40.3474 ] ] ] } },
{ "type": "Feature", "properties": { "municipio": "Campo Real", "clasificacion": "urbanizable-no-sectorizado", "calificacion": "sin-asignar", "version": "vigente", "fuente": "SIT-CAM WFS — UsoDelSuelo:VPLA_V_CLASIFICACION (https://idem.comunidad.madrid/geosrvg/ows)", "fecha_dato": "2026-05-12", "ambito": "38692", "_raw_CD_SIGLAS": "SUBNS_A", "_raw_DS_CLASIF_GEN": "Suelo No Urbanizable Común (APLAZADO)", "_raw_DS_CLASIF_DET": "Suelo No Urbanizable Común", "_raw_DS_DOCU": "NORMAS SUBSIDIARIAS", "_raw_DS_LEY": "CM Ley 9/1995, E RDL 1/1992", "_raw_FC_AC": "1999-03-18", "_raw_NM_AREA_M2": 29118.200468142, "_cam_code": "033" }, "geometry": { "type": "Polygon", "coordinates": [ [ [ -3.3413, 40.353 ], [ -3.3448, 40.3555 ], [ -3.3462, 40.3561 ], [ -3.3458, 40.3551 ], [ -3.3438, 40.3543 ], [ -3.3428, 40.3531 ], [ -3.342, 40.3528 ], [ -3.3413, 40.353 ] ] ] } },
{ "type": "Feature", "properties": { "municipio": "Campo Real", "clasificacion": "urbanizable-no-sectorizado", "calificacion": "sin-asignar", "version": "vigente", "fuente": "SIT-CAM WFS — UsoDelSuelo:VPLA_V_CLASIFICACION (https://idem.comunidad.madrid/geosrvg/ows)", "fecha_dato": "2026-05-12", "ambito": "38692", "_raw_CD_SIGLAS": "SUBNS_A", "_raw_DS_CLASIF_GEN": "Suelo No Urbanizable Común (APLAZADO)", "_raw_DS_CLASIF_DET": "Suelo No Urbanizable Común", "_raw_DS_DOCU": "NORMAS SUBSIDIARIAS", "_raw_DS_LEY": "CM Ley 9/1995, E RDL 1/1992", "_raw_FC_AC": "1999-03-18", "_raw_NM_AREA_M2": 63427.847294514599, "_cam_code": "033" }, "geometry": { "type": "Polygon", "coordinates": [ [ [ -3.3484, 40.3576 ], [ -3.3502, 40.3592 ], [ -3.3546, 40.3615 ], [ -3.3546, 40.3611 ], [ -3.3543, 40.3609 ], [ -3.3543, 40.3606 ], [ -3.3537, 40.3599 ], [ -3.3523, 40.3593 ], [ -3.3521, 40.3589 ], [ -3.3515, 40.3585 ], [ -3.3514, 40.3583 ], [ -3.3507, 40.358 ], [ -3.3502, 40.3575 ], [ -3.3491, 40.3574 ], [ -3.3484, 40.3576 ] ] ] } },
{ "type": "Feature", "properties": { "municipio": "Campo Real", "clasificacion": "urbanizable-no-sectorizado", "calificacion": "sin-asignar", "version": "vigente", "fuente": "SIT-CAM WFS — UsoDelSuelo:VPLA_V_CLASIFICACION (https://idem.comunidad.madrid/geosrvg/ows)", "fecha_dato": "2026-05-12", "ambito": "38692", "_raw_CD_SIGLAS": "SUBNS_A", "_raw_DS_CLASIF_GEN": "Suelo No Urbanizable Común (APLAZADO)", "_raw_DS_CLASIF_DET": "Suelo No Urbanizable Común", "_raw_DS_DOCU": "NORMAS SUBSIDIARIAS", "_raw_DS_LEY": "CM Ley 9/1995, E RDL 1/1992", "_raw_FC_AC": "1999-03-18", "_raw_NM_AREA_M2": 15974666.6365369, "_cam_code": "033" }, "geometry": { "type": "Polygon", "coordinates": [ [ [ -3.3736, 40.3622 ], [ -3.3747, 40.3629 ], [ -3.3765, 40.3633 ], [ -3.3781, 40.3629 ], [ -3.3781, 40.3624 ], [ -3.3784, 40.3621 ], [ -3.3794, 40.3622 ], [ -3.3799, 40.3624 ], [ -3.38, 40.3618 ], [ -3.3799, 40.3616 ], [ -3.3793, 40.361 ], [ -3.379, 40.3609 ], [ -3.379, 40.3606 ], [ -3.3792, 40.3603 ], [ -3.3796, 40.3602 ], [ -3.38, 40.3606 ], [ -3.3814, 40.3614 ], [ -3.3817, 40.3618 ], [ -3.3831, 40.361 ], [ -3.3835, 40.3609 ], [ -3.3835, 40.3608 ], [ -3.3849, 40.3607 ], [ -3.3851, 40.3601 ], [ -3.3855, 40.3595 ], [ -3.3865, 40.3597 ], [ -3.3869, 40.3601 ], [ -3.3874, 40.36 ], [ -3.3879, 40.3597 ], [ -3.3885, 40.3597 ], [ -3.3891, 40.3594 ], [ -3.3892, 40.3593 ], [ -3.3889, 40.3589 ], [ -3.3891, 40.3588 ], [ -3.3906, 40.359 ], [ -3.3919, 40.3595 ], [ -3.3928, 40.3595 ], [ -3.3944, 40.3598 ], [ -3.3985, 40.3587 ], [ -3.4007, 40.3577 ], [ -3.403, 40.3569 ], [ -3.4037, 40.3562 ], [ -3.4043, 40.3547 ], [ -3.4053, 40.3534 ], [ -3.4085, 40.353 ], [ -3.4073, 40.3514 ], [ -3.4069, 40.3513 ], [ -3.4059, 40.3516 ], [ -3.4056, 40.3508 ], [ -3.4058, 40.3506 ], [ -3.4061, 40.3507 ], [ -3.4064, 40.3504 ], [ -3.4066, 40.3504 ], [ -3.4068, 40.3502 ], [ -3.4068, 40.3497 ], [ -3.4075, 40.3493 ], [ -3.4082, 40.3493 ], [ -3.4083, 40.3496 ], [ -3.4089, 40.3499 ], [ -3.409, 40.3498 ], [ -3.4089, 40.3492 ], [ -3.4085, 40.3491 ], [ -3.4079, 40.3484 ], [ -3.4059, 40.3477 ], [ -3.4047, 40.3466 ], [ -3.4045, 40.3458 ], [ -3.4043, 40.3456 ], [ -3.4042, 40.3452 ], [ -3.4048, 40.3448 ], [ -3.4052, 40.3443 ], [ -3.4055, 40.3432 ], [ -3.4052, 40.343 ], [ -3.4047, 40.343 ], [ -3.4043, 40.3427 ], [ -3.4046, 40.3425 ], [ -3.4047, 40.3422 ], [ -3.4046, 40.3417 ], [ -3.4047, 40.3414 ], [ -3.4049, 40.3411 ], [ -3.4057, 40.3409 ], [ -3.4058, 40.3407 ], [ -3.4056, 40.3398 ], [ -3.4053, 40.3392 ], [ -3.405, 40.3391 ], [ -3.4048, 40.3385 ], [ -3.405, 40.3374 ], [ -3.4043, 40.3369 ], [ -3.4038, 40.3371 ], [ -3.4036, 40.3374 ], [ -3.4036, 40.3379 ], [ -3.4039, 40.3387 ], [ -3.4042, 40.339 ], [ -3.404, 40.3394 ], [ -3.4024, 40.3392 ], [ -3.4025, 40.3398 ], [ -3.4027, 40.3399 ], [ -3.4031, 40.3405 ], [ -3.4029, 40.3406 ], [ -3.4032, 40.341 ], [ -3.403, 40.3412 ], [ -3.4029, 40.3424 ], [ -3.4026, 40.3434 ], [ -3.4028, 40.3449 ], [ -3.4027, 40.3454 ], [ -3.4018, 40.3475 ], [ -3.4011, 40.3483 ], [ -3.4002, 40.3483 ], [ -3.3994, 40.3488 ], [ -3.399, 40.3507 ], [ -3.3992, 40.351 ], [ -3.3988, 40.3511 ], [ -3.3986, 40.3519 ], [ -3.3986, 40.3526 ], [ -3.3984, 40.3529 ], [ -3.3974, 40.3525 ], [ -3.396, 40.3523 ], [ -3.3939, 40.3524 ], [ -3.393, 40.3529 ], [ -3.3915, 40.3525 ], [ -3.3913, 40.3523 ], [ -3.3912, 40.3517 ], [ -3.3913, 40.3515 ], [ -3.3917, 40.3515 ], [ -3.3921, 40.3517 ], [ -3.3929, 40.3516 ], [ -3.3932, 40.3513 ], [ -3.3931, 40.3509 ], [ -3.3933, 40.3508 ], [ -3.3942, 40.3506 ], [ -3.3945, 40.3508 ], [ -3.3947, 40.3496 ], [ -3.395, 40.3498 ], [ -3.3949, 40.3493 ], [ -3.3952, 40.3491 ], [ -3.3955, 40.3491 ], [ -3.396, 40.3476 ], [ -3.3967, 40.3466 ], [ -3.397, 40.3464 ], [ -3.3968, 40.3459 ], [ -3.3963, 40.3458 ], [ -3.3963, 40.3448 ], [ -3.3971, 40.3445 ], [ -3.3984, 40.3428 ], [ -3.3983, 40.3426 ], [ -3.3975, 40.3431 ], [ -3.3971, 40.3431 ], [ -3.3966, 40.3427 ], [ -3.3962, 40.3428 ], [ -3.3957, 40.3432 ], [ -3.3955, 40.3429 ], [ -3.3957, 40.3418 ], [ -3.3969, 40.3413 ], [ -3.3956, 40.3402 ], [ -3.3945, 40.3398 ], [ -3.3935, 40.3396 ], [ -3.3928, 40.3398 ], [ -3.3919, 40.3403 ], [ -3.3892, 40.3414 ], [ -3.3882, 40.3417 ], [ -3.3878, 40.342 ], [ -3.386, 40.3419 ], [ -3.3846, 40.3425 ], [ -3.3838, 40.3424 ], [ -3.3827, 40.3414 ], [ -3.3821, 40.3416 ], [ -3.3816, 40.3416 ], [ -3.3815, 40.3418 ], [ -3.3809, 40.3418 ], [ -3.3803, 40.3423 ], [ -3.3805, 40.3425 ], [ -3.3805, 40.3428 ], [ -3.3803, 40.3428 ], [ -3.3806, 40.3431 ], [ -3.3797, 40.343 ], [ -3.3795, 40.3431 ], [ -3.3788, 40.343 ], [ -3.3785, 40.3431 ], [ -3.3784, 40.3434 ], [ -3.3786, 40.344 ], [ -3.3784, 40.3444 ], [ -3.3773, 40.3456 ], [ -3.3766, 40.3459 ], [ -3.3762, 40.3463 ], [ -3.3754, 40.3461 ], [ -3.3751, 40.3459 ], [ -3.3753, 40.3457 ], [ -3.3747, 40.3454 ], [ -3.3741, 40.3449 ], [ -3.3739, 40.345 ], [ -3.3737, 40.3449 ], [ -3.3728, 40.3441 ], [ -3.3732, 40.3437 ], [ -3.3728, 40.3436 ], [ -3.3727, 40.3431 ], [ -3.3725, 40.3428 ], [ -3.372, 40.3428 ], [ -3.3721, 40.3423 ], [ -3.3719, 40.3422 ], [ -3.3714, 40.3415 ], [ -3.3709, 40.3413 ], [ -3.3709, 40.3408 ], [ -3.3713, 40.3408 ], [ -3.3713, 40.3407 ], [ -3.37, 40.3409 ], [ -3.3696, 40.3414 ], [ -3.3693, 40.3421 ], [ -3.3682, 40.3427 ], [ -3.3683, 40.343 ], [ -3.3682, 40.3431 ], [ -3.368, 40.343 ], [ -3.3678, 40.3431 ], [ -3.3677, 40.3428 ], [ -3.3672, 40.3422 ], [ -3.367, 40.3398 ], [ -3.3668, 40.3392 ], [ -3.3666, 40.3391 ], [ -3.3666, 40.3389 ], [ -3.3695, 40.3398 ], [ -3.3702, 40.3398 ], [ -3.3709, 40.3391 ], [ -3.3708, 40.339 ], [ -3.3699, 40.3396 ], [ -3.3692, 40.3396 ], [ -3.3666, 40.3388 ], [ -3.3669, 40.3386 ], [ -3.3674, 40.3361 ], [ -3.3683, 40.3349 ], [ -3.3684, 40.3345 ], [ -3.3507, 40.3242 ], [ -3.3348, 40.3214 ], [ -3.3248, 40.3211 ], [ -3.3248, 40.3212 ], [ -3.3223, 40.3227 ], [ -3.3199, 40.3247 ], [ -3.3168, 40.3263 ], [ -3.3129, 40.3286 ], [ -3.3134, 40.3306 ], [ -3.314, 40.3321 ], [ -3.3173, 40.3356 ], [ -3.3202, 40.3376 ], [ -3.3255, 40.3419 ], [ -3.3281, 40.3434 ], [ -3.3312, 40.3455 ], [ -3.3356, 40.3486 ], [ -3.3384, 40.351 ], [ -3.3389, 40.3513 ], [ -3.3396, 40.3509 ], [ -3.3398, 40.3506 ], [ -3.3407, 40.3505 ], [ -3.3424, 40.3491 ], [ -3.3436, 40.3487 ], [ -3.3446, 40.3488 ], [ -3.3481, 40.3487 ], [ -3.3486, 40.3488 ], [ -3.3498, 40.3486 ], [ -3.3507, 40.3476 ], [ -3.3507, 40.3472 ], [ -3.353, 40.3479 ], [ -3.3533, 40.3482 ], [ -3.3544, 40.3487 ], [ -3.3569, 40.3484 ], [ -3.357, 40.3482 ], [ -3.3623, 40.3456 ], [ -3.3638, 40.3453 ], [ -3.3659, 40.3445 ], [ -3.368, 40.3443 ], [ -3.3677, 40.3448 ], [ -3.368, 40.3462 ], [ -3.3687, 40.347 ], [ -3.3692, 40.3472 ], [ -3.3697, 40.3472 ], [ -3.3698, 40.3471 ], [ -3.3705, 40.3476 ], [ -3.3708, 40.3488 ], [ -3.3707, 40.3497 ], [ -3.3704, 40.3504 ], [ -3.3698, 40.351 ], [ -3.3698, 40.3518 ], [ -3.3693, 40.3522 ], [ -3.3692, 40.3525 ], [ -3.369, 40.3537 ], [ -3.3693, 40.3547 ], [ -3.3693, 40.3551 ], [ -3.3691, 40.3555 ], [ -3.3687, 40.3559 ], [ -3.3678, 40.3563 ], [ -3.3672, 40.3568 ], [ -3.3666, 40.357 ], [ -3.3659, 40.3575 ], [ -3.366, 40.3579 ], [ -3.3668, 40.3583 ], [ -3.3672, 40.3587 ], [ -3.3672, 40.359 ], [ -3.3677, 40.3595 ], [ -3.3676, 40.3607 ], [ -3.3718, 40.3606 ], [ -3.3722, 40.3603 ], [ -3.3727, 40.3607 ], [ -3.3727, 40.361 ], [ -3.3733, 40.361 ], [ -3.3734, 40.3612 ], [ -3.3733, 40.3615 ], [ -3.3732, 40.3615 ], [ -3.3732, 40.3618 ], [ -3.3736, 40.3622 ] ] ] } },
{ "type": "Feature", "properties": { "municipio": "Campo Real", "clasificacion": "urbanizable-no-sectorizado", "calificacion": "sin-asignar", "version": "vigente", "fuente": "SIT-CAM WFS — UsoDelSuelo:VPLA_V_CLASIFICACION (https://idem.comunidad.madrid/geosrvg/ows)", "fecha_dato": "2026-05-12", "ambito": "38692", "_raw_CD_SIGLAS": "SUBNS_A", "_raw_DS_CLASIF_GEN": "Suelo No Urbanizable Común (APLAZADO)", "_raw_DS_CLASIF_DET": "Suelo No Urbanizable Común", "_raw_DS_DOCU": "NORMAS SUBSIDIARIAS", "_raw_DS_LEY": "CM Ley 9/1995, E RDL 1/1992", "_raw_FC_AC": "1999-03-18", "_raw_NM_AREA_M2": 874497.45370025397, "_cam_code": "033" }, "geometry": { "type": "Polygon", "coordinates": [ [ [ -3.3735, 40.2828 ], [ -3.3814, 40.2832 ], [ -3.3817, 40.2833 ], [ -3.3843, 40.2809 ], [ -3.3776, 40.2747 ], [ -3.3737, 40.2706 ], [ -3.3736, 40.271 ], [ -3.3739, 40.2711 ], [ -3.3739, 40.2712 ], [ -3.3735, 40.2712 ], [ -3.3706, 40.283 ], [ -3.3735, 40.2828 ] ] ] } },
{ "type": "Feature", "properties": { "municipio": "Campo Real", "clasificacion": "urbanizable-no-sectorizado", "calificacion": "sin-asignar", "version": "vigente", "fuente": "SIT-CAM WFS — UsoDelSuelo:VPLA_V_CLASIFICACION (https://idem.comunidad.madrid/geosrvg/ows)", "fecha_dato": "2026-05-12", "ambito": "38692", "_raw_CD_SIGLAS": "SUBNS_A", "_raw_DS_CLASIF_GEN": "Suelo No Urbanizable Común (APLAZADO)", "_raw_DS_CLASIF_DET": "Suelo No Urbanizable Común", "_raw_DS_DOCU": "NORMAS SUBSIDIARIAS", "_raw_DS_LEY": "CM Ley 9/1995, E RDL 1/1992", "_raw_FC_AC": "1999-03-18", "_raw_NM_AREA_M2": 1283439.5506837701, "_cam_code": "033" }, "geometry": { "type": "Polygon", "coordinates": [ [ [ -3.3665, 40.3008 ], [ -3.3669, 40.3013 ], [ -3.3672, 40.3013 ], [ -3.3677, 40.301 ], [ -3.3666, 40.2994 ], [ -3.3665, 40.2991 ], [ -3.3666, 40.2989 ], [ -3.3669, 40.2987 ], [ -3.3679, 40.2995 ], [ -3.3681, 40.2993 ], [ -3.3682, 40.2989 ], [ -3.3694, 40.2989 ], [ -3.3712, 40.2986 ], [ -3.3723, 40.2977 ], [ -3.3715, 40.2968 ], [ -3.3715, 40.2964 ], [ -3.3719, 40.2961 ], [ -3.372, 40.2956 ], [ -3.3723, 40.2954 ], [ -3.3724, 40.2949 ], [ -3.374, 40.2947 ], [ -3.3746, 40.2944 ], [ -3.3751, 40.2944 ], [ -3.3761, 40.2939 ], [ -3.3768, 40.2939 ], [ -3.3767, 40.2918 ], [ -3.3779, 40.2889 ], [ -3.3815, 40.2834 ], [ -3.3745, 40.283 ], [ -3.3726, 40.283 ], [ -3.3705, 40.2832 ], [ -3.3687, 40.2907 ], [ -3.3647, 40.3001 ], [ -3.3647, 40.3004 ], [ -3.3652, 40.3009 ], [ -3.3654, 40.3007 ], [ -3.366, 40.3009 ], [ -3.3665, 40.3008 ] ] ] } },
{ "type": "Feature", "properties": { "municipio": "Campo Real", "clasificacion": "urbanizable-no-sectorizado", "calificacion": "sin-asignar", "version": "vigente", "fuente": "SIT-CAM WFS — UsoDelSuelo:VPLA_V_CLASIFICACION (https://idem.comunidad.madrid/geosrvg/ows)", "fecha_dato": "2026-05-12", "ambito": "38692", "_raw_CD_SIGLAS": "SUBNS_A", "_raw_DS_CLASIF_GEN": "Suelo No Urbanizable Común (APLAZADO)", "_raw_DS_CLASIF_DET": "Suelo No Urbanizable Común", "_raw_DS_DOCU": "NORMAS SUBSIDIARIAS", "_raw_DS_LEY": "CM Ley 9/1995, E RDL 1/1992", "_raw_FC_AC": "1999-03-18", "_raw_NM_AREA_M2": 675250.94639958104, "_cam_code": "033" }, "geometry": { "type": "Polygon", "coordinates": [ [ [ -3.382, 40.3369 ], [ -3.3826, 40.3372 ], [ -3.3829, 40.3371 ], [ -3.3833, 40.3365 ], [ -3.3839, 40.3364 ], [ -3.384, 40.336 ], [ -3.3849, 40.3353 ], [ -3.3857, 40.3352 ], [ -3.3857, 40.3343 ], [ -3.3854, 40.333 ], [ -3.3857, 40.3328 ], [ -3.3858, 40.3324 ], [ -3.3866, 40.3314 ], [ -3.3872, 40.3313 ], [ -3.3876, 40.3314 ], [ -3.3883, 40.3311 ], [ -3.3884, 40.3308 ], [ -3.3883, 40.3305 ], [ -3.3873, 40.3302 ], [ -3.3862, 40.3304 ], [ -3.3855, 40.3308 ], [ -3.3849, 40.3308 ], [ -3.3843, 40.3302 ], [ -3.3843, 40.3298 ], [ -3.3857, 40.3279 ], [ -3.3865, 40.3275 ], [ -3.3876, 40.326 ], [ -3.3913, 40.323 ], [ -3.3915, 40.3224 ], [ -3.3922, 40.3212 ], [ -3.3922, 40.321 ], [ -3.3929, 40.3209 ], [ -3.3937, 40.3203 ], [ -3.3946, 40.3192 ], [ -3.3954, 40.3187 ], [ -3.3954, 40.3181 ], [ -3.396, 40.3171 ], [ -3.3958, 40.3162 ], [ -3.3953, 40.3152 ], [ -3.3953, 40.3148 ], [ -3.3941, 40.3137 ], [ -3.3936, 40.3142 ], [ -3.3925, 40.3148 ], [ -3.3919, 40.3155 ], [ -3.3918, 40.3157 ], [ -3.3919, 40.3176 ], [ -3.3911, 40.3192 ], [ -3.3902, 40.3201 ], [ -3.3896, 40.3205 ], [ -3.3896, 40.3207 ], [ -3.3893, 40.321 ], [ -3.3879, 40.3233 ], [ -3.3859, 40.325 ], [ -3.3837, 40.3283 ], [ -3.3829, 40.3304 ], [ -3.3828, 40.3313 ], [ -3.3822, 40.3326 ], [ -3.3812, 40.3355 ], [ -3.3814, 40.3364 ], [ -3.382, 40.3369 ] ] ] } },
{ "type": "Feature", "properties": { "municipio": "Campo Real", "clasificacion": "urbanizable-no-sectorizado", "calificacion": "sin-asignar", "version": "vigente", "fuente": "SIT-CAM WFS — UsoDelSuelo:VPLA_V_CLASIFICACION (https://idem.comunidad.madrid/geosrvg/ows)", "fecha_dato": "2026-05-12", "ambito": "38692", "_raw_CD_SIGLAS": "SUBNS_A", "_raw_DS_CLASIF_GEN": "Suelo No Urbanizable Común (APLAZADO)", "_raw_DS_CLASIF_DET": "Suelo No Urbanizable Común", "_raw_DS_DOCU": "NORMAS SUBSIDIARIAS", "_raw_DS_LEY": "CM Ley 9/1995, E RDL 1/1992", "_raw_FC_AC": "1999-03-18", "_raw_NM_AREA_M2": 86283.480109081705, "_cam_code": "033" }, "geometry": { "type": "Polygon", "coordinates": [ [ [ -3.4288, 40.3349 ], [ -3.4289, 40.3351 ], [ -3.4288, 40.3355 ], [ -3.4286, 40.3355 ], [ -3.4284, 40.3357 ], [ -3.4287, 40.3361 ], [ -3.4293, 40.3362 ], [ -3.4295, 40.3365 ], [ -3.4296, 40.3384 ], [ -3.4302, 40.3379 ], [ -3.4316, 40.3376 ], [ -3.4315, 40.3343 ], [ -3.43, 40.3343 ], [ -3.4297, 40.3342 ], [ -3.4294, 40.3338 ], [ -3.4289, 40.3338 ], [ -3.4288, 40.3349 ] ] ] } },
{ "type": "Feature", "properties": { "municipio": "Campo Real", "clasificacion": "urbanizable-sectorizado", "calificacion": "sin-asignar", "version": "vigente", "fuente": "SIT-CAM WFS — UsoDelSuelo:VPLA_V_CLASIFICACION (https://idem.comunidad.madrid/geosrvg/ows)", "fecha_dato": "2026-05-12", "ambito": "38692", "_raw_CD_SIGLAS": "SUBS", "_raw_DS_CLASIF_GEN": "Suelo Apto Para Urbanizar", "_raw_DS_CLASIF_DET": "Suelo Apto para Urbanizar", "_raw_DS_DOCU": "NORMAS SUBSIDIARIAS", "_raw_DS_LEY": "CM Ley 9/1995, E RDL 1/1992", "_raw_FC_AC": "1999-03-18", "_raw_NM_AREA_M2": 62498.226828679799, "_cam_code": "033" }, "geometry": { "type": "Polygon", "coordinates": [ [ [ -3.3744, 40.3435 ], [ -3.3748, 40.3438 ], [ -3.3751, 40.343 ], [ -3.3756, 40.3425 ], [ -3.3756, 40.3423 ], [ -3.3752, 40.3427 ], [ -3.375, 40.3427 ], [ -3.3746, 40.3424 ], [ -3.3732, 40.3407 ], [ -3.3724, 40.3407 ], [ -3.3724, 40.3416 ], [ -3.3714, 40.3415 ], [ -3.3713, 40.3409 ], [ -3.3709, 40.3408 ], [ -3.3709, 40.3413 ], [ -3.3714, 40.3415 ], [ -3.3717, 40.3418 ], [ -3.3719, 40.3422 ], [ -3.3721, 40.3423 ], [ -3.372, 40.3428 ], [ -3.3725, 40.3428 ], [ -3.3729, 40.3437 ], [ -3.3733, 40.3438 ], [ -3.3744, 40.3435 ] ] ] } },
{ "type": "Feature", "properties": { "municipio": "Campo Real", "clasificacion": "urbanizable-sectorizado", "calificacion": "sin-asignar", "version": "vigente", "fuente": "SIT-CAM WFS — UsoDelSuelo:VPLA_V_CLASIFICACION (https://idem.comunidad.madrid/geosrvg/ows)", "fecha_dato": "2026-05-12", "ambito": "38692", "_raw_CD_SIGLAS": "SUBS", "_raw_DS_CLASIF_GEN": "Suelo Apto Para Urbanizar", "_raw_DS_CLASIF_DET": "Suelo Apto para Urbanizar", "_raw_DS_DOCU": "NORMAS SUBSIDIARIAS", "_raw_DS_LEY": "CM Ley 9/1995, E RDL 1/1992", "_raw_FC_AC": "1999-03-18", "_raw_NM_AREA_M2": 97183.734564504499, "_cam_code": "033" }, "geometry": { "type": "Polygon", "coordinates": [ [ [ -3.368, 40.343 ], [ -3.3682, 40.3431 ], [ -3.3683, 40.343 ], [ -3.3682, 40.3427 ], [ -3.3694, 40.342 ], [ -3.3696, 40.3414 ], [ -3.37, 40.3409 ], [ -3.3713, 40.3407 ], [ -3.3715, 40.3399 ], [ -3.3709, 40.3391 ], [ -3.3702, 40.3398 ], [ -3.3695, 40.3398 ], [ -3.3666, 40.3389 ], [ -3.3666, 40.3391 ], [ -3.3668, 40.3392 ], [ -3.367, 40.3398 ], [ -3.3672, 40.3422 ], [ -3.3677, 40.3428 ], [ -3.3677, 40.343 ], [ -3.3678, 40.3431 ], [ -3.368, 40.343 ] ] ] } },
{ "type": "Feature", "properties": { "municipio": "Campo Real", "clasificacion": "urbanizable-sectorizado", "calificacion": "sin-asignar", "version": "vigente", "fuente": "SIT-CAM WFS — UsoDelSuelo:VPLA_V_CLASIFICACION (https://idem.comunidad.madrid/geosrvg/ows)", "fecha_dato": "2026-05-12", "ambito": "38692", "_raw_CD_SIGLAS": "SUBS", "_raw_DS_CLASIF_GEN": "Suelo Apto Para Urbanizar", "_raw_DS_CLASIF_DET": "Suelo Apto para Urbanizar", "_raw_DS_DOCU": "NORMAS SUBSIDIARIAS", "_raw_DS_LEY": "CM Ley 9/1995, E RDL 1/1992", "_raw_FC_AC": "1999-03-18", "_raw_NM_AREA_M2": 190279.44883692201, "_cam_code": "033" }, "geometry": { "type": "Polygon", "coordinates": [ [ [ -3.3669, 40.3385 ], [ -3.3666, 40.3388 ], [ -3.3667, 40.3389 ], [ -3.3674, 40.339 ], [ -3.3687, 40.3395 ], [ -3.3699, 40.3396 ], [ -3.3708, 40.339 ], [ -3.3713, 40.339 ], [ -3.3722, 40.3384 ], [ -3.3723, 40.3385 ], [ -3.3725, 40.3384 ], [ -3.3724, 40.3382 ], [ -3.3726, 40.338 ], [ -3.3728, 40.3381 ], [ -3.3734, 40.3374 ], [ -3.3723, 40.3364 ], [ -3.3698, 40.3354 ], [ -3.3684, 40.3345 ], [ -3.3683, 40.3349 ], [ -3.3674, 40.3361 ], [ -3.3669, 40.3385 ] ] ] } },
{ "type": "Feature", "properties": { "municipio": "Campo Real", "clasificacion": "urbanizable-sectorizado", "calificacion": "sin-asignar", "version": "vigente", "fuente": "SIT-CAM WFS — UsoDelSuelo:VPLA_V_CLASIFICACION (https://idem.comunidad.madrid/geosrvg/ows)", "fecha_dato": "2026-05-12", "ambito": "38692", "_raw_CD_SIGLAS": "SUBS", "_raw_DS_CLASIF_GEN": "Suelo Apto Para Urbanizar", "_raw_DS_CLASIF_DET": "Suelo Apto para Urbanizar", "_raw_DS_DOCU": "NORMAS SUBSIDIARIAS", "_raw_DS_LEY": "CM Ley 9/1995, E RDL 1/1992", "_raw_FC_AC": "1999-03-18", "_raw_NM_AREA_M2": 214045.47234912799, "_cam_code": "033" }, "geometry": { "type": "Polygon", "coordinates": [ [ [ -3.3904, 40.3369 ], [ -3.3915, 40.3374 ], [ -3.3916, 40.3359 ], [ -3.3918, 40.3359 ], [ -3.3918, 40.3354 ], [ -3.3924, 40.3352 ], [ -3.3941, 40.3341 ], [ -3.396, 40.3332 ], [ -3.3953, 40.3325 ], [ -3.3951, 40.3326 ], [ -3.3948, 40.3321 ], [ -3.392, 40.3322 ], [ -3.3906, 40.3319 ], [ -3.39, 40.3319 ], [ -3.3896, 40.3321 ], [ -3.3885, 40.3331 ], [ -3.3882, 40.3336 ], [ -3.3888, 40.3339 ], [ -3.3887, 40.3346 ], [ -3.3892, 40.3349 ], [ -3.389, 40.3355 ], [ -3.3894, 40.3356 ], [ -3.3886, 40.3363 ], [ -3.3884, 40.3367 ], [ -3.3885, 40.3369 ], [ -3.3885, 40.3368 ], [ -3.3888, 40.3367 ], [ -3.3904, 40.3369 ] ] ] } }
]
}
