{
"type": "FeatureCollection",
"name": "vigente.full",
"features": [
{ "type": "Feature", "properties": { "municipio": "Carabaña", "clasificacion": "no-urbanizable-protegido", "calificacion": "sin-asignar", "version": "vigente", "fuente": "SIT-CAM WFS — UsoDelSuelo:VPLA_V_CLASIFICACION (https://idem.comunidad.madrid/geosrvg/ows)", "fecha_dato": "2026-05-12", "ambito": "50", "_raw_CD_SIGLAS": "SNUP", "_raw_DS_CLASIF_GEN": "Suelo No Urbanizable Protegido", "_raw_DS_CLASIF_DET": "Suelo No Urbanizable Protegido. Vertidos a curso de agua", "_raw_DS_DOCU": "NORMAS SUBSIDIARIAS", "_raw_DS_LEY": "E RD 1346/1976", "_raw_FC_AC": "1985-10-22", "_raw_NM_AREA_M2": 1569628.2834423501, "_cam_code": "035" }, "geometry": { "type": "Polygon", "coordinates": [ [ [ -3.2254, 40.2423 ], [ -3.2256, 40.243 ], [ -3.2273, 40.2438 ], [ -3.2273, 40.244 ], [ -3.2277, 40.2441 ], [ -3.2279, 40.245 ], [ -3.2284, 40.245 ], [ -3.2289, 40.2449 ], [ -3.2288, 40.2444 ], [ -3.2285, 40.244 ], [ -3.2278, 40.2437 ], [ -3.228, 40.2434 ], [ -3.2279, 40.2431 ], [ -3.2282, 40.2425 ], [ -3.229, 40.2415 ], [ -3.2289, 40.2411 ], [ -3.2298, 40.241 ], [ -3.2302, 40.2404 ], [ -3.2311, 40.24 ], [ -3.2323, 40.2397 ], [ -3.235, 40.2402 ], [ -3.2359, 40.2402 ], [ -3.2381, 40.2395 ], [ -3.2381, 40.2389 ], [ -3.2382, 40.2388 ], [ -3.2391, 40.2392 ], [ -3.2423, 40.2391 ], [ -3.2425, 40.2393 ], [ -3.2433, 40.2391 ], [ -3.2437, 40.2384 ], [ -3.2441, 40.2381 ], [ -3.2442, 40.2392 ], [ -3.2449, 40.2397 ], [ -3.2464, 40.2398 ], [ -3.247, 40.2397 ], [ -3.2474, 40.2393 ], [ -3.2482, 40.2398 ], [ -3.2492, 40.2399 ], [ -3.2498, 40.2398 ], [ -3.25, 40.2397 ], [ -3.2501, 40.2394 ], [ -3.2509, 40.2393 ], [ -3.2515, 40.239 ], [ -3.2516, 40.2388 ], [ -3.2515, 40.2384 ], [ -3.251, 40.2384 ], [ -3.2503, 40.2388 ], [ -3.2497, 40.2379 ], [ -3.2503, 40.2376 ], [ -3.2503, 40.2375 ], [ -3.2494, 40.237 ], [ -3.2497, 40.2367 ], [ -3.2497, 40.2365 ], [ -3.2486, 40.2358 ], [ -3.2499, 40.2345 ], [ -3.2491, 40.2345 ], [ -3.2491, 40.2343 ], [ -3.2494, 40.2341 ], [ -3.2501, 40.2341 ], [ -3.2505, 40.2332 ], [ -3.2498, 40.2328 ], [ -3.2491, 40.2332 ], [ -3.2477, 40.2336 ], [ -3.2475, 40.2333 ], [ -3.2485, 40.2323 ], [ -3.2484, 40.2322 ], [ -3.2478, 40.2323 ], [ -3.2474, 40.2321 ], [ -3.247, 40.2314 ], [ -3.2463, 40.2314 ], [ -3.2457, 40.2312 ], [ -3.2454, 40.2316 ], [ -3.2454, 40.2319 ], [ -3.2462, 40.2328 ], [ -3.2462, 40.2337 ], [ -3.2453, 40.2328 ], [ -3.245, 40.2323 ], [ -3.2446, 40.2323 ], [ -3.2439, 40.2315 ], [ -3.2438, 40.2311 ], [ -3.2439, 40.2308 ], [ -3.2447, 40.2307 ], [ -3.2443, 40.2301 ], [ -3.2433, 40.2301 ], [ -3.2432, 40.23 ], [ -3.2435, 40.2294 ], [ -3.2411, 40.2293 ], [ -3.2405, 40.2301 ], [ -3.2406, 40.2304 ], [ -3.2407, 40.2305 ], [ -3.2412, 40.2304 ], [ -3.2421, 40.2315 ], [ -3.2408, 40.232 ], [ -3.2409, 40.2326 ], [ -3.2411, 40.2332 ], [ -3.2425, 40.2335 ], [ -3.2422, 40.2339 ], [ -3.2425, 40.2342 ], [ -3.2416, 40.2346 ], [ -3.2393, 40.2346 ], [ -3.2392, 40.2342 ], [ -3.2388, 40.2339 ], [ -3.2381, 40.2342 ], [ -3.238, 40.2341 ], [ -3.2382, 40.2338 ], [ -3.238, 40.2335 ], [ -3.2369, 40.233 ], [ -3.2367, 40.2325 ], [ -3.2361, 40.2326 ], [ -3.2362, 40.233 ], [ -3.2359, 40.2335 ], [ -3.2345, 40.2325 ], [ -3.2345, 40.2317 ], [ -3.2343, 40.2313 ], [ -3.2341, 40.2313 ], [ -3.2339, 40.2318 ], [ -3.2335, 40.2318 ], [ -3.2336, 40.2323 ], [ -3.2333, 40.2329 ], [ -3.2346, 40.2339 ], [ -3.2348, 40.2343 ], [ -3.2329, 40.234 ], [ -3.2323, 40.234 ], [ -3.2323, 40.2341 ], [ -3.2338, 40.2349 ], [ -3.2338, 40.2354 ], [ -3.2341, 40.2354 ], [ -3.2352, 40.236 ], [ -3.2351, 40.2363 ], [ -3.2341, 40.2365 ], [ -3.2334, 40.2356 ], [ -3.2331, 40.2355 ], [ -3.2314, 40.2363 ], [ -3.2296, 40.2358 ], [ -3.2294, 40.2362 ], [ -3.2294, 40.2371 ], [ -3.2297, 40.237 ], [ -3.2296, 40.2375 ], [ -3.2303, 40.2374 ], [ -3.2304, 40.2377 ], [ -3.2303, 40.2379 ], [ -3.2291, 40.2385 ], [ -3.2291, 40.2387 ], [ -3.2285, 40.2389 ], [ -3.2283, 40.2393 ], [ -3.2281, 40.2394 ], [ -3.2278, 40.2395 ], [ -3.2269, 40.2393 ], [ -3.2259, 40.2383 ], [ -3.2252, 40.2382 ], [ -3.2248, 40.2387 ], [ -3.224, 40.2389 ], [ -3.2234, 40.2383 ], [ -3.2231, 40.2382 ], [ -3.2228, 40.2388 ], [ -3.2229, 40.2392 ], [ -3.2228, 40.2397 ], [ -3.2225, 40.2397 ], [ -3.2227, 40.2376 ], [ -3.2222, 40.2373 ], [ -3.2217, 40.2375 ], [ -3.2219, 40.2379 ], [ -3.2217, 40.2385 ], [ -3.2215, 40.2383 ], [ -3.2217, 40.2371 ], [ -3.2213, 40.236 ], [ -3.2218, 40.2355 ], [ -3.2218, 40.2353 ], [ -3.2213, 40.2355 ], [ -3.2211, 40.2354 ], [ -3.2211, 40.2345 ], [ -3.2209, 40.2348 ], [ -3.2203, 40.235 ], [ -3.2204, 40.2352 ], [ -3.2202, 40.2355 ], [ -3.2204, 40.2358 ], [ -3.2202, 40.2363 ], [ -3.2204, 40.2368 ], [ -3.2203, 40.2372 ], [ -3.2195, 40.2372 ], [ -3.2199, 40.2376 ], [ -3.2194, 40.2382 ], [ -3.2182, 40.2378 ], [ -3.2176, 40.2372 ], [ -3.2171, 40.2379 ], [ -3.2189, 40.2388 ], [ -3.2201, 40.2386 ], [ -3.221, 40.24 ], [ -3.2215, 40.2398 ], [ -3.2234, 40.2411 ], [ -3.2246, 40.2412 ], [ -3.2252, 40.2424 ], [ -3.2254, 40.2423 ] ] ] } },
{ "type": "Feature", "properties": { "municipio": "Carabaña", "clasificacion": "no-urbanizable-protegido", "calificacion": "sin-asignar", "version": "vigente", "fuente": "SIT-CAM WFS — UsoDelSuelo:VPLA_V_CLASIFICACION (https://idem.comunidad.madrid/geosrvg/ows)", "fecha_dato": "2026-05-12", "ambito": "50", "_raw_CD_SIGLAS": "SNUP", "_raw_DS_CLASIF_GEN": "Suelo No Urbanizable Protegido", "_raw_DS_CLASIF_DET": "Suelo No Urbanizable Protegido. Alta Productividad Agrícola", "_raw_DS_DOCU": "NORMAS SUBSIDIARIAS", "_raw_DS_LEY": "E RD 1346/1976", "_raw_FC_AC": "1985-10-22", "_raw_NM_AREA_M2": 5575807.4561649002, "_cam_code": "035" }, "geometry": { "type": "Polygon", "coordinates": [ [ [ -3.2188, 40.2731 ], [ -3.2214, 40.2753 ], [ -3.2216, 40.2752 ], [ -3.2216, 40.2749 ], [ -3.2212, 40.2742 ], [ -3.222, 40.2746 ], [ -3.2224, 40.2746 ], [ -3.2228, 40.2743 ], [ -3.2237, 40.2742 ], [ -3.2231, 40.274 ], [ -3.2223, 40.2732 ], [ -3.2239, 40.2723 ], [ -3.224, 40.2714 ], [ -3.2246, 40.271 ], [ -3.2235, 40.271 ], [ -3.2236, 40.2704 ], [ -3.2252, 40.2677 ], [ -3.2276, 40.2648 ], [ -3.2286, 40.2634 ], [ -3.229, 40.2625 ], [ -3.2301, 40.2613 ], [ -3.2294, 40.2612 ], [ -3.2291, 40.261 ], [ -3.2281, 40.2609 ], [ -3.2281, 40.2608 ], [ -3.2294, 40.26 ], [ -3.2297, 40.26 ], [ -3.23, 40.2597 ], [ -3.2299, 40.2596 ], [ -3.2301, 40.2593 ], [ -3.2313, 40.2585 ], [ -3.2312, 40.2583 ], [ -3.2313, 40.2583 ], [ -3.2311, 40.2581 ], [ -3.2302, 40.2578 ], [ -3.2303, 40.2573 ], [ -3.2308, 40.2574 ], [ -3.2316, 40.2578 ], [ -3.2319, 40.2578 ], [ -3.2321, 40.2573 ], [ -3.2329, 40.2576 ], [ -3.2334, 40.2571 ], [ -3.2336, 40.2565 ], [ -3.2339, 40.2563 ], [ -3.2346, 40.2565 ], [ -3.2349, 40.2569 ], [ -3.2348, 40.2575 ], [ -3.2358, 40.2581 ], [ -3.2359, 40.258 ], [ -3.2365, 40.2583 ], [ -3.2362, 40.2585 ], [ -3.2378, 40.2602 ], [ -3.2397, 40.2608 ], [ -3.2398, 40.2602 ], [ -3.2392, 40.2594 ], [ -3.2384, 40.2596 ], [ -3.2378, 40.259 ], [ -3.2375, 40.2584 ], [ -3.2377, 40.2578 ], [ -3.2374, 40.2577 ], [ -3.2374, 40.2575 ], [ -3.2372, 40.2575 ], [ -3.237, 40.2573 ], [ -3.2368, 40.2574 ], [ -3.2368, 40.2573 ], [ -3.236, 40.257 ], [ -3.2359, 40.2571 ], [ -3.2355, 40.2567 ], [ -3.2347, 40.2565 ], [ -3.2352, 40.2554 ], [ -3.2353, 40.2554 ], [ -3.2355, 40.2545 ], [ -3.2355, 40.2545 ], [ -3.2355, 40.2545 ], [ -3.2355, 40.2544 ], [ -3.2355, 40.2544 ], [ -3.2355, 40.2543 ], [ -3.2355, 40.2543 ], [ -3.2355, 40.2543 ], [ -3.2355, 40.2542 ], [ -3.2355, 40.2541 ], [ -3.2353, 40.2545 ], [ -3.2351, 40.2545 ], [ -3.235, 40.2534 ], [ -3.2341, 40.2531 ], [ -3.2343, 40.2529 ], [ -3.2342, 40.2527 ], [ -3.2343, 40.2524 ], [ -3.2342, 40.2524 ], [ -3.2351, 40.2509 ], [ -3.2355, 40.2508 ], [ -3.2353, 40.2511 ], [ -3.2355, 40.2512 ], [ -3.2358, 40.2509 ], [ -3.2359, 40.2505 ], [ -3.2358, 40.2503 ], [ -3.2366, 40.25 ], [ -3.2371, 40.2495 ], [ -3.2379, 40.2491 ], [ -3.2388, 40.2488 ], [ -3.2389, 40.2489 ], [ -3.2418, 40.2474 ], [ -3.2436, 40.247 ], [ -3.2461, 40.247 ], [ -3.2528, 40.2465 ], [ -3.2667, 40.247 ], [ -3.267, 40.2475 ], [ -3.2675, 40.2477 ], [ -3.268, 40.2476 ], [ -3.2683, 40.2477 ], [ -3.2684, 40.2481 ], [ -3.2683, 40.2486 ], [ -3.2689, 40.2483 ], [ -3.2704, 40.2484 ], [ -3.2712, 40.2491 ], [ -3.2721, 40.2488 ], [ -3.2725, 40.249 ], [ -3.2727, 40.2488 ], [ -3.2736, 40.2487 ], [ -3.2744, 40.2492 ], [ -3.2745, 40.2487 ], [ -3.2748, 40.2482 ], [ -3.2753, 40.2488 ], [ -3.2753, 40.2493 ], [ -3.2755, 40.2497 ], [ -3.2761, 40.25 ], [ -3.276, 40.2491 ], [ -3.2767, 40.248 ], [ -3.2775, 40.2475 ], [ -3.2782, 40.2476 ], [ -3.2786, 40.2479 ], [ -3.2793, 40.2476 ], [ -3.279, 40.2417 ], [ -3.277, 40.2416 ], [ -3.2756, 40.2413 ], [ -3.2747, 40.2413 ], [ -3.2735, 40.2415 ], [ -3.273, 40.2417 ], [ -3.2726, 40.2415 ], [ -3.2726, 40.241 ], [ -3.2719, 40.2411 ], [ -3.271, 40.241 ], [ -3.2704, 40.2413 ], [ -3.2679, 40.2413 ], [ -3.2674, 40.241 ], [ -3.2672, 40.2406 ], [ -3.2669, 40.2409 ], [ -3.2668, 40.2406 ], [ -3.2664, 40.2402 ], [ -3.2648, 40.2396 ], [ -3.2646, 40.2388 ], [ -3.2632, 40.238 ], [ -3.2623, 40.2388 ], [ -3.2565, 40.2388 ], [ -3.254, 40.2391 ], [ -3.2531, 40.2388 ], [ -3.2535, 40.2401 ], [ -3.2524, 40.2401 ], [ -3.2516, 40.24 ], [ -3.2511, 40.2398 ], [ -3.25, 40.2397 ], [ -3.2492, 40.2399 ], [ -3.2482, 40.2398 ], [ -3.2474, 40.2393 ], [ -3.247, 40.2397 ], [ -3.2464, 40.2398 ], [ -3.2449, 40.2397 ], [ -3.2442, 40.2392 ], [ -3.2441, 40.2381 ], [ -3.2437, 40.2384 ], [ -3.2433, 40.2391 ], [ -3.2425, 40.2393 ], [ -3.2423, 40.2391 ], [ -3.2391, 40.2392 ], [ -3.2382, 40.2388 ], [ -3.2381, 40.2389 ], [ -3.2381, 40.2395 ], [ -3.2359, 40.2402 ], [ -3.235, 40.2402 ], [ -3.2323, 40.2397 ], [ -3.2311, 40.24 ], [ -3.2302, 40.2404 ], [ -3.2298, 40.241 ], [ -3.2289, 40.2411 ], [ -3.229, 40.2415 ], [ -3.2282, 40.2425 ], [ -3.2279, 40.2431 ], [ -3.228, 40.2434 ], [ -3.2278, 40.2437 ], [ -3.2286, 40.2441 ], [ -3.2288, 40.2444 ], [ -3.2289, 40.2449 ], [ -3.2279, 40.245 ], [ -3.2277, 40.2441 ], [ -3.2273, 40.244 ], [ -3.2273, 40.2438 ], [ -3.2256, 40.243 ], [ -3.2254, 40.2423 ], [ -3.2252, 40.2424 ], [ -3.2246, 40.2412 ], [ -3.2234, 40.2411 ], [ -3.2215, 40.2398 ], [ -3.221, 40.24 ], [ -3.2201, 40.2386 ], [ -3.2189, 40.2388 ], [ -3.2171, 40.2379 ], [ -3.2153, 40.2386 ], [ -3.2164, 40.2395 ], [ -3.2189, 40.2408 ], [ -3.2215, 40.2415 ], [ -3.2225, 40.242 ], [ -3.2268, 40.2467 ], [ -3.2285, 40.2479 ], [ -3.2287, 40.2495 ], [ -3.2266, 40.2527 ], [ -3.226, 40.2549 ], [ -3.2257, 40.2582 ], [ -3.225, 40.2611 ], [ -3.2243, 40.2631 ], [ -3.2228, 40.2644 ], [ -3.2211, 40.2656 ], [ -3.2184, 40.2683 ], [ -3.2174, 40.271 ], [ -3.216, 40.2715 ], [ -3.2188, 40.2731 ] ] ] } },
{ "type": "Feature", "properties": { "municipio": "Carabaña", "clasificacion": "no-urbanizable-protegido", "calificacion": "sin-asignar", "version": "vigente", "fuente": "SIT-CAM WFS — UsoDelSuelo:VPLA_V_CLASIFICACION (https://idem.comunidad.madrid/geosrvg/ows)", "fecha_dato": "2026-05-12", "ambito": "50", "_raw_CD_SIGLAS": "SNUP", "_raw_DS_CLASIF_GEN": "Suelo No Urbanizable Protegido", "_raw_DS_CLASIF_DET": "Suelo No Urbanizable Protegido. Manantial minero medicinal", "_raw_DS_DOCU": "NORMAS SUBSIDIARIAS", "_raw_DS_LEY": "E RD 1346/1976", "_raw_FC_AC": "1985-10-22", "_raw_NM_AREA_M2": 849321.64914064202, "_cam_code": "035" }, "geometry": { "type": "Polygon", "coordinates": [ [ [ -3.25, 40.2397 ], [ -3.2511, 40.2398 ], [ -3.2516, 40.24 ], [ -3.2524, 40.2401 ], [ -3.2535, 40.2401 ], [ -3.2531, 40.2388 ], [ -3.254, 40.2391 ], [ -3.2565, 40.2388 ], [ -3.2623, 40.2388 ], [ -3.2616, 40.2386 ], [ -3.2608, 40.2377 ], [ -3.261, 40.2362 ], [ -3.2604, 40.2351 ], [ -3.2593, 40.2348 ], [ -3.2595, 40.2342 ], [ -3.2592, 40.2336 ], [ -3.2592, 40.2332 ], [ -3.2603, 40.2328 ], [ -3.2608, 40.2334 ], [ -3.2611, 40.2333 ], [ -3.2618, 40.2335 ], [ -3.2622, 40.2333 ], [ -3.2624, 40.233 ], [ -3.2629, 40.2336 ], [ -3.2639, 40.234 ], [ -3.2653, 40.2338 ], [ -3.2654, 40.2337 ], [ -3.2652, 40.2335 ], [ -3.2652, 40.2332 ], [ -3.2636, 40.232 ], [ -3.2637, 40.2317 ], [ -3.2636, 40.2315 ], [ -3.2628, 40.2318 ], [ -3.2631, 40.2323 ], [ -3.263, 40.2327 ], [ -3.2622, 40.2326 ], [ -3.2619, 40.2327 ], [ -3.2618, 40.233 ], [ -3.2615, 40.2328 ], [ -3.261, 40.233 ], [ -3.2608, 40.2329 ], [ -3.2612, 40.2321 ], [ -3.261, 40.2319 ], [ -3.2616, 40.2314 ], [ -3.2616, 40.2312 ], [ -3.261, 40.2314 ], [ -3.2609, 40.2319 ], [ -3.2607, 40.232 ], [ -3.2603, 40.2317 ], [ -3.2606, 40.231 ], [ -3.2605, 40.2301 ], [ -3.2607, 40.2299 ], [ -3.2606, 40.2294 ], [ -3.2604, 40.2293 ], [ -3.2601, 40.2295 ], [ -3.2599, 40.2303 ], [ -3.2594, 40.2309 ], [ -3.2595, 40.2312 ], [ -3.2598, 40.2314 ], [ -3.259, 40.2318 ], [ -3.259, 40.2313 ], [ -3.2588, 40.2313 ], [ -3.2587, 40.2308 ], [ -3.2585, 40.2308 ], [ -3.2578, 40.2316 ], [ -3.2574, 40.2315 ], [ -3.2574, 40.2311 ], [ -3.2576, 40.2308 ], [ -3.2575, 40.2306 ], [ -3.2576, 40.23 ], [ -3.257, 40.2298 ], [ -3.2564, 40.2292 ], [ -3.2555, 40.2292 ], [ -3.2546, 40.23 ], [ -3.2542, 40.23 ], [ -3.254, 40.2313 ], [ -3.2533, 40.2314 ], [ -3.2522, 40.2311 ], [ -3.2521, 40.2312 ], [ -3.2531, 40.232 ], [ -3.2532, 40.2325 ], [ -3.2526, 40.2325 ], [ -3.2515, 40.233 ], [ -3.2511, 40.2334 ], [ -3.2505, 40.2344 ], [ -3.2499, 40.2345 ], [ -3.2486, 40.2358 ], [ -3.2497, 40.2365 ], [ -3.2497, 40.2367 ], [ -3.2494, 40.237 ], [ -3.2503, 40.2375 ], [ -3.2503, 40.2376 ], [ -3.2497, 40.2379 ], [ -3.2503, 40.2388 ], [ -3.251, 40.2384 ], [ -3.2515, 40.2384 ], [ -3.2516, 40.2388 ], [ -3.2515, 40.239 ], [ -3.2509, 40.2393 ], [ -3.2501, 40.2394 ], [ -3.25, 40.2397 ] ] ] } },
{ "type": "Feature", "properties": { "municipio": "Carabaña", "clasificacion": "no-urbanizable-protegido", "calificacion": "sin-asignar", "version": "vigente", "fuente": "SIT-CAM WFS — UsoDelSuelo:VPLA_V_CLASIFICACION (https://idem.comunidad.madrid/geosrvg/ows)", "fecha_dato": "2026-05-12", "ambito": "50", "_raw_CD_SIGLAS": "SNUP", "_raw_DS_CLASIF_GEN": "Suelo No Urbanizable Protegido", "_raw_DS_CLASIF_DET": "Suelo No Urbanizable Protegido. Masas Arbóreas", "_raw_DS_DOCU": "NORMAS SUBSIDIARIAS", "_raw_DS_LEY": "E RD 1346/1976", "_raw_FC_AC": "1985-10-22", "_raw_NM_AREA_M2": 766083.56163545197, "_cam_code": "035" }, "geometry": { "type": "Polygon", "coordinates": [ [ [ -3.2422, 40.2716 ], [ -3.2431, 40.2723 ], [ -3.2431, 40.2713 ], [ -3.2451, 40.2713 ], [ -3.2455, 40.2708 ], [ -3.2458, 40.2694 ], [ -3.2448, 40.2672 ], [ -3.2443, 40.2667 ], [ -3.2436, 40.2664 ], [ -3.242, 40.2664 ], [ -3.2407, 40.2662 ], [ -3.2397, 40.2662 ], [ -3.2396, 40.2659 ], [ -3.2389, 40.2654 ], [ -3.2387, 40.2649 ], [ -3.2367, 40.2643 ], [ -3.2362, 40.2636 ], [ -3.2336, 40.2641 ], [ -3.2327, 40.2644 ], [ -3.2325, 40.2647 ], [ -3.2319, 40.2671 ], [ -3.2316, 40.2675 ], [ -3.2326, 40.2687 ], [ -3.2328, 40.2695 ], [ -3.2333, 40.2696 ], [ -3.2337, 40.2709 ], [ -3.2339, 40.2709 ], [ -3.2345, 40.272 ], [ -3.2377, 40.2718 ], [ -3.2408, 40.2718 ], [ -3.2422, 40.2713 ], [ -3.2422, 40.2716 ] ] ] } },
{ "type": "Feature", "properties": { "municipio": "Carabaña", "clasificacion": "no-urbanizable-protegido", "calificacion": "sin-asignar", "version": "vigente", "fuente": "SIT-CAM WFS — UsoDelSuelo:VPLA_V_CLASIFICACION (https://idem.comunidad.madrid/geosrvg/ows)", "fecha_dato": "2026-05-12", "ambito": "50", "_raw_CD_SIGLAS": "SNUP", "_raw_DS_CLASIF_GEN": "Suelo No Urbanizable Protegido", "_raw_DS_CLASIF_DET": "Suelo No Urbanizable Protegido. Masas Arbóreas", "_raw_DS_DOCU": "NORMAS SUBSIDIARIAS", "_raw_DS_LEY": "E RD 1346/1976", "_raw_FC_AC": "1985-10-22", "_raw_NM_AREA_M2": 2144089.11651489, "_cam_code": "035" }, "geometry": { "type": "Polygon", "coordinates": [ [ [ -3.2622, 40.2875 ], [ -3.2652, 40.2875 ], [ -3.2665, 40.2883 ], [ -3.2723, 40.288 ], [ -3.2775, 40.2802 ], [ -3.2791, 40.2782 ], [ -3.2795, 40.2764 ], [ -3.2816, 40.2711 ], [ -3.2819, 40.2686 ], [ -3.2817, 40.2664 ], [ -3.2826, 40.2645 ], [ -3.2849, 40.2623 ], [ -3.2836, 40.2612 ], [ -3.2833, 40.2596 ], [ -3.2832, 40.2573 ], [ -3.283, 40.2561 ], [ -3.2722, 40.2567 ], [ -3.2726, 40.2572 ], [ -3.2725, 40.2576 ], [ -3.273, 40.2584 ], [ -3.2728, 40.2597 ], [ -3.2733, 40.2605 ], [ -3.2736, 40.2615 ], [ -3.2736, 40.2623 ], [ -3.2733, 40.2629 ], [ -3.2727, 40.263 ], [ -3.2723, 40.2637 ], [ -3.2718, 40.2638 ], [ -3.2704, 40.2637 ], [ -3.2704, 40.2639 ], [ -3.2707, 40.2643 ], [ -3.2706, 40.2648 ], [ -3.2696, 40.2659 ], [ -3.2689, 40.2658 ], [ -3.2685, 40.2655 ], [ -3.2678, 40.2655 ], [ -3.2679, 40.2658 ], [ -3.269, 40.2666 ], [ -3.2692, 40.2671 ], [ -3.2706, 40.2664 ], [ -3.2707, 40.266 ], [ -3.2711, 40.2658 ], [ -3.2714, 40.2658 ], [ -3.2722, 40.2653 ], [ -3.2724, 40.2656 ], [ -3.2736, 40.2657 ], [ -3.274, 40.2659 ], [ -3.2744, 40.2655 ], [ -3.275, 40.2654 ], [ -3.2758, 40.2663 ], [ -3.2764, 40.2661 ], [ -3.277, 40.2656 ], [ -3.2775, 40.2645 ], [ -3.2778, 40.2644 ], [ -3.2783, 40.2636 ], [ -3.2787, 40.2632 ], [ -3.2789, 40.2633 ], [ -3.2792, 40.2638 ], [ -3.2796, 40.2637 ], [ -3.2798, 40.2642 ], [ -3.2794, 40.2646 ], [ -3.2795, 40.2651 ], [ -3.2792, 40.2658 ], [ -3.2793, 40.266 ], [ -3.2788, 40.2664 ], [ -3.2787, 40.2668 ], [ -3.279, 40.2675 ], [ -3.2786, 40.2678 ], [ -3.2786, 40.2685 ], [ -3.2783, 40.2688 ], [ -3.2777, 40.2688 ], [ -3.2772, 40.2686 ], [ -3.2777, 40.2697 ], [ -3.2769, 40.2695 ], [ -3.2767, 40.2696 ], [ -3.2766, 40.2701 ], [ -3.2764, 40.2704 ], [ -3.276, 40.2706 ], [ -3.2765, 40.2708 ], [ -3.2768, 40.2712 ], [ -3.2767, 40.2718 ], [ -3.2759, 40.2722 ], [ -3.2744, 40.2718 ], [ -3.2727, 40.273 ], [ -3.2729, 40.2732 ], [ -3.2729, 40.2734 ], [ -3.2727, 40.2736 ], [ -3.272, 40.2738 ], [ -3.2713, 40.2738 ], [ -3.2719, 40.2741 ], [ -3.2722, 40.2745 ], [ -3.2729, 40.2744 ], [ -3.2734, 40.2754 ], [ -3.2739, 40.2742 ], [ -3.2743, 40.2739 ], [ -3.2753, 40.2743 ], [ -3.2757, 40.2746 ], [ -3.2755, 40.2751 ], [ -3.2755, 40.2759 ], [ -3.2761, 40.2752 ], [ -3.2763, 40.2745 ], [ -3.2775, 40.2746 ], [ -3.2778, 40.275 ], [ -3.2776, 40.2752 ], [ -3.2772, 40.2751 ], [ -3.2765, 40.2753 ], [ -3.2763, 40.2757 ], [ -3.2766, 40.276 ], [ -3.2773, 40.2762 ], [ -3.2774, 40.2765 ], [ -3.277, 40.2768 ], [ -3.2774, 40.2771 ], [ -3.2775, 40.2777 ], [ -3.2763, 40.2776 ], [ -3.2759, 40.2781 ], [ -3.2764, 40.2785 ], [ -3.2766, 40.2789 ], [ -3.2756, 40.2789 ], [ -3.275, 40.2791 ], [ -3.275, 40.2798 ], [ -3.2748, 40.2803 ], [ -3.2745, 40.2804 ], [ -3.2735, 40.2802 ], [ -3.2734, 40.2808 ], [ -3.2731, 40.281 ], [ -3.2713, 40.2811 ], [ -3.2707, 40.2814 ], [ -3.27, 40.2821 ], [ -3.2702, 40.2824 ], [ -3.2707, 40.2825 ], [ -3.2714, 40.2819 ], [ -3.2721, 40.2817 ], [ -3.2727, 40.2817 ], [ -3.2715, 40.2822 ], [ -3.2712, 40.2827 ], [ -3.2712, 40.2831 ], [ -3.2714, 40.2833 ], [ -3.2719, 40.2833 ], [ -3.2723, 40.2835 ], [ -3.2725, 40.2838 ], [ -3.2724, 40.2843 ], [ -3.2721, 40.2846 ], [ -3.271, 40.2848 ], [ -3.2699, 40.2848 ], [ -3.2674, 40.283 ], [ -3.2687, 40.2818 ], [ -3.2672, 40.2802 ], [ -3.265, 40.282 ], [ -3.2661, 40.2828 ], [ -3.2663, 40.2848 ], [ -3.266, 40.2864 ], [ -3.2633, 40.2864 ], [ -3.2631, 40.2861 ], [ -3.2624, 40.286 ], [ -3.2619, 40.2857 ], [ -3.2617, 40.2848 ], [ -3.2608, 40.2847 ], [ -3.2608, 40.2853 ], [ -3.2607, 40.2854 ], [ -3.26, 40.2854 ], [ -3.2584, 40.2847 ], [ -3.2577, 40.2854 ], [ -3.2591, 40.2855 ], [ -3.2594, 40.2859 ], [ -3.2578, 40.2868 ], [ -3.2581, 40.2875 ], [ -3.259, 40.2872 ], [ -3.2601, 40.2872 ], [ -3.2612, 40.287 ], [ -3.2622, 40.2875 ] ] ] } },
{ "type": "Feature", "properties": { "municipio": "Carabaña", "clasificacion": "no-urbanizable-protegido", "calificacion": "sin-asignar", "version": "vigente", "fuente": "SIT-CAM WFS — UsoDelSuelo:VPLA_V_CLASIFICACION (https://idem.comunidad.madrid/geosrvg/ows)", "fecha_dato": "2026-05-12", "ambito": "50", "_raw_CD_SIGLAS": "SNUP", "_raw_DS_CLASIF_GEN": "Suelo No Urbanizable Protegido", "_raw_DS_CLASIF_DET": "Suelo No Urbanizable Protegido. Vertidos a curso de agua", "_raw_DS_DOCU": "NORMAS SUBSIDIARIAS", "_raw_DS_LEY": "E RD 1346/1976", "_raw_FC_AC": "1985-10-22", "_raw_NM_AREA_M2": 1591957.7416508801, "_cam_code": "035" }, "geometry": { "type": "Polygon", "coordinates": [ [ [ -3.213, 40.2691 ], [ -3.2144, 40.2705 ], [ -3.216, 40.2715 ], [ -3.2174, 40.271 ], [ -3.2184, 40.2683 ], [ -3.2211, 40.2656 ], [ -3.2228, 40.2644 ], [ -3.2243, 40.2631 ], [ -3.225, 40.2611 ], [ -3.2257, 40.2582 ], [ -3.226, 40.2549 ], [ -3.2266, 40.2527 ], [ -3.2287, 40.2495 ], [ -3.2285, 40.2479 ], [ -3.2268, 40.2467 ], [ -3.2225, 40.242 ], [ -3.2215, 40.2415 ], [ -3.2189, 40.2408 ], [ -3.2164, 40.2395 ], [ -3.2153, 40.2386 ], [ -3.2133, 40.2394 ], [ -3.2107, 40.2407 ], [ -3.2118, 40.2406 ], [ -3.2123, 40.2408 ], [ -3.2127, 40.2408 ], [ -3.2129, 40.2409 ], [ -3.213, 40.2415 ], [ -3.2133, 40.2411 ], [ -3.2136, 40.241 ], [ -3.2149, 40.2414 ], [ -3.2148, 40.2421 ], [ -3.2145, 40.2429 ], [ -3.2141, 40.2435 ], [ -3.2148, 40.2431 ], [ -3.2154, 40.2432 ], [ -3.2154, 40.2435 ], [ -3.2161, 40.2431 ], [ -3.2161, 40.2437 ], [ -3.2171, 40.2434 ], [ -3.2173, 40.2436 ], [ -3.2178, 40.2436 ], [ -3.2177, 40.2443 ], [ -3.2163, 40.2454 ], [ -3.2167, 40.2452 ], [ -3.217, 40.2454 ], [ -3.2175, 40.2454 ], [ -3.2175, 40.2456 ], [ -3.2169, 40.2462 ], [ -3.2175, 40.2464 ], [ -3.2177, 40.2468 ], [ -3.2175, 40.247 ], [ -3.2176, 40.2471 ], [ -3.2185, 40.247 ], [ -3.2188, 40.2475 ], [ -3.2186, 40.2477 ], [ -3.22, 40.2476 ], [ -3.22, 40.2482 ], [ -3.2213, 40.2483 ], [ -3.221, 40.2488 ], [ -3.2214, 40.2491 ], [ -3.2219, 40.2491 ], [ -3.222, 40.25 ], [ -3.2219, 40.2504 ], [ -3.221, 40.2506 ], [ -3.2214, 40.2511 ], [ -3.2213, 40.2521 ], [ -3.2197, 40.2525 ], [ -3.2206, 40.2528 ], [ -3.2203, 40.253 ], [ -3.2199, 40.2538 ], [ -3.219, 40.2541 ], [ -3.2182, 40.2542 ], [ -3.2178, 40.2544 ], [ -3.2176, 40.2548 ], [ -3.2181, 40.2552 ], [ -3.2182, 40.255 ], [ -3.2179, 40.2547 ], [ -3.2187, 40.2544 ], [ -3.2193, 40.2547 ], [ -3.2198, 40.2545 ], [ -3.2205, 40.2546 ], [ -3.2208, 40.2544 ], [ -3.221, 40.2548 ], [ -3.2214, 40.2544 ], [ -3.2221, 40.2544 ], [ -3.2224, 40.2546 ], [ -3.2222, 40.2548 ], [ -3.2225, 40.255 ], [ -3.2228, 40.2551 ], [ -3.2237, 40.2549 ], [ -3.2238, 40.2551 ], [ -3.2227, 40.2565 ], [ -3.2231, 40.2568 ], [ -3.2233, 40.2568 ], [ -3.2234, 40.257 ], [ -3.2233, 40.2572 ], [ -3.2221, 40.2579 ], [ -3.2228, 40.2583 ], [ -3.2228, 40.2589 ], [ -3.2226, 40.2592 ], [ -3.2228, 40.2599 ], [ -3.2221, 40.2605 ], [ -3.2224, 40.2608 ], [ -3.2218, 40.2625 ], [ -3.2209, 40.263 ], [ -3.2206, 40.2633 ], [ -3.2207, 40.2637 ], [ -3.2198, 40.2642 ], [ -3.2196, 40.2646 ], [ -3.219, 40.2649 ], [ -3.2179, 40.2646 ], [ -3.2179, 40.2647 ], [ -3.2169, 40.2653 ], [ -3.2165, 40.2653 ], [ -3.2168, 40.2656 ], [ -3.2159, 40.2668 ], [ -3.2152, 40.2668 ], [ -3.2152, 40.267 ], [ -3.2148, 40.2671 ], [ -3.2147, 40.2674 ], [ -3.214, 40.2675 ], [ -3.2136, 40.2677 ], [ -3.2132, 40.2675 ], [ -3.2128, 40.2678 ], [ -3.2131, 40.2682 ], [ -3.213, 40.2691 ] ] ] } },
{ "type": "Feature", "properties": { "municipio": "Carabaña", "clasificacion": "no-urbanizable-protegido", "calificacion": "sin-asignar", "version": "vigente", "fuente": "SIT-CAM WFS — UsoDelSuelo:VPLA_V_CLASIFICACION (https://idem.comunidad.madrid/geosrvg/ows)", "fecha_dato": "2026-05-12", "ambito": "50", "_raw_CD_SIGLAS": "SNUP", "_raw_DS_CLASIF_GEN": "Suelo No Urbanizable Protegido", "_raw_DS_CLASIF_DET": "Suelo No Urbanizable Protegido. Vertidos a curso de agua", "_raw_DS_DOCU": "NORMAS SUBSIDIARIAS", "_raw_DS_LEY": "E RD 1346/1976", "_raw_FC_AC": "1985-10-22", "_raw_NM_AREA_M2": 7059672.0588712702, "_cam_code": "035" }, "geometry": { "type": "Polygon", "coordinates": [ [ [ -3.2277, 40.2825 ], [ -3.2281, 40.2821 ], [ -3.2273, 40.281 ], [ -3.2273, 40.2794 ], [ -3.2271, 40.2788 ], [ -3.2274, 40.2787 ], [ -3.229, 40.2785 ], [ -3.2297, 40.2809 ], [ -3.2305, 40.2805 ], [ -3.2332, 40.2809 ], [ -3.2314, 40.2798 ], [ -3.2324, 40.2769 ], [ -3.2317, 40.2762 ], [ -3.2322, 40.2751 ], [ -3.2327, 40.2748 ], [ -3.2331, 40.2748 ], [ -3.2343, 40.2744 ], [ -3.2359, 40.2756 ], [ -3.2364, 40.2756 ], [ -3.2371, 40.2766 ], [ -3.238, 40.2772 ], [ -3.2399, 40.2774 ], [ -3.2405, 40.278 ], [ -3.2397, 40.2798 ], [ -3.2414, 40.2792 ], [ -3.2418, 40.2794 ], [ -3.2425, 40.2789 ], [ -3.2437, 40.2785 ], [ -3.2444, 40.2789 ], [ -3.2459, 40.2794 ], [ -3.2452, 40.2807 ], [ -3.245, 40.2808 ], [ -3.2463, 40.2813 ], [ -3.2468, 40.2808 ], [ -3.2471, 40.2809 ], [ -3.2481, 40.2805 ], [ -3.2489, 40.2794 ], [ -3.2502, 40.2795 ], [ -3.2505, 40.28 ], [ -3.2514, 40.2801 ], [ -3.2514, 40.2795 ], [ -3.2537, 40.2795 ], [ -3.2542, 40.2803 ], [ -3.2545, 40.2804 ], [ -3.2549, 40.2802 ], [ -3.254, 40.2788 ], [ -3.2532, 40.278 ], [ -3.253, 40.2776 ], [ -3.2518, 40.277 ], [ -3.2517, 40.2768 ], [ -3.2518, 40.2766 ], [ -3.2525, 40.2763 ], [ -3.2526, 40.2759 ], [ -3.2521, 40.2754 ], [ -3.2511, 40.2753 ], [ -3.2501, 40.2757 ], [ -3.2495, 40.2768 ], [ -3.2493, 40.2769 ], [ -3.2475, 40.277 ], [ -3.2473, 40.2749 ], [ -3.2479, 40.2736 ], [ -3.2483, 40.2734 ], [ -3.2482, 40.2728 ], [ -3.248, 40.2727 ], [ -3.2485, 40.2726 ], [ -3.2495, 40.2708 ], [ -3.25, 40.2702 ], [ -3.2508, 40.2697 ], [ -3.2516, 40.2688 ], [ -3.2529, 40.269 ], [ -3.2528, 40.2669 ], [ -3.253, 40.2654 ], [ -3.2526, 40.2646 ], [ -3.2519, 40.2644 ], [ -3.2512, 40.2636 ], [ -3.2518, 40.2625 ], [ -3.2499, 40.2624 ], [ -3.2496, 40.2616 ], [ -3.2496, 40.2608 ], [ -3.247, 40.2588 ], [ -3.2469, 40.2581 ], [ -3.2463, 40.2573 ], [ -3.2458, 40.2563 ], [ -3.2463, 40.256 ], [ -3.2467, 40.2555 ], [ -3.2482, 40.2542 ], [ -3.2494, 40.2538 ], [ -3.2505, 40.2538 ], [ -3.2518, 40.2534 ], [ -3.2518, 40.2532 ], [ -3.252, 40.253 ], [ -3.2528, 40.2528 ], [ -3.254, 40.2532 ], [ -3.255, 40.2533 ], [ -3.2556, 40.2538 ], [ -3.2562, 40.2539 ], [ -3.2565, 40.2543 ], [ -3.2562, 40.2553 ], [ -3.2559, 40.2558 ], [ -3.2549, 40.2561 ], [ -3.255, 40.2567 ], [ -3.2558, 40.2564 ], [ -3.2577, 40.2567 ], [ -3.2586, 40.2578 ], [ -3.2589, 40.2568 ], [ -3.2594, 40.2558 ], [ -3.2598, 40.2554 ], [ -3.2604, 40.2553 ], [ -3.2619, 40.2544 ], [ -3.2623, 40.2546 ], [ -3.2628, 40.2552 ], [ -3.2648, 40.2557 ], [ -3.2654, 40.2556 ], [ -3.2667, 40.2563 ], [ -3.2674, 40.257 ], [ -3.2679, 40.257 ], [ -3.2691, 40.2584 ], [ -3.2692, 40.2588 ], [ -3.2691, 40.2594 ], [ -3.2705, 40.2578 ], [ -3.2707, 40.2573 ], [ -3.2711, 40.2571 ], [ -3.2721, 40.2561 ], [ -3.2724, 40.2562 ], [ -3.2722, 40.2567 ], [ -3.283, 40.2561 ], [ -3.2837, 40.2524 ], [ -3.2843, 40.251 ], [ -3.2839, 40.25 ], [ -3.2827, 40.2496 ], [ -3.2793, 40.2476 ], [ -3.2786, 40.2479 ], [ -3.2782, 40.2476 ], [ -3.2775, 40.2475 ], [ -3.2767, 40.248 ], [ -3.276, 40.2491 ], [ -3.2761, 40.25 ], [ -3.2755, 40.2497 ], [ -3.2753, 40.2493 ], [ -3.2753, 40.2488 ], [ -3.2748, 40.2482 ], [ -3.2745, 40.2487 ], [ -3.2744, 40.2492 ], [ -3.2736, 40.2487 ], [ -3.2727, 40.2488 ], [ -3.2725, 40.249 ], [ -3.2721, 40.2488 ], [ -3.2712, 40.2491 ], [ -3.2704, 40.2484 ], [ -3.2689, 40.2483 ], [ -3.2683, 40.2486 ], [ -3.2684, 40.2481 ], [ -3.2683, 40.2477 ], [ -3.268, 40.2476 ], [ -3.2675, 40.2477 ], [ -3.267, 40.2475 ], [ -3.2667, 40.247 ], [ -3.2528, 40.2465 ], [ -3.2526, 40.2469 ], [ -3.2528, 40.2476 ], [ -3.2526, 40.2477 ], [ -3.2513, 40.2473 ], [ -3.25, 40.2475 ], [ -3.2484, 40.2473 ], [ -3.2458, 40.2477 ], [ -3.2458, 40.2473 ], [ -3.2461, 40.247 ], [ -3.2436, 40.247 ], [ -3.2418, 40.2474 ], [ -3.2367, 40.2501 ], [ -3.2362, 40.2505 ], [ -3.2359, 40.2505 ], [ -3.2358, 40.2509 ], [ -3.2359, 40.2507 ], [ -3.2364, 40.2512 ], [ -3.2362, 40.2515 ], [ -3.2362, 40.2518 ], [ -3.2365, 40.2513 ], [ -3.2372, 40.2513 ], [ -3.2378, 40.2516 ], [ -3.2377, 40.2518 ], [ -3.2379, 40.252 ], [ -3.238, 40.2526 ], [ -3.2378, 40.2526 ], [ -3.238, 40.2527 ], [ -3.238, 40.2531 ], [ -3.2375, 40.2534 ], [ -3.2374, 40.2539 ], [ -3.2376, 40.2542 ], [ -3.2373, 40.2545 ], [ -3.2377, 40.2549 ], [ -3.2378, 40.2547 ], [ -3.2381, 40.2549 ], [ -3.2381, 40.2548 ], [ -3.2389, 40.2547 ], [ -3.239, 40.2551 ], [ -3.2391, 40.2551 ], [ -3.2392, 40.2543 ], [ -3.2391, 40.2539 ], [ -3.2392, 40.2538 ], [ -3.241, 40.2535 ], [ -3.2412, 40.2537 ], [ -3.2411, 40.2541 ], [ -3.2412, 40.2543 ], [ -3.2424, 40.2555 ], [ -3.2425, 40.2557 ], [ -3.2424, 40.2558 ], [ -3.2432, 40.256 ], [ -3.2426, 40.2562 ], [ -3.2426, 40.2563 ], [ -3.2431, 40.2564 ], [ -3.2433, 40.257 ], [ -3.2435, 40.2572 ], [ -3.2431, 40.258 ], [ -3.2426, 40.2582 ], [ -3.2421, 40.2587 ], [ -3.2424, 40.2594 ], [ -3.2432, 40.2599 ], [ -3.2431, 40.2602 ], [ -3.2421, 40.26 ], [ -3.2414, 40.2604 ], [ -3.2417, 40.2608 ], [ -3.2418, 40.2613 ], [ -3.2418, 40.2615 ], [ -3.2416, 40.2616 ], [ -3.2417, 40.2618 ], [ -3.2414, 40.262 ], [ -3.2413, 40.2618 ], [ -3.2398, 40.2621 ], [ -3.2397, 40.2622 ], [ -3.2397, 40.2627 ], [ -3.2399, 40.2631 ], [ -3.2398, 40.2632 ], [ -3.2393, 40.2632 ], [ -3.2391, 40.2634 ], [ -3.2386, 40.2635 ], [ -3.238, 40.2635 ], [ -3.2373, 40.2631 ], [ -3.2372, 40.2632 ], [ -3.2373, 40.2632 ], [ -3.2362, 40.2636 ], [ -3.2367, 40.2643 ], [ -3.2387, 40.2649 ], [ -3.2389, 40.2654 ], [ -3.2396, 40.2659 ], [ -3.2397, 40.2662 ], [ -3.2407, 40.2662 ], [ -3.242, 40.2664 ], [ -3.2436, 40.2664 ], [ -3.2443, 40.2667 ], [ -3.2448, 40.2672 ], [ -3.2458, 40.2694 ], [ -3.2455, 40.2708 ], [ -3.2451, 40.2713 ], [ -3.2431, 40.2713 ], [ -3.2431, 40.2723 ], [ -3.2422, 40.2716 ], [ -3.2422, 40.2713 ], [ -3.2408, 40.2718 ], [ -3.2377, 40.2718 ], [ -3.2345, 40.272 ], [ -3.2339, 40.2709 ], [ -3.2337, 40.2709 ], [ -3.2333, 40.2696 ], [ -3.2328, 40.2695 ], [ -3.2326, 40.2687 ], [ -3.2316, 40.2675 ], [ -3.2319, 40.2671 ], [ -3.2325, 40.2647 ], [ -3.2327, 40.2644 ], [ -3.2354, 40.2637 ], [ -3.2352, 40.2631 ], [ -3.2351, 40.2621 ], [ -3.2348, 40.2621 ], [ -3.2346, 40.2625 ], [ -3.2344, 40.2624 ], [ -3.2343, 40.262 ], [ -3.2336, 40.2614 ], [ -3.2333, 40.2615 ], [ -3.2327, 40.2612 ], [ -3.2323, 40.2608 ], [ -3.2316, 40.2608 ], [ -3.2312, 40.261 ], [ -3.2306, 40.2609 ], [ -3.229, 40.2625 ], [ -3.2286, 40.2634 ], [ -3.2276, 40.2648 ], [ -3.2252, 40.2677 ], [ -3.2236, 40.2704 ], [ -3.2235, 40.271 ], [ -3.2246, 40.271 ], [ -3.224, 40.2714 ], [ -3.2239, 40.2723 ], [ -3.2223, 40.2732 ], [ -3.2231, 40.274 ], [ -3.2237, 40.2742 ], [ -3.2228, 40.2743 ], [ -3.2224, 40.2746 ], [ -3.2217, 40.2745 ], [ -3.2212, 40.2742 ], [ -3.2216, 40.2749 ], [ -3.2216, 40.2752 ], [ -3.2214, 40.2753 ], [ -3.2227, 40.2763 ], [ -3.2239, 40.278 ], [ -3.2277, 40.2825 ] ] ] } },
{ "type": "Feature", "properties": { "municipio": "Carabaña", "clasificacion": "no-urbanizable-protegido", "calificacion": "sin-asignar", "version": "vigente", "fuente": "SIT-CAM WFS — UsoDelSuelo:VPLA_V_CLASIFICACION (https://idem.comunidad.madrid/geosrvg/ows)", "fecha_dato": "2026-05-12", "ambito": "50", "_raw_CD_SIGLAS": "SNUP", "_raw_DS_CLASIF_GEN": "Suelo No Urbanizable Protegido", "_raw_DS_CLASIF_DET": "Suelo No Urbanizable Protegido. Masas Arbóreas", "_raw_DS_DOCU": "NORMAS SUBSIDIARIAS", "_raw_DS_LEY": "E RD 1346/1976", "_raw_FC_AC": "1985-10-22", "_raw_NM_AREA_M2": 2368035.0124161998, "_cam_code": "035" }, "geometry": { "type": "Polygon", "coordinates": [ [ [ -3.2424, 40.2893 ], [ -3.2445, 40.2894 ], [ -3.2462, 40.2897 ], [ -3.2477, 40.2897 ], [ -3.2495, 40.2893 ], [ -3.2498, 40.289 ], [ -3.2501, 40.2881 ], [ -3.2513, 40.2871 ], [ -3.2518, 40.2862 ], [ -3.2526, 40.2857 ], [ -3.2526, 40.2852 ], [ -3.2533, 40.2841 ], [ -3.2534, 40.2832 ], [ -3.2549, 40.2806 ], [ -3.2549, 40.2802 ], [ -3.2545, 40.2804 ], [ -3.2542, 40.2803 ], [ -3.2537, 40.2795 ], [ -3.2514, 40.2795 ], [ -3.2514, 40.2801 ], [ -3.2505, 40.28 ], [ -3.2502, 40.2795 ], [ -3.2489, 40.2794 ], [ -3.2481, 40.2805 ], [ -3.2471, 40.2809 ], [ -3.2468, 40.2808 ], [ -3.2463, 40.2813 ], [ -3.245, 40.2808 ], [ -3.2452, 40.2807 ], [ -3.2459, 40.2794 ], [ -3.2444, 40.2789 ], [ -3.2437, 40.2785 ], [ -3.2425, 40.2789 ], [ -3.2418, 40.2794 ], [ -3.2414, 40.2792 ], [ -3.2397, 40.2798 ], [ -3.2405, 40.278 ], [ -3.2399, 40.2774 ], [ -3.238, 40.2772 ], [ -3.2371, 40.2766 ], [ -3.2364, 40.2756 ], [ -3.2359, 40.2756 ], [ -3.2343, 40.2744 ], [ -3.2331, 40.2748 ], [ -3.2327, 40.2748 ], [ -3.2322, 40.2751 ], [ -3.2317, 40.2762 ], [ -3.2324, 40.2769 ], [ -3.2314, 40.2798 ], [ -3.2332, 40.2809 ], [ -3.2305, 40.2805 ], [ -3.2297, 40.2809 ], [ -3.229, 40.2785 ], [ -3.2271, 40.2788 ], [ -3.2273, 40.2794 ], [ -3.2273, 40.281 ], [ -3.2281, 40.2821 ], [ -3.2277, 40.2825 ], [ -3.2314, 40.287 ], [ -3.234, 40.2891 ], [ -3.2404, 40.289 ], [ -3.2424, 40.2893 ] ] ] } },
{ "type": "Feature", "properties": { "municipio": "Carabaña", "clasificacion": "no-urbanizable-protegido", "calificacion": "sin-asignar", "version": "vigente", "fuente": "SIT-CAM WFS — UsoDelSuelo:VPLA_V_CLASIFICACION (https://idem.comunidad.madrid/geosrvg/ows)", "fecha_dato": "2026-05-12", "ambito": "50", "_raw_CD_SIGLAS": "SNUP", "_raw_DS_CLASIF_GEN": "Suelo No Urbanizable Protegido", "_raw_DS_CLASIF_DET": "Suelo No Urbanizable Protegido. Contaminabilidad de aguas subterráneas", "_raw_DS_DOCU": "NORMAS SUBSIDIARIAS", "_raw_DS_LEY": "E RD 1346/1976", "_raw_FC_AC": "1985-10-22", "_raw_NM_AREA_M2": 2491886.7638274701, "_cam_code": "035" }, "geometry": { "type": "Polygon", "coordinates": [ [ [ -3.2066, 40.2627 ], [ -3.2075, 40.2642 ], [ -3.208, 40.2647 ], [ -3.209, 40.2637 ], [ -3.2094, 40.2631 ], [ -3.2087, 40.2621 ], [ -3.2081, 40.2618 ], [ -3.2079, 40.2615 ], [ -3.2085, 40.2617 ], [ -3.2093, 40.2617 ], [ -3.21, 40.2628 ], [ -3.2107, 40.2632 ], [ -3.2103, 40.2638 ], [ -3.2105, 40.2641 ], [ -3.2119, 40.2638 ], [ -3.2131, 40.2638 ], [ -3.2141, 40.2634 ], [ -3.2145, 40.2628 ], [ -3.2174, 40.2607 ], [ -3.2178, 40.2602 ], [ -3.2185, 40.2587 ], [ -3.2187, 40.2581 ], [ -3.2164, 40.2581 ], [ -3.2144, 40.2579 ], [ -3.2141, 40.258 ], [ -3.2139, 40.2585 ], [ -3.214, 40.2587 ], [ -3.2126, 40.2593 ], [ -3.2117, 40.2587 ], [ -3.212, 40.2586 ], [ -3.2124, 40.2582 ], [ -3.2118, 40.2573 ], [ -3.2107, 40.257 ], [ -3.2101, 40.2567 ], [ -3.2099, 40.256 ], [ -3.2103, 40.2559 ], [ -3.2097, 40.2547 ], [ -3.2096, 40.2542 ], [ -3.2086, 40.2541 ], [ -3.2096, 40.2536 ], [ -3.2105, 40.2533 ], [ -3.2111, 40.2534 ], [ -3.2116, 40.2531 ], [ -3.2127, 40.2538 ], [ -3.2132, 40.2538 ], [ -3.215, 40.2521 ], [ -3.2156, 40.251 ], [ -3.2151, 40.25 ], [ -3.2139, 40.2498 ], [ -3.2126, 40.2501 ], [ -3.2128, 40.2491 ], [ -3.2123, 40.2479 ], [ -3.2141, 40.2477 ], [ -3.2133, 40.2466 ], [ -3.2109, 40.2456 ], [ -3.2093, 40.2453 ], [ -3.2089, 40.2459 ], [ -3.2088, 40.2466 ], [ -3.2082, 40.2472 ], [ -3.208, 40.2478 ], [ -3.2085, 40.2484 ], [ -3.2065, 40.2483 ], [ -3.2064, 40.2489 ], [ -3.2054, 40.2499 ], [ -3.2041, 40.2499 ], [ -3.2037, 40.2503 ], [ -3.203, 40.25 ], [ -3.2022, 40.2493 ], [ -3.2033, 40.2493 ], [ -3.2037, 40.2486 ], [ -3.2036, 40.2479 ], [ -3.2026, 40.2475 ], [ -3.2023, 40.247 ], [ -3.2023, 40.2467 ], [ -3.2009, 40.2463 ], [ -3.1998, 40.2464 ], [ -3.1987, 40.2459 ], [ -3.1954, 40.2474 ], [ -3.1944, 40.248 ], [ -3.1947, 40.2512 ], [ -3.1946, 40.2528 ], [ -3.1948, 40.2551 ], [ -3.1972, 40.2575 ], [ -3.2007, 40.2597 ], [ -3.2066, 40.2627 ] ] ] } },
{ "type": "Feature", "properties": { "municipio": "Carabaña", "clasificacion": "no-urbanizable-protegido", "calificacion": "sin-asignar", "version": "vigente", "fuente": "SIT-CAM WFS — UsoDelSuelo:VPLA_V_CLASIFICACION (https://idem.comunidad.madrid/geosrvg/ows)", "fecha_dato": "2026-05-12", "ambito": "50", "_raw_CD_SIGLAS": "SNUP", "_raw_DS_CLASIF_GEN": "Suelo No Urbanizable Protegido", "_raw_DS_CLASIF_DET": "Suelo No Urbanizable Protegido. Contaminabilidad de aguas subterráneas", "_raw_DS_DOCU": "NORMAS SUBSIDIARIAS", "_raw_DS_LEY": "E RD 1346/1976", "_raw_FC_AC": "1985-10-22", "_raw_NM_AREA_M2": 9513449.5579835009, "_cam_code": "035" }, "geometry": { "type": "Polygon", "coordinates": [ [ [ -3.234, 40.2891 ], [ -3.2385, 40.2922 ], [ -3.2452, 40.296 ], [ -3.2508, 40.3011 ], [ -3.2514, 40.3018 ], [ -3.2521, 40.3035 ], [ -3.2532, 40.3019 ], [ -3.2543, 40.3014 ], [ -3.2559, 40.3009 ], [ -3.2648, 40.2962 ], [ -3.2683, 40.2942 ], [ -3.2697, 40.2917 ], [ -3.2723, 40.288 ], [ -3.2665, 40.2883 ], [ -3.2652, 40.2875 ], [ -3.2622, 40.2875 ], [ -3.2612, 40.287 ], [ -3.2601, 40.2872 ], [ -3.259, 40.2872 ], [ -3.2581, 40.2875 ], [ -3.2578, 40.2868 ], [ -3.2594, 40.2859 ], [ -3.2591, 40.2855 ], [ -3.2577, 40.2854 ], [ -3.2584, 40.2847 ], [ -3.26, 40.2854 ], [ -3.2607, 40.2854 ], [ -3.2608, 40.2853 ], [ -3.2608, 40.2847 ], [ -3.2617, 40.2848 ], [ -3.2619, 40.2857 ], [ -3.2624, 40.286 ], [ -3.2631, 40.2861 ], [ -3.2633, 40.2864 ], [ -3.266, 40.2864 ], [ -3.2663, 40.2848 ], [ -3.2661, 40.2828 ], [ -3.265, 40.282 ], [ -3.2672, 40.2802 ], [ -3.2687, 40.2818 ], [ -3.2674, 40.283 ], [ -3.2699, 40.2848 ], [ -3.271, 40.2848 ], [ -3.2721, 40.2846 ], [ -3.2724, 40.2843 ], [ -3.2725, 40.2838 ], [ -3.2723, 40.2835 ], [ -3.2719, 40.2833 ], [ -3.2714, 40.2833 ], [ -3.2712, 40.2831 ], [ -3.2712, 40.2827 ], [ -3.2715, 40.2822 ], [ -3.2727, 40.2817 ], [ -3.2721, 40.2817 ], [ -3.2714, 40.2819 ], [ -3.2707, 40.2825 ], [ -3.2702, 40.2824 ], [ -3.27, 40.2821 ], [ -3.2707, 40.2814 ], [ -3.2713, 40.2811 ], [ -3.2731, 40.281 ], [ -3.2734, 40.2808 ], [ -3.2735, 40.2802 ], [ -3.2745, 40.2804 ], [ -3.2748, 40.2803 ], [ -3.275, 40.2798 ], [ -3.275, 40.2791 ], [ -3.2756, 40.2789 ], [ -3.2766, 40.2789 ], [ -3.2764, 40.2785 ], [ -3.2759, 40.2781 ], [ -3.2763, 40.2776 ], [ -3.2775, 40.2777 ], [ -3.2774, 40.2771 ], [ -3.277, 40.2768 ], [ -3.2774, 40.2765 ], [ -3.2773, 40.2762 ], [ -3.2766, 40.276 ], [ -3.2763, 40.2757 ], [ -3.2765, 40.2753 ], [ -3.2772, 40.2751 ], [ -3.2776, 40.2752 ], [ -3.2778, 40.275 ], [ -3.2775, 40.2746 ], [ -3.2763, 40.2745 ], [ -3.2761, 40.2752 ], [ -3.2755, 40.2759 ], [ -3.2755, 40.2751 ], [ -3.2757, 40.2746 ], [ -3.2753, 40.2743 ], [ -3.2743, 40.2739 ], [ -3.2739, 40.2742 ], [ -3.2734, 40.2754 ], [ -3.2729, 40.2744 ], [ -3.2722, 40.2745 ], [ -3.2719, 40.2741 ], [ -3.2713, 40.2738 ], [ -3.272, 40.2738 ], [ -3.2727, 40.2736 ], [ -3.2729, 40.2734 ], [ -3.2729, 40.2732 ], [ -3.2727, 40.273 ], [ -3.2744, 40.2718 ], [ -3.2759, 40.2722 ], [ -3.2767, 40.2718 ], [ -3.2768, 40.2712 ], [ -3.2765, 40.2708 ], [ -3.276, 40.2706 ], [ -3.2764, 40.2704 ], [ -3.2766, 40.2701 ], [ -3.2767, 40.2696 ], [ -3.2769, 40.2695 ], [ -3.2777, 40.2697 ], [ -3.2772, 40.2686 ], [ -3.2777, 40.2688 ], [ -3.2783, 40.2688 ], [ -3.2786, 40.2685 ], [ -3.2786, 40.2678 ], [ -3.279, 40.2675 ], [ -3.2787, 40.2668 ], [ -3.2788, 40.2664 ], [ -3.2793, 40.266 ], [ -3.2792, 40.2658 ], [ -3.2795, 40.2651 ], [ -3.2794, 40.2646 ], [ -3.2798, 40.2642 ], [ -3.2796, 40.2637 ], [ -3.2792, 40.2638 ], [ -3.2789, 40.2633 ], [ -3.2787, 40.2632 ], [ -3.2783, 40.2636 ], [ -3.2778, 40.2644 ], [ -3.2775, 40.2645 ], [ -3.277, 40.2656 ], [ -3.2764, 40.2661 ], [ -3.2758, 40.2663 ], [ -3.275, 40.2654 ], [ -3.2744, 40.2655 ], [ -3.274, 40.2659 ], [ -3.2736, 40.2657 ], [ -3.2724, 40.2656 ], [ -3.2722, 40.2653 ], [ -3.2714, 40.2658 ], [ -3.2711, 40.2658 ], [ -3.2707, 40.266 ], [ -3.2706, 40.2664 ], [ -3.2692, 40.2671 ], [ -3.269, 40.2666 ], [ -3.2679, 40.2658 ], [ -3.2678, 40.2655 ], [ -3.2685, 40.2655 ], [ -3.2689, 40.2658 ], [ -3.2696, 40.2659 ], [ -3.2706, 40.2648 ], [ -3.2707, 40.2643 ], [ -3.2704, 40.2639 ], [ -3.2704, 40.2637 ], [ -3.2711, 40.2638 ], [ -3.2723, 40.2637 ], [ -3.2727, 40.263 ], [ -3.2733, 40.2629 ], [ -3.2736, 40.2623 ], [ -3.2736, 40.2615 ], [ -3.2733, 40.2605 ], [ -3.2728, 40.2597 ], [ -3.273, 40.2584 ], [ -3.2725, 40.2576 ], [ -3.2726, 40.2572 ], [ -3.2722, 40.2567 ], [ -3.2724, 40.2562 ], [ -3.2721, 40.2561 ], [ -3.2711, 40.2571 ], [ -3.2707, 40.2573 ], [ -3.2705, 40.2578 ], [ -3.2691, 40.2594 ], [ -3.2692, 40.2588 ], [ -3.2691, 40.2584 ], [ -3.2679, 40.257 ], [ -3.2674, 40.257 ], [ -3.2667, 40.2563 ], [ -3.2654, 40.2556 ], [ -3.2648, 40.2557 ], [ -3.2628, 40.2552 ], [ -3.2623, 40.2546 ], [ -3.2619, 40.2544 ], [ -3.2604, 40.2553 ], [ -3.2598, 40.2554 ], [ -3.2594, 40.2558 ], [ -3.2589, 40.2568 ], [ -3.2586, 40.2578 ], [ -3.2577, 40.2567 ], [ -3.2559, 40.2564 ], [ -3.255, 40.2567 ], [ -3.2549, 40.2561 ], [ -3.2559, 40.2558 ], [ -3.2562, 40.2553 ], [ -3.2565, 40.2543 ], [ -3.2562, 40.2539 ], [ -3.2556, 40.2538 ], [ -3.255, 40.2533 ], [ -3.254, 40.2532 ], [ -3.2528, 40.2528 ], [ -3.252, 40.253 ], [ -3.2518, 40.2532 ], [ -3.2518, 40.2534 ], [ -3.2505, 40.2538 ], [ -3.2494, 40.2538 ], [ -3.2482, 40.2542 ], [ -3.2467, 40.2555 ], [ -3.2463, 40.256 ], [ -3.2458, 40.2563 ], [ -3.2463, 40.2573 ], [ -3.2469, 40.2581 ], [ -3.247, 40.2588 ], [ -3.2496, 40.2608 ], [ -3.2496, 40.2616 ], [ -3.2499, 40.2624 ], [ -3.2518, 40.2625 ], [ -3.2512, 40.2636 ], [ -3.2519, 40.2644 ], [ -3.2526, 40.2646 ], [ -3.253, 40.2654 ], [ -3.2528, 40.2669 ], [ -3.2529, 40.269 ], [ -3.2516, 40.2688 ], [ -3.2508, 40.2697 ], [ -3.25, 40.2702 ], [ -3.2495, 40.2708 ], [ -3.2485, 40.2726 ], [ -3.248, 40.2727 ], [ -3.2482, 40.2728 ], [ -3.2483, 40.2734 ], [ -3.2479, 40.2736 ], [ -3.2473, 40.2749 ], [ -3.2475, 40.277 ], [ -3.2493, 40.2769 ], [ -3.2495, 40.2768 ], [ -3.2501, 40.2757 ], [ -3.2511, 40.2753 ], [ -3.2521, 40.2754 ], [ -3.2526, 40.2759 ], [ -3.2525, 40.2763 ], [ -3.2518, 40.2766 ], [ -3.2517, 40.2768 ], [ -3.2518, 40.277 ], [ -3.253, 40.2776 ], [ -3.2532, 40.278 ], [ -3.254, 40.2788 ], [ -3.2549, 40.2802 ], [ -3.2549, 40.2806 ], [ -3.2534, 40.2832 ], [ -3.2533, 40.2841 ], [ -3.2526, 40.2852 ], [ -3.2526, 40.2857 ], [ -3.2518, 40.2862 ], [ -3.2513, 40.2871 ], [ -3.2501, 40.2881 ], [ -3.2498, 40.289 ], [ -3.2495, 40.2893 ], [ -3.2477, 40.2897 ], [ -3.2462, 40.2897 ], [ -3.2445, 40.2894 ], [ -3.2424, 40.2893 ], [ -3.2404, 40.289 ], [ -3.234, 40.2891 ] ] ] } },
{ "type": "Feature", "properties": { "municipio": "Carabaña", "clasificacion": "no-urbanizable-protegido", "calificacion": "sin-asignar", "version": "vigente", "fuente": "SIT-CAM WFS — UsoDelSuelo:VPLA_V_CLASIFICACION (https://idem.comunidad.madrid/geosrvg/ows)", "fecha_dato": "2026-05-12", "ambito": "50", "_raw_CD_SIGLAS": "SNUP", "_raw_DS_CLASIF_GEN": "Suelo No Urbanizable Protegido", "_raw_DS_CLASIF_DET": "Suelo No Urbanizable Protegido. Ecosistemas degradados", "_raw_DS_DOCU": "NORMAS SUBSIDIARIAS", "_raw_DS_LEY": "E RD 1346/1976", "_raw_FC_AC": "1985-10-22", "_raw_NM_AREA_M2": 4710352.2776389802, "_cam_code": "035" }, "geometry": { "type": "Polygon", "coordinates": [ [ [ -3.2227, 40.2376 ], [ -3.2225, 40.2397 ], [ -3.2228, 40.2397 ], [ -3.2229, 40.2392 ], [ -3.2228, 40.2388 ], [ -3.2231, 40.2382 ], [ -3.2234, 40.2383 ], [ -3.224, 40.2389 ], [ -3.2248, 40.2387 ], [ -3.2252, 40.2382 ], [ -3.2259, 40.2383 ], [ -3.2269, 40.2393 ], [ -3.2278, 40.2395 ], [ -3.2283, 40.2393 ], [ -3.2285, 40.2389 ], [ -3.2291, 40.2387 ], [ -3.2291, 40.2385 ], [ -3.2303, 40.2379 ], [ -3.2304, 40.2377 ], [ -3.2303, 40.2374 ], [ -3.2296, 40.2375 ], [ -3.2297, 40.237 ], [ -3.2294, 40.2371 ], [ -3.2294, 40.2362 ], [ -3.2296, 40.2358 ], [ -3.2314, 40.2363 ], [ -3.2331, 40.2355 ], [ -3.2334, 40.2356 ], [ -3.2341, 40.2365 ], [ -3.2351, 40.2363 ], [ -3.2352, 40.236 ], [ -3.2341, 40.2354 ], [ -3.2338, 40.2354 ], [ -3.2338, 40.2349 ], [ -3.2323, 40.2341 ], [ -3.2323, 40.234 ], [ -3.2329, 40.234 ], [ -3.2348, 40.2343 ], [ -3.2346, 40.2339 ], [ -3.2333, 40.2329 ], [ -3.2336, 40.2323 ], [ -3.2335, 40.2318 ], [ -3.2339, 40.2318 ], [ -3.2341, 40.2313 ], [ -3.2343, 40.2313 ], [ -3.2345, 40.2317 ], [ -3.2345, 40.2325 ], [ -3.2359, 40.2335 ], [ -3.2362, 40.233 ], [ -3.2361, 40.2326 ], [ -3.2367, 40.2325 ], [ -3.2369, 40.233 ], [ -3.238, 40.2335 ], [ -3.2382, 40.2338 ], [ -3.238, 40.2341 ], [ -3.2381, 40.2342 ], [ -3.2388, 40.2339 ], [ -3.2392, 40.2342 ], [ -3.2393, 40.2346 ], [ -3.2416, 40.2346 ], [ -3.2419, 40.2344 ], [ -3.2424, 40.2343 ], [ -3.2425, 40.2341 ], [ -3.2422, 40.2339 ], [ -3.2425, 40.2335 ], [ -3.2411, 40.2332 ], [ -3.2408, 40.232 ], [ -3.2421, 40.2315 ], [ -3.2412, 40.2304 ], [ -3.2407, 40.2305 ], [ -3.2405, 40.2301 ], [ -3.2411, 40.2293 ], [ -3.2435, 40.2294 ], [ -3.2432, 40.23 ], [ -3.2433, 40.2301 ], [ -3.2443, 40.2301 ], [ -3.2447, 40.2307 ], [ -3.2439, 40.2308 ], [ -3.2438, 40.2311 ], [ -3.2439, 40.2315 ], [ -3.2448, 40.2313 ], [ -3.2458, 40.2304 ], [ -3.2466, 40.23 ], [ -3.2468, 40.2294 ], [ -3.2468, 40.2282 ], [ -3.247, 40.2278 ], [ -3.2477, 40.2278 ], [ -3.2483, 40.2271 ], [ -3.2479, 40.226 ], [ -3.2475, 40.2254 ], [ -3.2479, 40.2247 ], [ -3.2496, 40.224 ], [ -3.2505, 40.2238 ], [ -3.2519, 40.2223 ], [ -3.252, 40.2217 ], [ -3.2527, 40.221 ], [ -3.2526, 40.2198 ], [ -3.253, 40.2188 ], [ -3.2516, 40.2177 ], [ -3.2513, 40.2172 ], [ -3.2491, 40.2161 ], [ -3.2478, 40.2159 ], [ -3.2468, 40.2166 ], [ -3.246, 40.2168 ], [ -3.2446, 40.2169 ], [ -3.243, 40.2168 ], [ -3.2421, 40.2165 ], [ -3.2418, 40.2156 ], [ -3.2423, 40.215 ], [ -3.242, 40.2139 ], [ -3.2417, 40.2139 ], [ -3.2397, 40.2129 ], [ -3.2377, 40.2134 ], [ -3.237, 40.214 ], [ -3.2336, 40.2192 ], [ -3.2309, 40.2183 ], [ -3.2277, 40.2199 ], [ -3.2264, 40.2217 ], [ -3.222, 40.2244 ], [ -3.2202, 40.2262 ], [ -3.2204, 40.228 ], [ -3.22, 40.2296 ], [ -3.2174, 40.2331 ], [ -3.2183, 40.2364 ], [ -3.2176, 40.2372 ], [ -3.2182, 40.2378 ], [ -3.2194, 40.2382 ], [ -3.2199, 40.2376 ], [ -3.2195, 40.2372 ], [ -3.2203, 40.2372 ], [ -3.2204, 40.2368 ], [ -3.2202, 40.2363 ], [ -3.2204, 40.2358 ], [ -3.2202, 40.2355 ], [ -3.2204, 40.2352 ], [ -3.2203, 40.235 ], [ -3.2209, 40.2348 ], [ -3.2211, 40.2345 ], [ -3.2211, 40.2354 ], [ -3.2213, 40.2355 ], [ -3.2218, 40.2353 ], [ -3.2218, 40.2355 ], [ -3.2213, 40.236 ], [ -3.2217, 40.2371 ], [ -3.2215, 40.2383 ], [ -3.2217, 40.2385 ], [ -3.2219, 40.2379 ], [ -3.2217, 40.2375 ], [ -3.2222, 40.2373 ], [ -3.2227, 40.2376 ] ] ] } },
{ "type": "Feature", "properties": { "municipio": "Carabaña", "clasificacion": "no-urbanizable-protegido", "calificacion": "sin-asignar", "version": "vigente", "fuente": "SIT-CAM WFS — UsoDelSuelo:VPLA_V_CLASIFICACION (https://idem.comunidad.madrid/geosrvg/ows)", "fecha_dato": "2026-05-12", "ambito": "50", "_raw_CD_SIGLAS": "SNUP", "_raw_DS_CLASIF_GEN": "Suelo No Urbanizable Protegido", "_raw_DS_CLASIF_DET": "Suelo No Urbanizable Protegido. Ecosistemas degradados", "_raw_DS_DOCU": "NORMAS SUBSIDIARIAS", "_raw_DS_LEY": "E RD 1346/1976", "_raw_FC_AC": "1985-10-22", "_raw_NM_AREA_M2": 2320964.4371933802, "_cam_code": "035" }, "geometry": { "type": "Polygon", "coordinates": [ [ [ -3.208, 40.2647 ], [ -3.2107, 40.2672 ], [ -3.213, 40.2691 ], [ -3.2131, 40.2682 ], [ -3.2128, 40.2678 ], [ -3.2132, 40.2675 ], [ -3.2136, 40.2677 ], [ -3.214, 40.2675 ], [ -3.2147, 40.2674 ], [ -3.2148, 40.2671 ], [ -3.2152, 40.267 ], [ -3.2152, 40.2668 ], [ -3.2159, 40.2668 ], [ -3.2168, 40.2656 ], [ -3.2165, 40.2653 ], [ -3.2169, 40.2653 ], [ -3.2179, 40.2647 ], [ -3.2179, 40.2646 ], [ -3.219, 40.2649 ], [ -3.2196, 40.2646 ], [ -3.2198, 40.2642 ], [ -3.2207, 40.2637 ], [ -3.2206, 40.2633 ], [ -3.2209, 40.263 ], [ -3.2218, 40.2625 ], [ -3.2224, 40.2608 ], [ -3.2221, 40.2605 ], [ -3.2228, 40.2599 ], [ -3.2226, 40.2592 ], [ -3.2228, 40.2589 ], [ -3.2228, 40.2583 ], [ -3.2221, 40.2579 ], [ -3.2233, 40.2572 ], [ -3.2234, 40.257 ], [ -3.2233, 40.2568 ], [ -3.2231, 40.2568 ], [ -3.2227, 40.2565 ], [ -3.2238, 40.2551 ], [ -3.2237, 40.2549 ], [ -3.2228, 40.2551 ], [ -3.2225, 40.255 ], [ -3.2222, 40.2548 ], [ -3.2224, 40.2546 ], [ -3.2221, 40.2544 ], [ -3.2214, 40.2544 ], [ -3.221, 40.2548 ], [ -3.2208, 40.2544 ], [ -3.2205, 40.2546 ], [ -3.2198, 40.2545 ], [ -3.2193, 40.2547 ], [ -3.2187, 40.2544 ], [ -3.2179, 40.2547 ], [ -3.2182, 40.255 ], [ -3.2181, 40.2552 ], [ -3.2176, 40.2548 ], [ -3.2178, 40.2544 ], [ -3.2182, 40.2542 ], [ -3.219, 40.2541 ], [ -3.2199, 40.2538 ], [ -3.2203, 40.253 ], [ -3.2206, 40.2528 ], [ -3.2197, 40.2525 ], [ -3.2213, 40.2521 ], [ -3.2214, 40.2511 ], [ -3.221, 40.2506 ], [ -3.2219, 40.2504 ], [ -3.222, 40.25 ], [ -3.2219, 40.2491 ], [ -3.2214, 40.2491 ], [ -3.221, 40.2488 ], [ -3.2213, 40.2483 ], [ -3.22, 40.2482 ], [ -3.22, 40.2476 ], [ -3.2186, 40.2477 ], [ -3.2188, 40.2475 ], [ -3.2185, 40.247 ], [ -3.2176, 40.2471 ], [ -3.2175, 40.247 ], [ -3.2177, 40.2468 ], [ -3.2175, 40.2464 ], [ -3.2169, 40.2462 ], [ -3.2175, 40.2456 ], [ -3.2175, 40.2454 ], [ -3.217, 40.2454 ], [ -3.2167, 40.2452 ], [ -3.2163, 40.2454 ], [ -3.2177, 40.2443 ], [ -3.2178, 40.2436 ], [ -3.2173, 40.2436 ], [ -3.2171, 40.2434 ], [ -3.2161, 40.2437 ], [ -3.2161, 40.2431 ], [ -3.2154, 40.2435 ], [ -3.2154, 40.2432 ], [ -3.2148, 40.2431 ], [ -3.2141, 40.2435 ], [ -3.2145, 40.2429 ], [ -3.2148, 40.2421 ], [ -3.2149, 40.2414 ], [ -3.2136, 40.241 ], [ -3.2133, 40.2411 ], [ -3.213, 40.2415 ], [ -3.2129, 40.2409 ], [ -3.2118, 40.2406 ], [ -3.2107, 40.2407 ], [ -3.2047, 40.2436 ], [ -3.2012, 40.2444 ], [ -3.1987, 40.2459 ], [ -3.1998, 40.2464 ], [ -3.2009, 40.2463 ], [ -3.2023, 40.2467 ], [ -3.2023, 40.247 ], [ -3.2026, 40.2475 ], [ -3.2036, 40.2479 ], [ -3.2037, 40.2486 ], [ -3.2033, 40.2493 ], [ -3.2022, 40.2493 ], [ -3.203, 40.25 ], [ -3.2037, 40.2503 ], [ -3.2041, 40.2499 ], [ -3.2054, 40.2499 ], [ -3.2064, 40.2489 ], [ -3.2065, 40.2483 ], [ -3.2085, 40.2484 ], [ -3.208, 40.2478 ], [ -3.2082, 40.2472 ], [ -3.2088, 40.2466 ], [ -3.2089, 40.2459 ], [ -3.2093, 40.2453 ], [ -3.2109, 40.2456 ], [ -3.2133, 40.2466 ], [ -3.2141, 40.2477 ], [ -3.2123, 40.2479 ], [ -3.2128, 40.2491 ], [ -3.2126, 40.2501 ], [ -3.2139, 40.2498 ], [ -3.2151, 40.25 ], [ -3.2156, 40.251 ], [ -3.215, 40.2521 ], [ -3.2132, 40.2538 ], [ -3.2127, 40.2538 ], [ -3.2116, 40.2531 ], [ -3.2111, 40.2534 ], [ -3.2105, 40.2533 ], [ -3.2096, 40.2536 ], [ -3.2086, 40.2541 ], [ -3.2096, 40.2542 ], [ -3.2097, 40.2547 ], [ -3.2103, 40.2559 ], [ -3.2099, 40.256 ], [ -3.2101, 40.2567 ], [ -3.2107, 40.257 ], [ -3.2118, 40.2573 ], [ -3.2124, 40.2582 ], [ -3.212, 40.2586 ], [ -3.2117, 40.2587 ], [ -3.2126, 40.2593 ], [ -3.214, 40.2587 ], [ -3.2139, 40.2585 ], [ -3.2141, 40.258 ], [ -3.2144, 40.2579 ], [ -3.2164, 40.2581 ], [ -3.2187, 40.2581 ], [ -3.2185, 40.2587 ], [ -3.2178, 40.2602 ], [ -3.2174, 40.2607 ], [ -3.2145, 40.2628 ], [ -3.2141, 40.2634 ], [ -3.2131, 40.2638 ], [ -3.2119, 40.2638 ], [ -3.2105, 40.2641 ], [ -3.2103, 40.2638 ], [ -3.2107, 40.2632 ], [ -3.21, 40.2628 ], [ -3.2093, 40.2617 ], [ -3.2085, 40.2617 ], [ -3.2079, 40.2615 ], [ -3.2081, 40.2618 ], [ -3.2087, 40.2621 ], [ -3.2094, 40.2631 ], [ -3.209, 40.2637 ], [ -3.208, 40.2647 ] ] ] } },
{ "type": "Feature", "properties": { "municipio": "Carabaña", "clasificacion": "no-urbanizable-protegido", "calificacion": "sin-asignar", "version": "vigente", "fuente": "SIT-CAM WFS — UsoDelSuelo:VPLA_V_CLASIFICACION (https://idem.comunidad.madrid/geosrvg/ows)", "fecha_dato": "2026-05-12", "ambito": "50", "_raw_CD_SIGLAS": "SNUP", "_raw_DS_CLASIF_GEN": "Suelo No Urbanizable Protegido", "_raw_DS_CLASIF_DET": "Suelo No Urbanizable Protegido. Contaminabilidad de aguas subterráneas", "_raw_DS_DOCU": "NORMAS SUBSIDIARIAS", "_raw_DS_LEY": "E RD 1346/1976", "_raw_FC_AC": "1985-10-22", "_raw_NM_AREA_M2": 5795136.3209127504, "_cam_code": "035" }, "geometry": { "type": "Polygon", "coordinates": [ [ [ -3.277, 40.2416 ], [ -3.279, 40.2417 ], [ -3.2788, 40.2399 ], [ -3.2788, 40.238 ], [ -3.2783, 40.2356 ], [ -3.2784, 40.2338 ], [ -3.2762, 40.2317 ], [ -3.2756, 40.2291 ], [ -3.2744, 40.2262 ], [ -3.2727, 40.2204 ], [ -3.2719, 40.2181 ], [ -3.2704, 40.2148 ], [ -3.2698, 40.2144 ], [ -3.265, 40.2129 ], [ -3.263, 40.2125 ], [ -3.2601, 40.2126 ], [ -3.2545, 40.2132 ], [ -3.2455, 40.2136 ], [ -3.242, 40.2139 ], [ -3.2423, 40.215 ], [ -3.2418, 40.2156 ], [ -3.2421, 40.2165 ], [ -3.243, 40.2168 ], [ -3.2446, 40.2169 ], [ -3.246, 40.2168 ], [ -3.2468, 40.2166 ], [ -3.2478, 40.2159 ], [ -3.2491, 40.2161 ], [ -3.2513, 40.2172 ], [ -3.2516, 40.2177 ], [ -3.253, 40.2188 ], [ -3.2526, 40.2198 ], [ -3.2527, 40.221 ], [ -3.252, 40.2217 ], [ -3.2519, 40.2223 ], [ -3.2505, 40.2238 ], [ -3.2496, 40.224 ], [ -3.2479, 40.2247 ], [ -3.2475, 40.2254 ], [ -3.2479, 40.226 ], [ -3.2483, 40.2271 ], [ -3.2477, 40.2278 ], [ -3.247, 40.2278 ], [ -3.2468, 40.2282 ], [ -3.2468, 40.2294 ], [ -3.2466, 40.23 ], [ -3.2458, 40.2304 ], [ -3.2448, 40.2313 ], [ -3.2439, 40.2315 ], [ -3.2446, 40.2323 ], [ -3.245, 40.2323 ], [ -3.2453, 40.2328 ], [ -3.2462, 40.2337 ], [ -3.2462, 40.2328 ], [ -3.2454, 40.2319 ], [ -3.2454, 40.2316 ], [ -3.2457, 40.2312 ], [ -3.2463, 40.2314 ], [ -3.247, 40.2314 ], [ -3.2474, 40.2321 ], [ -3.2478, 40.2323 ], [ -3.2481, 40.2322 ], [ -3.2485, 40.2323 ], [ -3.2475, 40.2333 ], [ -3.2477, 40.2336 ], [ -3.2491, 40.2332 ], [ -3.2498, 40.2328 ], [ -3.2504, 40.2331 ], [ -3.2505, 40.2332 ], [ -3.2501, 40.2341 ], [ -3.2494, 40.2341 ], [ -3.2491, 40.2343 ], [ -3.2491, 40.2345 ], [ -3.2499, 40.2345 ], [ -3.2505, 40.2344 ], [ -3.2511, 40.2334 ], [ -3.2515, 40.233 ], [ -3.2526, 40.2325 ], [ -3.2532, 40.2325 ], [ -3.2531, 40.232 ], [ -3.2521, 40.2312 ], [ -3.2522, 40.2311 ], [ -3.2533, 40.2314 ], [ -3.254, 40.2313 ], [ -3.2542, 40.23 ], [ -3.2546, 40.23 ], [ -3.2555, 40.2292 ], [ -3.2564, 40.2292 ], [ -3.257, 40.2298 ], [ -3.2576, 40.23 ], [ -3.2575, 40.2306 ], [ -3.2576, 40.2308 ], [ -3.2574, 40.2311 ], [ -3.2574, 40.2315 ], [ -3.2578, 40.2316 ], [ -3.2585, 40.2308 ], [ -3.2587, 40.2308 ], [ -3.2588, 40.2313 ], [ -3.259, 40.2313 ], [ -3.259, 40.2318 ], [ -3.2598, 40.2314 ], [ -3.2595, 40.2312 ], [ -3.2594, 40.2309 ], [ -3.2599, 40.2303 ], [ -3.2601, 40.2295 ], [ -3.2604, 40.2293 ], [ -3.2606, 40.2294 ], [ -3.2607, 40.2299 ], [ -3.2605, 40.2301 ], [ -3.2606, 40.231 ], [ -3.2603, 40.2317 ], [ -3.2607, 40.232 ], [ -3.2609, 40.2319 ], [ -3.261, 40.2314 ], [ -3.2616, 40.2312 ], [ -3.2616, 40.2314 ], [ -3.261, 40.2319 ], [ -3.2612, 40.2321 ], [ -3.2608, 40.2329 ], [ -3.261, 40.233 ], [ -3.2615, 40.2328 ], [ -3.2618, 40.233 ], [ -3.2619, 40.2327 ], [ -3.2622, 40.2326 ], [ -3.263, 40.2327 ], [ -3.2631, 40.2323 ], [ -3.2628, 40.2318 ], [ -3.2636, 40.2315 ], [ -3.2637, 40.2317 ], [ -3.2636, 40.232 ], [ -3.2652, 40.2332 ], [ -3.2652, 40.2335 ], [ -3.2654, 40.2337 ], [ -3.2644, 40.234 ], [ -3.2639, 40.234 ], [ -3.2629, 40.2336 ], [ -3.2624, 40.233 ], [ -3.2622, 40.2333 ], [ -3.2618, 40.2335 ], [ -3.2611, 40.2333 ], [ -3.2608, 40.2334 ], [ -3.2603, 40.2328 ], [ -3.2592, 40.2332 ], [ -3.2592, 40.2336 ], [ -3.2595, 40.2342 ], [ -3.2593, 40.2348 ], [ -3.2604, 40.2351 ], [ -3.261, 40.2362 ], [ -3.2608, 40.2377 ], [ -3.2616, 40.2386 ], [ -3.2623, 40.2388 ], [ -3.2632, 40.238 ], [ -3.2646, 40.2388 ], [ -3.2648, 40.2396 ], [ -3.2664, 40.2402 ], [ -3.2668, 40.2406 ], [ -3.2669, 40.2409 ], [ -3.2672, 40.2406 ], [ -3.2674, 40.241 ], [ -3.2679, 40.2413 ], [ -3.2704, 40.2413 ], [ -3.271, 40.241 ], [ -3.2717, 40.2411 ], [ -3.2726, 40.241 ], [ -3.2726, 40.2415 ], [ -3.273, 40.2417 ], [ -3.2735, 40.2415 ], [ -3.2747, 40.2413 ], [ -3.2756, 40.2413 ], [ -3.277, 40.2416 ] ] ] } },
{ "type": "Feature", "properties": { "municipio": "Carabaña", "clasificacion": "urbano-consolidado", "calificacion": "sin-asignar", "version": "vigente", "fuente": "SIT-CAM WFS — UsoDelSuelo:VPLA_V_CLASIFICACION (https://idem.comunidad.madrid/geosrvg/ows)", "fecha_dato": "2026-05-12", "ambito": "50", "_raw_CD_SIGLAS": "SU", "_raw_DS_CLASIF_GEN": "Suelo Urbano", "_raw_DS_CLASIF_DET": "Suelo Urbano", "_raw_DS_DOCU": "NORMAS SUBSIDIARIAS", "_raw_DS_LEY": "E RD 1346/1976", "_raw_FC_AC": "1985-10-22", "_raw_NM_AREA_M2": 8086.7598932871197, "_cam_code": "035" }, "geometry": { "type": "Polygon", "coordinates": [ [ [ -3.2367, 40.2601 ], [ -3.2368, 40.2606 ], [ -3.2371, 40.2608 ], [ -3.2378, 40.2602 ], [ -3.2371, 40.2595 ], [ -3.2364, 40.26 ], [ -3.2367, 40.2601 ] ] ] } },
{ "type": "Feature", "properties": { "municipio": "Carabaña", "clasificacion": "urbano-consolidado", "calificacion": "sin-asignar", "version": "vigente", "fuente": "SIT-CAM WFS — UsoDelSuelo:VPLA_V_CLASIFICACION (https://idem.comunidad.madrid/geosrvg/ows)", "fecha_dato": "2026-05-12", "ambito": "50", "_raw_CD_SIGLAS": "SU", "_raw_DS_CLASIF_GEN": "Suelo Urbano", "_raw_DS_CLASIF_DET": "Suelo Urbano", "_raw_DS_DOCU": "NORMAS SUBSIDIARIAS", "_raw_DS_LEY": "E RD 1346/1976", "_raw_FC_AC": "1985-10-22", "_raw_NM_AREA_M2": 44336.186009103301, "_cam_code": "035" }, "geometry": { "type": "Polygon", "coordinates": [ [ [ -3.2376, 40.2631 ], [ -3.238, 40.2635 ], [ -3.2386, 40.2635 ], [ -3.2391, 40.2634 ], [ -3.2393, 40.2632 ], [ -3.2398, 40.2632 ], [ -3.2399, 40.2631 ], [ -3.2397, 40.2627 ], [ -3.2397, 40.2622 ], [ -3.2399, 40.2617 ], [ -3.2399, 40.261 ], [ -3.2397, 40.2608 ], [ -3.238, 40.2602 ], [ -3.238, 40.2604 ], [ -3.2384, 40.2606 ], [ -3.2384, 40.2607 ], [ -3.2383, 40.2607 ], [ -3.2382, 40.2611 ], [ -3.238, 40.2611 ], [ -3.2377, 40.2615 ], [ -3.2381, 40.2616 ], [ -3.2381, 40.2617 ], [ -3.2387, 40.262 ], [ -3.2385, 40.2622 ], [ -3.2384, 40.2626 ], [ -3.2381, 40.2625 ], [ -3.2376, 40.2631 ] ] ] } },
{ "type": "Feature", "properties": { "municipio": "Carabaña", "clasificacion": "urbano-consolidado", "calificacion": "sin-asignar", "version": "vigente", "fuente": "SIT-CAM WFS — UsoDelSuelo:VPLA_V_CLASIFICACION (https://idem.comunidad.madrid/geosrvg/ows)", "fecha_dato": "2026-05-12", "ambito": "50", "_raw_CD_SIGLAS": "SU", "_raw_DS_CLASIF_GEN": "Suelo Urbano", "_raw_DS_CLASIF_DET": "Suelo Urbano", "_raw_DS_DOCU": "NORMAS SUBSIDIARIAS", "_raw_DS_LEY": "E RD 1346/1976", "_raw_FC_AC": "1985-10-22", "_raw_NM_AREA_M2": 4408.8879064779803, "_cam_code": "035" }, "geometry": { "type": "Polygon", "coordinates": [ [ [ -3.2404, 40.2568 ], [ -3.2401, 40.2571 ], [ -3.2402, 40.2573 ], [ -3.2405, 40.2577 ], [ -3.2411, 40.2578 ], [ -3.241, 40.2575 ], [ -3.2404, 40.2568 ] ] ] } },
{ "type": "Feature", "properties": { "municipio": "Carabaña", "clasificacion": "urbano-consolidado", "calificacion": "sin-asignar", "version": "vigente", "fuente": "SIT-CAM WFS — UsoDelSuelo:VPLA_V_CLASIFICACION (https://idem.comunidad.madrid/geosrvg/ows)", "fecha_dato": "2026-05-12", "ambito": "50", "_raw_CD_SIGLAS": "SU", "_raw_DS_CLASIF_GEN": "Suelo Urbano", "_raw_DS_CLASIF_DET": "Suelo Urbano", "_raw_DS_DOCU": "NORMAS SUBSIDIARIAS", "_raw_DS_LEY": "E RD 1346/1976", "_raw_FC_AC": "1985-10-22", "_raw_NM_AREA_M2": 7812.6974529510298, "_cam_code": "035" }, "geometry": { "type": "Polygon", "coordinates": [ [ [ -3.2399, 40.2548 ], [ -3.2391, 40.2551 ], [ -3.2392, 40.2555 ], [ -3.2395, 40.2558 ], [ -3.2403, 40.2555 ], [ -3.2402, 40.2554 ], [ -3.2405, 40.2552 ], [ -3.2402, 40.2548 ], [ -3.24, 40.2549 ], [ -3.2399, 40.2548 ] ] ] } },
{ "type": "Feature", "properties": { "municipio": "Carabaña", "clasificacion": "urbano-consolidado", "calificacion": "sin-asignar", "version": "vigente", "fuente": "SIT-CAM WFS — UsoDelSuelo:VPLA_V_CLASIFICACION (https://idem.comunidad.madrid/geosrvg/ows)", "fecha_dato": "2026-05-12", "ambito": "50", "_raw_CD_SIGLAS": "SU", "_raw_DS_CLASIF_GEN": "Suelo Urbano", "_raw_DS_CLASIF_DET": "Suelo Urbano", "_raw_DS_DOCU": "NORMAS SUBSIDIARIAS", "_raw_DS_LEY": "E RD 1346/1976", "_raw_FC_AC": "1985-10-22", "_raw_NM_AREA_M2": 5880.1989577592403, "_cam_code": "035" }, "geometry": { "type": "Polygon", "coordinates": [ [ [ -3.2351, 40.2598 ], [ -3.2355, 40.2598 ], [ -3.2355, 40.2597 ], [ -3.2346, 40.2593 ], [ -3.2342, 40.2587 ], [ -3.2342, 40.2584 ], [ -3.2338, 40.2587 ], [ -3.2339, 40.2587 ], [ -3.2342, 40.2593 ], [ -3.2341, 40.2595 ], [ -3.2343, 40.2598 ], [ -3.2345, 40.2595 ], [ -3.2348, 40.2596 ], [ -3.2348, 40.2598 ], [ -3.2351, 40.2598 ] ] ] } },
{ "type": "Feature", "properties": { "municipio": "Carabaña", "clasificacion": "urbano-consolidado", "calificacion": "sin-asignar", "version": "vigente", "fuente": "SIT-CAM WFS — UsoDelSuelo:VPLA_V_CLASIFICACION (https://idem.comunidad.madrid/geosrvg/ows)", "fecha_dato": "2026-05-12", "ambito": "50", "_raw_CD_SIGLAS": "SU", "_raw_DS_CLASIF_GEN": "Suelo Urbano", "_raw_DS_CLASIF_DET": "Suelo Urbano", "_raw_DS_DOCU": "NORMAS SUBSIDIARIAS", "_raw_DS_LEY": "E RD 1346/1976", "_raw_FC_AC": "1985-10-22", "_raw_NM_AREA_M2": 5824.8359059693603, "_cam_code": "035" }, "geometry": { "type": "Polygon", "coordinates": [ [ [ -3.2317, 40.2598 ], [ -3.231, 40.2604 ], [ -3.2316, 40.2608 ], [ -3.2322, 40.2602 ], [ -3.2317, 40.2598 ] ] ] } },
{ "type": "Feature", "properties": { "municipio": "Carabaña", "clasificacion": "urbano-consolidado", "calificacion": "sin-asignar", "version": "vigente", "fuente": "SIT-CAM WFS — UsoDelSuelo:VPLA_V_CLASIFICACION (https://idem.comunidad.madrid/geosrvg/ows)", "fecha_dato": "2026-05-12", "ambito": "50", "_raw_CD_SIGLAS": "SU", "_raw_DS_CLASIF_GEN": "Suelo Urbano", "_raw_DS_CLASIF_DET": "Suelo Urbano", "_raw_DS_DOCU": "NORMAS SUBSIDIARIAS", "_raw_DS_LEY": "E RD 1346/1976", "_raw_FC_AC": "1985-10-22", "_raw_NM_AREA_M2": 11353.687367119501, "_cam_code": "035" }, "geometry": { "type": "Polygon", "coordinates": [ [ [ -3.2336, 40.2565 ], [ -3.2334, 40.2571 ], [ -3.2327, 40.2579 ], [ -3.2329, 40.2581 ], [ -3.2342, 40.2571 ], [ -3.2346, 40.2566 ], [ -3.2346, 40.2565 ], [ -3.2339, 40.2563 ], [ -3.2336, 40.2565 ] ] ] } },
{ "type": "Feature", "properties": { "municipio": "Carabaña", "clasificacion": "urbano-consolidado", "calificacion": "sin-asignar", "version": "vigente", "fuente": "SIT-CAM WFS — UsoDelSuelo:VPLA_V_CLASIFICACION (https://idem.comunidad.madrid/geosrvg/ows)", "fecha_dato": "2026-05-12", "ambito": "50", "_raw_CD_SIGLAS": "SU", "_raw_DS_CLASIF_GEN": "Suelo Urbano", "_raw_DS_CLASIF_DET": "Suelo Urbano", "_raw_DS_DOCU": "NORMAS SUBSIDIARIAS", "_raw_DS_LEY": "E RD 1346/1976", "_raw_FC_AC": "1985-10-22", "_raw_NM_AREA_M2": 3254.5025437006302, "_cam_code": "035" }, "geometry": { "type": "Polygon", "coordinates": [ [ [ -3.2367, 40.2546 ], [ -3.2365, 40.2546 ], [ -3.2367, 40.2549 ], [ -3.2372, 40.2548 ], [ -3.2372, 40.2547 ], [ -3.2368, 40.2545 ], [ -3.2369, 40.2545 ], [ -3.2366, 40.2541 ], [ -3.2363, 40.2542 ], [ -3.2365, 40.2546 ], [ -3.2367, 40.2545 ], [ -3.2367, 40.2546 ] ] ] } },
{ "type": "Feature", "properties": { "municipio": "Carabaña", "clasificacion": "urbano-consolidado", "calificacion": "sin-asignar", "version": "vigente", "fuente": "SIT-CAM WFS — UsoDelSuelo:VPLA_V_CLASIFICACION (https://idem.comunidad.madrid/geosrvg/ows)", "fecha_dato": "2026-05-12", "ambito": "50", "_raw_CD_SIGLAS": "SU", "_raw_DS_CLASIF_GEN": "Suelo Urbano", "_raw_DS_CLASIF_DET": "Suelo Urbano", "_raw_DS_DOCU": "NORMAS SUBSIDIARIAS", "_raw_DS_LEY": "E RD 1346/1976", "_raw_FC_AC": "1985-10-22", "_raw_NM_AREA_M2": 1369.0763038094699, "_cam_code": "035" }, "geometry": { "type": "Polygon", "coordinates": [ [ [ -3.2364, 40.2538 ], [ -3.236, 40.2537 ], [ -3.2362, 40.2542 ], [ -3.2366, 40.2541 ], [ -3.2364, 40.2538 ] ] ] } },
{ "type": "Feature", "properties": { "municipio": "Carabaña", "clasificacion": "urbano-consolidado", "calificacion": "sin-asignar", "version": "vigente", "fuente": "SIT-CAM WFS — UsoDelSuelo:VPLA_V_CLASIFICACION (https://idem.comunidad.madrid/geosrvg/ows)", "fecha_dato": "2026-05-12", "ambito": "50", "_raw_CD_SIGLAS": "SU", "_raw_DS_CLASIF_GEN": "Suelo Urbano", "_raw_DS_CLASIF_DET": "Suelo Urbano", "_raw_DS_DOCU": "NORMAS SUBSIDIARIAS", "_raw_DS_LEY": "E RD 1346/1976", "_raw_FC_AC": "1985-10-22", "_raw_NM_AREA_M2": 1962.39715090647, "_cam_code": "035" }, "geometry": { "type": "Polygon", "coordinates": [ [ [ -3.2355, 40.2537 ], [ -3.2358, 40.2535 ], [ -3.2358, 40.2533 ], [ -3.2356, 40.2528 ], [ -3.2354, 40.2527 ], [ -3.2355, 40.2537 ] ] ] } },
{ "type": "Feature", "properties": { "municipio": "Carabaña", "clasificacion": "urbano-consolidado", "calificacion": "sin-asignar", "version": "vigente", "fuente": "SIT-CAM WFS — UsoDelSuelo:VPLA_V_CLASIFICACION (https://idem.comunidad.madrid/geosrvg/ows)", "fecha_dato": "2026-05-12", "ambito": "50", "_raw_CD_SIGLAS": "SU", "_raw_DS_CLASIF_GEN": "Suelo Urbano", "_raw_DS_CLASIF_DET": "Suelo Urbano", "_raw_DS_DOCU": "NORMAS SUBSIDIARIAS", "_raw_DS_LEY": "E RD 1346/1976", "_raw_FC_AC": "1985-10-22", "_raw_NM_AREA_M2": 6597.6936265221402, "_cam_code": "035" }, "geometry": { "type": "Polygon", "coordinates": [ [ [ -3.2359, 40.2507 ], [ -3.2355, 40.2512 ], [ -3.2354, 40.2518 ], [ -3.2361, 40.2518 ], [ -3.2361, 40.2519 ], [ -3.2364, 40.2512 ], [ -3.2359, 40.2507 ] ] ] } },
{ "type": "Feature", "properties": { "municipio": "Carabaña", "clasificacion": "urbano-consolidado", "calificacion": "sin-asignar", "version": "vigente", "fuente": "SIT-CAM WFS — UsoDelSuelo:VPLA_V_CLASIFICACION (https://idem.comunidad.madrid/geosrvg/ows)", "fecha_dato": "2026-05-12", "ambito": "50", "_raw_CD_SIGLAS": "SUC", "_raw_DS_CLASIF_GEN": "Suelo Urbano Consolidado", "_raw_DS_CLASIF_DET": "Suelo Urbano Consolidado", "_raw_DS_DOCU": "NORMAS SUBSIDIARIAS", "_raw_DS_LEY": "E RD 1346/1976", "_raw_FC_AC": "1985-10-22", "_raw_NM_AREA_M2": 9058.5148069777897, "_cam_code": "035" }, "geometry": { "type": "Polygon", "coordinates": [ [ [ -3.2366, 40.25 ], [ -3.2358, 40.2503 ], [ -3.2359, 40.2505 ], [ -3.2362, 40.2505 ], [ -3.2367, 40.2501 ], [ -3.2389, 40.2489 ], [ -3.2388, 40.2488 ], [ -3.2379, 40.2491 ], [ -3.2371, 40.2495 ], [ -3.2366, 40.25 ] ] ] } },
{ "type": "Feature", "properties": { "municipio": "Carabaña", "clasificacion": "urbano-consolidado", "calificacion": "sin-asignar", "version": "vigente", "fuente": "SIT-CAM WFS — UsoDelSuelo:VPLA_V_CLASIFICACION (https://idem.comunidad.madrid/geosrvg/ows)", "fecha_dato": "2026-05-12", "ambito": "50", "_raw_CD_SIGLAS": "SUC", "_raw_DS_CLASIF_GEN": "Suelo Urbano Consolidado", "_raw_DS_CLASIF_DET": "Suelo Urbano Consolidado", "_raw_DS_DOCU": "NORMAS SUBSIDIARIAS", "_raw_DS_LEY": "E RD 1346/1976", "_raw_FC_AC": "1985-10-22", "_raw_NM_AREA_M2": 44666.029114701501, "_cam_code": "035" }, "geometry": { "type": "Polygon", "coordinates": [ [ [ -3.2526, 40.2477 ], [ -3.2528, 40.2476 ], [ -3.2526, 40.2471 ], [ -3.2528, 40.2465 ], [ -3.2461, 40.247 ], [ -3.2458, 40.2473 ], [ -3.2458, 40.2477 ], [ -3.2484, 40.2473 ], [ -3.25, 40.2475 ], [ -3.2513, 40.2473 ], [ -3.2526, 40.2477 ] ] ] } },
{ "type": "Feature", "properties": { "municipio": "Carabaña", "clasificacion": "urbano-consolidado", "calificacion": "sin-asignar", "version": "vigente", "fuente": "SIT-CAM WFS — UsoDelSuelo:VPLA_V_CLASIFICACION (https://idem.comunidad.madrid/geosrvg/ows)", "fecha_dato": "2026-05-12", "ambito": "50", "_raw_CD_SIGLAS": "SUC", "_raw_DS_CLASIF_GEN": "Suelo Urbano Consolidado", "_raw_DS_CLASIF_DET": "Suelo Urbano Consolidado", "_raw_DS_DOCU": "NORMAS SUBSIDIARIAS", "_raw_DS_LEY": "E RD 1346/1976", "_raw_FC_AC": "1985-10-22", "_raw_NM_AREA_M2": 297487.62822502799, "_cam_code": "035" }, "geometry": { "type": "Polygon", "coordinates": [ [ [ -3.2352, 40.2631 ], [ -3.2355, 40.2638 ], [ -3.2373, 40.2632 ], [ -3.2372, 40.2632 ], [ -3.2373, 40.2631 ], [ -3.2376, 40.2632 ], [ -3.2381, 40.2625 ], [ -3.2384, 40.2626 ], [ -3.2385, 40.2622 ], [ -3.2387, 40.262 ], [ -3.2381, 40.2617 ], [ -3.2381, 40.2616 ], [ -3.2377, 40.2615 ], [ -3.238, 40.2611 ], [ -3.2382, 40.2611 ], [ -3.2383, 40.2607 ], [ -3.2384, 40.2607 ], [ -3.2384, 40.2606 ], [ -3.238, 40.2604 ], [ -3.238, 40.2602 ], [ -3.2375, 40.2604 ], [ -3.2371, 40.2608 ], [ -3.2368, 40.2606 ], [ -3.2368, 40.2602 ], [ -3.2366, 40.26 ], [ -3.2364, 40.26 ], [ -3.2371, 40.2595 ], [ -3.2362, 40.2585 ], [ -3.2365, 40.2583 ], [ -3.2359, 40.258 ], [ -3.2358, 40.2581 ], [ -3.2348, 40.2575 ], [ -3.2349, 40.2569 ], [ -3.2346, 40.2566 ], [ -3.2342, 40.2571 ], [ -3.2329, 40.2581 ], [ -3.2327, 40.2579 ], [ -3.2329, 40.2576 ], [ -3.2321, 40.2573 ], [ -3.2319, 40.2578 ], [ -3.2316, 40.2578 ], [ -3.2308, 40.2574 ], [ -3.2303, 40.2573 ], [ -3.2302, 40.2578 ], [ -3.2311, 40.2581 ], [ -3.2313, 40.2583 ], [ -3.2312, 40.2583 ], [ -3.2313, 40.2585 ], [ -3.2301, 40.2593 ], [ -3.2299, 40.2596 ], [ -3.23, 40.2597 ], [ -3.2297, 40.26 ], [ -3.2292, 40.2601 ], [ -3.2281, 40.2608 ], [ -3.2281, 40.2609 ], [ -3.2291, 40.261 ], [ -3.2294, 40.2612 ], [ -3.2301, 40.2613 ], [ -3.2306, 40.2609 ], [ -3.2312, 40.261 ], [ -3.2316, 40.2608 ], [ -3.2323, 40.2608 ], [ -3.2327, 40.2612 ], [ -3.2333, 40.2615 ], [ -3.2336, 40.2614 ], [ -3.2343, 40.262 ], [ -3.2344, 40.2624 ], [ -3.2346, 40.2625 ], [ -3.2348, 40.2621 ], [ -3.2351, 40.2621 ], [ -3.2352, 40.2631 ] ], [ [ -3.2322, 40.2602 ], [ -3.2316, 40.2608 ], [ -3.231, 40.2604 ], [ -3.2317, 40.2598 ], [ -3.2322, 40.2602 ] ], [ [ -3.2351, 40.2598 ], [ -3.2348, 40.2598 ], [ -3.2348, 40.2596 ], [ -3.2345, 40.2595 ], [ -3.2343, 40.2598 ], [ -3.2341, 40.2595 ], [ -3.2342, 40.2593 ], [ -3.2339, 40.2587 ], [ -3.2338, 40.2587 ], [ -3.2342, 40.2584 ], [ -3.2342, 40.2587 ], [ -3.2346, 40.2593 ], [ -3.2355, 40.2597 ], [ -3.2355, 40.2598 ], [ -3.2351, 40.2598 ] ] ] } },
{ "type": "Feature", "properties": { "municipio": "Carabaña", "clasificacion": "urbano-consolidado", "calificacion": "sin-asignar", "version": "vigente", "fuente": "SIT-CAM WFS — UsoDelSuelo:VPLA_V_CLASIFICACION (https://idem.comunidad.madrid/geosrvg/ows)", "fecha_dato": "2026-05-12", "ambito": "50", "_raw_CD_SIGLAS": "SUC", "_raw_DS_CLASIF_GEN": "Suelo Urbano Consolidado", "_raw_DS_CLASIF_DET": "Suelo Urbano Consolidado", "_raw_DS_DOCU": "NORMAS SUBSIDIARIAS", "_raw_DS_LEY": "E RD 1346/1976", "_raw_FC_AC": "1985-10-22", "_raw_NM_AREA_M2": 428227.40772390203, "_cam_code": "035" }, "geometry": { "type": "Polygon", "coordinates": [ [ [ -3.2399, 40.261 ], [ -3.2398, 40.2621 ], [ -3.2406, 40.262 ], [ -3.2413, 40.2618 ], [ -3.2414, 40.262 ], [ -3.2417, 40.2618 ], [ -3.2416, 40.2616 ], [ -3.2418, 40.2615 ], [ -3.2417, 40.2608 ], [ -3.2414, 40.2604 ], [ -3.2421, 40.26 ], [ -3.2431, 40.2602 ], [ -3.2432, 40.2599 ], [ -3.2424, 40.2594 ], [ -3.2421, 40.2587 ], [ -3.2426, 40.2582 ], [ -3.2431, 40.258 ], [ -3.2433, 40.2577 ], [ -3.2435, 40.2572 ], [ -3.2433, 40.257 ], [ -3.2431, 40.2564 ], [ -3.2426, 40.2563 ], [ -3.2426, 40.2562 ], [ -3.2432, 40.256 ], [ -3.2424, 40.2558 ], [ -3.2425, 40.2558 ], [ -3.2424, 40.2555 ], [ -3.2412, 40.2543 ], [ -3.2411, 40.2541 ], [ -3.2412, 40.2537 ], [ -3.241, 40.2535 ], [ -3.2392, 40.2538 ], [ -3.2391, 40.2539 ], [ -3.2392, 40.2541 ], [ -3.2391, 40.2551 ], [ -3.239, 40.2551 ], [ -3.2389, 40.2547 ], [ -3.2381, 40.2548 ], [ -3.2381, 40.2549 ], [ -3.2378, 40.2547 ], [ -3.2377, 40.2549 ], [ -3.2373, 40.2545 ], [ -3.2376, 40.2542 ], [ -3.2374, 40.2539 ], [ -3.2375, 40.2534 ], [ -3.238, 40.2531 ], [ -3.238, 40.2527 ], [ -3.2378, 40.2526 ], [ -3.238, 40.2526 ], [ -3.2379, 40.252 ], [ -3.2377, 40.2518 ], [ -3.2378, 40.2516 ], [ -3.2372, 40.2513 ], [ -3.2365, 40.2513 ], [ -3.2361, 40.2519 ], [ -3.2361, 40.2518 ], [ -3.2354, 40.2518 ], [ -3.2355, 40.2512 ], [ -3.2353, 40.2511 ], [ -3.2355, 40.2508 ], [ -3.2353, 40.2508 ], [ -3.2351, 40.2509 ], [ -3.2342, 40.2524 ], [ -3.2343, 40.2524 ], [ -3.2342, 40.2525 ], [ -3.2343, 40.2529 ], [ -3.2341, 40.2531 ], [ -3.235, 40.2534 ], [ -3.2351, 40.2545 ], [ -3.2353, 40.2545 ], [ -3.2355, 40.2541 ], [ -3.2353, 40.2554 ], [ -3.2352, 40.2554 ], [ -3.2347, 40.2565 ], [ -3.2355, 40.2567 ], [ -3.2359, 40.2571 ], [ -3.236, 40.257 ], [ -3.2368, 40.2573 ], [ -3.2368, 40.2574 ], [ -3.237, 40.2573 ], [ -3.2372, 40.2575 ], [ -3.2374, 40.2575 ], [ -3.2374, 40.2577 ], [ -3.2377, 40.2578 ], [ -3.2375, 40.2584 ], [ -3.2381, 40.2594 ], [ -3.2384, 40.2596 ], [ -3.2392, 40.2594 ], [ -3.2398, 40.2602 ], [ -3.2397, 40.2608 ], [ -3.2399, 40.261 ] ], [ [ -3.2362, 40.2542 ], [ -3.2362, 40.2541 ], [ -3.236, 40.2537 ], [ -3.2364, 40.2538 ], [ -3.2366, 40.2541 ], [ -3.2362, 40.2542 ] ], [ [ -3.2357, 40.2536 ], [ -3.2355, 40.2537 ], [ -3.2354, 40.2527 ], [ -3.2357, 40.253 ], [ -3.2358, 40.2533 ], [ -3.2357, 40.2536 ] ], [ [ -3.2367, 40.2549 ], [ -3.2365, 40.2546 ], [ -3.2367, 40.2546 ], [ -3.2367, 40.2545 ], [ -3.2365, 40.2546 ], [ -3.2363, 40.2542 ], [ -3.2366, 40.2541 ], [ -3.2369, 40.2546 ], [ -3.2372, 40.2547 ], [ -3.2372, 40.2548 ], [ -3.2367, 40.2549 ] ], [ [ -3.2404, 40.2568 ], [ -3.2407, 40.2571 ], [ -3.2411, 40.2578 ], [ -3.2405, 40.2577 ], [ -3.2401, 40.2571 ], [ -3.2404, 40.2568 ] ], [ [ -3.2396, 40.2558 ], [ -3.2392, 40.2555 ], [ -3.2391, 40.2551 ], [ -3.2402, 40.2548 ], [ -3.2405, 40.2552 ], [ -3.2402, 40.2554 ], [ -3.2403, 40.2555 ], [ -3.2396, 40.2558 ] ] ] } }
]
}
