{
"type": "FeatureCollection",
"name": "vigente.full",
"features": [
{ "type": "Feature", "properties": { "municipio": "Los Molinos", "clasificacion": "no-urbanizable-protegido", "calificacion": "sin-asignar", "version": "vigente", "fuente": "SIT-CAM WFS — UsoDelSuelo:VPLA_V_CLASIFICACION (https://idem.comunidad.madrid/geosrvg/ows)", "fecha_dato": "2026-05-12", "ambito": "608", "_raw_CD_SIGLAS": "SNUP", "_raw_DS_CLASIF_GEN": "Suelo No Urbanizable Protegido", "_raw_DS_CLASIF_DET": "Rústico de Protección", "_raw_DS_DOCU": "PLAN GENERAL", "_raw_DS_LEY": null, "_raw_FC_AC": "1969-01-29", "_raw_NM_AREA_M2": 12549724.983167499, "_cam_code": "087" }, "geometry": { "type": "Polygon", "coordinates": [ [ [ -4.0991, 40.7034 ], [ -4.0977, 40.7044 ], [ -4.0975, 40.7049 ], [ -4.0973, 40.705 ], [ -4.0972, 40.7055 ], [ -4.0969, 40.7057 ], [ -4.0969, 40.7061 ], [ -4.0965, 40.7065 ], [ -4.0956, 40.707 ], [ -4.0953, 40.7077 ], [ -4.094, 40.7092 ], [ -4.0903, 40.7112 ], [ -4.0864, 40.7142 ], [ -4.0861, 40.7153 ], [ -4.0856, 40.7161 ], [ -4.0858, 40.7166 ], [ -4.0858, 40.7178 ], [ -4.0853, 40.7187 ], [ -4.0845, 40.7212 ], [ -4.0841, 40.7219 ], [ -4.0829, 40.723 ], [ -4.0835, 40.7241 ], [ -4.0837, 40.7248 ], [ -4.0837, 40.7258 ], [ -4.0835, 40.7264 ], [ -4.0828, 40.7275 ], [ -4.0821, 40.7281 ], [ -4.0789, 40.73 ], [ -4.0803, 40.7311 ], [ -4.0832, 40.7343 ], [ -4.0871, 40.7374 ], [ -4.0919, 40.7422 ], [ -4.096, 40.7465 ], [ -4.097, 40.7477 ], [ -4.1041, 40.747 ], [ -4.1104, 40.744 ], [ -4.1195, 40.7362 ], [ -4.1208, 40.7357 ], [ -4.1216, 40.7333 ], [ -4.1252, 40.7296 ], [ -4.1258, 40.7272 ], [ -4.1257, 40.7245 ], [ -4.1231, 40.7192 ], [ -4.1204, 40.7156 ], [ -4.1178, 40.7114 ], [ -4.1127, 40.7073 ], [ -4.1116, 40.7068 ], [ -4.109, 40.7042 ], [ -4.1059, 40.7033 ], [ -4.0991, 40.7034 ] ] ] } },
{ "type": "Feature", "properties": { "municipio": "Los Molinos", "clasificacion": "no-urbanizable-protegido", "calificacion": "sin-asignar", "version": "vigente", "fuente": "SIT-CAM WFS — UsoDelSuelo:VPLA_V_CLASIFICACION (https://idem.comunidad.madrid/geosrvg/ows)", "fecha_dato": "2026-05-12", "ambito": "83415", "_raw_CD_SIGLAS": "SNUP", "_raw_DS_CLASIF_GEN": "Suelo No Urbanizable Protegido", "_raw_DS_CLASIF_DET": "Suelo No Urbanizable Especialmente Protegido", "_raw_DS_DOCU": "NORMAS SUBSIDIARIAS", "_raw_DS_LEY": null, "_raw_FC_AC": "2013-04-03", "_raw_NM_AREA_M2": 151069.764804971, "_cam_code": "087" }, "geometry": { "type": "Polygon", "coordinates": [ [ [ -4.0831, 40.7023 ], [ -4.0836, 40.7032 ], [ -4.0849, 40.7047 ], [ -4.0859, 40.7064 ], [ -4.0859, 40.7066 ], [ -4.0861, 40.7066 ], [ -4.0867, 40.7062 ], [ -4.0879, 40.7049 ], [ -4.0876, 40.7039 ], [ -4.0877, 40.7034 ], [ -4.0879, 40.7033 ], [ -4.0832, 40.7003 ], [ -4.082, 40.7028 ], [ -4.0822, 40.7027 ], [ -4.0827, 40.7028 ], [ -4.0831, 40.7023 ] ] ] } },
{ "type": "Feature", "properties": { "municipio": "Los Molinos", "clasificacion": "no-urbanizable-protegido", "calificacion": "sin-asignar", "version": "vigente", "fuente": "SIT-CAM WFS — UsoDelSuelo:VPLA_V_CLASIFICACION (https://idem.comunidad.madrid/geosrvg/ows)", "fecha_dato": "2026-05-12", "ambito": "83415", "_raw_CD_SIGLAS": "SNUP", "_raw_DS_CLASIF_GEN": "Suelo No Urbanizable Protegido", "_raw_DS_CLASIF_DET": "Suelo No Urbanizable Especialmente Protegido", "_raw_DS_DOCU": "NORMAS SUBSIDIARIAS", "_raw_DS_LEY": null, "_raw_FC_AC": "2013-04-03", "_raw_NM_AREA_M2": 170767.368750447, "_cam_code": "087" }, "geometry": { "type": "Polygon", "coordinates": [ [ [ -4.0627, 40.709 ], [ -4.062, 40.711 ], [ -4.0629, 40.7096 ], [ -4.0639, 40.7085 ], [ -4.0645, 40.7071 ], [ -4.065, 40.7063 ], [ -4.0639, 40.7049 ], [ -4.0626, 40.7054 ], [ -4.0622, 40.7049 ], [ -4.061, 40.7044 ], [ -4.0605, 40.7045 ], [ -4.0588, 40.7058 ], [ -4.0612, 40.707 ], [ -4.0597, 40.7091 ], [ -4.06, 40.7096 ], [ -4.0613, 40.7086 ], [ -4.0627, 40.709 ] ] ] } },
{ "type": "Feature", "properties": { "municipio": "Los Molinos", "clasificacion": "no-urbanizable-protegido", "calificacion": "sin-asignar", "version": "vigente", "fuente": "SIT-CAM WFS — UsoDelSuelo:VPLA_V_CLASIFICACION (https://idem.comunidad.madrid/geosrvg/ows)", "fecha_dato": "2026-05-12", "ambito": "83415", "_raw_CD_SIGLAS": "SNUP", "_raw_DS_CLASIF_GEN": "Suelo No Urbanizable Protegido", "_raw_DS_CLASIF_DET": "Suelo No Urbanizable Especialmente Protegido", "_raw_DS_DOCU": "NORMAS SUBSIDIARIAS", "_raw_DS_LEY": null, "_raw_FC_AC": "2013-04-03", "_raw_NM_AREA_M2": 83684.516238397104, "_cam_code": "087" }, "geometry": { "type": "Polygon", "coordinates": [ [ [ -4.0884, 40.7097 ], [ -4.0875, 40.7099 ], [ -4.0869, 40.7102 ], [ -4.0869, 40.712 ], [ -4.087, 40.712 ], [ -4.087, 40.7122 ], [ -4.0868, 40.7129 ], [ -4.0864, 40.7129 ], [ -4.0865, 40.7137 ], [ -4.0867, 40.714 ], [ -4.0903, 40.7112 ], [ -4.0907, 40.711 ], [ -4.0905, 40.711 ], [ -4.0903, 40.7107 ], [ -4.0892, 40.7099 ], [ -4.0884, 40.7097 ] ] ] } },
{ "type": "Feature", "properties": { "municipio": "Los Molinos", "clasificacion": "no-urbanizable-protegido", "calificacion": "sin-asignar", "version": "vigente", "fuente": "SIT-CAM WFS — UsoDelSuelo:VPLA_V_CLASIFICACION (https://idem.comunidad.madrid/geosrvg/ows)", "fecha_dato": "2026-05-12", "ambito": "83415", "_raw_CD_SIGLAS": "SNUP", "_raw_DS_CLASIF_GEN": "Suelo No Urbanizable Protegido", "_raw_DS_CLASIF_DET": "Suelo No Urbanizable Especialmente Protegido", "_raw_DS_DOCU": "NORMAS SUBSIDIARIAS", "_raw_DS_LEY": null, "_raw_FC_AC": "2013-04-03", "_raw_NM_AREA_M2": 25164.9174547455, "_cam_code": "087" }, "geometry": { "type": "Polygon", "coordinates": [ [ [ -4.0806, 40.7247 ], [ -4.0802, 40.725 ], [ -4.0811, 40.7269 ], [ -4.0812, 40.7267 ], [ -4.0823, 40.7262 ], [ -4.0818, 40.7251 ], [ -4.0813, 40.7248 ], [ -4.0806, 40.7247 ] ] ] } },
{ "type": "Feature", "properties": { "municipio": "Los Molinos", "clasificacion": "no-urbanizable-protegido", "calificacion": "sin-asignar", "version": "vigente", "fuente": "SIT-CAM WFS — UsoDelSuelo:VPLA_V_CLASIFICACION (https://idem.comunidad.madrid/geosrvg/ows)", "fecha_dato": "2026-05-12", "ambito": "83415", "_raw_CD_SIGLAS": "SNUP", "_raw_DS_CLASIF_GEN": "Suelo No Urbanizable Protegido", "_raw_DS_CLASIF_DET": "Suelo No Urbanizable Especialmente Protegido", "_raw_DS_DOCU": "NORMAS SUBSIDIARIAS", "_raw_DS_LEY": null, "_raw_FC_AC": "2013-04-03", "_raw_NM_AREA_M2": 35634.930194916698, "_cam_code": "087" }, "geometry": { "type": "Polygon", "coordinates": [ [ [ -4.0772, 40.7235 ], [ -4.0784, 40.7236 ], [ -4.0785, 40.7237 ], [ -4.0788, 40.7236 ], [ -4.0784, 40.7232 ], [ -4.0785, 40.7228 ], [ -4.0783, 40.7226 ], [ -4.0778, 40.7213 ], [ -4.0773, 40.7214 ], [ -4.077, 40.7219 ], [ -4.0765, 40.7218 ], [ -4.0761, 40.723 ], [ -4.0769, 40.7236 ], [ -4.0772, 40.7235 ] ] ] } },
{ "type": "Feature", "properties": { "municipio": "Los Molinos", "clasificacion": "no-urbanizable-protegido", "calificacion": "sin-asignar", "version": "vigente", "fuente": "SIT-CAM WFS — UsoDelSuelo:VPLA_V_CLASIFICACION (https://idem.comunidad.madrid/geosrvg/ows)", "fecha_dato": "2026-05-12", "ambito": "608", "_raw_CD_SIGLAS": "SNUP", "_raw_DS_CLASIF_GEN": "Suelo No Urbanizable Protegido", "_raw_DS_CLASIF_DET": "Rústico de Protección", "_raw_DS_DOCU": "PLAN GENERAL", "_raw_DS_LEY": null, "_raw_FC_AC": "1969-01-29", "_raw_NM_AREA_M2": 278181.133188801, "_cam_code": "087" }, "geometry": { "type": "Polygon", "coordinates": [ [ [ -4.0743, 40.7104 ], [ -4.0749, 40.7107 ], [ -4.0753, 40.7107 ], [ -4.0753, 40.7106 ], [ -4.076, 40.7102 ], [ -4.0773, 40.7089 ], [ -4.0792, 40.7062 ], [ -4.0804, 40.7055 ], [ -4.0807, 40.7052 ], [ -4.0831, 40.7002 ], [ -4.0819, 40.6994 ], [ -4.0812, 40.7003 ], [ -4.0811, 40.701 ], [ -4.0812, 40.7016 ], [ -4.0811, 40.7018 ], [ -4.0806, 40.7022 ], [ -4.0799, 40.7024 ], [ -4.0782, 40.702 ], [ -4.0778, 40.7018 ], [ -4.077, 40.701 ], [ -4.0775, 40.7028 ], [ -4.0775, 40.7034 ], [ -4.077, 40.7057 ], [ -4.0767, 40.7065 ], [ -4.0769, 40.7071 ], [ -4.0756, 40.708 ], [ -4.0755, 40.7082 ], [ -4.0746, 40.7086 ], [ -4.074, 40.7091 ], [ -4.0739, 40.7099 ], [ -4.0738, 40.7099 ], [ -4.0743, 40.7104 ] ] ] } },
{ "type": "Feature", "properties": { "municipio": "Los Molinos", "clasificacion": "no-urbanizable-protegido", "calificacion": "sin-asignar", "version": "vigente", "fuente": "SIT-CAM WFS — UsoDelSuelo:VPLA_V_CLASIFICACION (https://idem.comunidad.madrid/geosrvg/ows)", "fecha_dato": "2026-05-12", "ambito": "608", "_raw_CD_SIGLAS": "SNUP", "_raw_DS_CLASIF_GEN": "Suelo No Urbanizable Protegido", "_raw_DS_CLASIF_DET": "Rústico de Protección", "_raw_DS_DOCU": "PLAN GENERAL", "_raw_DS_LEY": null, "_raw_FC_AC": "1969-01-29", "_raw_NM_AREA_M2": 185868.80267816799, "_cam_code": "087" }, "geometry": { "type": "Polygon", "coordinates": [ [ [ -4.0639, 40.7085 ], [ -4.0629, 40.7096 ], [ -4.062, 40.711 ], [ -4.0609, 40.7132 ], [ -4.0605, 40.7144 ], [ -4.0598, 40.7153 ], [ -4.0617, 40.7165 ], [ -4.0627, 40.7144 ], [ -4.0623, 40.7143 ], [ -4.0628, 40.7137 ], [ -4.0627, 40.7134 ], [ -4.0632, 40.7129 ], [ -4.0643, 40.7106 ], [ -4.0664, 40.7085 ], [ -4.0664, 40.7083 ], [ -4.0665, 40.7083 ], [ -4.0665, 40.7081 ], [ -4.0667, 40.7077 ], [ -4.0667, 40.7077 ], [ -4.0667, 40.7075 ], [ -4.0668, 40.7075 ], [ -4.0666, 40.7075 ], [ -4.0665, 40.7075 ], [ -4.0666, 40.7071 ], [ -4.0652, 40.7069 ], [ -4.0647, 40.7067 ], [ -4.0639, 40.7085 ] ] ] } },
{ "type": "Feature", "properties": { "municipio": "Los Molinos", "clasificacion": "no-urbanizable-protegido", "calificacion": "sin-asignar", "version": "vigente", "fuente": "SIT-CAM WFS — UsoDelSuelo:VPLA_V_CLASIFICACION (https://idem.comunidad.madrid/geosrvg/ows)", "fecha_dato": "2026-05-12", "ambito": "608", "_raw_CD_SIGLAS": "SNUP", "_raw_DS_CLASIF_GEN": "Suelo No Urbanizable Protegido", "_raw_DS_CLASIF_DET": "Rústico de Protección", "_raw_DS_DOCU": "PLAN GENERAL", "_raw_DS_LEY": null, "_raw_FC_AC": "1969-01-29", "_raw_NM_AREA_M2": 135074.082345801, "_cam_code": "087" }, "geometry": { "type": "Polygon", "coordinates": [ [ [ -4.0636, 40.7176 ], [ -4.0649, 40.7189 ], [ -4.0655, 40.7188 ], [ -4.0657, 40.7187 ], [ -4.0658, 40.7181 ], [ -4.0675, 40.7173 ], [ -4.0691, 40.717 ], [ -4.0697, 40.7166 ], [ -4.0706, 40.7163 ], [ -4.0704, 40.7161 ], [ -4.0705, 40.7158 ], [ -4.0709, 40.7152 ], [ -4.0721, 40.714 ], [ -4.0728, 40.7135 ], [ -4.073, 40.7127 ], [ -4.0735, 40.7118 ], [ -4.0738, 40.7115 ], [ -4.0732, 40.7109 ], [ -4.0725, 40.7112 ], [ -4.0707, 40.7134 ], [ -4.0703, 40.7136 ], [ -4.0696, 40.7137 ], [ -4.0695, 40.7138 ], [ -4.0695, 40.7143 ], [ -4.0693, 40.7145 ], [ -4.0697, 40.7148 ], [ -4.0696, 40.7151 ], [ -4.0692, 40.7154 ], [ -4.069, 40.716 ], [ -4.0687, 40.7163 ], [ -4.0684, 40.7165 ], [ -4.068, 40.7166 ], [ -4.0676, 40.7165 ], [ -4.0662, 40.717 ], [ -4.0662, 40.7171 ], [ -4.0658, 40.7172 ], [ -4.0652, 40.7176 ], [ -4.0649, 40.7176 ], [ -4.0645, 40.7178 ], [ -4.0636, 40.7176 ] ] ] } },
{ "type": "Feature", "properties": { "municipio": "Los Molinos", "clasificacion": "urbano-consolidado", "calificacion": "sin-asignar", "version": "vigente", "fuente": "SIT-CAM WFS — UsoDelSuelo:VPLA_V_CLASIFICACION (https://idem.comunidad.madrid/geosrvg/ows)", "fecha_dato": "2026-05-12", "ambito": "608", "_raw_CD_SIGLAS": "SU", "_raw_DS_CLASIF_GEN": "Suelo Urbano", "_raw_DS_CLASIF_DET": null, "_raw_DS_DOCU": "PLAN GENERAL", "_raw_DS_LEY": null, "_raw_FC_AC": "1969-01-29", "_raw_NM_AREA_M2": 1731158.48787368, "_cam_code": "087" }, "geometry": { "type": "Polygon", "coordinates": [ [ [ -4.0678, 40.7239 ], [ -4.0738, 40.726 ], [ -4.0752, 40.7223 ], [ -4.0757, 40.7213 ], [ -4.076, 40.7203 ], [ -4.0759, 40.7172 ], [ -4.0758, 40.7172 ], [ -4.0759, 40.7167 ], [ -4.0765, 40.7162 ], [ -4.0782, 40.7143 ], [ -4.0783, 40.714 ], [ -4.0784, 40.714 ], [ -4.0786, 40.7129 ], [ -4.0794, 40.7132 ], [ -4.0812, 40.7144 ], [ -4.0828, 40.7152 ], [ -4.0831, 40.7152 ], [ -4.0836, 40.7156 ], [ -4.0858, 40.7167 ], [ -4.0856, 40.7161 ], [ -4.0861, 40.7153 ], [ -4.0865, 40.7139 ], [ -4.086, 40.7136 ], [ -4.084, 40.7105 ], [ -4.0834, 40.7102 ], [ -4.0821, 40.709 ], [ -4.0823, 40.7079 ], [ -4.0808, 40.7073 ], [ -4.0804, 40.7069 ], [ -4.0807, 40.7055 ], [ -4.0832, 40.7003 ], [ -4.0831, 40.7002 ], [ -4.0807, 40.7052 ], [ -4.0804, 40.7055 ], [ -4.0792, 40.7062 ], [ -4.0773, 40.7089 ], [ -4.076, 40.7102 ], [ -4.0753, 40.7106 ], [ -4.0753, 40.7107 ], [ -4.0749, 40.7107 ], [ -4.0743, 40.7104 ], [ -4.0738, 40.7099 ], [ -4.073, 40.7095 ], [ -4.0725, 40.709 ], [ -4.0713, 40.7067 ], [ -4.0705, 40.7059 ], [ -4.0694, 40.7052 ], [ -4.069, 40.7051 ], [ -4.0719, 40.7001 ], [ -4.0714, 40.7007 ], [ -4.0712, 40.7012 ], [ -4.0691, 40.7006 ], [ -4.0674, 40.7005 ], [ -4.0661, 40.701 ], [ -4.064, 40.7022 ], [ -4.0624, 40.7006 ], [ -4.0614, 40.7007 ], [ -4.0609, 40.7018 ], [ -4.0619, 40.702 ], [ -4.063, 40.7026 ], [ -4.0631, 40.703 ], [ -4.0636, 40.7033 ], [ -4.0651, 40.705 ], [ -4.0653, 40.7054 ], [ -4.0653, 40.7058 ], [ -4.0647, 40.7067 ], [ -4.0652, 40.7069 ], [ -4.0666, 40.7071 ], [ -4.0665, 40.7075 ], [ -4.0666, 40.7075 ], [ -4.0668, 40.7075 ], [ -4.0667, 40.7075 ], [ -4.0667, 40.7077 ], [ -4.0664, 40.7085 ], [ -4.0643, 40.7106 ], [ -4.0632, 40.7129 ], [ -4.0627, 40.7134 ], [ -4.0628, 40.7137 ], [ -4.0623, 40.7143 ], [ -4.0627, 40.7144 ], [ -4.0617, 40.7165 ], [ -4.0618, 40.7166 ], [ -4.0631, 40.7141 ], [ -4.0632, 40.7137 ], [ -4.0646, 40.712 ], [ -4.0649, 40.7123 ], [ -4.0673, 40.7134 ], [ -4.0674, 40.7138 ], [ -4.0676, 40.714 ], [ -4.068, 40.7142 ], [ -4.0686, 40.7142 ], [ -4.0693, 40.7146 ], [ -4.0694, 40.7143 ], [ -4.0695, 40.7143 ], [ -4.0695, 40.7138 ], [ -4.0707, 40.7134 ], [ -4.0725, 40.7112 ], [ -4.0732, 40.7109 ], [ -4.0738, 40.7115 ], [ -4.0735, 40.7118 ], [ -4.073, 40.7127 ], [ -4.0728, 40.7135 ], [ -4.0721, 40.714 ], [ -4.0709, 40.7152 ], [ -4.0704, 40.7161 ], [ -4.0713, 40.7167 ], [ -4.0732, 40.7171 ], [ -4.0749, 40.7182 ], [ -4.0755, 40.7184 ], [ -4.0757, 40.7194 ], [ -4.0757, 40.7208 ], [ -4.075, 40.7226 ], [ -4.0736, 40.7235 ], [ -4.0731, 40.724 ], [ -4.0727, 40.7242 ], [ -4.0708, 40.7242 ], [ -4.0705, 40.7239 ], [ -4.0699, 40.7237 ], [ -4.0694, 40.7237 ], [ -4.0688, 40.7239 ], [ -4.0682, 40.7238 ], [ -4.0678, 40.7239 ] ] ] } },
{ "type": "Feature", "properties": { "municipio": "Los Molinos", "clasificacion": "urbano-consolidado", "calificacion": "sin-asignar", "version": "vigente", "fuente": "SIT-CAM WFS — UsoDelSuelo:VPLA_V_CLASIFICACION (https://idem.comunidad.madrid/geosrvg/ows)", "fecha_dato": "2026-05-12", "ambito": "83415", "_raw_CD_SIGLAS": "SU", "_raw_DS_CLASIF_GEN": "Suelo Urbano", "_raw_DS_CLASIF_DET": null, "_raw_DS_DOCU": "NORMAS SUBSIDIARIAS", "_raw_DS_LEY": null, "_raw_FC_AC": "2013-04-03", "_raw_NM_AREA_M2": 9481.2568940023793, "_cam_code": "087" }, "geometry": { "type": "Polygon", "coordinates": [ [ [ -4.0759, 40.7041 ], [ -4.0766, 40.7044 ], [ -4.0773, 40.7044 ], [ -4.0773, 40.704 ], [ -4.077, 40.7041 ], [ -4.0769, 40.7037 ], [ -4.077, 40.703 ], [ -4.0768, 40.703 ], [ -4.0766, 40.7033 ], [ -4.0761, 40.7036 ], [ -4.0762, 40.7037 ], [ -4.0759, 40.7041 ] ] ] } },
{ "type": "Feature", "properties": { "municipio": "Los Molinos", "clasificacion": "urbano-consolidado", "calificacion": "sin-asignar", "version": "vigente", "fuente": "SIT-CAM WFS — UsoDelSuelo:VPLA_V_CLASIFICACION (https://idem.comunidad.madrid/geosrvg/ows)", "fecha_dato": "2026-05-12", "ambito": "83415", "_raw_CD_SIGLAS": "SU", "_raw_DS_CLASIF_GEN": "Suelo Urbano", "_raw_DS_CLASIF_DET": null, "_raw_DS_DOCU": "NORMAS SUBSIDIARIAS", "_raw_DS_LEY": null, "_raw_FC_AC": "2013-04-03", "_raw_NM_AREA_M2": 239975.01937516901, "_cam_code": "087" }, "geometry": { "type": "Polygon", "coordinates": [ [ [ -4.0637, 40.7176 ], [ -4.0637, 40.7177 ], [ -4.0645, 40.7178 ], [ -4.0649, 40.7176 ], [ -4.0652, 40.7176 ], [ -4.0658, 40.7172 ], [ -4.0662, 40.7171 ], [ -4.0662, 40.717 ], [ -4.0676, 40.7165 ], [ -4.068, 40.7166 ], [ -4.0684, 40.7165 ], [ -4.069, 40.716 ], [ -4.0692, 40.7154 ], [ -4.0696, 40.7151 ], [ -4.0697, 40.7148 ], [ -4.0686, 40.7142 ], [ -4.068, 40.7142 ], [ -4.0676, 40.714 ], [ -4.0674, 40.7138 ], [ -4.0673, 40.7134 ], [ -4.0649, 40.7123 ], [ -4.0646, 40.712 ], [ -4.0632, 40.7137 ], [ -4.0631, 40.7141 ], [ -4.0618, 40.7166 ], [ -4.0633, 40.7175 ], [ -4.0637, 40.7176 ] ] ] } },
{ "type": "Feature", "properties": { "municipio": "Los Molinos", "clasificacion": "urbano-consolidado", "calificacion": "sin-asignar", "version": "vigente", "fuente": "SIT-CAM WFS — UsoDelSuelo:VPLA_V_CLASIFICACION (https://idem.comunidad.madrid/geosrvg/ows)", "fecha_dato": "2026-05-12", "ambito": "83415", "_raw_CD_SIGLAS": "SU", "_raw_DS_CLASIF_GEN": "Suelo Urbano", "_raw_DS_CLASIF_DET": null, "_raw_DS_DOCU": "NORMAS SUBSIDIARIAS", "_raw_DS_LEY": null, "_raw_FC_AC": "2013-04-03", "_raw_NM_AREA_M2": 358917.67400310398, "_cam_code": "087" }, "geometry": { "type": "Polygon", "coordinates": [ [ [ -4.0757, 40.7213 ], [ -4.0763, 40.7218 ], [ -4.077, 40.7219 ], [ -4.0773, 40.7214 ], [ -4.0778, 40.7213 ], [ -4.0777, 40.721 ], [ -4.0778, 40.7209 ], [ -4.0766, 40.72 ], [ -4.0765, 40.7198 ], [ -4.0782, 40.7192 ], [ -4.079, 40.7198 ], [ -4.0803, 40.719 ], [ -4.0815, 40.7186 ], [ -4.0828, 40.7178 ], [ -4.0832, 40.7177 ], [ -4.0854, 40.7165 ], [ -4.0836, 40.7156 ], [ -4.0831, 40.7152 ], [ -4.0828, 40.7152 ], [ -4.0812, 40.7144 ], [ -4.0794, 40.7132 ], [ -4.0786, 40.7129 ], [ -4.0784, 40.714 ], [ -4.0783, 40.714 ], [ -4.0782, 40.7143 ], [ -4.0765, 40.7162 ], [ -4.0759, 40.7167 ], [ -4.0758, 40.7172 ], [ -4.0759, 40.7172 ], [ -4.076, 40.7203 ], [ -4.0757, 40.7213 ] ] ] } },
{ "type": "Feature", "properties": { "municipio": "Los Molinos", "clasificacion": "urbano-consolidado", "calificacion": "sin-asignar", "version": "vigente", "fuente": "SIT-CAM WFS — UsoDelSuelo:VPLA_V_CLASIFICACION (https://idem.comunidad.madrid/geosrvg/ows)", "fecha_dato": "2026-05-12", "ambito": "83415", "_raw_CD_SIGLAS": "SU", "_raw_DS_CLASIF_GEN": "Suelo Urbano", "_raw_DS_CLASIF_DET": null, "_raw_DS_DOCU": "NORMAS SUBSIDIARIAS", "_raw_DS_LEY": null, "_raw_FC_AC": "2013-04-03", "_raw_NM_AREA_M2": 88919.770398741995, "_cam_code": "087" }, "geometry": { "type": "Polygon", "coordinates": [ [ [ -4.0772, 40.7251 ], [ -4.0783, 40.7261 ], [ -4.0786, 40.7262 ], [ -4.0798, 40.725 ], [ -4.0796, 40.7247 ], [ -4.0797, 40.7246 ], [ -4.0796, 40.7239 ], [ -4.0787, 40.7236 ], [ -4.0786, 40.7237 ], [ -4.0775, 40.7235 ], [ -4.077, 40.7235 ], [ -4.0769, 40.7236 ], [ -4.0752, 40.7223 ], [ -4.0744, 40.7243 ], [ -4.0747, 40.7243 ], [ -4.0753, 40.725 ], [ -4.0759, 40.7245 ], [ -4.077, 40.7252 ], [ -4.0772, 40.7251 ] ] ] } },
{ "type": "Feature", "properties": { "municipio": "Los Molinos", "clasificacion": "urbano-consolidado", "calificacion": "sin-asignar", "version": "vigente", "fuente": "SIT-CAM WFS — UsoDelSuelo:VPLA_V_CLASIFICACION (https://idem.comunidad.madrid/geosrvg/ows)", "fecha_dato": "2026-05-12", "ambito": "83415", "_raw_CD_SIGLAS": "SU", "_raw_DS_CLASIF_GEN": "Suelo Urbano", "_raw_DS_CLASIF_DET": null, "_raw_DS_DOCU": "NORMAS SUBSIDIARIAS", "_raw_DS_LEY": null, "_raw_FC_AC": "2013-04-03", "_raw_NM_AREA_M2": 28432.048636931198, "_cam_code": "087" }, "geometry": { "type": "Polygon", "coordinates": [ [ [ -4.0773, 40.7273 ], [ -4.0761, 40.7277 ], [ -4.0789, 40.73 ], [ -4.0791, 40.7298 ], [ -4.0786, 40.7294 ], [ -4.0786, 40.7289 ], [ -4.0787, 40.7288 ], [ -4.0786, 40.7282 ], [ -4.0778, 40.7274 ], [ -4.0773, 40.7273 ] ] ] } },
{ "type": "Feature", "properties": { "municipio": "Los Molinos", "clasificacion": "urbano-consolidado", "calificacion": "sin-asignar", "version": "vigente", "fuente": "SIT-CAM WFS — UsoDelSuelo:VPLA_V_CLASIFICACION (https://idem.comunidad.madrid/geosrvg/ows)", "fecha_dato": "2026-05-12", "ambito": "83415", "_raw_CD_SIGLAS": "SU", "_raw_DS_CLASIF_GEN": "Suelo Urbano", "_raw_DS_CLASIF_DET": null, "_raw_DS_DOCU": "NORMAS SUBSIDIARIAS", "_raw_DS_LEY": null, "_raw_FC_AC": "2013-04-03", "_raw_NM_AREA_M2": 36248.504875820203, "_cam_code": "087" }, "geometry": { "type": "Polygon", "coordinates": [ [ [ -4.0841, 40.7063 ], [ -4.0845, 40.7071 ], [ -4.086, 40.7066 ], [ -4.0859, 40.7066 ], [ -4.0859, 40.7064 ], [ -4.0855, 40.7057 ], [ -4.0847, 40.7045 ], [ -4.0834, 40.7049 ], [ -4.0839, 40.706 ], [ -4.0836, 40.7061 ], [ -4.0837, 40.7064 ], [ -4.0841, 40.7063 ] ] ] } },
{ "type": "Feature", "properties": { "municipio": "Los Molinos", "clasificacion": "urbano-consolidado", "calificacion": "sin-asignar", "version": "vigente", "fuente": "SIT-CAM WFS — UsoDelSuelo:VPLA_V_CLASIFICACION (https://idem.comunidad.madrid/geosrvg/ows)", "fecha_dato": "2026-05-12", "ambito": "83415", "_raw_CD_SIGLAS": "SU", "_raw_DS_CLASIF_GEN": "Suelo Urbano", "_raw_DS_CLASIF_DET": null, "_raw_DS_DOCU": "NORMAS SUBSIDIARIAS", "_raw_DS_LEY": null, "_raw_FC_AC": "2013-04-03", "_raw_NM_AREA_M2": 187065.57975264301, "_cam_code": "087" }, "geometry": { "type": "Polygon", "coordinates": [ [ [ -4.0713, 40.7067 ], [ -4.0725, 40.709 ], [ -4.073, 40.7095 ], [ -4.0739, 40.7099 ], [ -4.0739, 40.7093 ], [ -4.0743, 40.7088 ], [ -4.0755, 40.7082 ], [ -4.0756, 40.708 ], [ -4.0769, 40.7071 ], [ -4.0767, 40.7065 ], [ -4.0754, 40.7067 ], [ -4.0747, 40.7072 ], [ -4.0742, 40.7069 ], [ -4.0743, 40.7067 ], [ -4.0742, 40.7066 ], [ -4.0704, 40.705 ], [ -4.071, 40.7043 ], [ -4.0711, 40.7041 ], [ -4.071, 40.704 ], [ -4.0711, 40.704 ], [ -4.0722, 40.7019 ], [ -4.0723, 40.7019 ], [ -4.0729, 40.7007 ], [ -4.073, 40.7007 ], [ -4.0734, 40.7 ], [ -4.0732, 40.7001 ], [ -4.0719, 40.7001 ], [ -4.0718, 40.7002 ], [ -4.069, 40.7051 ], [ -4.0694, 40.7052 ], [ -4.0705, 40.7059 ], [ -4.0713, 40.7067 ] ] ] } },
{ "type": "Feature", "properties": { "municipio": "Los Molinos", "clasificacion": "urbanizable-no-sectorizado", "calificacion": "sin-asignar", "version": "vigente", "fuente": "SIT-CAM WFS — UsoDelSuelo:VPLA_V_CLASIFICACION (https://idem.comunidad.madrid/geosrvg/ows)", "fecha_dato": "2026-05-12", "ambito": "608", "_raw_CD_SIGLAS": "SUBNS", "_raw_DS_CLASIF_GEN": "Suelo No Urbanizable Común", "_raw_DS_CLASIF_DET": "Rústico de Control", "_raw_DS_DOCU": "PLAN GENERAL", "_raw_DS_LEY": null, "_raw_FC_AC": "1969-01-29", "_raw_NM_AREA_M2": 599665.79011078901, "_cam_code": "087" }, "geometry": { "type": "Polygon", "coordinates": [ [ [ -4.0715, 40.7242 ], [ -4.0727, 40.7242 ], [ -4.075, 40.7226 ], [ -4.0757, 40.7208 ], [ -4.0757, 40.7194 ], [ -4.0755, 40.7184 ], [ -4.0749, 40.7182 ], [ -4.0732, 40.7171 ], [ -4.0716, 40.7168 ], [ -4.0706, 40.7163 ], [ -4.0697, 40.7166 ], [ -4.0691, 40.717 ], [ -4.0675, 40.7173 ], [ -4.0658, 40.7181 ], [ -4.0657, 40.7187 ], [ -4.0649, 40.7189 ], [ -4.0657, 40.7225 ], [ -4.0678, 40.7239 ], [ -4.068, 40.7238 ], [ -4.0688, 40.7239 ], [ -4.0694, 40.7237 ], [ -4.0699, 40.7237 ], [ -4.0705, 40.7239 ], [ -4.0708, 40.7242 ], [ -4.0715, 40.7242 ] ] ] } },
{ "type": "Feature", "properties": { "municipio": "Los Molinos", "clasificacion": "urbanizable-no-sectorizado", "calificacion": "sin-asignar", "version": "vigente", "fuente": "SIT-CAM WFS — UsoDelSuelo:VPLA_V_CLASIFICACION (https://idem.comunidad.madrid/geosrvg/ows)", "fecha_dato": "2026-05-12", "ambito": "83415", "_raw_CD_SIGLAS": "SUBNS", "_raw_DS_CLASIF_GEN": "Suelo No Urbanizable Común", "_raw_DS_CLASIF_DET": null, "_raw_DS_DOCU": "NORMAS SUBSIDIARIAS", "_raw_DS_LEY": null, "_raw_FC_AC": "2013-04-03", "_raw_NM_AREA_M2": 481927.17145696399, "_cam_code": "087" }, "geometry": { "type": "Polygon", "coordinates": [ [ [ -4.0811, 40.7285 ], [ -4.0787, 40.7295 ], [ -4.0791, 40.7298 ], [ -4.0821, 40.7281 ], [ -4.0828, 40.7275 ], [ -4.0835, 40.7264 ], [ -4.0837, 40.7258 ], [ -4.0837, 40.7248 ], [ -4.0835, 40.7241 ], [ -4.0829, 40.723 ], [ -4.0841, 40.7219 ], [ -4.0845, 40.7212 ], [ -4.0853, 40.7187 ], [ -4.0858, 40.7178 ], [ -4.0858, 40.7167 ], [ -4.0854, 40.7165 ], [ -4.0832, 40.7177 ], [ -4.0828, 40.7178 ], [ -4.0815, 40.7186 ], [ -4.0803, 40.719 ], [ -4.079, 40.7198 ], [ -4.0782, 40.7192 ], [ -4.0765, 40.7198 ], [ -4.0766, 40.72 ], [ -4.0778, 40.7209 ], [ -4.0777, 40.7212 ], [ -4.0783, 40.7226 ], [ -4.0785, 40.7228 ], [ -4.0784, 40.7232 ], [ -4.0788, 40.7236 ], [ -4.0787, 40.7236 ], [ -4.0796, 40.7239 ], [ -4.0797, 40.7243 ], [ -4.0796, 40.7247 ], [ -4.0798, 40.725 ], [ -4.0786, 40.7262 ], [ -4.0783, 40.7261 ], [ -4.0811, 40.7285 ] ], [ [ -4.0813, 40.7248 ], [ -4.0818, 40.7251 ], [ -4.0823, 40.7262 ], [ -4.0812, 40.7267 ], [ -4.0811, 40.7269 ], [ -4.0802, 40.725 ], [ -4.0806, 40.7247 ], [ -4.0813, 40.7248 ] ] ] } },
{ "type": "Feature", "properties": { "municipio": "Los Molinos", "clasificacion": "urbanizable-no-sectorizado", "calificacion": "sin-asignar", "version": "vigente", "fuente": "SIT-CAM WFS — UsoDelSuelo:VPLA_V_CLASIFICACION (https://idem.comunidad.madrid/geosrvg/ows)", "fecha_dato": "2026-05-12", "ambito": "83415", "_raw_CD_SIGLAS": "SUBNS", "_raw_DS_CLASIF_GEN": "Suelo No Urbanizable Común", "_raw_DS_CLASIF_DET": null, "_raw_DS_DOCU": "NORMAS SUBSIDIARIAS", "_raw_DS_LEY": null, "_raw_FC_AC": "2013-04-03", "_raw_NM_AREA_M2": 11718.5597180321, "_cam_code": "087" }, "geometry": { "type": "Polygon", "coordinates": [ [ [ -4.0752, 40.7223 ], [ -4.0761, 40.723 ], [ -4.0765, 40.7218 ], [ -4.0761, 40.7217 ], [ -4.0757, 40.7213 ], [ -4.0752, 40.7223 ] ] ] } },
{ "type": "Feature", "properties": { "municipio": "Los Molinos", "clasificacion": "urbanizable-no-sectorizado", "calificacion": "sin-asignar", "version": "vigente", "fuente": "SIT-CAM WFS — UsoDelSuelo:VPLA_V_CLASIFICACION (https://idem.comunidad.madrid/geosrvg/ows)", "fecha_dato": "2026-05-12", "ambito": "83415", "_raw_CD_SIGLAS": "SUBNS", "_raw_DS_CLASIF_GEN": "Suelo No Urbanizable Común", "_raw_DS_CLASIF_DET": null, "_raw_DS_DOCU": "NORMAS SUBSIDIARIAS", "_raw_DS_LEY": null, "_raw_FC_AC": "2013-04-03", "_raw_NM_AREA_M2": 270331.73659394903, "_cam_code": "087" }, "geometry": { "type": "Polygon", "coordinates": [ [ [ -4.0585, 40.7079 ], [ -4.058, 40.7104 ], [ -4.0573, 40.7119 ], [ -4.0574, 40.7135 ], [ -4.0572, 40.7146 ], [ -4.0591, 40.7149 ], [ -4.0598, 40.7153 ], [ -4.0605, 40.7144 ], [ -4.0609, 40.7132 ], [ -4.062, 40.711 ], [ -4.0627, 40.709 ], [ -4.0613, 40.7086 ], [ -4.06, 40.7096 ], [ -4.0597, 40.7091 ], [ -4.0612, 40.707 ], [ -4.0588, 40.7058 ], [ -4.0586, 40.7064 ], [ -4.0585, 40.7079 ] ] ] } },
{ "type": "Feature", "properties": { "municipio": "Los Molinos", "clasificacion": "urbanizable-no-sectorizado", "calificacion": "sin-asignar", "version": "vigente", "fuente": "SIT-CAM WFS — UsoDelSuelo:VPLA_V_CLASIFICACION (https://idem.comunidad.madrid/geosrvg/ows)", "fecha_dato": "2026-05-12", "ambito": "608", "_raw_CD_SIGLAS": "SUBNS", "_raw_DS_CLASIF_GEN": "Suelo No Urbanizable Común", "_raw_DS_CLASIF_DET": "Rústico de Control", "_raw_DS_DOCU": "PLAN GENERAL", "_raw_DS_LEY": null, "_raw_FC_AC": "1969-01-29", "_raw_NM_AREA_M2": 263474.114937648, "_cam_code": "087" }, "geometry": { "type": "Polygon", "coordinates": [ [ [ -4.0572, 40.7146 ], [ -4.0574, 40.7135 ], [ -4.0573, 40.7119 ], [ -4.058, 40.7104 ], [ -4.0585, 40.7079 ], [ -4.0587, 40.706 ], [ -4.0592, 40.7054 ], [ -4.0606, 40.7044 ], [ -4.0631, 40.703 ], [ -4.063, 40.7026 ], [ -4.0619, 40.702 ], [ -4.0609, 40.7018 ], [ -4.0602, 40.7033 ], [ -4.0586, 40.7049 ], [ -4.0566, 40.7073 ], [ -4.0562, 40.7082 ], [ -4.056, 40.71 ], [ -4.0562, 40.7111 ], [ -4.0548, 40.7125 ], [ -4.0543, 40.7132 ], [ -4.0504, 40.7146 ], [ -4.0572, 40.7146 ] ] ] } },
{ "type": "Feature", "properties": { "municipio": "Los Molinos", "clasificacion": "urbanizable-no-sectorizado", "calificacion": "sin-asignar", "version": "vigente", "fuente": "SIT-CAM WFS — UsoDelSuelo:VPLA_V_CLASIFICACION (https://idem.comunidad.madrid/geosrvg/ows)", "fecha_dato": "2026-05-12", "ambito": "608", "_raw_CD_SIGLAS": "SUBNS", "_raw_DS_CLASIF_GEN": "Suelo No Urbanizable Común", "_raw_DS_CLASIF_DET": "Rústico de Control", "_raw_DS_DOCU": "PLAN GENERAL", "_raw_DS_LEY": null, "_raw_FC_AC": "1969-01-29", "_raw_NM_AREA_M2": 66437.536497233305, "_cam_code": "087" }, "geometry": { "type": "Polygon", "coordinates": [ [ [ -4.0624, 40.7006 ], [ -4.064, 40.7022 ], [ -4.0661, 40.701 ], [ -4.0674, 40.7005 ], [ -4.0691, 40.7006 ], [ -4.0712, 40.7012 ], [ -4.0718, 40.7001 ], [ -4.0702, 40.7001 ], [ -4.0624, 40.7006 ] ] ] } },
{ "type": "Feature", "properties": { "municipio": "Los Molinos", "clasificacion": "urbanizable-no-sectorizado", "calificacion": "sin-asignar", "version": "vigente", "fuente": "SIT-CAM WFS — UsoDelSuelo:VPLA_V_CLASIFICACION (https://idem.comunidad.madrid/geosrvg/ows)", "fecha_dato": "2026-05-12", "ambito": "83415", "_raw_CD_SIGLAS": "SUBNS", "_raw_DS_CLASIF_GEN": "Suelo No Urbanizable Común", "_raw_DS_CLASIF_DET": null, "_raw_DS_DOCU": "NORMAS SUBSIDIARIAS", "_raw_DS_LEY": null, "_raw_FC_AC": "2013-04-03", "_raw_NM_AREA_M2": 429442.199816946, "_cam_code": "087" }, "geometry": { "type": "Polygon", "coordinates": [ [ [ -4.084, 40.7105 ], [ -4.086, 40.7136 ], [ -4.0864, 40.7138 ], [ -4.0865, 40.7141 ], [ -4.0867, 40.7139 ], [ -4.0865, 40.7137 ], [ -4.0864, 40.7129 ], [ -4.0868, 40.7129 ], [ -4.087, 40.7122 ], [ -4.087, 40.712 ], [ -4.0869, 40.712 ], [ -4.0869, 40.7102 ], [ -4.0875, 40.7099 ], [ -4.0887, 40.7097 ], [ -4.0892, 40.7099 ], [ -4.0903, 40.7107 ], [ -4.0905, 40.711 ], [ -4.0907, 40.711 ], [ -4.094, 40.7092 ], [ -4.0953, 40.7077 ], [ -4.0956, 40.707 ], [ -4.0947, 40.7075 ], [ -4.0937, 40.7073 ], [ -4.0937, 40.7072 ], [ -4.0933, 40.7071 ], [ -4.0933, 40.707 ], [ -4.0929, 40.7069 ], [ -4.0921, 40.7064 ], [ -4.0916, 40.7057 ], [ -4.0879, 40.7033 ], [ -4.0877, 40.7034 ], [ -4.0876, 40.7039 ], [ -4.0879, 40.7049 ], [ -4.0867, 40.7062 ], [ -4.0861, 40.7066 ], [ -4.0866, 40.7078 ], [ -4.0869, 40.708 ], [ -4.0855, 40.7089 ], [ -4.084, 40.7105 ] ] ] } },
{ "type": "Feature", "properties": { "municipio": "Los Molinos", "clasificacion": "urbanizable-no-sectorizado", "calificacion": "sin-asignar", "version": "vigente", "fuente": "SIT-CAM WFS — UsoDelSuelo:VPLA_V_CLASIFICACION (https://idem.comunidad.madrid/geosrvg/ows)", "fecha_dato": "2026-05-12", "ambito": "83415", "_raw_CD_SIGLAS": "SUBNS", "_raw_DS_CLASIF_GEN": "Suelo No Urbanizable Común", "_raw_DS_CLASIF_DET": null, "_raw_DS_DOCU": "NORMAS SUBSIDIARIAS", "_raw_DS_LEY": null, "_raw_FC_AC": "2013-04-03", "_raw_NM_AREA_M2": 56935.519145111699, "_cam_code": "087" }, "geometry": { "type": "Polygon", "coordinates": [ [ [ -4.0639, 40.7049 ], [ -4.065, 40.7063 ], [ -4.0653, 40.7058 ], [ -4.0653, 40.7054 ], [ -4.0651, 40.705 ], [ -4.0636, 40.7033 ], [ -4.0631, 40.703 ], [ -4.0605, 40.7045 ], [ -4.0611, 40.7044 ], [ -4.0616, 40.7046 ], [ -4.0622, 40.7049 ], [ -4.0626, 40.7054 ], [ -4.0639, 40.7049 ] ] ] } },
{ "type": "Feature", "properties": { "municipio": "Los Molinos", "clasificacion": "urbanizable-no-sectorizado", "calificacion": "sin-asignar", "version": "vigente", "fuente": "SIT-CAM WFS — UsoDelSuelo:VPLA_V_CLASIFICACION (https://idem.comunidad.madrid/geosrvg/ows)", "fecha_dato": "2026-05-12", "ambito": "83415", "_raw_CD_SIGLAS": "SUBNS", "_raw_DS_CLASIF_GEN": "Suelo No Urbanizable Común", "_raw_DS_CLASIF_DET": null, "_raw_DS_DOCU": "NORMAS SUBSIDIARIAS", "_raw_DS_LEY": null, "_raw_FC_AC": "2013-04-03", "_raw_NM_AREA_M2": 149252.87073080899, "_cam_code": "087" }, "geometry": { "type": "Polygon", "coordinates": [ [ [ -4.0749, 40.7032 ], [ -4.0758, 40.7041 ], [ -4.0762, 40.7037 ], [ -4.0761, 40.7036 ], [ -4.0766, 40.7033 ], [ -4.0768, 40.703 ], [ -4.077, 40.703 ], [ -4.0769, 40.7033 ], [ -4.077, 40.7041 ], [ -4.0773, 40.704 ], [ -4.0775, 40.7034 ], [ -4.0773, 40.7019 ], [ -4.077, 40.701 ], [ -4.0768, 40.7009 ], [ -4.0764, 40.6999 ], [ -4.0763, 40.6986 ], [ -4.0734, 40.7 ], [ -4.0723, 40.7018 ], [ -4.0749, 40.7032 ] ] ] } },
{ "type": "Feature", "properties": { "municipio": "Los Molinos", "clasificacion": "urbanizable-sectorizado", "calificacion": "sin-asignar", "version": "vigente", "fuente": "SIT-CAM WFS — UsoDelSuelo:VPLA_V_CLASIFICACION (https://idem.comunidad.madrid/geosrvg/ows)", "fecha_dato": "2026-05-12", "ambito": "83415", "_raw_CD_SIGLAS": "SUBS", "_raw_DS_CLASIF_GEN": "Suelo Apto Para Urbanizar", "_raw_DS_CLASIF_DET": null, "_raw_DS_DOCU": "NORMAS SUBSIDIARIAS", "_raw_DS_LEY": null, "_raw_FC_AC": "2013-04-03", "_raw_NM_AREA_M2": 130937.350818443, "_cam_code": "087" }, "geometry": { "type": "Polygon", "coordinates": [ [ [ -4.0775, 40.7273 ], [ -4.0778, 40.7274 ], [ -4.0786, 40.7282 ], [ -4.0786, 40.7284 ], [ -4.0787, 40.7284 ], [ -4.0786, 40.7294 ], [ -4.0787, 40.7295 ], [ -4.0811, 40.7285 ], [ -4.0776, 40.7255 ], [ -4.0774, 40.7252 ], [ -4.0772, 40.7251 ], [ -4.077, 40.7252 ], [ -4.0759, 40.7245 ], [ -4.0753, 40.725 ], [ -4.0747, 40.7243 ], [ -4.0744, 40.7243 ], [ -4.0738, 40.726 ], [ -4.0743, 40.7262 ], [ -4.0761, 40.7277 ], [ -4.0765, 40.7275 ], [ -4.0775, 40.7273 ] ] ] } },
{ "type": "Feature", "properties": { "municipio": "Los Molinos", "clasificacion": "urbanizable-sectorizado", "calificacion": "sin-asignar", "version": "vigente", "fuente": "SIT-CAM WFS — UsoDelSuelo:VPLA_V_CLASIFICACION (https://idem.comunidad.madrid/geosrvg/ows)", "fecha_dato": "2026-05-12", "ambito": "83415", "_raw_CD_SIGLAS": "SUBS", "_raw_DS_CLASIF_GEN": "Suelo Apto Para Urbanizar", "_raw_DS_CLASIF_DET": null, "_raw_DS_DOCU": "NORMAS SUBSIDIARIAS", "_raw_DS_LEY": null, "_raw_FC_AC": "2013-04-03", "_raw_NM_AREA_M2": 225204.68597127599, "_cam_code": "087" }, "geometry": { "type": "Polygon", "coordinates": [ [ [ -4.0808, 40.7073 ], [ -4.0822, 40.7078 ], [ -4.0823, 40.7079 ], [ -4.0821, 40.709 ], [ -4.0834, 40.7102 ], [ -4.084, 40.7105 ], [ -4.0855, 40.7089 ], [ -4.0869, 40.708 ], [ -4.0866, 40.7078 ], [ -4.0861, 40.7066 ], [ -4.0845, 40.7071 ], [ -4.0841, 40.7063 ], [ -4.0837, 40.7064 ], [ -4.0836, 40.7061 ], [ -4.0839, 40.706 ], [ -4.0834, 40.7049 ], [ -4.0847, 40.7045 ], [ -4.0836, 40.7032 ], [ -4.0831, 40.7023 ], [ -4.0827, 40.7028 ], [ -4.0826, 40.7027 ], [ -4.082, 40.7028 ], [ -4.0807, 40.7055 ], [ -4.0804, 40.7069 ], [ -4.0808, 40.7073 ] ] ] } },
{ "type": "Feature", "properties": { "municipio": "Los Molinos", "clasificacion": "urbanizable-sectorizado", "calificacion": "sin-asignar", "version": "vigente", "fuente": "SIT-CAM WFS — UsoDelSuelo:VPLA_V_CLASIFICACION (https://idem.comunidad.madrid/geosrvg/ows)", "fecha_dato": "2026-05-12", "ambito": "83415", "_raw_CD_SIGLAS": "SUBS", "_raw_DS_CLASIF_GEN": "Suelo Apto Para Urbanizar", "_raw_DS_CLASIF_DET": null, "_raw_DS_DOCU": "NORMAS SUBSIDIARIAS", "_raw_DS_LEY": null, "_raw_FC_AC": "2013-04-03", "_raw_NM_AREA_M2": 183821.45650801799, "_cam_code": "087" }, "geometry": { "type": "Polygon", "coordinates": [ [ [ -4.0723, 40.7018 ], [ -4.0722, 40.7019 ], [ -4.0711, 40.704 ], [ -4.071, 40.704 ], [ -4.0711, 40.7041 ], [ -4.071, 40.7043 ], [ -4.0704, 40.705 ], [ -4.0742, 40.7066 ], [ -4.0743, 40.7067 ], [ -4.0742, 40.7069 ], [ -4.0747, 40.7072 ], [ -4.0754, 40.7067 ], [ -4.0767, 40.7065 ], [ -4.0773, 40.7044 ], [ -4.0766, 40.7044 ], [ -4.076, 40.7042 ], [ -4.0755, 40.7039 ], [ -4.0749, 40.7032 ], [ -4.0743, 40.7028 ], [ -4.073, 40.7021 ], [ -4.0723, 40.7018 ] ] ] } }
]
}
