{
"type": "FeatureCollection",
"name": "vigente.full",
"features": [
{ "type": "Feature", "properties": { "municipio": "Orusco de Tajuña", "clasificacion": "no-urbanizable-protegido", "calificacion": "sin-asignar", "version": "vigente", "fuente": "SIT-CAM WFS — UsoDelSuelo:VPLA_V_CLASIFICACION (https://idem.comunidad.madrid/geosrvg/ows)", "fecha_dato": "2026-05-12", "ambito": "31841", "_raw_CD_SIGLAS": "SNUP", "_raw_DS_CLASIF_GEN": "Suelo No Urbanizable Protegido", "_raw_DS_CLASIF_DET": "Suelo No Urbanizable de Especial Protección por su Interés Forestal y por su Interés Arqueológico", "_raw_DS_DOCU": "NORMAS SUBSIDIARIAS", "_raw_DS_LEY": "CM Ley 9/1995, E RDL 1/1992", "_raw_FC_AC": "1996-12-23", "_raw_NM_AREA_M2": 246154.44979905599, "_cam_code": "102" }, "geometry": { "type": "Polygon", "coordinates": [ [ [ -3.2069, 40.2955 ], [ -3.2066, 40.2958 ], [ -3.2067, 40.2969 ], [ -3.2065, 40.2979 ], [ -3.2062, 40.2982 ], [ -3.2059, 40.2988 ], [ -3.206, 40.2993 ], [ -3.2056, 40.3001 ], [ -3.2051, 40.3006 ], [ -3.2047, 40.3006 ], [ -3.2037, 40.3009 ], [ -3.2035, 40.3012 ], [ -3.2037, 40.3016 ], [ -3.2037, 40.3021 ], [ -3.2039, 40.3026 ], [ -3.2033, 40.3039 ], [ -3.2035, 40.3047 ], [ -3.2112, 40.2973 ], [ -3.2109, 40.2972 ], [ -3.2103, 40.2966 ], [ -3.2099, 40.2956 ], [ -3.2091, 40.2953 ], [ -3.2084, 40.2955 ], [ -3.2069, 40.2955 ] ] ] } },
{ "type": "Feature", "properties": { "municipio": "Orusco de Tajuña", "clasificacion": "no-urbanizable-protegido", "calificacion": "sin-asignar", "version": "vigente", "fuente": "SIT-CAM WFS — UsoDelSuelo:VPLA_V_CLASIFICACION (https://idem.comunidad.madrid/geosrvg/ows)", "fecha_dato": "2026-05-12", "ambito": "31841", "_raw_CD_SIGLAS": "SNUP", "_raw_DS_CLASIF_GEN": "Suelo No Urbanizable Protegido", "_raw_DS_CLASIF_DET": "Suelo No Urbanizable de Especial Protección por su Interés Agrícola (Regadío-Vega) y por su Interés Arqueológico", "_raw_DS_DOCU": "NORMAS SUBSIDIARIAS", "_raw_DS_LEY": "CM Ley 9/1995, E RDL 1/1992", "_raw_FC_AC": "1996-12-23", "_raw_NM_AREA_M2": 1928599.33486098, "_cam_code": "102" }, "geometry": { "type": "Polygon", "coordinates": [ [ [ -3.1969, 40.2875 ], [ -3.199, 40.2878 ], [ -3.1995, 40.2882 ], [ -3.1987, 40.2894 ], [ -3.1974, 40.2934 ], [ -3.1968, 40.294 ], [ -3.1951, 40.2945 ], [ -3.1944, 40.2953 ], [ -3.1942, 40.2959 ], [ -3.1942, 40.2965 ], [ -3.1945, 40.2979 ], [ -3.1942, 40.2986 ], [ -3.1931, 40.2996 ], [ -3.1928, 40.3001 ], [ -3.1927, 40.3023 ], [ -3.1926, 40.3023 ], [ -3.1926, 40.3025 ], [ -3.1919, 40.3039 ], [ -3.1917, 40.3048 ], [ -3.1929, 40.3048 ], [ -3.195, 40.3051 ], [ -3.1952, 40.305 ], [ -3.1957, 40.3041 ], [ -3.1964, 40.3003 ], [ -3.1969, 40.2991 ], [ -3.1969, 40.2988 ], [ -3.197, 40.2988 ], [ -3.197, 40.2982 ], [ -3.1968, 40.2976 ], [ -3.197, 40.2964 ], [ -3.1973, 40.296 ], [ -3.1992, 40.2951 ], [ -3.2002, 40.2943 ], [ -3.2015, 40.2935 ], [ -3.2035, 40.2908 ], [ -3.2038, 40.2902 ], [ -3.2039, 40.2902 ], [ -3.2039, 40.2898 ], [ -3.2033, 40.289 ], [ -3.2025, 40.2876 ], [ -3.2025, 40.2874 ], [ -3.2024, 40.2874 ], [ -3.2024, 40.286 ], [ -3.2023, 40.2858 ], [ -3.2025, 40.2853 ], [ -3.204, 40.2843 ], [ -3.2047, 40.284 ], [ -3.2047, 40.2839 ], [ -3.208, 40.2823 ], [ -3.2082, 40.2821 ], [ -3.2088, 40.2819 ], [ -3.2088, 40.2818 ], [ -3.2094, 40.2815 ], [ -3.2096, 40.2815 ], [ -3.2096, 40.2814 ], [ -3.2104, 40.2811 ], [ -3.2104, 40.281 ], [ -3.2126, 40.2805 ], [ -3.2133, 40.2801 ], [ -3.2146, 40.2782 ], [ -3.217, 40.2765 ], [ -3.2199, 40.274 ], [ -3.2188, 40.2731 ], [ -3.2165, 40.2718 ], [ -3.2155, 40.2729 ], [ -3.215, 40.2741 ], [ -3.2125, 40.2761 ], [ -3.2122, 40.2765 ], [ -3.2118, 40.2766 ], [ -3.2115, 40.2769 ], [ -3.2113, 40.277 ], [ -3.211, 40.2767 ], [ -3.2106, 40.2767 ], [ -3.2106, 40.2769 ], [ -3.2104, 40.2771 ], [ -3.209, 40.278 ], [ -3.209, 40.2777 ], [ -3.2088, 40.2775 ], [ -3.2086, 40.2777 ], [ -3.2081, 40.2778 ], [ -3.2074, 40.2775 ], [ -3.2072, 40.2776 ], [ -3.2072, 40.2779 ], [ -3.207, 40.2782 ], [ -3.2065, 40.2782 ], [ -3.2063, 40.2779 ], [ -3.2061, 40.2779 ], [ -3.2057, 40.278 ], [ -3.2051, 40.2785 ], [ -3.2044, 40.2783 ], [ -3.2044, 40.2784 ], [ -3.2037, 40.2785 ], [ -3.2033, 40.2783 ], [ -3.2026, 40.2774 ], [ -3.2023, 40.2773 ], [ -3.2019, 40.2774 ], [ -3.2017, 40.2772 ], [ -3.2008, 40.2772 ], [ -3.2006, 40.2771 ], [ -3.2001, 40.2765 ], [ -3.2002, 40.276 ], [ -3.1998, 40.2752 ], [ -3.199, 40.275 ], [ -3.1987, 40.2748 ], [ -3.1972, 40.2733 ], [ -3.1972, 40.2727 ], [ -3.1973, 40.2727 ], [ -3.1974, 40.2724 ], [ -3.1973, 40.2715 ], [ -3.1971, 40.2712 ], [ -3.1968, 40.2711 ], [ -3.1957, 40.27 ], [ -3.1946, 40.2693 ], [ -3.194, 40.2681 ], [ -3.1939, 40.2681 ], [ -3.1935, 40.2674 ], [ -3.1929, 40.2667 ], [ -3.1923, 40.2664 ], [ -3.1921, 40.2654 ], [ -3.1919, 40.2651 ], [ -3.1911, 40.2647 ], [ -3.1911, 40.2646 ], [ -3.1909, 40.2646 ], [ -3.1909, 40.2645 ], [ -3.1889, 40.264 ], [ -3.1879, 40.2652 ], [ -3.1893, 40.2656 ], [ -3.1897, 40.2659 ], [ -3.1899, 40.2662 ], [ -3.19, 40.2669 ], [ -3.1902, 40.2673 ], [ -3.1916, 40.2685 ], [ -3.1927, 40.2691 ], [ -3.1929, 40.27 ], [ -3.1935, 40.2706 ], [ -3.1939, 40.2708 ], [ -3.1945, 40.2707 ], [ -3.1948, 40.2708 ], [ -3.1953, 40.2711 ], [ -3.1959, 40.2718 ], [ -3.1962, 40.2719 ], [ -3.1962, 40.2722 ], [ -3.196, 40.2724 ], [ -3.1961, 40.2729 ], [ -3.1953, 40.273 ], [ -3.1957, 40.2734 ], [ -3.1957, 40.2738 ], [ -3.1959, 40.2741 ], [ -3.1959, 40.2746 ], [ -3.1965, 40.275 ], [ -3.1965, 40.2752 ], [ -3.1979, 40.2758 ], [ -3.1982, 40.2761 ], [ -3.1985, 40.2767 ], [ -3.198, 40.2777 ], [ -3.1986, 40.2785 ], [ -3.1989, 40.2787 ], [ -3.1997, 40.2787 ], [ -3.2, 40.279 ], [ -3.2005, 40.2802 ], [ -3.2017, 40.2807 ], [ -3.2019, 40.2809 ], [ -3.2019, 40.2813 ], [ -3.2017, 40.2814 ], [ -3.2012, 40.2821 ], [ -3.2005, 40.2825 ], [ -3.1996, 40.2842 ], [ -3.1995, 40.2847 ], [ -3.1997, 40.2854 ], [ -3.1995, 40.2857 ], [ -3.1995, 40.2863 ], [ -3.1997, 40.2868 ], [ -3.1993, 40.287 ], [ -3.1986, 40.287 ], [ -3.1979, 40.2867 ], [ -3.1968, 40.2869 ], [ -3.1958, 40.2869 ], [ -3.1948, 40.2871 ], [ -3.1945, 40.2875 ], [ -3.1926, 40.2881 ], [ -3.1922, 40.2882 ], [ -3.1914, 40.2881 ], [ -3.1914, 40.2882 ], [ -3.192, 40.2885 ], [ -3.1932, 40.2887 ], [ -3.1933, 40.2888 ], [ -3.1932, 40.2892 ], [ -3.1933, 40.2893 ], [ -3.1938, 40.2892 ], [ -3.194, 40.289 ], [ -3.1935, 40.2885 ], [ -3.194, 40.2884 ], [ -3.1954, 40.2876 ], [ -3.1969, 40.2875 ] ] ] } },
{ "type": "Feature", "properties": { "municipio": "Orusco de Tajuña", "clasificacion": "no-urbanizable-protegido", "calificacion": "sin-asignar", "version": "vigente", "fuente": "SIT-CAM WFS — UsoDelSuelo:VPLA_V_CLASIFICACION (https://idem.comunidad.madrid/geosrvg/ows)", "fecha_dato": "2026-05-12", "ambito": "31841", "_raw_CD_SIGLAS": "SNUP", "_raw_DS_CLASIF_GEN": "Suelo No Urbanizable Protegido", "_raw_DS_CLASIF_DET": "Suelo No Urbanizable de Especial Protección por su Interés Agrícola (Secano-Olivar)", "_raw_DS_DOCU": "NORMAS SUBSIDIARIAS", "_raw_DS_LEY": "CM Ley 9/1995, E RDL 1/1992", "_raw_FC_AC": "1996-12-23", "_raw_NM_AREA_M2": 3896039.1946874601, "_cam_code": "102" }, "geometry": { "type": "Polygon", "coordinates": [ [ [ -3.2288, 40.3101 ], [ -3.2294, 40.3105 ], [ -3.2296, 40.3113 ], [ -3.23, 40.3114 ], [ -3.2303, 40.3118 ], [ -3.2302, 40.3121 ], [ -3.2285, 40.3125 ], [ -3.2279, 40.313 ], [ -3.2281, 40.3137 ], [ -3.2324, 40.3123 ], [ -3.2357, 40.3116 ], [ -3.2404, 40.3101 ], [ -3.2501, 40.3061 ], [ -3.2521, 40.3035 ], [ -3.2514, 40.3018 ], [ -3.2508, 40.3011 ], [ -3.2452, 40.296 ], [ -3.2385, 40.2922 ], [ -3.2368, 40.2911 ], [ -3.234, 40.2891 ], [ -3.2314, 40.287 ], [ -3.2298, 40.285 ], [ -3.2293, 40.285 ], [ -3.2292, 40.2849 ], [ -3.2288, 40.285 ], [ -3.2288, 40.2846 ], [ -3.2286, 40.2846 ], [ -3.2286, 40.2847 ], [ -3.2284, 40.2847 ], [ -3.2282, 40.2849 ], [ -3.2279, 40.2849 ], [ -3.2278, 40.2851 ], [ -3.2272, 40.2852 ], [ -3.2272, 40.2855 ], [ -3.2271, 40.2855 ], [ -3.2272, 40.2858 ], [ -3.2264, 40.2862 ], [ -3.2261, 40.2858 ], [ -3.2259, 40.2857 ], [ -3.2255, 40.2858 ], [ -3.2252, 40.2855 ], [ -3.2249, 40.2854 ], [ -3.224, 40.2855 ], [ -3.2238, 40.286 ], [ -3.2237, 40.286 ], [ -3.2238, 40.2863 ], [ -3.2236, 40.2865 ], [ -3.2236, 40.2868 ], [ -3.2238, 40.287 ], [ -3.2243, 40.287 ], [ -3.2246, 40.2873 ], [ -3.2254, 40.2873 ], [ -3.2255, 40.2878 ], [ -3.2249, 40.2879 ], [ -3.2249, 40.288 ], [ -3.2246, 40.2877 ], [ -3.2243, 40.2877 ], [ -3.2242, 40.2879 ], [ -3.224, 40.2879 ], [ -3.2237, 40.2882 ], [ -3.2237, 40.2884 ], [ -3.2238, 40.2884 ], [ -3.2237, 40.2886 ], [ -3.2239, 40.2887 ], [ -3.224, 40.289 ], [ -3.2238, 40.2888 ], [ -3.2236, 40.2888 ], [ -3.2236, 40.2889 ], [ -3.2233, 40.2888 ], [ -3.2233, 40.2889 ], [ -3.2244, 40.2896 ], [ -3.2247, 40.29 ], [ -3.2252, 40.2903 ], [ -3.2253, 40.2907 ], [ -3.2256, 40.2907 ], [ -3.2258, 40.2909 ], [ -3.226, 40.2909 ], [ -3.2265, 40.2915 ], [ -3.2282, 40.292 ], [ -3.2274, 40.2924 ], [ -3.2271, 40.2928 ], [ -3.2269, 40.2928 ], [ -3.2275, 40.2934 ], [ -3.2275, 40.2936 ], [ -3.2277, 40.2938 ], [ -3.2279, 40.2939 ], [ -3.2283, 40.2935 ], [ -3.2291, 40.2935 ], [ -3.2291, 40.2934 ], [ -3.2292, 40.2936 ], [ -3.2297, 40.2937 ], [ -3.2296, 40.294 ], [ -3.2298, 40.294 ], [ -3.2298, 40.2942 ], [ -3.2301, 40.2941 ], [ -3.2303, 40.2943 ], [ -3.231, 40.2942 ], [ -3.231, 40.2948 ], [ -3.2307, 40.2957 ], [ -3.2305, 40.2958 ], [ -3.2301, 40.2966 ], [ -3.2297, 40.2969 ], [ -3.229, 40.2979 ], [ -3.2301, 40.298 ], [ -3.2301, 40.2981 ], [ -3.2305, 40.2982 ], [ -3.2311, 40.2987 ], [ -3.2311, 40.299 ], [ -3.2313, 40.2992 ], [ -3.2321, 40.2995 ], [ -3.2321, 40.2996 ], [ -3.2324, 40.2996 ], [ -3.2324, 40.2997 ], [ -3.2332, 40.2998 ], [ -3.2326, 40.3003 ], [ -3.2326, 40.3005 ], [ -3.2322, 40.301 ], [ -3.2312, 40.3009 ], [ -3.231, 40.3011 ], [ -3.2303, 40.3013 ], [ -3.2301, 40.3021 ], [ -3.2301, 40.3028 ], [ -3.2304, 40.3029 ], [ -3.2305, 40.3033 ], [ -3.2292, 40.3046 ], [ -3.2264, 40.3062 ], [ -3.2258, 40.3057 ], [ -3.2253, 40.3056 ], [ -3.2231, 40.3067 ], [ -3.2233, 40.3073 ], [ -3.2238, 40.3074 ], [ -3.224, 40.3076 ], [ -3.2233, 40.3081 ], [ -3.2245, 40.3093 ], [ -3.2246, 40.3098 ], [ -3.2253, 40.3107 ], [ -3.2241, 40.3113 ], [ -3.2247, 40.312 ], [ -3.2274, 40.3108 ], [ -3.2273, 40.3104 ], [ -3.2288, 40.3101 ] ] ] } },
{ "type": "Feature", "properties": { "municipio": "Orusco de Tajuña", "clasificacion": "no-urbanizable-protegido", "calificacion": "sin-asignar", "version": "vigente", "fuente": "SIT-CAM WFS — UsoDelSuelo:VPLA_V_CLASIFICACION (https://idem.comunidad.madrid/geosrvg/ows)", "fecha_dato": "2026-05-12", "ambito": "31841", "_raw_CD_SIGLAS": "SNUP", "_raw_DS_CLASIF_GEN": "Suelo No Urbanizable Protegido", "_raw_DS_CLASIF_DET": "Suelo No Urbanizable de Especial Protección por su Interés Ecológico-Paisajístico", "_raw_DS_DOCU": "NORMAS SUBSIDIARIAS", "_raw_DS_LEY": "CM Ley 9/1995, E RDL 1/1992", "_raw_FC_AC": "1996-12-23", "_raw_NM_AREA_M2": 427674.79832348, "_cam_code": "102" }, "geometry": { "type": "Polygon", "coordinates": [ [ [ -3.2128, 40.2841 ], [ -3.2126, 40.2841 ], [ -3.2134, 40.2844 ], [ -3.2138, 40.2841 ], [ -3.2141, 40.284 ], [ -3.2145, 40.2841 ], [ -3.2154, 40.2837 ], [ -3.2138, 40.2818 ], [ -3.2239, 40.278 ], [ -3.2227, 40.2763 ], [ -3.2199, 40.2741 ], [ -3.217, 40.2765 ], [ -3.2146, 40.2782 ], [ -3.2133, 40.2801 ], [ -3.2126, 40.2805 ], [ -3.2111, 40.2808 ], [ -3.2103, 40.2811 ], [ -3.2112, 40.2816 ], [ -3.2106, 40.2816 ], [ -3.2107, 40.2817 ], [ -3.2107, 40.2818 ], [ -3.2107, 40.2818 ], [ -3.2107, 40.282 ], [ -3.2107, 40.2822 ], [ -3.2107, 40.2822 ], [ -3.2107, 40.2822 ], [ -3.2107, 40.2821 ], [ -3.2107, 40.2821 ], [ -3.2107, 40.2821 ], [ -3.2109, 40.2823 ], [ -3.2111, 40.2821 ], [ -3.2113, 40.2821 ], [ -3.2113, 40.282 ], [ -3.212, 40.2823 ], [ -3.2122, 40.282 ], [ -3.2121, 40.2818 ], [ -3.2125, 40.2817 ], [ -3.2126, 40.2819 ], [ -3.2134, 40.2825 ], [ -3.2133, 40.2832 ], [ -3.2136, 40.2834 ], [ -3.2128, 40.2839 ], [ -3.2129, 40.2839 ], [ -3.2128, 40.2841 ] ] ] } },
{ "type": "Feature", "properties": { "municipio": "Orusco de Tajuña", "clasificacion": "no-urbanizable-protegido", "calificacion": "sin-asignar", "version": "vigente", "fuente": "SIT-CAM WFS — UsoDelSuelo:VPLA_V_CLASIFICACION (https://idem.comunidad.madrid/geosrvg/ows)", "fecha_dato": "2026-05-12", "ambito": "31841", "_raw_CD_SIGLAS": "SNUP", "_raw_DS_CLASIF_GEN": "Suelo No Urbanizable Protegido", "_raw_DS_CLASIF_DET": "Suelo No Urbanizable de Especial Protección por su Interés Ecológico-Paisajístico", "_raw_DS_DOCU": "NORMAS SUBSIDIARIAS", "_raw_DS_LEY": "CM Ley 9/1995, E RDL 1/1992", "_raw_FC_AC": "1996-12-23", "_raw_NM_AREA_M2": 835378.51854196098, "_cam_code": "102" }, "geometry": { "type": "Polygon", "coordinates": [ [ [ -3.2041, 40.2895 ], [ -3.2115, 40.2969 ], [ -3.2112, 40.2973 ], [ -3.2112, 40.2977 ], [ -3.2115, 40.2983 ], [ -3.2119, 40.2983 ], [ -3.2117, 40.298 ], [ -3.212, 40.2974 ], [ -3.212, 40.2971 ], [ -3.2135, 40.2948 ], [ -3.2134, 40.2944 ], [ -3.2135, 40.2936 ], [ -3.2138, 40.2926 ], [ -3.2147, 40.2925 ], [ -3.2157, 40.2927 ], [ -3.2163, 40.2932 ], [ -3.217, 40.2935 ], [ -3.2173, 40.2935 ], [ -3.2172, 40.293 ], [ -3.2173, 40.2928 ], [ -3.2183, 40.293 ], [ -3.2187, 40.2937 ], [ -3.2194, 40.2939 ], [ -3.2202, 40.2939 ], [ -3.2202, 40.2943 ], [ -3.2205, 40.2945 ], [ -3.2211, 40.2945 ], [ -3.2211, 40.2938 ], [ -3.2208, 40.2932 ], [ -3.2208, 40.2928 ], [ -3.221, 40.2923 ], [ -3.2208, 40.2919 ], [ -3.22, 40.2911 ], [ -3.2199, 40.2908 ], [ -3.2201, 40.2901 ], [ -3.2204, 40.2898 ], [ -3.2194, 40.2902 ], [ -3.2187, 40.2902 ], [ -3.2187, 40.2889 ], [ -3.2191, 40.2857 ], [ -3.219, 40.2853 ], [ -3.2163, 40.2857 ], [ -3.2154, 40.2855 ], [ -3.2151, 40.2853 ], [ -3.2146, 40.2855 ], [ -3.2145, 40.2859 ], [ -3.2151, 40.2864 ], [ -3.2163, 40.2863 ], [ -3.216, 40.2868 ], [ -3.2161, 40.287 ], [ -3.2159, 40.2871 ], [ -3.2157, 40.2878 ], [ -3.2168, 40.2881 ], [ -3.2151, 40.2897 ], [ -3.2154, 40.2908 ], [ -3.2158, 40.2909 ], [ -3.2158, 40.2906 ], [ -3.216, 40.2902 ], [ -3.2169, 40.2905 ], [ -3.2178, 40.2905 ], [ -3.218, 40.2906 ], [ -3.2167, 40.2917 ], [ -3.2155, 40.2913 ], [ -3.2152, 40.2908 ], [ -3.2151, 40.2908 ], [ -3.2153, 40.2912 ], [ -3.2146, 40.2911 ], [ -3.2146, 40.2908 ], [ -3.214, 40.2907 ], [ -3.2133, 40.2904 ], [ -3.2127, 40.2898 ], [ -3.2128, 40.2895 ], [ -3.2122, 40.2885 ], [ -3.2118, 40.2881 ], [ -3.2119, 40.288 ], [ -3.2109, 40.2874 ], [ -3.211, 40.2875 ], [ -3.2109, 40.2884 ], [ -3.2107, 40.2886 ], [ -3.2103, 40.2887 ], [ -3.2088, 40.2884 ], [ -3.2077, 40.288 ], [ -3.2067, 40.288 ], [ -3.2057, 40.2876 ], [ -3.2052, 40.2872 ], [ -3.2047, 40.2871 ], [ -3.2048, 40.2868 ], [ -3.2041, 40.2866 ], [ -3.2033, 40.2866 ], [ -3.2034, 40.2884 ], [ -3.2041, 40.2895 ] ] ] } },
{ "type": "Feature", "properties": { "municipio": "Orusco de Tajuña", "clasificacion": "no-urbanizable-protegido", "calificacion": "sin-asignar", "version": "vigente", "fuente": "SIT-CAM WFS — UsoDelSuelo:VPLA_V_CLASIFICACION (https://idem.comunidad.madrid/geosrvg/ows)", "fecha_dato": "2026-05-12", "ambito": "31841", "_raw_CD_SIGLAS": "SNUP", "_raw_DS_CLASIF_GEN": "Suelo No Urbanizable Protegido", "_raw_DS_CLASIF_DET": "Suelo No Urbanizable de Especial Protección por su Interés Ecológico-Paisajístico", "_raw_DS_DOCU": "NORMAS SUBSIDIARIAS", "_raw_DS_LEY": "CM Ley 9/1995, E RDL 1/1992", "_raw_FC_AC": "1996-12-23", "_raw_NM_AREA_M2": 11047.7100955725, "_cam_code": "102" }, "geometry": { "type": "Polygon", "coordinates": [ [ [ -3.2019, 40.3063 ], [ -3.2033, 40.3063 ], [ -3.2035, 40.3047 ], [ -3.2035, 40.3047 ], [ -3.2019, 40.3063 ] ] ] } },
{ "type": "Feature", "properties": { "municipio": "Orusco de Tajuña", "clasificacion": "no-urbanizable-protegido", "calificacion": "sin-asignar", "version": "vigente", "fuente": "SIT-CAM WFS — UsoDelSuelo:VPLA_V_CLASIFICACION (https://idem.comunidad.madrid/geosrvg/ows)", "fecha_dato": "2026-05-12", "ambito": "31841", "_raw_CD_SIGLAS": "SNUP", "_raw_DS_CLASIF_GEN": "Suelo No Urbanizable Protegido", "_raw_DS_CLASIF_DET": "Suelo No Urbanizable de Especial Protección por su Interés Ecológico-Paisajístico y por su Interés Arqueológico", "_raw_DS_DOCU": "NORMAS SUBSIDIARIAS", "_raw_DS_LEY": "CM Ley 9/1995, E RDL 1/1992", "_raw_FC_AC": "1996-12-23", "_raw_NM_AREA_M2": 2818467.2652551001, "_cam_code": "102" }, "geometry": { "type": "Polygon", "coordinates": [ [ [ -3.2033, 40.2783 ], [ -3.2037, 40.2785 ], [ -3.2044, 40.2784 ], [ -3.2044, 40.2783 ], [ -3.2051, 40.2785 ], [ -3.2057, 40.278 ], [ -3.2061, 40.2779 ], [ -3.2063, 40.2779 ], [ -3.2065, 40.2782 ], [ -3.207, 40.2782 ], [ -3.2072, 40.2779 ], [ -3.2072, 40.2776 ], [ -3.2074, 40.2775 ], [ -3.2078, 40.2776 ], [ -3.2079, 40.2778 ], [ -3.2086, 40.2777 ], [ -3.2088, 40.2775 ], [ -3.209, 40.2777 ], [ -3.209, 40.278 ], [ -3.2104, 40.2771 ], [ -3.2106, 40.2769 ], [ -3.2106, 40.2767 ], [ -3.211, 40.2767 ], [ -3.2113, 40.277 ], [ -3.2115, 40.2769 ], [ -3.2118, 40.2766 ], [ -3.2122, 40.2765 ], [ -3.2125, 40.2761 ], [ -3.215, 40.2741 ], [ -3.2155, 40.2729 ], [ -3.2165, 40.2718 ], [ -3.2144, 40.2705 ], [ -3.213, 40.2691 ], [ -3.2107, 40.2672 ], [ -3.2075, 40.2642 ], [ -3.2066, 40.2627 ], [ -3.2007, 40.2597 ], [ -3.1972, 40.2575 ], [ -3.1942, 40.2582 ], [ -3.1928, 40.2593 ], [ -3.1889, 40.264 ], [ -3.1909, 40.2645 ], [ -3.1909, 40.2646 ], [ -3.1911, 40.2646 ], [ -3.1911, 40.2647 ], [ -3.1919, 40.2651 ], [ -3.1921, 40.2654 ], [ -3.1923, 40.2664 ], [ -3.1929, 40.2667 ], [ -3.1935, 40.2674 ], [ -3.1939, 40.2681 ], [ -3.194, 40.2681 ], [ -3.1946, 40.2693 ], [ -3.1957, 40.27 ], [ -3.1968, 40.2711 ], [ -3.1971, 40.2712 ], [ -3.1973, 40.2715 ], [ -3.1974, 40.2724 ], [ -3.1973, 40.2727 ], [ -3.1972, 40.2727 ], [ -3.1972, 40.2733 ], [ -3.1987, 40.2748 ], [ -3.199, 40.275 ], [ -3.1998, 40.2752 ], [ -3.2002, 40.276 ], [ -3.2001, 40.2765 ], [ -3.2006, 40.2771 ], [ -3.2008, 40.2772 ], [ -3.2017, 40.2772 ], [ -3.2019, 40.2774 ], [ -3.2023, 40.2773 ], [ -3.2026, 40.2774 ], [ -3.2033, 40.2783 ] ] ] } },
{ "type": "Feature", "properties": { "municipio": "Orusco de Tajuña", "clasificacion": "no-urbanizable-protegido", "calificacion": "sin-asignar", "version": "vigente", "fuente": "SIT-CAM WFS — UsoDelSuelo:VPLA_V_CLASIFICACION (https://idem.comunidad.madrid/geosrvg/ows)", "fecha_dato": "2026-05-12", "ambito": "31841", "_raw_CD_SIGLAS": "SNUP", "_raw_DS_CLASIF_GEN": "Suelo No Urbanizable Protegido", "_raw_DS_CLASIF_DET": "Suelo No Urbanizable de Especial Protección por su Interés Ecológico-Paisajístico y por su Interés Arqueológico", "_raw_DS_DOCU": "NORMAS SUBSIDIARIAS", "_raw_DS_LEY": "CM Ley 9/1995, E RDL 1/1992", "_raw_FC_AC": "1996-12-23", "_raw_NM_AREA_M2": 489320.78133950703, "_cam_code": "102" }, "geometry": { "type": "Polygon", "coordinates": [ [ [ -3.2154, 40.2837 ], [ -3.2145, 40.2841 ], [ -3.2147, 40.2846 ], [ -3.2151, 40.2853 ], [ -3.2154, 40.2855 ], [ -3.2163, 40.2857 ], [ -3.219, 40.2853 ], [ -3.219, 40.2851 ], [ -3.2199, 40.2843 ], [ -3.2195, 40.2835 ], [ -3.2208, 40.2834 ], [ -3.2239, 40.2824 ], [ -3.2252, 40.2822 ], [ -3.2262, 40.2826 ], [ -3.2267, 40.2831 ], [ -3.2265, 40.2839 ], [ -3.228, 40.2828 ], [ -3.2239, 40.278 ], [ -3.2138, 40.2818 ], [ -3.2154, 40.2837 ] ] ] } },
{ "type": "Feature", "properties": { "municipio": "Orusco de Tajuña", "clasificacion": "no-urbanizable-protegido", "calificacion": "sin-asignar", "version": "vigente", "fuente": "SIT-CAM WFS — UsoDelSuelo:VPLA_V_CLASIFICACION (https://idem.comunidad.madrid/geosrvg/ows)", "fecha_dato": "2026-05-12", "ambito": "31841", "_raw_CD_SIGLAS": "SNUP", "_raw_DS_CLASIF_GEN": "Suelo No Urbanizable Protegido", "_raw_DS_CLASIF_DET": "Suelo No Urbanizable de Especial Protección por su Interés Ecológico-Paisajístico y por su Interés Arqueológico", "_raw_DS_DOCU": "NORMAS SUBSIDIARIAS", "_raw_DS_LEY": "CM Ley 9/1995, E RDL 1/1992", "_raw_FC_AC": "1996-12-23", "_raw_NM_AREA_M2": 4673781.9440717604, "_cam_code": "102" }, "geometry": { "type": "Polygon", "coordinates": [ [ [ -3.1805, 40.2919 ], [ -3.1814, 40.295 ], [ -3.1815, 40.2977 ], [ -3.1802, 40.3021 ], [ -3.1805, 40.3023 ], [ -3.181, 40.3034 ], [ -3.1814, 40.3039 ], [ -3.1821, 40.3046 ], [ -3.1917, 40.3048 ], [ -3.1919, 40.3039 ], [ -3.1926, 40.3025 ], [ -3.1926, 40.3023 ], [ -3.1927, 40.3023 ], [ -3.1928, 40.3001 ], [ -3.1931, 40.2996 ], [ -3.1942, 40.2986 ], [ -3.1945, 40.2979 ], [ -3.1942, 40.2965 ], [ -3.1942, 40.2959 ], [ -3.1944, 40.2953 ], [ -3.1951, 40.2945 ], [ -3.1968, 40.294 ], [ -3.1974, 40.2934 ], [ -3.1987, 40.2894 ], [ -3.1995, 40.2882 ], [ -3.199, 40.2878 ], [ -3.1976, 40.2877 ], [ -3.1969, 40.2875 ], [ -3.1954, 40.2876 ], [ -3.194, 40.2884 ], [ -3.1935, 40.2885 ], [ -3.194, 40.289 ], [ -3.1938, 40.2892 ], [ -3.1933, 40.2893 ], [ -3.1932, 40.2892 ], [ -3.1933, 40.289 ], [ -3.1932, 40.2887 ], [ -3.192, 40.2885 ], [ -3.1914, 40.2882 ], [ -3.1914, 40.2881 ], [ -3.1922, 40.2882 ], [ -3.1926, 40.2881 ], [ -3.1945, 40.2875 ], [ -3.1948, 40.2871 ], [ -3.1958, 40.2869 ], [ -3.1968, 40.2869 ], [ -3.1979, 40.2867 ], [ -3.1986, 40.287 ], [ -3.1993, 40.287 ], [ -3.1997, 40.2868 ], [ -3.1995, 40.2863 ], [ -3.1995, 40.2857 ], [ -3.1997, 40.2854 ], [ -3.1995, 40.2847 ], [ -3.1996, 40.2842 ], [ -3.2005, 40.2825 ], [ -3.2012, 40.2821 ], [ -3.2017, 40.2814 ], [ -3.2019, 40.2813 ], [ -3.2019, 40.2809 ], [ -3.2017, 40.2807 ], [ -3.2005, 40.2802 ], [ -3.2, 40.279 ], [ -3.1997, 40.2787 ], [ -3.1989, 40.2787 ], [ -3.1982, 40.278 ], [ -3.198, 40.2777 ], [ -3.1985, 40.2767 ], [ -3.1982, 40.2761 ], [ -3.1979, 40.2758 ], [ -3.1965, 40.2752 ], [ -3.1965, 40.275 ], [ -3.1959, 40.2746 ], [ -3.1959, 40.2741 ], [ -3.1957, 40.2738 ], [ -3.1957, 40.2734 ], [ -3.1953, 40.273 ], [ -3.1961, 40.2729 ], [ -3.196, 40.2724 ], [ -3.1962, 40.2722 ], [ -3.1962, 40.2719 ], [ -3.1959, 40.2718 ], [ -3.1953, 40.2711 ], [ -3.1948, 40.2708 ], [ -3.1945, 40.2707 ], [ -3.1939, 40.2708 ], [ -3.1935, 40.2706 ], [ -3.1929, 40.27 ], [ -3.1927, 40.2691 ], [ -3.1916, 40.2685 ], [ -3.1902, 40.2673 ], [ -3.19, 40.2669 ], [ -3.1899, 40.2662 ], [ -3.1897, 40.2659 ], [ -3.1893, 40.2656 ], [ -3.1887, 40.2654 ], [ -3.1879, 40.2652 ], [ -3.1871, 40.2663 ], [ -3.1842, 40.2697 ], [ -3.1865, 40.2753 ], [ -3.1867, 40.2775 ], [ -3.1867, 40.279 ], [ -3.1844, 40.2827 ], [ -3.1814, 40.2885 ], [ -3.1805, 40.2919 ] ] ] } },
{ "type": "Feature", "properties": { "municipio": "Orusco de Tajuña", "clasificacion": "no-urbanizable-protegido", "calificacion": "sin-asignar", "version": "vigente", "fuente": "SIT-CAM WFS — UsoDelSuelo:VPLA_V_CLASIFICACION (https://idem.comunidad.madrid/geosrvg/ows)", "fecha_dato": "2026-05-12", "ambito": "31841", "_raw_CD_SIGLAS": "SNUP", "_raw_DS_CLASIF_GEN": "Suelo No Urbanizable Protegido", "_raw_DS_CLASIF_DET": "Suelo No Urbanizable de Especial Protección por su Interés Ecológico-Paisajístico y por su Interés Arqueológico", "_raw_DS_DOCU": "NORMAS SUBSIDIARIAS", "_raw_DS_LEY": "CM Ley 9/1995, E RDL 1/1992", "_raw_FC_AC": "1996-12-23", "_raw_NM_AREA_M2": 1154477.18361619, "_cam_code": "102" }, "geometry": { "type": "Polygon", "coordinates": [ [ [ -3.1992, 40.2951 ], [ -3.1973, 40.296 ], [ -3.197, 40.2964 ], [ -3.1968, 40.2972 ], [ -3.197, 40.2988 ], [ -3.1969, 40.2988 ], [ -3.1969, 40.2991 ], [ -3.1964, 40.3003 ], [ -3.1957, 40.3041 ], [ -3.1951, 40.3051 ], [ -3.2019, 40.3063 ], [ -3.2035, 40.3047 ], [ -3.2033, 40.3039 ], [ -3.2039, 40.3026 ], [ -3.2037, 40.3021 ], [ -3.2037, 40.3016 ], [ -3.2035, 40.3012 ], [ -3.2037, 40.3009 ], [ -3.2047, 40.3006 ], [ -3.2051, 40.3006 ], [ -3.2054, 40.3004 ], [ -3.206, 40.2993 ], [ -3.2059, 40.2988 ], [ -3.2062, 40.2982 ], [ -3.2065, 40.2979 ], [ -3.2067, 40.2969 ], [ -3.2066, 40.2958 ], [ -3.2069, 40.2955 ], [ -3.2084, 40.2955 ], [ -3.2091, 40.2953 ], [ -3.2099, 40.2956 ], [ -3.2103, 40.2966 ], [ -3.2109, 40.2972 ], [ -3.2112, 40.2973 ], [ -3.2115, 40.2969 ], [ -3.2041, 40.2895 ], [ -3.2034, 40.2884 ], [ -3.2033, 40.2879 ], [ -3.2033, 40.2864 ], [ -3.2034, 40.2861 ], [ -3.2032, 40.2858 ], [ -3.2035, 40.2855 ], [ -3.2029, 40.285 ], [ -3.2029, 40.2851 ], [ -3.2025, 40.2853 ], [ -3.2023, 40.2858 ], [ -3.2024, 40.286 ], [ -3.2024, 40.2874 ], [ -3.2025, 40.2874 ], [ -3.2025, 40.2876 ], [ -3.2033, 40.289 ], [ -3.2039, 40.2898 ], [ -3.2039, 40.2902 ], [ -3.2038, 40.2902 ], [ -3.2035, 40.2908 ], [ -3.2015, 40.2935 ], [ -3.2002, 40.2943 ], [ -3.1992, 40.2951 ] ] ] } },
{ "type": "Feature", "properties": { "municipio": "Orusco de Tajuña", "clasificacion": "no-urbanizable-protegido", "calificacion": "sin-asignar", "version": "vigente", "fuente": "SIT-CAM WFS — UsoDelSuelo:VPLA_V_CLASIFICACION (https://idem.comunidad.madrid/geosrvg/ows)", "fecha_dato": "2026-05-12", "ambito": "31841", "_raw_CD_SIGLAS": "SNUP", "_raw_DS_CLASIF_GEN": "Suelo No Urbanizable Protegido", "_raw_DS_CLASIF_DET": "Suelo No Urbanizable de Especial Protección por su Interés Forestal", "_raw_DS_DOCU": "NORMAS SUBSIDIARIAS", "_raw_DS_LEY": "CM Ley 9/1995, E RDL 1/1992", "_raw_FC_AC": "1996-12-23", "_raw_NM_AREA_M2": 2868568.8340735999, "_cam_code": "102" }, "geometry": { "type": "Polygon", "coordinates": [ [ [ -3.2111, 40.3092 ], [ -3.212, 40.3103 ], [ -3.2163, 40.3129 ], [ -3.2198, 40.3132 ], [ -3.2189, 40.3117 ], [ -3.2178, 40.3105 ], [ -3.2167, 40.309 ], [ -3.2154, 40.3084 ], [ -3.2145, 40.3083 ], [ -3.2146, 40.3078 ], [ -3.2148, 40.3075 ], [ -3.2155, 40.3073 ], [ -3.2161, 40.3073 ], [ -3.2174, 40.3063 ], [ -3.2178, 40.3052 ], [ -3.218, 40.3052 ], [ -3.2183, 40.3054 ], [ -3.2188, 40.3063 ], [ -3.2196, 40.3067 ], [ -3.22, 40.3071 ], [ -3.2201, 40.3075 ], [ -3.2209, 40.3085 ], [ -3.2207, 40.3088 ], [ -3.2208, 40.309 ], [ -3.2205, 40.3093 ], [ -3.2202, 40.3091 ], [ -3.2188, 40.3103 ], [ -3.2195, 40.3112 ], [ -3.2201, 40.3115 ], [ -3.2208, 40.3111 ], [ -3.2211, 40.3106 ], [ -3.2209, 40.3105 ], [ -3.221, 40.3102 ], [ -3.2215, 40.3097 ], [ -3.2214, 40.3077 ], [ -3.2209, 40.3068 ], [ -3.2202, 40.3067 ], [ -3.22, 40.3063 ], [ -3.2192, 40.3054 ], [ -3.2189, 40.3047 ], [ -3.2197, 40.3048 ], [ -3.2199, 40.3046 ], [ -3.22, 40.3042 ], [ -3.2199, 40.3039 ], [ -3.2196, 40.3038 ], [ -3.2194, 40.3035 ], [ -3.2197, 40.3028 ], [ -3.2194, 40.3025 ], [ -3.2187, 40.3022 ], [ -3.218, 40.3027 ], [ -3.2182, 40.303 ], [ -3.2187, 40.3032 ], [ -3.2188, 40.3034 ], [ -3.2178, 40.3034 ], [ -3.2175, 40.304 ], [ -3.2167, 40.3037 ], [ -3.2174, 40.3029 ], [ -3.2173, 40.3025 ], [ -3.2174, 40.3022 ], [ -3.2171, 40.3017 ], [ -3.2172, 40.3013 ], [ -3.217, 40.3006 ], [ -3.2166, 40.3005 ], [ -3.2165, 40.3002 ], [ -3.2166, 40.2999 ], [ -3.217, 40.2997 ], [ -3.2179, 40.2996 ], [ -3.2183, 40.2997 ], [ -3.2189, 40.2995 ], [ -3.2198, 40.2997 ], [ -3.2201, 40.2996 ], [ -3.2204, 40.2993 ], [ -3.2207, 40.2993 ], [ -3.2191, 40.298 ], [ -3.2192, 40.2978 ], [ -3.2197, 40.2976 ], [ -3.22, 40.2978 ], [ -3.2205, 40.2977 ], [ -3.221, 40.2979 ], [ -3.2215, 40.2979 ], [ -3.222, 40.2982 ], [ -3.2233, 40.2986 ], [ -3.2237, 40.2989 ], [ -3.2238, 40.2985 ], [ -3.2236, 40.2983 ], [ -3.2265, 40.2972 ], [ -3.227, 40.2974 ], [ -3.2274, 40.2982 ], [ -3.2256, 40.2993 ], [ -3.2243, 40.2996 ], [ -3.2238, 40.2996 ], [ -3.2231, 40.2992 ], [ -3.2229, 40.2993 ], [ -3.223, 40.3001 ], [ -3.2226, 40.3002 ], [ -3.222, 40.2996 ], [ -3.2219, 40.2999 ], [ -3.2216, 40.3001 ], [ -3.2217, 40.3003 ], [ -3.2222, 40.3006 ], [ -3.2223, 40.3009 ], [ -3.2221, 40.3011 ], [ -3.2222, 40.3014 ], [ -3.2228, 40.3013 ], [ -3.2231, 40.3005 ], [ -3.2239, 40.3006 ], [ -3.224, 40.3012 ], [ -3.2253, 40.3012 ], [ -3.2256, 40.302 ], [ -3.2256, 40.3025 ], [ -3.2259, 40.3027 ], [ -3.2265, 40.3028 ], [ -3.2267, 40.3032 ], [ -3.2255, 40.3036 ], [ -3.2252, 40.3039 ], [ -3.2265, 40.3043 ], [ -3.2272, 40.3039 ], [ -3.2272, 40.3022 ], [ -3.2273, 40.3017 ], [ -3.2275, 40.3014 ], [ -3.2288, 40.301 ], [ -3.2301, 40.3011 ], [ -3.2297, 40.3006 ], [ -3.2292, 40.3004 ], [ -3.2283, 40.3001 ], [ -3.2279, 40.3001 ], [ -3.2275, 40.3004 ], [ -3.2272, 40.3001 ], [ -3.2279, 40.2996 ], [ -3.229, 40.2993 ], [ -3.2285, 40.2987 ], [ -3.2286, 40.2985 ], [ -3.2299, 40.2988 ], [ -3.23, 40.2993 ], [ -3.2297, 40.2998 ], [ -3.2309, 40.3011 ], [ -3.2312, 40.3009 ], [ -3.2322, 40.301 ], [ -3.2326, 40.3005 ], [ -3.2326, 40.3003 ], [ -3.2332, 40.2998 ], [ -3.2324, 40.2997 ], [ -3.2324, 40.2996 ], [ -3.2321, 40.2996 ], [ -3.2321, 40.2995 ], [ -3.2313, 40.2992 ], [ -3.2309, 40.2985 ], [ -3.2305, 40.2982 ], [ -3.2303, 40.2982 ], [ -3.2303, 40.2981 ], [ -3.2301, 40.2981 ], [ -3.2301, 40.298 ], [ -3.229, 40.2979 ], [ -3.2297, 40.2969 ], [ -3.2301, 40.2966 ], [ -3.2305, 40.2958 ], [ -3.2307, 40.2957 ], [ -3.231, 40.2948 ], [ -3.231, 40.2942 ], [ -3.2306, 40.2942 ], [ -3.2306, 40.2943 ], [ -3.2303, 40.2943 ], [ -3.2301, 40.2941 ], [ -3.2298, 40.2942 ], [ -3.2298, 40.294 ], [ -3.2296, 40.294 ], [ -3.2297, 40.2937 ], [ -3.2292, 40.2936 ], [ -3.2291, 40.2934 ], [ -3.2291, 40.2935 ], [ -3.2283, 40.2935 ], [ -3.2279, 40.2939 ], [ -3.2277, 40.2938 ], [ -3.2275, 40.2936 ], [ -3.2275, 40.2934 ], [ -3.2269, 40.2928 ], [ -3.2271, 40.2928 ], [ -3.2274, 40.2924 ], [ -3.2282, 40.292 ], [ -3.2265, 40.2915 ], [ -3.226, 40.2909 ], [ -3.2258, 40.2909 ], [ -3.2256, 40.2907 ], [ -3.2253, 40.2907 ], [ -3.2252, 40.2903 ], [ -3.2247, 40.29 ], [ -3.2244, 40.2896 ], [ -3.2233, 40.2889 ], [ -3.2233, 40.2888 ], [ -3.2236, 40.2889 ], [ -3.2236, 40.2888 ], [ -3.2238, 40.2888 ], [ -3.224, 40.289 ], [ -3.2239, 40.2887 ], [ -3.2237, 40.2886 ], [ -3.2238, 40.2885 ], [ -3.2237, 40.2882 ], [ -3.224, 40.2879 ], [ -3.2242, 40.2879 ], [ -3.2243, 40.2877 ], [ -3.2246, 40.2877 ], [ -3.2249, 40.288 ], [ -3.2249, 40.2879 ], [ -3.2255, 40.2878 ], [ -3.2254, 40.2873 ], [ -3.2246, 40.2873 ], [ -3.2243, 40.287 ], [ -3.2238, 40.287 ], [ -3.2236, 40.2868 ], [ -3.2236, 40.2865 ], [ -3.2238, 40.2863 ], [ -3.2237, 40.286 ], [ -3.2238, 40.286 ], [ -3.224, 40.2855 ], [ -3.2249, 40.2854 ], [ -3.2252, 40.2855 ], [ -3.2255, 40.2858 ], [ -3.2257, 40.2858 ], [ -3.2257, 40.2857 ], [ -3.2261, 40.2858 ], [ -3.2264, 40.2862 ], [ -3.2272, 40.2858 ], [ -3.2271, 40.2857 ], [ -3.2272, 40.2852 ], [ -3.2278, 40.2851 ], [ -3.2279, 40.2849 ], [ -3.2282, 40.2849 ], [ -3.2284, 40.2847 ], [ -3.2286, 40.2847 ], [ -3.2286, 40.2846 ], [ -3.2288, 40.2846 ], [ -3.2288, 40.285 ], [ -3.229, 40.2849 ], [ -3.2298, 40.285 ], [ -3.2287, 40.2837 ], [ -3.219, 40.2853 ], [ -3.2191, 40.2857 ], [ -3.2187, 40.2889 ], [ -3.2187, 40.2902 ], [ -3.2194, 40.2902 ], [ -3.2204, 40.2898 ], [ -3.2201, 40.2901 ], [ -3.2199, 40.2908 ], [ -3.22, 40.2911 ], [ -3.2208, 40.2919 ], [ -3.221, 40.2923 ], [ -3.2208, 40.2928 ], [ -3.2208, 40.2932 ], [ -3.2211, 40.2938 ], [ -3.2211, 40.2945 ], [ -3.2205, 40.2945 ], [ -3.2202, 40.2943 ], [ -3.2202, 40.2939 ], [ -3.2194, 40.2939 ], [ -3.2187, 40.2937 ], [ -3.2183, 40.293 ], [ -3.2173, 40.2928 ], [ -3.2172, 40.293 ], [ -3.2173, 40.2935 ], [ -3.217, 40.2935 ], [ -3.2163, 40.2932 ], [ -3.2157, 40.2927 ], [ -3.2147, 40.2925 ], [ -3.2138, 40.2926 ], [ -3.2135, 40.2936 ], [ -3.2134, 40.2944 ], [ -3.2135, 40.2948 ], [ -3.212, 40.2971 ], [ -3.212, 40.2974 ], [ -3.2117, 40.298 ], [ -3.2119, 40.2983 ], [ -3.2115, 40.2983 ], [ -3.2112, 40.2977 ], [ -3.2112, 40.2973 ], [ -3.2035, 40.3047 ], [ -3.2033, 40.3063 ], [ -3.2057, 40.3062 ], [ -3.2067, 40.3064 ], [ -3.2077, 40.3062 ], [ -3.2111, 40.3092 ] ] ] } },
{ "type": "Feature", "properties": { "municipio": "Orusco de Tajuña", "clasificacion": "no-urbanizable-protegido", "calificacion": "sin-asignar", "version": "vigente", "fuente": "SIT-CAM WFS — UsoDelSuelo:VPLA_V_CLASIFICACION (https://idem.comunidad.madrid/geosrvg/ows)", "fecha_dato": "2026-05-12", "ambito": "31841", "_raw_CD_SIGLAS": "SNUP", "_raw_DS_CLASIF_GEN": "Suelo No Urbanizable Protegido", "_raw_DS_CLASIF_DET": "Suelo No Urbanizable de Especial Protección por su Interés Forestal y por su Interés Arqueológico", "_raw_DS_DOCU": "NORMAS SUBSIDIARIAS", "_raw_DS_LEY": "CM Ley 9/1995, E RDL 1/1992", "_raw_FC_AC": "1996-12-23", "_raw_NM_AREA_M2": 129756.128138542, "_cam_code": "102" }, "geometry": { "type": "Polygon", "coordinates": [ [ [ -3.2195, 40.2835 ], [ -3.2199, 40.2843 ], [ -3.219, 40.2851 ], [ -3.219, 40.2853 ], [ -3.2287, 40.2837 ], [ -3.228, 40.2828 ], [ -3.2265, 40.2839 ], [ -3.2267, 40.2833 ], [ -3.2265, 40.2828 ], [ -3.2256, 40.2823 ], [ -3.2249, 40.2822 ], [ -3.2239, 40.2824 ], [ -3.2208, 40.2834 ], [ -3.2195, 40.2835 ] ] ] } },
{ "type": "Feature", "properties": { "municipio": "Orusco de Tajuña", "clasificacion": "urbanizable-no-sectorizado", "calificacion": "sin-asignar", "version": "vigente", "fuente": "SIT-CAM WFS — UsoDelSuelo:VPLA_V_CLASIFICACION (https://idem.comunidad.madrid/geosrvg/ows)", "fecha_dato": "2026-05-12", "ambito": "31841", "_raw_CD_SIGLAS": "SUBNS", "_raw_DS_CLASIF_GEN": "Suelo No Urbanizable Común", "_raw_DS_CLASIF_DET": "Suelo No Urbanizable Común", "_raw_DS_DOCU": "NORMAS SUBSIDIARIAS", "_raw_DS_LEY": "CM Ley 9/1995, E RDL 1/1992", "_raw_FC_AC": "1996-12-23", "_raw_NM_AREA_M2": 1220862.3117563, "_cam_code": "102" }, "geometry": { "type": "Polygon", "coordinates": [ [ [ -3.2198, 40.3132 ], [ -3.2229, 40.3135 ], [ -3.2259, 40.3146 ], [ -3.2281, 40.3137 ], [ -3.2279, 40.313 ], [ -3.2285, 40.3125 ], [ -3.2302, 40.3121 ], [ -3.2303, 40.3118 ], [ -3.23, 40.3114 ], [ -3.2296, 40.3113 ], [ -3.2294, 40.3105 ], [ -3.2288, 40.3101 ], [ -3.2273, 40.3104 ], [ -3.2274, 40.3108 ], [ -3.2247, 40.312 ], [ -3.2241, 40.3113 ], [ -3.2253, 40.3107 ], [ -3.2246, 40.3098 ], [ -3.2245, 40.3093 ], [ -3.2233, 40.3081 ], [ -3.224, 40.3076 ], [ -3.2238, 40.3074 ], [ -3.2233, 40.3073 ], [ -3.2231, 40.3067 ], [ -3.2253, 40.3056 ], [ -3.2258, 40.3057 ], [ -3.2264, 40.3062 ], [ -3.2292, 40.3046 ], [ -3.2297, 40.304 ], [ -3.2301, 40.3038 ], [ -3.2305, 40.3033 ], [ -3.2304, 40.3029 ], [ -3.2301, 40.3028 ], [ -3.2301, 40.3021 ], [ -3.2303, 40.3013 ], [ -3.2309, 40.3011 ], [ -3.2297, 40.2998 ], [ -3.23, 40.2993 ], [ -3.2299, 40.2988 ], [ -3.2286, 40.2985 ], [ -3.2285, 40.2987 ], [ -3.229, 40.2993 ], [ -3.2279, 40.2996 ], [ -3.2272, 40.3001 ], [ -3.2275, 40.3004 ], [ -3.2279, 40.3001 ], [ -3.2283, 40.3001 ], [ -3.2292, 40.3004 ], [ -3.2297, 40.3006 ], [ -3.2301, 40.3011 ], [ -3.2288, 40.301 ], [ -3.2275, 40.3014 ], [ -3.2273, 40.3017 ], [ -3.2272, 40.3022 ], [ -3.2272, 40.3039 ], [ -3.2265, 40.3043 ], [ -3.2252, 40.3039 ], [ -3.2255, 40.3036 ], [ -3.2267, 40.3032 ], [ -3.2265, 40.3028 ], [ -3.2259, 40.3027 ], [ -3.2256, 40.3025 ], [ -3.2256, 40.302 ], [ -3.2253, 40.3012 ], [ -3.224, 40.3012 ], [ -3.2239, 40.3006 ], [ -3.2231, 40.3005 ], [ -3.2228, 40.3013 ], [ -3.2222, 40.3014 ], [ -3.2221, 40.3011 ], [ -3.2223, 40.3009 ], [ -3.2222, 40.3006 ], [ -3.2217, 40.3003 ], [ -3.2216, 40.3001 ], [ -3.2219, 40.2999 ], [ -3.222, 40.2996 ], [ -3.2226, 40.3002 ], [ -3.223, 40.3001 ], [ -3.2229, 40.2993 ], [ -3.2231, 40.2992 ], [ -3.2238, 40.2996 ], [ -3.2243, 40.2996 ], [ -3.2256, 40.2993 ], [ -3.2274, 40.2982 ], [ -3.227, 40.2974 ], [ -3.2265, 40.2972 ], [ -3.2236, 40.2983 ], [ -3.2238, 40.2985 ], [ -3.2237, 40.2989 ], [ -3.2233, 40.2986 ], [ -3.222, 40.2982 ], [ -3.2215, 40.2979 ], [ -3.221, 40.2979 ], [ -3.2205, 40.2977 ], [ -3.22, 40.2978 ], [ -3.2197, 40.2976 ], [ -3.2192, 40.2978 ], [ -3.2191, 40.298 ], [ -3.2207, 40.2993 ], [ -3.2204, 40.2993 ], [ -3.2201, 40.2996 ], [ -3.2198, 40.2997 ], [ -3.2189, 40.2995 ], [ -3.2183, 40.2997 ], [ -3.2179, 40.2996 ], [ -3.217, 40.2997 ], [ -3.2166, 40.2999 ], [ -3.2165, 40.3002 ], [ -3.2166, 40.3005 ], [ -3.217, 40.3006 ], [ -3.2172, 40.3013 ], [ -3.2171, 40.3017 ], [ -3.2174, 40.3022 ], [ -3.2173, 40.3025 ], [ -3.2174, 40.3029 ], [ -3.2167, 40.3037 ], [ -3.2175, 40.304 ], [ -3.2178, 40.3034 ], [ -3.2188, 40.3034 ], [ -3.2187, 40.3032 ], [ -3.2182, 40.303 ], [ -3.218, 40.3027 ], [ -3.2187, 40.3022 ], [ -3.2194, 40.3025 ], [ -3.2197, 40.3028 ], [ -3.2194, 40.3035 ], [ -3.2196, 40.3038 ], [ -3.2199, 40.3039 ], [ -3.22, 40.3042 ], [ -3.2199, 40.3046 ], [ -3.2197, 40.3048 ], [ -3.2189, 40.3047 ], [ -3.2192, 40.3054 ], [ -3.22, 40.3063 ], [ -3.2202, 40.3067 ], [ -3.2209, 40.3068 ], [ -3.2214, 40.3077 ], [ -3.2215, 40.3097 ], [ -3.221, 40.3102 ], [ -3.2209, 40.3105 ], [ -3.2211, 40.3106 ], [ -3.2208, 40.3111 ], [ -3.2204, 40.3114 ], [ -3.2201, 40.3115 ], [ -3.2195, 40.3112 ], [ -3.219, 40.3106 ], [ -3.2188, 40.3103 ], [ -3.2202, 40.3091 ], [ -3.2205, 40.3093 ], [ -3.2208, 40.309 ], [ -3.2207, 40.3088 ], [ -3.2209, 40.3085 ], [ -3.2201, 40.3075 ], [ -3.22, 40.3071 ], [ -3.2196, 40.3067 ], [ -3.2188, 40.3063 ], [ -3.2183, 40.3054 ], [ -3.218, 40.3052 ], [ -3.2178, 40.3052 ], [ -3.2174, 40.3063 ], [ -3.2161, 40.3073 ], [ -3.2155, 40.3073 ], [ -3.2148, 40.3075 ], [ -3.2146, 40.3078 ], [ -3.2145, 40.3083 ], [ -3.2154, 40.3084 ], [ -3.2167, 40.309 ], [ -3.2178, 40.3105 ], [ -3.2189, 40.3117 ], [ -3.2198, 40.3132 ] ] ] } },
{ "type": "Feature", "properties": { "municipio": "Orusco de Tajuña", "clasificacion": "urbanizable-sectorizado", "calificacion": "sin-asignar", "version": "vigente", "fuente": "SIT-CAM WFS — UsoDelSuelo:VPLA_V_CLASIFICACION (https://idem.comunidad.madrid/geosrvg/ows)", "fecha_dato": "2026-05-12", "ambito": "31841", "_raw_CD_SIGLAS": "SUBS", "_raw_DS_CLASIF_GEN": "Suelo Apto Para Urbanizar", "_raw_DS_CLASIF_DET": "Suelo Apto para Urbanizar", "_raw_DS_DOCU": "NORMAS SUBSIDIARIAS", "_raw_DS_LEY": "CM Ley 9/1995, E RDL 1/1992", "_raw_FC_AC": "1996-12-23", "_raw_NM_AREA_M2": 19668.017782746399, "_cam_code": "102" }, "geometry": { "type": "Polygon", "coordinates": [ [ [ -3.2152, 40.2908 ], [ -3.2155, 40.2913 ], [ -3.2167, 40.2917 ], [ -3.218, 40.2906 ], [ -3.2178, 40.2905 ], [ -3.2169, 40.2905 ], [ -3.216, 40.2902 ], [ -3.2158, 40.2906 ], [ -3.2158, 40.2909 ], [ -3.2152, 40.2908 ] ] ] } },
{ "type": "Feature", "properties": { "municipio": "Orusco de Tajuña", "clasificacion": "urbanizable-sectorizado", "calificacion": "sin-asignar", "version": "vigente", "fuente": "SIT-CAM WFS — UsoDelSuelo:VPLA_V_CLASIFICACION (https://idem.comunidad.madrid/geosrvg/ows)", "fecha_dato": "2026-05-12", "ambito": "31841", "_raw_CD_SIGLAS": "SUBS", "_raw_DS_CLASIF_GEN": "Suelo Apto Para Urbanizar", "_raw_DS_CLASIF_DET": "Suelo Apto para Urbanizar", "_raw_DS_DOCU": "NORMAS SUBSIDIARIAS", "_raw_DS_LEY": "CM Ley 9/1995, E RDL 1/1992", "_raw_FC_AC": "1996-12-23", "_raw_NM_AREA_M2": 25923.391519000601, "_cam_code": "102" }, "geometry": { "type": "Polygon", "coordinates": [ [ [ -3.2029, 40.285 ], [ -3.2034, 40.2855 ], [ -3.2039, 40.2853 ], [ -3.2039, 40.2852 ], [ -3.2044, 40.2852 ], [ -3.2045, 40.2853 ], [ -3.2052, 40.2852 ], [ -3.2057, 40.2847 ], [ -3.2056, 40.2846 ], [ -3.2058, 40.2845 ], [ -3.2058, 40.2842 ], [ -3.2053, 40.2836 ], [ -3.2029, 40.285 ] ] ] } },
{ "type": "Feature", "properties": { "municipio": "Orusco de Tajuña", "clasificacion": "urbanizable-sectorizado", "calificacion": "sin-asignar", "version": "vigente", "fuente": "SIT-CAM WFS — UsoDelSuelo:VPLA_V_CLASIFICACION (https://idem.comunidad.madrid/geosrvg/ows)", "fecha_dato": "2026-05-12", "ambito": "31841", "_raw_CD_SIGLAS": "SUBS", "_raw_DS_CLASIF_GEN": "Suelo Apto Para Urbanizar", "_raw_DS_CLASIF_DET": "Suelo Apto para Urbanizar", "_raw_DS_DOCU": "NORMAS SUBSIDIARIAS", "_raw_DS_LEY": "CM Ley 9/1995, E RDL 1/1992", "_raw_FC_AC": "1996-12-23", "_raw_NM_AREA_M2": 110241.891558157, "_cam_code": "102" }, "geometry": { "type": "MultiPolygon", "coordinates": [ [ [ [ -3.2116, 40.2824 ], [ -3.2119, 40.2827 ], [ -3.2118, 40.283 ], [ -3.212, 40.2835 ], [ -3.2116, 40.284 ], [ -3.2117, 40.2839 ], [ -3.2123, 40.2838 ], [ -3.2121, 40.2836 ], [ -3.2126, 40.2836 ], [ -3.2133, 40.2832 ], [ -3.2133, 40.2827 ], [ -3.2134, 40.2826 ], [ -3.2125, 40.2817 ], [ -3.2122, 40.2817 ], [ -3.2121, 40.2818 ], [ -3.2122, 40.282 ], [ -3.212, 40.2823 ], [ -3.2113, 40.282 ], [ -3.2113, 40.2825 ], [ -3.2116, 40.2824 ] ] ], [ [ [ -3.212, 40.2848 ], [ -3.2118, 40.2848 ], [ -3.2115, 40.2842 ], [ -3.2116, 40.2841 ], [ -3.2115, 40.2841 ], [ -3.2116, 40.284 ], [ -3.2114, 40.2837 ], [ -3.2111, 40.2838 ], [ -3.2109, 40.2836 ], [ -3.2108, 40.2824 ], [ -3.2103, 40.2823 ], [ -3.2103, 40.2824 ], [ -3.2099, 40.2825 ], [ -3.2099, 40.2829 ], [ -3.21, 40.2829 ], [ -3.2099, 40.283 ], [ -3.2099, 40.2835 ], [ -3.21, 40.2835 ], [ -3.21, 40.2837 ], [ -3.2103, 40.284 ], [ -3.2104, 40.2843 ], [ -3.2104, 40.2842 ], [ -3.2108, 40.2843 ], [ -3.2108, 40.2844 ], [ -3.2104, 40.2844 ], [ -3.2104, 40.2846 ], [ -3.2105, 40.2846 ], [ -3.2105, 40.2848 ], [ -3.211, 40.2855 ], [ -3.2114, 40.2854 ], [ -3.2111, 40.285 ], [ -3.2107, 40.2848 ], [ -3.211, 40.2847 ], [ -3.2116, 40.2853 ], [ -3.2117, 40.2856 ], [ -3.2121, 40.2856 ], [ -3.2125, 40.2859 ], [ -3.2118, 40.2862 ], [ -3.2124, 40.2869 ], [ -3.2126, 40.2869 ], [ -3.2129, 40.2869 ], [ -3.2133, 40.2866 ], [ -3.2134, 40.2868 ], [ -3.2141, 40.2865 ], [ -3.2151, 40.2864 ], [ -3.2145, 40.2859 ], [ -3.2146, 40.2855 ], [ -3.2151, 40.2853 ], [ -3.2145, 40.2841 ], [ -3.2143, 40.284 ], [ -3.2138, 40.2841 ], [ -3.2134, 40.2844 ], [ -3.2126, 40.2841 ], [ -3.2125, 40.2842 ], [ -3.2128, 40.2847 ], [ -3.2127, 40.2848 ], [ -3.213, 40.2851 ], [ -3.2127, 40.2854 ], [ -3.2121, 40.2851 ], [ -3.212, 40.2848 ] ] ] ] } },
{ "type": "Feature", "properties": { "municipio": "Orusco de Tajuña", "clasificacion": "urbanizable-sectorizado", "calificacion": "sin-asignar", "version": "vigente", "fuente": "SIT-CAM WFS — UsoDelSuelo:VPLA_V_CLASIFICACION (https://idem.comunidad.madrid/geosrvg/ows)", "fecha_dato": "2026-05-12", "ambito": "31841", "_raw_CD_SIGLAS": "SUBS", "_raw_DS_CLASIF_GEN": "Suelo Apto Para Urbanizar", "_raw_DS_CLASIF_DET": "Suelo Apto para Urbanizar", "_raw_DS_DOCU": "NORMAS SUBSIDIARIAS", "_raw_DS_LEY": "CM Ley 9/1995, E RDL 1/1992", "_raw_FC_AC": "1996-12-23", "_raw_NM_AREA_M2": 53198.311801495103, "_cam_code": "102" }, "geometry": { "type": "Polygon", "coordinates": [ [ [ -3.207, 40.2874 ], [ -3.207, 40.2877 ], [ -3.2065, 40.2879 ], [ -3.2067, 40.288 ], [ -3.2077, 40.288 ], [ -3.2088, 40.2884 ], [ -3.2103, 40.2887 ], [ -3.2107, 40.2886 ], [ -3.2109, 40.2884 ], [ -3.211, 40.2875 ], [ -3.2108, 40.2868 ], [ -3.2104, 40.2866 ], [ -3.21, 40.2867 ], [ -3.21, 40.2865 ], [ -3.2097, 40.2866 ], [ -3.2097, 40.2867 ], [ -3.2094, 40.2867 ], [ -3.209, 40.287 ], [ -3.2077, 40.2874 ], [ -3.2072, 40.287 ], [ -3.207, 40.287 ], [ -3.207, 40.2874 ] ] ] } },
{ "type": "Feature", "properties": { "municipio": "Orusco de Tajuña", "clasificacion": "urbano-consolidado", "calificacion": "sin-asignar", "version": "vigente", "fuente": "SIT-CAM WFS — UsoDelSuelo:VPLA_V_CLASIFICACION (https://idem.comunidad.madrid/geosrvg/ows)", "fecha_dato": "2026-05-12", "ambito": "31841", "_raw_CD_SIGLAS": "SUC", "_raw_DS_CLASIF_GEN": "Suelo Urbano Consolidado", "_raw_DS_CLASIF_DET": "Suelo Urbano", "_raw_DS_DOCU": "NORMAS SUBSIDIARIAS", "_raw_DS_LEY": "CM Ley 9/1995, E RDL 1/1992", "_raw_FC_AC": "1996-12-23", "_raw_NM_AREA_M2": 218043.843918431, "_cam_code": "102" }, "geometry": { "type": "Polygon", "coordinates": [ [ [ -3.2146, 40.2911 ], [ -3.2153, 40.2912 ], [ -3.2148, 40.2905 ], [ -3.214, 40.2902 ], [ -3.2134, 40.2897 ], [ -3.213, 40.2887 ], [ -3.2129, 40.2881 ], [ -3.2128, 40.2881 ], [ -3.2128, 40.2879 ], [ -3.213, 40.2879 ], [ -3.213, 40.288 ], [ -3.2131, 40.2879 ], [ -3.2135, 40.2881 ], [ -3.2141, 40.288 ], [ -3.214, 40.2878 ], [ -3.2141, 40.2875 ], [ -3.2146, 40.2869 ], [ -3.2146, 40.2866 ], [ -3.2141, 40.2865 ], [ -3.2134, 40.2868 ], [ -3.2133, 40.2866 ], [ -3.2129, 40.2869 ], [ -3.2124, 40.2869 ], [ -3.2119, 40.2872 ], [ -3.2117, 40.2871 ], [ -3.2115, 40.2868 ], [ -3.212, 40.2866 ], [ -3.212, 40.2865 ], [ -3.2119, 40.2864 ], [ -3.2114, 40.2867 ], [ -3.2114, 40.2866 ], [ -3.2119, 40.2863 ], [ -3.2118, 40.2862 ], [ -3.2119, 40.2861 ], [ -3.2125, 40.2859 ], [ -3.2121, 40.2856 ], [ -3.2117, 40.2856 ], [ -3.2116, 40.2853 ], [ -3.211, 40.2847 ], [ -3.2107, 40.2848 ], [ -3.2111, 40.285 ], [ -3.2114, 40.2854 ], [ -3.211, 40.2855 ], [ -3.2105, 40.2848 ], [ -3.2105, 40.2846 ], [ -3.2104, 40.2846 ], [ -3.2104, 40.2844 ], [ -3.2108, 40.2844 ], [ -3.2108, 40.2843 ], [ -3.2105, 40.2842 ], [ -3.2104, 40.2843 ], [ -3.2103, 40.284 ], [ -3.21, 40.2837 ], [ -3.21, 40.2835 ], [ -3.2099, 40.2835 ], [ -3.2099, 40.283 ], [ -3.21, 40.2829 ], [ -3.2099, 40.2829 ], [ -3.2099, 40.2824 ], [ -3.2098, 40.2823 ], [ -3.209, 40.2823 ], [ -3.2091, 40.2827 ], [ -3.2089, 40.2828 ], [ -3.2085, 40.2828 ], [ -3.2084, 40.2826 ], [ -3.2079, 40.2827 ], [ -3.2077, 40.2824 ], [ -3.2053, 40.2836 ], [ -3.2058, 40.2842 ], [ -3.2058, 40.2845 ], [ -3.2056, 40.2846 ], [ -3.2057, 40.2847 ], [ -3.2052, 40.2851 ], [ -3.2054, 40.2854 ], [ -3.2062, 40.2851 ], [ -3.2061, 40.2852 ], [ -3.2062, 40.2855 ], [ -3.2063, 40.2855 ], [ -3.2062, 40.2855 ], [ -3.2062, 40.2857 ], [ -3.2064, 40.2858 ], [ -3.2068, 40.2856 ], [ -3.2072, 40.286 ], [ -3.2076, 40.2856 ], [ -3.2081, 40.2859 ], [ -3.2083, 40.2863 ], [ -3.2092, 40.2864 ], [ -3.21, 40.2864 ], [ -3.2101, 40.2863 ], [ -3.2104, 40.2866 ], [ -3.2107, 40.2864 ], [ -3.2114, 40.2872 ], [ -3.2122, 40.2874 ], [ -3.2116, 40.2878 ], [ -3.2119, 40.288 ], [ -3.2118, 40.2881 ], [ -3.2122, 40.2885 ], [ -3.2128, 40.2895 ], [ -3.2127, 40.2898 ], [ -3.2129, 40.2901 ], [ -3.214, 40.2907 ], [ -3.2146, 40.2908 ], [ -3.2146, 40.2911 ] ] ] } },
{ "type": "Feature", "properties": { "municipio": "Orusco de Tajuña", "clasificacion": "urbano-consolidado", "calificacion": "sin-asignar", "version": "vigente", "fuente": "SIT-CAM WFS — UsoDelSuelo:VPLA_V_CLASIFICACION (https://idem.comunidad.madrid/geosrvg/ows)", "fecha_dato": "2026-05-12", "ambito": "31841", "_raw_CD_SIGLAS": "SUC", "_raw_DS_CLASIF_GEN": "Suelo Urbano Consolidado", "_raw_DS_CLASIF_DET": "Suelo Urbano", "_raw_DS_DOCU": "NORMAS SUBSIDIARIAS", "_raw_DS_LEY": "CM Ley 9/1995, E RDL 1/1992", "_raw_FC_AC": "1996-12-23", "_raw_NM_AREA_M2": 547.71502033479305, "_cam_code": "102" }, "geometry": { "type": "Polygon", "coordinates": [ [ [ -3.2088, 40.2818 ], [ -3.209, 40.282 ], [ -3.2092, 40.2819 ], [ -3.209, 40.2817 ], [ -3.2088, 40.2818 ] ] ] } },
{ "type": "Feature", "properties": { "municipio": "Orusco de Tajuña", "clasificacion": "urbano-consolidado", "calificacion": "sin-asignar", "version": "vigente", "fuente": "SIT-CAM WFS — UsoDelSuelo:VPLA_V_CLASIFICACION (https://idem.comunidad.madrid/geosrvg/ows)", "fecha_dato": "2026-05-12", "ambito": "31841", "_raw_CD_SIGLAS": "SUC", "_raw_DS_CLASIF_GEN": "Suelo Urbano Consolidado", "_raw_DS_CLASIF_DET": "Suelo Urbano", "_raw_DS_DOCU": "NORMAS SUBSIDIARIAS", "_raw_DS_LEY": "CM Ley 9/1995, E RDL 1/1992", "_raw_FC_AC": "1996-12-23", "_raw_NM_AREA_M2": 2074.5744261326799, "_cam_code": "102" }, "geometry": { "type": "Polygon", "coordinates": [ [ [ -3.2087, 40.2819 ], [ -3.2083, 40.2821 ], [ -3.2084, 40.2821 ], [ -3.2083, 40.2824 ], [ -3.2091, 40.2822 ], [ -3.2087, 40.2819 ] ] ] } },
{ "type": "Feature", "properties": { "municipio": "Orusco de Tajuña", "clasificacion": "urbano-consolidado", "calificacion": "sin-asignar", "version": "vigente", "fuente": "SIT-CAM WFS — UsoDelSuelo:VPLA_V_CLASIFICACION (https://idem.comunidad.madrid/geosrvg/ows)", "fecha_dato": "2026-05-12", "ambito": "31841", "_raw_CD_SIGLAS": "SUC", "_raw_DS_CLASIF_GEN": "Suelo Urbano Consolidado", "_raw_DS_CLASIF_DET": "Suelo Urbano", "_raw_DS_DOCU": "NORMAS SUBSIDIARIAS", "_raw_DS_LEY": "CM Ley 9/1995, E RDL 1/1992", "_raw_FC_AC": "1996-12-23", "_raw_NM_AREA_M2": 170.602108154848, "_cam_code": "102" }, "geometry": { "type": "Polygon", "coordinates": [ [ [ -3.207, 40.286 ], [ -3.2067, 40.2861 ], [ -3.2066, 40.2864 ], [ -3.207, 40.286 ] ] ] } },
{ "type": "Feature", "properties": { "municipio": "Orusco de Tajuña", "clasificacion": "urbano-no-consolidado", "calificacion": "sin-asignar", "version": "vigente", "fuente": "SIT-CAM WFS — UsoDelSuelo:VPLA_V_CLASIFICACION (https://idem.comunidad.madrid/geosrvg/ows)", "fecha_dato": "2026-05-12", "ambito": "31841", "_raw_CD_SIGLAS": "SUNC", "_raw_DS_CLASIF_GEN": "Suelo Urbano No Consolidado", "_raw_DS_CLASIF_DET": "Suelo Urbano", "_raw_DS_DOCU": "NORMAS SUBSIDIARIAS", "_raw_DS_LEY": "CM Ley 9/1995, E RDL 1/1992", "_raw_FC_AC": "1996-12-23", "_raw_NM_AREA_M2": 81341.1398412813, "_cam_code": "102" }, "geometry": { "type": "Polygon", "coordinates": [ [ [ -3.2151, 40.2908 ], [ -3.2154, 40.2908 ], [ -3.2151, 40.2897 ], [ -3.2168, 40.2881 ], [ -3.2157, 40.2878 ], [ -3.2159, 40.2871 ], [ -3.2161, 40.287 ], [ -3.216, 40.2868 ], [ -3.2163, 40.2863 ], [ -3.2145, 40.2865 ], [ -3.2146, 40.2869 ], [ -3.2141, 40.2875 ], [ -3.214, 40.2878 ], [ -3.2141, 40.288 ], [ -3.2135, 40.2881 ], [ -3.2131, 40.2879 ], [ -3.213, 40.288 ], [ -3.213, 40.2879 ], [ -3.2128, 40.2879 ], [ -3.2134, 40.2897 ], [ -3.214, 40.2902 ], [ -3.2148, 40.2905 ], [ -3.2151, 40.2908 ] ] ] } },
{ "type": "Feature", "properties": { "municipio": "Orusco de Tajuña", "clasificacion": "urbano-no-consolidado", "calificacion": "sin-asignar", "version": "vigente", "fuente": "SIT-CAM WFS — UsoDelSuelo:VPLA_V_CLASIFICACION (https://idem.comunidad.madrid/geosrvg/ows)", "fecha_dato": "2026-05-12", "ambito": "31841", "_raw_CD_SIGLAS": "SUNC", "_raw_DS_CLASIF_GEN": "Suelo Urbano No Consolidado", "_raw_DS_CLASIF_DET": "Suelo Urbano", "_raw_DS_DOCU": "NORMAS SUBSIDIARIAS", "_raw_DS_LEY": "CM Ley 9/1995, E RDL 1/1992", "_raw_FC_AC": "1996-12-23", "_raw_NM_AREA_M2": 90535.905041272796, "_cam_code": "102" }, "geometry": { "type": "Polygon", "coordinates": [ [ [ -3.2054, 40.2874 ], [ -3.2065, 40.2879 ], [ -3.207, 40.2877 ], [ -3.207, 40.287 ], [ -3.2072, 40.287 ], [ -3.2077, 40.2874 ], [ -3.209, 40.287 ], [ -3.2094, 40.2867 ], [ -3.2097, 40.2867 ], [ -3.2097, 40.2866 ], [ -3.21, 40.2865 ], [ -3.21, 40.2867 ], [ -3.2104, 40.2866 ], [ -3.2104, 40.2865 ], [ -3.2101, 40.2863 ], [ -3.21, 40.2864 ], [ -3.2083, 40.2863 ], [ -3.2081, 40.2859 ], [ -3.2076, 40.2856 ], [ -3.2072, 40.286 ], [ -3.2068, 40.2856 ], [ -3.2064, 40.2858 ], [ -3.2062, 40.2857 ], [ -3.2062, 40.2855 ], [ -3.2063, 40.2855 ], [ -3.2062, 40.2855 ], [ -3.2061, 40.2852 ], [ -3.2062, 40.2851 ], [ -3.2056, 40.2853 ], [ -3.2056, 40.2854 ], [ -3.2054, 40.2854 ], [ -3.2053, 40.2852 ], [ -3.2049, 40.2853 ], [ -3.2039, 40.2852 ], [ -3.2039, 40.2853 ], [ -3.2034, 40.2855 ], [ -3.2035, 40.2855 ], [ -3.2032, 40.2858 ], [ -3.2034, 40.2861 ], [ -3.2033, 40.2866 ], [ -3.2041, 40.2866 ], [ -3.2048, 40.2868 ], [ -3.2047, 40.2871 ], [ -3.2052, 40.2872 ], [ -3.2054, 40.2874 ] ], [ [ -3.2066, 40.2864 ], [ -3.2067, 40.2861 ], [ -3.207, 40.286 ], [ -3.2068, 40.2861 ], [ -3.2066, 40.2864 ] ] ] } },
{ "type": "Feature", "properties": { "municipio": "Orusco de Tajuña", "clasificacion": "urbano-no-consolidado", "calificacion": "sin-asignar", "version": "vigente", "fuente": "SIT-CAM WFS — UsoDelSuelo:VPLA_V_CLASIFICACION (https://idem.comunidad.madrid/geosrvg/ows)", "fecha_dato": "2026-05-12", "ambito": "31841", "_raw_CD_SIGLAS": "SUNC", "_raw_DS_CLASIF_GEN": "Suelo Urbano No Consolidado", "_raw_DS_CLASIF_DET": "Suelo Urbano", "_raw_DS_DOCU": "NORMAS SUBSIDIARIAS", "_raw_DS_LEY": "CM Ley 9/1995, E RDL 1/1992", "_raw_FC_AC": "1996-12-23", "_raw_NM_AREA_M2": 6554.68732521523, "_cam_code": "102" }, "geometry": { "type": "Polygon", "coordinates": [ [ [ -3.2104, 40.2866 ], [ -3.2108, 40.2868 ], [ -3.2109, 40.2874 ], [ -3.2116, 40.2878 ], [ -3.2122, 40.2874 ], [ -3.2114, 40.2872 ], [ -3.2107, 40.2864 ], [ -3.2104, 40.2866 ] ] ] } },
{ "type": "Feature", "properties": { "municipio": "Orusco de Tajuña", "clasificacion": "urbano-no-consolidado", "calificacion": "sin-asignar", "version": "vigente", "fuente": "SIT-CAM WFS — UsoDelSuelo:VPLA_V_CLASIFICACION (https://idem.comunidad.madrid/geosrvg/ows)", "fecha_dato": "2026-05-12", "ambito": "31841", "_raw_CD_SIGLAS": "SUNC", "_raw_DS_CLASIF_GEN": "Suelo Urbano No Consolidado", "_raw_DS_CLASIF_DET": "Suelo Urbano", "_raw_DS_DOCU": "NORMAS SUBSIDIARIAS", "_raw_DS_LEY": "CM Ley 9/1995, E RDL 1/1992", "_raw_FC_AC": "1996-12-23", "_raw_NM_AREA_M2": 3756.6689606237901, "_cam_code": "102" }, "geometry": { "type": "Polygon", "coordinates": [ [ [ -3.2119, 40.2864 ], [ -3.212, 40.2866 ], [ -3.2115, 40.2868 ], [ -3.2119, 40.2872 ], [ -3.2124, 40.2869 ], [ -3.2122, 40.2866 ], [ -3.2119, 40.2863 ], [ -3.2114, 40.2866 ], [ -3.2114, 40.2867 ], [ -3.2119, 40.2864 ] ] ] } },
{ "type": "Feature", "properties": { "municipio": "Orusco de Tajuña", "clasificacion": "urbano-no-consolidado", "calificacion": "sin-asignar", "version": "vigente", "fuente": "SIT-CAM WFS — UsoDelSuelo:VPLA_V_CLASIFICACION (https://idem.comunidad.madrid/geosrvg/ows)", "fecha_dato": "2026-05-12", "ambito": "31841", "_raw_CD_SIGLAS": "SUNC", "_raw_DS_CLASIF_GEN": "Suelo Urbano No Consolidado", "_raw_DS_CLASIF_DET": "Suelo Urbano", "_raw_DS_DOCU": "NORMAS SUBSIDIARIAS", "_raw_DS_LEY": "CM Ley 9/1995, E RDL 1/1992", "_raw_FC_AC": "1996-12-23", "_raw_NM_AREA_M2": 16881.934089895702, "_cam_code": "102" }, "geometry": { "type": "Polygon", "coordinates": [ [ [ -3.2115, 40.2842 ], [ -3.2116, 40.2845 ], [ -3.2118, 40.2848 ], [ -3.212, 40.2848 ], [ -3.2121, 40.2851 ], [ -3.2127, 40.2854 ], [ -3.213, 40.2851 ], [ -3.2127, 40.2848 ], [ -3.2128, 40.2847 ], [ -3.2125, 40.2842 ], [ -3.2128, 40.2841 ], [ -3.2129, 40.284 ], [ -3.2128, 40.2839 ], [ -3.2136, 40.2834 ], [ -3.2133, 40.2832 ], [ -3.2126, 40.2836 ], [ -3.2121, 40.2836 ], [ -3.2123, 40.2838 ], [ -3.2117, 40.2839 ], [ -3.2115, 40.2841 ], [ -3.2116, 40.2842 ], [ -3.2115, 40.2842 ] ] ] } },
{ "type": "Feature", "properties": { "municipio": "Orusco de Tajuña", "clasificacion": "urbano-no-consolidado", "calificacion": "sin-asignar", "version": "vigente", "fuente": "SIT-CAM WFS — UsoDelSuelo:VPLA_V_CLASIFICACION (https://idem.comunidad.madrid/geosrvg/ows)", "fecha_dato": "2026-05-12", "ambito": "31841", "_raw_CD_SIGLAS": "SUNC", "_raw_DS_CLASIF_GEN": "Suelo Urbano No Consolidado", "_raw_DS_CLASIF_DET": "Suelo Urbano", "_raw_DS_DOCU": "NORMAS SUBSIDIARIAS", "_raw_DS_LEY": "CM Ley 9/1995, E RDL 1/1992", "_raw_FC_AC": "1996-12-23", "_raw_NM_AREA_M2": 35219.566031112998, "_cam_code": "102" }, "geometry": { "type": "Polygon", "coordinates": [ [ [ -3.2114, 40.2837 ], [ -3.2116, 40.284 ], [ -3.212, 40.2835 ], [ -3.2118, 40.283 ], [ -3.2119, 40.2827 ], [ -3.2116, 40.2824 ], [ -3.2113, 40.2825 ], [ -3.2113, 40.2821 ], [ -3.2111, 40.2821 ], [ -3.211, 40.2823 ], [ -3.2109, 40.2823 ], [ -3.2109, 40.2823 ], [ -3.2109, 40.2823 ], [ -3.2107, 40.2821 ], [ -3.2107, 40.2821 ], [ -3.2107, 40.2821 ], [ -3.2107, 40.2822 ], [ -3.2107, 40.2822 ], [ -3.2107, 40.2822 ], [ -3.2107, 40.282 ], [ -3.2107, 40.2817 ], [ -3.2106, 40.2816 ], [ -3.2112, 40.2816 ], [ -3.2104, 40.2811 ], [ -3.209, 40.2817 ], [ -3.2092, 40.2819 ], [ -3.209, 40.282 ], [ -3.2088, 40.2818 ], [ -3.2091, 40.2822 ], [ -3.2083, 40.2824 ], [ -3.2084, 40.2821 ], [ -3.2082, 40.2821 ], [ -3.2077, 40.2824 ], [ -3.2079, 40.2827 ], [ -3.2084, 40.2826 ], [ -3.2085, 40.2828 ], [ -3.2091, 40.2827 ], [ -3.209, 40.2823 ], [ -3.2098, 40.2823 ], [ -3.2099, 40.2825 ], [ -3.2103, 40.2824 ], [ -3.2103, 40.2823 ], [ -3.2108, 40.2824 ], [ -3.2109, 40.2836 ], [ -3.2111, 40.2838 ], [ -3.2114, 40.2837 ] ] ] } }
]
}
