{
"type": "FeatureCollection",
"name": "vigente.full",
"features": [
{ "type": "Feature", "properties": { "municipio": "El Vellón", "clasificacion": "urbano-consolidado", "calificacion": "sin-asignar", "version": "vigente", "fuente": "SIT-CAM WFS — UsoDelSuelo:VPLA_V_CLASIFICACION (https://idem.comunidad.madrid/geosrvg/ows)", "fecha_dato": "2026-05-12", "ambito": "163", "_raw_CD_SIGLAS": "SU", "_raw_DS_CLASIF_GEN": "Suelo Urbano", "_raw_DS_CLASIF_DET": "Suelo Urbano Ensanche", "_raw_DS_DOCU": "NORMAS COMPLEMENTARIAS", "_raw_DS_LEY": "E RD 1346/1976", "_raw_FC_AC": "1976-11-13", "_raw_NM_AREA_M2": 111157.476957652, "_cam_code": "168" }, "geometry": { "type": "Polygon", "coordinates": [ [ [ -3.5827, 40.77 ], [ -3.583, 40.7694 ], [ -3.5847, 40.7687 ], [ -3.5847, 40.7686 ], [ -3.5842, 40.7684 ], [ -3.5845, 40.7681 ], [ -3.5848, 40.768 ], [ -3.585, 40.7677 ], [ -3.5863, 40.7678 ], [ -3.5861, 40.7671 ], [ -3.5858, 40.7668 ], [ -3.5862, 40.7666 ], [ -3.5861, 40.7664 ], [ -3.5854, 40.7658 ], [ -3.5835, 40.765 ], [ -3.5832, 40.765 ], [ -3.5832, 40.7651 ], [ -3.5838, 40.7657 ], [ -3.5837, 40.7662 ], [ -3.5836, 40.7662 ], [ -3.5834, 40.7672 ], [ -3.5831, 40.7671 ], [ -3.5829, 40.7672 ], [ -3.583, 40.7682 ], [ -3.5828, 40.7683 ], [ -3.5825, 40.7688 ], [ -3.5822, 40.7687 ], [ -3.5818, 40.7689 ], [ -3.5818, 40.7691 ], [ -3.5812, 40.7688 ], [ -3.5808, 40.7689 ], [ -3.5804, 40.7687 ], [ -3.5798, 40.7687 ], [ -3.5796, 40.7685 ], [ -3.5796, 40.7686 ], [ -3.579, 40.7688 ], [ -3.5787, 40.7692 ], [ -3.5785, 40.7692 ], [ -3.5785, 40.7694 ], [ -3.5787, 40.7695 ], [ -3.5793, 40.7695 ], [ -3.5794, 40.7696 ], [ -3.5798, 40.7696 ], [ -3.5798, 40.7695 ], [ -3.5803, 40.7694 ], [ -3.5806, 40.7694 ], [ -3.5806, 40.7696 ], [ -3.5814, 40.7696 ], [ -3.582, 40.7693 ], [ -3.5819, 40.7699 ], [ -3.5827, 40.77 ] ] ] } },
{ "type": "Feature", "properties": { "municipio": "El Vellón", "clasificacion": "urbano-consolidado", "calificacion": "sin-asignar", "version": "vigente", "fuente": "SIT-CAM WFS — UsoDelSuelo:VPLA_V_CLASIFICACION (https://idem.comunidad.madrid/geosrvg/ows)", "fecha_dato": "2026-05-12", "ambito": "163", "_raw_CD_SIGLAS": "SU", "_raw_DS_CLASIF_GEN": "Suelo Urbano", "_raw_DS_CLASIF_DET": "Suelo Urbano Ensanche", "_raw_DS_DOCU": "NORMAS COMPLEMENTARIAS", "_raw_DS_LEY": "E RD 1346/1976", "_raw_FC_AC": "1976-11-13", "_raw_NM_AREA_M2": 20178.396771806601, "_cam_code": "168" }, "geometry": { "type": "Polygon", "coordinates": [ [ [ -3.5376, 40.7695 ], [ -3.5399, 40.7694 ], [ -3.5398, 40.7685 ], [ -3.5374, 40.7685 ], [ -3.5377, 40.7691 ], [ -3.5376, 40.7695 ] ] ] } },
{ "type": "Feature", "properties": { "municipio": "El Vellón", "clasificacion": "urbano-consolidado", "calificacion": "sin-asignar", "version": "vigente", "fuente": "SIT-CAM WFS — UsoDelSuelo:VPLA_V_CLASIFICACION (https://idem.comunidad.madrid/geosrvg/ows)", "fecha_dato": "2026-05-12", "ambito": "163", "_raw_CD_SIGLAS": "SU", "_raw_DS_CLASIF_GEN": "Suelo Urbano", "_raw_DS_CLASIF_DET": "Suelo Urbano Casco Antiguo", "_raw_DS_DOCU": "NORMAS COMPLEMENTARIAS", "_raw_DS_LEY": "E RD 1346/1976", "_raw_FC_AC": "1976-11-13", "_raw_NM_AREA_M2": 117427.50942613, "_cam_code": "168" }, "geometry": { "type": "Polygon", "coordinates": [ [ [ -3.5787, 40.7692 ], [ -3.579, 40.7688 ], [ -3.5796, 40.7686 ], [ -3.5796, 40.7685 ], [ -3.5798, 40.7687 ], [ -3.5804, 40.7687 ], [ -3.5808, 40.7689 ], [ -3.5812, 40.7688 ], [ -3.5818, 40.7691 ], [ -3.5818, 40.7689 ], [ -3.5822, 40.7687 ], [ -3.5825, 40.7688 ], [ -3.5828, 40.7683 ], [ -3.583, 40.7682 ], [ -3.5829, 40.7672 ], [ -3.583, 40.7671 ], [ -3.5834, 40.7672 ], [ -3.5836, 40.7662 ], [ -3.5837, 40.7662 ], [ -3.5838, 40.7658 ], [ -3.5833, 40.7653 ], [ -3.5832, 40.7649 ], [ -3.5822, 40.7647 ], [ -3.5821, 40.7651 ], [ -3.5816, 40.7651 ], [ -3.5814, 40.7653 ], [ -3.5814, 40.7655 ], [ -3.5813, 40.7655 ], [ -3.5813, 40.7657 ], [ -3.5809, 40.766 ], [ -3.5809, 40.7662 ], [ -3.5812, 40.7662 ], [ -3.5812, 40.7665 ], [ -3.5797, 40.7672 ], [ -3.5792, 40.7678 ], [ -3.5782, 40.7673 ], [ -3.5785, 40.7692 ], [ -3.5787, 40.7692 ] ] ] } },
{ "type": "Feature", "properties": { "municipio": "El Vellón", "clasificacion": "urbano-consolidado", "calificacion": "sin-asignar", "version": "vigente", "fuente": "SIT-CAM WFS — UsoDelSuelo:VPLA_V_CLASIFICACION (https://idem.comunidad.madrid/geosrvg/ows)", "fecha_dato": "2026-05-12", "ambito": "163", "_raw_CD_SIGLAS": "SU", "_raw_DS_CLASIF_GEN": "Suelo Urbano", "_raw_DS_CLASIF_DET": "Suelo Urbano Casco Antiguo", "_raw_DS_DOCU": "NORMAS COMPLEMENTARIAS", "_raw_DS_LEY": "E RD 1346/1976", "_raw_FC_AC": "1976-11-13", "_raw_NM_AREA_M2": 48620.859160733497, "_cam_code": "168" }, "geometry": { "type": "Polygon", "coordinates": [ [ [ -3.5337, 40.7697 ], [ -3.5348, 40.7698 ], [ -3.5348, 40.7697 ], [ -3.5351, 40.7696 ], [ -3.5376, 40.7695 ], [ -3.5377, 40.7691 ], [ -3.5372, 40.7679 ], [ -3.5375, 40.7676 ], [ -3.537, 40.7672 ], [ -3.5367, 40.7678 ], [ -3.5354, 40.768 ], [ -3.5353, 40.7685 ], [ -3.5351, 40.7685 ], [ -3.5348, 40.7688 ], [ -3.5343, 40.7689 ], [ -3.5342, 40.7691 ], [ -3.5338, 40.7692 ], [ -3.5336, 40.7694 ], [ -3.5337, 40.7697 ] ] ] } },
{ "type": "Feature", "properties": { "municipio": "El Vellón", "clasificacion": "urbano-consolidado", "calificacion": "sin-asignar", "version": "vigente", "fuente": "SIT-CAM WFS — UsoDelSuelo:VPLA_V_CLASIFICACION (https://idem.comunidad.madrid/geosrvg/ows)", "fecha_dato": "2026-05-12", "ambito": "163", "_raw_CD_SIGLAS": "SU", "_raw_DS_CLASIF_GEN": "Suelo Urbano", "_raw_DS_CLASIF_DET": "Suelo Urbano Ensanche", "_raw_DS_DOCU": "NORMAS COMPLEMENTARIAS", "_raw_DS_LEY": "E RD 1346/1976", "_raw_FC_AC": "1976-11-13", "_raw_NM_AREA_M2": 124790.015557526, "_cam_code": "168" }, "geometry": { "type": "Polygon", "coordinates": [ [ [ -3.5771, 40.7662 ], [ -3.5779, 40.7671 ], [ -3.5792, 40.7678 ], [ -3.5797, 40.7672 ], [ -3.5812, 40.7665 ], [ -3.5812, 40.7662 ], [ -3.5809, 40.7662 ], [ -3.5809, 40.766 ], [ -3.5813, 40.7657 ], [ -3.5813, 40.7655 ], [ -3.5814, 40.7655 ], [ -3.5814, 40.7653 ], [ -3.5816, 40.7651 ], [ -3.5809, 40.7646 ], [ -3.5802, 40.7645 ], [ -3.5799, 40.7644 ], [ -3.5799, 40.7643 ], [ -3.5794, 40.7643 ], [ -3.5794, 40.7642 ], [ -3.5792, 40.7642 ], [ -3.5782, 40.7636 ], [ -3.5767, 40.7636 ], [ -3.5767, 40.7655 ], [ -3.5771, 40.7662 ] ] ] } },
{ "type": "Feature", "properties": { "municipio": "El Vellón", "clasificacion": "urbanizable-no-sectorizado", "calificacion": "sin-asignar", "version": "vigente", "fuente": "SIT-CAM WFS — UsoDelSuelo:VPLA_V_CLASIFICACION (https://idem.comunidad.madrid/geosrvg/ows)", "fecha_dato": "2026-05-12", "ambito": "163", "_raw_CD_SIGLAS": "SUBNS", "_raw_DS_CLASIF_GEN": "Suelo Rústico", "_raw_DS_CLASIF_DET": "Suelo Rústico", "_raw_DS_DOCU": "NORMAS COMPLEMENTARIAS", "_raw_DS_LEY": "E RD 1346/1976", "_raw_FC_AC": "1976-11-13", "_raw_NM_AREA_M2": 777641.32515710895, "_cam_code": "168" }, "geometry": { "type": "Polygon", "coordinates": [ [ [ -3.512, 40.7886 ], [ -3.5126, 40.7889 ], [ -3.5186, 40.7883 ], [ -3.5215, 40.7876 ], [ -3.5217, 40.7872 ], [ -3.5216, 40.7863 ], [ -3.521, 40.7852 ], [ -3.5184, 40.7829 ], [ -3.5147, 40.7805 ], [ -3.5118, 40.7791 ], [ -3.5109, 40.7802 ], [ -3.5094, 40.7812 ], [ -3.5088, 40.7821 ], [ -3.5089, 40.7851 ], [ -3.5096, 40.7863 ], [ -3.5099, 40.7877 ], [ -3.5108, 40.7885 ], [ -3.512, 40.7886 ] ] ] } },
{ "type": "Feature", "properties": { "municipio": "El Vellón", "clasificacion": "urbanizable-no-sectorizado", "calificacion": "sin-asignar", "version": "vigente", "fuente": "SIT-CAM WFS — UsoDelSuelo:VPLA_V_CLASIFICACION (https://idem.comunidad.madrid/geosrvg/ows)", "fecha_dato": "2026-05-12", "ambito": "163", "_raw_CD_SIGLAS": "SUBNS", "_raw_DS_CLASIF_GEN": "Suelo de Reserva Metropolitana", "_raw_DS_CLASIF_DET": "Suelo de Reserva Metropolitana", "_raw_DS_DOCU": "NORMAS COMPLEMENTARIAS", "_raw_DS_LEY": "E RD 1346/1976", "_raw_FC_AC": "1976-11-13", "_raw_NM_AREA_M2": 20835092.797006801, "_cam_code": "168" }, "geometry": { "type": "Polygon", "coordinates": [ [ [ -3.5524, 40.7898 ], [ -3.5577, 40.792 ], [ -3.5591, 40.7917 ], [ -3.5611, 40.7907 ], [ -3.5658, 40.7901 ], [ -3.574, 40.7909 ], [ -3.5747, 40.7906 ], [ -3.5764, 40.7905 ], [ -3.5764, 40.7906 ], [ -3.5769, 40.7907 ], [ -3.577, 40.7909 ], [ -3.5779, 40.7915 ], [ -3.5788, 40.7916 ], [ -3.5802, 40.7914 ], [ -3.5807, 40.7907 ], [ -3.5816, 40.7905 ], [ -3.5822, 40.7899 ], [ -3.5837, 40.7894 ], [ -3.5837, 40.7895 ], [ -3.5841, 40.7895 ], [ -3.5845, 40.7897 ], [ -3.5848, 40.7897 ], [ -3.5848, 40.7896 ], [ -3.5851, 40.7898 ], [ -3.5907, 40.79 ], [ -3.5924, 40.7906 ], [ -3.5959, 40.791 ], [ -3.5979, 40.7911 ], [ -3.5995, 40.7906 ], [ -3.6011, 40.7897 ], [ -3.6019, 40.7891 ], [ -3.6043, 40.7882 ], [ -3.604, 40.7878 ], [ -3.6032, 40.7875 ], [ -3.6031, 40.7873 ], [ -3.6026, 40.7871 ], [ -3.602, 40.7864 ], [ -3.6015, 40.7861 ], [ -3.6006, 40.786 ], [ -3.5973, 40.7852 ], [ -3.5973, 40.7851 ], [ -3.5952, 40.7842 ], [ -3.5939, 40.784 ], [ -3.5939, 40.7839 ], [ -3.5922, 40.7834 ], [ -3.5917, 40.7831 ], [ -3.5905, 40.7829 ], [ -3.5896, 40.7824 ], [ -3.5894, 40.7822 ], [ -3.5895, 40.7821 ], [ -3.5894, 40.782 ], [ -3.5882, 40.7813 ], [ -3.5879, 40.781 ], [ -3.5872, 40.7806 ], [ -3.587, 40.7806 ], [ -3.587, 40.7805 ], [ -3.5868, 40.7805 ], [ -3.5868, 40.7804 ], [ -3.586, 40.7802 ], [ -3.5849, 40.7797 ], [ -3.585, 40.7783 ], [ -3.5859, 40.7757 ], [ -3.5869, 40.7735 ], [ -3.5884, 40.7709 ], [ -3.5892, 40.7702 ], [ -3.5909, 40.7692 ], [ -3.5925, 40.7687 ], [ -3.5941, 40.7684 ], [ -3.5968, 40.7684 ], [ -3.598, 40.7686 ], [ -3.5982, 40.7688 ], [ -3.5993, 40.7719 ], [ -3.6007, 40.7741 ], [ -3.6036, 40.7775 ], [ -3.6044, 40.7786 ], [ -3.6054, 40.7807 ], [ -3.606, 40.7828 ], [ -3.6061, 40.7846 ], [ -3.6057, 40.7876 ], [ -3.6078, 40.7867 ], [ -3.6081, 40.7867 ], [ -3.6102, 40.7859 ], [ -3.6093, 40.7812 ], [ -3.6086, 40.7797 ], [ -3.6044, 40.7764 ], [ -3.6042, 40.7757 ], [ -3.6041, 40.773 ], [ -3.6035, 40.7718 ], [ -3.6009, 40.7652 ], [ -3.5983, 40.758 ], [ -3.5972, 40.7562 ], [ -3.5947, 40.7526 ], [ -3.5938, 40.7506 ], [ -3.5912, 40.749 ], [ -3.59, 40.7491 ], [ -3.5872, 40.7482 ], [ -3.5862, 40.7488 ], [ -3.5849, 40.75 ], [ -3.5821, 40.7504 ], [ -3.5801, 40.75 ], [ -3.5767, 40.7497 ], [ -3.5762, 40.7505 ], [ -3.576, 40.7505 ], [ -3.5757, 40.7508 ], [ -3.5747, 40.7512 ], [ -3.5735, 40.7519 ], [ -3.5725, 40.7522 ], [ -3.5713, 40.7523 ], [ -3.571, 40.7522 ], [ -3.565, 40.7519 ], [ -3.5624, 40.7528 ], [ -3.5619, 40.7534 ], [ -3.5618, 40.7537 ], [ -3.5609, 40.7546 ], [ -3.5605, 40.7552 ], [ -3.5606, 40.7559 ], [ -3.5602, 40.7561 ], [ -3.56, 40.7567 ], [ -3.56, 40.7572 ], [ -3.5595, 40.7576 ], [ -3.5595, 40.7578 ], [ -3.5597, 40.7582 ], [ -3.5598, 40.7582 ], [ -3.5597, 40.7585 ], [ -3.559, 40.7587 ], [ -3.5587, 40.7591 ], [ -3.5587, 40.7593 ], [ -3.5584, 40.7596 ], [ -3.557, 40.7606 ], [ -3.5569, 40.7616 ], [ -3.5568, 40.7617 ], [ -3.5559, 40.7618 ], [ -3.5556, 40.762 ], [ -3.5555, 40.7629 ], [ -3.5552, 40.7636 ], [ -3.5551, 40.7646 ], [ -3.5542, 40.7652 ], [ -3.5527, 40.7682 ], [ -3.5525, 40.7701 ], [ -3.5527, 40.7722 ], [ -3.5531, 40.774 ], [ -3.5529, 40.7764 ], [ -3.551, 40.7764 ], [ -3.551, 40.7765 ], [ -3.5507, 40.7765 ], [ -3.5507, 40.7766 ], [ -3.5504, 40.7766 ], [ -3.5501, 40.7768 ], [ -3.5498, 40.7768 ], [ -3.5498, 40.7769 ], [ -3.5496, 40.7768 ], [ -3.5487, 40.7768 ], [ -3.5487, 40.7767 ], [ -3.5474, 40.7769 ], [ -3.545, 40.7766 ], [ -3.5434, 40.7751 ], [ -3.5416, 40.7739 ], [ -3.5364, 40.7695 ], [ -3.5351, 40.7696 ], [ -3.5348, 40.7697 ], [ -3.5348, 40.7698 ], [ -3.5337, 40.7697 ], [ -3.5336, 40.7694 ], [ -3.5338, 40.7692 ], [ -3.534, 40.7692 ], [ -3.5343, 40.7689 ], [ -3.5348, 40.7688 ], [ -3.5351, 40.7685 ], [ -3.5353, 40.7685 ], [ -3.5339, 40.7668 ], [ -3.5283, 40.7622 ], [ -3.5281, 40.7619 ], [ -3.525, 40.7614 ], [ -3.525, 40.7624 ], [ -3.5248, 40.7629 ], [ -3.5239, 40.7642 ], [ -3.5225, 40.7656 ], [ -3.521, 40.7666 ], [ -3.5206, 40.7674 ], [ -3.5202, 40.7677 ], [ -3.5192, 40.7701 ], [ -3.5165, 40.7732 ], [ -3.5132, 40.7765 ], [ -3.5118, 40.7791 ], [ -3.5147, 40.7805 ], [ -3.5184, 40.7829 ], [ -3.521, 40.7852 ], [ -3.5214, 40.7858 ], [ -3.5217, 40.7868 ], [ -3.5217, 40.7872 ], [ -3.5215, 40.7876 ], [ -3.5237, 40.7875 ], [ -3.5295, 40.7887 ], [ -3.5311, 40.7881 ], [ -3.5322, 40.788 ], [ -3.5326, 40.789 ], [ -3.5333, 40.7898 ], [ -3.5345, 40.7895 ], [ -3.5367, 40.7892 ], [ -3.5375, 40.7886 ], [ -3.545, 40.7892 ], [ -3.5503, 40.7904 ], [ -3.5512, 40.79 ], [ -3.5524, 40.7898 ] ], [ [ -3.5851, 40.774 ], [ -3.5852, 40.7744 ], [ -3.5853, 40.7744 ], [ -3.5853, 40.7754 ], [ -3.5852, 40.7756 ], [ -3.5853, 40.7767 ], [ -3.5842, 40.7773 ], [ -3.5811, 40.7768 ], [ -3.5805, 40.7774 ], [ -3.5792, 40.7766 ], [ -3.5792, 40.7765 ], [ -3.5779, 40.7758 ], [ -3.5775, 40.7754 ], [ -3.5768, 40.7751 ], [ -3.5762, 40.7746 ], [ -3.5766, 40.774 ], [ -3.5785, 40.7695 ], [ -3.5785, 40.7689 ], [ -3.5782, 40.7673 ], [ -3.5772, 40.7664 ], [ -3.5767, 40.7655 ], [ -3.5767, 40.7636 ], [ -3.5782, 40.7636 ], [ -3.5792, 40.7642 ], [ -3.5794, 40.7642 ], [ -3.5794, 40.7643 ], [ -3.5799, 40.7643 ], [ -3.5799, 40.7644 ], [ -3.5802, 40.7645 ], [ -3.5809, 40.7646 ], [ -3.5816, 40.7651 ], [ -3.5821, 40.7651 ], [ -3.5822, 40.7647 ], [ -3.5835, 40.765 ], [ -3.5854, 40.7658 ], [ -3.5866, 40.767 ], [ -3.5869, 40.7677 ], [ -3.5869, 40.7698 ], [ -3.5865, 40.7712 ], [ -3.5862, 40.7718 ], [ -3.5861, 40.7718 ], [ -3.5861, 40.772 ], [ -3.586, 40.772 ], [ -3.586, 40.7722 ], [ -3.5856, 40.7727 ], [ -3.5857, 40.7732 ], [ -3.5856, 40.7732 ], [ -3.5855, 40.7736 ], [ -3.5851, 40.774 ] ] ] } },
{ "type": "Feature", "properties": { "municipio": "El Vellón", "clasificacion": "urbanizable-no-sectorizado", "calificacion": "sin-asignar", "version": "vigente", "fuente": "SIT-CAM WFS — UsoDelSuelo:VPLA_V_CLASIFICACION (https://idem.comunidad.madrid/geosrvg/ows)", "fecha_dato": "2026-05-12", "ambito": "163", "_raw_CD_SIGLAS": "SUBNS", "_raw_DS_CLASIF_GEN": "Suelo Rústico", "_raw_DS_CLASIF_DET": "Suelo Rústico", "_raw_DS_DOCU": "NORMAS COMPLEMENTARIAS", "_raw_DS_LEY": "E RD 1346/1976", "_raw_FC_AC": "1976-11-13", "_raw_NM_AREA_M2": 8477133.5962918401, "_cam_code": "168" }, "geometry": { "type": "Polygon", "coordinates": [ [ [ -3.545, 40.7766 ], [ -3.5478, 40.7769 ], [ -3.5487, 40.7767 ], [ -3.5487, 40.7768 ], [ -3.5496, 40.7768 ], [ -3.5498, 40.7769 ], [ -3.5498, 40.7768 ], [ -3.5501, 40.7768 ], [ -3.5504, 40.7766 ], [ -3.5507, 40.7766 ], [ -3.5507, 40.7765 ], [ -3.551, 40.7765 ], [ -3.551, 40.7764 ], [ -3.5529, 40.7764 ], [ -3.5531, 40.774 ], [ -3.5527, 40.7722 ], [ -3.5525, 40.7701 ], [ -3.5527, 40.7682 ], [ -3.5542, 40.7652 ], [ -3.5551, 40.7646 ], [ -3.5552, 40.7636 ], [ -3.5555, 40.7629 ], [ -3.5556, 40.762 ], [ -3.5559, 40.7618 ], [ -3.5568, 40.7617 ], [ -3.5569, 40.7616 ], [ -3.557, 40.7606 ], [ -3.5584, 40.7596 ], [ -3.5587, 40.7593 ], [ -3.5587, 40.7591 ], [ -3.559, 40.7587 ], [ -3.5597, 40.7585 ], [ -3.5598, 40.7582 ], [ -3.5597, 40.7582 ], [ -3.5595, 40.7578 ], [ -3.5595, 40.7576 ], [ -3.56, 40.7572 ], [ -3.56, 40.7567 ], [ -3.5602, 40.7561 ], [ -3.5606, 40.7559 ], [ -3.5605, 40.7552 ], [ -3.5609, 40.7546 ], [ -3.5618, 40.7537 ], [ -3.5619, 40.7534 ], [ -3.5624, 40.7528 ], [ -3.565, 40.7519 ], [ -3.571, 40.7522 ], [ -3.5713, 40.7523 ], [ -3.5725, 40.7522 ], [ -3.5735, 40.7519 ], [ -3.5747, 40.7512 ], [ -3.5757, 40.7508 ], [ -3.576, 40.7505 ], [ -3.5762, 40.7505 ], [ -3.5767, 40.7498 ], [ -3.5766, 40.7496 ], [ -3.5742, 40.7488 ], [ -3.5741, 40.7478 ], [ -3.5731, 40.7468 ], [ -3.5723, 40.7453 ], [ -3.5716, 40.7448 ], [ -3.5709, 40.7445 ], [ -3.5694, 40.7445 ], [ -3.5647, 40.7438 ], [ -3.5605, 40.7434 ], [ -3.5586, 40.7427 ], [ -3.555, 40.7387 ], [ -3.5546, 40.738 ], [ -3.5507, 40.7373 ], [ -3.5472, 40.7346 ], [ -3.5441, 40.735 ], [ -3.5411, 40.7352 ], [ -3.5399, 40.7366 ], [ -3.5394, 40.7378 ], [ -3.5381, 40.7385 ], [ -3.5372, 40.74 ], [ -3.5363, 40.7407 ], [ -3.5394, 40.7439 ], [ -3.5397, 40.7446 ], [ -3.5398, 40.7452 ], [ -3.5379, 40.7453 ], [ -3.5368, 40.7465 ], [ -3.535, 40.7464 ], [ -3.5343, 40.7471 ], [ -3.5342, 40.7474 ], [ -3.5339, 40.7477 ], [ -3.534, 40.7484 ], [ -3.5335, 40.7488 ], [ -3.5333, 40.7492 ], [ -3.5334, 40.7496 ], [ -3.5341, 40.7503 ], [ -3.5343, 40.7509 ], [ -3.5345, 40.7508 ], [ -3.5373, 40.7507 ], [ -3.5377, 40.7511 ], [ -3.5407, 40.7522 ], [ -3.5413, 40.7528 ], [ -3.5424, 40.7532 ], [ -3.5417, 40.7534 ], [ -3.5409, 40.7542 ], [ -3.541, 40.7548 ], [ -3.5409, 40.7551 ], [ -3.5397, 40.7555 ], [ -3.5401, 40.7578 ], [ -3.5386, 40.7579 ], [ -3.5386, 40.7585 ], [ -3.5382, 40.7591 ], [ -3.5369, 40.7595 ], [ -3.5324, 40.7617 ], [ -3.5298, 40.7622 ], [ -3.5281, 40.7619 ], [ -3.5283, 40.7622 ], [ -3.5339, 40.7668 ], [ -3.5353, 40.7684 ], [ -3.5354, 40.768 ], [ -3.5367, 40.7678 ], [ -3.5369, 40.7673 ], [ -3.5371, 40.7672 ], [ -3.5375, 40.7676 ], [ -3.5372, 40.7679 ], [ -3.5374, 40.7685 ], [ -3.5398, 40.7685 ], [ -3.5399, 40.7694 ], [ -3.5364, 40.7695 ], [ -3.5416, 40.7739 ], [ -3.5434, 40.7751 ], [ -3.545, 40.7766 ] ] ] } },
{ "type": "Feature", "properties": { "municipio": "El Vellón", "clasificacion": "urbanizable-no-sectorizado", "calificacion": "sin-asignar", "version": "vigente", "fuente": "SIT-CAM WFS — UsoDelSuelo:VPLA_V_CLASIFICACION (https://idem.comunidad.madrid/geosrvg/ows)", "fecha_dato": "2026-05-12", "ambito": "163", "_raw_CD_SIGLAS": "SUBNS", "_raw_DS_CLASIF_GEN": "Suelo Rústico", "_raw_DS_CLASIF_DET": "Suelo Rústico", "_raw_DS_DOCU": "NORMAS COMPLEMENTARIAS", "_raw_DS_LEY": "E RD 1346/1976", "_raw_FC_AC": "1976-11-13", "_raw_NM_AREA_M2": 2353391.1528876098, "_cam_code": "168" }, "geometry": { "type": "Polygon", "coordinates": [ [ [ -3.5968, 40.7684 ], [ -3.5935, 40.7685 ], [ -3.5909, 40.7692 ], [ -3.5892, 40.7702 ], [ -3.5884, 40.7709 ], [ -3.5869, 40.7735 ], [ -3.5859, 40.7757 ], [ -3.585, 40.7783 ], [ -3.5849, 40.7797 ], [ -3.586, 40.7802 ], [ -3.5868, 40.7804 ], [ -3.5868, 40.7805 ], [ -3.587, 40.7805 ], [ -3.587, 40.7806 ], [ -3.5872, 40.7806 ], [ -3.5879, 40.781 ], [ -3.5882, 40.7813 ], [ -3.5894, 40.782 ], [ -3.5895, 40.7821 ], [ -3.5894, 40.7822 ], [ -3.5896, 40.7824 ], [ -3.5905, 40.7829 ], [ -3.5917, 40.7831 ], [ -3.5922, 40.7834 ], [ -3.5939, 40.7839 ], [ -3.5939, 40.784 ], [ -3.5952, 40.7842 ], [ -3.5973, 40.7851 ], [ -3.5973, 40.7852 ], [ -3.6006, 40.786 ], [ -3.6015, 40.7861 ], [ -3.602, 40.7864 ], [ -3.6026, 40.7871 ], [ -3.6028, 40.7871 ], [ -3.6032, 40.7875 ], [ -3.604, 40.7878 ], [ -3.6043, 40.7882 ], [ -3.6057, 40.7876 ], [ -3.6061, 40.7846 ], [ -3.606, 40.7828 ], [ -3.6054, 40.7807 ], [ -3.6044, 40.7786 ], [ -3.6036, 40.7775 ], [ -3.6007, 40.7741 ], [ -3.5993, 40.7719 ], [ -3.5982, 40.7688 ], [ -3.598, 40.7686 ], [ -3.5968, 40.7684 ] ] ] } },
{ "type": "Feature", "properties": { "municipio": "El Vellón", "clasificacion": "urbanizable-sectorizado", "calificacion": "sin-asignar", "version": "vigente", "fuente": "SIT-CAM WFS — UsoDelSuelo:VPLA_V_CLASIFICACION (https://idem.comunidad.madrid/geosrvg/ows)", "fecha_dato": "2026-05-12", "ambito": "163", "_raw_CD_SIGLAS": "SUBS", "_raw_DS_CLASIF_GEN": "Suelo de Reserva Urbana", "_raw_DS_CLASIF_DET": "Suelo de Reserva Urbana", "_raw_DS_DOCU": "NORMAS COMPLEMENTARIAS", "_raw_DS_LEY": "E RD 1346/1976", "_raw_FC_AC": "1976-11-13", "_raw_NM_AREA_M2": 625013.05564795004, "_cam_code": "168" }, "geometry": { "type": "Polygon", "coordinates": [ [ [ -3.5786, 40.7694 ], [ -3.5766, 40.774 ], [ -3.5762, 40.7746 ], [ -3.5768, 40.7751 ], [ -3.5775, 40.7754 ], [ -3.5779, 40.7758 ], [ -3.5792, 40.7765 ], [ -3.5792, 40.7766 ], [ -3.5805, 40.7774 ], [ -3.5811, 40.7768 ], [ -3.5842, 40.7773 ], [ -3.5853, 40.7767 ], [ -3.5852, 40.7762 ], [ -3.5853, 40.7744 ], [ -3.5851, 40.7742 ], [ -3.5851, 40.7739 ], [ -3.5855, 40.7736 ], [ -3.5856, 40.7732 ], [ -3.5857, 40.7732 ], [ -3.5856, 40.7727 ], [ -3.586, 40.7722 ], [ -3.586, 40.772 ], [ -3.5861, 40.772 ], [ -3.5861, 40.7718 ], [ -3.5862, 40.7718 ], [ -3.5865, 40.7712 ], [ -3.5869, 40.7698 ], [ -3.5869, 40.7677 ], [ -3.5866, 40.767 ], [ -3.5862, 40.7666 ], [ -3.5859, 40.7667 ], [ -3.5858, 40.7668 ], [ -3.5861, 40.7671 ], [ -3.5863, 40.7678 ], [ -3.585, 40.7677 ], [ -3.5848, 40.768 ], [ -3.5845, 40.7681 ], [ -3.5842, 40.7684 ], [ -3.5847, 40.7686 ], [ -3.5847, 40.7687 ], [ -3.583, 40.7694 ], [ -3.5827, 40.77 ], [ -3.5827, 40.7699 ], [ -3.5827, 40.77 ], [ -3.5819, 40.7699 ], [ -3.582, 40.7693 ], [ -3.5814, 40.7696 ], [ -3.5806, 40.7696 ], [ -3.5806, 40.7694 ], [ -3.5798, 40.7695 ], [ -3.5798, 40.7696 ], [ -3.5787, 40.7695 ], [ -3.5786, 40.7694 ] ] ] } }
]
}
