{
"type": "FeatureCollection",
"name": "vigente.full",
"features": [
{ "type": "Feature", "properties": { "municipio": "Camarma de Esteruelas", "clasificacion": "no-urbanizable-protegido", "calificacion": "sin-asignar", "version": "vigente", "fuente": "SIT-CAM WFS — UsoDelSuelo:VPLA_V_CLASIFICACION (https://idem.comunidad.madrid/geosrvg/ows)", "fecha_dato": "2026-05-12", "ambito": "31785", "_raw_CD_SIGLAS": "SNUP", "_raw_DS_CLASIF_GEN": "Suelo No Urbanizable Protegido", "_raw_DS_CLASIF_DET": "Suelo No Urbanizable Especialmente Protegido. Protección Vegas, Cauces y Vaguadas", "_raw_DS_DOCU": "NORMAS SUBSIDIARIAS", "_raw_DS_LEY": "CM Ley 4/1984, E RDL 1/1992", "_raw_FC_AC": "1996-12-19", "_raw_NM_AREA_M2": 3307407.8786837598, "_cam_code": "032" }, "geometry": { "type": "Polygon", "coordinates": [ [ [ -3.3537, 40.6019 ], [ -3.3553, 40.602 ], [ -3.3578, 40.6028 ], [ -3.3582, 40.6023 ], [ -3.3581, 40.6023 ], [ -3.3588, 40.601 ], [ -3.3589, 40.6004 ], [ -3.36, 40.5971 ], [ -3.3599, 40.596 ], [ -3.3606, 40.5943 ], [ -3.3606, 40.5939 ], [ -3.3608, 40.5934 ], [ -3.3613, 40.5934 ], [ -3.3614, 40.5933 ], [ -3.3654, 40.5817 ], [ -3.3671, 40.5764 ], [ -3.3736, 40.5637 ], [ -3.3715, 40.5632 ], [ -3.3715, 40.5631 ], [ -3.3712, 40.5631 ], [ -3.3712, 40.563 ], [ -3.3714, 40.563 ], [ -3.3716, 40.5628 ], [ -3.3721, 40.561 ], [ -3.3724, 40.5605 ], [ -3.3731, 40.5566 ], [ -3.3738, 40.5549 ], [ -3.3724, 40.5547 ], [ -3.3723, 40.5548 ], [ -3.3719, 40.5558 ], [ -3.3711, 40.5566 ], [ -3.3699, 40.5584 ], [ -3.3697, 40.5603 ], [ -3.3678, 40.5597 ], [ -3.3676, 40.5598 ], [ -3.3667, 40.5622 ], [ -3.3652, 40.564 ], [ -3.3646, 40.5644 ], [ -3.3644, 40.5648 ], [ -3.3638, 40.5654 ], [ -3.3638, 40.5656 ], [ -3.3641, 40.5658 ], [ -3.366, 40.5665 ], [ -3.366, 40.5666 ], [ -3.3657, 40.5668 ], [ -3.3656, 40.5672 ], [ -3.3652, 40.5675 ], [ -3.3648, 40.5675 ], [ -3.3637, 40.5682 ], [ -3.3629, 40.5684 ], [ -3.3621, 40.5701 ], [ -3.3621, 40.5703 ], [ -3.3632, 40.5713 ], [ -3.3631, 40.5715 ], [ -3.3621, 40.5716 ], [ -3.3626, 40.5718 ], [ -3.3634, 40.5728 ], [ -3.3632, 40.5741 ], [ -3.3629, 40.5741 ], [ -3.3627, 40.5743 ], [ -3.3627, 40.5749 ], [ -3.3621, 40.5757 ], [ -3.3618, 40.5765 ], [ -3.3618, 40.5772 ], [ -3.3612, 40.5779 ], [ -3.361, 40.5786 ], [ -3.3605, 40.5789 ], [ -3.3602, 40.5792 ], [ -3.3601, 40.5795 ], [ -3.3587, 40.5807 ], [ -3.3588, 40.5808 ], [ -3.3586, 40.5809 ], [ -3.3586, 40.5811 ], [ -3.3575, 40.5815 ], [ -3.3569, 40.5821 ], [ -3.3567, 40.5825 ], [ -3.3567, 40.5829 ], [ -3.3566, 40.5829 ], [ -3.3565, 40.5832 ], [ -3.3566, 40.5835 ], [ -3.3569, 40.5836 ], [ -3.357, 40.5841 ], [ -3.3573, 40.5843 ], [ -3.3569, 40.5849 ], [ -3.3569, 40.5851 ], [ -3.3575, 40.5862 ], [ -3.3575, 40.5869 ], [ -3.3574, 40.587 ], [ -3.3575, 40.5871 ], [ -3.3588, 40.5869 ], [ -3.3585, 40.5877 ], [ -3.3584, 40.5877 ], [ -3.3584, 40.5883 ], [ -3.3582, 40.5888 ], [ -3.358, 40.5904 ], [ -3.3579, 40.5904 ], [ -3.3579, 40.5906 ], [ -3.3574, 40.5912 ], [ -3.3572, 40.5912 ], [ -3.357, 40.592 ], [ -3.3569, 40.592 ], [ -3.3567, 40.5924 ], [ -3.3566, 40.5933 ], [ -3.3561, 40.5935 ], [ -3.3558, 40.5934 ], [ -3.3558, 40.5927 ], [ -3.356, 40.5922 ], [ -3.356, 40.5918 ], [ -3.3554, 40.5912 ], [ -3.3553, 40.5904 ], [ -3.3544, 40.5902 ], [ -3.354, 40.5895 ], [ -3.3531, 40.5894 ], [ -3.3531, 40.5895 ], [ -3.3502, 40.5895 ], [ -3.3498, 40.5896 ], [ -3.3498, 40.5897 ], [ -3.3494, 40.5898 ], [ -3.3494, 40.5901 ], [ -3.3488, 40.5906 ], [ -3.3488, 40.5911 ], [ -3.3486, 40.5912 ], [ -3.3482, 40.5911 ], [ -3.3476, 40.5904 ], [ -3.3471, 40.5903 ], [ -3.3461, 40.5911 ], [ -3.3456, 40.592 ], [ -3.3455, 40.5928 ], [ -3.3449, 40.5934 ], [ -3.3449, 40.5935 ], [ -3.346, 40.5942 ], [ -3.346, 40.5946 ], [ -3.3454, 40.5954 ], [ -3.3455, 40.5959 ], [ -3.3468, 40.596 ], [ -3.3479, 40.5951 ], [ -3.3485, 40.5951 ], [ -3.3487, 40.5953 ], [ -3.3501, 40.5953 ], [ -3.3501, 40.5954 ], [ -3.3504, 40.5955 ], [ -3.3504, 40.5956 ], [ -3.3498, 40.5958 ], [ -3.3493, 40.5964 ], [ -3.3488, 40.5966 ], [ -3.3483, 40.597 ], [ -3.3484, 40.5974 ], [ -3.3489, 40.5974 ], [ -3.3494, 40.5978 ], [ -3.3495, 40.599 ], [ -3.3501, 40.5993 ], [ -3.3502, 40.5997 ], [ -3.3499, 40.6 ], [ -3.3495, 40.6002 ], [ -3.3492, 40.6002 ], [ -3.3492, 40.6003 ], [ -3.3487, 40.6005 ], [ -3.348, 40.6011 ], [ -3.35, 40.6021 ], [ -3.3504, 40.6013 ], [ -3.3525, 40.6018 ], [ -3.3534, 40.6022 ], [ -3.3537, 40.6019 ] ] ] } },
{ "type": "Feature", "properties": { "municipio": "Camarma de Esteruelas", "clasificacion": "no-urbanizable-protegido", "calificacion": "sin-asignar", "version": "vigente", "fuente": "SIT-CAM WFS — UsoDelSuelo:VPLA_V_CLASIFICACION (https://idem.comunidad.madrid/geosrvg/ows)", "fecha_dato": "2026-05-12", "ambito": "31785", "_raw_CD_SIGLAS": "SNUP", "_raw_DS_CLASIF_GEN": "Suelo No Urbanizable Protegido", "_raw_DS_CLASIF_DET": "Suelo No Urbanizable Especialmente Protegido. Cañadas y Vías Pecuarias", "_raw_DS_DOCU": "NORMAS SUBSIDIARIAS", "_raw_DS_LEY": "CM Ley 4/1984, E RDL 1/1992", "_raw_FC_AC": "1996-12-19", "_raw_NM_AREA_M2": 59677.607209653797, "_cam_code": "032" }, "geometry": { "type": "Polygon", "coordinates": [ [ [ -3.3917, 40.5247 ], [ -3.3929, 40.5273 ], [ -3.3931, 40.5281 ], [ -3.3932, 40.5281 ], [ -3.3943, 40.5305 ], [ -3.3984, 40.5398 ], [ -3.3983, 40.5418 ], [ -3.4007, 40.5432 ], [ -3.401, 40.5438 ], [ -3.4015, 40.5443 ], [ -3.4015, 40.5449 ], [ -3.4016, 40.5449 ], [ -3.4017, 40.5452 ], [ -3.403, 40.5463 ], [ -3.408, 40.5492 ], [ -3.4087, 40.5495 ], [ -3.4023, 40.5456 ], [ -3.4016, 40.5448 ], [ -3.4017, 40.5447 ], [ -3.4016, 40.5442 ], [ -3.4012, 40.5439 ], [ -3.4009, 40.5432 ], [ -3.3985, 40.5418 ], [ -3.3986, 40.54 ], [ -3.3985, 40.5394 ], [ -3.393, 40.5275 ], [ -3.3919, 40.5247 ], [ -3.3936, 40.5242 ], [ -3.3931, 40.5239 ], [ -3.3915, 40.5244 ], [ -3.3893, 40.5252 ], [ -3.3861, 40.5269 ], [ -3.3821, 40.5281 ], [ -3.3819, 40.5281 ], [ -3.3818, 40.5281 ], [ -3.3818, 40.5282 ], [ -3.3819, 40.5282 ], [ -3.382, 40.5281 ], [ -3.3822, 40.5282 ], [ -3.3837, 40.5278 ], [ -3.3861, 40.527 ], [ -3.3897, 40.5251 ], [ -3.3915, 40.5246 ], [ -3.3917, 40.5247 ] ] ] } },
{ "type": "Feature", "properties": { "municipio": "Camarma de Esteruelas", "clasificacion": "no-urbanizable-protegido", "calificacion": "sin-asignar", "version": "vigente", "fuente": "SIT-CAM WFS — UsoDelSuelo:VPLA_V_CLASIFICACION (https://idem.comunidad.madrid/geosrvg/ows)", "fecha_dato": "2026-05-12", "ambito": "31785", "_raw_CD_SIGLAS": "SNUP", "_raw_DS_CLASIF_GEN": "Suelo No Urbanizable Protegido", "_raw_DS_CLASIF_DET": "Suelo No Urbanizable Especialmente Protegido. Cañadas y Vías Pecuarias", "_raw_DS_DOCU": "NORMAS SUBSIDIARIAS", "_raw_DS_LEY": "CM Ley 4/1984, E RDL 1/1992", "_raw_FC_AC": "1996-12-19", "_raw_NM_AREA_M2": 4229.1750651104003, "_cam_code": "032" }, "geometry": { "type": "Polygon", "coordinates": [ [ [ -3.3789, 40.5288 ], [ -3.3818, 40.5282 ], [ -3.3819, 40.5281 ], [ -3.3785, 40.5287 ], [ -3.3789, 40.5287 ], [ -3.3789, 40.5288 ] ] ] } },
{ "type": "Feature", "properties": { "municipio": "Camarma de Esteruelas", "clasificacion": "no-urbanizable-protegido", "calificacion": "sin-asignar", "version": "vigente", "fuente": "SIT-CAM WFS — UsoDelSuelo:VPLA_V_CLASIFICACION (https://idem.comunidad.madrid/geosrvg/ows)", "fecha_dato": "2026-05-12", "ambito": "31785", "_raw_CD_SIGLAS": "SNUP", "_raw_DS_CLASIF_GEN": "Suelo No Urbanizable Protegido", "_raw_DS_CLASIF_DET": "Suelo No Urbanizable Especialmente Protegido. Cañadas y Vías Pecuarias", "_raw_DS_DOCU": "NORMAS SUBSIDIARIAS", "_raw_DS_LEY": "CM Ley 4/1984, E RDL 1/1992", "_raw_FC_AC": "1996-12-19", "_raw_NM_AREA_M2": 276743.61043400801, "_cam_code": "032" }, "geometry": { "type": "Polygon", "coordinates": [ [ [ -3.3576, 40.5409 ], [ -3.3573, 40.5412 ], [ -3.3567, 40.5415 ], [ -3.3556, 40.5418 ], [ -3.3545, 40.5425 ], [ -3.3551, 40.5442 ], [ -3.3558, 40.5439 ], [ -3.3562, 40.5439 ], [ -3.356, 40.5437 ], [ -3.3557, 40.5428 ], [ -3.3571, 40.5417 ], [ -3.3578, 40.5414 ], [ -3.3583, 40.541 ], [ -3.3585, 40.541 ], [ -3.3585, 40.5409 ], [ -3.3586, 40.5409 ], [ -3.3588, 40.5409 ], [ -3.3591, 40.5413 ], [ -3.3602, 40.5404 ], [ -3.3648, 40.539 ], [ -3.3649, 40.5388 ], [ -3.366, 40.5383 ], [ -3.3666, 40.5383 ], [ -3.3668, 40.5385 ], [ -3.3669, 40.538 ], [ -3.3685, 40.5376 ], [ -3.3687, 40.5376 ], [ -3.3693, 40.5382 ], [ -3.3692, 40.5387 ], [ -3.3695, 40.539 ], [ -3.37, 40.5385 ], [ -3.3699, 40.5382 ], [ -3.3704, 40.5375 ], [ -3.3708, 40.5371 ], [ -3.3719, 40.5365 ], [ -3.3723, 40.5363 ], [ -3.3729, 40.5363 ], [ -3.3735, 40.536 ], [ -3.3739, 40.536 ], [ -3.3742, 40.5364 ], [ -3.3746, 40.5364 ], [ -3.3751, 40.5359 ], [ -3.3756, 40.5359 ], [ -3.3757, 40.5354 ], [ -3.3759, 40.5354 ], [ -3.376, 40.5347 ], [ -3.3776, 40.5347 ], [ -3.3774, 40.5357 ], [ -3.3774, 40.5367 ], [ -3.3771, 40.5374 ], [ -3.377, 40.5389 ], [ -3.3776, 40.5402 ], [ -3.3778, 40.5434 ], [ -3.3779, 40.5434 ], [ -3.3778, 40.5405 ], [ -3.3772, 40.5389 ], [ -3.3772, 40.5385 ], [ -3.3773, 40.5373 ], [ -3.3776, 40.5366 ], [ -3.3776, 40.5355 ], [ -3.3779, 40.5346 ], [ -3.3779, 40.5328 ], [ -3.3774, 40.5308 ], [ -3.3774, 40.5296 ], [ -3.3775, 40.5293 ], [ -3.3781, 40.5288 ], [ -3.3775, 40.5289 ], [ -3.3772, 40.5274 ], [ -3.3769, 40.5275 ], [ -3.3773, 40.529 ], [ -3.3691, 40.5344 ], [ -3.3666, 40.5304 ], [ -3.3548, 40.5315 ], [ -3.3527, 40.5316 ], [ -3.3508, 40.5319 ], [ -3.3507, 40.532 ], [ -3.3541, 40.5316 ], [ -3.3665, 40.5306 ], [ -3.3689, 40.5344 ], [ -3.3526, 40.5397 ], [ -3.3526, 40.5398 ], [ -3.3528, 40.5398 ], [ -3.369, 40.5346 ], [ -3.377, 40.5295 ], [ -3.3769, 40.531 ], [ -3.3775, 40.5335 ], [ -3.3774, 40.5341 ], [ -3.3763, 40.5341 ], [ -3.376, 40.5334 ], [ -3.3751, 40.5334 ], [ -3.3746, 40.5337 ], [ -3.3741, 40.5344 ], [ -3.3741, 40.5346 ], [ -3.3739, 40.5346 ], [ -3.3741, 40.5349 ], [ -3.374, 40.535 ], [ -3.3733, 40.5354 ], [ -3.3731, 40.535 ], [ -3.3729, 40.5348 ], [ -3.3727, 40.5348 ], [ -3.3729, 40.5351 ], [ -3.3728, 40.535 ], [ -3.3723, 40.5351 ], [ -3.3719, 40.536 ], [ -3.3705, 40.5368 ], [ -3.3696, 40.5379 ], [ -3.3694, 40.5379 ], [ -3.3686, 40.5372 ], [ -3.3683, 40.5374 ], [ -3.3674, 40.5374 ], [ -3.3649, 40.5386 ], [ -3.3604, 40.5398 ], [ -3.3599, 40.54 ], [ -3.3586, 40.5409 ], [ -3.3581, 40.5407 ], [ -3.3576, 40.5409 ] ] ] } },
{ "type": "Feature", "properties": { "municipio": "Camarma de Esteruelas", "clasificacion": "no-urbanizable-protegido", "calificacion": "sin-asignar", "version": "vigente", "fuente": "SIT-CAM WFS — UsoDelSuelo:VPLA_V_CLASIFICACION (https://idem.comunidad.madrid/geosrvg/ows)", "fecha_dato": "2026-05-12", "ambito": "31785", "_raw_CD_SIGLAS": "SNUP", "_raw_DS_CLASIF_GEN": "Suelo No Urbanizable Protegido", "_raw_DS_CLASIF_DET": "Suelo No Urbanizable Especialmente Protegido. Cañadas y Vías Pecuarias", "_raw_DS_DOCU": "NORMAS SUBSIDIARIAS", "_raw_DS_LEY": "CM Ley 4/1984, E RDL 1/1992", "_raw_FC_AC": "1996-12-19", "_raw_NM_AREA_M2": 95949.251163393594, "_cam_code": "032" }, "geometry": { "type": "GeometryCollection", "geometries": [ { "type": "MultiPolygon", "coordinates": [ [ [ [ -3.3848, 40.5588 ], [ -3.3861, 40.5622 ], [ -3.3862, 40.5624 ], [ -3.3861, 40.5618 ], [ -3.385, 40.5588 ], [ -3.3839, 40.5576 ], [ -3.3829, 40.5562 ], [ -3.381, 40.5546 ], [ -3.3809, 40.5547 ], [ -3.3831, 40.5567 ], [ -3.3842, 40.5582 ], [ -3.3848, 40.5588 ] ] ], [ [ [ -3.3875, 40.5625 ], [ -3.3875, 40.5627 ], [ -3.3862, 40.5624 ], [ -3.3863, 40.5626 ], [ -3.3865, 40.5641 ], [ -3.3869, 40.5647 ], [ -3.388, 40.5654 ], [ -3.3888, 40.5657 ], [ -3.3927, 40.5714 ], [ -3.3932, 40.5717 ], [ -3.3897, 40.5666 ], [ -3.389, 40.5657 ], [ -3.3886, 40.5654 ], [ -3.3886, 40.5652 ], [ -3.3879, 40.5647 ], [ -3.3876, 40.5642 ], [ -3.3877, 40.5639 ], [ -3.3884, 40.5635 ], [ -3.3887, 40.5634 ], [ -3.3895, 40.5635 ], [ -3.3903, 40.563 ], [ -3.3908, 40.5629 ], [ -3.3916, 40.5622 ], [ -3.3916, 40.562 ], [ -3.3912, 40.5619 ], [ -3.3895, 40.5623 ], [ -3.3875, 40.5625 ] ] ] ] }, { "type": "Point", "coordinates": [ -3.3862, 40.5624 ] } ] } },
{ "type": "Feature", "properties": { "municipio": "Camarma de Esteruelas", "clasificacion": "no-urbanizable-protegido", "calificacion": "sin-asignar", "version": "vigente", "fuente": "SIT-CAM WFS — UsoDelSuelo:VPLA_V_CLASIFICACION (https://idem.comunidad.madrid/geosrvg/ows)", "fecha_dato": "2026-05-12", "ambito": "31785", "_raw_CD_SIGLAS": "SNUP", "_raw_DS_CLASIF_GEN": "Suelo No Urbanizable Protegido", "_raw_DS_CLASIF_DET": "Suelo No Urbanizable Especialmente Protegido. Cultivos arbóreos de interés", "_raw_DS_DOCU": "NORMAS SUBSIDIARIAS", "_raw_DS_LEY": "CM Ley 4/1984, E RDL 1/1992", "_raw_FC_AC": "1996-12-19", "_raw_NM_AREA_M2": 88725.703193052905, "_cam_code": "032" }, "geometry": { "type": "Polygon", "coordinates": [ [ [ -3.3756, 40.5408 ], [ -3.3759, 40.5406 ], [ -3.3762, 40.54 ], [ -3.3767, 40.5398 ], [ -3.3768, 40.5396 ], [ -3.377, 40.5382 ], [ -3.3771, 40.5382 ], [ -3.3771, 40.5374 ], [ -3.3774, 40.5367 ], [ -3.3774, 40.5357 ], [ -3.3776, 40.5347 ], [ -3.376, 40.5347 ], [ -3.3759, 40.5354 ], [ -3.3757, 40.5354 ], [ -3.3756, 40.5357 ], [ -3.3757, 40.5358 ], [ -3.3757, 40.5363 ], [ -3.3755, 40.5366 ], [ -3.3755, 40.5371 ], [ -3.3758, 40.5375 ], [ -3.3759, 40.5385 ], [ -3.3754, 40.5388 ], [ -3.3754, 40.5393 ], [ -3.3747, 40.5393 ], [ -3.3742, 40.5395 ], [ -3.3742, 40.5397 ], [ -3.3744, 40.5399 ], [ -3.3746, 40.5399 ], [ -3.3751, 40.5404 ], [ -3.3751, 40.5407 ], [ -3.375, 40.5407 ], [ -3.3756, 40.5408 ] ] ] } },
{ "type": "Feature", "properties": { "municipio": "Camarma de Esteruelas", "clasificacion": "no-urbanizable-protegido", "calificacion": "sin-asignar", "version": "vigente", "fuente": "SIT-CAM WFS — UsoDelSuelo:VPLA_V_CLASIFICACION (https://idem.comunidad.madrid/geosrvg/ows)", "fecha_dato": "2026-05-12", "ambito": "31785", "_raw_CD_SIGLAS": "SNUP", "_raw_DS_CLASIF_GEN": "Suelo No Urbanizable Protegido", "_raw_DS_CLASIF_DET": "Suelo No Urbanizable Especialmente Protegido. Cultivos arbóreos de interés", "_raw_DS_DOCU": "NORMAS SUBSIDIARIAS", "_raw_DS_LEY": "CM Ley 4/1984, E RDL 1/1992", "_raw_FC_AC": "1996-12-19", "_raw_NM_AREA_M2": 679210.37838316895, "_cam_code": "032" }, "geometry": { "type": "Polygon", "coordinates": [ [ [ -3.3693, 40.5554 ], [ -3.3703, 40.5558 ], [ -3.3712, 40.5565 ], [ -3.3719, 40.5558 ], [ -3.3724, 40.5547 ], [ -3.371, 40.5544 ], [ -3.3712, 40.5538 ], [ -3.3712, 40.5537 ], [ -3.3712, 40.5538 ], [ -3.371, 40.5537 ], [ -3.3714, 40.5531 ], [ -3.3721, 40.5527 ], [ -3.3722, 40.5524 ], [ -3.3724, 40.5523 ], [ -3.373, 40.5514 ], [ -3.373, 40.551 ], [ -3.3721, 40.551 ], [ -3.3721, 40.5499 ], [ -3.3715, 40.5497 ], [ -3.371, 40.5498 ], [ -3.3699, 40.5496 ], [ -3.3705, 40.549 ], [ -3.3708, 40.5485 ], [ -3.3711, 40.5483 ], [ -3.3703, 40.5482 ], [ -3.3665, 40.5485 ], [ -3.366, 40.5481 ], [ -3.3656, 40.5481 ], [ -3.3652, 40.5483 ], [ -3.364, 40.5485 ], [ -3.3635, 40.5485 ], [ -3.3634, 40.5484 ], [ -3.3606, 40.5484 ], [ -3.3596, 40.5486 ], [ -3.3571, 40.5485 ], [ -3.3573, 40.5494 ], [ -3.3592, 40.5505 ], [ -3.3605, 40.5524 ], [ -3.3607, 40.5525 ], [ -3.3608, 40.5523 ], [ -3.3611, 40.5523 ], [ -3.3611, 40.5522 ], [ -3.3617, 40.552 ], [ -3.3618, 40.552 ], [ -3.3619, 40.5525 ], [ -3.3623, 40.5525 ], [ -3.3623, 40.5524 ], [ -3.3628, 40.5523 ], [ -3.3636, 40.5532 ], [ -3.3636, 40.5537 ], [ -3.3644, 40.5536 ], [ -3.365, 40.5539 ], [ -3.3655, 40.5546 ], [ -3.3675, 40.5542 ], [ -3.368, 40.5549 ], [ -3.3684, 40.5559 ], [ -3.3684, 40.5562 ], [ -3.3686, 40.5562 ], [ -3.3687, 40.5556 ], [ -3.3689, 40.5554 ], [ -3.3693, 40.5554 ] ] ] } },
{ "type": "Feature", "properties": { "municipio": "Camarma de Esteruelas", "clasificacion": "no-urbanizable-protegido", "calificacion": "sin-asignar", "version": "vigente", "fuente": "SIT-CAM WFS — UsoDelSuelo:VPLA_V_CLASIFICACION (https://idem.comunidad.madrid/geosrvg/ows)", "fecha_dato": "2026-05-12", "ambito": "31785", "_raw_CD_SIGLAS": "SNUP", "_raw_DS_CLASIF_GEN": "Suelo No Urbanizable Protegido", "_raw_DS_CLASIF_DET": "Suelo No Urbanizable Especialmente Protegido. Cultivos arbóreos de interés", "_raw_DS_DOCU": "NORMAS SUBSIDIARIAS", "_raw_DS_LEY": "CM Ley 4/1984, E RDL 1/1992", "_raw_FC_AC": "1996-12-19", "_raw_NM_AREA_M2": 31695.410725887799, "_cam_code": "032" }, "geometry": { "type": "Polygon", "coordinates": [ [ [ -3.3681, 40.5585 ], [ -3.3668, 40.5594 ], [ -3.3697, 40.5603 ], [ -3.3699, 40.5584 ], [ -3.3697, 40.5584 ], [ -3.369, 40.5588 ], [ -3.3681, 40.5585 ] ] ] } },
{ "type": "Feature", "properties": { "municipio": "Camarma de Esteruelas", "clasificacion": "no-urbanizable-protegido", "calificacion": "sin-asignar", "version": "vigente", "fuente": "SIT-CAM WFS — UsoDelSuelo:VPLA_V_CLASIFICACION (https://idem.comunidad.madrid/geosrvg/ows)", "fecha_dato": "2026-05-12", "ambito": "31785", "_raw_CD_SIGLAS": "SNUP", "_raw_DS_CLASIF_GEN": "Suelo No Urbanizable Protegido", "_raw_DS_CLASIF_DET": "Suelo No Urbanizable Especialmente Protegido. Cultivos arbóreos de interés", "_raw_DS_DOCU": "NORMAS SUBSIDIARIAS", "_raw_DS_LEY": "CM Ley 4/1984, E RDL 1/1992", "_raw_FC_AC": "1996-12-19", "_raw_NM_AREA_M2": 67758.726884304095, "_cam_code": "032" }, "geometry": { "type": "Polygon", "coordinates": [ [ [ -3.3639, 40.5622 ], [ -3.3638, 40.5625 ], [ -3.364, 40.5633 ], [ -3.3639, 40.5633 ], [ -3.3638, 40.5636 ], [ -3.362, 40.5649 ], [ -3.3622, 40.566 ], [ -3.3631, 40.5663 ], [ -3.3633, 40.5662 ], [ -3.3637, 40.5655 ], [ -3.3644, 40.5648 ], [ -3.3646, 40.5644 ], [ -3.365, 40.5642 ], [ -3.3659, 40.5632 ], [ -3.3659, 40.5629 ], [ -3.3654, 40.5624 ], [ -3.365, 40.5622 ], [ -3.3639, 40.5622 ] ] ] } },
{ "type": "Feature", "properties": { "municipio": "Camarma de Esteruelas", "clasificacion": "no-urbanizable-protegido", "calificacion": "sin-asignar", "version": "vigente", "fuente": "SIT-CAM WFS — UsoDelSuelo:VPLA_V_CLASIFICACION (https://idem.comunidad.madrid/geosrvg/ows)", "fecha_dato": "2026-05-12", "ambito": "31785", "_raw_CD_SIGLAS": "SNUP", "_raw_DS_CLASIF_GEN": "Suelo No Urbanizable Protegido", "_raw_DS_CLASIF_DET": "Suelo No Urbanizable Especialmente Protegido. Cultivos arbóreos de interés", "_raw_DS_DOCU": "NORMAS SUBSIDIARIAS", "_raw_DS_LEY": "CM Ley 4/1984, E RDL 1/1992", "_raw_FC_AC": "1996-12-19", "_raw_NM_AREA_M2": 253927.36518521799, "_cam_code": "032" }, "geometry": { "type": "Polygon", "coordinates": [ [ [ -3.3781, 40.5821 ], [ -3.3793, 40.5825 ], [ -3.3799, 40.5829 ], [ -3.38, 40.5831 ], [ -3.3802, 40.5831 ], [ -3.3805, 40.5835 ], [ -3.3812, 40.5838 ], [ -3.3815, 40.5838 ], [ -3.3817, 40.5826 ], [ -3.3825, 40.5815 ], [ -3.3839, 40.5808 ], [ -3.3765, 40.579 ], [ -3.3753, 40.5786 ], [ -3.3736, 40.5782 ], [ -3.3735, 40.5783 ], [ -3.3728, 40.5808 ], [ -3.3754, 40.5814 ], [ -3.3754, 40.5815 ], [ -3.376, 40.5816 ], [ -3.376, 40.5817 ], [ -3.378, 40.5822 ], [ -3.3781, 40.5821 ] ] ] } },
{ "type": "Feature", "properties": { "municipio": "Camarma de Esteruelas", "clasificacion": "no-urbanizable-protegido", "calificacion": "sin-asignar", "version": "vigente", "fuente": "SIT-CAM WFS — UsoDelSuelo:VPLA_V_CLASIFICACION (https://idem.comunidad.madrid/geosrvg/ows)", "fecha_dato": "2026-05-12", "ambito": "31785", "_raw_CD_SIGLAS": "SNUP", "_raw_DS_CLASIF_GEN": "Suelo No Urbanizable Protegido", "_raw_DS_CLASIF_DET": "Suelo No Urbanizable Especialmente Protegido. Cañadas y Vías Pecuarias", "_raw_DS_DOCU": "NORMAS SUBSIDIARIAS", "_raw_DS_LEY": "CM Ley 4/1984, E RDL 1/1992", "_raw_FC_AC": "1996-12-19", "_raw_NM_AREA_M2": 53027.246039293503, "_cam_code": "032" }, "geometry": { "type": "Polygon", "coordinates": [ [ [ -3.3581, 40.6023 ], [ -3.3583, 40.6024 ], [ -3.3589, 40.6011 ], [ -3.3594, 40.5996 ], [ -3.3594, 40.5993 ], [ -3.3602, 40.5971 ], [ -3.3602, 40.5969 ], [ -3.36, 40.5967 ], [ -3.3601, 40.5958 ], [ -3.3604, 40.5949 ], [ -3.3608, 40.5942 ], [ -3.3607, 40.5939 ], [ -3.3608, 40.5936 ], [ -3.3609, 40.5935 ], [ -3.3614, 40.5936 ], [ -3.3671, 40.577 ], [ -3.3679, 40.5751 ], [ -3.37, 40.5712 ], [ -3.3735, 40.5642 ], [ -3.3738, 40.5638 ], [ -3.3736, 40.5637 ], [ -3.3671, 40.5764 ], [ -3.3654, 40.5817 ], [ -3.3614, 40.5933 ], [ -3.3613, 40.5934 ], [ -3.3608, 40.5934 ], [ -3.3606, 40.5939 ], [ -3.3606, 40.5943 ], [ -3.3599, 40.596 ], [ -3.36, 40.5971 ], [ -3.3589, 40.6004 ], [ -3.3588, 40.601 ], [ -3.3581, 40.6023 ] ] ] } },
{ "type": "Feature", "properties": { "municipio": "Camarma de Esteruelas", "clasificacion": "no-urbanizable-protegido", "calificacion": "sin-asignar", "version": "vigente", "fuente": "SIT-CAM WFS — UsoDelSuelo:VPLA_V_CLASIFICACION (https://idem.comunidad.madrid/geosrvg/ows)", "fecha_dato": "2026-05-12", "ambito": "31785", "_raw_CD_SIGLAS": "SNUP", "_raw_DS_CLASIF_GEN": "Suelo No Urbanizable Protegido", "_raw_DS_CLASIF_DET": "Suelo No Urbanizable Especialmente Protegido. Protección Vegas, Cauces y Vaguadas", "_raw_DS_DOCU": "NORMAS SUBSIDIARIAS", "_raw_DS_LEY": "CM Ley 4/1984, E RDL 1/1992", "_raw_FC_AC": "1996-12-19", "_raw_NM_AREA_M2": 762361.738012766, "_cam_code": "032" }, "geometry": { "type": "Polygon", "coordinates": [ [ [ -3.3634, 40.6035 ], [ -3.3672, 40.605 ], [ -3.3686, 40.6058 ], [ -3.3696, 40.6066 ], [ -3.372, 40.6079 ], [ -3.3728, 40.608 ], [ -3.374, 40.6073 ], [ -3.3745, 40.6065 ], [ -3.375, 40.6061 ], [ -3.3744, 40.6059 ], [ -3.3748, 40.6056 ], [ -3.3748, 40.6053 ], [ -3.3747, 40.6053 ], [ -3.3745, 40.6047 ], [ -3.3746, 40.6043 ], [ -3.3711, 40.6029 ], [ -3.3695, 40.6017 ], [ -3.3669, 40.6004 ], [ -3.3662, 40.5998 ], [ -3.3659, 40.5988 ], [ -3.3655, 40.5989 ], [ -3.3653, 40.5977 ], [ -3.3628, 40.5972 ], [ -3.3629, 40.5961 ], [ -3.3607, 40.5957 ], [ -3.3602, 40.5969 ], [ -3.3589, 40.6011 ], [ -3.3583, 40.6024 ], [ -3.3634, 40.6035 ] ] ] } },
{ "type": "Feature", "properties": { "municipio": "Camarma de Esteruelas", "clasificacion": "no-urbanizable-protegido", "calificacion": "sin-asignar", "version": "vigente", "fuente": "SIT-CAM WFS — UsoDelSuelo:VPLA_V_CLASIFICACION (https://idem.comunidad.madrid/geosrvg/ows)", "fecha_dato": "2026-05-12", "ambito": "31785", "_raw_CD_SIGLAS": "SNUP", "_raw_DS_CLASIF_GEN": "Suelo No Urbanizable Protegido", "_raw_DS_CLASIF_DET": "Suelo No Urbanizable Especialmente Protegido. Protección Vegas, Cauces y Vaguadas", "_raw_DS_DOCU": "NORMAS SUBSIDIARIAS", "_raw_DS_LEY": "CM Ley 4/1984, E RDL 1/1992", "_raw_FC_AC": "1996-12-19", "_raw_NM_AREA_M2": 667823.64187919302, "_cam_code": "032" }, "geometry": { "type": "Polygon", "coordinates": [ [ [ -3.4099, 40.5487 ], [ -3.4127, 40.5495 ], [ -3.4131, 40.5486 ], [ -3.4146, 40.5488 ], [ -3.4152, 40.5466 ], [ -3.4158, 40.5454 ], [ -3.4151, 40.5432 ], [ -3.417, 40.5427 ], [ -3.4156, 40.5413 ], [ -3.4169, 40.5401 ], [ -3.4185, 40.5374 ], [ -3.4183, 40.5367 ], [ -3.418, 40.5365 ], [ -3.4137, 40.5359 ], [ -3.4118, 40.536 ], [ -3.4104, 40.5364 ], [ -3.4105, 40.5411 ], [ -3.4101, 40.5425 ], [ -3.4103, 40.5427 ], [ -3.4103, 40.5429 ], [ -3.4117, 40.5458 ], [ -3.4118, 40.5483 ], [ -3.4114, 40.5483 ], [ -3.4102, 40.5477 ], [ -3.4097, 40.5485 ], [ -3.4099, 40.5487 ] ] ] } },
{ "type": "Feature", "properties": { "municipio": "Camarma de Esteruelas", "clasificacion": "no-urbanizable-protegido", "calificacion": "sin-asignar", "version": "vigente", "fuente": "SIT-CAM WFS — UsoDelSuelo:VPLA_V_CLASIFICACION (https://idem.comunidad.madrid/geosrvg/ows)", "fecha_dato": "2026-05-12", "ambito": "31785", "_raw_CD_SIGLAS": "SNUP", "_raw_DS_CLASIF_GEN": "Suelo No Urbanizable Protegido", "_raw_DS_CLASIF_DET": "Suelo No Urbanizable Especialmente Protegido. Protección Vegas, Cauces y Vaguadas", "_raw_DS_DOCU": "NORMAS SUBSIDIARIAS", "_raw_DS_LEY": "CM Ley 4/1984, E RDL 1/1992", "_raw_FC_AC": "1996-12-19", "_raw_NM_AREA_M2": 155702.465199172, "_cam_code": "032" }, "geometry": { "type": "Polygon", "coordinates": [ [ [ -3.4015, 40.5348 ], [ -3.4018, 40.5359 ], [ -3.4018, 40.5367 ], [ -3.4017, 40.5371 ], [ -3.4013, 40.5376 ], [ -3.4008, 40.5388 ], [ -3.4008, 40.5396 ], [ -3.4012, 40.5403 ], [ -3.4017, 40.5408 ], [ -3.4018, 40.5418 ], [ -3.4011, 40.5435 ], [ -3.4012, 40.5439 ], [ -3.4016, 40.5442 ], [ -3.4016, 40.544 ], [ -3.4024, 40.5427 ], [ -3.4025, 40.5421 ], [ -3.4024, 40.5406 ], [ -3.4014, 40.5393 ], [ -3.4014, 40.539 ], [ -3.4022, 40.5377 ], [ -3.4025, 40.5369 ], [ -3.4025, 40.5363 ], [ -3.4022, 40.535 ], [ -3.4026, 40.5347 ], [ -3.4031, 40.5347 ], [ -3.4041, 40.535 ], [ -3.4052, 40.5358 ], [ -3.406, 40.5367 ], [ -3.4065, 40.5376 ], [ -3.4068, 40.5375 ], [ -3.4062, 40.5365 ], [ -3.4053, 40.5354 ], [ -3.403, 40.534 ], [ -3.4028, 40.5336 ], [ -3.4027, 40.5327 ], [ -3.4029, 40.5323 ], [ -3.4038, 40.5314 ], [ -3.4052, 40.5302 ], [ -3.4056, 40.5296 ], [ -3.4054, 40.5295 ], [ -3.4063, 40.5282 ], [ -3.4063, 40.527 ], [ -3.4061, 40.5262 ], [ -3.4058, 40.5256 ], [ -3.4052, 40.5259 ], [ -3.4056, 40.5273 ], [ -3.4056, 40.528 ], [ -3.4051, 40.5295 ], [ -3.4049, 40.5298 ], [ -3.4035, 40.5308 ], [ -3.4024, 40.5318 ], [ -3.4015, 40.5341 ], [ -3.4015, 40.5348 ] ] ] } },
{ "type": "Feature", "properties": { "municipio": "Camarma de Esteruelas", "clasificacion": "no-urbanizable-protegido", "calificacion": "sin-asignar", "version": "vigente", "fuente": "SIT-CAM WFS — UsoDelSuelo:VPLA_V_CLASIFICACION (https://idem.comunidad.madrid/geosrvg/ows)", "fecha_dato": "2026-05-12", "ambito": "31785", "_raw_CD_SIGLAS": "SNUP", "_raw_DS_CLASIF_GEN": "Suelo No Urbanizable Protegido", "_raw_DS_CLASIF_DET": "Suelo No Urbanizable Especialmente Protegido. Protección Vegas, Cauces y Vaguadas", "_raw_DS_DOCU": "NORMAS SUBSIDIARIAS", "_raw_DS_LEY": "CM Ley 4/1984, E RDL 1/1992", "_raw_FC_AC": "1996-12-19", "_raw_NM_AREA_M2": 480627.00534356298, "_cam_code": "032" }, "geometry": { "type": "Polygon", "coordinates": [ [ [ -3.3778, 40.5405 ], [ -3.3779, 40.5434 ], [ -3.3783, 40.5434 ], [ -3.379, 40.542 ], [ -3.3809, 40.542 ], [ -3.3818, 40.5282 ], [ -3.3789, 40.5288 ], [ -3.3789, 40.5287 ], [ -3.3781, 40.5288 ], [ -3.3775, 40.5293 ], [ -3.3774, 40.5296 ], [ -3.3774, 40.5308 ], [ -3.3779, 40.5328 ], [ -3.3779, 40.5346 ], [ -3.3776, 40.5355 ], [ -3.3776, 40.5366 ], [ -3.3773, 40.5373 ], [ -3.3772, 40.5389 ], [ -3.3778, 40.5405 ] ] ] } },
{ "type": "Feature", "properties": { "municipio": "Camarma de Esteruelas", "clasificacion": "no-urbanizable-protegido", "calificacion": "sin-asignar", "version": "vigente", "fuente": "SIT-CAM WFS — UsoDelSuelo:VPLA_V_CLASIFICACION (https://idem.comunidad.madrid/geosrvg/ows)", "fecha_dato": "2026-05-12", "ambito": "31785", "_raw_CD_SIGLAS": "SNUP", "_raw_DS_CLASIF_GEN": "Suelo No Urbanizable Protegido", "_raw_DS_CLASIF_DET": "Suelo No Urbanizable Especialmente Protegido. Protección Vegas, Cauces y Vaguadas", "_raw_DS_DOCU": "NORMAS SUBSIDIARIAS", "_raw_DS_LEY": "CM Ley 4/1984, E RDL 1/1992", "_raw_FC_AC": "1996-12-19", "_raw_NM_AREA_M2": 82675.629442630001, "_cam_code": "032" }, "geometry": { "type": "Polygon", "coordinates": [ [ [ -3.3745, 40.5434 ], [ -3.3778, 40.5434 ], [ -3.3777, 40.5407 ], [ -3.3776, 40.5402 ], [ -3.377, 40.5389 ], [ -3.3771, 40.5382 ], [ -3.377, 40.5382 ], [ -3.3769, 40.5392 ], [ -3.3767, 40.5398 ], [ -3.3762, 40.54 ], [ -3.3757, 40.5408 ], [ -3.375, 40.5407 ], [ -3.3747, 40.541 ], [ -3.3746, 40.5414 ], [ -3.3758, 40.5416 ], [ -3.3745, 40.5434 ] ] ] } },
{ "type": "Feature", "properties": { "municipio": "Camarma de Esteruelas", "clasificacion": "no-urbanizable-protegido", "calificacion": "sin-asignar", "version": "vigente", "fuente": "SIT-CAM WFS — UsoDelSuelo:VPLA_V_CLASIFICACION (https://idem.comunidad.madrid/geosrvg/ows)", "fecha_dato": "2026-05-12", "ambito": "31785", "_raw_CD_SIGLAS": "SNUP", "_raw_DS_CLASIF_GEN": "Suelo No Urbanizable Protegido", "_raw_DS_CLASIF_DET": "Suelo No Urbanizable Especialmente Protegido. Protección Vegas, Cauces y Vaguadas", "_raw_DS_DOCU": "NORMAS SUBSIDIARIAS", "_raw_DS_LEY": "CM Ley 4/1984, E RDL 1/1992", "_raw_FC_AC": "1996-12-19", "_raw_NM_AREA_M2": 14400.056860135801, "_cam_code": "032" }, "geometry": { "type": "Polygon", "coordinates": [ [ [ -3.3609, 40.5935 ], [ -3.3607, 40.5939 ], [ -3.3608, 40.5942 ], [ -3.3604, 40.5949 ], [ -3.3601, 40.5958 ], [ -3.36, 40.5965 ], [ -3.3601, 40.5969 ], [ -3.3602, 40.5969 ], [ -3.3606, 40.596 ], [ -3.3614, 40.5936 ], [ -3.3609, 40.5935 ] ] ] } },
{ "type": "Feature", "properties": { "municipio": "Camarma de Esteruelas", "clasificacion": "no-urbanizable-protegido", "calificacion": "sin-asignar", "version": "vigente", "fuente": "SIT-CAM WFS — UsoDelSuelo:VPLA_V_CLASIFICACION (https://idem.comunidad.madrid/geosrvg/ows)", "fecha_dato": "2026-05-12", "ambito": "31785", "_raw_CD_SIGLAS": "SNUP", "_raw_DS_CLASIF_GEN": "Suelo No Urbanizable Protegido", "_raw_DS_CLASIF_DET": "Suelo No Urbanizable Especialmente Protegido por su alto valor ecológico", "_raw_DS_DOCU": "NORMAS SUBSIDIARIAS", "_raw_DS_LEY": "CM Ley 4/1984, E RDL 1/1992", "_raw_FC_AC": "1996-12-19", "_raw_NM_AREA_M2": 4492500.4416436702, "_cam_code": "032" }, "geometry": { "type": "Polygon", "coordinates": [ [ [ -3.3884, 40.5635 ], [ -3.3877, 40.5639 ], [ -3.3876, 40.5642 ], [ -3.3879, 40.5647 ], [ -3.3886, 40.5652 ], [ -3.3886, 40.5654 ], [ -3.389, 40.5657 ], [ -3.3897, 40.5666 ], [ -3.3931, 40.5716 ], [ -3.3946, 40.573 ], [ -3.3955, 40.5746 ], [ -3.3974, 40.5727 ], [ -3.3997, 40.5696 ], [ -3.3994, 40.5694 ], [ -3.4015, 40.5671 ], [ -3.4024, 40.5646 ], [ -3.4033, 40.5613 ], [ -3.4048, 40.5607 ], [ -3.3998, 40.558 ], [ -3.4004, 40.5576 ], [ -3.4014, 40.5562 ], [ -3.4013, 40.5555 ], [ -3.4033, 40.5556 ], [ -3.4048, 40.5547 ], [ -3.4077, 40.5511 ], [ -3.4073, 40.5507 ], [ -3.4086, 40.5495 ], [ -3.403, 40.5463 ], [ -3.4017, 40.5452 ], [ -3.4016, 40.5449 ], [ -3.4015, 40.5449 ], [ -3.4015, 40.5443 ], [ -3.401, 40.5438 ], [ -3.4007, 40.5432 ], [ -3.3983, 40.5418 ], [ -3.3984, 40.5399 ], [ -3.3961, 40.5406 ], [ -3.3937, 40.5407 ], [ -3.3932, 40.5406 ], [ -3.3929, 40.5404 ], [ -3.3916, 40.5399 ], [ -3.3913, 40.5398 ], [ -3.3912, 40.5398 ], [ -3.3913, 40.5398 ], [ -3.3912, 40.5401 ], [ -3.3898, 40.541 ], [ -3.3896, 40.5414 ], [ -3.3887, 40.5418 ], [ -3.3887, 40.5429 ], [ -3.3885, 40.5432 ], [ -3.3883, 40.544 ], [ -3.3883, 40.545 ], [ -3.388, 40.5459 ], [ -3.3876, 40.5491 ], [ -3.3871, 40.5498 ], [ -3.387, 40.551 ], [ -3.3867, 40.5515 ], [ -3.3855, 40.5524 ], [ -3.3846, 40.5536 ], [ -3.3838, 40.5542 ], [ -3.3831, 40.5554 ], [ -3.383, 40.5558 ], [ -3.3827, 40.5561 ], [ -3.3829, 40.5562 ], [ -3.3839, 40.5576 ], [ -3.385, 40.5588 ], [ -3.3861, 40.5618 ], [ -3.3862, 40.5624 ], [ -3.3875, 40.5627 ], [ -3.3875, 40.5625 ], [ -3.3895, 40.5623 ], [ -3.3912, 40.5619 ], [ -3.3916, 40.562 ], [ -3.3916, 40.5622 ], [ -3.3908, 40.5629 ], [ -3.3903, 40.563 ], [ -3.3898, 40.5634 ], [ -3.3884, 40.5635 ] ] ] } },
{ "type": "Feature", "properties": { "municipio": "Camarma de Esteruelas", "clasificacion": "no-urbanizable-protegido", "calificacion": "sin-asignar", "version": "vigente", "fuente": "SIT-CAM WFS — UsoDelSuelo:VPLA_V_CLASIFICACION (https://idem.comunidad.madrid/geosrvg/ows)", "fecha_dato": "2026-05-12", "ambito": "31785", "_raw_CD_SIGLAS": "SNUP", "_raw_DS_CLASIF_GEN": "Suelo No Urbanizable Protegido", "_raw_DS_CLASIF_DET": "Suelo No Urbanizable Especialmente Protegido por su alto valor ecológico", "_raw_DS_DOCU": "NORMAS SUBSIDIARIAS", "_raw_DS_LEY": "CM Ley 4/1984, E RDL 1/1992", "_raw_FC_AC": "1996-12-19", "_raw_NM_AREA_M2": 1910939.7341519, "_cam_code": "032" }, "geometry": { "type": "Polygon", "coordinates": [ [ [ -3.3765, 40.6065 ], [ -3.3774, 40.6068 ], [ -3.3799, 40.6072 ], [ -3.3822, 40.6082 ], [ -3.3825, 40.607 ], [ -3.3813, 40.6064 ], [ -3.3816, 40.6061 ], [ -3.3845, 40.6045 ], [ -3.3857, 40.6041 ], [ -3.3849, 40.603 ], [ -3.3843, 40.6017 ], [ -3.3837, 40.6013 ], [ -3.384, 40.6005 ], [ -3.3835, 40.6 ], [ -3.3842, 40.5993 ], [ -3.3843, 40.599 ], [ -3.385, 40.5984 ], [ -3.3846, 40.5974 ], [ -3.3844, 40.5974 ], [ -3.3837, 40.596 ], [ -3.3839, 40.5946 ], [ -3.3848, 40.5939 ], [ -3.3856, 40.5926 ], [ -3.3855, 40.5912 ], [ -3.3847, 40.5894 ], [ -3.3835, 40.5896 ], [ -3.3822, 40.5888 ], [ -3.3837, 40.587 ], [ -3.3815, 40.5846 ], [ -3.3825, 40.5844 ], [ -3.3831, 40.5828 ], [ -3.3858, 40.5801 ], [ -3.3876, 40.5799 ], [ -3.3893, 40.579 ], [ -3.3886, 40.5783 ], [ -3.3894, 40.5774 ], [ -3.3886, 40.5769 ], [ -3.3882, 40.576 ], [ -3.3885, 40.5745 ], [ -3.3905, 40.5728 ], [ -3.3913, 40.5719 ], [ -3.392, 40.5718 ], [ -3.3928, 40.5715 ], [ -3.3888, 40.5657 ], [ -3.388, 40.5654 ], [ -3.3869, 40.5647 ], [ -3.3864, 40.5638 ], [ -3.3864, 40.564 ], [ -3.3858, 40.5644 ], [ -3.3852, 40.5652 ], [ -3.3854, 40.5685 ], [ -3.3857, 40.5706 ], [ -3.386, 40.5715 ], [ -3.3872, 40.5721 ], [ -3.3872, 40.5722 ], [ -3.3874, 40.5722 ], [ -3.3879, 40.5727 ], [ -3.3879, 40.573 ], [ -3.3878, 40.573 ], [ -3.3872, 40.5741 ], [ -3.3869, 40.5744 ], [ -3.3869, 40.5748 ], [ -3.3871, 40.576 ], [ -3.3879, 40.5766 ], [ -3.3879, 40.5768 ], [ -3.388, 40.5768 ], [ -3.3883, 40.5775 ], [ -3.3883, 40.5779 ], [ -3.3875, 40.5787 ], [ -3.386, 40.5793 ], [ -3.3849, 40.5795 ], [ -3.3849, 40.5796 ], [ -3.3845, 40.5797 ], [ -3.3841, 40.5801 ], [ -3.3839, 40.5808 ], [ -3.3825, 40.5815 ], [ -3.3818, 40.5824 ], [ -3.3815, 40.5839 ], [ -3.3806, 40.5847 ], [ -3.3769, 40.5872 ], [ -3.3763, 40.5883 ], [ -3.3762, 40.5883 ], [ -3.3775, 40.5886 ], [ -3.3775, 40.5891 ], [ -3.3776, 40.5892 ], [ -3.3792, 40.5895 ], [ -3.3791, 40.5905 ], [ -3.3791, 40.5915 ], [ -3.3792, 40.5916 ], [ -3.3788, 40.592 ], [ -3.3786, 40.592 ], [ -3.3786, 40.5919 ], [ -3.3782, 40.592 ], [ -3.3782, 40.5924 ], [ -3.3786, 40.5928 ], [ -3.3786, 40.5933 ], [ -3.3781, 40.5937 ], [ -3.378, 40.5941 ], [ -3.3779, 40.5941 ], [ -3.3779, 40.5943 ], [ -3.378, 40.5943 ], [ -3.3782, 40.5947 ], [ -3.3777, 40.5951 ], [ -3.3775, 40.5955 ], [ -3.3776, 40.5962 ], [ -3.3781, 40.5967 ], [ -3.3781, 40.5972 ], [ -3.3778, 40.5975 ], [ -3.3781, 40.5975 ], [ -3.3792, 40.5979 ], [ -3.3792, 40.598 ], [ -3.3795, 40.598 ], [ -3.3809, 40.5985 ], [ -3.3797, 40.5997 ], [ -3.3791, 40.5994 ], [ -3.3787, 40.5995 ], [ -3.378, 40.5999 ], [ -3.3769, 40.6003 ], [ -3.3758, 40.6014 ], [ -3.3749, 40.6016 ], [ -3.3754, 40.6018 ], [ -3.3757, 40.6021 ], [ -3.3759, 40.6021 ], [ -3.3761, 40.6023 ], [ -3.3762, 40.6027 ], [ -3.3758, 40.6031 ], [ -3.3756, 40.6041 ], [ -3.3749, 40.6042 ], [ -3.3745, 40.6044 ], [ -3.3748, 40.6056 ], [ -3.3744, 40.6059 ], [ -3.375, 40.6061 ], [ -3.3745, 40.6065 ], [ -3.374, 40.6072 ], [ -3.374, 40.6073 ], [ -3.3739, 40.6073 ], [ -3.3759, 40.6061 ], [ -3.3765, 40.6065 ] ] ] } },
{ "type": "Feature", "properties": { "municipio": "Camarma de Esteruelas", "clasificacion": "no-urbanizable-protegido", "calificacion": "sin-asignar", "version": "vigente", "fuente": "SIT-CAM WFS — UsoDelSuelo:VPLA_V_CLASIFICACION (https://idem.comunidad.madrid/geosrvg/ows)", "fecha_dato": "2026-05-12", "ambito": "31785", "_raw_CD_SIGLAS": "SNUP", "_raw_DS_CLASIF_GEN": "Suelo No Urbanizable Protegido", "_raw_DS_CLASIF_DET": "Suelo No Urbanizable Especialmente Protegido por su alto valor ecológico", "_raw_DS_DOCU": "NORMAS SUBSIDIARIAS", "_raw_DS_LEY": "CM Ley 4/1984, E RDL 1/1992", "_raw_FC_AC": "1996-12-19", "_raw_NM_AREA_M2": 85718.826917882106, "_cam_code": "032" }, "geometry": { "type": "Polygon", "coordinates": [ [ [ -3.4008, 40.5392 ], [ -3.3986, 40.5399 ], [ -3.3985, 40.5418 ], [ -3.4008, 40.5431 ], [ -3.4011, 40.5436 ], [ -3.4018, 40.5418 ], [ -3.4017, 40.5408 ], [ -3.4012, 40.5403 ], [ -3.4008, 40.5396 ], [ -3.4008, 40.5392 ] ] ] } },
{ "type": "Feature", "properties": { "municipio": "Camarma de Esteruelas", "clasificacion": "no-urbanizable-protegido", "calificacion": "sin-asignar", "version": "vigente", "fuente": "SIT-CAM WFS — UsoDelSuelo:VPLA_V_CLASIFICACION (https://idem.comunidad.madrid/geosrvg/ows)", "fecha_dato": "2026-05-12", "ambito": "31785", "_raw_CD_SIGLAS": "SNUP", "_raw_DS_CLASIF_GEN": "Suelo No Urbanizable Protegido", "_raw_DS_CLASIF_DET": "Suelo No Urbanizable Especialmente Protegido por su alto valor ecológico", "_raw_DS_DOCU": "NORMAS SUBSIDIARIAS", "_raw_DS_LEY": "CM Ley 4/1984, E RDL 1/1992", "_raw_FC_AC": "1996-12-19", "_raw_NM_AREA_M2": 4531512.1468064301, "_cam_code": "032" }, "geometry": { "type": "Polygon", "coordinates": [ [ [ -3.3435, 40.5984 ], [ -3.3434, 40.5988 ], [ -3.3446, 40.5995 ], [ -3.347, 40.6005 ], [ -3.348, 40.6011 ], [ -3.3487, 40.6005 ], [ -3.3492, 40.6003 ], [ -3.3492, 40.6002 ], [ -3.3495, 40.6002 ], [ -3.3499, 40.6 ], [ -3.3502, 40.5997 ], [ -3.3501, 40.5993 ], [ -3.3495, 40.599 ], [ -3.3494, 40.5978 ], [ -3.3489, 40.5974 ], [ -3.3484, 40.5974 ], [ -3.3483, 40.597 ], [ -3.3488, 40.5966 ], [ -3.3493, 40.5964 ], [ -3.3498, 40.5958 ], [ -3.3504, 40.5956 ], [ -3.3503, 40.5954 ], [ -3.3501, 40.5954 ], [ -3.3501, 40.5953 ], [ -3.3487, 40.5953 ], [ -3.3485, 40.5951 ], [ -3.3479, 40.5951 ], [ -3.3468, 40.596 ], [ -3.3455, 40.5959 ], [ -3.3454, 40.5958 ], [ -3.3454, 40.5954 ], [ -3.346, 40.5946 ], [ -3.346, 40.5942 ], [ -3.3449, 40.5935 ], [ -3.3449, 40.5934 ], [ -3.3455, 40.5928 ], [ -3.3456, 40.592 ], [ -3.3461, 40.5911 ], [ -3.3471, 40.5903 ], [ -3.3476, 40.5904 ], [ -3.3482, 40.5911 ], [ -3.3486, 40.5912 ], [ -3.3488, 40.5911 ], [ -3.3488, 40.5906 ], [ -3.3494, 40.5901 ], [ -3.3494, 40.5898 ], [ -3.3498, 40.5897 ], [ -3.3498, 40.5896 ], [ -3.3502, 40.5895 ], [ -3.3531, 40.5895 ], [ -3.3531, 40.5894 ], [ -3.354, 40.5895 ], [ -3.3544, 40.5902 ], [ -3.3553, 40.5904 ], [ -3.3554, 40.5912 ], [ -3.356, 40.5918 ], [ -3.356, 40.5922 ], [ -3.3558, 40.5927 ], [ -3.3558, 40.5934 ], [ -3.3561, 40.5935 ], [ -3.3566, 40.5933 ], [ -3.3567, 40.5924 ], [ -3.3569, 40.592 ], [ -3.357, 40.592 ], [ -3.3572, 40.5912 ], [ -3.3574, 40.5912 ], [ -3.3579, 40.5906 ], [ -3.3579, 40.5904 ], [ -3.358, 40.5904 ], [ -3.3582, 40.5888 ], [ -3.3584, 40.5883 ], [ -3.3584, 40.5877 ], [ -3.3585, 40.5877 ], [ -3.3588, 40.587 ], [ -3.3588, 40.5869 ], [ -3.3575, 40.5871 ], [ -3.3574, 40.587 ], [ -3.3575, 40.5869 ], [ -3.3575, 40.5862 ], [ -3.3569, 40.5851 ], [ -3.3569, 40.5849 ], [ -3.3573, 40.5843 ], [ -3.357, 40.5841 ], [ -3.3569, 40.5836 ], [ -3.3565, 40.5834 ], [ -3.3566, 40.5829 ], [ -3.3567, 40.5829 ], [ -3.3567, 40.5825 ], [ -3.3569, 40.5821 ], [ -3.3575, 40.5815 ], [ -3.3586, 40.5811 ], [ -3.3586, 40.5809 ], [ -3.3588, 40.5808 ], [ -3.3587, 40.5807 ], [ -3.3601, 40.5795 ], [ -3.3602, 40.5792 ], [ -3.3605, 40.5789 ], [ -3.361, 40.5786 ], [ -3.3612, 40.5779 ], [ -3.3618, 40.5772 ], [ -3.3618, 40.5765 ], [ -3.3621, 40.5757 ], [ -3.3627, 40.5749 ], [ -3.3627, 40.5743 ], [ -3.3629, 40.5741 ], [ -3.3632, 40.5741 ], [ -3.3634, 40.5728 ], [ -3.3626, 40.5718 ], [ -3.3621, 40.5716 ], [ -3.3631, 40.5715 ], [ -3.3632, 40.5714 ], [ -3.3621, 40.5703 ], [ -3.3629, 40.5684 ], [ -3.3637, 40.5682 ], [ -3.3648, 40.5675 ], [ -3.3652, 40.5675 ], [ -3.3656, 40.5672 ], [ -3.3657, 40.5668 ], [ -3.366, 40.5666 ], [ -3.366, 40.5665 ], [ -3.3641, 40.5658 ], [ -3.3638, 40.5655 ], [ -3.3632, 40.5663 ], [ -3.3622, 40.566 ], [ -3.362, 40.5649 ], [ -3.3638, 40.5636 ], [ -3.3639, 40.5633 ], [ -3.364, 40.5633 ], [ -3.3638, 40.5625 ], [ -3.3639, 40.5622 ], [ -3.365, 40.5622 ], [ -3.3654, 40.5624 ], [ -3.3659, 40.5629 ], [ -3.3659, 40.5632 ], [ -3.3667, 40.5622 ], [ -3.3676, 40.5598 ], [ -3.3678, 40.5597 ], [ -3.3668, 40.5594 ], [ -3.3668, 40.5593 ], [ -3.3675, 40.5589 ], [ -3.3675, 40.5588 ], [ -3.3677, 40.5588 ], [ -3.368, 40.5585 ], [ -3.369, 40.5588 ], [ -3.37, 40.5583 ], [ -3.3701, 40.558 ], [ -3.3712, 40.5565 ], [ -3.3703, 40.5558 ], [ -3.3694, 40.5554 ], [ -3.3689, 40.5554 ], [ -3.3687, 40.5556 ], [ -3.3686, 40.5562 ], [ -3.3684, 40.5562 ], [ -3.3684, 40.5559 ], [ -3.368, 40.5549 ], [ -3.3675, 40.5542 ], [ -3.3655, 40.5546 ], [ -3.365, 40.5539 ], [ -3.3644, 40.5536 ], [ -3.3636, 40.5537 ], [ -3.3636, 40.5532 ], [ -3.3628, 40.5523 ], [ -3.3623, 40.5524 ], [ -3.3623, 40.5525 ], [ -3.3619, 40.5525 ], [ -3.3618, 40.552 ], [ -3.3613, 40.5521 ], [ -3.3611, 40.5523 ], [ -3.3608, 40.5523 ], [ -3.3607, 40.5525 ], [ -3.3605, 40.5524 ], [ -3.3601, 40.5518 ], [ -3.3601, 40.5519 ], [ -3.3589, 40.5521 ], [ -3.3587, 40.5523 ], [ -3.3584, 40.5523 ], [ -3.3584, 40.5524 ], [ -3.3579, 40.5525 ], [ -3.3576, 40.5527 ], [ -3.3597, 40.5549 ], [ -3.3623, 40.5584 ], [ -3.3608, 40.5602 ], [ -3.3635, 40.5617 ], [ -3.363, 40.5629 ], [ -3.3602, 40.5656 ], [ -3.3581, 40.5667 ], [ -3.357, 40.5692 ], [ -3.3545, 40.5686 ], [ -3.3545, 40.5685 ], [ -3.3536, 40.568 ], [ -3.3524, 40.5693 ], [ -3.3538, 40.5698 ], [ -3.3504, 40.5729 ], [ -3.3493, 40.5735 ], [ -3.3471, 40.5726 ], [ -3.3459, 40.5729 ], [ -3.3454, 40.5743 ], [ -3.3457, 40.5745 ], [ -3.3466, 40.5756 ], [ -3.3415, 40.5791 ], [ -3.3435, 40.5806 ], [ -3.3447, 40.5801 ], [ -3.3447, 40.5802 ], [ -3.3468, 40.5812 ], [ -3.3468, 40.5813 ], [ -3.3476, 40.581 ], [ -3.3476, 40.5809 ], [ -3.3483, 40.5818 ], [ -3.3462, 40.583 ], [ -3.3462, 40.5831 ], [ -3.3421, 40.5852 ], [ -3.343, 40.5868 ], [ -3.3403, 40.5894 ], [ -3.3409, 40.5897 ], [ -3.3409, 40.5898 ], [ -3.3398, 40.5915 ], [ -3.3407, 40.5922 ], [ -3.3397, 40.5926 ], [ -3.3397, 40.5927 ], [ -3.3383, 40.5913 ], [ -3.3371, 40.5918 ], [ -3.3363, 40.5944 ], [ -3.3383, 40.5968 ], [ -3.3389, 40.5966 ], [ -3.3394, 40.5972 ], [ -3.341, 40.5968 ], [ -3.3435, 40.5984 ] ] ] } },
{ "type": "Feature", "properties": { "municipio": "Camarma de Esteruelas", "clasificacion": "no-urbanizable-protegido", "calificacion": "sin-asignar", "version": "vigente", "fuente": "SIT-CAM WFS — UsoDelSuelo:VPLA_V_CLASIFICACION (https://idem.comunidad.madrid/geosrvg/ows)", "fecha_dato": "2026-05-12", "ambito": "31785", "_raw_CD_SIGLAS": "SNUP", "_raw_DS_CLASIF_GEN": "Suelo No Urbanizable Protegido", "_raw_DS_CLASIF_DET": "Suelo No Urbanizable Especialmente Protegido por su alto valor ecológico", "_raw_DS_DOCU": "NORMAS SUBSIDIARIAS", "_raw_DS_LEY": "CM Ley 4/1984, E RDL 1/1992", "_raw_FC_AC": "1996-12-19", "_raw_NM_AREA_M2": 841099.71389238199, "_cam_code": "032" }, "geometry": { "type": "Polygon", "coordinates": [ [ [ -3.4023, 40.5456 ], [ -3.4087, 40.5495 ], [ -3.4099, 40.5487 ], [ -3.4097, 40.5485 ], [ -3.4102, 40.5477 ], [ -3.4114, 40.5483 ], [ -3.4118, 40.5483 ], [ -3.4117, 40.5458 ], [ -3.4103, 40.5429 ], [ -3.4103, 40.5427 ], [ -3.4101, 40.5425 ], [ -3.4105, 40.5411 ], [ -3.4104, 40.5364 ], [ -3.4014, 40.539 ], [ -3.4015, 40.5395 ], [ -3.4024, 40.5406 ], [ -3.4025, 40.5412 ], [ -3.4024, 40.5427 ], [ -3.4016, 40.544 ], [ -3.4017, 40.5447 ], [ -3.4016, 40.5448 ], [ -3.4023, 40.5456 ] ] ] } },
{ "type": "Feature", "properties": { "municipio": "Camarma de Esteruelas", "clasificacion": "no-urbanizable-protegido", "calificacion": "sin-asignar", "version": "vigente", "fuente": "SIT-CAM WFS — UsoDelSuelo:VPLA_V_CLASIFICACION (https://idem.comunidad.madrid/geosrvg/ows)", "fecha_dato": "2026-05-12", "ambito": "31785", "_raw_CD_SIGLAS": "SNUP", "_raw_DS_CLASIF_GEN": "Suelo No Urbanizable Protegido", "_raw_DS_CLASIF_DET": "Suelo No Urbanizable Especialmente Protegido por su alto valor ecológico", "_raw_DS_DOCU": "NORMAS SUBSIDIARIAS", "_raw_DS_LEY": "CM Ley 4/1984, E RDL 1/1992", "_raw_FC_AC": "1996-12-19", "_raw_NM_AREA_M2": 232729.74708335701, "_cam_code": "032" }, "geometry": { "type": "Polygon", "coordinates": [ [ [ -3.3632, 40.548 ], [ -3.3622, 40.5484 ], [ -3.364, 40.5485 ], [ -3.3652, 40.5483 ], [ -3.3656, 40.5481 ], [ -3.366, 40.5481 ], [ -3.3665, 40.5485 ], [ -3.3705, 40.5482 ], [ -3.3703, 40.5462 ], [ -3.3699, 40.5462 ], [ -3.3698, 40.5455 ], [ -3.3718, 40.5447 ], [ -3.3732, 40.5446 ], [ -3.3737, 40.5439 ], [ -3.3746, 40.5434 ], [ -3.3745, 40.5434 ], [ -3.375, 40.5426 ], [ -3.3756, 40.542 ], [ -3.3758, 40.5416 ], [ -3.3746, 40.5414 ], [ -3.3738, 40.5421 ], [ -3.3731, 40.5421 ], [ -3.3723, 40.5408 ], [ -3.3721, 40.5406 ], [ -3.3719, 40.5407 ], [ -3.3716, 40.5401 ], [ -3.3714, 40.5401 ], [ -3.3705, 40.5406 ], [ -3.3707, 40.541 ], [ -3.3708, 40.5408 ], [ -3.3711, 40.5408 ], [ -3.3719, 40.5417 ], [ -3.3722, 40.5423 ], [ -3.3719, 40.5426 ], [ -3.371, 40.5427 ], [ -3.3707, 40.5431 ], [ -3.3707, 40.5434 ], [ -3.3709, 40.5434 ], [ -3.3714, 40.5439 ], [ -3.3712, 40.5447 ], [ -3.3705, 40.5448 ], [ -3.3701, 40.5451 ], [ -3.3694, 40.5452 ], [ -3.3694, 40.5453 ], [ -3.3688, 40.5455 ], [ -3.3686, 40.5457 ], [ -3.3677, 40.5459 ], [ -3.3675, 40.5461 ], [ -3.3671, 40.5462 ], [ -3.3671, 40.5463 ], [ -3.3667, 40.5464 ], [ -3.3667, 40.5465 ], [ -3.3662, 40.5466 ], [ -3.3662, 40.5467 ], [ -3.3658, 40.5467 ], [ -3.3654, 40.5471 ], [ -3.3652, 40.5471 ], [ -3.3652, 40.5472 ], [ -3.3646, 40.5474 ], [ -3.3646, 40.5475 ], [ -3.3643, 40.5475 ], [ -3.3638, 40.5477 ], [ -3.3638, 40.5478 ], [ -3.3635, 40.5478 ], [ -3.3635, 40.5479 ], [ -3.3632, 40.5479 ], [ -3.3632, 40.548 ] ] ] } },
{ "type": "Feature", "properties": { "municipio": "Camarma de Esteruelas", "clasificacion": "urbano-consolidado", "calificacion": "sin-asignar", "version": "vigente", "fuente": "SIT-CAM WFS — UsoDelSuelo:VPLA_V_CLASIFICACION (https://idem.comunidad.madrid/geosrvg/ows)", "fecha_dato": "2026-05-12", "ambito": "31785", "_raw_CD_SIGLAS": "SU", "_raw_DS_CLASIF_GEN": "Suelo Urbano", "_raw_DS_CLASIF_DET": "Suelo Urbano", "_raw_DS_DOCU": "NORMAS SUBSIDIARIAS", "_raw_DS_LEY": "CM Ley 4/1984, E RDL 1/1992", "_raw_FC_AC": "1996-12-19", "_raw_NM_AREA_M2": 877141.125565717, "_cam_code": "032" }, "geometry": { "type": "Polygon", "coordinates": [ [ [ -3.3678, 40.6008 ], [ -3.3704, 40.6023 ], [ -3.3711, 40.6029 ], [ -3.3722, 40.6033 ], [ -3.3724, 40.6035 ], [ -3.3734, 40.6038 ], [ -3.3734, 40.6039 ], [ -3.3739, 40.604 ], [ -3.3744, 40.6043 ], [ -3.3756, 40.6041 ], [ -3.3758, 40.6031 ], [ -3.3762, 40.6027 ], [ -3.3762, 40.6025 ], [ -3.3759, 40.6021 ], [ -3.3757, 40.6021 ], [ -3.3754, 40.6018 ], [ -3.3749, 40.6016 ], [ -3.3758, 40.6014 ], [ -3.3769, 40.6003 ], [ -3.378, 40.5999 ], [ -3.3787, 40.5995 ], [ -3.3791, 40.5994 ], [ -3.3797, 40.5997 ], [ -3.3809, 40.5985 ], [ -3.3795, 40.598 ], [ -3.3792, 40.598 ], [ -3.3792, 40.5979 ], [ -3.3781, 40.5975 ], [ -3.3775, 40.5974 ], [ -3.3775, 40.5973 ], [ -3.3767, 40.597 ], [ -3.3734, 40.5959 ], [ -3.3698, 40.5935 ], [ -3.3697, 40.5951 ], [ -3.3696, 40.5952 ], [ -3.3611, 40.5946 ], [ -3.3607, 40.5957 ], [ -3.3629, 40.5961 ], [ -3.3628, 40.5972 ], [ -3.3653, 40.5977 ], [ -3.3655, 40.5989 ], [ -3.3659, 40.5988 ], [ -3.3662, 40.5998 ], [ -3.3674, 40.6007 ], [ -3.3678, 40.6008 ] ] ] } },
{ "type": "Feature", "properties": { "municipio": "Camarma de Esteruelas", "clasificacion": "urbano-consolidado", "calificacion": "sin-asignar", "version": "vigente", "fuente": "SIT-CAM WFS — UsoDelSuelo:VPLA_V_CLASIFICACION (https://idem.comunidad.madrid/geosrvg/ows)", "fecha_dato": "2026-05-12", "ambito": "31785", "_raw_CD_SIGLAS": "SU", "_raw_DS_CLASIF_GEN": "Suelo Urbano", "_raw_DS_CLASIF_DET": "Suelo Urbano", "_raw_DS_DOCU": "NORMAS SUBSIDIARIAS", "_raw_DS_LEY": "CM Ley 4/1984, E RDL 1/1992", "_raw_FC_AC": "1996-12-19", "_raw_NM_AREA_M2": 17107.666394716998, "_cam_code": "032" }, "geometry": { "type": "Polygon", "coordinates": [ [ [ -3.3661, 40.529 ], [ -3.3663, 40.5295 ], [ -3.3664, 40.5295 ], [ -3.3682, 40.5287 ], [ -3.3679, 40.5283 ], [ -3.3667, 40.5287 ], [ -3.3651, 40.5275 ], [ -3.3661, 40.529 ] ] ] } },
{ "type": "Feature", "properties": { "municipio": "Camarma de Esteruelas", "clasificacion": "urbano-consolidado", "calificacion": "sin-asignar", "version": "vigente", "fuente": "SIT-CAM WFS — UsoDelSuelo:VPLA_V_CLASIFICACION (https://idem.comunidad.madrid/geosrvg/ows)", "fecha_dato": "2026-05-12", "ambito": "31785", "_raw_CD_SIGLAS": "SU", "_raw_DS_CLASIF_GEN": "Suelo Urbano", "_raw_DS_CLASIF_DET": "Suelo Urbano", "_raw_DS_DOCU": "NORMAS SUBSIDIARIAS", "_raw_DS_LEY": "CM Ley 4/1984, E RDL 1/1992", "_raw_FC_AC": "1996-12-19", "_raw_NM_AREA_M2": 1762130.3106312, "_cam_code": "032" }, "geometry": { "type": "Polygon", "coordinates": [ [ [ -3.3743, 40.5534 ], [ -3.3738, 40.5545 ], [ -3.3737, 40.5553 ], [ -3.3731, 40.5566 ], [ -3.3724, 40.5605 ], [ -3.3721, 40.561 ], [ -3.3716, 40.5628 ], [ -3.3714, 40.563 ], [ -3.3712, 40.563 ], [ -3.3712, 40.5631 ], [ -3.3715, 40.5631 ], [ -3.3715, 40.5632 ], [ -3.3737, 40.5638 ], [ -3.3738, 40.5638 ], [ -3.3739, 40.5634 ], [ -3.3753, 40.5609 ], [ -3.376, 40.5595 ], [ -3.376, 40.5593 ], [ -3.3788, 40.5539 ], [ -3.3807, 40.5553 ], [ -3.381, 40.5546 ], [ -3.382, 40.5555 ], [ -3.3828, 40.5543 ], [ -3.3796, 40.5525 ], [ -3.3806, 40.5506 ], [ -3.3816, 40.5483 ], [ -3.3815, 40.5474 ], [ -3.3818, 40.5475 ], [ -3.3823, 40.5474 ], [ -3.3831, 40.5476 ], [ -3.3831, 40.5473 ], [ -3.3833, 40.5469 ], [ -3.3813, 40.5467 ], [ -3.3812, 40.5459 ], [ -3.3824, 40.546 ], [ -3.3825, 40.5456 ], [ -3.3811, 40.5456 ], [ -3.3809, 40.5446 ], [ -3.381, 40.5424 ], [ -3.3812, 40.5424 ], [ -3.3811, 40.542 ], [ -3.3824, 40.5414 ], [ -3.3843, 40.5416 ], [ -3.3873, 40.5417 ], [ -3.3887, 40.5422 ], [ -3.3887, 40.5418 ], [ -3.3896, 40.5414 ], [ -3.3898, 40.541 ], [ -3.3912, 40.5401 ], [ -3.3913, 40.5399 ], [ -3.3913, 40.5398 ], [ -3.3899, 40.5393 ], [ -3.3894, 40.5366 ], [ -3.3863, 40.5363 ], [ -3.3866, 40.5331 ], [ -3.3816, 40.5325 ], [ -3.3819, 40.5298 ], [ -3.3819, 40.5282 ], [ -3.3818, 40.5282 ], [ -3.3817, 40.5292 ], [ -3.3817, 40.5307 ], [ -3.3815, 40.5322 ], [ -3.3815, 40.5337 ], [ -3.3814, 40.5337 ], [ -3.3814, 40.5352 ], [ -3.3812, 40.5367 ], [ -3.3809, 40.542 ], [ -3.379, 40.542 ], [ -3.3783, 40.5434 ], [ -3.3745, 40.5434 ], [ -3.3737, 40.5439 ], [ -3.3732, 40.5446 ], [ -3.3718, 40.5447 ], [ -3.3698, 40.5455 ], [ -3.3699, 40.5462 ], [ -3.3703, 40.5462 ], [ -3.3705, 40.5483 ], [ -3.3711, 40.5483 ], [ -3.3708, 40.5485 ], [ -3.3705, 40.549 ], [ -3.3699, 40.5496 ], [ -3.371, 40.5498 ], [ -3.3715, 40.5497 ], [ -3.3719, 40.5499 ], [ -3.3721, 40.5499 ], [ -3.3721, 40.5497 ], [ -3.3731, 40.5498 ], [ -3.3728, 40.549 ], [ -3.3737, 40.5492 ], [ -3.3745, 40.5492 ], [ -3.3744, 40.5461 ], [ -3.3749, 40.5463 ], [ -3.3762, 40.5465 ], [ -3.3757, 40.5473 ], [ -3.3756, 40.5473 ], [ -3.3756, 40.5475 ], [ -3.3746, 40.5484 ], [ -3.3746, 40.5486 ], [ -3.3751, 40.5491 ], [ -3.3751, 40.5517 ], [ -3.3752, 40.5519 ], [ -3.3751, 40.5519 ], [ -3.3751, 40.5521 ], [ -3.3743, 40.5534 ] ], [ [ -3.3808, 40.5446 ], [ -3.3811, 40.5461 ], [ -3.3806, 40.5461 ], [ -3.3805, 40.546 ], [ -3.3788, 40.5458 ], [ -3.379, 40.5444 ], [ -3.3792, 40.544 ], [ -3.3794, 40.5439 ], [ -3.3799, 40.5431 ], [ -3.3806, 40.5424 ], [ -3.3808, 40.5424 ], [ -3.3809, 40.5427 ], [ -3.3808, 40.5429 ], [ -3.3808, 40.5446 ] ] ] } },
{ "type": "Feature", "properties": { "municipio": "Camarma de Esteruelas", "clasificacion": "urbanizable-no-sectorizado", "calificacion": "sin-asignar", "version": "vigente", "fuente": "SIT-CAM WFS — UsoDelSuelo:VPLA_V_CLASIFICACION (https://idem.comunidad.madrid/geosrvg/ows)", "fecha_dato": "2026-05-12", "ambito": "31785", "_raw_CD_SIGLAS": "SUBNS", "_raw_DS_CLASIF_GEN": "Suelo No Urbanizable Común", "_raw_DS_CLASIF_DET": "Suelo No Urbanizable Común", "_raw_DS_DOCU": "NORMAS SUBSIDIARIAS", "_raw_DS_LEY": "CM Ley 4/1984, E RDL 1/1992", "_raw_FC_AC": "1996-12-19", "_raw_NM_AREA_M2": 485547.065214906, "_cam_code": "032" }, "geometry": { "type": "Polygon", "coordinates": [ [ [ -3.4062, 40.5365 ], [ -3.4068, 40.5375 ], [ -3.412, 40.536 ], [ -3.4121, 40.5333 ], [ -3.4116, 40.53 ], [ -3.4073, 40.5304 ], [ -3.4056, 40.5296 ], [ -3.4052, 40.5302 ], [ -3.4029, 40.5323 ], [ -3.4027, 40.5327 ], [ -3.4028, 40.5336 ], [ -3.403, 40.534 ], [ -3.4053, 40.5354 ], [ -3.4062, 40.5365 ] ] ] } },
{ "type": "Feature", "properties": { "municipio": "Camarma de Esteruelas", "clasificacion": "urbanizable-no-sectorizado", "calificacion": "sin-asignar", "version": "vigente", "fuente": "SIT-CAM WFS — UsoDelSuelo:VPLA_V_CLASIFICACION (https://idem.comunidad.madrid/geosrvg/ows)", "fecha_dato": "2026-05-12", "ambito": "31785", "_raw_CD_SIGLAS": "SUBNS", "_raw_DS_CLASIF_GEN": "Suelo No Urbanizable Común", "_raw_DS_CLASIF_DET": "Suelo No Urbanizable Común", "_raw_DS_DOCU": "NORMAS SUBSIDIARIAS", "_raw_DS_LEY": "CM Ley 4/1984, E RDL 1/1992", "_raw_FC_AC": "1996-12-19", "_raw_NM_AREA_M2": 107487.103209027, "_cam_code": "032" }, "geometry": { "type": "Polygon", "coordinates": [ [ [ -3.4023, 40.5349 ], [ -3.4022, 40.5353 ], [ -3.4025, 40.5363 ], [ -3.4025, 40.5369 ], [ -3.4022, 40.5377 ], [ -3.4014, 40.539 ], [ -3.4065, 40.5376 ], [ -3.406, 40.5367 ], [ -3.4052, 40.5358 ], [ -3.4041, 40.535 ], [ -3.4031, 40.5347 ], [ -3.4026, 40.5347 ], [ -3.4023, 40.5349 ] ] ] } },
{ "type": "Feature", "properties": { "municipio": "Camarma de Esteruelas", "clasificacion": "urbanizable-no-sectorizado", "calificacion": "sin-asignar", "version": "vigente", "fuente": "SIT-CAM WFS — UsoDelSuelo:VPLA_V_CLASIFICACION (https://idem.comunidad.madrid/geosrvg/ows)", "fecha_dato": "2026-05-12", "ambito": "31785", "_raw_CD_SIGLAS": "SUBNS", "_raw_DS_CLASIF_GEN": "Suelo No Urbanizable Común", "_raw_DS_CLASIF_DET": "Suelo No Urbanizable Común", "_raw_DS_DOCU": "NORMAS SUBSIDIARIAS", "_raw_DS_LEY": "CM Ley 4/1984, E RDL 1/1992", "_raw_FC_AC": "1996-12-19", "_raw_NM_AREA_M2": 943919.078428915, "_cam_code": "032" }, "geometry": { "type": "Polygon", "coordinates": [ [ [ -3.3661, 40.5306 ], [ -3.353, 40.5317 ], [ -3.3507, 40.532 ], [ -3.3504, 40.5329 ], [ -3.3526, 40.5397 ], [ -3.3684, 40.5346 ], [ -3.3661, 40.5306 ] ] ] } },
{ "type": "Feature", "properties": { "municipio": "Camarma de Esteruelas", "clasificacion": "urbanizable-no-sectorizado", "calificacion": "sin-asignar", "version": "vigente", "fuente": "SIT-CAM WFS — UsoDelSuelo:VPLA_V_CLASIFICACION (https://idem.comunidad.madrid/geosrvg/ows)", "fecha_dato": "2026-05-12", "ambito": "31785", "_raw_CD_SIGLAS": "SUBNS", "_raw_DS_CLASIF_GEN": "Suelo No Urbanizable Común", "_raw_DS_CLASIF_DET": "Suelo No Urbanizable Común", "_raw_DS_DOCU": "NORMAS SUBSIDIARIAS", "_raw_DS_LEY": "CM Ley 4/1984, E RDL 1/1992", "_raw_FC_AC": "1996-12-19", "_raw_NM_AREA_M2": 981345.10604252701, "_cam_code": "032" }, "geometry": { "type": "Polygon", "coordinates": [ [ [ -3.3928, 40.527 ], [ -3.3985, 40.5394 ], [ -3.3986, 40.5399 ], [ -3.4008, 40.5392 ], [ -3.4008, 40.5388 ], [ -3.4013, 40.5376 ], [ -3.4017, 40.5371 ], [ -3.4018, 40.5367 ], [ -3.4018, 40.5359 ], [ -3.4015, 40.5348 ], [ -3.4015, 40.5341 ], [ -3.4024, 40.5318 ], [ -3.4035, 40.5308 ], [ -3.4049, 40.5298 ], [ -3.4056, 40.528 ], [ -3.4056, 40.5273 ], [ -3.4052, 40.5259 ], [ -3.405, 40.5261 ], [ -3.3987, 40.5267 ], [ -3.3936, 40.5242 ], [ -3.3919, 40.5247 ], [ -3.3928, 40.527 ] ] ] } },
{ "type": "Feature", "properties": { "municipio": "Camarma de Esteruelas", "clasificacion": "urbanizable-no-sectorizado", "calificacion": "sin-asignar", "version": "vigente", "fuente": "SIT-CAM WFS — UsoDelSuelo:VPLA_V_CLASIFICACION (https://idem.comunidad.madrid/geosrvg/ows)", "fecha_dato": "2026-05-12", "ambito": "31785", "_raw_CD_SIGLAS": "SUBNS", "_raw_DS_CLASIF_GEN": "Suelo No Urbanizable Común", "_raw_DS_CLASIF_DET": "Suelo No Urbanizable Común", "_raw_DS_DOCU": "NORMAS SUBSIDIARIAS", "_raw_DS_LEY": "CM Ley 4/1984, E RDL 1/1992", "_raw_FC_AC": "1996-12-19", "_raw_NM_AREA_M2": 599282.35416297603, "_cam_code": "032" }, "geometry": { "type": "Polygon", "coordinates": [ [ [ -3.3899, 40.5393 ], [ -3.3937, 40.5407 ], [ -3.3961, 40.5406 ], [ -3.3982, 40.54 ], [ -3.3984, 40.5398 ], [ -3.3946, 40.5313 ], [ -3.3902, 40.5313 ], [ -3.3895, 40.5322 ], [ -3.3891, 40.5334 ], [ -3.3891, 40.5345 ], [ -3.3892, 40.5346 ], [ -3.3894, 40.537 ], [ -3.3897, 40.538 ], [ -3.3899, 40.5393 ] ] ] } },
{ "type": "Feature", "properties": { "municipio": "Camarma de Esteruelas", "clasificacion": "urbanizable-no-sectorizado", "calificacion": "sin-asignar", "version": "vigente", "fuente": "SIT-CAM WFS — UsoDelSuelo:VPLA_V_CLASIFICACION (https://idem.comunidad.madrid/geosrvg/ows)", "fecha_dato": "2026-05-12", "ambito": "31785", "_raw_CD_SIGLAS": "SUBNS", "_raw_DS_CLASIF_GEN": "Suelo No Urbanizable Común", "_raw_DS_CLASIF_DET": "Suelo No Urbanizable Común", "_raw_DS_DOCU": "NORMAS SUBSIDIARIAS", "_raw_DS_LEY": "CM Ley 4/1984, E RDL 1/1992", "_raw_FC_AC": "1996-12-19", "_raw_NM_AREA_M2": 404093.92746345903, "_cam_code": "032" }, "geometry": { "type": "Polygon", "coordinates": [ [ [ -3.3526, 40.5398 ], [ -3.3545, 40.5425 ], [ -3.3554, 40.5419 ], [ -3.3567, 40.5415 ], [ -3.3581, 40.5407 ], [ -3.3586, 40.5409 ], [ -3.3599, 40.54 ], [ -3.3604, 40.5398 ], [ -3.3649, 40.5386 ], [ -3.3674, 40.5374 ], [ -3.3683, 40.5374 ], [ -3.3686, 40.5372 ], [ -3.3694, 40.5379 ], [ -3.3696, 40.5379 ], [ -3.37, 40.5374 ], [ -3.3685, 40.5348 ], [ -3.3684, 40.5348 ], [ -3.3526, 40.5398 ] ] ] } },
{ "type": "Feature", "properties": { "municipio": "Camarma de Esteruelas", "clasificacion": "urbanizable-no-sectorizado", "calificacion": "sin-asignar", "version": "vigente", "fuente": "SIT-CAM WFS — UsoDelSuelo:VPLA_V_CLASIFICACION (https://idem.comunidad.madrid/geosrvg/ows)", "fecha_dato": "2026-05-12", "ambito": "31785", "_raw_CD_SIGLAS": "SUBNS", "_raw_DS_CLASIF_GEN": "Suelo No Urbanizable Común", "_raw_DS_CLASIF_DET": "Suelo No Urbanizable Común", "_raw_DS_DOCU": "NORMAS SUBSIDIARIAS", "_raw_DS_LEY": "CM Ley 4/1984, E RDL 1/1992", "_raw_FC_AC": "1996-12-19", "_raw_NM_AREA_M2": 5182754.7738715904, "_cam_code": "032" }, "geometry": { "type": "Polygon", "coordinates": [ [ [ -3.3698, 40.5935 ], [ -3.3734, 40.5959 ], [ -3.3767, 40.597 ], [ -3.3775, 40.5973 ], [ -3.3775, 40.5974 ], [ -3.3778, 40.5974 ], [ -3.3781, 40.5972 ], [ -3.3781, 40.5967 ], [ -3.3776, 40.5962 ], [ -3.3775, 40.5955 ], [ -3.3777, 40.5951 ], [ -3.3782, 40.5947 ], [ -3.378, 40.5943 ], [ -3.3779, 40.5943 ], [ -3.3779, 40.5941 ], [ -3.378, 40.5941 ], [ -3.3781, 40.5937 ], [ -3.3786, 40.5933 ], [ -3.3786, 40.5928 ], [ -3.3782, 40.5924 ], [ -3.3782, 40.592 ], [ -3.3783, 40.5919 ], [ -3.3788, 40.592 ], [ -3.3792, 40.5916 ], [ -3.3791, 40.5915 ], [ -3.3792, 40.5895 ], [ -3.3776, 40.5892 ], [ -3.3775, 40.5891 ], [ -3.3775, 40.5886 ], [ -3.3762, 40.5883 ], [ -3.3763, 40.5883 ], [ -3.3769, 40.5872 ], [ -3.3806, 40.5847 ], [ -3.3815, 40.5838 ], [ -3.3812, 40.5838 ], [ -3.3805, 40.5835 ], [ -3.3802, 40.5831 ], [ -3.38, 40.5831 ], [ -3.3799, 40.5829 ], [ -3.3793, 40.5825 ], [ -3.3786, 40.5822 ], [ -3.3781, 40.5821 ], [ -3.378, 40.5822 ], [ -3.376, 40.5817 ], [ -3.376, 40.5816 ], [ -3.3754, 40.5815 ], [ -3.3754, 40.5814 ], [ -3.3728, 40.5808 ], [ -3.3736, 40.5782 ], [ -3.3839, 40.5808 ], [ -3.3841, 40.5801 ], [ -3.3845, 40.5797 ], [ -3.3849, 40.5796 ], [ -3.3849, 40.5795 ], [ -3.386, 40.5793 ], [ -3.3875, 40.5787 ], [ -3.3883, 40.5779 ], [ -3.3883, 40.5775 ], [ -3.388, 40.5768 ], [ -3.3879, 40.5768 ], [ -3.3879, 40.5766 ], [ -3.3871, 40.576 ], [ -3.3869, 40.5748 ], [ -3.3869, 40.5744 ], [ -3.3872, 40.5741 ], [ -3.3878, 40.573 ], [ -3.3879, 40.573 ], [ -3.3879, 40.5727 ], [ -3.3874, 40.5722 ], [ -3.3872, 40.5722 ], [ -3.3872, 40.5721 ], [ -3.386, 40.5715 ], [ -3.3857, 40.5706 ], [ -3.3854, 40.5685 ], [ -3.3852, 40.5652 ], [ -3.3853, 40.5652 ], [ -3.3853, 40.565 ], [ -3.3854, 40.565 ], [ -3.3854, 40.5648 ], [ -3.3856, 40.5646 ], [ -3.3864, 40.564 ], [ -3.3863, 40.5626 ], [ -3.3848, 40.5588 ], [ -3.3826, 40.5562 ], [ -3.3815, 40.557 ], [ -3.3813, 40.5573 ], [ -3.3809, 40.5574 ], [ -3.3803, 40.5578 ], [ -3.38, 40.5582 ], [ -3.3791, 40.5587 ], [ -3.3763, 40.5587 ], [ -3.3753, 40.5609 ], [ -3.3739, 40.5634 ], [ -3.3738, 40.5638 ], [ -3.3735, 40.5642 ], [ -3.3675, 40.576 ], [ -3.3628, 40.5893 ], [ -3.3625, 40.5905 ], [ -3.362, 40.5917 ], [ -3.3611, 40.5946 ], [ -3.3696, 40.5952 ], [ -3.3697, 40.5951 ], [ -3.3698, 40.5935 ] ] ] } },
{ "type": "Feature", "properties": { "municipio": "Camarma de Esteruelas", "clasificacion": "urbanizable-no-sectorizado", "calificacion": "sin-asignar", "version": "vigente", "fuente": "SIT-CAM WFS — UsoDelSuelo:VPLA_V_CLASIFICACION (https://idem.comunidad.madrid/geosrvg/ows)", "fecha_dato": "2026-05-12", "ambito": "31785", "_raw_CD_SIGLAS": "SUBNS", "_raw_DS_CLASIF_GEN": "Suelo No Urbanizable Común", "_raw_DS_CLASIF_DET": "Suelo No Urbanizable. Polígono Reserva Municipal", "_raw_DS_DOCU": "NORMAS SUBSIDIARIAS", "_raw_DS_LEY": "CM Ley 4/1984, E RDL 1/1992", "_raw_FC_AC": "1996-12-19", "_raw_NM_AREA_M2": 182315.93356738999, "_cam_code": "032" }, "geometry": { "type": "Polygon", "coordinates": [ [ [ -3.3691, 40.5344 ], [ -3.3714, 40.5329 ], [ -3.3704, 40.5312 ], [ -3.3698, 40.5314 ], [ -3.3682, 40.5287 ], [ -3.3663, 40.5295 ], [ -3.3661, 40.529 ], [ -3.3651, 40.5275 ], [ -3.3648, 40.5273 ], [ -3.3641, 40.526 ], [ -3.3635, 40.5247 ], [ -3.3634, 40.5238 ], [ -3.3632, 40.5233 ], [ -3.3631, 40.5232 ], [ -3.3619, 40.5234 ], [ -3.362, 40.5237 ], [ -3.3625, 40.5243 ], [ -3.3627, 40.5252 ], [ -3.3628, 40.5251 ], [ -3.3637, 40.5265 ], [ -3.3659, 40.5304 ], [ -3.366, 40.5305 ], [ -3.3666, 40.5304 ], [ -3.3691, 40.5344 ] ] ] } },
{ "type": "Feature", "properties": { "municipio": "Camarma de Esteruelas", "clasificacion": "urbanizable-no-sectorizado", "calificacion": "sin-asignar", "version": "vigente", "fuente": "SIT-CAM WFS — UsoDelSuelo:VPLA_V_CLASIFICACION (https://idem.comunidad.madrid/geosrvg/ows)", "fecha_dato": "2026-05-12", "ambito": "31785", "_raw_CD_SIGLAS": "SUBNS", "_raw_DS_CLASIF_GEN": "Suelo No Urbanizable Común", "_raw_DS_CLASIF_DET": "Suelo No Urbanizable. Polígono Reserva Municipal", "_raw_DS_DOCU": "NORMAS SUBSIDIARIAS", "_raw_DS_LEY": "CM Ley 4/1984, E RDL 1/1992", "_raw_FC_AC": "1996-12-19", "_raw_NM_AREA_M2": 19985.211817248401, "_cam_code": "032" }, "geometry": { "type": "Polygon", "coordinates": [ [ [ -3.3663, 40.5306 ], [ -3.3661, 40.5306 ], [ -3.366, 40.5306 ], [ -3.3661, 40.5306 ], [ -3.3684, 40.5346 ], [ -3.3689, 40.5344 ], [ -3.3665, 40.5306 ], [ -3.3663, 40.5306 ] ] ] } },
{ "type": "Feature", "properties": { "municipio": "Camarma de Esteruelas", "clasificacion": "urbanizable-no-sectorizado", "calificacion": "sin-asignar", "version": "vigente", "fuente": "SIT-CAM WFS — UsoDelSuelo:VPLA_V_CLASIFICACION (https://idem.comunidad.madrid/geosrvg/ows)", "fecha_dato": "2026-05-12", "ambito": "31785", "_raw_CD_SIGLAS": "SUBNS", "_raw_DS_CLASIF_GEN": "Suelo No Urbanizable Común", "_raw_DS_CLASIF_DET": "Suelo No Urbanizable. Polígono Reserva Municipal", "_raw_DS_DOCU": "NORMAS SUBSIDIARIAS", "_raw_DS_LEY": "CM Ley 4/1984, E RDL 1/1992", "_raw_FC_AC": "1996-12-19", "_raw_NM_AREA_M2": 86945.680656339799, "_cam_code": "032" }, "geometry": { "type": "Polygon", "coordinates": [ [ [ -3.37, 40.5374 ], [ -3.3705, 40.5368 ], [ -3.3719, 40.536 ], [ -3.3723, 40.5351 ], [ -3.3728, 40.535 ], [ -3.3729, 40.5351 ], [ -3.3715, 40.533 ], [ -3.3695, 40.5343 ], [ -3.3685, 40.5348 ], [ -3.37, 40.5374 ] ] ] } },
{ "type": "Feature", "properties": { "municipio": "Camarma de Esteruelas", "clasificacion": "urbanizable-no-sectorizado", "calificacion": "sin-asignar", "version": "vigente", "fuente": "SIT-CAM WFS — UsoDelSuelo:VPLA_V_CLASIFICACION (https://idem.comunidad.madrid/geosrvg/ows)", "fecha_dato": "2026-05-12", "ambito": "31785", "_raw_CD_SIGLAS": "SUBNS", "_raw_DS_CLASIF_GEN": "Suelo No Urbanizable Común", "_raw_DS_CLASIF_DET": "Suelo No Urbanizable. Polígono Reserva Municipal", "_raw_DS_DOCU": "NORMAS SUBSIDIARIAS", "_raw_DS_LEY": "CM Ley 4/1984, E RDL 1/1992", "_raw_FC_AC": "1996-12-19", "_raw_NM_AREA_M2": 1312583.10134272, "_cam_code": "032" }, "geometry": { "type": "Polygon", "coordinates": [ [ [ -3.3571, 40.5485 ], [ -3.3596, 40.5486 ], [ -3.3606, 40.5484 ], [ -3.3622, 40.5484 ], [ -3.3627, 40.5482 ], [ -3.3627, 40.5481 ], [ -3.3632, 40.548 ], [ -3.3632, 40.5479 ], [ -3.3635, 40.5479 ], [ -3.3635, 40.5478 ], [ -3.3638, 40.5478 ], [ -3.3638, 40.5477 ], [ -3.3643, 40.5475 ], [ -3.3646, 40.5475 ], [ -3.3646, 40.5474 ], [ -3.3648, 40.5474 ], [ -3.3652, 40.5471 ], [ -3.3654, 40.5471 ], [ -3.3658, 40.5467 ], [ -3.3662, 40.5467 ], [ -3.3662, 40.5466 ], [ -3.3667, 40.5465 ], [ -3.3667, 40.5464 ], [ -3.3671, 40.5463 ], [ -3.3671, 40.5462 ], [ -3.3675, 40.5461 ], [ -3.3677, 40.5459 ], [ -3.3686, 40.5457 ], [ -3.3686, 40.5456 ], [ -3.3692, 40.5454 ], [ -3.3694, 40.5452 ], [ -3.3701, 40.5451 ], [ -3.3705, 40.5448 ], [ -3.3712, 40.5447 ], [ -3.3714, 40.5439 ], [ -3.3709, 40.5434 ], [ -3.3707, 40.5434 ], [ -3.3707, 40.5431 ], [ -3.3712, 40.5426 ], [ -3.3719, 40.5426 ], [ -3.3722, 40.5422 ], [ -3.3711, 40.5408 ], [ -3.3708, 40.5408 ], [ -3.3707, 40.541 ], [ -3.3705, 40.5406 ], [ -3.3714, 40.5401 ], [ -3.3716, 40.5401 ], [ -3.3719, 40.5407 ], [ -3.3721, 40.5406 ], [ -3.3723, 40.5408 ], [ -3.3731, 40.5421 ], [ -3.3738, 40.5421 ], [ -3.3742, 40.5418 ], [ -3.3746, 40.5414 ], [ -3.3748, 40.5408 ], [ -3.3751, 40.5407 ], [ -3.3751, 40.5404 ], [ -3.3746, 40.5399 ], [ -3.3744, 40.5399 ], [ -3.3742, 40.5397 ], [ -3.3742, 40.5395 ], [ -3.3747, 40.5393 ], [ -3.3754, 40.5393 ], [ -3.3754, 40.5388 ], [ -3.3759, 40.5385 ], [ -3.3758, 40.5375 ], [ -3.3755, 40.5371 ], [ -3.3757, 40.5358 ], [ -3.3756, 40.5359 ], [ -3.3751, 40.5359 ], [ -3.3746, 40.5364 ], [ -3.3742, 40.5364 ], [ -3.3739, 40.536 ], [ -3.3735, 40.536 ], [ -3.3729, 40.5363 ], [ -3.3723, 40.5363 ], [ -3.3719, 40.5365 ], [ -3.3708, 40.5371 ], [ -3.3704, 40.5375 ], [ -3.3699, 40.5382 ], [ -3.37, 40.5385 ], [ -3.3695, 40.539 ], [ -3.3692, 40.5387 ], [ -3.3693, 40.5382 ], [ -3.3687, 40.5376 ], [ -3.3685, 40.5376 ], [ -3.3669, 40.538 ], [ -3.3668, 40.5385 ], [ -3.3666, 40.5383 ], [ -3.366, 40.5383 ], [ -3.3649, 40.5388 ], [ -3.3648, 40.539 ], [ -3.3602, 40.5404 ], [ -3.3591, 40.5413 ], [ -3.3588, 40.5409 ], [ -3.3585, 40.5409 ], [ -3.3585, 40.541 ], [ -3.3583, 40.541 ], [ -3.3578, 40.5414 ], [ -3.3571, 40.5417 ], [ -3.3557, 40.5428 ], [ -3.356, 40.5437 ], [ -3.3562, 40.5439 ], [ -3.3558, 40.5439 ], [ -3.3551, 40.5442 ], [ -3.3559, 40.5457 ], [ -3.3571, 40.5485 ] ] ] } },
{ "type": "Feature", "properties": { "municipio": "Camarma de Esteruelas", "clasificacion": "urbanizable-no-sectorizado", "calificacion": "sin-asignar", "version": "vigente", "fuente": "SIT-CAM WFS — UsoDelSuelo:VPLA_V_CLASIFICACION (https://idem.comunidad.madrid/geosrvg/ows)", "fecha_dato": "2026-05-12", "ambito": "31785", "_raw_CD_SIGLAS": "SUBNS", "_raw_DS_CLASIF_GEN": "Suelo No Urbanizable Común", "_raw_DS_CLASIF_DET": "Suelo No Urbanizable. Polígono Reserva Municipal", "_raw_DS_DOCU": "NORMAS SUBSIDIARIAS", "_raw_DS_LEY": "CM Ley 4/1984, E RDL 1/1992", "_raw_FC_AC": "1996-12-19", "_raw_NM_AREA_M2": 747031.74089041899, "_cam_code": "032" }, "geometry": { "type": "Polygon", "coordinates": [ [ [ -3.382, 40.5555 ], [ -3.3827, 40.5561 ], [ -3.383, 40.5558 ], [ -3.3831, 40.5554 ], [ -3.3838, 40.5542 ], [ -3.3846, 40.5536 ], [ -3.3855, 40.5524 ], [ -3.3867, 40.5515 ], [ -3.3869, 40.5512 ], [ -3.3871, 40.5498 ], [ -3.3876, 40.5491 ], [ -3.388, 40.5459 ], [ -3.3883, 40.545 ], [ -3.3883, 40.544 ], [ -3.3885, 40.5432 ], [ -3.3887, 40.5429 ], [ -3.3887, 40.5422 ], [ -3.3873, 40.5417 ], [ -3.3843, 40.5416 ], [ -3.3824, 40.5414 ], [ -3.3811, 40.542 ], [ -3.3812, 40.5424 ], [ -3.381, 40.5424 ], [ -3.3809, 40.5433 ], [ -3.3809, 40.5446 ], [ -3.3811, 40.5456 ], [ -3.3825, 40.5456 ], [ -3.3824, 40.546 ], [ -3.3812, 40.5459 ], [ -3.3813, 40.5467 ], [ -3.3833, 40.5469 ], [ -3.3831, 40.5473 ], [ -3.3831, 40.5476 ], [ -3.3823, 40.5474 ], [ -3.3819, 40.5475 ], [ -3.3815, 40.5474 ], [ -3.3816, 40.5483 ], [ -3.3806, 40.5506 ], [ -3.3796, 40.5525 ], [ -3.3828, 40.5543 ], [ -3.382, 40.5555 ] ] ] } },
{ "type": "Feature", "properties": { "municipio": "Camarma de Esteruelas", "clasificacion": "urbanizable-no-sectorizado", "calificacion": "sin-asignar", "version": "vigente", "fuente": "SIT-CAM WFS — UsoDelSuelo:VPLA_V_CLASIFICACION (https://idem.comunidad.madrid/geosrvg/ows)", "fecha_dato": "2026-05-12", "ambito": "31785", "_raw_CD_SIGLAS": "SUBNS", "_raw_DS_CLASIF_GEN": "Suelo No Urbanizable Común", "_raw_DS_CLASIF_DET": "Suelo No Urbanizable. Polígono Reserva Municipal", "_raw_DS_DOCU": "NORMAS SUBSIDIARIAS", "_raw_DS_LEY": "CM Ley 4/1984, E RDL 1/1992", "_raw_FC_AC": "1996-12-19", "_raw_NM_AREA_M2": 148328.44535340599, "_cam_code": "032" }, "geometry": { "type": "Polygon", "coordinates": [ [ [ -3.3788, 40.5539 ], [ -3.3783, 40.555 ], [ -3.3782, 40.555 ], [ -3.3763, 40.5587 ], [ -3.3791, 40.5587 ], [ -3.38, 40.5582 ], [ -3.3803, 40.5578 ], [ -3.3809, 40.5574 ], [ -3.3813, 40.5573 ], [ -3.3815, 40.557 ], [ -3.3826, 40.5562 ], [ -3.3809, 40.5547 ], [ -3.3807, 40.5553 ], [ -3.3788, 40.5539 ] ] ] } },
{ "type": "Feature", "properties": { "municipio": "Camarma de Esteruelas", "clasificacion": "urbanizable-no-sectorizado", "calificacion": "sin-asignar", "version": "vigente", "fuente": "SIT-CAM WFS — UsoDelSuelo:VPLA_V_CLASIFICACION (https://idem.comunidad.madrid/geosrvg/ows)", "fecha_dato": "2026-05-12", "ambito": "31785", "_raw_CD_SIGLAS": "SUBNS", "_raw_DS_CLASIF_GEN": "Suelo No Urbanizable Común", "_raw_DS_CLASIF_DET": "Suelo No Urbanizable Común", "_raw_DS_DOCU": "NORMAS SUBSIDIARIAS", "_raw_DS_LEY": "CM Ley 4/1984, E RDL 1/1992", "_raw_FC_AC": "1996-12-19", "_raw_NM_AREA_M2": 157021.56247208599, "_cam_code": "032" }, "geometry": { "type": "Polygon", "coordinates": [ [ [ -3.3727, 40.5348 ], [ -3.3734, 40.5354 ], [ -3.3734, 40.5353 ], [ -3.3741, 40.5349 ], [ -3.3739, 40.5346 ], [ -3.3741, 40.5346 ], [ -3.3741, 40.5344 ], [ -3.3746, 40.5337 ], [ -3.3751, 40.5334 ], [ -3.376, 40.5334 ], [ -3.3763, 40.5341 ], [ -3.3774, 40.5341 ], [ -3.3775, 40.5335 ], [ -3.3769, 40.531 ], [ -3.377, 40.5295 ], [ -3.3715, 40.533 ], [ -3.3727, 40.5348 ] ] ] } },
{ "type": "Feature", "properties": { "municipio": "Camarma de Esteruelas", "clasificacion": "urbanizable-no-sectorizado", "calificacion": "sin-asignar", "version": "vigente", "fuente": "SIT-CAM WFS — UsoDelSuelo:VPLA_V_CLASIFICACION (https://idem.comunidad.madrid/geosrvg/ows)", "fecha_dato": "2026-05-12", "ambito": "31785", "_raw_CD_SIGLAS": "SUBNS", "_raw_DS_CLASIF_GEN": "Suelo No Urbanizable Común", "_raw_DS_CLASIF_DET": "Suelo No Urbanizable Común", "_raw_DS_DOCU": "NORMAS SUBSIDIARIAS", "_raw_DS_LEY": "CM Ley 4/1984, E RDL 1/1992", "_raw_FC_AC": "1996-12-19", "_raw_NM_AREA_M2": 258790.58154862901, "_cam_code": "032" }, "geometry": { "type": "Polygon", "coordinates": [ [ [ -3.3704, 40.5312 ], [ -3.3714, 40.5329 ], [ -3.3773, 40.529 ], [ -3.3769, 40.5275 ], [ -3.3746, 40.5283 ], [ -3.3702, 40.5277 ], [ -3.3679, 40.5283 ], [ -3.3698, 40.5314 ], [ -3.3704, 40.5312 ] ] ] } },
{ "type": "Feature", "properties": { "municipio": "Camarma de Esteruelas", "clasificacion": "urbanizable-no-sectorizado", "calificacion": "sin-asignar", "version": "vigente", "fuente": "SIT-CAM WFS — UsoDelSuelo:VPLA_V_CLASIFICACION (https://idem.comunidad.madrid/geosrvg/ows)", "fecha_dato": "2026-05-12", "ambito": "31785", "_raw_CD_SIGLAS": "SUBNS", "_raw_DS_CLASIF_GEN": "Suelo No Urbanizable Común", "_raw_DS_CLASIF_DET": "Suelo No Urbanizable Común", "_raw_DS_DOCU": "NORMAS SUBSIDIARIAS", "_raw_DS_LEY": "CM Ley 4/1984, E RDL 1/1992", "_raw_FC_AC": "1996-12-19", "_raw_NM_AREA_M2": 747616.89484217996, "_cam_code": "032" }, "geometry": { "type": "Polygon", "coordinates": [ [ [ -3.3546, 40.5262 ], [ -3.3524, 40.5265 ], [ -3.3523, 40.5266 ], [ -3.351, 40.5308 ], [ -3.35, 40.5316 ], [ -3.3501, 40.5317 ], [ -3.3505, 40.5317 ], [ -3.3508, 40.5318 ], [ -3.3508, 40.5319 ], [ -3.3527, 40.5316 ], [ -3.366, 40.5305 ], [ -3.3637, 40.5265 ], [ -3.3628, 40.5251 ], [ -3.3627, 40.5252 ], [ -3.3625, 40.5243 ], [ -3.362, 40.5237 ], [ -3.3619, 40.5234 ], [ -3.36, 40.5236 ], [ -3.3546, 40.5262 ] ] ] } },
{ "type": "Feature", "properties": { "municipio": "Camarma de Esteruelas", "clasificacion": "urbanizable-sectorizado", "calificacion": "sin-asignar", "version": "vigente", "fuente": "SIT-CAM WFS — UsoDelSuelo:VPLA_V_CLASIFICACION (https://idem.comunidad.madrid/geosrvg/ows)", "fecha_dato": "2026-05-12", "ambito": "31785", "_raw_CD_SIGLAS": "SUBS", "_raw_DS_CLASIF_GEN": "Suelo Apto Para Urbanizar", "_raw_DS_CLASIF_DET": "Suelo Apto para Urbanizar", "_raw_DS_DOCU": "NORMAS SUBSIDIARIAS", "_raw_DS_LEY": "CM Ley 4/1984, E RDL 1/1992", "_raw_FC_AC": "1996-12-19", "_raw_NM_AREA_M2": 165615.31194468201, "_cam_code": "032" }, "geometry": { "type": "Polygon", "coordinates": [ [ [ -3.3712, 40.5537 ], [ -3.3712, 40.5538 ], [ -3.371, 40.5543 ], [ -3.3712, 40.5545 ], [ -3.3737, 40.5549 ], [ -3.3743, 40.5534 ], [ -3.3751, 40.5521 ], [ -3.3751, 40.5519 ], [ -3.3752, 40.5519 ], [ -3.3751, 40.5517 ], [ -3.3751, 40.5491 ], [ -3.3746, 40.5486 ], [ -3.3746, 40.5484 ], [ -3.3756, 40.5475 ], [ -3.3756, 40.5473 ], [ -3.3757, 40.5473 ], [ -3.3762, 40.5465 ], [ -3.3749, 40.5463 ], [ -3.3744, 40.5461 ], [ -3.3745, 40.5492 ], [ -3.3737, 40.5492 ], [ -3.3728, 40.549 ], [ -3.3731, 40.5498 ], [ -3.3721, 40.5497 ], [ -3.3721, 40.551 ], [ -3.373, 40.551 ], [ -3.373, 40.5514 ], [ -3.3724, 40.5523 ], [ -3.3722, 40.5524 ], [ -3.3721, 40.5527 ], [ -3.3714, 40.5531 ], [ -3.371, 40.5537 ], [ -3.3711, 40.5538 ], [ -3.3712, 40.5537 ] ] ] } },
{ "type": "Feature", "properties": { "municipio": "Camarma de Esteruelas", "clasificacion": "urbanizable-sectorizado", "calificacion": "sin-asignar", "version": "vigente", "fuente": "SIT-CAM WFS — UsoDelSuelo:VPLA_V_CLASIFICACION (https://idem.comunidad.madrid/geosrvg/ows)", "fecha_dato": "2026-05-12", "ambito": "31785", "_raw_CD_SIGLAS": "SUBS", "_raw_DS_CLASIF_GEN": "Suelo Apto Para Urbanizar", "_raw_DS_CLASIF_DET": "Suelo Apto para Urbanizar", "_raw_DS_DOCU": "NORMAS SUBSIDIARIAS", "_raw_DS_LEY": "CM Ley 4/1984, E RDL 1/1992", "_raw_FC_AC": "1996-12-19", "_raw_NM_AREA_M2": 50660.531512635403, "_cam_code": "032" }, "geometry": { "type": "Polygon", "coordinates": [ [ [ -3.3808, 40.5424 ], [ -3.3799, 40.5431 ], [ -3.3794, 40.5439 ], [ -3.3792, 40.544 ], [ -3.379, 40.5444 ], [ -3.3788, 40.5458 ], [ -3.3811, 40.5461 ], [ -3.3808, 40.5446 ], [ -3.3808, 40.5429 ], [ -3.3809, 40.5427 ], [ -3.3808, 40.5424 ] ] ] } },
{ "type": "Feature", "properties": { "municipio": "Camarma de Esteruelas", "clasificacion": "urbanizable-sectorizado", "calificacion": "sin-asignar", "version": "vigente", "fuente": "SIT-CAM WFS — UsoDelSuelo:VPLA_V_CLASIFICACION (https://idem.comunidad.madrid/geosrvg/ows)", "fecha_dato": "2026-05-12", "ambito": "31785", "_raw_CD_SIGLAS": "SUBS", "_raw_DS_CLASIF_GEN": "Suelo Apto Para Urbanizar", "_raw_DS_CLASIF_DET": "Suelo Apto para Urbanizar", "_raw_DS_DOCU": "NORMAS SUBSIDIARIAS", "_raw_DS_LEY": "CM Ley 4/1984, E RDL 1/1992", "_raw_FC_AC": "1996-12-19", "_raw_NM_AREA_M2": 744024.64152925904, "_cam_code": "032" }, "geometry": { "type": "Polygon", "coordinates": [ [ [ -3.3816, 40.5325 ], [ -3.3866, 40.5331 ], [ -3.3863, 40.5363 ], [ -3.3894, 40.5366 ], [ -3.3892, 40.5346 ], [ -3.3891, 40.5345 ], [ -3.3891, 40.5334 ], [ -3.3895, 40.5322 ], [ -3.3902, 40.5313 ], [ -3.3946, 40.5313 ], [ -3.3932, 40.5281 ], [ -3.3931, 40.5281 ], [ -3.3929, 40.5273 ], [ -3.3923, 40.526 ], [ -3.3916, 40.5246 ], [ -3.3915, 40.5246 ], [ -3.3897, 40.5251 ], [ -3.3861, 40.527 ], [ -3.3837, 40.5278 ], [ -3.3822, 40.5282 ], [ -3.382, 40.5281 ], [ -3.3819, 40.5282 ], [ -3.3819, 40.5298 ], [ -3.3816, 40.5325 ] ] ] } }
]
}
