{
"type": "FeatureCollection",
"name": "vigente.full",
"features": [
{ "type": "Feature", "properties": { "municipio": "Navarredonda y San Mamés", "clasificacion": "no-urbanizable-protegido", "calificacion": "sin-asignar", "version": "vigente", "fuente": "SIT-CAM WFS — UsoDelSuelo:VPLA_V_CLASIFICACION (https://idem.comunidad.madrid/geosrvg/ows)", "fecha_dato": "2026-05-12", "ambito": "103", "_raw_CD_SIGLAS": "SNUP", "_raw_DS_CLASIF_GEN": "Suelo No Urbanizable Protegido", "_raw_DS_CLASIF_DET": "Suelo No Urbanizable Especialmente Protegido por su Interés Naturalístico", "_raw_DS_DOCU": "NORMAS SUBSIDIARIAS", "_raw_DS_LEY": "CM Ley 4/1984, E RD 1346/1976", "_raw_FC_AC": "1986-06-19", "_raw_NM_AREA_M2": 197655.838311709, "_cam_code": "097" }, "geometry": { "type": "Polygon", "coordinates": [ [ [ -3.7054, 40.9908 ], [ -3.7013, 40.9949 ], [ -3.6998, 40.9967 ], [ -3.6994, 40.9982 ], [ -3.7001, 40.9992 ], [ -3.7016, 40.9989 ], [ -3.703, 40.9981 ], [ -3.7044, 40.9971 ], [ -3.7046, 40.9965 ], [ -3.7038, 40.9958 ], [ -3.7038, 40.9955 ], [ -3.7037, 40.9955 ], [ -3.7036, 40.9951 ], [ -3.704, 40.9949 ], [ -3.7039, 40.9949 ], [ -3.7036, 40.9941 ], [ -3.7039, 40.9941 ], [ -3.7043, 40.9937 ], [ -3.7041, 40.9935 ], [ -3.7045, 40.9931 ], [ -3.7048, 40.9924 ], [ -3.7046, 40.9921 ], [ -3.7049, 40.9921 ], [ -3.7052, 40.9918 ], [ -3.7063, 40.9917 ], [ -3.7063, 40.9916 ], [ -3.7066, 40.9915 ], [ -3.7065, 40.9913 ], [ -3.707, 40.9911 ], [ -3.7065, 40.9909 ], [ -3.7059, 40.99 ], [ -3.7054, 40.9908 ] ] ] } },
{ "type": "Feature", "properties": { "municipio": "Navarredonda y San Mamés", "clasificacion": "no-urbanizable-protegido", "calificacion": "sin-asignar", "version": "vigente", "fuente": "SIT-CAM WFS — UsoDelSuelo:VPLA_V_CLASIFICACION (https://idem.comunidad.madrid/geosrvg/ows)", "fecha_dato": "2026-05-12", "ambito": "103", "_raw_CD_SIGLAS": "SNUP", "_raw_DS_CLASIF_GEN": "Suelo No Urbanizable Protegido", "_raw_DS_CLASIF_DET": "Suelo No Urbanizable Especialmente Protegido por su Interés Agropecuario", "_raw_DS_DOCU": "NORMAS SUBSIDIARIAS", "_raw_DS_LEY": "CM Ley 4/1984, E RD 1346/1976", "_raw_FC_AC": "1986-06-19", "_raw_NM_AREA_M2": 150782.024151277, "_cam_code": "097" }, "geometry": { "type": "Polygon", "coordinates": [ [ [ -3.7002, 40.9994 ], [ -3.6996, 40.9995 ], [ -3.6998, 41.0 ], [ -3.7012, 41.0019 ], [ -3.7012, 41.0021 ], [ -3.7019, 41.0032 ], [ -3.7019, 41.0036 ], [ -3.702, 41.0036 ], [ -3.702, 41.0051 ], [ -3.7019, 41.0054 ], [ -3.7033, 41.0051 ], [ -3.7055, 41.0043 ], [ -3.7066, 41.0037 ], [ -3.707, 41.0033 ], [ -3.707, 41.0028 ], [ -3.7069, 41.0027 ], [ -3.7057, 41.0021 ], [ -3.7047, 41.0018 ], [ -3.703, 41.0017 ], [ -3.7014, 41.0012 ], [ -3.7012, 41.001 ], [ -3.7012, 41.0007 ], [ -3.7011, 41.0007 ], [ -3.7009, 41.0001 ], [ -3.7002, 40.9994 ] ] ] } },
{ "type": "Feature", "properties": { "municipio": "Navarredonda y San Mamés", "clasificacion": "no-urbanizable-protegido", "calificacion": "sin-asignar", "version": "vigente", "fuente": "SIT-CAM WFS — UsoDelSuelo:VPLA_V_CLASIFICACION (https://idem.comunidad.madrid/geosrvg/ows)", "fecha_dato": "2026-05-12", "ambito": "103", "_raw_CD_SIGLAS": "SNUP", "_raw_DS_CLASIF_GEN": "Suelo No Urbanizable Protegido", "_raw_DS_CLASIF_DET": "Suelo No Urbanizable Especialmente Protegido por su Interés Agropecuario", "_raw_DS_DOCU": "NORMAS SUBSIDIARIAS", "_raw_DS_LEY": "CM Ley 4/1984, E RD 1346/1976", "_raw_FC_AC": "1986-06-19", "_raw_NM_AREA_M2": 165902.269335791, "_cam_code": "097" }, "geometry": { "type": "Polygon", "coordinates": [ [ [ -3.696, 41.0015 ], [ -3.6944, 41.0019 ], [ -3.6929, 41.0027 ], [ -3.6909, 41.0032 ], [ -3.6908, 41.0034 ], [ -3.6913, 41.0039 ], [ -3.6938, 41.0048 ], [ -3.6962, 41.0061 ], [ -3.6969, 41.0061 ], [ -3.6981, 41.0055 ], [ -3.6984, 41.0052 ], [ -3.698, 41.0044 ], [ -3.6973, 41.004 ], [ -3.6969, 41.003 ], [ -3.6962, 41.0021 ], [ -3.6963, 41.0019 ], [ -3.6962, 41.0016 ], [ -3.696, 41.0015 ] ] ] } },
{ "type": "Feature", "properties": { "municipio": "Navarredonda y San Mamés", "clasificacion": "no-urbanizable-protegido", "calificacion": "sin-asignar", "version": "vigente", "fuente": "SIT-CAM WFS — UsoDelSuelo:VPLA_V_CLASIFICACION (https://idem.comunidad.madrid/geosrvg/ows)", "fecha_dato": "2026-05-12", "ambito": "103", "_raw_CD_SIGLAS": "SNUP", "_raw_DS_CLASIF_GEN": "Suelo No Urbanizable Protegido", "_raw_DS_CLASIF_DET": "Suelo No Urbanizable Especialmente Protegido por su Interés Agropecuario", "_raw_DS_DOCU": "NORMAS SUBSIDIARIAS", "_raw_DS_LEY": "CM Ley 4/1984, E RD 1346/1976", "_raw_FC_AC": "1986-06-19", "_raw_NM_AREA_M2": 14512.401413122099, "_cam_code": "097" }, "geometry": { "type": "Polygon", "coordinates": [ [ [ -3.692, 41.0045 ], [ -3.6969, 41.0083 ], [ -3.6951, 41.0063 ], [ -3.6926, 41.0047 ], [ -3.692, 41.0045 ] ] ] } },
{ "type": "Feature", "properties": { "municipio": "Navarredonda y San Mamés", "clasificacion": "no-urbanizable-protegido", "calificacion": "sin-asignar", "version": "vigente", "fuente": "SIT-CAM WFS — UsoDelSuelo:VPLA_V_CLASIFICACION (https://idem.comunidad.madrid/geosrvg/ows)", "fecha_dato": "2026-05-12", "ambito": "103", "_raw_CD_SIGLAS": "SNUP", "_raw_DS_CLASIF_GEN": "Suelo No Urbanizable Protegido", "_raw_DS_CLASIF_DET": "Suelo No Urbanizable Especialmente Protegido por su Interés Agropecuario", "_raw_DS_DOCU": "NORMAS SUBSIDIARIAS", "_raw_DS_LEY": "CM Ley 4/1984, E RD 1346/1976", "_raw_FC_AC": "1986-06-19", "_raw_NM_AREA_M2": 23738.892684795301, "_cam_code": "097" }, "geometry": { "type": "Polygon", "coordinates": [ [ [ -3.6975, 41.0064 ], [ -3.6964, 41.0066 ], [ -3.6969, 41.0076 ], [ -3.6979, 41.0086 ], [ -3.6982, 41.0073 ], [ -3.6983, 41.0063 ], [ -3.6982, 41.006 ], [ -3.6975, 41.0064 ] ] ] } },
{ "type": "Feature", "properties": { "municipio": "Navarredonda y San Mamés", "clasificacion": "no-urbanizable-protegido", "calificacion": "sin-asignar", "version": "vigente", "fuente": "SIT-CAM WFS — UsoDelSuelo:VPLA_V_CLASIFICACION (https://idem.comunidad.madrid/geosrvg/ows)", "fecha_dato": "2026-05-12", "ambito": "103", "_raw_CD_SIGLAS": "SNUP", "_raw_DS_CLASIF_GEN": "Suelo No Urbanizable Protegido", "_raw_DS_CLASIF_DET": null, "_raw_DS_DOCU": "NORMAS SUBSIDIARIAS", "_raw_DS_LEY": "CM Ley 4/1984, E RD 1346/1976", "_raw_FC_AC": "1986-06-19", "_raw_NM_AREA_M2": 53942.456229087999, "_cam_code": "097" }, "geometry": { "type": "Polygon", "coordinates": [ [ [ -3.6957, 40.9997 ], [ -3.6951, 41.0006 ], [ -3.6961, 41.0012 ], [ -3.6959, 41.0012 ], [ -3.6959, 41.0014 ], [ -3.6962, 41.0013 ], [ -3.6961, 41.0011 ], [ -3.6953, 41.0006 ], [ -3.696, 40.9999 ], [ -3.696, 40.9997 ], [ -3.6956, 40.9972 ], [ -3.6949, 40.9964 ], [ -3.6948, 40.996 ], [ -3.695, 40.9952 ], [ -3.6953, 40.9949 ], [ -3.6948, 40.9941 ], [ -3.6955, 40.9936 ], [ -3.6954, 40.9931 ], [ -3.6941, 40.992 ], [ -3.6929, 40.9918 ], [ -3.6899, 40.9916 ], [ -3.6874, 40.9912 ], [ -3.6873, 40.9913 ], [ -3.6862, 40.9914 ], [ -3.6867, 40.9916 ], [ -3.6891, 40.9916 ], [ -3.6906, 40.9919 ], [ -3.6904, 40.992 ], [ -3.6941, 40.9924 ], [ -3.6945, 40.9928 ], [ -3.6948, 40.9937 ], [ -3.6945, 40.9943 ], [ -3.6946, 40.9951 ], [ -3.6943, 40.9958 ], [ -3.6943, 40.9961 ], [ -3.6948, 40.9963 ], [ -3.6953, 40.997 ], [ -3.6952, 40.9975 ], [ -3.6956, 40.9983 ], [ -3.6957, 40.9992 ], [ -3.6957, 40.9997 ] ] ] } },
{ "type": "Feature", "properties": { "municipio": "Navarredonda y San Mamés", "clasificacion": "no-urbanizable-protegido", "calificacion": "sin-asignar", "version": "vigente", "fuente": "SIT-CAM WFS — UsoDelSuelo:VPLA_V_CLASIFICACION (https://idem.comunidad.madrid/geosrvg/ows)", "fecha_dato": "2026-05-12", "ambito": "103", "_raw_CD_SIGLAS": "SNUP", "_raw_DS_CLASIF_GEN": "Suelo No Urbanizable Protegido", "_raw_DS_CLASIF_DET": "Suelo No Urbanizable Especialmente Protegido por su Interés Agropecuario", "_raw_DS_DOCU": "NORMAS SUBSIDIARIAS", "_raw_DS_LEY": "CM Ley 4/1984, E RD 1346/1976", "_raw_FC_AC": "1986-06-19", "_raw_NM_AREA_M2": 59457.522072152402, "_cam_code": "097" }, "geometry": { "type": "Polygon", "coordinates": [ [ [ -3.7212, 40.9898 ], [ -3.7222, 40.9899 ], [ -3.7229, 40.9905 ], [ -3.7234, 40.9898 ], [ -3.7233, 40.9892 ], [ -3.7234, 40.9886 ], [ -3.7239, 40.9873 ], [ -3.7226, 40.988 ], [ -3.7222, 40.9885 ], [ -3.7217, 40.9886 ], [ -3.7211, 40.9879 ], [ -3.7198, 40.9872 ], [ -3.7195, 40.9868 ], [ -3.7189, 40.9866 ], [ -3.72, 40.9876 ], [ -3.7204, 40.9887 ], [ -3.7203, 40.9894 ], [ -3.7212, 40.9898 ] ] ] } },
{ "type": "Feature", "properties": { "municipio": "Navarredonda y San Mamés", "clasificacion": "no-urbanizable-protegido", "calificacion": "sin-asignar", "version": "vigente", "fuente": "SIT-CAM WFS — UsoDelSuelo:VPLA_V_CLASIFICACION (https://idem.comunidad.madrid/geosrvg/ows)", "fecha_dato": "2026-05-12", "ambito": "103", "_raw_CD_SIGLAS": "SNUP", "_raw_DS_CLASIF_GEN": "Suelo No Urbanizable Protegido", "_raw_DS_CLASIF_DET": "Suelo No Urbanizable Especialmente Protegido por su Interés Agropecuario", "_raw_DS_DOCU": "NORMAS SUBSIDIARIAS", "_raw_DS_LEY": "CM Ley 4/1984, E RD 1346/1976", "_raw_FC_AC": "1986-06-19", "_raw_NM_AREA_M2": 58074.044544931901, "_cam_code": "097" }, "geometry": { "type": "Polygon", "coordinates": [ [ [ -3.7075, 40.9888 ], [ -3.7085, 40.991 ], [ -3.711, 40.9903 ], [ -3.7122, 40.9903 ], [ -3.7123, 40.9901 ], [ -3.7121, 40.99 ], [ -3.7121, 40.9898 ], [ -3.7123, 40.9896 ], [ -3.7123, 40.9892 ], [ -3.7104, 40.9892 ], [ -3.7095, 40.9891 ], [ -3.7085, 40.9888 ], [ -3.7075, 40.9888 ] ] ] } },
{ "type": "Feature", "properties": { "municipio": "Navarredonda y San Mamés", "clasificacion": "no-urbanizable-protegido", "calificacion": "sin-asignar", "version": "vigente", "fuente": "SIT-CAM WFS — UsoDelSuelo:VPLA_V_CLASIFICACION (https://idem.comunidad.madrid/geosrvg/ows)", "fecha_dato": "2026-05-12", "ambito": "103", "_raw_CD_SIGLAS": "SNUP", "_raw_DS_CLASIF_GEN": "Suelo No Urbanizable Protegido", "_raw_DS_CLASIF_DET": "Suelo No Urbanizable Especialmente Protegido por su Interés Agropecuario", "_raw_DS_DOCU": "NORMAS SUBSIDIARIAS", "_raw_DS_LEY": "CM Ley 4/1984, E RD 1346/1976", "_raw_FC_AC": "1986-06-19", "_raw_NM_AREA_M2": 22170.098824746001, "_cam_code": "097" }, "geometry": { "type": "Polygon", "coordinates": [ [ [ -3.7181, 40.9881 ], [ -3.7193, 40.9894 ], [ -3.7199, 40.9892 ], [ -3.7202, 40.9889 ], [ -3.7198, 40.9877 ], [ -3.7195, 40.9874 ], [ -3.7181, 40.9881 ] ] ] } },
{ "type": "Feature", "properties": { "municipio": "Navarredonda y San Mamés", "clasificacion": "no-urbanizable-protegido", "calificacion": "sin-asignar", "version": "vigente", "fuente": "SIT-CAM WFS — UsoDelSuelo:VPLA_V_CLASIFICACION (https://idem.comunidad.madrid/geosrvg/ows)", "fecha_dato": "2026-05-12", "ambito": "103", "_raw_CD_SIGLAS": "SNUP", "_raw_DS_CLASIF_GEN": "Suelo No Urbanizable Protegido", "_raw_DS_CLASIF_DET": "Suelo No Urbanizable Especialmente Protegido por su Interés Naturalístico", "_raw_DS_DOCU": "NORMAS SUBSIDIARIAS", "_raw_DS_LEY": "CM Ley 4/1984, E RD 1346/1976", "_raw_FC_AC": "1986-06-19", "_raw_NM_AREA_M2": 12861.051103304, "_cam_code": "097" }, "geometry": { "type": "Polygon", "coordinates": [ [ [ -3.7016, 41.0056 ], [ -3.7012, 41.0055 ], [ -3.7004, 41.0059 ], [ -3.7, 41.0063 ], [ -3.7, 41.0067 ], [ -3.7001, 41.0067 ], [ -3.7003, 41.0072 ], [ -3.7006, 41.0071 ], [ -3.7011, 41.0065 ], [ -3.7015, 41.0058 ], [ -3.7015, 41.0056 ], [ -3.7016, 41.0056 ] ] ] } },
{ "type": "Feature", "properties": { "municipio": "Navarredonda y San Mamés", "clasificacion": "no-urbanizable-protegido", "calificacion": "sin-asignar", "version": "vigente", "fuente": "SIT-CAM WFS — UsoDelSuelo:VPLA_V_CLASIFICACION (https://idem.comunidad.madrid/geosrvg/ows)", "fecha_dato": "2026-05-12", "ambito": "103", "_raw_CD_SIGLAS": "SNUP", "_raw_DS_CLASIF_GEN": "Suelo No Urbanizable Protegido", "_raw_DS_CLASIF_DET": "Suelo No Urbanizable Especialmente Protegido por su Interés Naturalístico", "_raw_DS_DOCU": "NORMAS SUBSIDIARIAS", "_raw_DS_LEY": "CM Ley 4/1984, E RD 1346/1976", "_raw_FC_AC": "1986-06-19", "_raw_NM_AREA_M2": 2075600.2779006199, "_cam_code": "097" }, "geometry": { "type": "Polygon", "coordinates": [ [ [ -3.7055, 41.0043 ], [ -3.7019, 41.0054 ], [ -3.7012, 41.0068 ], [ -3.7006, 41.0073 ], [ -3.7018, 41.0075 ], [ -3.7048, 41.0077 ], [ -3.7057, 41.0082 ], [ -3.7057, 41.0087 ], [ -3.7055, 41.0092 ], [ -3.7046, 41.0109 ], [ -3.7043, 41.0119 ], [ -3.7043, 41.0123 ], [ -3.7044, 41.0123 ], [ -3.7045, 41.0127 ], [ -3.7059, 41.013 ], [ -3.7062, 41.0125 ], [ -3.7082, 41.011 ], [ -3.7086, 41.0102 ], [ -3.7096, 41.0093 ], [ -3.7096, 41.009 ], [ -3.7097, 41.009 ], [ -3.7096, 41.0083 ], [ -3.7092, 41.0079 ], [ -3.7092, 41.0075 ], [ -3.7097, 41.0074 ], [ -3.7098, 41.0072 ], [ -3.71, 41.0072 ], [ -3.7103, 41.0069 ], [ -3.7103, 41.0064 ], [ -3.7105, 41.0061 ], [ -3.7105, 41.0051 ], [ -3.7106, 41.005 ], [ -3.7112, 41.0047 ], [ -3.7122, 41.0047 ], [ -3.7122, 41.0046 ], [ -3.7124, 41.0046 ], [ -3.7126, 41.0044 ], [ -3.7137, 41.0039 ], [ -3.7149, 41.0028 ], [ -3.7149, 41.0026 ], [ -3.7144, 41.0022 ], [ -3.7144, 41.002 ], [ -3.7146, 41.0019 ], [ -3.7151, 41.0018 ], [ -3.7155, 41.0019 ], [ -3.7157, 41.0015 ], [ -3.7159, 41.0014 ], [ -3.7162, 41.0013 ], [ -3.7168, 41.0014 ], [ -3.7168, 41.0011 ], [ -3.7177, 41.0012 ], [ -3.7176, 41.0008 ], [ -3.7177, 41.0006 ], [ -3.7189, 41.0007 ], [ -3.7195, 41.0002 ], [ -3.7201, 41.0003 ], [ -3.7204, 41.0002 ], [ -3.7207, 40.9988 ], [ -3.7215, 40.998 ], [ -3.7216, 40.9976 ], [ -3.7222, 40.9971 ], [ -3.7219, 40.9968 ], [ -3.7218, 40.9964 ], [ -3.7216, 40.9946 ], [ -3.7217, 40.9941 ], [ -3.7231, 40.9912 ], [ -3.721, 40.9912 ], [ -3.7208, 40.991 ], [ -3.7207, 40.9905 ], [ -3.7205, 40.9903 ], [ -3.7201, 40.9903 ], [ -3.72, 40.9901 ], [ -3.7201, 40.9893 ], [ -3.72, 40.9893 ], [ -3.7195, 40.9896 ], [ -3.7185, 40.9897 ], [ -3.7185, 40.9898 ], [ -3.7172, 40.9903 ], [ -3.7172, 40.9904 ], [ -3.7165, 40.9905 ], [ -3.7151, 40.9914 ], [ -3.7142, 40.9917 ], [ -3.7142, 40.9918 ], [ -3.7127, 40.9918 ], [ -3.7118, 40.9916 ], [ -3.7107, 40.9917 ], [ -3.7102, 40.9924 ], [ -3.7103, 40.9928 ], [ -3.7101, 40.9931 ], [ -3.7099, 40.9931 ], [ -3.7098, 40.9934 ], [ -3.7101, 40.9937 ], [ -3.7098, 40.9939 ], [ -3.7097, 40.9938 ], [ -3.7098, 40.9941 ], [ -3.7101, 40.9945 ], [ -3.7102, 40.9952 ], [ -3.7108, 40.9968 ], [ -3.7111, 40.9971 ], [ -3.7115, 40.9972 ], [ -3.7117, 40.9976 ], [ -3.7134, 40.9991 ], [ -3.7134, 40.9996 ], [ -3.7127, 40.9996 ], [ -3.7115, 40.9988 ], [ -3.7102, 40.9983 ], [ -3.7093, 40.9975 ], [ -3.7091, 40.9962 ], [ -3.7074, 40.9957 ], [ -3.7072, 40.9955 ], [ -3.7068, 40.9954 ], [ -3.7071, 40.995 ], [ -3.7066, 40.9951 ], [ -3.706, 40.9958 ], [ -3.7053, 40.9962 ], [ -3.7047, 40.9969 ], [ -3.7046, 40.9972 ], [ -3.7031, 40.9983 ], [ -3.7014, 40.9992 ], [ -3.7009, 40.9992 ], [ -3.7009, 40.9993 ], [ -3.7002, 40.9994 ], [ -3.7009, 41.0001 ], [ -3.7011, 41.0007 ], [ -3.7012, 41.0007 ], [ -3.7012, 41.001 ], [ -3.7014, 41.0012 ], [ -3.7016, 41.0012 ], [ -3.7016, 41.0013 ], [ -3.703, 41.0017 ], [ -3.7039, 41.0017 ], [ -3.7051, 41.0019 ], [ -3.7062, 41.0023 ], [ -3.707, 41.0028 ], [ -3.707, 41.0033 ], [ -3.7066, 41.0037 ], [ -3.7055, 41.0043 ] ] ] } },
{ "type": "Feature", "properties": { "municipio": "Navarredonda y San Mamés", "clasificacion": "no-urbanizable-protegido", "calificacion": "sin-asignar", "version": "vigente", "fuente": "SIT-CAM WFS — UsoDelSuelo:VPLA_V_CLASIFICACION (https://idem.comunidad.madrid/geosrvg/ows)", "fecha_dato": "2026-05-12", "ambito": "103", "_raw_CD_SIGLAS": "SNUP", "_raw_DS_CLASIF_GEN": "Suelo No Urbanizable Protegido", "_raw_DS_CLASIF_DET": "Suelo No Urbanizable Especialmente Protegido por su Interés Paisajístico y Naturalístico", "_raw_DS_DOCU": "NORMAS SUBSIDIARIAS", "_raw_DS_LEY": "CM Ley 4/1984, E RD 1346/1976", "_raw_FC_AC": "1986-06-19", "_raw_NM_AREA_M2": 1878613.77257515, "_cam_code": "097" }, "geometry": { "type": "Polygon", "coordinates": [ [ [ -3.7328, 40.9869 ], [ -3.7338, 40.9877 ], [ -3.7338, 40.988 ], [ -3.7331, 40.9884 ], [ -3.733, 40.9891 ], [ -3.7331, 40.9894 ], [ -3.7332, 40.9894 ], [ -3.7331, 40.9897 ], [ -3.7344, 40.9902 ], [ -3.7344, 40.9903 ], [ -3.7358, 40.9896 ], [ -3.7371, 40.9884 ], [ -3.7381, 40.9869 ], [ -3.7382, 40.9869 ], [ -3.7382, 40.9858 ], [ -3.7383, 40.9858 ], [ -3.7383, 40.9856 ], [ -3.7389, 40.9851 ], [ -3.7389, 40.9846 ], [ -3.7387, 40.9842 ], [ -3.7377, 40.983 ], [ -3.7374, 40.9831 ], [ -3.7363, 40.9842 ], [ -3.7361, 40.9842 ], [ -3.7361, 40.9841 ], [ -3.7359, 40.9841 ], [ -3.7357, 40.9839 ], [ -3.7352, 40.9833 ], [ -3.7351, 40.9829 ], [ -3.735, 40.9829 ], [ -3.735, 40.9822 ], [ -3.7351, 40.9822 ], [ -3.7351, 40.982 ], [ -3.7353, 40.9818 ], [ -3.7353, 40.9812 ], [ -3.7352, 40.9809 ], [ -3.7345, 40.9802 ], [ -3.7342, 40.9801 ], [ -3.7332, 40.9802 ], [ -3.7321, 40.9805 ], [ -3.7311, 40.981 ], [ -3.7296, 40.9822 ], [ -3.7288, 40.9833 ], [ -3.7282, 40.9839 ], [ -3.7271, 40.9844 ], [ -3.7267, 40.9848 ], [ -3.7266, 40.9853 ], [ -3.7264, 40.9853 ], [ -3.7264, 40.9849 ], [ -3.7265, 40.9849 ], [ -3.7266, 40.9845 ], [ -3.728, 40.9838 ], [ -3.7286, 40.9832 ], [ -3.7291, 40.9824 ], [ -3.7301, 40.9814 ], [ -3.7316, 40.9805 ], [ -3.7331, 40.98 ], [ -3.7338, 40.9799 ], [ -3.7345, 40.98 ], [ -3.7349, 40.9802 ], [ -3.7354, 40.9808 ], [ -3.7354, 40.981 ], [ -3.7355, 40.981 ], [ -3.7355, 40.982 ], [ -3.7352, 40.9823 ], [ -3.7352, 40.9827 ], [ -3.7354, 40.9832 ], [ -3.736, 40.9839 ], [ -3.7364, 40.9839 ], [ -3.7375, 40.9828 ], [ -3.7388, 40.9819 ], [ -3.7409, 40.9811 ], [ -3.7404, 40.9799 ], [ -3.7402, 40.9797 ], [ -3.7387, 40.9754 ], [ -3.7387, 40.975 ], [ -3.7384, 40.975 ], [ -3.7348, 40.9761 ], [ -3.7316, 40.9774 ], [ -3.7282, 40.9786 ], [ -3.7265, 40.9797 ], [ -3.7251, 40.9793 ], [ -3.7178, 40.9797 ], [ -3.7177, 40.9796 ], [ -3.7147, 40.9792 ], [ -3.713, 40.9799 ], [ -3.7137, 40.9815 ], [ -3.7142, 40.9821 ], [ -3.7148, 40.9825 ], [ -3.7173, 40.9834 ], [ -3.7173, 40.9835 ], [ -3.7183, 40.9837 ], [ -3.7203, 40.9837 ], [ -3.7208, 40.9841 ], [ -3.721, 40.9841 ], [ -3.721, 40.9842 ], [ -3.7228, 40.9845 ], [ -3.7251, 40.9854 ], [ -3.7259, 40.9855 ], [ -3.7255, 40.9859 ], [ -3.7249, 40.9859 ], [ -3.7248, 40.9861 ], [ -3.7246, 40.9861 ], [ -3.7245, 40.9866 ], [ -3.7241, 40.9869 ], [ -3.7239, 40.9873 ], [ -3.7248, 40.9869 ], [ -3.727, 40.9875 ], [ -3.7288, 40.9882 ], [ -3.7287, 40.9885 ], [ -3.7288, 40.9889 ], [ -3.7295, 40.9894 ], [ -3.7304, 40.9889 ], [ -3.7307, 40.9885 ], [ -3.731, 40.9884 ], [ -3.731, 40.9882 ], [ -3.7314, 40.9878 ], [ -3.7322, 40.9872 ], [ -3.7324, 40.9872 ], [ -3.7324, 40.9871 ], [ -3.7328, 40.9869 ] ] ] } },
{ "type": "Feature", "properties": { "municipio": "Navarredonda y San Mamés", "clasificacion": "no-urbanizable-protegido", "calificacion": "sin-asignar", "version": "vigente", "fuente": "SIT-CAM WFS — UsoDelSuelo:VPLA_V_CLASIFICACION (https://idem.comunidad.madrid/geosrvg/ows)", "fecha_dato": "2026-05-12", "ambito": "103", "_raw_CD_SIGLAS": "SNUP", "_raw_DS_CLASIF_GEN": "Suelo No Urbanizable Protegido", "_raw_DS_CLASIF_DET": "Suelo No Urbanizable Especialmente Protegido por su Interés Paisajístico y Naturalístico", "_raw_DS_DOCU": "NORMAS SUBSIDIARIAS", "_raw_DS_LEY": "CM Ley 4/1984, E RD 1346/1976", "_raw_FC_AC": "1986-06-19", "_raw_NM_AREA_M2": 9100.9695608271104, "_cam_code": "097" }, "geometry": { "type": "Polygon", "coordinates": [ [ [ -3.7052, 41.0141 ], [ -3.705, 41.0145 ], [ -3.7049, 41.0157 ], [ -3.7054, 41.0154 ], [ -3.7059, 41.0148 ], [ -3.7058, 41.0143 ], [ -3.7054, 41.014 ], [ -3.7052, 41.0141 ] ] ] } },
{ "type": "Feature", "properties": { "municipio": "Navarredonda y San Mamés", "clasificacion": "no-urbanizable-protegido", "calificacion": "sin-asignar", "version": "vigente", "fuente": "SIT-CAM WFS — UsoDelSuelo:VPLA_V_CLASIFICACION (https://idem.comunidad.madrid/geosrvg/ows)", "fecha_dato": "2026-05-12", "ambito": "103", "_raw_CD_SIGLAS": "SNUP", "_raw_DS_CLASIF_GEN": "Suelo No Urbanizable Protegido", "_raw_DS_CLASIF_DET": "Suelo No Urbanizable Especialmente Protegido por su Interés Paisajístico y Naturalístico", "_raw_DS_DOCU": "NORMAS SUBSIDIARIAS", "_raw_DS_LEY": "CM Ley 4/1984, E RD 1346/1976", "_raw_FC_AC": "1986-06-19", "_raw_NM_AREA_M2": 6633759.2047083499, "_cam_code": "097" }, "geometry": { "type": "Polygon", "coordinates": [ [ [ -3.707, 41.0142 ], [ -3.7064, 41.0148 ], [ -3.7063, 41.0155 ], [ -3.7058, 41.016 ], [ -3.7055, 41.0161 ], [ -3.7052, 41.0176 ], [ -3.7084, 41.0201 ], [ -3.7091, 41.0205 ], [ -3.7109, 41.022 ], [ -3.7113, 41.0242 ], [ -3.7117, 41.0242 ], [ -3.7121, 41.0239 ], [ -3.7123, 41.0221 ], [ -3.7145, 41.0203 ], [ -3.7146, 41.0201 ], [ -3.7163, 41.0194 ], [ -3.7175, 41.0177 ], [ -3.719, 41.0172 ], [ -3.7203, 41.017 ], [ -3.7203, 41.0169 ], [ -3.7205, 41.0169 ], [ -3.7205, 41.0168 ], [ -3.7218, 41.0161 ], [ -3.7226, 41.0158 ], [ -3.7253, 41.0141 ], [ -3.7257, 41.014 ], [ -3.7257, 41.0139 ], [ -3.7287, 41.0131 ], [ -3.7293, 41.0124 ], [ -3.7293, 41.0119 ], [ -3.7306, 41.0106 ], [ -3.7306, 41.0098 ], [ -3.7305, 41.0097 ], [ -3.7306, 41.0086 ], [ -3.7307, 41.0086 ], [ -3.7313, 41.0076 ], [ -3.7317, 41.0072 ], [ -3.7324, 41.0068 ], [ -3.7329, 41.0055 ], [ -3.7339, 41.0044 ], [ -3.7342, 41.0042 ], [ -3.7352, 41.0043 ], [ -3.7358, 41.0049 ], [ -3.7365, 41.0052 ], [ -3.737, 41.0052 ], [ -3.738, 41.0049 ], [ -3.739, 41.0044 ], [ -3.7403, 41.0033 ], [ -3.7413, 41.0027 ], [ -3.7422, 41.0011 ], [ -3.743, 41.0001 ], [ -3.744, 40.9998 ], [ -3.745, 40.9998 ], [ -3.7456, 40.9994 ], [ -3.7456, 40.9992 ], [ -3.7458, 40.999 ], [ -3.7467, 40.9987 ], [ -3.7467, 40.9986 ], [ -3.7494, 40.9984 ], [ -3.7494, 40.9983 ], [ -3.7501, 40.9981 ], [ -3.7507, 40.9975 ], [ -3.7506, 40.9963 ], [ -3.7513, 40.9948 ], [ -3.7513, 40.9943 ], [ -3.7514, 40.9943 ], [ -3.7513, 40.9939 ], [ -3.7504, 40.9931 ], [ -3.7501, 40.9923 ], [ -3.7503, 40.9902 ], [ -3.7497, 40.9899 ], [ -3.7494, 40.9893 ], [ -3.7485, 40.9883 ], [ -3.7468, 40.988 ], [ -3.7459, 40.9873 ], [ -3.744, 40.9849 ], [ -3.7425, 40.9834 ], [ -3.7421, 40.9827 ], [ -3.741, 40.9813 ], [ -3.7396, 40.9817 ], [ -3.7378, 40.9828 ], [ -3.7389, 40.9841 ], [ -3.7391, 40.9847 ], [ -3.7392, 40.9847 ], [ -3.7391, 40.9852 ], [ -3.7384, 40.9859 ], [ -3.7384, 40.987 ], [ -3.7372, 40.9886 ], [ -3.7367, 40.9889 ], [ -3.7357, 40.9899 ], [ -3.7347, 40.9904 ], [ -3.7351, 40.9907 ], [ -3.7345, 40.9909 ], [ -3.735, 40.9913 ], [ -3.7349, 40.9916 ], [ -3.7347, 40.9915 ], [ -3.7323, 40.9915 ], [ -3.7309, 40.9926 ], [ -3.7298, 40.9924 ], [ -3.7294, 40.9925 ], [ -3.7291, 40.9924 ], [ -3.7287, 40.992 ], [ -3.7275, 40.9922 ], [ -3.7273, 40.9929 ], [ -3.728, 40.9941 ], [ -3.7279, 40.995 ], [ -3.7274, 40.9948 ], [ -3.7274, 40.9947 ], [ -3.7267, 40.9946 ], [ -3.7263, 40.9943 ], [ -3.7264, 40.994 ], [ -3.7263, 40.9939 ], [ -3.7248, 40.9931 ], [ -3.7239, 40.993 ], [ -3.7239, 40.9929 ], [ -3.7231, 40.9927 ], [ -3.7232, 40.9925 ], [ -3.7234, 40.9925 ], [ -3.723, 40.9922 ], [ -3.723, 40.9916 ], [ -3.7232, 40.9914 ], [ -3.7231, 40.9912 ], [ -3.7217, 40.9941 ], [ -3.7216, 40.9946 ], [ -3.7218, 40.9964 ], [ -3.7219, 40.9968 ], [ -3.7222, 40.9971 ], [ -3.7216, 40.9976 ], [ -3.7215, 40.998 ], [ -3.7207, 40.9988 ], [ -3.7204, 41.0002 ], [ -3.7201, 41.0003 ], [ -3.7195, 41.0002 ], [ -3.7189, 41.0007 ], [ -3.7177, 41.0006 ], [ -3.7176, 41.0007 ], [ -3.7177, 41.0012 ], [ -3.7168, 41.0011 ], [ -3.7168, 41.0014 ], [ -3.7162, 41.0013 ], [ -3.7159, 41.0014 ], [ -3.7157, 41.0015 ], [ -3.7155, 41.0019 ], [ -3.7151, 41.0018 ], [ -3.7146, 41.0019 ], [ -3.7144, 41.002 ], [ -3.7144, 41.0022 ], [ -3.7149, 41.0026 ], [ -3.7149, 41.0028 ], [ -3.7137, 41.0039 ], [ -3.7126, 41.0044 ], [ -3.7124, 41.0046 ], [ -3.7122, 41.0046 ], [ -3.7122, 41.0047 ], [ -3.7112, 41.0047 ], [ -3.7105, 41.0051 ], [ -3.7105, 41.0061 ], [ -3.7103, 41.0064 ], [ -3.7103, 41.0069 ], [ -3.71, 41.0072 ], [ -3.7098, 41.0072 ], [ -3.7097, 41.0074 ], [ -3.7092, 41.0075 ], [ -3.7092, 41.0079 ], [ -3.7096, 41.0083 ], [ -3.7096, 41.0088 ], [ -3.7097, 41.0089 ], [ -3.7096, 41.0093 ], [ -3.7086, 41.0102 ], [ -3.7082, 41.011 ], [ -3.7061, 41.0126 ], [ -3.7059, 41.0132 ], [ -3.7067, 41.0134 ], [ -3.7078, 41.0134 ], [ -3.7086, 41.0131 ], [ -3.7091, 41.0126 ], [ -3.7096, 41.0126 ], [ -3.7095, 41.0121 ], [ -3.7105, 41.0116 ], [ -3.7105, 41.0111 ], [ -3.7101, 41.0106 ], [ -3.7105, 41.0102 ], [ -3.7107, 41.0092 ], [ -3.7117, 41.0081 ], [ -3.7126, 41.0064 ], [ -3.7141, 41.005 ], [ -3.7143, 41.0044 ], [ -3.715, 41.0038 ], [ -3.7153, 41.0029 ], [ -3.716, 41.0033 ], [ -3.7167, 41.0041 ], [ -3.7166, 41.0046 ], [ -3.7151, 41.0051 ], [ -3.7142, 41.0057 ], [ -3.7126, 41.0077 ], [ -3.7122, 41.0087 ], [ -3.7116, 41.0096 ], [ -3.7114, 41.0108 ], [ -3.7111, 41.0114 ], [ -3.7103, 41.0122 ], [ -3.71, 41.0137 ], [ -3.7097, 41.014 ], [ -3.7088, 41.0141 ], [ -3.7076, 41.014 ], [ -3.707, 41.0142 ] ] ] } },
{ "type": "Feature", "properties": { "municipio": "Navarredonda y San Mamés", "clasificacion": "no-urbanizable-protegido", "calificacion": "sin-asignar", "version": "vigente", "fuente": "SIT-CAM WFS — UsoDelSuelo:VPLA_V_CLASIFICACION (https://idem.comunidad.madrid/geosrvg/ows)", "fecha_dato": "2026-05-12", "ambito": "103", "_raw_CD_SIGLAS": "SNUP", "_raw_DS_CLASIF_GEN": "Suelo No Urbanizable Protegido", "_raw_DS_CLASIF_DET": "Suelo No Urbanizable Especialmente Protegido por su Interés Agropecuario", "_raw_DS_DOCU": "NORMAS SUBSIDIARIAS", "_raw_DS_LEY": "CM Ley 4/1984, E RD 1346/1976", "_raw_FC_AC": "1986-06-19", "_raw_NM_AREA_M2": 232941.29052290699, "_cam_code": "097" }, "geometry": { "type": "Polygon", "coordinates": [ [ [ -3.6994, 40.9995 ], [ -3.6974, 41.0003 ], [ -3.6971, 41.0006 ], [ -3.697, 41.0011 ], [ -3.6967, 41.0014 ], [ -3.6962, 41.0015 ], [ -3.6964, 41.0018 ], [ -3.6964, 41.0022 ], [ -3.6966, 41.0023 ], [ -3.6972, 41.0032 ], [ -3.6973, 41.0038 ], [ -3.6979, 41.0042 ], [ -3.699, 41.006 ], [ -3.6984, 41.009 ], [ -3.7004, 41.0072 ], [ -3.7002, 41.0071 ], [ -3.7001, 41.0067 ], [ -3.7, 41.0067 ], [ -3.7, 41.0063 ], [ -3.7004, 41.0059 ], [ -3.7012, 41.0055 ], [ -3.7016, 41.0055 ], [ -3.7018, 41.0048 ], [ -3.7018, 41.0038 ], [ -3.7017, 41.0038 ], [ -3.7017, 41.0034 ], [ -3.7015, 41.0029 ], [ -3.6996, 41.0001 ], [ -3.6994, 40.9995 ] ] ] } },
{ "type": "Feature", "properties": { "municipio": "Navarredonda y San Mamés", "clasificacion": "no-urbanizable-protegido", "calificacion": "sin-asignar", "version": "vigente", "fuente": "SIT-CAM WFS — UsoDelSuelo:VPLA_V_CLASIFICACION (https://idem.comunidad.madrid/geosrvg/ows)", "fecha_dato": "2026-05-12", "ambito": "103", "_raw_CD_SIGLAS": "SNUP", "_raw_DS_CLASIF_GEN": "Suelo No Urbanizable Protegido", "_raw_DS_CLASIF_DET": "Suelo No Urbanizable Especialmente Protegido por su Interés Agropecuario", "_raw_DS_DOCU": "NORMAS SUBSIDIARIAS", "_raw_DS_LEY": "CM Ley 4/1984, E RD 1346/1976", "_raw_FC_AC": "1986-06-19", "_raw_NM_AREA_M2": 231718.36327072699, "_cam_code": "097" }, "geometry": { "type": "Polygon", "coordinates": [ [ [ -3.7008, 41.0108 ], [ -3.7022, 41.0118 ], [ -3.703, 41.0126 ], [ -3.703, 41.0128 ], [ -3.7032, 41.013 ], [ -3.7044, 41.0132 ], [ -3.7059, 41.0132 ], [ -3.7059, 41.013 ], [ -3.7045, 41.0127 ], [ -3.7044, 41.0123 ], [ -3.7043, 41.0123 ], [ -3.7043, 41.0119 ], [ -3.7046, 41.0109 ], [ -3.7057, 41.0087 ], [ -3.7057, 41.0082 ], [ -3.7051, 41.0078 ], [ -3.7006, 41.0073 ], [ -3.6984, 41.0094 ], [ -3.6989, 41.0098 ], [ -3.7008, 41.0108 ] ] ] } },
{ "type": "Feature", "properties": { "municipio": "Navarredonda y San Mamés", "clasificacion": "no-urbanizable-protegido", "calificacion": "sin-asignar", "version": "vigente", "fuente": "SIT-CAM WFS — UsoDelSuelo:VPLA_V_CLASIFICACION (https://idem.comunidad.madrid/geosrvg/ows)", "fecha_dato": "2026-05-12", "ambito": "103", "_raw_CD_SIGLAS": "SNUP", "_raw_DS_CLASIF_GEN": "Suelo No Urbanizable Protegido", "_raw_DS_CLASIF_DET": "Suelo No Urbanizable Especialmente Protegido por su Interés Agropecuario", "_raw_DS_DOCU": "NORMAS SUBSIDIARIAS", "_raw_DS_LEY": "CM Ley 4/1984, E RD 1346/1976", "_raw_FC_AC": "1986-06-19", "_raw_NM_AREA_M2": 86200.616845587007, "_cam_code": "097" }, "geometry": { "type": "Polygon", "coordinates": [ [ [ -3.7002, 41.0107 ], [ -3.7013, 41.0126 ], [ -3.7025, 41.0154 ], [ -3.7044, 41.0169 ], [ -3.7049, 41.0157 ], [ -3.705, 41.0145 ], [ -3.7053, 41.014 ], [ -3.7048, 41.0138 ], [ -3.7029, 41.0135 ], [ -3.7019, 41.0123 ], [ -3.7017, 41.0119 ], [ -3.7005, 41.0111 ], [ -3.7002, 41.0107 ] ] ] } },
{ "type": "Feature", "properties": { "municipio": "Navarredonda y San Mamés", "clasificacion": "no-urbanizable-protegido", "calificacion": "sin-asignar", "version": "vigente", "fuente": "SIT-CAM WFS — UsoDelSuelo:VPLA_V_CLASIFICACION (https://idem.comunidad.madrid/geosrvg/ows)", "fecha_dato": "2026-05-12", "ambito": "103", "_raw_CD_SIGLAS": "SNUP", "_raw_DS_CLASIF_GEN": "Suelo No Urbanizable Protegido", "_raw_DS_CLASIF_DET": "Suelo No Urbanizable Especialmente Protegido por su Interés Agropecuario y Paisajístico", "_raw_DS_DOCU": "NORMAS SUBSIDIARIAS", "_raw_DS_LEY": "CM Ley 4/1984, E RD 1346/1976", "_raw_FC_AC": "1986-06-19", "_raw_NM_AREA_M2": 240657.751321761, "_cam_code": "097" }, "geometry": { "type": "Polygon", "coordinates": [ [ [ -3.7277, 40.9908 ], [ -3.7277, 40.9909 ], [ -3.7322, 40.9911 ], [ -3.7322, 40.991 ], [ -3.7344, 40.9903 ], [ -3.7344, 40.9902 ], [ -3.7331, 40.9897 ], [ -3.7331, 40.9895 ], [ -3.7332, 40.9895 ], [ -3.733, 40.9891 ], [ -3.7331, 40.9884 ], [ -3.7338, 40.988 ], [ -3.7338, 40.9877 ], [ -3.7334, 40.9875 ], [ -3.7328, 40.9869 ], [ -3.7314, 40.9878 ], [ -3.731, 40.9882 ], [ -3.731, 40.9884 ], [ -3.7307, 40.9885 ], [ -3.7304, 40.9889 ], [ -3.7295, 40.9894 ], [ -3.7288, 40.9889 ], [ -3.7287, 40.9885 ], [ -3.7288, 40.9882 ], [ -3.727, 40.9875 ], [ -3.7248, 40.9869 ], [ -3.7239, 40.9873 ], [ -3.7234, 40.9886 ], [ -3.7233, 40.9891 ], [ -3.7234, 40.9898 ], [ -3.7229, 40.9905 ], [ -3.7231, 40.9906 ], [ -3.7245, 40.9906 ], [ -3.7247, 40.9903 ], [ -3.7249, 40.9903 ], [ -3.7248, 40.9902 ], [ -3.7249, 40.9895 ], [ -3.7251, 40.9894 ], [ -3.7256, 40.9895 ], [ -3.7256, 40.9892 ], [ -3.7255, 40.9892 ], [ -3.7258, 40.9889 ], [ -3.7259, 40.989 ], [ -3.7264, 40.9889 ], [ -3.7268, 40.989 ], [ -3.7267, 40.9893 ], [ -3.7269, 40.9895 ], [ -3.7273, 40.9896 ], [ -3.7273, 40.9893 ], [ -3.7279, 40.9893 ], [ -3.7284, 40.9898 ], [ -3.7284, 40.99 ], [ -3.7286, 40.9902 ], [ -3.7282, 40.9904 ], [ -3.7279, 40.9904 ], [ -3.7278, 40.9905 ], [ -3.7279, 40.9908 ], [ -3.7277, 40.9908 ] ] ] } },
{ "type": "Feature", "properties": { "municipio": "Navarredonda y San Mamés", "clasificacion": "no-urbanizable-protegido", "calificacion": "sin-asignar", "version": "vigente", "fuente": "SIT-CAM WFS — UsoDelSuelo:VPLA_V_CLASIFICACION (https://idem.comunidad.madrid/geosrvg/ows)", "fecha_dato": "2026-05-12", "ambito": "103", "_raw_CD_SIGLAS": "SNUP", "_raw_DS_CLASIF_GEN": "Suelo No Urbanizable Protegido", "_raw_DS_CLASIF_DET": "Suelo No Urbanizable Especialmente Protegido por su Interés Agropecuario y Paisajístico", "_raw_DS_DOCU": "NORMAS SUBSIDIARIAS", "_raw_DS_LEY": "CM Ley 4/1984, E RD 1346/1976", "_raw_FC_AC": "1986-06-19", "_raw_NM_AREA_M2": 164081.77539176101, "_cam_code": "097" }, "geometry": { "type": "Polygon", "coordinates": [ [ [ -3.723, 40.9921 ], [ -3.7234, 40.9925 ], [ -3.7232, 40.9925 ], [ -3.7231, 40.9927 ], [ -3.7239, 40.9929 ], [ -3.7239, 40.993 ], [ -3.7248, 40.9931 ], [ -3.7263, 40.9939 ], [ -3.7264, 40.994 ], [ -3.7263, 40.9943 ], [ -3.7267, 40.9946 ], [ -3.7274, 40.9947 ], [ -3.7274, 40.9948 ], [ -3.7279, 40.995 ], [ -3.728, 40.9941 ], [ -3.7273, 40.9929 ], [ -3.7275, 40.9922 ], [ -3.7287, 40.992 ], [ -3.7291, 40.9924 ], [ -3.7294, 40.9925 ], [ -3.7298, 40.9924 ], [ -3.7309, 40.9926 ], [ -3.7323, 40.9915 ], [ -3.7347, 40.9915 ], [ -3.7349, 40.9916 ], [ -3.735, 40.9913 ], [ -3.7345, 40.9909 ], [ -3.7351, 40.9907 ], [ -3.7347, 40.9904 ], [ -3.7321, 40.9913 ], [ -3.7276, 40.991 ], [ -3.7277, 40.9911 ], [ -3.7276, 40.9912 ], [ -3.7277, 40.9916 ], [ -3.7273, 40.9916 ], [ -3.7273, 40.9919 ], [ -3.7268, 40.9919 ], [ -3.7268, 40.9918 ], [ -3.7261, 40.9917 ], [ -3.7256, 40.9913 ], [ -3.7248, 40.9913 ], [ -3.7248, 40.9912 ], [ -3.724, 40.9911 ], [ -3.7242, 40.9909 ], [ -3.724, 40.9908 ], [ -3.7231, 40.9908 ], [ -3.7231, 40.9907 ], [ -3.7229, 40.9907 ], [ -3.7229, 40.9911 ], [ -3.7232, 40.9913 ], [ -3.723, 40.9916 ], [ -3.723, 40.9921 ] ] ] } },
{ "type": "Feature", "properties": { "municipio": "Navarredonda y San Mamés", "clasificacion": "no-urbanizable-protegido", "calificacion": "sin-asignar", "version": "vigente", "fuente": "SIT-CAM WFS — UsoDelSuelo:VPLA_V_CLASIFICACION (https://idem.comunidad.madrid/geosrvg/ows)", "fecha_dato": "2026-05-12", "ambito": "103", "_raw_CD_SIGLAS": "SNUP", "_raw_DS_CLASIF_GEN": "Suelo No Urbanizable Protegido", "_raw_DS_CLASIF_DET": "Suelo No Urbanizable Especialmente Protegido por su Interés Forestal, Paisajístico y Naturalístico", "_raw_DS_DOCU": "NORMAS SUBSIDIARIAS", "_raw_DS_LEY": "CM Ley 4/1984, E RD 1346/1976", "_raw_FC_AC": "1986-06-19", "_raw_NM_AREA_M2": 12163645.9559163, "_cam_code": "097" }, "geometry": { "type": "Polygon", "coordinates": [ [ [ -3.7312, 41.0308 ], [ -3.7486, 41.0361 ], [ -3.7508, 41.0335 ], [ -3.7511, 41.0333 ], [ -3.7555, 41.0279 ], [ -3.759, 41.0271 ], [ -3.7649, 41.0216 ], [ -3.7659, 41.0208 ], [ -3.7667, 41.0195 ], [ -3.7669, 41.0189 ], [ -3.7673, 41.016 ], [ -3.77, 41.0137 ], [ -3.7711, 41.0123 ], [ -3.7706, 41.012 ], [ -3.7693, 41.01 ], [ -3.7677, 41.0084 ], [ -3.7645, 41.0066 ], [ -3.762, 41.0057 ], [ -3.7617, 41.0057 ], [ -3.761, 41.005 ], [ -3.76, 41.0039 ], [ -3.7597, 41.0031 ], [ -3.7588, 41.0016 ], [ -3.7584, 41.001 ], [ -3.7581, 41.0008 ], [ -3.7574, 40.9991 ], [ -3.757, 40.9976 ], [ -3.7559, 40.9951 ], [ -3.7555, 40.9938 ], [ -3.7545, 40.9929 ], [ -3.7532, 40.992 ], [ -3.7522, 40.9917 ], [ -3.752, 40.9914 ], [ -3.7504, 40.9902 ], [ -3.7503, 40.9902 ], [ -3.7501, 40.9923 ], [ -3.7504, 40.9931 ], [ -3.7513, 40.9939 ], [ -3.7514, 40.9943 ], [ -3.7513, 40.9943 ], [ -3.7513, 40.9948 ], [ -3.7506, 40.9963 ], [ -3.7507, 40.9975 ], [ -3.7501, 40.9981 ], [ -3.7494, 40.9983 ], [ -3.7494, 40.9984 ], [ -3.7467, 40.9986 ], [ -3.7467, 40.9987 ], [ -3.7458, 40.999 ], [ -3.7456, 40.9992 ], [ -3.7456, 40.9994 ], [ -3.745, 40.9998 ], [ -3.744, 40.9998 ], [ -3.743, 41.0001 ], [ -3.7422, 41.0011 ], [ -3.7413, 41.0027 ], [ -3.7403, 41.0033 ], [ -3.739, 41.0044 ], [ -3.738, 41.0049 ], [ -3.737, 41.0052 ], [ -3.7365, 41.0052 ], [ -3.7358, 41.0049 ], [ -3.7352, 41.0043 ], [ -3.7342, 41.0042 ], [ -3.7339, 41.0044 ], [ -3.7329, 41.0055 ], [ -3.7324, 41.0068 ], [ -3.7317, 41.0072 ], [ -3.7313, 41.0076 ], [ -3.7307, 41.0086 ], [ -3.7306, 41.0086 ], [ -3.7305, 41.0091 ], [ -3.7306, 41.0106 ], [ -3.7293, 41.0119 ], [ -3.7293, 41.0124 ], [ -3.7287, 41.0131 ], [ -3.7257, 41.0139 ], [ -3.7257, 41.014 ], [ -3.7253, 41.0141 ], [ -3.7226, 41.0158 ], [ -3.7218, 41.0161 ], [ -3.7205, 41.0168 ], [ -3.7205, 41.0169 ], [ -3.7203, 41.0169 ], [ -3.7203, 41.017 ], [ -3.719, 41.0172 ], [ -3.7175, 41.0177 ], [ -3.7163, 41.0194 ], [ -3.7146, 41.0201 ], [ -3.7145, 41.0203 ], [ -3.7123, 41.0221 ], [ -3.7121, 41.0239 ], [ -3.7117, 41.0242 ], [ -3.7113, 41.0242 ], [ -3.7119, 41.0267 ], [ -3.7312, 41.0308 ] ] ] } },
{ "type": "Feature", "properties": { "municipio": "Navarredonda y San Mamés", "clasificacion": "no-urbanizable-protegido", "calificacion": "sin-asignar", "version": "vigente", "fuente": "SIT-CAM WFS — UsoDelSuelo:VPLA_V_CLASIFICACION (https://idem.comunidad.madrid/geosrvg/ows)", "fecha_dato": "2026-05-12", "ambito": "103", "_raw_CD_SIGLAS": "SNUP", "_raw_DS_CLASIF_GEN": "Suelo No Urbanizable Protegido", "_raw_DS_CLASIF_DET": "Suelo No Urbanizable Especialmente Protegido por su Interés Naturalístico", "_raw_DS_DOCU": "NORMAS SUBSIDIARIAS", "_raw_DS_LEY": "CM Ley 4/1984, E RD 1346/1976", "_raw_FC_AC": "1986-06-19", "_raw_NM_AREA_M2": 292109.861302262, "_cam_code": "097" }, "geometry": { "type": "Polygon", "coordinates": [ [ [ -3.718, 40.9854 ], [ -3.7189, 40.9866 ], [ -3.7195, 40.9868 ], [ -3.7198, 40.9872 ], [ -3.7211, 40.9879 ], [ -3.7217, 40.9886 ], [ -3.7219, 40.9886 ], [ -3.7222, 40.9885 ], [ -3.7226, 40.988 ], [ -3.7231, 40.9878 ], [ -3.7234, 40.9875 ], [ -3.7238, 40.9874 ], [ -3.7241, 40.9869 ], [ -3.7245, 40.9866 ], [ -3.7246, 40.9861 ], [ -3.7248, 40.9861 ], [ -3.7249, 40.9859 ], [ -3.7255, 40.9859 ], [ -3.7259, 40.9855 ], [ -3.7251, 40.9854 ], [ -3.7228, 40.9845 ], [ -3.721, 40.9842 ], [ -3.721, 40.9841 ], [ -3.7208, 40.9841 ], [ -3.7203, 40.9837 ], [ -3.7183, 40.9837 ], [ -3.7173, 40.9835 ], [ -3.7173, 40.9834 ], [ -3.7148, 40.9825 ], [ -3.7142, 40.9821 ], [ -3.7137, 40.9815 ], [ -3.713, 40.9799 ], [ -3.7117, 40.9805 ], [ -3.7129, 40.9823 ], [ -3.7136, 40.9831 ], [ -3.7149, 40.984 ], [ -3.718, 40.9854 ] ] ] } },
{ "type": "Feature", "properties": { "municipio": "Navarredonda y San Mamés", "clasificacion": "no-urbanizable-protegido", "calificacion": "sin-asignar", "version": "vigente", "fuente": "SIT-CAM WFS — UsoDelSuelo:VPLA_V_CLASIFICACION (https://idem.comunidad.madrid/geosrvg/ows)", "fecha_dato": "2026-05-12", "ambito": "103", "_raw_CD_SIGLAS": "SNUP", "_raw_DS_CLASIF_GEN": "Suelo No Urbanizable Protegido", "_raw_DS_CLASIF_DET": "Suelo No Urbanizable Especialmente Protegido por su Interés Agropecuario. Actuación Urbanística Ilegal Catalogada", "_raw_DS_DOCU": "NORMAS SUBSIDIARIAS", "_raw_DS_LEY": "CM Ley 4/1984, E RD 1346/1976", "_raw_FC_AC": "1986-06-19", "_raw_NM_AREA_M2": 69549.626712807105, "_cam_code": "097" }, "geometry": { "type": "Polygon", "coordinates": [ [ [ -3.6944, 41.0001 ], [ -3.6951, 41.0005 ], [ -3.6957, 40.9997 ], [ -3.6956, 40.9983 ], [ -3.6952, 40.9975 ], [ -3.6953, 40.997 ], [ -3.6948, 40.9963 ], [ -3.6946, 40.9963 ], [ -3.6945, 40.9961 ], [ -3.6943, 40.9961 ], [ -3.693, 40.9971 ], [ -3.6934, 40.9973 ], [ -3.6936, 40.9976 ], [ -3.6932, 40.9981 ], [ -3.6932, 40.9983 ], [ -3.6941, 40.9995 ], [ -3.6924, 40.9999 ], [ -3.6927, 41.0003 ], [ -3.694, 40.9997 ], [ -3.6944, 41.0001 ] ] ] } },
{ "type": "Feature", "properties": { "municipio": "Navarredonda y San Mamés", "clasificacion": "no-urbanizable-protegido", "calificacion": "sin-asignar", "version": "vigente", "fuente": "SIT-CAM WFS — UsoDelSuelo:VPLA_V_CLASIFICACION (https://idem.comunidad.madrid/geosrvg/ows)", "fecha_dato": "2026-05-12", "ambito": "103", "_raw_CD_SIGLAS": "SNUP", "_raw_DS_CLASIF_GEN": "Suelo No Urbanizable Protegido", "_raw_DS_CLASIF_DET": "Suelo No Urbanizable Especialmente Protegido por su Interés Agropecuario", "_raw_DS_DOCU": "NORMAS SUBSIDIARIAS", "_raw_DS_LEY": "CM Ley 4/1984, E RD 1346/1976", "_raw_FC_AC": "1986-06-19", "_raw_NM_AREA_M2": 9672.5918574784391, "_cam_code": "097" }, "geometry": { "type": "Polygon", "coordinates": [ [ [ -3.6957, 41.0002 ], [ -3.6953, 41.0006 ], [ -3.6961, 41.0011 ], [ -3.6962, 41.0013 ], [ -3.6966, 41.0012 ], [ -3.6968, 41.001 ], [ -3.697, 41.0004 ], [ -3.6964, 41.0004 ], [ -3.696, 41.0002 ], [ -3.6957, 41.0002 ] ] ] } },
{ "type": "Feature", "properties": { "municipio": "Navarredonda y San Mamés", "clasificacion": "no-urbanizable-protegido", "calificacion": "sin-asignar", "version": "vigente", "fuente": "SIT-CAM WFS — UsoDelSuelo:VPLA_V_CLASIFICACION (https://idem.comunidad.madrid/geosrvg/ows)", "fecha_dato": "2026-05-12", "ambito": "103", "_raw_CD_SIGLAS": "SNUP", "_raw_DS_CLASIF_GEN": "Suelo No Urbanizable Protegido", "_raw_DS_CLASIF_DET": "Suelo No Urbanizable Especialmente Protegido por su Interés Agropecuario. Actuación Urbanística Ilegal Catalogada", "_raw_DS_DOCU": "NORMAS SUBSIDIARIAS", "_raw_DS_LEY": "CM Ley 4/1984, E RD 1346/1976", "_raw_FC_AC": "1986-06-19", "_raw_NM_AREA_M2": 19287.1556081487, "_cam_code": "097" }, "geometry": { "type": "Polygon", "coordinates": [ [ [ -3.6957, 41.0002 ], [ -3.696, 41.0002 ], [ -3.6964, 41.0004 ], [ -3.697, 41.0004 ], [ -3.6971, 41.0002 ], [ -3.6976, 41.0 ], [ -3.6974, 40.9994 ], [ -3.6971, 40.999 ], [ -3.6965, 40.9988 ], [ -3.6959, 40.9991 ], [ -3.696, 40.9999 ], [ -3.6957, 41.0002 ] ] ] } },
{ "type": "Feature", "properties": { "municipio": "Navarredonda y San Mamés", "clasificacion": "no-urbanizable-protegido", "calificacion": "sin-asignar", "version": "vigente", "fuente": "SIT-CAM WFS — UsoDelSuelo:VPLA_V_CLASIFICACION (https://idem.comunidad.madrid/geosrvg/ows)", "fecha_dato": "2026-05-12", "ambito": "103", "_raw_CD_SIGLAS": "SNUP", "_raw_DS_CLASIF_GEN": "Suelo No Urbanizable Protegido", "_raw_DS_CLASIF_DET": "Suelo No Urbanizable Especialmente Protegido por su Interés Agropecuario. Actuación Urbanística Ilegal Catalogada", "_raw_DS_DOCU": "NORMAS SUBSIDIARIAS", "_raw_DS_LEY": "CM Ley 4/1984, E RD 1346/1976", "_raw_FC_AC": "1986-06-19", "_raw_NM_AREA_M2": 111797.335168326, "_cam_code": "097" }, "geometry": { "type": "Polygon", "coordinates": [ [ [ -3.6826, 40.9926 ], [ -3.6852, 40.994 ], [ -3.6859, 40.9932 ], [ -3.6865, 40.9931 ], [ -3.6872, 40.9928 ], [ -3.6874, 40.9925 ], [ -3.6885, 40.9925 ], [ -3.6889, 40.9934 ], [ -3.6893, 40.9935 ], [ -3.6894, 40.9937 ], [ -3.69, 40.9935 ], [ -3.6894, 40.9923 ], [ -3.6906, 40.9919 ], [ -3.6891, 40.9916 ], [ -3.6867, 40.9916 ], [ -3.6863, 40.9914 ], [ -3.6809, 40.9919 ], [ -3.6826, 40.9926 ] ] ] } },
{ "type": "Feature", "properties": { "municipio": "Navarredonda y San Mamés", "clasificacion": "no-urbanizable-protegido", "calificacion": "sin-asignar", "version": "vigente", "fuente": "SIT-CAM WFS — UsoDelSuelo:VPLA_V_CLASIFICACION (https://idem.comunidad.madrid/geosrvg/ows)", "fecha_dato": "2026-05-12", "ambito": "103", "_raw_CD_SIGLAS": "SNUP", "_raw_DS_CLASIF_GEN": "Suelo No Urbanizable Protegido", "_raw_DS_CLASIF_DET": "Suelo No Urbanizable Especialmente Protegido por su Interés Naturalístico", "_raw_DS_DOCU": "NORMAS SUBSIDIARIAS", "_raw_DS_LEY": "CM Ley 4/1984, E RD 1346/1976", "_raw_FC_AC": "1986-06-19", "_raw_NM_AREA_M2": 12200.394953041599, "_cam_code": "097" }, "geometry": { "type": "Polygon", "coordinates": [ [ [ -3.7054, 40.9849 ], [ -3.7059, 40.9856 ], [ -3.7064, 40.9869 ], [ -3.7065, 40.9876 ], [ -3.7064, 40.9888 ], [ -3.7073, 40.9889 ], [ -3.7065, 40.987 ], [ -3.7064, 40.986 ], [ -3.7063, 40.986 ], [ -3.7063, 40.9858 ], [ -3.7062, 40.9858 ], [ -3.7057, 40.9849 ], [ -3.7054, 40.9849 ] ] ] } },
{ "type": "Feature", "properties": { "municipio": "Navarredonda y San Mamés", "clasificacion": "no-urbanizable-protegido", "calificacion": "sin-asignar", "version": "vigente", "fuente": "SIT-CAM WFS — UsoDelSuelo:VPLA_V_CLASIFICACION (https://idem.comunidad.madrid/geosrvg/ows)", "fecha_dato": "2026-05-12", "ambito": "103", "_raw_CD_SIGLAS": "SNUP", "_raw_DS_CLASIF_GEN": "Suelo No Urbanizable Protegido", "_raw_DS_CLASIF_DET": "Suelo No Urbanizable Especialmente Protegido por su Interés Naturalístico", "_raw_DS_DOCU": "NORMAS SUBSIDIARIAS", "_raw_DS_LEY": "CM Ley 4/1984, E RD 1346/1976", "_raw_FC_AC": "1986-06-19", "_raw_NM_AREA_M2": 747392.970838001, "_cam_code": "097" }, "geometry": { "type": "Polygon", "coordinates": [ [ [ -3.7098, 40.9917 ], [ -3.7101, 40.9918 ], [ -3.711, 40.9914 ], [ -3.7119, 40.9914 ], [ -3.7125, 40.9916 ], [ -3.7142, 40.9916 ], [ -3.7142, 40.9915 ], [ -3.7148, 40.9913 ], [ -3.7163, 40.9904 ], [ -3.7175, 40.9901 ], [ -3.7181, 40.9897 ], [ -3.7185, 40.9896 ], [ -3.7185, 40.9895 ], [ -3.7193, 40.9894 ], [ -3.7181, 40.9881 ], [ -3.7195, 40.9874 ], [ -3.7184, 40.9864 ], [ -3.7181, 40.9858 ], [ -3.7178, 40.9855 ], [ -3.7152, 40.9844 ], [ -3.7139, 40.9836 ], [ -3.7131, 40.9829 ], [ -3.7114, 40.9806 ], [ -3.7102, 40.9831 ], [ -3.7052, 40.9847 ], [ -3.7059, 40.9848 ], [ -3.7064, 40.9857 ], [ -3.7065, 40.9857 ], [ -3.7067, 40.9862 ], [ -3.7068, 40.9872 ], [ -3.7075, 40.9888 ], [ -3.7085, 40.9888 ], [ -3.7095, 40.9891 ], [ -3.7104, 40.9892 ], [ -3.7123, 40.9892 ], [ -3.7123, 40.9896 ], [ -3.7121, 40.9898 ], [ -3.7121, 40.99 ], [ -3.7123, 40.9901 ], [ -3.7122, 40.9903 ], [ -3.711, 40.9903 ], [ -3.7085, 40.991 ], [ -3.709, 40.9913 ], [ -3.7093, 40.9913 ], [ -3.7095, 40.9917 ], [ -3.7097, 40.9915 ], [ -3.7098, 40.9917 ] ] ] } },
{ "type": "Feature", "properties": { "municipio": "Navarredonda y San Mamés", "clasificacion": "no-urbanizable-protegido", "calificacion": "sin-asignar", "version": "vigente", "fuente": "SIT-CAM WFS — UsoDelSuelo:VPLA_V_CLASIFICACION (https://idem.comunidad.madrid/geosrvg/ows)", "fecha_dato": "2026-05-12", "ambito": "103", "_raw_CD_SIGLAS": "SNUP", "_raw_DS_CLASIF_GEN": "Suelo No Urbanizable Protegido", "_raw_DS_CLASIF_DET": null, "_raw_DS_DOCU": "NORMAS SUBSIDIARIAS", "_raw_DS_LEY": "CM Ley 4/1984, E RD 1346/1976", "_raw_FC_AC": "1986-06-19", "_raw_NM_AREA_M2": 78852.970252429906, "_cam_code": "097" }, "geometry": { "type": "Polygon", "coordinates": [ [ [ -3.6969, 41.0083 ], [ -3.6982, 41.0093 ], [ -3.6984, 41.009 ], [ -3.699, 41.006 ], [ -3.6979, 41.0042 ], [ -3.6973, 41.0038 ], [ -3.6972, 41.0032 ], [ -3.6966, 41.0023 ], [ -3.6964, 41.0022 ], [ -3.6964, 41.0018 ], [ -3.6962, 41.0015 ], [ -3.6961, 41.0015 ], [ -3.6963, 41.0019 ], [ -3.6962, 41.0021 ], [ -3.6969, 41.003 ], [ -3.6973, 41.004 ], [ -3.698, 41.0044 ], [ -3.6984, 41.0052 ], [ -3.6974, 41.0059 ], [ -3.6969, 41.0061 ], [ -3.6962, 41.0061 ], [ -3.6938, 41.0048 ], [ -3.6913, 41.0039 ], [ -3.692, 41.0045 ], [ -3.6926, 41.0047 ], [ -3.6951, 41.0063 ], [ -3.6969, 41.0083 ] ], [ [ -3.6983, 41.0063 ], [ -3.6982, 41.0073 ], [ -3.6979, 41.0086 ], [ -3.6969, 41.0076 ], [ -3.6964, 41.0066 ], [ -3.6975, 41.0064 ], [ -3.6982, 41.006 ], [ -3.6983, 41.0063 ] ] ] } },
{ "type": "Feature", "properties": { "municipio": "Navarredonda y San Mamés", "clasificacion": "no-urbanizable-protegido", "calificacion": "sin-asignar", "version": "vigente", "fuente": "SIT-CAM WFS — UsoDelSuelo:VPLA_V_CLASIFICACION (https://idem.comunidad.madrid/geosrvg/ows)", "fecha_dato": "2026-05-12", "ambito": "103", "_raw_CD_SIGLAS": "SNUP", "_raw_DS_CLASIF_GEN": "Suelo No Urbanizable Protegido", "_raw_DS_CLASIF_DET": null, "_raw_DS_DOCU": "NORMAS SUBSIDIARIAS", "_raw_DS_LEY": "CM Ley 4/1984, E RD 1346/1976", "_raw_FC_AC": "1986-06-19", "_raw_NM_AREA_M2": 193053.51501572999, "_cam_code": "097" }, "geometry": { "type": "Polygon", "coordinates": [ [ [ -3.7054, 41.014 ], [ -3.7059, 41.0144 ], [ -3.7059, 41.0148 ], [ -3.7054, 41.0154 ], [ -3.7049, 41.0157 ], [ -3.7044, 41.0169 ], [ -3.7052, 41.0176 ], [ -3.7054, 41.0163 ], [ -3.7056, 41.016 ], [ -3.7058, 41.016 ], [ -3.7063, 41.0155 ], [ -3.7064, 41.0148 ], [ -3.7067, 41.0144 ], [ -3.7076, 41.014 ], [ -3.7088, 41.0141 ], [ -3.7097, 41.014 ], [ -3.71, 41.0137 ], [ -3.7103, 41.0122 ], [ -3.7111, 41.0114 ], [ -3.7114, 41.0108 ], [ -3.7116, 41.0096 ], [ -3.7122, 41.0087 ], [ -3.7126, 41.0077 ], [ -3.7142, 41.0057 ], [ -3.7147, 41.0053 ], [ -3.7166, 41.0046 ], [ -3.7167, 41.0045 ], [ -3.7166, 41.0039 ], [ -3.716, 41.0033 ], [ -3.7153, 41.0029 ], [ -3.715, 41.0038 ], [ -3.7143, 41.0044 ], [ -3.7141, 41.005 ], [ -3.7126, 41.0064 ], [ -3.7117, 41.0081 ], [ -3.7107, 41.0092 ], [ -3.7105, 41.0102 ], [ -3.7101, 41.0106 ], [ -3.7105, 41.0111 ], [ -3.7105, 41.0116 ], [ -3.7095, 41.0121 ], [ -3.7096, 41.0126 ], [ -3.7091, 41.0126 ], [ -3.7086, 41.0131 ], [ -3.7081, 41.0133 ], [ -3.7067, 41.0134 ], [ -3.7059, 41.0132 ], [ -3.7044, 41.0132 ], [ -3.7032, 41.013 ], [ -3.703, 41.0128 ], [ -3.703, 41.0126 ], [ -3.7022, 41.0118 ], [ -3.7008, 41.0108 ], [ -3.6989, 41.0098 ], [ -3.7002, 41.0107 ], [ -3.7005, 41.0111 ], [ -3.7015, 41.0117 ], [ -3.7029, 41.0135 ], [ -3.7054, 41.014 ] ] ] } },
{ "type": "Feature", "properties": { "municipio": "Navarredonda y San Mamés", "clasificacion": "no-urbanizable-protegido", "calificacion": "sin-asignar", "version": "vigente", "fuente": "SIT-CAM WFS — UsoDelSuelo:VPLA_V_CLASIFICACION (https://idem.comunidad.madrid/geosrvg/ows)", "fecha_dato": "2026-05-12", "ambito": "103", "_raw_CD_SIGLAS": "SNUP", "_raw_DS_CLASIF_GEN": "Suelo No Urbanizable Protegido", "_raw_DS_CLASIF_DET": "Suelo No Urbanizable Especialmente Protegido por su Interés Agropecuario", "_raw_DS_DOCU": "NORMAS SUBSIDIARIAS", "_raw_DS_LEY": "CM Ley 4/1984, E RD 1346/1976", "_raw_FC_AC": "1986-06-19", "_raw_NM_AREA_M2": 25070.954802587501, "_cam_code": "097" }, "geometry": { "type": "Polygon", "coordinates": [ [ [ -3.7228, 40.9912 ], [ -3.7231, 40.9912 ], [ -3.7229, 40.9911 ], [ -3.7229, 40.9907 ], [ -3.7226, 40.9906 ], [ -3.7221, 40.9901 ], [ -3.7213, 40.99 ], [ -3.7204, 40.9897 ], [ -3.7201, 40.9894 ], [ -3.72, 40.9898 ], [ -3.7201, 40.9903 ], [ -3.7205, 40.9903 ], [ -3.7207, 40.9905 ], [ -3.7208, 40.991 ], [ -3.721, 40.9912 ], [ -3.7228, 40.9912 ] ] ] } },
{ "type": "Feature", "properties": { "municipio": "Navarredonda y San Mamés", "clasificacion": "no-urbanizable-protegido", "calificacion": "sin-asignar", "version": "vigente", "fuente": "SIT-CAM WFS — UsoDelSuelo:VPLA_V_CLASIFICACION (https://idem.comunidad.madrid/geosrvg/ows)", "fecha_dato": "2026-05-12", "ambito": "103", "_raw_CD_SIGLAS": "SNUP", "_raw_DS_CLASIF_GEN": "Suelo No Urbanizable Protegido", "_raw_DS_CLASIF_DET": "Suelo No Urbanizable Especialmente Protegido por su Interés Agropecuario", "_raw_DS_DOCU": "NORMAS SUBSIDIARIAS", "_raw_DS_LEY": "CM Ley 4/1984, E RD 1346/1976", "_raw_FC_AC": "1986-06-19", "_raw_NM_AREA_M2": 113631.157151729, "_cam_code": "097" }, "geometry": { "type": "Polygon", "coordinates": [ [ [ -3.7041, 40.9935 ], [ -3.7043, 40.9937 ], [ -3.7039, 40.9941 ], [ -3.7036, 40.9941 ], [ -3.7039, 40.9949 ], [ -3.704, 40.9949 ], [ -3.7037, 40.995 ], [ -3.7036, 40.9953 ], [ -3.7038, 40.9955 ], [ -3.7038, 40.9958 ], [ -3.7046, 40.9965 ], [ -3.7046, 40.9965 ], [ -3.7046, 40.9965 ], [ -3.7046, 40.9966 ], [ -3.7046, 40.9967 ], [ -3.7052, 40.996 ], [ -3.7059, 40.9956 ], [ -3.7065, 40.9949 ], [ -3.7071, 40.9948 ], [ -3.708, 40.9937 ], [ -3.7077, 40.9936 ], [ -3.7073, 40.9932 ], [ -3.7074, 40.9927 ], [ -3.7075, 40.9927 ], [ -3.7074, 40.9925 ], [ -3.7073, 40.9924 ], [ -3.7072, 40.9925 ], [ -3.7063, 40.9917 ], [ -3.7052, 40.9918 ], [ -3.7049, 40.9921 ], [ -3.7046, 40.9921 ], [ -3.7048, 40.9924 ], [ -3.7045, 40.9931 ], [ -3.7041, 40.9935 ] ] ] } },
{ "type": "Feature", "properties": { "municipio": "Navarredonda y San Mamés", "clasificacion": "no-urbanizable-protegido", "calificacion": "sin-asignar", "version": "vigente", "fuente": "SIT-CAM WFS — UsoDelSuelo:VPLA_V_CLASIFICACION (https://idem.comunidad.madrid/geosrvg/ows)", "fecha_dato": "2026-05-12", "ambito": "103", "_raw_CD_SIGLAS": "SNUP", "_raw_DS_CLASIF_GEN": "Suelo No Urbanizable Protegido", "_raw_DS_CLASIF_DET": "Suelo No Urbanizable Especialmente Protegido por su Interés Agropecuario", "_raw_DS_DOCU": "NORMAS SUBSIDIARIAS", "_raw_DS_LEY": "CM Ley 4/1984, E RD 1346/1976", "_raw_FC_AC": "1986-06-19", "_raw_NM_AREA_M2": 2949.4252212874098, "_cam_code": "097" }, "geometry": { "type": "Polygon", "coordinates": [ [ [ -3.6994, 40.9982 ], [ -3.6995, 40.9992 ], [ -3.6996, 40.9993 ], [ -3.7001, 40.9992 ], [ -3.6994, 40.9982 ] ] ] } },
{ "type": "Feature", "properties": { "municipio": "Navarredonda y San Mamés", "clasificacion": "no-urbanizable-protegido", "calificacion": "sin-asignar", "version": "vigente", "fuente": "SIT-CAM WFS — UsoDelSuelo:VPLA_V_CLASIFICACION (https://idem.comunidad.madrid/geosrvg/ows)", "fecha_dato": "2026-05-12", "ambito": "103", "_raw_CD_SIGLAS": "SNUP", "_raw_DS_CLASIF_GEN": "Suelo No Urbanizable Protegido", "_raw_DS_CLASIF_DET": "Suelo No Urbanizable Especialmente Protegido por su Interés Agropecuario", "_raw_DS_DOCU": "NORMAS SUBSIDIARIAS", "_raw_DS_LEY": "CM Ley 4/1984, E RD 1346/1976", "_raw_FC_AC": "1986-06-19", "_raw_NM_AREA_M2": 113093.573010533, "_cam_code": "097" }, "geometry": { "type": "Polygon", "coordinates": [ [ [ -3.7082, 40.9938 ], [ -3.7068, 40.9954 ], [ -3.7072, 40.9955 ], [ -3.7074, 40.9957 ], [ -3.7091, 40.9962 ], [ -3.7093, 40.9975 ], [ -3.7102, 40.9983 ], [ -3.7115, 40.9988 ], [ -3.7127, 40.9996 ], [ -3.7134, 40.9996 ], [ -3.7134, 40.9991 ], [ -3.7117, 40.9976 ], [ -3.7115, 40.9972 ], [ -3.7111, 40.9971 ], [ -3.7108, 40.9968 ], [ -3.7102, 40.9952 ], [ -3.7101, 40.9945 ], [ -3.7097, 40.9938 ], [ -3.709, 40.9941 ], [ -3.7085, 40.994 ], [ -3.7082, 40.9938 ] ] ] } },
{ "type": "Feature", "properties": { "municipio": "Navarredonda y San Mamés", "clasificacion": "no-urbanizable-protegido", "calificacion": "sin-asignar", "version": "vigente", "fuente": "SIT-CAM WFS — UsoDelSuelo:VPLA_V_CLASIFICACION (https://idem.comunidad.madrid/geosrvg/ows)", "fecha_dato": "2026-05-12", "ambito": "103", "_raw_CD_SIGLAS": "SNUP", "_raw_DS_CLASIF_GEN": "Suelo No Urbanizable Protegido", "_raw_DS_CLASIF_DET": "Suelo No Urbanizable Especialmente Protegido por su Interés Agropecuario", "_raw_DS_DOCU": "NORMAS SUBSIDIARIAS", "_raw_DS_LEY": "CM Ley 4/1984, E RD 1346/1976", "_raw_FC_AC": "1986-06-19", "_raw_NM_AREA_M2": 345686.97856762999, "_cam_code": "097" }, "geometry": { "type": "Polygon", "coordinates": [ [ [ -3.6959, 40.9991 ], [ -3.6965, 40.9988 ], [ -3.6971, 40.999 ], [ -3.6974, 40.9994 ], [ -3.6976, 41.0 ], [ -3.6993, 40.9994 ], [ -3.6992, 40.9978 ], [ -3.6995, 40.9968 ], [ -3.7001, 40.9958 ], [ -3.7, 40.9948 ], [ -3.6995, 40.9941 ], [ -3.6965, 40.9917 ], [ -3.6944, 40.9906 ], [ -3.6935, 40.9906 ], [ -3.6924, 40.9915 ], [ -3.6916, 40.9914 ], [ -3.6911, 40.9908 ], [ -3.6909, 40.99 ], [ -3.6908, 40.99 ], [ -3.6874, 40.9912 ], [ -3.6899, 40.9916 ], [ -3.6929, 40.9918 ], [ -3.6941, 40.992 ], [ -3.6945, 40.9924 ], [ -3.6948, 40.9925 ], [ -3.6955, 40.9933 ], [ -3.6955, 40.9936 ], [ -3.6948, 40.9941 ], [ -3.6953, 40.9948 ], [ -3.695, 40.9952 ], [ -3.6948, 40.996 ], [ -3.6949, 40.9964 ], [ -3.6956, 40.9972 ], [ -3.6959, 40.9991 ] ] ] } },
{ "type": "Feature", "properties": { "municipio": "Navarredonda y San Mamés", "clasificacion": "no-urbanizable-protegido", "calificacion": "sin-asignar", "version": "vigente", "fuente": "SIT-CAM WFS — UsoDelSuelo:VPLA_V_CLASIFICACION (https://idem.comunidad.madrid/geosrvg/ows)", "fecha_dato": "2026-05-12", "ambito": "103", "_raw_CD_SIGLAS": "SNUP", "_raw_DS_CLASIF_GEN": "Suelo No Urbanizable Protegido", "_raw_DS_CLASIF_DET": "Suelo No Urbanizable Especialmente Protegido por su Interés Agropecuario", "_raw_DS_DOCU": "NORMAS SUBSIDIARIAS", "_raw_DS_LEY": "CM Ley 4/1984, E RD 1346/1976", "_raw_FC_AC": "1986-06-19", "_raw_NM_AREA_M2": 730715.153932838, "_cam_code": "097" }, "geometry": { "type": "Polygon", "coordinates": [ [ [ -3.6891, 40.9997 ], [ -3.6907, 41.0031 ], [ -3.6913, 41.003 ], [ -3.6931, 41.0024 ], [ -3.6941, 41.0018 ], [ -3.6959, 41.0014 ], [ -3.6959, 41.0012 ], [ -3.6961, 41.0012 ], [ -3.6944, 41.0001 ], [ -3.694, 40.9997 ], [ -3.6927, 41.0003 ], [ -3.6924, 40.9999 ], [ -3.6941, 40.9995 ], [ -3.6932, 40.9983 ], [ -3.6932, 40.9981 ], [ -3.6936, 40.9976 ], [ -3.6934, 40.9973 ], [ -3.693, 40.9971 ], [ -3.6943, 40.9961 ], [ -3.6943, 40.9958 ], [ -3.6946, 40.9951 ], [ -3.6945, 40.9943 ], [ -3.6948, 40.9937 ], [ -3.6945, 40.9928 ], [ -3.6941, 40.9924 ], [ -3.6904, 40.992 ], [ -3.6894, 40.9923 ], [ -3.69, 40.9935 ], [ -3.6894, 40.9937 ], [ -3.6893, 40.9935 ], [ -3.6889, 40.9934 ], [ -3.6885, 40.9925 ], [ -3.6874, 40.9925 ], [ -3.6872, 40.9928 ], [ -3.6865, 40.9931 ], [ -3.6859, 40.9932 ], [ -3.6852, 40.994 ], [ -3.6825, 40.9925 ], [ -3.6809, 40.9919 ], [ -3.6793, 40.9921 ], [ -3.6821, 40.9936 ], [ -3.6827, 40.9942 ], [ -3.6862, 40.9968 ], [ -3.6865, 40.9971 ], [ -3.6864, 40.9978 ], [ -3.6865, 40.998 ], [ -3.6864, 40.9981 ], [ -3.6869, 40.9986 ], [ -3.6876, 40.999 ], [ -3.6881, 40.9988 ], [ -3.6891, 40.9997 ] ] ] } },
{ "type": "Feature", "properties": { "municipio": "Navarredonda y San Mamés", "clasificacion": "no-urbanizable-protegido", "calificacion": "sin-asignar", "version": "vigente", "fuente": "SIT-CAM WFS — UsoDelSuelo:VPLA_V_CLASIFICACION (https://idem.comunidad.madrid/geosrvg/ows)", "fecha_dato": "2026-05-12", "ambito": "103", "_raw_CD_SIGLAS": "SNUP", "_raw_DS_CLASIF_GEN": "Suelo No Urbanizable Protegido", "_raw_DS_CLASIF_DET": "Suelo No Urbanizable Especialmente Protegido por su Interés Naturalístico", "_raw_DS_DOCU": "NORMAS SUBSIDIARIAS", "_raw_DS_LEY": "CM Ley 4/1984, E RD 1346/1976", "_raw_FC_AC": "1986-06-19", "_raw_NM_AREA_M2": 719272.85522706097, "_cam_code": "097" }, "geometry": { "type": "Polygon", "coordinates": [ [ [ -3.6933, 40.9907 ], [ -3.6944, 40.9906 ], [ -3.6959, 40.9913 ], [ -3.6995, 40.9941 ], [ -3.6999, 40.9946 ], [ -3.7001, 40.9951 ], [ -3.7, 40.9961 ], [ -3.7011, 40.9948 ], [ -3.7052, 40.9907 ], [ -3.7056, 40.9901 ], [ -3.7062, 40.9885 ], [ -3.7062, 40.987 ], [ -3.706, 40.9863 ], [ -3.705, 40.9847 ], [ -3.705, 40.9848 ], [ -3.7047, 40.9848 ], [ -3.7047, 40.9849 ], [ -3.7011, 40.986 ], [ -3.6974, 40.9876 ], [ -3.6909, 40.99 ], [ -3.6911, 40.9908 ], [ -3.6916, 40.9914 ], [ -3.6924, 40.9915 ], [ -3.6924, 40.9914 ], [ -3.6926, 40.9914 ], [ -3.693, 40.9911 ], [ -3.6933, 40.9907 ] ] ] } },
{ "type": "Feature", "properties": { "municipio": "Navarredonda y San Mamés", "clasificacion": "urbano-consolidado", "calificacion": "sin-asignar", "version": "vigente", "fuente": "SIT-CAM WFS — UsoDelSuelo:VPLA_V_CLASIFICACION (https://idem.comunidad.madrid/geosrvg/ows)", "fecha_dato": "2026-05-12", "ambito": "103", "_raw_CD_SIGLAS": "SU", "_raw_DS_CLASIF_GEN": "Suelo Urbano", "_raw_DS_CLASIF_DET": "Suelo Urbano", "_raw_DS_DOCU": "NORMAS SUBSIDIARIAS", "_raw_DS_LEY": "CM Ley 4/1984, E RD 1346/1976", "_raw_FC_AC": "1986-06-19", "_raw_NM_AREA_M2": 68764.614988062007, "_cam_code": "097" }, "geometry": { "type": "Polygon", "coordinates": [ [ [ -3.7267, 40.9917 ], [ -3.727, 40.9917 ], [ -3.7272, 40.9919 ], [ -3.7273, 40.9916 ], [ -3.7277, 40.9916 ], [ -3.7276, 40.9913 ], [ -3.7277, 40.9911 ], [ -3.7276, 40.991 ], [ -3.7277, 40.9908 ], [ -3.7279, 40.9908 ], [ -3.7278, 40.9905 ], [ -3.7286, 40.9902 ], [ -3.7284, 40.99 ], [ -3.7284, 40.9898 ], [ -3.7279, 40.9893 ], [ -3.7273, 40.9893 ], [ -3.7273, 40.9896 ], [ -3.7272, 40.9896 ], [ -3.7267, 40.9893 ], [ -3.7268, 40.989 ], [ -3.7264, 40.9889 ], [ -3.7259, 40.989 ], [ -3.7258, 40.9889 ], [ -3.7255, 40.9892 ], [ -3.7256, 40.9892 ], [ -3.7256, 40.9895 ], [ -3.7255, 40.9894 ], [ -3.7249, 40.9895 ], [ -3.7248, 40.9898 ], [ -3.7249, 40.9898 ], [ -3.7248, 40.9899 ], [ -3.7249, 40.9903 ], [ -3.7247, 40.9903 ], [ -3.7245, 40.9905 ], [ -3.7244, 40.9908 ], [ -3.724, 40.9907 ], [ -3.7242, 40.9909 ], [ -3.724, 40.9911 ], [ -3.7242, 40.9911 ], [ -3.7244, 40.9909 ], [ -3.7247, 40.991 ], [ -3.7247, 40.9911 ], [ -3.725, 40.9911 ], [ -3.725, 40.9912 ], [ -3.7255, 40.9912 ], [ -3.7255, 40.9913 ], [ -3.7259, 40.9912 ], [ -3.7262, 40.9916 ], [ -3.7264, 40.9917 ], [ -3.7267, 40.9916 ], [ -3.7267, 40.9917 ] ] ] } },
{ "type": "Feature", "properties": { "municipio": "Navarredonda y San Mamés", "clasificacion": "urbano-consolidado", "calificacion": "sin-asignar", "version": "vigente", "fuente": "SIT-CAM WFS — UsoDelSuelo:VPLA_V_CLASIFICACION (https://idem.comunidad.madrid/geosrvg/ows)", "fecha_dato": "2026-05-12", "ambito": "103", "_raw_CD_SIGLAS": "SU", "_raw_DS_CLASIF_GEN": "Suelo Urbano", "_raw_DS_CLASIF_DET": "Suelo Urbano", "_raw_DS_DOCU": "NORMAS SUBSIDIARIAS", "_raw_DS_LEY": "CM Ley 4/1984, E RD 1346/1976", "_raw_FC_AC": "1986-06-19", "_raw_NM_AREA_M2": 101312.576496977, "_cam_code": "097" }, "geometry": { "type": "Polygon", "coordinates": [ [ [ -3.7077, 40.9936 ], [ -3.7085, 40.994 ], [ -3.709, 40.9941 ], [ -3.7097, 40.9938 ], [ -3.7098, 40.9939 ], [ -3.7101, 40.9937 ], [ -3.7098, 40.9934 ], [ -3.7099, 40.9932 ], [ -3.7097, 40.9932 ], [ -3.7094, 40.9928 ], [ -3.7093, 40.9924 ], [ -3.7095, 40.9924 ], [ -3.7095, 40.9929 ], [ -3.7098, 40.9929 ], [ -3.7098, 40.993 ], [ -3.7101, 40.9931 ], [ -3.7103, 40.9928 ], [ -3.7102, 40.9924 ], [ -3.7107, 40.9917 ], [ -3.71, 40.9919 ], [ -3.7097, 40.9915 ], [ -3.7095, 40.9917 ], [ -3.7093, 40.9913 ], [ -3.7087, 40.9913 ], [ -3.7092, 40.9921 ], [ -3.7094, 40.9922 ], [ -3.7093, 40.9924 ], [ -3.7088, 40.9918 ], [ -3.7075, 40.9917 ], [ -3.7071, 40.9915 ], [ -3.7068, 40.9916 ], [ -3.7065, 40.9914 ], [ -3.7066, 40.9913 ], [ -3.7068, 40.9914 ], [ -3.7075, 40.9913 ], [ -3.7076, 40.9915 ], [ -3.7081, 40.9916 ], [ -3.7085, 40.9914 ], [ -3.7085, 40.9912 ], [ -3.7087, 40.9913 ], [ -3.7082, 40.9908 ], [ -3.7082, 40.9906 ], [ -3.7077, 40.9899 ], [ -3.7076, 40.9894 ], [ -3.7073, 40.9889 ], [ -3.7064, 40.9888 ], [ -3.7062, 40.9895 ], [ -3.7059, 40.99 ], [ -3.7065, 40.9909 ], [ -3.707, 40.9911 ], [ -3.7065, 40.9913 ], [ -3.7065, 40.9914 ], [ -3.7066, 40.9915 ], [ -3.7062, 40.9917 ], [ -3.7072, 40.9925 ], [ -3.7073, 40.9924 ], [ -3.7074, 40.9925 ], [ -3.7075, 40.9927 ], [ -3.7074, 40.9927 ], [ -3.7073, 40.9932 ], [ -3.7077, 40.9936 ] ] ] } },
{ "type": "Feature", "properties": { "municipio": "Navarredonda y San Mamés", "clasificacion": "urbanizable-no-sectorizado", "calificacion": "sin-asignar", "version": "vigente", "fuente": "SIT-CAM WFS — UsoDelSuelo:VPLA_V_CLASIFICACION (https://idem.comunidad.madrid/geosrvg/ows)", "fecha_dato": "2026-05-12", "ambito": "103", "_raw_CD_SIGLAS": "SUBNS", "_raw_DS_CLASIF_GEN": "Suelo No Urbanizable Común", "_raw_DS_CLASIF_DET": "Suelo No Urbanizable Común", "_raw_DS_DOCU": "NORMAS SUBSIDIARIAS", "_raw_DS_LEY": "CM Ley 4/1984, E RD 1346/1976", "_raw_FC_AC": "1986-06-19", "_raw_NM_AREA_M2": 4420.7735288435797, "_cam_code": "097" }, "geometry": { "type": "Polygon", "coordinates": [ [ [ -3.7261, 40.9917 ], [ -3.7271, 40.9919 ], [ -3.7271, 40.9919 ], [ -3.7271, 40.9919 ], [ -3.7271, 40.9919 ], [ -3.7271, 40.9919 ], [ -3.7271, 40.9919 ], [ -3.7271, 40.9919 ], [ -3.7271, 40.9919 ], [ -3.7271, 40.9919 ], [ -3.7271, 40.9919 ], [ -3.7271, 40.9919 ], [ -3.7271, 40.9919 ], [ -3.7271, 40.9919 ], [ -3.7272, 40.9919 ], [ -3.7273, 40.9919 ], [ -3.7273, 40.9918 ], [ -3.7271, 40.9919 ], [ -3.727, 40.9917 ], [ -3.7267, 40.9917 ], [ -3.7267, 40.9916 ], [ -3.7264, 40.9917 ], [ -3.7259, 40.9912 ], [ -3.7255, 40.9913 ], [ -3.7255, 40.9912 ], [ -3.725, 40.9912 ], [ -3.725, 40.9911 ], [ -3.7247, 40.9911 ], [ -3.7247, 40.991 ], [ -3.7244, 40.9909 ], [ -3.7242, 40.991 ], [ -3.7242, 40.9911 ], [ -3.7242, 40.9911 ], [ -3.724, 40.9911 ], [ -3.7248, 40.9912 ], [ -3.7248, 40.9913 ], [ -3.7248, 40.9913 ], [ -3.7248, 40.9913 ], [ -3.7248, 40.9913 ], [ -3.7248, 40.9913 ], [ -3.7248, 40.9913 ], [ -3.7248, 40.9913 ], [ -3.7248, 40.9913 ], [ -3.7248, 40.9913 ], [ -3.7248, 40.9913 ], [ -3.7248, 40.9913 ], [ -3.7248, 40.9913 ], [ -3.7248, 40.9913 ], [ -3.7248, 40.9913 ], [ -3.7248, 40.9913 ], [ -3.7248, 40.9913 ], [ -3.7248, 40.9913 ], [ -3.7248, 40.9913 ], [ -3.7248, 40.9913 ], [ -3.7248, 40.9913 ], [ -3.7248, 40.9913 ], [ -3.7248, 40.9913 ], [ -3.7248, 40.9913 ], [ -3.7248, 40.9913 ], [ -3.7248, 40.9913 ], [ -3.7248, 40.9913 ], [ -3.7248, 40.9913 ], [ -3.7248, 40.9913 ], [ -3.7248, 40.9913 ], [ -3.7248, 40.9913 ], [ -3.7248, 40.9913 ], [ -3.7248, 40.9913 ], [ -3.7248, 40.9913 ], [ -3.7248, 40.9913 ], [ -3.7248, 40.9913 ], [ -3.7248, 40.9913 ], [ -3.7248, 40.9913 ], [ -3.7248, 40.9913 ], [ -3.7248, 40.9913 ], [ -3.7248, 40.9913 ], [ -3.7248, 40.9913 ], [ -3.7248, 40.9913 ], [ -3.7248, 40.9913 ], [ -3.7248, 40.9913 ], [ -3.7248, 40.9913 ], [ -3.7248, 40.9913 ], [ -3.7248, 40.9913 ], [ -3.7248, 40.9913 ], [ -3.7248, 40.9913 ], [ -3.7248, 40.9913 ], [ -3.7248, 40.9913 ], [ -3.7248, 40.9913 ], [ -3.7248, 40.9913 ], [ -3.7248, 40.9913 ], [ -3.7249, 40.9913 ], [ -3.725, 40.9913 ], [ -3.725, 40.9913 ], [ -3.725, 40.9913 ], [ -3.725, 40.9913 ], [ -3.725, 40.9913 ], [ -3.725, 40.9913 ], [ -3.725, 40.9913 ], [ -3.725, 40.9913 ], [ -3.725, 40.9913 ], [ -3.725, 40.9913 ], [ -3.725, 40.9913 ], [ -3.725, 40.9913 ], [ -3.725, 40.9913 ], [ -3.725, 40.9913 ], [ -3.725, 40.9913 ], [ -3.725, 40.9913 ], [ -3.725, 40.9913 ], [ -3.725, 40.9913 ], [ -3.725, 40.9913 ], [ -3.725, 40.9913 ], [ -3.725, 40.9913 ], [ -3.725, 40.9913 ], [ -3.725, 40.9913 ], [ -3.725, 40.9913 ], [ -3.725, 40.9913 ], [ -3.725, 40.9913 ], [ -3.725, 40.9913 ], [ -3.725, 40.9913 ], [ -3.725, 40.9913 ], [ -3.725, 40.9913 ], [ -3.725, 40.9913 ], [ -3.725, 40.9913 ], [ -3.725, 40.9913 ], [ -3.725, 40.9913 ], [ -3.725, 40.9913 ], [ -3.725, 40.9913 ], [ -3.725, 40.9913 ], [ -3.725, 40.9913 ], [ -3.725, 40.9913 ], [ -3.725, 40.9913 ], [ -3.725, 40.9913 ], [ -3.725, 40.9913 ], [ -3.725, 40.9913 ], [ -3.725, 40.9913 ], [ -3.725, 40.9913 ], [ -3.725, 40.9913 ], [ -3.725, 40.9913 ], [ -3.725, 40.9913 ], [ -3.725, 40.9913 ], [ -3.725, 40.9913 ], [ -3.725, 40.9913 ], [ -3.725, 40.9913 ], [ -3.725, 40.9913 ], [ -3.725, 40.9913 ], [ -3.725, 40.9913 ], [ -3.725, 40.9913 ], [ -3.725, 40.9913 ], [ -3.725, 40.9913 ], [ -3.725, 40.9913 ], [ -3.725, 40.9913 ], [ -3.725, 40.9913 ], [ -3.725, 40.9913 ], [ -3.725, 40.9913 ], [ -3.725, 40.9913 ], [ -3.725, 40.9913 ], [ -3.725, 40.9913 ], [ -3.725, 40.9913 ], [ -3.725, 40.9913 ], [ -3.725, 40.9913 ], [ -3.725, 40.9913 ], [ -3.725, 40.9913 ], [ -3.725, 40.9913 ], [ -3.725, 40.9913 ], [ -3.725, 40.9913 ], [ -3.725, 40.9913 ], [ -3.725, 40.9913 ], [ -3.725, 40.9913 ], [ -3.725, 40.9913 ], [ -3.725, 40.9913 ], [ -3.725, 40.9913 ], [ -3.725, 40.9913 ], [ -3.725, 40.9913 ], [ -3.725, 40.9913 ], [ -3.725, 40.9913 ], [ -3.725, 40.9913 ], [ -3.725, 40.9913 ], [ -3.725, 40.9913 ], [ -3.725, 40.9913 ], [ -3.725, 40.9913 ], [ -3.725, 40.9913 ], [ -3.725, 40.9913 ], [ -3.725, 40.9913 ], [ -3.725, 40.9913 ], [ -3.725, 40.9913 ], [ -3.725, 40.9913 ], [ -3.725, 40.9913 ], [ -3.725, 40.9913 ], [ -3.725, 40.9913 ], [ -3.725, 40.9913 ], [ -3.725, 40.9913 ], [ -3.725, 40.9913 ], [ -3.725, 40.9913 ], [ -3.725, 40.9913 ], [ -3.725, 40.9913 ], [ -3.725, 40.9913 ], [ -3.7253, 40.9913 ], [ -3.7254, 40.9913 ], [ -3.7254, 40.9913 ], [ -3.7254, 40.9913 ], [ -3.7254, 40.9913 ], [ -3.7254, 40.9913 ], [ -3.7254, 40.9913 ], [ -3.7254, 40.9913 ], [ -3.7254, 40.9913 ], [ -3.7254, 40.9913 ], [ -3.7254, 40.9913 ], [ -3.7254, 40.9913 ], [ -3.7254, 40.9913 ], [ -3.7254, 40.9913 ], [ -3.7254, 40.9913 ], [ -3.7254, 40.9913 ], [ -3.7254, 40.9913 ], [ -3.7254, 40.9913 ], [ -3.7254, 40.9913 ], [ -3.7254, 40.9913 ], [ -3.7254, 40.9913 ], [ -3.7254, 40.9913 ], [ -3.7254, 40.9913 ], [ -3.7254, 40.9913 ], [ -3.7254, 40.9913 ], [ -3.7254, 40.9913 ], [ -3.7254, 40.9913 ], [ -3.7254, 40.9913 ], [ -3.7255, 40.9913 ], [ -3.7256, 40.9913 ], [ -3.7261, 40.9917 ] ] ] } },
{ "type": "Feature", "properties": { "municipio": "Navarredonda y San Mamés", "clasificacion": "urbanizable-no-sectorizado", "calificacion": "sin-asignar", "version": "vigente", "fuente": "SIT-CAM WFS — UsoDelSuelo:VPLA_V_CLASIFICACION (https://idem.comunidad.madrid/geosrvg/ows)", "fecha_dato": "2026-05-12", "ambito": "103", "_raw_CD_SIGLAS": "SUBNS", "_raw_DS_CLASIF_GEN": "Suelo No Urbanizable Común", "_raw_DS_CLASIF_DET": "Suelo No Urbanizable Común", "_raw_DS_DOCU": "NORMAS SUBSIDIARIAS", "_raw_DS_LEY": "CM Ley 4/1984, E RD 1346/1976", "_raw_FC_AC": "1986-06-19", "_raw_NM_AREA_M2": 52612.617047257001, "_cam_code": "097" }, "geometry": { "type": "Polygon", "coordinates": [ [ [ -3.7102, 40.9917 ], [ -3.71, 40.9919 ], [ -3.711, 40.9916 ], [ -3.7118, 40.9916 ], [ -3.7127, 40.9918 ], [ -3.7142, 40.9918 ], [ -3.7142, 40.9917 ], [ -3.7151, 40.9914 ], [ -3.7165, 40.9905 ], [ -3.7172, 40.9904 ], [ -3.7172, 40.9903 ], [ -3.7185, 40.9898 ], [ -3.7185, 40.9897 ], [ -3.7195, 40.9896 ], [ -3.72, 40.9893 ], [ -3.7204, 40.9897 ], [ -3.7213, 40.99 ], [ -3.7219, 40.99 ], [ -3.7224, 40.9903 ], [ -3.7226, 40.9906 ], [ -3.7231, 40.9907 ], [ -3.7231, 40.9908 ], [ -3.724, 40.9908 ], [ -3.724, 40.9907 ], [ -3.7244, 40.9908 ], [ -3.7244, 40.9906 ], [ -3.7231, 40.9906 ], [ -3.7228, 40.9905 ], [ -3.7222, 40.9899 ], [ -3.7212, 40.9898 ], [ -3.7204, 40.9895 ], [ -3.7203, 40.9894 ], [ -3.7204, 40.9887 ], [ -3.72, 40.9876 ], [ -3.7186, 40.9863 ], [ -3.7182, 40.9856 ], [ -3.7168, 40.9848 ], [ -3.7161, 40.9846 ], [ -3.7159, 40.9844 ], [ -3.7149, 40.984 ], [ -3.7136, 40.9831 ], [ -3.7129, 40.9823 ], [ -3.7117, 40.9805 ], [ -3.7115, 40.9805 ], [ -3.7114, 40.9806 ], [ -3.7123, 40.9817 ], [ -3.7127, 40.9824 ], [ -3.7139, 40.9836 ], [ -3.7152, 40.9844 ], [ -3.7178, 40.9855 ], [ -3.7181, 40.9858 ], [ -3.7184, 40.9864 ], [ -3.7198, 40.9877 ], [ -3.7202, 40.9889 ], [ -3.7195, 40.9894 ], [ -3.7185, 40.9895 ], [ -3.7185, 40.9896 ], [ -3.7181, 40.9897 ], [ -3.7175, 40.9901 ], [ -3.7163, 40.9904 ], [ -3.7148, 40.9913 ], [ -3.7142, 40.9915 ], [ -3.7142, 40.9916 ], [ -3.7125, 40.9916 ], [ -3.7119, 40.9914 ], [ -3.711, 40.9914 ], [ -3.7102, 40.9917 ] ] ] } },
{ "type": "Feature", "properties": { "municipio": "Navarredonda y San Mamés", "clasificacion": "urbanizable-no-sectorizado", "calificacion": "sin-asignar", "version": "vigente", "fuente": "SIT-CAM WFS — UsoDelSuelo:VPLA_V_CLASIFICACION (https://idem.comunidad.madrid/geosrvg/ows)", "fecha_dato": "2026-05-12", "ambito": "103", "_raw_CD_SIGLAS": "SUBNS", "_raw_DS_CLASIF_GEN": "Suelo No Urbanizable Común", "_raw_DS_CLASIF_DET": "Suelo No Urbanizable Común", "_raw_DS_DOCU": "NORMAS SUBSIDIARIAS", "_raw_DS_LEY": "CM Ley 4/1984, E RD 1346/1976", "_raw_FC_AC": "1986-06-19", "_raw_NM_AREA_M2": 71420.042053887999, "_cam_code": "097" }, "geometry": { "type": "Polygon", "coordinates": [ [ [ -3.7276, 40.991 ], [ -3.7321, 40.9913 ], [ -3.7347, 40.9904 ], [ -3.7357, 40.9899 ], [ -3.7367, 40.9889 ], [ -3.7372, 40.9886 ], [ -3.7384, 40.987 ], [ -3.7384, 40.9859 ], [ -3.7392, 40.985 ], [ -3.7392, 40.9847 ], [ -3.7391, 40.9847 ], [ -3.7389, 40.9841 ], [ -3.7378, 40.9828 ], [ -3.7398, 40.9816 ], [ -3.741, 40.9813 ], [ -3.7409, 40.9811 ], [ -3.7388, 40.9819 ], [ -3.7375, 40.9828 ], [ -3.7364, 40.9839 ], [ -3.736, 40.9839 ], [ -3.7354, 40.9832 ], [ -3.7352, 40.9827 ], [ -3.7352, 40.9823 ], [ -3.7355, 40.982 ], [ -3.7355, 40.981 ], [ -3.7354, 40.981 ], [ -3.7354, 40.9808 ], [ -3.7349, 40.9802 ], [ -3.7345, 40.98 ], [ -3.7342, 40.98 ], [ -3.7342, 40.9799 ], [ -3.7331, 40.98 ], [ -3.7316, 40.9805 ], [ -3.7301, 40.9814 ], [ -3.7291, 40.9824 ], [ -3.7286, 40.9832 ], [ -3.728, 40.9838 ], [ -3.7266, 40.9845 ], [ -3.7265, 40.9849 ], [ -3.7264, 40.9849 ], [ -3.7264, 40.9853 ], [ -3.7267, 40.9852 ], [ -3.7267, 40.9848 ], [ -3.7271, 40.9844 ], [ -3.7282, 40.9839 ], [ -3.7288, 40.9833 ], [ -3.7293, 40.9825 ], [ -3.7306, 40.9813 ], [ -3.7321, 40.9805 ], [ -3.7339, 40.9801 ], [ -3.7347, 40.9803 ], [ -3.7352, 40.9809 ], [ -3.7353, 40.9818 ], [ -3.7351, 40.982 ], [ -3.7351, 40.9822 ], [ -3.735, 40.9822 ], [ -3.735, 40.9829 ], [ -3.7351, 40.9829 ], [ -3.7352, 40.9833 ], [ -3.7359, 40.9841 ], [ -3.7363, 40.9842 ], [ -3.7374, 40.9831 ], [ -3.7377, 40.983 ], [ -3.7387, 40.9842 ], [ -3.7389, 40.9846 ], [ -3.7389, 40.9851 ], [ -3.7382, 40.9858 ], [ -3.7382, 40.9869 ], [ -3.7381, 40.9869 ], [ -3.7371, 40.9884 ], [ -3.7355, 40.9898 ], [ -3.7344, 40.9903 ], [ -3.7322, 40.991 ], [ -3.7322, 40.9911 ], [ -3.7291, 40.9909 ], [ -3.7277, 40.9909 ], [ -3.7276, 40.991 ] ] ] } },
{ "type": "Feature", "properties": { "municipio": "Navarredonda y San Mamés", "clasificacion": "urbanizable-no-sectorizado", "calificacion": "sin-asignar", "version": "vigente", "fuente": "SIT-CAM WFS — UsoDelSuelo:VPLA_V_CLASIFICACION (https://idem.comunidad.madrid/geosrvg/ows)", "fecha_dato": "2026-05-12", "ambito": "103", "_raw_CD_SIGLAS": "SUBNS", "_raw_DS_CLASIF_GEN": "Suelo No Urbanizable Común", "_raw_DS_CLASIF_DET": "Suelo No Urbanizable Común", "_raw_DS_DOCU": "NORMAS SUBSIDIARIAS", "_raw_DS_LEY": "CM Ley 4/1984, E RD 1346/1976", "_raw_FC_AC": "1986-06-19", "_raw_NM_AREA_M2": 119771.158325845, "_cam_code": "097" }, "geometry": { "type": "Polygon", "coordinates": [ [ [ -3.6994, 40.9995 ], [ -3.6996, 41.0001 ], [ -3.7015, 41.0029 ], [ -3.7017, 41.0034 ], [ -3.7017, 41.0038 ], [ -3.7018, 41.0038 ], [ -3.7018, 41.0048 ], [ -3.7016, 41.0056 ], [ -3.7015, 41.0056 ], [ -3.7015, 41.0058 ], [ -3.7011, 41.0065 ], [ -3.7006, 41.0071 ], [ -3.6984, 41.009 ], [ -3.6982, 41.0093 ], [ -3.6984, 41.0094 ], [ -3.6986, 41.0091 ], [ -3.6993, 41.0086 ], [ -3.6999, 41.0079 ], [ -3.7012, 41.0068 ], [ -3.702, 41.0051 ], [ -3.7019, 41.0032 ], [ -3.7012, 41.0021 ], [ -3.7012, 41.0019 ], [ -3.6998, 41.0 ], [ -3.6996, 40.9995 ], [ -3.7009, 40.9993 ], [ -3.7009, 40.9992 ], [ -3.7014, 40.9992 ], [ -3.7031, 40.9983 ], [ -3.7046, 40.9972 ], [ -3.7047, 40.9969 ], [ -3.7053, 40.9962 ], [ -3.706, 40.9958 ], [ -3.7066, 40.9951 ], [ -3.7073, 40.9949 ], [ -3.7082, 40.9938 ], [ -3.708, 40.9938 ], [ -3.708, 40.9937 ], [ -3.7071, 40.9948 ], [ -3.7065, 40.9949 ], [ -3.7059, 40.9956 ], [ -3.7052, 40.996 ], [ -3.7046, 40.9966 ], [ -3.7044, 40.9971 ], [ -3.703, 40.9981 ], [ -3.7016, 40.9989 ], [ -3.701, 40.999 ], [ -3.701, 40.9991 ], [ -3.6997, 40.9993 ], [ -3.6995, 40.9992 ], [ -3.6994, 40.9981 ], [ -3.6998, 40.9967 ], [ -3.7013, 40.9949 ], [ -3.7054, 40.9908 ], [ -3.7062, 40.9895 ], [ -3.7065, 40.9882 ], [ -3.7064, 40.9869 ], [ -3.7059, 40.9856 ], [ -3.7054, 40.9849 ], [ -3.7057, 40.9849 ], [ -3.7062, 40.9858 ], [ -3.7063, 40.9858 ], [ -3.7066, 40.9873 ], [ -3.7076, 40.9894 ], [ -3.7077, 40.9899 ], [ -3.7082, 40.9906 ], [ -3.7082, 40.9908 ], [ -3.7086, 40.9912 ], [ -3.7087, 40.9913 ], [ -3.7085, 40.9912 ], [ -3.7085, 40.9914 ], [ -3.7081, 40.9916 ], [ -3.7076, 40.9915 ], [ -3.7075, 40.9913 ], [ -3.7071, 40.9914 ], [ -3.7066, 40.9913 ], [ -3.7065, 40.9914 ], [ -3.7068, 40.9916 ], [ -3.7071, 40.9915 ], [ -3.7075, 40.9917 ], [ -3.7088, 40.9918 ], [ -3.7093, 40.9924 ], [ -3.7094, 40.9923 ], [ -3.7087, 40.9914 ], [ -3.7087, 40.9913 ], [ -3.709, 40.9913 ], [ -3.7085, 40.991 ], [ -3.7084, 40.9907 ], [ -3.7083, 40.9907 ], [ -3.7082, 40.9902 ], [ -3.7081, 40.9902 ], [ -3.7068, 40.9872 ], [ -3.7066, 40.9859 ], [ -3.7059, 40.9848 ], [ -3.7057, 40.9848 ], [ -3.7057, 40.9847 ], [ -3.705, 40.9847 ], [ -3.705, 40.9848 ], [ -3.7058, 40.9859 ], [ -3.7062, 40.987 ], [ -3.7062, 40.9885 ], [ -3.7059, 40.9895 ], [ -3.7052, 40.9907 ], [ -3.7011, 40.9948 ], [ -3.6997, 40.9965 ], [ -3.6992, 40.9978 ], [ -3.6993, 40.9994 ], [ -3.6971, 41.0002 ], [ -3.6969, 41.0005 ], [ -3.6968, 41.001 ], [ -3.6966, 41.0012 ], [ -3.6947, 41.0016 ], [ -3.6924, 41.0027 ], [ -3.6907, 41.0031 ], [ -3.6908, 41.0033 ], [ -3.6924, 41.0029 ], [ -3.6944, 41.0019 ], [ -3.6967, 41.0014 ], [ -3.697, 41.0011 ], [ -3.6971, 41.0006 ], [ -3.6974, 41.0003 ], [ -3.6985, 40.9998 ], [ -3.6988, 40.9998 ], [ -3.6994, 40.9995 ] ] ] } },
{ "type": "Feature", "properties": { "municipio": "Navarredonda y San Mamés", "clasificacion": "urbanizable-no-sectorizado", "calificacion": "sin-asignar", "version": "vigente", "fuente": "SIT-CAM WFS — UsoDelSuelo:VPLA_V_CLASIFICACION (https://idem.comunidad.madrid/geosrvg/ows)", "fecha_dato": "2026-05-12", "ambito": "103", "_raw_CD_SIGLAS": "SUBNS", "_raw_DS_CLASIF_GEN": "Suelo No Urbanizable Común", "_raw_DS_CLASIF_DET": "Suelo No Urbanizable Común", "_raw_DS_DOCU": "NORMAS SUBSIDIARIAS", "_raw_DS_LEY": "CM Ley 4/1984, E RD 1346/1976", "_raw_FC_AC": "1986-06-19", "_raw_NM_AREA_M2": 1320.96325250773, "_cam_code": "097" }, "geometry": { "type": "Polygon", "coordinates": [ [ [ -3.7095, 40.9929 ], [ -3.7097, 40.9932 ], [ -3.7101, 40.9931 ], [ -3.7098, 40.993 ], [ -3.7098, 40.9929 ], [ -3.7095, 40.9929 ], [ -3.7095, 40.9924 ], [ -3.7093, 40.9924 ], [ -3.7095, 40.9929 ] ] ] } }
]
}
