{
"type": "FeatureCollection",
"name": "vigente.full",
"features": [
{ "type": "Feature", "properties": { "municipio": "Hoyo de Manzanares", "clasificacion": "no-urbanizable-protegido", "calificacion": "sin-asignar", "version": "vigente", "fuente": "SIT-CAM WFS — UsoDelSuelo:VPLA_V_CLASIFICACION (https://idem.comunidad.madrid/geosrvg/ows)", "fecha_dato": "2026-05-12", "ambito": "83", "_raw_CD_SIGLAS": "SNUP", "_raw_DS_CLASIF_GEN": "Suelo No Urbanizable Protegido", "_raw_DS_CLASIF_DET": "Suelo No Urbanizable Especialmente Protegido. Protecciones Especiales. Infraestructuras y Carreteras", "_raw_DS_DOCU": "NORMAS SUBSIDIARIAS", "_raw_DS_LEY": "CM Ley 4/1984, E RD 1346/1976", "_raw_FC_AC": "1985-07-30", "_raw_NM_AREA_M2": 84004.335517400701, "_cam_code": "072" }, "geometry": { "type": "Polygon", "coordinates": [ [ [ -3.8823, 40.624 ], [ -3.8826, 40.624 ], [ -3.8827, 40.6243 ], [ -3.8834, 40.6239 ], [ -3.8834, 40.6238 ], [ -3.885, 40.6231 ], [ -3.8857, 40.6231 ], [ -3.8866, 40.6229 ], [ -3.8883, 40.6221 ], [ -3.8883, 40.622 ], [ -3.8886, 40.622 ], [ -3.8888, 40.6218 ], [ -3.891, 40.6215 ], [ -3.8913, 40.6215 ], [ -3.8918, 40.6217 ], [ -3.8918, 40.6218 ], [ -3.8928, 40.622 ], [ -3.8939, 40.6224 ], [ -3.8952, 40.6226 ], [ -3.8952, 40.6227 ], [ -3.8954, 40.6227 ], [ -3.8967, 40.6236 ], [ -3.898, 40.624 ], [ -3.8985, 40.6241 ], [ -3.8985, 40.6239 ], [ -3.8987, 40.6238 ], [ -3.8984, 40.6235 ], [ -3.8967, 40.623 ], [ -3.8958, 40.6223 ], [ -3.8956, 40.6223 ], [ -3.8956, 40.6222 ], [ -3.893, 40.6216 ], [ -3.8914, 40.621 ], [ -3.8909, 40.621 ], [ -3.8884, 40.6214 ], [ -3.8884, 40.6215 ], [ -3.8862, 40.6224 ], [ -3.8862, 40.6225 ], [ -3.8848, 40.6226 ], [ -3.8848, 40.6227 ], [ -3.8827, 40.6236 ], [ -3.8823, 40.624 ] ] ] } },
{ "type": "Feature", "properties": { "municipio": "Hoyo de Manzanares", "clasificacion": "no-urbanizable-protegido", "calificacion": "sin-asignar", "version": "vigente", "fuente": "SIT-CAM WFS — UsoDelSuelo:VPLA_V_CLASIFICACION (https://idem.comunidad.madrid/geosrvg/ows)", "fecha_dato": "2026-05-12", "ambito": "83", "_raw_CD_SIGLAS": "SNUP", "_raw_DS_CLASIF_GEN": "Suelo No Urbanizable Protegido", "_raw_DS_CLASIF_DET": "Suelo No Urbanizable Especialmente Protegido. Protecciones Especiales. Infraestructuras y Carreteras", "_raw_DS_DOCU": "NORMAS SUBSIDIARIAS", "_raw_DS_LEY": "CM Ley 4/1984, E RD 1346/1976", "_raw_FC_AC": "1985-07-30", "_raw_NM_AREA_M2": 13916.557319646299, "_cam_code": "072" }, "geometry": { "type": "Polygon", "coordinates": [ [ [ -3.9287, 40.6148 ], [ -3.9267, 40.615 ], [ -3.9267, 40.6151 ], [ -3.9237, 40.6156 ], [ -3.922, 40.6162 ], [ -3.922, 40.6163 ], [ -3.9218, 40.6163 ], [ -3.9218, 40.6164 ], [ -3.9209, 40.6169 ], [ -3.9212, 40.617 ], [ -3.922, 40.6164 ], [ -3.9239, 40.6158 ], [ -3.9239, 40.6157 ], [ -3.9244, 40.6157 ], [ -3.9271, 40.6151 ], [ -3.9286, 40.615 ], [ -3.9328, 40.6142 ], [ -3.9328, 40.6141 ], [ -3.9287, 40.6149 ], [ -3.9287, 40.6148 ] ] ] } },
{ "type": "Feature", "properties": { "municipio": "Hoyo de Manzanares", "clasificacion": "no-urbanizable-protegido", "calificacion": "sin-asignar", "version": "vigente", "fuente": "SIT-CAM WFS — UsoDelSuelo:VPLA_V_CLASIFICACION (https://idem.comunidad.madrid/geosrvg/ows)", "fecha_dato": "2026-05-12", "ambito": "83", "_raw_CD_SIGLAS": "SNUP", "_raw_DS_CLASIF_GEN": "Suelo No Urbanizable Protegido", "_raw_DS_CLASIF_DET": "Infraestructuras de Comunicaciones. Vías Pecuarias", "_raw_DS_DOCU": "NORMAS SUBSIDIARIAS", "_raw_DS_LEY": "CM Ley 4/1984, E RD 1346/1976", "_raw_FC_AC": "1985-07-30", "_raw_NM_AREA_M2": 102150.008845991, "_cam_code": "072" }, "geometry": { "type": "Polygon", "coordinates": [ [ [ -3.9285, 40.6231 ], [ -3.9291, 40.6238 ], [ -3.929, 40.6252 ], [ -3.9287, 40.6257 ], [ -3.9288, 40.6269 ], [ -3.9283, 40.6276 ], [ -3.9283, 40.6279 ], [ -3.9289, 40.6285 ], [ -3.929, 40.6288 ], [ -3.9289, 40.6298 ], [ -3.9297, 40.6292 ], [ -3.9298, 40.6287 ], [ -3.9298, 40.6285 ], [ -3.9292, 40.6278 ], [ -3.9292, 40.6276 ], [ -3.9297, 40.6268 ], [ -3.9295, 40.6258 ], [ -3.9299, 40.6252 ], [ -3.93, 40.6244 ], [ -3.9299, 40.6241 ], [ -3.93, 40.6239 ], [ -3.9298, 40.6234 ], [ -3.9285, 40.6216 ], [ -3.9282, 40.621 ], [ -3.9305, 40.6214 ], [ -3.9313, 40.6214 ], [ -3.9314, 40.6213 ], [ -3.9323, 40.618 ], [ -3.9326, 40.6158 ], [ -3.9323, 40.6157 ], [ -3.9316, 40.6195 ], [ -3.9313, 40.62 ], [ -3.931, 40.6212 ], [ -3.927, 40.6206 ], [ -3.9285, 40.6231 ] ] ] } },
{ "type": "Feature", "properties": { "municipio": "Hoyo de Manzanares", "clasificacion": "no-urbanizable-protegido", "calificacion": "sin-asignar", "version": "vigente", "fuente": "SIT-CAM WFS — UsoDelSuelo:VPLA_V_CLASIFICACION (https://idem.comunidad.madrid/geosrvg/ows)", "fecha_dato": "2026-05-12", "ambito": "83", "_raw_CD_SIGLAS": "SNUP", "_raw_DS_CLASIF_GEN": "Suelo No Urbanizable Protegido", "_raw_DS_CLASIF_DET": "Suelo No Urbanizable Especialmente Protegido A2. Reserva Natural Educativa", "_raw_DS_DOCU": "NORMAS SUBSIDIARIAS", "_raw_DS_LEY": "CM Ley 4/1984, E RD 1346/1976", "_raw_FC_AC": "1985-07-30", "_raw_NM_AREA_M2": 246895.66058665101, "_cam_code": "072" }, "geometry": { "type": "Polygon", "coordinates": [ [ [ -3.9313, 40.6214 ], [ -3.9305, 40.6214 ], [ -3.9282, 40.621 ], [ -3.9285, 40.6216 ], [ -3.9298, 40.6234 ], [ -3.93, 40.6239 ], [ -3.9299, 40.6241 ], [ -3.93, 40.6244 ], [ -3.9299, 40.6252 ], [ -3.9295, 40.6258 ], [ -3.9297, 40.6268 ], [ -3.9292, 40.6276 ], [ -3.9292, 40.6278 ], [ -3.9298, 40.6285 ], [ -3.9297, 40.6292 ], [ -3.9326, 40.627 ], [ -3.9335, 40.6258 ], [ -3.9352, 40.6246 ], [ -3.9347, 40.6245 ], [ -3.9344, 40.6242 ], [ -3.934, 40.6236 ], [ -3.9338, 40.6235 ], [ -3.9334, 40.6228 ], [ -3.9327, 40.6221 ], [ -3.9321, 40.6217 ], [ -3.9313, 40.6214 ] ] ] } },
{ "type": "Feature", "properties": { "municipio": "Hoyo de Manzanares", "clasificacion": "no-urbanizable-protegido", "calificacion": "sin-asignar", "version": "vigente", "fuente": "SIT-CAM WFS — UsoDelSuelo:VPLA_V_CLASIFICACION (https://idem.comunidad.madrid/geosrvg/ows)", "fecha_dato": "2026-05-12", "ambito": "83", "_raw_CD_SIGLAS": "SNUP", "_raw_DS_CLASIF_GEN": "Suelo No Urbanizable Protegido", "_raw_DS_CLASIF_DET": "Suelo No Urbanizable Especialmente Protegido B1. Parque Comarcal Agropecuario Protector", "_raw_DS_DOCU": "NORMAS SUBSIDIARIAS", "_raw_DS_LEY": "CM Ley 4/1984, E RD 1346/1976", "_raw_FC_AC": "1985-07-30", "_raw_NM_AREA_M2": 494369.18761360098, "_cam_code": "072" }, "geometry": { "type": "Polygon", "coordinates": [ [ [ -3.9313, 40.6214 ], [ -3.9321, 40.6217 ], [ -3.9327, 40.6221 ], [ -3.9334, 40.6228 ], [ -3.9338, 40.6235 ], [ -3.934, 40.6236 ], [ -3.9344, 40.6242 ], [ -3.9347, 40.6245 ], [ -3.9352, 40.6246 ], [ -3.9379, 40.6226 ], [ -3.9395, 40.6218 ], [ -3.9403, 40.6208 ], [ -3.9408, 40.6204 ], [ -3.9419, 40.6188 ], [ -3.9425, 40.6175 ], [ -3.9407, 40.6176 ], [ -3.9407, 40.6177 ], [ -3.9402, 40.6178 ], [ -3.9402, 40.6179 ], [ -3.9394, 40.618 ], [ -3.9381, 40.618 ], [ -3.9381, 40.6179 ], [ -3.937, 40.6176 ], [ -3.9367, 40.6173 ], [ -3.9364, 40.6173 ], [ -3.9364, 40.6172 ], [ -3.9359, 40.6171 ], [ -3.9359, 40.617 ], [ -3.9353, 40.6169 ], [ -3.9351, 40.6166 ], [ -3.9345, 40.6165 ], [ -3.9342, 40.6164 ], [ -3.9342, 40.6163 ], [ -3.9337, 40.6163 ], [ -3.9335, 40.6161 ], [ -3.9326, 40.6158 ], [ -3.9323, 40.618 ], [ -3.9313, 40.6214 ] ] ] } },
{ "type": "Feature", "properties": { "municipio": "Hoyo de Manzanares", "clasificacion": "no-urbanizable-protegido", "calificacion": "sin-asignar", "version": "vigente", "fuente": "SIT-CAM WFS — UsoDelSuelo:VPLA_V_CLASIFICACION (https://idem.comunidad.madrid/geosrvg/ows)", "fecha_dato": "2026-05-12", "ambito": "83", "_raw_CD_SIGLAS": "SNUP", "_raw_DS_CLASIF_GEN": "Suelo No Urbanizable Protegido", "_raw_DS_CLASIF_DET": "Suelo No Urbanizable Especialmente Protegido B1. Parque Comarcal Agropecuario Protector", "_raw_DS_DOCU": "NORMAS SUBSIDIARIAS", "_raw_DS_LEY": "CM Ley 4/1984, E RD 1346/1976", "_raw_FC_AC": "1985-07-30", "_raw_NM_AREA_M2": 8402.5353949511791, "_cam_code": "072" }, "geometry": { "type": "Polygon", "coordinates": [ [ [ -3.9362, 40.6042 ], [ -3.936, 40.6053 ], [ -3.9356, 40.6054 ], [ -3.9353, 40.6058 ], [ -3.9363, 40.6055 ], [ -3.9367, 40.6052 ], [ -3.9368, 40.6047 ], [ -3.9365, 40.6043 ], [ -3.9362, 40.6042 ] ] ] } },
{ "type": "Feature", "properties": { "municipio": "Hoyo de Manzanares", "clasificacion": "no-urbanizable-protegido", "calificacion": "sin-asignar", "version": "vigente", "fuente": "SIT-CAM WFS — UsoDelSuelo:VPLA_V_CLASIFICACION (https://idem.comunidad.madrid/geosrvg/ows)", "fecha_dato": "2026-05-12", "ambito": "83", "_raw_CD_SIGLAS": "SNUP", "_raw_DS_CLASIF_GEN": "Suelo No Urbanizable Protegido", "_raw_DS_CLASIF_DET": "Infraestructuras de Comunicaciones. Vías Pecuarias", "_raw_DS_DOCU": "NORMAS SUBSIDIARIAS", "_raw_DS_LEY": "CM Ley 4/1984, E RD 1346/1976", "_raw_FC_AC": "1985-07-30", "_raw_NM_AREA_M2": 45052.904599563, "_cam_code": "072" }, "geometry": { "type": "Polygon", "coordinates": [ [ [ -3.9355, 40.6038 ], [ -3.9353, 40.6038 ], [ -3.935, 40.6053 ], [ -3.9354, 40.6076 ], [ -3.9352, 40.6083 ], [ -3.9338, 40.6093 ], [ -3.9335, 40.61 ], [ -3.9319, 40.6113 ], [ -3.932, 40.6114 ], [ -3.932, 40.6113 ], [ -3.9328, 40.6109 ], [ -3.9328, 40.6108 ], [ -3.9334, 40.6106 ], [ -3.9338, 40.61 ], [ -3.9345, 40.6097 ], [ -3.9349, 40.6093 ], [ -3.9357, 40.609 ], [ -3.936, 40.6086 ], [ -3.9361, 40.6072 ], [ -3.9357, 40.6066 ], [ -3.9352, 40.6062 ], [ -3.9352, 40.6059 ], [ -3.9356, 40.6054 ], [ -3.936, 40.6053 ], [ -3.9362, 40.6042 ], [ -3.9356, 40.604 ], [ -3.9355, 40.6038 ] ] ] } },
{ "type": "Feature", "properties": { "municipio": "Hoyo de Manzanares", "clasificacion": "no-urbanizable-protegido", "calificacion": "sin-asignar", "version": "vigente", "fuente": "SIT-CAM WFS — UsoDelSuelo:VPLA_V_CLASIFICACION (https://idem.comunidad.madrid/geosrvg/ows)", "fecha_dato": "2026-05-12", "ambito": "83", "_raw_CD_SIGLAS": "SNUP", "_raw_DS_CLASIF_GEN": "Suelo No Urbanizable Protegido", "_raw_DS_CLASIF_DET": "Suelo No Urbanizable Especialmente Protegido A2. Reserva Natural Educativa", "_raw_DS_DOCU": "NORMAS SUBSIDIARIAS", "_raw_DS_LEY": "CM Ley 4/1984, E RD 1346/1976", "_raw_FC_AC": "1985-07-30", "_raw_NM_AREA_M2": 7962491.7222782196, "_cam_code": "072" }, "geometry": { "type": "Polygon", "coordinates": [ [ [ -3.8641, 40.6453 ], [ -3.8656, 40.646 ], [ -3.8678, 40.6463 ], [ -3.8693, 40.6468 ], [ -3.8718, 40.6474 ], [ -3.8729, 40.6479 ], [ -3.8738, 40.6486 ], [ -3.8754, 40.6493 ], [ -3.8765, 40.6505 ], [ -3.8768, 40.6511 ], [ -3.8863, 40.6525 ], [ -3.8896, 40.6521 ], [ -3.8936, 40.6509 ], [ -3.8945, 40.6502 ], [ -3.9049, 40.6444 ], [ -3.908, 40.643 ], [ -3.9102, 40.6423 ], [ -3.9129, 40.6418 ], [ -3.9139, 40.6412 ], [ -3.9203, 40.6388 ], [ -3.9211, 40.6382 ], [ -3.9221, 40.6368 ], [ -3.9231, 40.636 ], [ -3.9244, 40.6345 ], [ -3.9262, 40.6333 ], [ -3.9277, 40.6312 ], [ -3.9289, 40.6298 ], [ -3.929, 40.6288 ], [ -3.9289, 40.6285 ], [ -3.9283, 40.6279 ], [ -3.9283, 40.6276 ], [ -3.9288, 40.6269 ], [ -3.9287, 40.6257 ], [ -3.929, 40.6252 ], [ -3.9291, 40.6238 ], [ -3.9285, 40.6231 ], [ -3.927, 40.6206 ], [ -3.9267, 40.6205 ], [ -3.9252, 40.6205 ], [ -3.9232, 40.6202 ], [ -3.9216, 40.6202 ], [ -3.9207, 40.6205 ], [ -3.9207, 40.6207 ], [ -3.9203, 40.6209 ], [ -3.9203, 40.6211 ], [ -3.9189, 40.622 ], [ -3.9177, 40.623 ], [ -3.9168, 40.624 ], [ -3.9169, 40.6242 ], [ -3.9158, 40.6256 ], [ -3.9158, 40.6258 ], [ -3.9169, 40.6269 ], [ -3.9171, 40.6273 ], [ -3.9172, 40.6278 ], [ -3.9168, 40.6285 ], [ -3.9167, 40.6286 ], [ -3.9154, 40.6287 ], [ -3.9128, 40.6296 ], [ -3.9125, 40.6298 ], [ -3.9121, 40.6316 ], [ -3.9105, 40.6327 ], [ -3.9098, 40.6337 ], [ -3.9087, 40.6346 ], [ -3.9075, 40.6351 ], [ -3.9055, 40.6355 ], [ -3.9016, 40.6353 ], [ -3.9001, 40.6344 ], [ -3.8987, 40.6348 ], [ -3.898, 40.6348 ], [ -3.8977, 40.6341 ], [ -3.8972, 40.6336 ], [ -3.897, 40.6332 ], [ -3.8964, 40.6327 ], [ -3.8963, 40.632 ], [ -3.8957, 40.6324 ], [ -3.893, 40.6351 ], [ -3.8891, 40.6381 ], [ -3.889, 40.6379 ], [ -3.8896, 40.6374 ], [ -3.8899, 40.6373 ], [ -3.8905, 40.6365 ], [ -3.8911, 40.6364 ], [ -3.8918, 40.6357 ], [ -3.8929, 40.635 ], [ -3.8932, 40.6345 ], [ -3.8935, 40.6344 ], [ -3.8937, 40.6336 ], [ -3.8939, 40.6333 ], [ -3.8965, 40.6318 ], [ -3.8968, 40.6321 ], [ -3.8973, 40.633 ], [ -3.8984, 40.6339 ], [ -3.8985, 40.6343 ], [ -3.9001, 40.634 ], [ -3.9012, 40.6346 ], [ -3.9023, 40.635 ], [ -3.9035, 40.6349 ], [ -3.9042, 40.635 ], [ -3.9042, 40.6351 ], [ -3.9045, 40.6351 ], [ -3.9045, 40.635 ], [ -3.9049, 40.6351 ], [ -3.9059, 40.635 ], [ -3.9067, 40.6351 ], [ -3.9083, 40.6344 ], [ -3.9085, 40.6341 ], [ -3.9089, 40.634 ], [ -3.9097, 40.6332 ], [ -3.91, 40.6327 ], [ -3.9107, 40.6321 ], [ -3.9114, 40.6319 ], [ -3.9119, 40.6313 ], [ -3.912, 40.6309 ], [ -3.9115, 40.6293 ], [ -3.9112, 40.6293 ], [ -3.9115, 40.6289 ], [ -3.9112, 40.6293 ], [ -3.9102, 40.629 ], [ -3.9098, 40.629 ], [ -3.9092, 40.6295 ], [ -3.9066, 40.629 ], [ -3.9066, 40.6285 ], [ -3.9067, 40.6285 ], [ -3.9066, 40.6276 ], [ -3.9063, 40.6276 ], [ -3.9063, 40.6277 ], [ -3.9058, 40.6279 ], [ -3.9041, 40.6283 ], [ -3.9046, 40.6286 ], [ -3.9043, 40.6287 ], [ -3.9043, 40.6291 ], [ -3.9044, 40.6291 ], [ -3.9043, 40.6293 ], [ -3.9037, 40.6296 ], [ -3.9037, 40.6297 ], [ -3.9034, 40.6298 ], [ -3.9025, 40.6294 ], [ -3.9019, 40.6298 ], [ -3.901, 40.6301 ], [ -3.9009, 40.6302 ], [ -3.901, 40.6304 ], [ -3.9004, 40.6306 ], [ -3.8999, 40.6306 ], [ -3.8988, 40.631 ], [ -3.8969, 40.6313 ], [ -3.8948, 40.6319 ], [ -3.8942, 40.6322 ], [ -3.8933, 40.6329 ], [ -3.8922, 40.634 ], [ -3.8919, 40.6345 ], [ -3.8878, 40.6384 ], [ -3.8868, 40.6395 ], [ -3.8862, 40.6406 ], [ -3.8859, 40.642 ], [ -3.8861, 40.6429 ], [ -3.8861, 40.6446 ], [ -3.8862, 40.6448 ], [ -3.8861, 40.6452 ], [ -3.8855, 40.6451 ], [ -3.8853, 40.6447 ], [ -3.8847, 40.6441 ], [ -3.8817, 40.6441 ], [ -3.8814, 40.6436 ], [ -3.8812, 40.6435 ], [ -3.8811, 40.643 ], [ -3.8807, 40.6425 ], [ -3.8797, 40.6423 ], [ -3.8789, 40.6423 ], [ -3.8768, 40.6407 ], [ -3.876, 40.6404 ], [ -3.8756, 40.6404 ], [ -3.8751, 40.6402 ], [ -3.8716, 40.64 ], [ -3.869, 40.64 ], [ -3.869, 40.6399 ], [ -3.8683, 40.6396 ], [ -3.8683, 40.6393 ], [ -3.8682, 40.6393 ], [ -3.8681, 40.6389 ], [ -3.8674, 40.6381 ], [ -3.8672, 40.6381 ], [ -3.8669, 40.6378 ], [ -3.8668, 40.6375 ], [ -3.8651, 40.6367 ], [ -3.8626, 40.6362 ], [ -3.8608, 40.6362 ], [ -3.8605, 40.6361 ], [ -3.8578, 40.6362 ], [ -3.8589, 40.6389 ], [ -3.86, 40.6405 ], [ -3.8601, 40.6418 ], [ -3.8614, 40.6429 ], [ -3.8622, 40.6432 ], [ -3.8629, 40.6443 ], [ -3.8641, 40.6453 ] ] ] } },
{ "type": "Feature", "properties": { "municipio": "Hoyo de Manzanares", "clasificacion": "no-urbanizable-protegido", "calificacion": "sin-asignar", "version": "vigente", "fuente": "SIT-CAM WFS — UsoDelSuelo:VPLA_V_CLASIFICACION (https://idem.comunidad.madrid/geosrvg/ows)", "fecha_dato": "2026-05-12", "ambito": "83", "_raw_CD_SIGLAS": "SNUP", "_raw_DS_CLASIF_GEN": "Suelo No Urbanizable Protegido", "_raw_DS_CLASIF_DET": "Suelo No Urbanizable Especialmente Protegido B1. Parque Comarcal Agropecuario Protector", "_raw_DS_DOCU": "NORMAS SUBSIDIARIAS", "_raw_DS_LEY": "CM Ley 4/1984, E RD 1346/1976", "_raw_FC_AC": "1985-07-30", "_raw_NM_AREA_M2": 5019014.2580980398, "_cam_code": "072" }, "geometry": { "type": "Polygon", "coordinates": [ [ [ -3.9136, 40.6168 ], [ -3.9141, 40.617 ], [ -3.9141, 40.6171 ], [ -3.9145, 40.6171 ], [ -3.9145, 40.617 ], [ -3.9155, 40.6167 ], [ -3.9177, 40.6166 ], [ -3.9196, 40.6167 ], [ -3.9206, 40.6164 ], [ -3.9209, 40.6169 ], [ -3.9218, 40.6164 ], [ -3.9218, 40.6163 ], [ -3.922, 40.6163 ], [ -3.922, 40.6162 ], [ -3.9237, 40.6156 ], [ -3.9267, 40.6151 ], [ -3.9267, 40.615 ], [ -3.9287, 40.6148 ], [ -3.9292, 40.6119 ], [ -3.932, 40.6114 ], [ -3.9319, 40.6113 ], [ -3.9335, 40.61 ], [ -3.9338, 40.6093 ], [ -3.9352, 40.6083 ], [ -3.9354, 40.6076 ], [ -3.935, 40.6053 ], [ -3.9353, 40.6038 ], [ -3.9355, 40.6038 ], [ -3.935, 40.6032 ], [ -3.9343, 40.6031 ], [ -3.9337, 40.6033 ], [ -3.9332, 40.6033 ], [ -3.9327, 40.6029 ], [ -3.9306, 40.6032 ], [ -3.9306, 40.6021 ], [ -3.9307, 40.6021 ], [ -3.9311, 40.5993 ], [ -3.934, 40.5993 ], [ -3.9346, 40.5992 ], [ -3.9409, 40.5994 ], [ -3.9435, 40.5976 ], [ -3.9486, 40.5975 ], [ -3.9497, 40.5965 ], [ -3.9479, 40.5961 ], [ -3.9442, 40.596 ], [ -3.9412, 40.5954 ], [ -3.9376, 40.5953 ], [ -3.9345, 40.5954 ], [ -3.9316, 40.5953 ], [ -3.9308, 40.5954 ], [ -3.9296, 40.5952 ], [ -3.9295, 40.5946 ], [ -3.9263, 40.5937 ], [ -3.9238, 40.5934 ], [ -3.919, 40.5935 ], [ -3.9194, 40.594 ], [ -3.9194, 40.5975 ], [ -3.919, 40.5994 ], [ -3.9188, 40.5998 ], [ -3.9183, 40.6001 ], [ -3.9177, 40.6007 ], [ -3.9158, 40.6014 ], [ -3.9138, 40.6014 ], [ -3.913, 40.6016 ], [ -3.9122, 40.6021 ], [ -3.912, 40.6021 ], [ -3.912, 40.6022 ], [ -3.9107, 40.603 ], [ -3.9106, 40.6032 ], [ -3.9104, 40.6032 ], [ -3.9104, 40.6033 ], [ -3.9102, 40.6033 ], [ -3.9059, 40.6053 ], [ -3.9047, 40.606 ], [ -3.9045, 40.606 ], [ -3.9042, 40.6063 ], [ -3.9043, 40.6083 ], [ -3.904, 40.6096 ], [ -3.9039, 40.6115 ], [ -3.9049, 40.6125 ], [ -3.9049, 40.6135 ], [ -3.9047, 40.6146 ], [ -3.9043, 40.615 ], [ -3.9046, 40.6154 ], [ -3.9047, 40.6161 ], [ -3.9065, 40.6163 ], [ -3.9085, 40.616 ], [ -3.9088, 40.6154 ], [ -3.9095, 40.6157 ], [ -3.9097, 40.6156 ], [ -3.9098, 40.6148 ], [ -3.9103, 40.6148 ], [ -3.9107, 40.6151 ], [ -3.9107, 40.6154 ], [ -3.9102, 40.6161 ], [ -3.9116, 40.6161 ], [ -3.9116, 40.6162 ], [ -3.9121, 40.6163 ], [ -3.9127, 40.6168 ], [ -3.9136, 40.6168 ] ] ] } },
{ "type": "Feature", "properties": { "municipio": "Hoyo de Manzanares", "clasificacion": "no-urbanizable-protegido", "calificacion": "sin-asignar", "version": "vigente", "fuente": "SIT-CAM WFS — UsoDelSuelo:VPLA_V_CLASIFICACION (https://idem.comunidad.madrid/geosrvg/ows)", "fecha_dato": "2026-05-12", "ambito": "83", "_raw_CD_SIGLAS": "SNUP", "_raw_DS_CLASIF_GEN": "Suelo No Urbanizable Protegido", "_raw_DS_CLASIF_DET": "Suelo No Urbanizable Especialmente Protegido A1. Reserva Natural Integral", "_raw_DS_DOCU": "NORMAS SUBSIDIARIAS", "_raw_DS_LEY": "CM Ley 4/1984, E RD 1346/1976", "_raw_FC_AC": "1985-07-30", "_raw_NM_AREA_M2": 11345848.1578913, "_cam_code": "072" }, "geometry": { "type": "Polygon", "coordinates": [ [ [ -3.8703, 40.6193 ], [ -3.8695, 40.6175 ], [ -3.8695, 40.6172 ], [ -3.8699, 40.6171 ], [ -3.8701, 40.6169 ], [ -3.8701, 40.6166 ], [ -3.8696, 40.6157 ], [ -3.8694, 40.614 ], [ -3.8695, 40.6127 ], [ -3.8703, 40.6106 ], [ -3.8679, 40.609 ], [ -3.8745, 40.6099 ], [ -3.875, 40.6092 ], [ -3.875, 40.609 ], [ -3.8764, 40.6066 ], [ -3.8767, 40.6063 ], [ -3.8768, 40.6059 ], [ -3.8776, 40.6045 ], [ -3.8787, 40.603 ], [ -3.8803, 40.6015 ], [ -3.8807, 40.6014 ], [ -3.8807, 40.6013 ], [ -3.8838, 40.6015 ], [ -3.8852, 40.6006 ], [ -3.8859, 40.5999 ], [ -3.8861, 40.5991 ], [ -3.886, 40.5991 ], [ -3.8859, 40.5987 ], [ -3.886, 40.5982 ], [ -3.8852, 40.5979 ], [ -3.8851, 40.5976 ], [ -3.887, 40.5956 ], [ -3.8891, 40.5952 ], [ -3.8902, 40.5952 ], [ -3.8911, 40.595 ], [ -3.8914, 40.5947 ], [ -3.8914, 40.5944 ], [ -3.8918, 40.5942 ], [ -3.8918, 40.594 ], [ -3.8921, 40.5938 ], [ -3.8922, 40.5935 ], [ -3.8925, 40.5934 ], [ -3.8925, 40.5933 ], [ -3.8932, 40.5933 ], [ -3.8939, 40.593 ], [ -3.8939, 40.5928 ], [ -3.894, 40.5928 ], [ -3.8939, 40.5921 ], [ -3.8938, 40.5921 ], [ -3.8939, 40.5916 ], [ -3.8944, 40.5915 ], [ -3.8947, 40.5912 ], [ -3.8947, 40.5909 ], [ -3.8961, 40.5896 ], [ -3.8961, 40.5894 ], [ -3.8965, 40.589 ], [ -3.8967, 40.589 ], [ -3.8971, 40.5887 ], [ -3.8975, 40.5887 ], [ -3.8975, 40.5886 ], [ -3.8901, 40.5881 ], [ -3.8856, 40.5868 ], [ -3.8844, 40.5861 ], [ -3.8836, 40.5858 ], [ -3.8837, 40.5853 ], [ -3.8835, 40.5853 ], [ -3.8808, 40.5866 ], [ -3.8783, 40.5881 ], [ -3.8769, 40.5886 ], [ -3.8761, 40.5893 ], [ -3.8762, 40.5894 ], [ -3.8762, 40.59 ], [ -3.8743, 40.5909 ], [ -3.8743, 40.591 ], [ -3.8739, 40.5912 ], [ -3.8721, 40.5913 ], [ -3.8692, 40.592 ], [ -3.8671, 40.5921 ], [ -3.866, 40.5918 ], [ -3.8654, 40.5913 ], [ -3.8649, 40.5904 ], [ -3.8635, 40.5895 ], [ -3.8613, 40.5889 ], [ -3.8602, 40.5883 ], [ -3.8589, 40.588 ], [ -3.857, 40.588 ], [ -3.856, 40.5881 ], [ -3.8554, 40.5883 ], [ -3.855, 40.588 ], [ -3.855, 40.5881 ], [ -3.8542, 40.5884 ], [ -3.8538, 40.5888 ], [ -3.852, 40.5895 ], [ -3.8512, 40.59 ], [ -3.8493, 40.5908 ], [ -3.8458, 40.5913 ], [ -3.8446, 40.592 ], [ -3.8435, 40.5924 ], [ -3.8425, 40.5926 ], [ -3.8428, 40.5941 ], [ -3.8437, 40.5973 ], [ -3.8442, 40.5995 ], [ -3.8445, 40.6018 ], [ -3.8451, 40.6039 ], [ -3.8453, 40.6063 ], [ -3.8451, 40.6122 ], [ -3.8469, 40.6114 ], [ -3.8487, 40.611 ], [ -3.8503, 40.611 ], [ -3.8511, 40.612 ], [ -3.8515, 40.6138 ], [ -3.8516, 40.615 ], [ -3.8519, 40.6158 ], [ -3.8523, 40.6178 ], [ -3.8523, 40.6189 ], [ -3.8525, 40.6203 ], [ -3.8529, 40.622 ], [ -3.8533, 40.6226 ], [ -3.8535, 40.6232 ], [ -3.854, 40.6256 ], [ -3.8545, 40.6283 ], [ -3.8546, 40.6308 ], [ -3.8552, 40.6319 ], [ -3.8561, 40.6341 ], [ -3.8567, 40.6347 ], [ -3.8568, 40.6346 ], [ -3.8563, 40.6342 ], [ -3.8563, 40.6338 ], [ -3.8565, 40.6336 ], [ -3.8587, 40.6329 ], [ -3.859, 40.6329 ], [ -3.8605, 40.6324 ], [ -3.8633, 40.6326 ], [ -3.8687, 40.6314 ], [ -3.8696, 40.6313 ], [ -3.8702, 40.6311 ], [ -3.8702, 40.6305 ], [ -3.8706, 40.6302 ], [ -3.8732, 40.6301 ], [ -3.8732, 40.63 ], [ -3.8736, 40.6299 ], [ -3.8729, 40.6297 ], [ -3.8725, 40.6292 ], [ -3.8724, 40.6287 ], [ -3.8719, 40.6282 ], [ -3.8718, 40.6279 ], [ -3.872, 40.6275 ], [ -3.8718, 40.6271 ], [ -3.8711, 40.627 ], [ -3.8706, 40.6265 ], [ -3.8705, 40.6254 ], [ -3.8709, 40.6249 ], [ -3.8712, 40.6248 ], [ -3.8711, 40.6245 ], [ -3.8714, 40.6242 ], [ -3.8714, 40.6239 ], [ -3.8687, 40.6231 ], [ -3.8676, 40.6221 ], [ -3.8675, 40.6217 ], [ -3.8669, 40.6212 ], [ -3.8667, 40.6208 ], [ -3.8667, 40.6202 ], [ -3.8671, 40.619 ], [ -3.8675, 40.6186 ], [ -3.8675, 40.6182 ], [ -3.8672, 40.6181 ], [ -3.8668, 40.6177 ], [ -3.8665, 40.6166 ], [ -3.8669, 40.6159 ], [ -3.8668, 40.6149 ], [ -3.867, 40.6147 ], [ -3.8669, 40.6141 ], [ -3.8669, 40.6113 ], [ -3.8662, 40.6091 ], [ -3.8656, 40.6088 ], [ -3.8649, 40.6089 ], [ -3.8643, 40.6088 ], [ -3.8639, 40.6085 ], [ -3.8639, 40.6081 ], [ -3.8642, 40.6077 ], [ -3.8634, 40.6066 ], [ -3.8634, 40.6062 ], [ -3.8638, 40.6057 ], [ -3.8639, 40.6051 ], [ -3.8641, 40.6049 ], [ -3.8648, 40.6047 ], [ -3.8634, 40.604 ], [ -3.8631, 40.6037 ], [ -3.8639, 40.6035 ], [ -3.8647, 40.6041 ], [ -3.8654, 40.6043 ], [ -3.8657, 40.6046 ], [ -3.8657, 40.6049 ], [ -3.8648, 40.6056 ], [ -3.8644, 40.6064 ], [ -3.8644, 40.6066 ], [ -3.8649, 40.607 ], [ -3.8651, 40.6074 ], [ -3.8648, 40.6081 ], [ -3.8658, 40.6082 ], [ -3.8669, 40.6085 ], [ -3.8673, 40.6095 ], [ -3.8677, 40.6113 ], [ -3.8678, 40.6136 ], [ -3.8678, 40.6148 ], [ -3.8676, 40.6152 ], [ -3.8678, 40.6161 ], [ -3.8677, 40.6161 ], [ -3.8677, 40.6163 ], [ -3.8674, 40.6167 ], [ -3.8676, 40.6174 ], [ -3.8681, 40.6178 ], [ -3.8684, 40.6178 ], [ -3.8683, 40.6189 ], [ -3.868, 40.6191 ], [ -3.869, 40.6193 ], [ -3.8697, 40.6192 ], [ -3.8703, 40.6193 ] ] ] } },
{ "type": "Feature", "properties": { "municipio": "Hoyo de Manzanares", "clasificacion": "no-urbanizable-protegido", "calificacion": "sin-asignar", "version": "vigente", "fuente": "SIT-CAM WFS — UsoDelSuelo:VPLA_V_CLASIFICACION (https://idem.comunidad.madrid/geosrvg/ows)", "fecha_dato": "2026-05-12", "ambito": "83", "_raw_CD_SIGLAS": "SNUP", "_raw_DS_CLASIF_GEN": "Suelo No Urbanizable Protegido", "_raw_DS_CLASIF_DET": "Suelo No Urbanizable Especialmente Protegido B1. Parque Comarcal Agropecuario Protector", "_raw_DS_DOCU": "NORMAS SUBSIDIARIAS", "_raw_DS_LEY": "CM Ley 4/1984, E RD 1346/1976", "_raw_FC_AC": "1985-07-30", "_raw_NM_AREA_M2": 538441.05705374596, "_cam_code": "072" }, "geometry": { "type": "Polygon", "coordinates": [ [ [ -3.9267, 40.6205 ], [ -3.931, 40.6212 ], [ -3.9313, 40.62 ], [ -3.9316, 40.6195 ], [ -3.9323, 40.6157 ], [ -3.9325, 40.6158 ], [ -3.9324, 40.6155 ], [ -3.9327, 40.6142 ], [ -3.9328, 40.6142 ], [ -3.9327, 40.6142 ], [ -3.9325, 40.6142 ], [ -3.9298, 40.6147 ], [ -3.9286, 40.615 ], [ -3.9271, 40.6151 ], [ -3.9244, 40.6157 ], [ -3.9239, 40.6157 ], [ -3.9239, 40.6158 ], [ -3.922, 40.6164 ], [ -3.9214, 40.6169 ], [ -3.921, 40.617 ], [ -3.9215, 40.6175 ], [ -3.9212, 40.6177 ], [ -3.9212, 40.6181 ], [ -3.9211, 40.6181 ], [ -3.9212, 40.6186 ], [ -3.9211, 40.6186 ], [ -3.9209, 40.6193 ], [ -3.9205, 40.6198 ], [ -3.9207, 40.6205 ], [ -3.9216, 40.6202 ], [ -3.9232, 40.6202 ], [ -3.9252, 40.6205 ], [ -3.9267, 40.6205 ] ] ] } },
{ "type": "Feature", "properties": { "municipio": "Hoyo de Manzanares", "clasificacion": "no-urbanizable-protegido", "calificacion": "sin-asignar", "version": "vigente", "fuente": "SIT-CAM WFS — UsoDelSuelo:VPLA_V_CLASIFICACION (https://idem.comunidad.madrid/geosrvg/ows)", "fecha_dato": "2026-05-12", "ambito": "83", "_raw_CD_SIGLAS": "SNUP", "_raw_DS_CLASIF_GEN": "Suelo No Urbanizable Protegido", "_raw_DS_CLASIF_DET": "Suelo No Urbanizable Especialmente Protegido B1. Parque Comarcal Agropecuario Protector", "_raw_DS_DOCU": "NORMAS SUBSIDIARIAS", "_raw_DS_LEY": "CM Ley 4/1984, E RD 1346/1976", "_raw_FC_AC": "1985-07-30", "_raw_NM_AREA_M2": 3755951.2807547501, "_cam_code": "072" }, "geometry": { "type": "Polygon", "coordinates": [ [ [ -3.8703, 40.6193 ], [ -3.8714, 40.6195 ], [ -3.8718, 40.6194 ], [ -3.8733, 40.6195 ], [ -3.874, 40.6193 ], [ -3.875, 40.6195 ], [ -3.877, 40.6193 ], [ -3.8777, 40.6191 ], [ -3.8786, 40.6191 ], [ -3.8796, 40.6186 ], [ -3.8807, 40.6184 ], [ -3.8811, 40.6181 ], [ -3.8817, 40.6179 ], [ -3.8843, 40.6174 ], [ -3.8845, 40.6175 ], [ -3.8851, 40.6173 ], [ -3.8852, 40.6174 ], [ -3.8853, 40.6171 ], [ -3.886, 40.6162 ], [ -3.8874, 40.6151 ], [ -3.8886, 40.6148 ], [ -3.8898, 40.6147 ], [ -3.8904, 40.6142 ], [ -3.8915, 40.6137 ], [ -3.8932, 40.6117 ], [ -3.8939, 40.6098 ], [ -3.8941, 40.6097 ], [ -3.8942, 40.6094 ], [ -3.8941, 40.6091 ], [ -3.8947, 40.6087 ], [ -3.8953, 40.6085 ], [ -3.8954, 40.6081 ], [ -3.8961, 40.6077 ], [ -3.8966, 40.6069 ], [ -3.8961, 40.6063 ], [ -3.896, 40.6054 ], [ -3.8961, 40.6037 ], [ -3.8958, 40.6033 ], [ -3.8956, 40.6025 ], [ -3.8954, 40.6022 ], [ -3.8955, 40.6012 ], [ -3.8961, 40.6009 ], [ -3.8958, 40.5993 ], [ -3.8956, 40.5991 ], [ -3.8956, 40.5989 ], [ -3.8957, 40.5987 ], [ -3.8964, 40.5984 ], [ -3.8963, 40.5968 ], [ -3.8964, 40.5952 ], [ -3.8958, 40.5949 ], [ -3.8953, 40.5944 ], [ -3.8954, 40.594 ], [ -3.8953, 40.5937 ], [ -3.8956, 40.5933 ], [ -3.8956, 40.593 ], [ -3.8958, 40.5927 ], [ -3.8958, 40.5921 ], [ -3.8961, 40.5918 ], [ -3.8963, 40.5912 ], [ -3.8951, 40.5905 ], [ -3.8947, 40.5909 ], [ -3.8947, 40.5912 ], [ -3.8944, 40.5915 ], [ -3.8939, 40.5916 ], [ -3.8938, 40.5921 ], [ -3.8939, 40.5921 ], [ -3.8939, 40.5926 ], [ -3.894, 40.5926 ], [ -3.8939, 40.593 ], [ -3.8932, 40.5933 ], [ -3.8925, 40.5933 ], [ -3.8925, 40.5934 ], [ -3.8922, 40.5935 ], [ -3.8921, 40.5938 ], [ -3.8918, 40.594 ], [ -3.8918, 40.5942 ], [ -3.8914, 40.5944 ], [ -3.8914, 40.5947 ], [ -3.8911, 40.595 ], [ -3.8902, 40.5952 ], [ -3.8891, 40.5952 ], [ -3.887, 40.5956 ], [ -3.8851, 40.5976 ], [ -3.8852, 40.5979 ], [ -3.886, 40.5982 ], [ -3.8859, 40.5987 ], [ -3.886, 40.5991 ], [ -3.8861, 40.5991 ], [ -3.8861, 40.5994 ], [ -3.8859, 40.5999 ], [ -3.8852, 40.6006 ], [ -3.8838, 40.6015 ], [ -3.8812, 40.6013 ], [ -3.8807, 40.6013 ], [ -3.8807, 40.6014 ], [ -3.8803, 40.6015 ], [ -3.8787, 40.603 ], [ -3.8776, 40.6045 ], [ -3.8768, 40.6059 ], [ -3.8767, 40.6063 ], [ -3.8764, 40.6066 ], [ -3.875, 40.609 ], [ -3.875, 40.6092 ], [ -3.8745, 40.6099 ], [ -3.8679, 40.609 ], [ -3.8703, 40.6106 ], [ -3.8694, 40.6132 ], [ -3.8696, 40.6157 ], [ -3.8701, 40.6166 ], [ -3.8701, 40.6169 ], [ -3.8699, 40.6171 ], [ -3.8695, 40.6172 ], [ -3.8695, 40.6175 ], [ -3.8703, 40.6193 ] ], [ [ -3.8922, 40.6074 ], [ -3.8926, 40.6078 ], [ -3.8926, 40.6081 ], [ -3.893, 40.6084 ], [ -3.893, 40.6087 ], [ -3.8928, 40.6089 ], [ -3.8908, 40.6099 ], [ -3.8887, 40.6106 ], [ -3.8879, 40.6107 ], [ -3.8879, 40.6106 ], [ -3.8876, 40.6106 ], [ -3.8874, 40.6104 ], [ -3.8872, 40.6094 ], [ -3.8871, 40.6094 ], [ -3.8871, 40.6087 ], [ -3.8884, 40.6083 ], [ -3.8892, 40.6084 ], [ -3.8897, 40.608 ], [ -3.8899, 40.608 ], [ -3.8899, 40.6079 ], [ -3.8911, 40.6078 ], [ -3.8915, 40.6075 ], [ -3.8922, 40.6074 ] ] ] } },
{ "type": "Feature", "properties": { "municipio": "Hoyo de Manzanares", "clasificacion": "no-urbanizable-protegido", "calificacion": "sin-asignar", "version": "vigente", "fuente": "SIT-CAM WFS — UsoDelSuelo:VPLA_V_CLASIFICACION (https://idem.comunidad.madrid/geosrvg/ows)", "fecha_dato": "2026-05-12", "ambito": "83", "_raw_CD_SIGLAS": "SNUP", "_raw_DS_CLASIF_GEN": "Suelo No Urbanizable Protegido", "_raw_DS_CLASIF_DET": "Suelo No Urbanizable Especialmente Protegido B1. Parque Comarcal Agropecuario Protector", "_raw_DS_DOCU": "NORMAS SUBSIDIARIAS", "_raw_DS_LEY": "CM Ley 4/1984, E RD 1346/1976", "_raw_FC_AC": "1985-07-30", "_raw_NM_AREA_M2": 3921691.2028511199, "_cam_code": "072" }, "geometry": { "type": "Polygon", "coordinates": [ [ [ -3.869, 40.64 ], [ -3.8751, 40.6402 ], [ -3.8756, 40.6404 ], [ -3.876, 40.6404 ], [ -3.8768, 40.6407 ], [ -3.8789, 40.6423 ], [ -3.8797, 40.6423 ], [ -3.8807, 40.6425 ], [ -3.8811, 40.643 ], [ -3.8812, 40.6435 ], [ -3.8814, 40.6436 ], [ -3.8817, 40.6441 ], [ -3.8847, 40.6441 ], [ -3.8853, 40.6447 ], [ -3.8855, 40.6451 ], [ -3.8861, 40.6452 ], [ -3.8862, 40.6451 ], [ -3.8861, 40.6429 ], [ -3.8859, 40.6423 ], [ -3.886, 40.6412 ], [ -3.8868, 40.6395 ], [ -3.8873, 40.6389 ], [ -3.8906, 40.6358 ], [ -3.8933, 40.6329 ], [ -3.8942, 40.6322 ], [ -3.8961, 40.6315 ], [ -3.8989, 40.6309 ], [ -3.8985, 40.6302 ], [ -3.8977, 40.6298 ], [ -3.8975, 40.6293 ], [ -3.8964, 40.6298 ], [ -3.8959, 40.6296 ], [ -3.8954, 40.6292 ], [ -3.8948, 40.6286 ], [ -3.8944, 40.6276 ], [ -3.8944, 40.627 ], [ -3.8943, 40.6269 ], [ -3.8949, 40.6256 ], [ -3.8966, 40.6251 ], [ -3.8964, 40.6247 ], [ -3.8965, 40.6247 ], [ -3.8967, 40.6243 ], [ -3.8971, 40.6243 ], [ -3.8971, 40.6242 ], [ -3.8972, 40.6252 ], [ -3.8978, 40.6251 ], [ -3.8981, 40.6255 ], [ -3.898, 40.6256 ], [ -3.8981, 40.6259 ], [ -3.8982, 40.626 ], [ -3.8985, 40.6259 ], [ -3.8985, 40.625 ], [ -3.8984, 40.6248 ], [ -3.8985, 40.6241 ], [ -3.8967, 40.6236 ], [ -3.8954, 40.6227 ], [ -3.8952, 40.6227 ], [ -3.8952, 40.6226 ], [ -3.8943, 40.6225 ], [ -3.8928, 40.622 ], [ -3.8921, 40.6219 ], [ -3.8913, 40.6215 ], [ -3.8888, 40.6218 ], [ -3.8886, 40.622 ], [ -3.8883, 40.622 ], [ -3.8883, 40.6221 ], [ -3.8866, 40.6229 ], [ -3.8857, 40.6231 ], [ -3.885, 40.6231 ], [ -3.8834, 40.6238 ], [ -3.877, 40.6292 ], [ -3.8759, 40.6297 ], [ -3.8736, 40.6305 ], [ -3.8732, 40.6305 ], [ -3.8732, 40.6306 ], [ -3.8708, 40.6307 ], [ -3.8708, 40.6314 ], [ -3.8707, 40.6315 ], [ -3.8692, 40.6319 ], [ -3.8633, 40.6331 ], [ -3.8605, 40.6329 ], [ -3.8569, 40.634 ], [ -3.8575, 40.6344 ], [ -3.8575, 40.6347 ], [ -3.8573, 40.6349 ], [ -3.8573, 40.6353 ], [ -3.8578, 40.6356 ], [ -3.8579, 40.6358 ], [ -3.8578, 40.6362 ], [ -3.8595, 40.6362 ], [ -3.8597, 40.6361 ], [ -3.8626, 40.6362 ], [ -3.8651, 40.6367 ], [ -3.8668, 40.6375 ], [ -3.8669, 40.6378 ], [ -3.8672, 40.6381 ], [ -3.8674, 40.6381 ], [ -3.8681, 40.6389 ], [ -3.8684, 40.6397 ], [ -3.869, 40.6399 ], [ -3.869, 40.64 ] ] ] } },
{ "type": "Feature", "properties": { "municipio": "Hoyo de Manzanares", "clasificacion": "no-urbanizable-protegido", "calificacion": "sin-asignar", "version": "vigente", "fuente": "SIT-CAM WFS — UsoDelSuelo:VPLA_V_CLASIFICACION (https://idem.comunidad.madrid/geosrvg/ows)", "fecha_dato": "2026-05-12", "ambito": "83", "_raw_CD_SIGLAS": "SNUP", "_raw_DS_CLASIF_GEN": "Suelo No Urbanizable Protegido", "_raw_DS_CLASIF_DET": "Suelo No Urbanizable Especialmente Protegido. Protecciones Especiales. Infraestructuras y Carreteras", "_raw_DS_DOCU": "NORMAS SUBSIDIARIAS", "_raw_DS_LEY": "CM Ley 4/1984, E RD 1346/1976", "_raw_FC_AC": "1985-07-30", "_raw_NM_AREA_M2": 155879.26916922501, "_cam_code": "072" }, "geometry": { "type": "Polygon", "coordinates": [ [ [ -3.9035, 40.6066 ], [ -3.9037, 40.608 ], [ -3.9036, 40.608 ], [ -3.9034, 40.6097 ], [ -3.9033, 40.6098 ], [ -3.9032, 40.6115 ], [ -3.9034, 40.6119 ], [ -3.9043, 40.6127 ], [ -3.9041, 40.6144 ], [ -3.9038, 40.6146 ], [ -3.9043, 40.615 ], [ -3.9047, 40.6146 ], [ -3.9049, 40.6135 ], [ -3.9049, 40.6125 ], [ -3.9039, 40.6115 ], [ -3.904, 40.6096 ], [ -3.9043, 40.6083 ], [ -3.9042, 40.6063 ], [ -3.9045, 40.606 ], [ -3.9047, 40.606 ], [ -3.9059, 40.6053 ], [ -3.9102, 40.6033 ], [ -3.9104, 40.6033 ], [ -3.9104, 40.6032 ], [ -3.9106, 40.6032 ], [ -3.9107, 40.603 ], [ -3.912, 40.6022 ], [ -3.912, 40.6021 ], [ -3.9122, 40.6021 ], [ -3.913, 40.6016 ], [ -3.9138, 40.6014 ], [ -3.9158, 40.6014 ], [ -3.9177, 40.6007 ], [ -3.9183, 40.6001 ], [ -3.9188, 40.5998 ], [ -3.919, 40.5994 ], [ -3.9194, 40.5975 ], [ -3.9194, 40.594 ], [ -3.9193, 40.594 ], [ -3.9191, 40.5936 ], [ -3.9168, 40.5928 ], [ -3.9162, 40.5923 ], [ -3.9159, 40.5922 ], [ -3.9164, 40.593 ], [ -3.9179, 40.5935 ], [ -3.9179, 40.5936 ], [ -3.9183, 40.5937 ], [ -3.9187, 40.5941 ], [ -3.9187, 40.5976 ], [ -3.9183, 40.5994 ], [ -3.9179, 40.5998 ], [ -3.9173, 40.6003 ], [ -3.9171, 40.6003 ], [ -3.9171, 40.6004 ], [ -3.9157, 40.6008 ], [ -3.9157, 40.6009 ], [ -3.9136, 40.6009 ], [ -3.913, 40.6011 ], [ -3.9128, 40.6014 ], [ -3.9097, 40.6033 ], [ -3.9042, 40.6059 ], [ -3.9039, 40.6061 ], [ -3.9038, 40.6069 ], [ -3.9035, 40.6066 ] ] ] } },
{ "type": "Feature", "properties": { "municipio": "Hoyo de Manzanares", "clasificacion": "no-urbanizable-protegido", "calificacion": "sin-asignar", "version": "vigente", "fuente": "SIT-CAM WFS — UsoDelSuelo:VPLA_V_CLASIFICACION (https://idem.comunidad.madrid/geosrvg/ows)", "fecha_dato": "2026-05-12", "ambito": "83", "_raw_CD_SIGLAS": "SNUP", "_raw_DS_CLASIF_GEN": "Suelo No Urbanizable Protegido", "_raw_DS_CLASIF_DET": "Protecciones Especiales. Infraestructuras y Carreteras. Vías Pecuarias", "_raw_DS_DOCU": "NORMAS SUBSIDIARIAS", "_raw_DS_LEY": "CM Ley 4/1984, E RD 1346/1976", "_raw_FC_AC": "1985-07-30", "_raw_NM_AREA_M2": 151202.34621441501, "_cam_code": "072" }, "geometry": { "type": "Polygon", "coordinates": [ [ [ -3.8752, 40.6294 ], [ -3.8732, 40.63 ], [ -3.8732, 40.6301 ], [ -3.8706, 40.6302 ], [ -3.8702, 40.6305 ], [ -3.8702, 40.6311 ], [ -3.8696, 40.6313 ], [ -3.8687, 40.6314 ], [ -3.8633, 40.6326 ], [ -3.8605, 40.6324 ], [ -3.8565, 40.6336 ], [ -3.8563, 40.6338 ], [ -3.8563, 40.6342 ], [ -3.8568, 40.6346 ], [ -3.8567, 40.6347 ], [ -3.8573, 40.6353 ], [ -3.8578, 40.6363 ], [ -3.8579, 40.636 ], [ -3.8578, 40.6356 ], [ -3.8573, 40.6353 ], [ -3.8573, 40.6349 ], [ -3.8575, 40.6347 ], [ -3.8575, 40.6344 ], [ -3.8569, 40.634 ], [ -3.8605, 40.6329 ], [ -3.8633, 40.6331 ], [ -3.8692, 40.6319 ], [ -3.8707, 40.6315 ], [ -3.8708, 40.6314 ], [ -3.8708, 40.6307 ], [ -3.8732, 40.6306 ], [ -3.8732, 40.6305 ], [ -3.8736, 40.6305 ], [ -3.8759, 40.6297 ], [ -3.877, 40.6292 ], [ -3.8825, 40.6246 ], [ -3.8827, 40.6243 ], [ -3.8826, 40.624 ], [ -3.8823, 40.624 ], [ -3.882, 40.6242 ], [ -3.8766, 40.6288 ], [ -3.8752, 40.6294 ] ] ] } },
{ "type": "Feature", "properties": { "municipio": "Hoyo de Manzanares", "clasificacion": "no-urbanizable-protegido", "calificacion": "sin-asignar", "version": "vigente", "fuente": "SIT-CAM WFS — UsoDelSuelo:VPLA_V_CLASIFICACION (https://idem.comunidad.madrid/geosrvg/ows)", "fecha_dato": "2026-05-12", "ambito": "83", "_raw_CD_SIGLAS": "SNUP", "_raw_DS_CLASIF_GEN": "Suelo No Urbanizable Protegido", "_raw_DS_CLASIF_DET": "Infraestructuras de Comunicaciones. Vías Pecuarias", "_raw_DS_DOCU": "NORMAS SUBSIDIARIAS", "_raw_DS_LEY": "CM Ley 4/1984, E RD 1346/1976", "_raw_FC_AC": "1985-07-30", "_raw_NM_AREA_M2": 475273.621016761, "_cam_code": "072" }, "geometry": { "type": "Polygon", "coordinates": [ [ [ -3.8823, 40.624 ], [ -3.8819, 40.6236 ], [ -3.8821, 40.6231 ], [ -3.883, 40.6215 ], [ -3.8834, 40.6213 ], [ -3.8843, 40.62 ], [ -3.8843, 40.6197 ], [ -3.8846, 40.6192 ], [ -3.8856, 40.6183 ], [ -3.8856, 40.6173 ], [ -3.8863, 40.6163 ], [ -3.8874, 40.6154 ], [ -3.8899, 40.6148 ], [ -3.8918, 40.6138 ], [ -3.8926, 40.613 ], [ -3.8938, 40.6113 ], [ -3.8942, 40.6098 ], [ -3.8947, 40.6089 ], [ -3.8955, 40.6086 ], [ -3.896, 40.608 ], [ -3.8968, 40.6074 ], [ -3.8974, 40.6074 ], [ -3.8973, 40.607 ], [ -3.8971, 40.607 ], [ -3.8969, 40.6065 ], [ -3.8966, 40.6062 ], [ -3.8963, 40.6047 ], [ -3.8964, 40.6042 ], [ -3.8966, 40.604 ], [ -3.8966, 40.6036 ], [ -3.8961, 40.603 ], [ -3.8961, 40.6026 ], [ -3.8958, 40.6022 ], [ -3.8958, 40.6015 ], [ -3.8963, 40.6013 ], [ -3.8966, 40.601 ], [ -3.8962, 40.5997 ], [ -3.8962, 40.5992 ], [ -3.8959, 40.599 ], [ -3.8967, 40.5987 ], [ -3.8969, 40.5979 ], [ -3.8968, 40.5973 ], [ -3.8966, 40.5971 ], [ -3.8967, 40.5965 ], [ -3.8969, 40.5965 ], [ -3.8969, 40.5954 ], [ -3.8967, 40.5949 ], [ -3.8962, 40.5946 ], [ -3.8959, 40.5946 ], [ -3.8958, 40.5934 ], [ -3.8963, 40.5929 ], [ -3.8962, 40.5922 ], [ -3.8968, 40.5914 ], [ -3.8966, 40.5909 ], [ -3.8953, 40.5903 ], [ -3.8952, 40.5905 ], [ -3.8963, 40.5912 ], [ -3.8961, 40.5918 ], [ -3.8958, 40.5921 ], [ -3.8958, 40.5927 ], [ -3.8956, 40.593 ], [ -3.8956, 40.5933 ], [ -3.8953, 40.5937 ], [ -3.8954, 40.594 ], [ -3.8953, 40.5944 ], [ -3.8958, 40.5949 ], [ -3.8964, 40.5952 ], [ -3.8963, 40.5967 ], [ -3.8964, 40.5984 ], [ -3.8957, 40.5987 ], [ -3.8956, 40.5989 ], [ -3.8956, 40.5991 ], [ -3.8958, 40.5993 ], [ -3.8961, 40.6009 ], [ -3.8955, 40.6012 ], [ -3.8954, 40.6022 ], [ -3.8956, 40.6025 ], [ -3.8958, 40.6033 ], [ -3.8961, 40.6037 ], [ -3.896, 40.6042 ], [ -3.8961, 40.6063 ], [ -3.8966, 40.6069 ], [ -3.8961, 40.6077 ], [ -3.8954, 40.6081 ], [ -3.8953, 40.6085 ], [ -3.8947, 40.6087 ], [ -3.8941, 40.6091 ], [ -3.8942, 40.6093 ], [ -3.8941, 40.6097 ], [ -3.8939, 40.6098 ], [ -3.8932, 40.6117 ], [ -3.8915, 40.6137 ], [ -3.8904, 40.6142 ], [ -3.8898, 40.6147 ], [ -3.8886, 40.6148 ], [ -3.8874, 40.6151 ], [ -3.886, 40.6162 ], [ -3.8853, 40.6171 ], [ -3.8852, 40.6174 ], [ -3.8851, 40.6173 ], [ -3.8845, 40.6175 ], [ -3.8843, 40.6174 ], [ -3.8817, 40.6179 ], [ -3.8811, 40.6181 ], [ -3.8807, 40.6184 ], [ -3.8796, 40.6186 ], [ -3.8786, 40.6191 ], [ -3.8777, 40.6191 ], [ -3.8762, 40.6194 ], [ -3.8752, 40.6194 ], [ -3.875, 40.6195 ], [ -3.874, 40.6193 ], [ -3.8733, 40.6195 ], [ -3.8718, 40.6194 ], [ -3.8714, 40.6195 ], [ -3.8697, 40.6192 ], [ -3.869, 40.6193 ], [ -3.868, 40.6191 ], [ -3.8683, 40.6189 ], [ -3.8684, 40.6178 ], [ -3.8681, 40.6178 ], [ -3.8676, 40.6174 ], [ -3.8674, 40.6167 ], [ -3.8677, 40.6163 ], [ -3.8677, 40.6161 ], [ -3.8678, 40.6161 ], [ -3.8676, 40.6152 ], [ -3.8678, 40.6148 ], [ -3.8678, 40.6136 ], [ -3.8677, 40.6113 ], [ -3.8673, 40.6095 ], [ -3.8669, 40.6085 ], [ -3.8658, 40.6082 ], [ -3.8648, 40.6081 ], [ -3.8651, 40.6074 ], [ -3.8649, 40.607 ], [ -3.8644, 40.6066 ], [ -3.8644, 40.6064 ], [ -3.8648, 40.6056 ], [ -3.8657, 40.6049 ], [ -3.8657, 40.6046 ], [ -3.8654, 40.6043 ], [ -3.8647, 40.6041 ], [ -3.8639, 40.6035 ], [ -3.8631, 40.6037 ], [ -3.8634, 40.604 ], [ -3.8648, 40.6047 ], [ -3.8641, 40.6049 ], [ -3.8639, 40.6051 ], [ -3.8638, 40.6057 ], [ -3.8634, 40.6062 ], [ -3.8634, 40.6066 ], [ -3.8642, 40.6077 ], [ -3.8639, 40.6081 ], [ -3.8639, 40.6085 ], [ -3.8643, 40.6088 ], [ -3.8649, 40.6089 ], [ -3.8656, 40.6088 ], [ -3.8662, 40.6091 ], [ -3.8669, 40.6113 ], [ -3.8669, 40.6141 ], [ -3.867, 40.6147 ], [ -3.8668, 40.6149 ], [ -3.8669, 40.6159 ], [ -3.8665, 40.6166 ], [ -3.8668, 40.6177 ], [ -3.8672, 40.6181 ], [ -3.8675, 40.6182 ], [ -3.8675, 40.6186 ], [ -3.8671, 40.619 ], [ -3.8667, 40.6202 ], [ -3.8667, 40.6208 ], [ -3.8669, 40.6212 ], [ -3.8675, 40.6217 ], [ -3.8676, 40.6221 ], [ -3.8687, 40.6231 ], [ -3.8714, 40.6239 ], [ -3.8714, 40.6242 ], [ -3.8711, 40.6245 ], [ -3.8712, 40.6248 ], [ -3.8709, 40.6249 ], [ -3.8705, 40.6254 ], [ -3.8706, 40.6265 ], [ -3.8711, 40.627 ], [ -3.8718, 40.6271 ], [ -3.872, 40.6275 ], [ -3.8718, 40.6279 ], [ -3.8719, 40.6282 ], [ -3.8724, 40.6287 ], [ -3.8725, 40.6292 ], [ -3.8728, 40.6296 ], [ -3.8731, 40.6298 ], [ -3.8736, 40.6299 ], [ -3.8742, 40.6297 ], [ -3.8734, 40.6291 ], [ -3.8729, 40.628 ], [ -3.8726, 40.6279 ], [ -3.8729, 40.6276 ], [ -3.8725, 40.6267 ], [ -3.8715, 40.6263 ], [ -3.8714, 40.6256 ], [ -3.872, 40.6249 ], [ -3.872, 40.6246 ], [ -3.8722, 40.6244 ], [ -3.8721, 40.6236 ], [ -3.8719, 40.6233 ], [ -3.8691, 40.6225 ], [ -3.8687, 40.6219 ], [ -3.8683, 40.6217 ], [ -3.8683, 40.6214 ], [ -3.8676, 40.6207 ], [ -3.8682, 40.6197 ], [ -3.8684, 40.6196 ], [ -3.8687, 40.6197 ], [ -3.8698, 40.6196 ], [ -3.8718, 40.6199 ], [ -3.8725, 40.6198 ], [ -3.8731, 40.6199 ], [ -3.8743, 40.6197 ], [ -3.8748, 40.6198 ], [ -3.877, 40.6197 ], [ -3.8789, 40.6194 ], [ -3.8799, 40.6189 ], [ -3.881, 40.6187 ], [ -3.8819, 40.6182 ], [ -3.8853, 40.6177 ], [ -3.8853, 40.6182 ], [ -3.884, 40.6195 ], [ -3.884, 40.6199 ], [ -3.8833, 40.6211 ], [ -3.883, 40.6212 ], [ -3.8827, 40.6215 ], [ -3.8815, 40.6235 ], [ -3.8815, 40.6238 ], [ -3.8818, 40.6241 ], [ -3.8821, 40.6242 ], [ -3.8823, 40.624 ] ] ] } },
{ "type": "Feature", "properties": { "municipio": "Hoyo de Manzanares", "clasificacion": "no-urbanizable-protegido", "calificacion": "sin-asignar", "version": "vigente", "fuente": "SIT-CAM WFS — UsoDelSuelo:VPLA_V_CLASIFICACION (https://idem.comunidad.madrid/geosrvg/ows)", "fecha_dato": "2026-05-12", "ambito": "83", "_raw_CD_SIGLAS": "SNUP", "_raw_DS_CLASIF_GEN": "Suelo No Urbanizable Protegido", "_raw_DS_CLASIF_DET": "Suelo No Urbanizable Especialmente Protegido B1. Parque Comarcal Agropecuario Protector", "_raw_DS_DOCU": "NORMAS SUBSIDIARIAS", "_raw_DS_LEY": "CM Ley 4/1984, E RD 1346/1976", "_raw_FC_AC": "1985-07-30", "_raw_NM_AREA_M2": 1924950.52388931, "_cam_code": "072" }, "geometry": { "type": "Polygon", "coordinates": [ [ [ -3.8966, 40.6062 ], [ -3.8971, 40.607 ], [ -3.8973, 40.607 ], [ -3.8973, 40.6067 ], [ -3.897, 40.6061 ], [ -3.8971, 40.6056 ], [ -3.8968, 40.6049 ], [ -3.8971, 40.6047 ], [ -3.897, 40.6044 ], [ -3.8971, 40.6037 ], [ -3.8964, 40.6024 ], [ -3.8974, 40.6023 ], [ -3.8982, 40.602 ], [ -3.899, 40.6022 ], [ -3.8993, 40.6021 ], [ -3.8993, 40.602 ], [ -3.8999, 40.602 ], [ -3.9007, 40.6017 ], [ -3.9013, 40.6017 ], [ -3.9014, 40.6016 ], [ -3.9033, 40.6017 ], [ -3.9034, 40.6016 ], [ -3.9041, 40.6016 ], [ -3.9041, 40.6015 ], [ -3.905, 40.6014 ], [ -3.905, 40.6013 ], [ -3.9069, 40.6014 ], [ -3.9069, 40.6013 ], [ -3.9072, 40.6013 ], [ -3.9072, 40.6012 ], [ -3.9076, 40.6011 ], [ -3.9097, 40.5997 ], [ -3.9101, 40.6003 ], [ -3.912, 40.6006 ], [ -3.9117, 40.6016 ], [ -3.9124, 40.6012 ], [ -3.9137, 40.5994 ], [ -3.9141, 40.5985 ], [ -3.9139, 40.597 ], [ -3.9147, 40.5957 ], [ -3.9152, 40.5952 ], [ -3.9154, 40.593 ], [ -3.9152, 40.5922 ], [ -3.9119, 40.5917 ], [ -3.9088, 40.5907 ], [ -3.9034, 40.5894 ], [ -3.8976, 40.5886 ], [ -3.8965, 40.589 ], [ -3.8961, 40.5894 ], [ -3.8961, 40.5896 ], [ -3.8953, 40.5903 ], [ -3.8966, 40.5909 ], [ -3.8968, 40.5914 ], [ -3.8962, 40.5922 ], [ -3.8963, 40.5929 ], [ -3.8958, 40.5934 ], [ -3.8959, 40.5946 ], [ -3.8962, 40.5946 ], [ -3.8967, 40.5949 ], [ -3.8969, 40.5954 ], [ -3.8969, 40.5965 ], [ -3.8967, 40.5965 ], [ -3.8966, 40.5971 ], [ -3.8968, 40.5973 ], [ -3.8969, 40.5977 ], [ -3.8968, 40.5985 ], [ -3.8967, 40.5987 ], [ -3.8959, 40.599 ], [ -3.8962, 40.5992 ], [ -3.8962, 40.5997 ], [ -3.8966, 40.601 ], [ -3.8963, 40.6013 ], [ -3.8958, 40.6015 ], [ -3.8958, 40.6022 ], [ -3.8961, 40.6026 ], [ -3.8961, 40.603 ], [ -3.8966, 40.6036 ], [ -3.8966, 40.604 ], [ -3.8964, 40.6042 ], [ -3.8963, 40.6047 ], [ -3.8966, 40.6062 ] ] ] } },
{ "type": "Feature", "properties": { "municipio": "Hoyo de Manzanares", "clasificacion": "no-urbanizable-protegido", "calificacion": "sin-asignar", "version": "vigente", "fuente": "SIT-CAM WFS — UsoDelSuelo:VPLA_V_CLASIFICACION (https://idem.comunidad.madrid/geosrvg/ows)", "fecha_dato": "2026-05-12", "ambito": "83", "_raw_CD_SIGLAS": "SNUP", "_raw_DS_CLASIF_GEN": "Suelo No Urbanizable Protegido", "_raw_DS_CLASIF_DET": "Suelo No Urbanizable Especialmente Protegido B1. Parque Comarcal Agropecuario Protector", "_raw_DS_DOCU": "NORMAS SUBSIDIARIAS", "_raw_DS_LEY": "CM Ley 4/1984, E RD 1346/1976", "_raw_FC_AC": "1985-07-30", "_raw_NM_AREA_M2": 1698512.85453665, "_cam_code": "072" }, "geometry": { "type": "Polygon", "coordinates": [ [ [ -3.8834, 40.6213 ], [ -3.883, 40.6215 ], [ -3.8821, 40.6231 ], [ -3.8819, 40.6236 ], [ -3.8823, 40.624 ], [ -3.8827, 40.6236 ], [ -3.8848, 40.6227 ], [ -3.8848, 40.6226 ], [ -3.8862, 40.6225 ], [ -3.8862, 40.6224 ], [ -3.8884, 40.6215 ], [ -3.8884, 40.6214 ], [ -3.8909, 40.621 ], [ -3.8914, 40.621 ], [ -3.893, 40.6216 ], [ -3.8956, 40.6222 ], [ -3.8956, 40.6223 ], [ -3.8958, 40.6223 ], [ -3.8958, 40.6224 ], [ -3.8971, 40.6232 ], [ -3.8986, 40.6236 ], [ -3.8985, 40.6233 ], [ -3.8985, 40.6209 ], [ -3.8984, 40.6209 ], [ -3.8983, 40.6203 ], [ -3.8985, 40.6203 ], [ -3.8999, 40.6191 ], [ -3.8999, 40.619 ], [ -3.8992, 40.6188 ], [ -3.8992, 40.6187 ], [ -3.9006, 40.6177 ], [ -3.8998, 40.6169 ], [ -3.9, 40.6167 ], [ -3.9009, 40.6164 ], [ -3.9015, 40.6158 ], [ -3.9014, 40.6155 ], [ -3.9013, 40.6155 ], [ -3.9029, 40.6153 ], [ -3.9021, 40.6145 ], [ -3.9019, 40.6141 ], [ -3.902, 40.614 ], [ -3.9031, 40.614 ], [ -3.9038, 40.6146 ], [ -3.9041, 40.6144 ], [ -3.9043, 40.6127 ], [ -3.9034, 40.6119 ], [ -3.9032, 40.6115 ], [ -3.9033, 40.6098 ], [ -3.9034, 40.6097 ], [ -3.9036, 40.608 ], [ -3.9037, 40.608 ], [ -3.9035, 40.6066 ], [ -3.9015, 40.6075 ], [ -3.9001, 40.6078 ], [ -3.8989, 40.6077 ], [ -3.8984, 40.6078 ], [ -3.8974, 40.6074 ], [ -3.8968, 40.6074 ], [ -3.896, 40.608 ], [ -3.8955, 40.6086 ], [ -3.8947, 40.6089 ], [ -3.8942, 40.6098 ], [ -3.8938, 40.6113 ], [ -3.8926, 40.613 ], [ -3.8918, 40.6138 ], [ -3.8899, 40.6148 ], [ -3.8874, 40.6154 ], [ -3.8863, 40.6163 ], [ -3.8856, 40.6173 ], [ -3.8856, 40.6183 ], [ -3.8846, 40.6192 ], [ -3.8843, 40.6197 ], [ -3.8843, 40.62 ], [ -3.8834, 40.6213 ] ] ] } },
{ "type": "Feature", "properties": { "municipio": "Hoyo de Manzanares", "clasificacion": "no-urbanizable-protegido", "calificacion": "sin-asignar", "version": "vigente", "fuente": "SIT-CAM WFS — UsoDelSuelo:VPLA_V_CLASIFICACION (https://idem.comunidad.madrid/geosrvg/ows)", "fecha_dato": "2026-05-12", "ambito": "83", "_raw_CD_SIGLAS": "SNUP", "_raw_DS_CLASIF_GEN": "Suelo No Urbanizable Protegido", "_raw_DS_CLASIF_DET": "Suelo No Urbanizable Especialmente Protegido B1. Parque Comarcal Agropecuario Protector", "_raw_DS_DOCU": "NORMAS SUBSIDIARIAS", "_raw_DS_LEY": "CM Ley 4/1984, E RD 1346/1976", "_raw_FC_AC": "1985-07-30", "_raw_NM_AREA_M2": 948061.10740200896, "_cam_code": "072" }, "geometry": { "type": "Polygon", "coordinates": [ [ [ -3.8676, 40.6207 ], [ -3.8683, 40.6214 ], [ -3.8683, 40.6217 ], [ -3.8687, 40.6219 ], [ -3.8691, 40.6225 ], [ -3.8719, 40.6233 ], [ -3.8722, 40.6239 ], [ -3.8722, 40.6244 ], [ -3.872, 40.6246 ], [ -3.872, 40.6249 ], [ -3.8714, 40.6256 ], [ -3.8715, 40.6263 ], [ -3.8725, 40.6267 ], [ -3.8729, 40.6276 ], [ -3.8726, 40.6279 ], [ -3.8729, 40.628 ], [ -3.8734, 40.6291 ], [ -3.8742, 40.6297 ], [ -3.8766, 40.6288 ], [ -3.8795, 40.6264 ], [ -3.8803, 40.6256 ], [ -3.8821, 40.6242 ], [ -3.8818, 40.6241 ], [ -3.8815, 40.6238 ], [ -3.8815, 40.6235 ], [ -3.8827, 40.6215 ], [ -3.883, 40.6212 ], [ -3.8833, 40.6211 ], [ -3.884, 40.6199 ], [ -3.884, 40.6195 ], [ -3.8853, 40.6182 ], [ -3.8853, 40.6177 ], [ -3.8819, 40.6182 ], [ -3.881, 40.6187 ], [ -3.8799, 40.6189 ], [ -3.8789, 40.6194 ], [ -3.877, 40.6197 ], [ -3.8755, 40.6197 ], [ -3.8752, 40.6198 ], [ -3.8743, 40.6197 ], [ -3.8731, 40.6199 ], [ -3.8725, 40.6198 ], [ -3.8718, 40.6199 ], [ -3.8698, 40.6196 ], [ -3.8694, 40.6197 ], [ -3.8684, 40.6196 ], [ -3.8679, 40.6201 ], [ -3.8676, 40.6207 ] ] ] } },
{ "type": "Feature", "properties": { "municipio": "Hoyo de Manzanares", "clasificacion": "no-urbanizable-protegido", "calificacion": "sin-asignar", "version": "vigente", "fuente": "SIT-CAM WFS — UsoDelSuelo:VPLA_V_CLASIFICACION (https://idem.comunidad.madrid/geosrvg/ows)", "fecha_dato": "2026-05-12", "ambito": "83", "_raw_CD_SIGLAS": "SNUP", "_raw_DS_CLASIF_GEN": "Suelo No Urbanizable Protegido", "_raw_DS_CLASIF_DET": "Suelo No Urbanizable Especialmente Protegido B1. Parque Comarcal Agropecuario Protector", "_raw_DS_DOCU": "NORMAS SUBSIDIARIAS", "_raw_DS_LEY": "CM Ley 4/1984, E RD 1346/1976", "_raw_FC_AC": "1985-07-30", "_raw_NM_AREA_M2": 262230.23894766002, "_cam_code": "072" }, "geometry": { "type": "Polygon", "coordinates": [ [ [ -3.9157, 40.5922 ], [ -3.9158, 40.5944 ], [ -3.9153, 40.5958 ], [ -3.9149, 40.596 ], [ -3.9147, 40.5963 ], [ -3.9145, 40.5978 ], [ -3.9146, 40.5985 ], [ -3.9141, 40.5993 ], [ -3.9134, 40.6009 ], [ -3.9132, 40.601 ], [ -3.9136, 40.6009 ], [ -3.9157, 40.6009 ], [ -3.9157, 40.6008 ], [ -3.9173, 40.6003 ], [ -3.9183, 40.5994 ], [ -3.9187, 40.5976 ], [ -3.9187, 40.5941 ], [ -3.9183, 40.5937 ], [ -3.9179, 40.5936 ], [ -3.9179, 40.5935 ], [ -3.9164, 40.593 ], [ -3.9159, 40.5922 ], [ -3.9157, 40.5922 ] ] ] } },
{ "type": "Feature", "properties": { "municipio": "Hoyo de Manzanares", "clasificacion": "no-urbanizable-protegido", "calificacion": "sin-asignar", "version": "vigente", "fuente": "SIT-CAM WFS — UsoDelSuelo:VPLA_V_CLASIFICACION (https://idem.comunidad.madrid/geosrvg/ows)", "fecha_dato": "2026-05-12", "ambito": "83", "_raw_CD_SIGLAS": "SNUP", "_raw_DS_CLASIF_GEN": "Suelo No Urbanizable Protegido", "_raw_DS_CLASIF_DET": "Infraestructuras de Comunicaciones. Vías Pecuarias", "_raw_DS_DOCU": "NORMAS SUBSIDIARIAS", "_raw_DS_LEY": "CM Ley 4/1984, E RD 1346/1976", "_raw_FC_AC": "1985-07-30", "_raw_NM_AREA_M2": 97277.126360351496, "_cam_code": "072" }, "geometry": { "type": "Polygon", "coordinates": [ [ [ -3.9039, 40.6061 ], [ -3.9097, 40.6033 ], [ -3.9128, 40.6014 ], [ -3.913, 40.6011 ], [ -3.9134, 40.6009 ], [ -3.9141, 40.5993 ], [ -3.9146, 40.5985 ], [ -3.9145, 40.5978 ], [ -3.9147, 40.5963 ], [ -3.9149, 40.596 ], [ -3.9153, 40.5958 ], [ -3.9158, 40.5944 ], [ -3.9157, 40.5922 ], [ -3.9152, 40.5922 ], [ -3.9154, 40.593 ], [ -3.9152, 40.5952 ], [ -3.9147, 40.5957 ], [ -3.9139, 40.597 ], [ -3.9141, 40.5985 ], [ -3.9137, 40.5994 ], [ -3.9124, 40.6012 ], [ -3.9118, 40.6017 ], [ -3.9116, 40.6017 ], [ -3.9096, 40.603 ], [ -3.9081, 40.6035 ], [ -3.9081, 40.6036 ], [ -3.9041, 40.6054 ], [ -3.9041, 40.6055 ], [ -3.903, 40.6061 ], [ -3.9029, 40.6063 ], [ -3.9019, 40.6067 ], [ -3.9012, 40.6073 ], [ -3.9001, 40.6076 ], [ -3.899, 40.6076 ], [ -3.8989, 40.6077 ], [ -3.9001, 40.6078 ], [ -3.9012, 40.6076 ], [ -3.9035, 40.6066 ], [ -3.9038, 40.6069 ], [ -3.9039, 40.6061 ] ] ] } },
{ "type": "Feature", "properties": { "municipio": "Hoyo de Manzanares", "clasificacion": "no-urbanizable-protegido", "calificacion": "sin-asignar", "version": "vigente", "fuente": "SIT-CAM WFS — UsoDelSuelo:VPLA_V_CLASIFICACION (https://idem.comunidad.madrid/geosrvg/ows)", "fecha_dato": "2026-05-12", "ambito": "83", "_raw_CD_SIGLAS": "SNUP", "_raw_DS_CLASIF_GEN": "Suelo No Urbanizable Protegido", "_raw_DS_CLASIF_DET": "Suelo No Urbanizable Especialmente Protegido B1. Parque Comarcal Agropecuario Protector", "_raw_DS_DOCU": "NORMAS SUBSIDIARIAS", "_raw_DS_LEY": "CM Ley 4/1984, E RD 1346/1976", "_raw_FC_AC": "1985-07-30", "_raw_NM_AREA_M2": 3340.65070931829, "_cam_code": "072" }, "geometry": { "type": "Polygon", "coordinates": [ [ [ -3.8997, 40.6076 ], [ -3.9012, 40.6073 ], [ -3.9018, 40.6068 ], [ -3.9011, 40.607 ], [ -3.9009, 40.6072 ], [ -3.8997, 40.6076 ] ] ] } },
{ "type": "Feature", "properties": { "municipio": "Hoyo de Manzanares", "clasificacion": "no-urbanizable-protegido", "calificacion": "sin-asignar", "version": "vigente", "fuente": "SIT-CAM WFS — UsoDelSuelo:VPLA_V_CLASIFICACION (https://idem.comunidad.madrid/geosrvg/ows)", "fecha_dato": "2026-05-12", "ambito": "83", "_raw_CD_SIGLAS": "SNUP", "_raw_DS_CLASIF_GEN": "Suelo No Urbanizable Protegido", "_raw_DS_CLASIF_DET": "Infraestructuras de Comunicaciones. Vías Pecuarias", "_raw_DS_DOCU": "NORMAS SUBSIDIARIAS", "_raw_DS_LEY": "CM Ley 4/1984, E RD 1346/1976", "_raw_FC_AC": "1985-07-30", "_raw_NM_AREA_M2": 173154.50561973601, "_cam_code": "072" }, "geometry": { "type": "Polygon", "coordinates": [ [ [ -3.8965, 40.6318 ], [ -3.8939, 40.6333 ], [ -3.8937, 40.6336 ], [ -3.8935, 40.6344 ], [ -3.8932, 40.6345 ], [ -3.8929, 40.635 ], [ -3.8918, 40.6357 ], [ -3.8911, 40.6364 ], [ -3.8905, 40.6365 ], [ -3.8899, 40.6373 ], [ -3.8896, 40.6374 ], [ -3.889, 40.6379 ], [ -3.8891, 40.6381 ], [ -3.893, 40.6351 ], [ -3.8957, 40.6324 ], [ -3.8963, 40.632 ], [ -3.8964, 40.6327 ], [ -3.897, 40.6332 ], [ -3.8972, 40.6336 ], [ -3.8977, 40.6341 ], [ -3.898, 40.6348 ], [ -3.8987, 40.6348 ], [ -3.9001, 40.6344 ], [ -3.9016, 40.6353 ], [ -3.9055, 40.6355 ], [ -3.9075, 40.6351 ], [ -3.9087, 40.6346 ], [ -3.9098, 40.6337 ], [ -3.9105, 40.6327 ], [ -3.9121, 40.6316 ], [ -3.9125, 40.6298 ], [ -3.9128, 40.6296 ], [ -3.9154, 40.6287 ], [ -3.9167, 40.6286 ], [ -3.9168, 40.6285 ], [ -3.9172, 40.6278 ], [ -3.9171, 40.6273 ], [ -3.9169, 40.6269 ], [ -3.9158, 40.6258 ], [ -3.9158, 40.6256 ], [ -3.9169, 40.6242 ], [ -3.9168, 40.624 ], [ -3.9159, 40.6251 ], [ -3.9153, 40.6255 ], [ -3.9149, 40.6256 ], [ -3.9149, 40.6257 ], [ -3.9153, 40.6259 ], [ -3.9157, 40.6269 ], [ -3.9161, 40.6269 ], [ -3.9165, 40.6273 ], [ -3.9167, 40.628 ], [ -3.9163, 40.6283 ], [ -3.9147, 40.6281 ], [ -3.9147, 40.6279 ], [ -3.9144, 40.6275 ], [ -3.9136, 40.6282 ], [ -3.9122, 40.6284 ], [ -3.9122, 40.6288 ], [ -3.9115, 40.6289 ], [ -3.9112, 40.6293 ], [ -3.9115, 40.6293 ], [ -3.912, 40.6309 ], [ -3.9119, 40.6313 ], [ -3.9114, 40.6319 ], [ -3.9107, 40.6321 ], [ -3.91, 40.6327 ], [ -3.9097, 40.6332 ], [ -3.9089, 40.634 ], [ -3.9085, 40.6341 ], [ -3.9083, 40.6344 ], [ -3.9075, 40.6347 ], [ -3.9073, 40.6349 ], [ -3.9067, 40.6351 ], [ -3.9061, 40.635 ], [ -3.9057, 40.6351 ], [ -3.9045, 40.635 ], [ -3.9045, 40.6351 ], [ -3.9042, 40.6351 ], [ -3.9042, 40.635 ], [ -3.9035, 40.6349 ], [ -3.9023, 40.635 ], [ -3.9012, 40.6346 ], [ -3.9001, 40.634 ], [ -3.8985, 40.6343 ], [ -3.8984, 40.6339 ], [ -3.8973, 40.633 ], [ -3.8968, 40.6321 ], [ -3.8965, 40.6318 ] ] ] } },
{ "type": "Feature", "properties": { "municipio": "Hoyo de Manzanares", "clasificacion": "no-urbanizable-protegido", "calificacion": "sin-asignar", "version": "vigente", "fuente": "SIT-CAM WFS — UsoDelSuelo:VPLA_V_CLASIFICACION (https://idem.comunidad.madrid/geosrvg/ows)", "fecha_dato": "2026-05-12", "ambito": "83", "_raw_CD_SIGLAS": "SNUP", "_raw_DS_CLASIF_GEN": "Suelo No Urbanizable Protegido", "_raw_DS_CLASIF_DET": "Suelo No Urbanizable Especialmente Protegido B1. Parque Comarcal Agropecuario Protector", "_raw_DS_DOCU": "NORMAS SUBSIDIARIAS", "_raw_DS_LEY": "CM Ley 4/1984, E RD 1346/1976", "_raw_FC_AC": "1985-07-30", "_raw_NM_AREA_M2": 21503.003662720199, "_cam_code": "072" }, "geometry": { "type": "Polygon", "coordinates": [ [ [ -3.9495, 40.5978 ], [ -3.9528, 40.5977 ], [ -3.9531, 40.5974 ], [ -3.9526, 40.5972 ], [ -3.9503, 40.5968 ], [ -3.9495, 40.5978 ] ] ] } },
{ "type": "Feature", "properties": { "municipio": "Hoyo de Manzanares", "clasificacion": "no-urbanizable-protegido", "calificacion": "sin-asignar", "version": "vigente", "fuente": "SIT-CAM WFS — UsoDelSuelo:VPLA_V_CLASIFICACION (https://idem.comunidad.madrid/geosrvg/ows)", "fecha_dato": "2026-05-12", "ambito": "83", "_raw_CD_SIGLAS": "SNUP", "_raw_DS_CLASIF_GEN": "Suelo No Urbanizable Protegido", "_raw_DS_CLASIF_DET": "Suelo No Urbanizable Especialmente Protegido A2. Reserva Natural Educativa", "_raw_DS_DOCU": "NORMAS SUBSIDIARIAS", "_raw_DS_LEY": "CM Ley 4/1984, E RD 1346/1976", "_raw_FC_AC": "1985-07-30", "_raw_NM_AREA_M2": 61831.852896215598, "_cam_code": "072" }, "geometry": { "type": "Polygon", "coordinates": [ [ [ -3.9144, 40.6275 ], [ -3.9147, 40.6279 ], [ -3.9147, 40.6281 ], [ -3.9163, 40.6283 ], [ -3.9167, 40.628 ], [ -3.9165, 40.6273 ], [ -3.9161, 40.6269 ], [ -3.9157, 40.6269 ], [ -3.9153, 40.6259 ], [ -3.9148, 40.6256 ], [ -3.9138, 40.6266 ], [ -3.9121, 40.6277 ], [ -3.9121, 40.6283 ], [ -3.9122, 40.6284 ], [ -3.9136, 40.6282 ], [ -3.9144, 40.6275 ] ] ] } },
{ "type": "Feature", "properties": { "municipio": "Hoyo de Manzanares", "clasificacion": "no-urbanizable-protegido", "calificacion": "sin-asignar", "version": "vigente", "fuente": "SIT-CAM WFS — UsoDelSuelo:VPLA_V_CLASIFICACION (https://idem.comunidad.madrid/geosrvg/ows)", "fecha_dato": "2026-05-12", "ambito": "83", "_raw_CD_SIGLAS": "SNUP", "_raw_DS_CLASIF_GEN": "Suelo No Urbanizable Protegido", "_raw_DS_CLASIF_DET": "Infraestructuras de Comunicaciones. Vías Pecuarias", "_raw_DS_DOCU": "NORMAS SUBSIDIARIAS", "_raw_DS_LEY": "CM Ley 4/1984, E RD 1346/1976", "_raw_FC_AC": "1985-07-30", "_raw_NM_AREA_M2": 36120.652521148797, "_cam_code": "072" }, "geometry": { "type": "Polygon", "coordinates": [ [ [ -3.9409, 40.5994 ], [ -3.9417, 40.5994 ], [ -3.9435, 40.5983 ], [ -3.9442, 40.598 ], [ -3.9454, 40.5978 ], [ -3.9485, 40.5977 ], [ -3.9486, 40.5978 ], [ -3.9495, 40.5978 ], [ -3.9503, 40.5968 ], [ -3.9505, 40.5968 ], [ -3.9497, 40.5965 ], [ -3.9486, 40.5975 ], [ -3.9435, 40.5976 ], [ -3.9409, 40.5994 ] ] ] } },
{ "type": "Feature", "properties": { "municipio": "Hoyo de Manzanares", "clasificacion": "no-urbanizable-protegido", "calificacion": "sin-asignar", "version": "vigente", "fuente": "SIT-CAM WFS — UsoDelSuelo:VPLA_V_CLASIFICACION (https://idem.comunidad.madrid/geosrvg/ows)", "fecha_dato": "2026-05-12", "ambito": "83", "_raw_CD_SIGLAS": "SNUP", "_raw_DS_CLASIF_GEN": "Suelo No Urbanizable Protegido", "_raw_DS_CLASIF_DET": "Suelo No Urbanizable Especialmente Protegido B1. Parque Comarcal Agropecuario Protector", "_raw_DS_DOCU": "NORMAS SUBSIDIARIAS", "_raw_DS_LEY": "CM Ley 4/1984, E RD 1346/1976", "_raw_FC_AC": "1985-07-30", "_raw_NM_AREA_M2": 41182.7332269736, "_cam_code": "072" }, "geometry": { "type": "Polygon", "coordinates": [ [ [ -3.9417, 40.5994 ], [ -3.9444, 40.5998 ], [ -3.945, 40.6 ], [ -3.9454, 40.5978 ], [ -3.9442, 40.598 ], [ -3.9435, 40.5983 ], [ -3.9417, 40.5994 ] ] ] } },
{ "type": "Feature", "properties": { "municipio": "Hoyo de Manzanares", "clasificacion": "urbano-consolidado", "calificacion": "sin-asignar", "version": "vigente", "fuente": "SIT-CAM WFS — UsoDelSuelo:VPLA_V_CLASIFICACION (https://idem.comunidad.madrid/geosrvg/ows)", "fecha_dato": "2026-05-12", "ambito": "83", "_raw_CD_SIGLAS": "SU", "_raw_DS_CLASIF_GEN": "Suelo Urbano", "_raw_DS_CLASIF_DET": "Suelo Urbano", "_raw_DS_DOCU": "NORMAS SUBSIDIARIAS", "_raw_DS_LEY": "CM Ley 4/1984, E RD 1346/1976", "_raw_FC_AC": "1985-07-30", "_raw_NM_AREA_M2": 1703311.5307072101, "_cam_code": "072" }, "geometry": { "type": "Polygon", "coordinates": [ [ [ -3.8975, 40.6293 ], [ -3.8977, 40.6298 ], [ -3.8986, 40.6303 ], [ -3.8989, 40.6309 ], [ -3.901, 40.6304 ], [ -3.9009, 40.6302 ], [ -3.901, 40.6301 ], [ -3.9021, 40.6297 ], [ -3.9025, 40.6294 ], [ -3.9023, 40.6287 ], [ -3.9033, 40.6279 ], [ -3.9028, 40.6276 ], [ -3.903, 40.6274 ], [ -3.903, 40.6272 ], [ -3.9032, 40.6272 ], [ -3.9032, 40.6265 ], [ -3.903, 40.6265 ], [ -3.9036, 40.6257 ], [ -3.9036, 40.626 ], [ -3.9039, 40.6263 ], [ -3.9043, 40.6264 ], [ -3.9043, 40.6265 ], [ -3.9052, 40.6265 ], [ -3.9069, 40.6261 ], [ -3.9075, 40.6264 ], [ -3.9075, 40.6266 ], [ -3.9076, 40.6266 ], [ -3.9075, 40.627 ], [ -3.9069, 40.6276 ], [ -3.9066, 40.6276 ], [ -3.9066, 40.6281 ], [ -3.9067, 40.6282 ], [ -3.9066, 40.629 ], [ -3.9092, 40.6295 ], [ -3.9098, 40.629 ], [ -3.9102, 40.629 ], [ -3.9112, 40.6293 ], [ -3.9115, 40.6289 ], [ -3.9122, 40.6288 ], [ -3.9121, 40.6275 ], [ -3.9118, 40.6275 ], [ -3.9118, 40.6274 ], [ -3.9117, 40.6275 ], [ -3.9114, 40.6273 ], [ -3.9103, 40.6258 ], [ -3.91, 40.6256 ], [ -3.91, 40.6254 ], [ -3.9099, 40.6254 ], [ -3.9099, 40.6239 ], [ -3.9097, 40.6234 ], [ -3.9091, 40.623 ], [ -3.9091, 40.6227 ], [ -3.9094, 40.6224 ], [ -3.9101, 40.6229 ], [ -3.9116, 40.6223 ], [ -3.9117, 40.6224 ], [ -3.9122, 40.6224 ], [ -3.9125, 40.6223 ], [ -3.9126, 40.6221 ], [ -3.9121, 40.622 ], [ -3.9118, 40.6215 ], [ -3.9125, 40.6214 ], [ -3.9128, 40.6212 ], [ -3.9137, 40.6212 ], [ -3.914, 40.6227 ], [ -3.9133, 40.6227 ], [ -3.9133, 40.6231 ], [ -3.913, 40.6236 ], [ -3.9135, 40.6242 ], [ -3.9136, 40.6247 ], [ -3.9134, 40.6247 ], [ -3.9125, 40.6252 ], [ -3.9134, 40.6253 ], [ -3.9134, 40.6254 ], [ -3.9147, 40.6254 ], [ -3.9143, 40.6251 ], [ -3.9146, 40.6249 ], [ -3.9144, 40.6246 ], [ -3.9155, 40.6241 ], [ -3.9151, 40.6237 ], [ -3.916, 40.6232 ], [ -3.9163, 40.6233 ], [ -3.9168, 40.6241 ], [ -3.9178, 40.6229 ], [ -3.9189, 40.622 ], [ -3.9203, 40.6211 ], [ -3.9204, 40.6208 ], [ -3.9207, 40.6207 ], [ -3.9205, 40.6198 ], [ -3.9209, 40.6193 ], [ -3.9211, 40.6186 ], [ -3.9212, 40.6186 ], [ -3.9211, 40.6184 ], [ -3.9212, 40.6177 ], [ -3.9215, 40.6175 ], [ -3.9209, 40.6169 ], [ -3.9206, 40.6164 ], [ -3.9196, 40.6167 ], [ -3.9191, 40.6167 ], [ -3.919, 40.6166 ], [ -3.9155, 40.6167 ], [ -3.9145, 40.617 ], [ -3.9145, 40.6171 ], [ -3.9141, 40.6171 ], [ -3.9141, 40.617 ], [ -3.9137, 40.6168 ], [ -3.9128, 40.6168 ], [ -3.9128, 40.6172 ], [ -3.9131, 40.6175 ], [ -3.9134, 40.6175 ], [ -3.9142, 40.6183 ], [ -3.9152, 40.6184 ], [ -3.9156, 40.6191 ], [ -3.9156, 40.6191 ], [ -3.9156, 40.6191 ], [ -3.9156, 40.6191 ], [ -3.9156, 40.6191 ], [ -3.9156, 40.6191 ], [ -3.9156, 40.6191 ], [ -3.9156, 40.6191 ], [ -3.9156, 40.6191 ], [ -3.9156, 40.6191 ], [ -3.9156, 40.6191 ], [ -3.9156, 40.6191 ], [ -3.9156, 40.6191 ], [ -3.9156, 40.6191 ], [ -3.9156, 40.6191 ], [ -3.9157, 40.6191 ], [ -3.9158, 40.6191 ], [ -3.9158, 40.619 ], [ -3.9158, 40.619 ], [ -3.9155, 40.6192 ], [ -3.9155, 40.6193 ], [ -3.9148, 40.6198 ], [ -3.9144, 40.6203 ], [ -3.9142, 40.6203 ], [ -3.9139, 40.62 ], [ -3.9138, 40.6196 ], [ -3.913, 40.62 ], [ -3.9127, 40.6205 ], [ -3.9116, 40.6208 ], [ -3.9116, 40.6209 ], [ -3.9111, 40.6208 ], [ -3.911, 40.6206 ], [ -3.9108, 40.6206 ], [ -3.9108, 40.6207 ], [ -3.9105, 40.6204 ], [ -3.9106, 40.62 ], [ -3.9098, 40.6207 ], [ -3.9095, 40.62 ], [ -3.9087, 40.6192 ], [ -3.9091, 40.6192 ], [ -3.9091, 40.6191 ], [ -3.9095, 40.619 ], [ -3.9106, 40.619 ], [ -3.9107, 40.6189 ], [ -3.9117, 40.619 ], [ -3.912, 40.6185 ], [ -3.9121, 40.6178 ], [ -3.9114, 40.6176 ], [ -3.9113, 40.6172 ], [ -3.9112, 40.6172 ], [ -3.9113, 40.6171 ], [ -3.9113, 40.6161 ], [ -3.9102, 40.6161 ], [ -3.9107, 40.6154 ], [ -3.9107, 40.6151 ], [ -3.9105, 40.6149 ], [ -3.9098, 40.6148 ], [ -3.9097, 40.6156 ], [ -3.9095, 40.6157 ], [ -3.9088, 40.6154 ], [ -3.9085, 40.616 ], [ -3.9065, 40.6163 ], [ -3.9052, 40.6162 ], [ -3.9047, 40.6161 ], [ -3.9046, 40.6154 ], [ -3.9033, 40.6141 ], [ -3.9031, 40.614 ], [ -3.903, 40.614 ], [ -3.9029, 40.614 ], [ -3.9028, 40.614 ], [ -3.9027, 40.614 ], [ -3.9026, 40.614 ], [ -3.9024, 40.614 ], [ -3.9023, 40.614 ], [ -3.9021, 40.614 ], [ -3.9031, 40.6141 ], [ -3.9036, 40.6149 ], [ -3.9036, 40.6153 ], [ -3.9035, 40.6153 ], [ -3.9036, 40.6164 ], [ -3.9031, 40.6162 ], [ -3.903, 40.6165 ], [ -3.9027, 40.6167 ], [ -3.9026, 40.6171 ], [ -3.9035, 40.6173 ], [ -3.9039, 40.6172 ], [ -3.9039, 40.6181 ], [ -3.9042, 40.6183 ], [ -3.9043, 40.6183 ], [ -3.9044, 40.6175 ], [ -3.9046, 40.6175 ], [ -3.906, 40.6181 ], [ -3.9065, 40.6185 ], [ -3.907, 40.6185 ], [ -3.9071, 40.6191 ], [ -3.9067, 40.6192 ], [ -3.9059, 40.6198 ], [ -3.9052, 40.6199 ], [ -3.9049, 40.6204 ], [ -3.9046, 40.6205 ], [ -3.9044, 40.6205 ], [ -3.9042, 40.6202 ], [ -3.9039, 40.6201 ], [ -3.9031, 40.6203 ], [ -3.9042, 40.6207 ], [ -3.9046, 40.6212 ], [ -3.9031, 40.6214 ], [ -3.9023, 40.6219 ], [ -3.9019, 40.6215 ], [ -3.9004, 40.6231 ], [ -3.901, 40.6238 ], [ -3.9008, 40.6239 ], [ -3.9006, 40.6238 ], [ -3.8986, 40.6238 ], [ -3.8984, 40.6245 ], [ -3.8985, 40.6259 ], [ -3.8983, 40.626 ], [ -3.8981, 40.6259 ], [ -3.898, 40.6257 ], [ -3.8981, 40.6255 ], [ -3.8978, 40.6251 ], [ -3.8972, 40.6252 ], [ -3.8971, 40.6242 ], [ -3.8971, 40.6243 ], [ -3.8967, 40.6243 ], [ -3.8965, 40.6247 ], [ -3.8964, 40.6247 ], [ -3.8966, 40.6251 ], [ -3.8949, 40.6256 ], [ -3.8943, 40.6268 ], [ -3.8944, 40.6276 ], [ -3.8948, 40.6286 ], [ -3.8961, 40.6297 ], [ -3.8965, 40.6298 ], [ -3.8975, 40.6293 ] ] ] } },
{ "type": "Feature", "properties": { "municipio": "Hoyo de Manzanares", "clasificacion": "urbano-consolidado", "calificacion": "sin-asignar", "version": "vigente", "fuente": "SIT-CAM WFS — UsoDelSuelo:VPLA_V_CLASIFICACION (https://idem.comunidad.madrid/geosrvg/ows)", "fecha_dato": "2026-05-12", "ambito": "83", "_raw_CD_SIGLAS": "SU", "_raw_DS_CLASIF_GEN": "Suelo Urbano", "_raw_DS_CLASIF_DET": "Suelo Urbano", "_raw_DS_DOCU": "NORMAS SUBSIDIARIAS", "_raw_DS_LEY": "CM Ley 4/1984, E RD 1346/1976", "_raw_FC_AC": "1985-07-30", "_raw_NM_AREA_M2": 69831.833263242894, "_cam_code": "072" }, "geometry": { "type": "Polygon", "coordinates": [ [ [ -3.9076, 40.6011 ], [ -3.9092, 40.6024 ], [ -3.9096, 40.603 ], [ -3.9116, 40.6017 ], [ -3.9118, 40.6017 ], [ -3.9117, 40.6016 ], [ -3.912, 40.6006 ], [ -3.9101, 40.6003 ], [ -3.9097, 40.5997 ], [ -3.9076, 40.6011 ] ] ] } },
{ "type": "Feature", "properties": { "municipio": "Hoyo de Manzanares", "clasificacion": "urbano-consolidado", "calificacion": "sin-asignar", "version": "vigente", "fuente": "SIT-CAM WFS — UsoDelSuelo:VPLA_V_CLASIFICACION (https://idem.comunidad.madrid/geosrvg/ows)", "fecha_dato": "2026-05-12", "ambito": "83", "_raw_CD_SIGLAS": "SU", "_raw_DS_CLASIF_GEN": "Suelo Urbano", "_raw_DS_CLASIF_DET": "Suelo Urbano", "_raw_DS_DOCU": "NORMAS SUBSIDIARIAS", "_raw_DS_LEY": "CM Ley 4/1984, E RD 1346/1976", "_raw_FC_AC": "1985-07-30", "_raw_NM_AREA_M2": 388973.84782282898, "_cam_code": "072" }, "geometry": { "type": "Polygon", "coordinates": [ [ [ -3.8971, 40.6037 ], [ -3.8971, 40.6039 ], [ -3.897, 40.6039 ], [ -3.8971, 40.6047 ], [ -3.8968, 40.6049 ], [ -3.8971, 40.6056 ], [ -3.897, 40.6061 ], [ -3.8973, 40.6067 ], [ -3.8973, 40.6071 ], [ -3.8975, 40.6075 ], [ -3.8981, 40.6076 ], [ -3.8981, 40.6077 ], [ -3.8984, 40.6078 ], [ -3.9009, 40.6072 ], [ -3.9011, 40.607 ], [ -3.9029, 40.6063 ], [ -3.903, 40.6061 ], [ -3.9041, 40.6055 ], [ -3.9041, 40.6054 ], [ -3.9081, 40.6036 ], [ -3.9077, 40.6036 ], [ -3.9065, 40.6031 ], [ -3.905, 40.6031 ], [ -3.9047, 40.603 ], [ -3.9038, 40.6025 ], [ -3.9039, 40.6024 ], [ -3.9037, 40.6023 ], [ -3.9038, 40.6019 ], [ -3.9036, 40.6018 ], [ -3.9036, 40.6016 ], [ -3.9033, 40.6017 ], [ -3.9014, 40.6016 ], [ -3.9013, 40.6017 ], [ -3.9007, 40.6017 ], [ -3.8999, 40.602 ], [ -3.8993, 40.602 ], [ -3.8993, 40.6021 ], [ -3.899, 40.6022 ], [ -3.8982, 40.602 ], [ -3.8974, 40.6023 ], [ -3.8964, 40.6024 ], [ -3.8971, 40.6037 ] ] ] } },
{ "type": "Feature", "properties": { "municipio": "Hoyo de Manzanares", "clasificacion": "urbano-consolidado", "calificacion": "sin-asignar", "version": "vigente", "fuente": "SIT-CAM WFS — UsoDelSuelo:VPLA_V_CLASIFICACION (https://idem.comunidad.madrid/geosrvg/ows)", "fecha_dato": "2026-05-12", "ambito": "83", "_raw_CD_SIGLAS": "SU", "_raw_DS_CLASIF_GEN": "Suelo Urbano", "_raw_DS_CLASIF_DET": "Suelo Urbano", "_raw_DS_DOCU": "NORMAS SUBSIDIARIAS", "_raw_DS_LEY": "CM Ley 4/1984, E RD 1346/1976", "_raw_FC_AC": "1985-07-30", "_raw_NM_AREA_M2": 2037341.4619227301, "_cam_code": "072" }, "geometry": { "type": "Polygon", "coordinates": [ [ [ -3.9328, 40.6142 ], [ -3.9327, 40.6142 ], [ -3.9324, 40.6155 ], [ -3.9325, 40.6158 ], [ -3.9335, 40.6161 ], [ -3.9337, 40.6163 ], [ -3.9342, 40.6163 ], [ -3.9342, 40.6164 ], [ -3.9345, 40.6165 ], [ -3.9351, 40.6166 ], [ -3.9353, 40.6169 ], [ -3.9359, 40.617 ], [ -3.9359, 40.6171 ], [ -3.9367, 40.6173 ], [ -3.9367, 40.6174 ], [ -3.937, 40.6175 ], [ -3.9393, 40.6127 ], [ -3.94, 40.6126 ], [ -3.9416, 40.6129 ], [ -3.9422, 40.6134 ], [ -3.9431, 40.6135 ], [ -3.9442, 40.6139 ], [ -3.9445, 40.6139 ], [ -3.9449, 40.6129 ], [ -3.9467, 40.6108 ], [ -3.9471, 40.6089 ], [ -3.9471, 40.6081 ], [ -3.9487, 40.605 ], [ -3.9492, 40.6036 ], [ -3.9472, 40.6041 ], [ -3.9464, 40.604 ], [ -3.9457, 40.6043 ], [ -3.945, 40.6035 ], [ -3.9444, 40.6041 ], [ -3.944, 40.6043 ], [ -3.9429, 40.6044 ], [ -3.9441, 40.6019 ], [ -3.9449, 40.602 ], [ -3.9465, 40.6018 ], [ -3.9474, 40.602 ], [ -3.9489, 40.5993 ], [ -3.9491, 40.5987 ], [ -3.9492, 40.5987 ], [ -3.9495, 40.5978 ], [ -3.9486, 40.5978 ], [ -3.9486, 40.5977 ], [ -3.9454, 40.5978 ], [ -3.945, 40.6 ], [ -3.9419, 40.5994 ], [ -3.9402, 40.5993 ], [ -3.9354, 40.5993 ], [ -3.9346, 40.5992 ], [ -3.934, 40.5993 ], [ -3.9311, 40.5993 ], [ -3.9307, 40.6021 ], [ -3.9306, 40.6021 ], [ -3.9306, 40.6032 ], [ -3.9311, 40.6032 ], [ -3.9311, 40.6031 ], [ -3.9324, 40.6029 ], [ -3.9327, 40.6029 ], [ -3.9332, 40.6033 ], [ -3.9347, 40.6031 ], [ -3.9347, 40.6032 ], [ -3.9351, 40.6033 ], [ -3.9356, 40.604 ], [ -3.9365, 40.6043 ], [ -3.9368, 40.6047 ], [ -3.9368, 40.605 ], [ -3.9367, 40.605 ], [ -3.9367, 40.6052 ], [ -3.9365, 40.6054 ], [ -3.9354, 40.6057 ], [ -3.9352, 40.6059 ], [ -3.9352, 40.6062 ], [ -3.9357, 40.6066 ], [ -3.9361, 40.6072 ], [ -3.936, 40.6086 ], [ -3.9357, 40.609 ], [ -3.9349, 40.6093 ], [ -3.9345, 40.6097 ], [ -3.9338, 40.61 ], [ -3.9334, 40.6106 ], [ -3.9328, 40.6108 ], [ -3.9328, 40.6109 ], [ -3.932, 40.6113 ], [ -3.932, 40.6114 ], [ -3.9292, 40.6119 ], [ -3.9287, 40.6149 ], [ -3.9327, 40.6141 ], [ -3.9328, 40.6142 ] ] ] } },
{ "type": "Feature", "properties": { "municipio": "Hoyo de Manzanares", "clasificacion": "urbano-consolidado", "calificacion": "sin-asignar", "version": "vigente", "fuente": "SIT-CAM WFS — UsoDelSuelo:VPLA_V_CLASIFICACION (https://idem.comunidad.madrid/geosrvg/ows)", "fecha_dato": "2026-05-12", "ambito": "83", "_raw_CD_SIGLAS": "SU", "_raw_DS_CLASIF_GEN": "Suelo Urbano", "_raw_DS_CLASIF_DET": "Suelo Urbano", "_raw_DS_DOCU": "NORMAS SUBSIDIARIAS", "_raw_DS_LEY": "CM Ley 4/1984, E RD 1346/1976", "_raw_FC_AC": "1985-07-30", "_raw_NM_AREA_M2": 37869.563448308298, "_cam_code": "072" }, "geometry": { "type": "Polygon", "coordinates": [ [ [ -3.9015, 40.6186 ], [ -3.9029, 40.6184 ], [ -3.9026, 40.6175 ], [ -3.9026, 40.6171 ], [ -3.901, 40.6164 ], [ -3.9, 40.6167 ], [ -3.8998, 40.6169 ], [ -3.8999, 40.6169 ], [ -3.9, 40.6172 ], [ -3.9015, 40.6186 ] ] ] } },
{ "type": "Feature", "properties": { "municipio": "Hoyo de Manzanares", "clasificacion": "urbanizable-no-sectorizado", "calificacion": "sin-asignar", "version": "vigente", "fuente": "SIT-CAM WFS — UsoDelSuelo:VPLA_V_CLASIFICACION (https://idem.comunidad.madrid/geosrvg/ows)", "fecha_dato": "2026-05-12", "ambito": "83", "_raw_CD_SIGLAS": "SUBNS", "_raw_DS_CLASIF_GEN": "Suelo No Urbanizable Común", "_raw_DS_CLASIF_DET": "Suelo No Urbanizable Común", "_raw_DS_DOCU": "NORMAS SUBSIDIARIAS", "_raw_DS_LEY": "CM Ley 4/1984, E RD 1346/1976", "_raw_FC_AC": "1985-07-30", "_raw_NM_AREA_M2": 248219.505444676, "_cam_code": "072" }, "geometry": { "type": "Polygon", "coordinates": [ [ [ -3.937, 40.6175 ], [ -3.9372, 40.6177 ], [ -3.9381, 40.6179 ], [ -3.9381, 40.618 ], [ -3.9394, 40.618 ], [ -3.9402, 40.6179 ], [ -3.9404, 40.6177 ], [ -3.9407, 40.6177 ], [ -3.9407, 40.6176 ], [ -3.9425, 40.6175 ], [ -3.9432, 40.6166 ], [ -3.9442, 40.6148 ], [ -3.9445, 40.6139 ], [ -3.9442, 40.6139 ], [ -3.9431, 40.6135 ], [ -3.9422, 40.6134 ], [ -3.9416, 40.6129 ], [ -3.94, 40.6126 ], [ -3.9393, 40.6127 ], [ -3.937, 40.6175 ] ] ] } },
{ "type": "Feature", "properties": { "municipio": "Hoyo de Manzanares", "clasificacion": "urbanizable-sectorizado", "calificacion": "sin-asignar", "version": "vigente", "fuente": "SIT-CAM WFS — UsoDelSuelo:VPLA_V_CLASIFICACION (https://idem.comunidad.madrid/geosrvg/ows)", "fecha_dato": "2026-05-12", "ambito": "83", "_raw_CD_SIGLAS": "SUBS", "_raw_DS_CLASIF_GEN": "Suelo Urbanizable", "_raw_DS_CLASIF_DET": "Suelo Urbanizable", "_raw_DS_DOCU": "NORMAS SUBSIDIARIAS", "_raw_DS_LEY": "CM Ley 4/1984, E RD 1346/1976", "_raw_FC_AC": "1985-07-30", "_raw_NM_AREA_M2": 90540.743497122006, "_cam_code": "072" }, "geometry": { "type": "Polygon", "coordinates": [ [ [ -3.903, 40.6274 ], [ -3.9028, 40.6276 ], [ -3.9033, 40.6279 ], [ -3.9023, 40.6287 ], [ -3.9024, 40.6293 ], [ -3.9034, 40.6298 ], [ -3.9043, 40.6293 ], [ -3.9044, 40.6291 ], [ -3.9043, 40.6291 ], [ -3.9043, 40.6287 ], [ -3.9046, 40.6286 ], [ -3.9041, 40.6283 ], [ -3.9058, 40.6279 ], [ -3.9063, 40.6277 ], [ -3.9063, 40.6276 ], [ -3.9069, 40.6276 ], [ -3.9075, 40.627 ], [ -3.9076, 40.6266 ], [ -3.9075, 40.6266 ], [ -3.9074, 40.6263 ], [ -3.9069, 40.6261 ], [ -3.9052, 40.6265 ], [ -3.9043, 40.6265 ], [ -3.9043, 40.6264 ], [ -3.9039, 40.6263 ], [ -3.9036, 40.626 ], [ -3.9036, 40.6257 ], [ -3.903, 40.6265 ], [ -3.9032, 40.6265 ], [ -3.9032, 40.6272 ], [ -3.903, 40.6272 ], [ -3.903, 40.6274 ] ] ] } },
{ "type": "Feature", "properties": { "municipio": "Hoyo de Manzanares", "clasificacion": "urbanizable-sectorizado", "calificacion": "sin-asignar", "version": "vigente", "fuente": "SIT-CAM WFS — UsoDelSuelo:VPLA_V_CLASIFICACION (https://idem.comunidad.madrid/geosrvg/ows)", "fecha_dato": "2026-05-12", "ambito": "83", "_raw_CD_SIGLAS": "SUBS", "_raw_DS_CLASIF_GEN": "Suelo Urbanizable", "_raw_DS_CLASIF_DET": "Suelo Urbanizable", "_raw_DS_DOCU": "NORMAS SUBSIDIARIAS", "_raw_DS_LEY": "CM Ley 4/1984, E RD 1346/1976", "_raw_FC_AC": "1985-07-30", "_raw_NM_AREA_M2": 204946.242825414, "_cam_code": "072" }, "geometry": { "type": "Polygon", "coordinates": [ [ [ -3.9121, 40.6275 ], [ -3.9121, 40.6277 ], [ -3.9124, 40.6276 ], [ -3.9138, 40.6266 ], [ -3.9148, 40.6256 ], [ -3.9153, 40.6255 ], [ -3.9159, 40.6251 ], [ -3.9168, 40.6241 ], [ -3.9163, 40.6233 ], [ -3.916, 40.6232 ], [ -3.9151, 40.6237 ], [ -3.9155, 40.6241 ], [ -3.9144, 40.6246 ], [ -3.9146, 40.6249 ], [ -3.9143, 40.6251 ], [ -3.9147, 40.6254 ], [ -3.9134, 40.6254 ], [ -3.9134, 40.6253 ], [ -3.9125, 40.6252 ], [ -3.9134, 40.6247 ], [ -3.9136, 40.6247 ], [ -3.9135, 40.6242 ], [ -3.913, 40.6236 ], [ -3.9133, 40.6231 ], [ -3.9133, 40.6227 ], [ -3.914, 40.6227 ], [ -3.9137, 40.6212 ], [ -3.9128, 40.6212 ], [ -3.9125, 40.6214 ], [ -3.9118, 40.6215 ], [ -3.9121, 40.622 ], [ -3.9126, 40.6221 ], [ -3.9125, 40.6223 ], [ -3.9122, 40.6224 ], [ -3.9117, 40.6224 ], [ -3.9116, 40.6223 ], [ -3.9101, 40.6229 ], [ -3.9094, 40.6224 ], [ -3.9091, 40.6227 ], [ -3.9091, 40.623 ], [ -3.9097, 40.6234 ], [ -3.9099, 40.6239 ], [ -3.9099, 40.6254 ], [ -3.91, 40.6254 ], [ -3.91, 40.6256 ], [ -3.9103, 40.6258 ], [ -3.9114, 40.6273 ], [ -3.9117, 40.6275 ], [ -3.9118, 40.6274 ], [ -3.9118, 40.6275 ], [ -3.9121, 40.6275 ] ] ] } },
{ "type": "Feature", "properties": { "municipio": "Hoyo de Manzanares", "clasificacion": "urbanizable-sectorizado", "calificacion": "sin-asignar", "version": "vigente", "fuente": "SIT-CAM WFS — UsoDelSuelo:VPLA_V_CLASIFICACION (https://idem.comunidad.madrid/geosrvg/ows)", "fecha_dato": "2026-05-12", "ambito": "83", "_raw_CD_SIGLAS": "SUBS", "_raw_DS_CLASIF_GEN": "Suelo Urbanizable", "_raw_DS_CLASIF_DET": "Suelo Urbanizable", "_raw_DS_DOCU": "NORMAS SUBSIDIARIAS", "_raw_DS_LEY": "CM Ley 4/1984, E RD 1346/1976", "_raw_FC_AC": "1985-07-30", "_raw_NM_AREA_M2": 270129.91887793201, "_cam_code": "072" }, "geometry": { "type": "Polygon", "coordinates": [ [ [ -3.8985, 40.6233 ], [ -3.8987, 40.6238 ], [ -3.9006, 40.6238 ], [ -3.9008, 40.6239 ], [ -3.901, 40.6238 ], [ -3.9004, 40.6231 ], [ -3.9019, 40.6215 ], [ -3.9023, 40.6219 ], [ -3.9031, 40.6214 ], [ -3.9046, 40.6212 ], [ -3.9042, 40.6207 ], [ -3.9031, 40.6203 ], [ -3.9039, 40.6201 ], [ -3.9042, 40.6202 ], [ -3.9044, 40.6205 ], [ -3.9049, 40.6204 ], [ -3.9052, 40.6199 ], [ -3.9059, 40.6198 ], [ -3.9067, 40.6192 ], [ -3.9071, 40.6191 ], [ -3.907, 40.6185 ], [ -3.9065, 40.6185 ], [ -3.906, 40.6181 ], [ -3.9046, 40.6175 ], [ -3.9044, 40.6175 ], [ -3.9043, 40.6183 ], [ -3.9042, 40.6183 ], [ -3.9039, 40.6181 ], [ -3.9039, 40.6172 ], [ -3.9035, 40.6173 ], [ -3.9026, 40.6171 ], [ -3.9026, 40.6175 ], [ -3.9029, 40.6184 ], [ -3.9025, 40.6185 ], [ -3.9015, 40.6186 ], [ -3.9006, 40.6177 ], [ -3.9004, 40.6178 ], [ -3.9003, 40.618 ], [ -3.8992, 40.6187 ], [ -3.8992, 40.6188 ], [ -3.8999, 40.619 ], [ -3.8999, 40.6191 ], [ -3.8985, 40.6203 ], [ -3.8983, 40.6203 ], [ -3.8984, 40.6209 ], [ -3.8985, 40.6209 ], [ -3.8985, 40.6233 ] ] ] } },
{ "type": "Feature", "properties": { "municipio": "Hoyo de Manzanares", "clasificacion": "urbanizable-sectorizado", "calificacion": "sin-asignar", "version": "vigente", "fuente": "SIT-CAM WFS — UsoDelSuelo:VPLA_V_CLASIFICACION (https://idem.comunidad.madrid/geosrvg/ows)", "fecha_dato": "2026-05-12", "ambito": "83", "_raw_CD_SIGLAS": "SUBS", "_raw_DS_CLASIF_GEN": "Suelo Urbanizable", "_raw_DS_CLASIF_DET": "Suelo Urbanizable", "_raw_DS_DOCU": "NORMAS SUBSIDIARIAS", "_raw_DS_LEY": "CM Ley 4/1984, E RD 1346/1976", "_raw_FC_AC": "1985-07-30", "_raw_NM_AREA_M2": 129053.984770929, "_cam_code": "072" }, "geometry": { "type": "Polygon", "coordinates": [ [ [ -3.9112, 40.6208 ], [ -3.9116, 40.6209 ], [ -3.9116, 40.6208 ], [ -3.9127, 40.6205 ], [ -3.913, 40.62 ], [ -3.9138, 40.6196 ], [ -3.9139, 40.62 ], [ -3.9142, 40.6203 ], [ -3.9144, 40.6203 ], [ -3.9148, 40.6198 ], [ -3.9155, 40.6193 ], [ -3.9155, 40.6192 ], [ -3.9158, 40.619 ], [ -3.9158, 40.6191 ], [ -3.9158, 40.6191 ], [ -3.9158, 40.6191 ], [ -3.9158, 40.6191 ], [ -3.9158, 40.6191 ], [ -3.9158, 40.6191 ], [ -3.9158, 40.6191 ], [ -3.9158, 40.6191 ], [ -3.9158, 40.6191 ], [ -3.9158, 40.6191 ], [ -3.9158, 40.6191 ], [ -3.9158, 40.6191 ], [ -3.9158, 40.6191 ], [ -3.9158, 40.6191 ], [ -3.9158, 40.6191 ], [ -3.9158, 40.6191 ], [ -3.9158, 40.6191 ], [ -3.9158, 40.6191 ], [ -3.9158, 40.6191 ], [ -3.9158, 40.6191 ], [ -3.9158, 40.6191 ], [ -3.9158, 40.6191 ], [ -3.9158, 40.6191 ], [ -3.9157, 40.6191 ], [ -3.9157, 40.6191 ], [ -3.9157, 40.6191 ], [ -3.9157, 40.6191 ], [ -3.9157, 40.6191 ], [ -3.9157, 40.6191 ], [ -3.9157, 40.6191 ], [ -3.9157, 40.6191 ], [ -3.9157, 40.6191 ], [ -3.9157, 40.6191 ], [ -3.9157, 40.6191 ], [ -3.9157, 40.6191 ], [ -3.9157, 40.6191 ], [ -3.9157, 40.6191 ], [ -3.9157, 40.6191 ], [ -3.9157, 40.6191 ], [ -3.9157, 40.6191 ], [ -3.9157, 40.6191 ], [ -3.9157, 40.6191 ], [ -3.9157, 40.6191 ], [ -3.9157, 40.6191 ], [ -3.9157, 40.6191 ], [ -3.9157, 40.6191 ], [ -3.9157, 40.6191 ], [ -3.9157, 40.6191 ], [ -3.9157, 40.6191 ], [ -3.9157, 40.6191 ], [ -3.9157, 40.6191 ], [ -3.9157, 40.6191 ], [ -3.9157, 40.6191 ], [ -3.9157, 40.6191 ], [ -3.9157, 40.6191 ], [ -3.9157, 40.6191 ], [ -3.9157, 40.6191 ], [ -3.9157, 40.6191 ], [ -3.9157, 40.6191 ], [ -3.9157, 40.6191 ], [ -3.9157, 40.6191 ], [ -3.9157, 40.6191 ], [ -3.9157, 40.6191 ], [ -3.9157, 40.6191 ], [ -3.9156, 40.6191 ], [ -3.9152, 40.6184 ], [ -3.9142, 40.6183 ], [ -3.9134, 40.6175 ], [ -3.9131, 40.6175 ], [ -3.9128, 40.6172 ], [ -3.9128, 40.6168 ], [ -3.9121, 40.6164 ], [ -3.9121, 40.6163 ], [ -3.9119, 40.6163 ], [ -3.9119, 40.6162 ], [ -3.9113, 40.6161 ], [ -3.9113, 40.6171 ], [ -3.9112, 40.6172 ], [ -3.9113, 40.6172 ], [ -3.9114, 40.6176 ], [ -3.9121, 40.6178 ], [ -3.912, 40.6185 ], [ -3.9117, 40.619 ], [ -3.9107, 40.6189 ], [ -3.9106, 40.619 ], [ -3.9095, 40.619 ], [ -3.9091, 40.6191 ], [ -3.9091, 40.6192 ], [ -3.9087, 40.6192 ], [ -3.9095, 40.62 ], [ -3.9098, 40.6207 ], [ -3.9106, 40.62 ], [ -3.9105, 40.6204 ], [ -3.9108, 40.6207 ], [ -3.9108, 40.6206 ], [ -3.911, 40.6206 ], [ -3.9112, 40.6208 ] ] ] } },
{ "type": "Feature", "properties": { "municipio": "Hoyo de Manzanares", "clasificacion": "urbanizable-sectorizado", "calificacion": "sin-asignar", "version": "vigente", "fuente": "SIT-CAM WFS — UsoDelSuelo:VPLA_V_CLASIFICACION (https://idem.comunidad.madrid/geosrvg/ows)", "fecha_dato": "2026-05-12", "ambito": "83", "_raw_CD_SIGLAS": "SUBS", "_raw_DS_CLASIF_GEN": "Suelo Urbanizable", "_raw_DS_CLASIF_DET": "Suelo Urbanizable", "_raw_DS_DOCU": "NORMAS SUBSIDIARIAS", "_raw_DS_LEY": "CM Ley 4/1984, E RD 1346/1976", "_raw_FC_AC": "1985-07-30", "_raw_NM_AREA_M2": 41233.635613406703, "_cam_code": "072" }, "geometry": { "type": "Polygon", "coordinates": [ [ [ -3.9015, 40.6158 ], [ -3.9009, 40.6164 ], [ -3.9026, 40.6171 ], [ -3.9027, 40.6167 ], [ -3.903, 40.6165 ], [ -3.9031, 40.6162 ], [ -3.9036, 40.6164 ], [ -3.9035, 40.6157 ], [ -3.9036, 40.6149 ], [ -3.9033, 40.6143 ], [ -3.9029, 40.614 ], [ -3.902, 40.614 ], [ -3.9019, 40.6141 ], [ -3.9021, 40.6145 ], [ -3.9029, 40.6153 ], [ -3.9013, 40.6155 ], [ -3.9014, 40.6155 ], [ -3.9015, 40.6158 ] ] ] } },
{ "type": "Feature", "properties": { "municipio": "Hoyo de Manzanares", "clasificacion": "urbanizable-sectorizado", "calificacion": "sin-asignar", "version": "vigente", "fuente": "SIT-CAM WFS — UsoDelSuelo:VPLA_V_CLASIFICACION (https://idem.comunidad.madrid/geosrvg/ows)", "fecha_dato": "2026-05-12", "ambito": "83", "_raw_CD_SIGLAS": "SUBS", "_raw_DS_CLASIF_GEN": "Suelo Urbanizable", "_raw_DS_CLASIF_DET": "Suelo Urbanizable", "_raw_DS_DOCU": "NORMAS SUBSIDIARIAS", "_raw_DS_LEY": "CM Ley 4/1984, E RD 1346/1976", "_raw_FC_AC": "1985-07-30", "_raw_NM_AREA_M2": 105064.83934577501, "_cam_code": "072" }, "geometry": { "type": "Polygon", "coordinates": [ [ [ -3.8884, 40.6083 ], [ -3.8871, 40.6087 ], [ -3.8871, 40.6094 ], [ -3.8872, 40.6094 ], [ -3.8873, 40.6102 ], [ -3.8876, 40.6106 ], [ -3.8881, 40.6107 ], [ -3.8881, 40.6106 ], [ -3.8887, 40.6106 ], [ -3.8897, 40.6103 ], [ -3.8897, 40.6102 ], [ -3.8903, 40.6101 ], [ -3.8919, 40.6094 ], [ -3.8928, 40.6089 ], [ -3.893, 40.6087 ], [ -3.893, 40.6084 ], [ -3.8926, 40.6081 ], [ -3.8926, 40.6078 ], [ -3.8922, 40.6074 ], [ -3.8915, 40.6075 ], [ -3.8911, 40.6078 ], [ -3.8899, 40.6079 ], [ -3.8899, 40.608 ], [ -3.8897, 40.608 ], [ -3.8892, 40.6084 ], [ -3.8884, 40.6083 ] ] ] } },
{ "type": "Feature", "properties": { "municipio": "Hoyo de Manzanares", "clasificacion": "urbanizable-sectorizado", "calificacion": "sin-asignar", "version": "vigente", "fuente": "SIT-CAM WFS — UsoDelSuelo:VPLA_V_CLASIFICACION (https://idem.comunidad.madrid/geosrvg/ows)", "fecha_dato": "2026-05-12", "ambito": "83", "_raw_CD_SIGLAS": "SUBS", "_raw_DS_CLASIF_GEN": "Suelo Urbanizable", "_raw_DS_CLASIF_DET": "Suelo Urbanizable", "_raw_DS_DOCU": "NORMAS SUBSIDIARIAS", "_raw_DS_LEY": "CM Ley 4/1984, E RD 1346/1976", "_raw_FC_AC": "1985-07-30", "_raw_NM_AREA_M2": 212666.42962471399, "_cam_code": "072" }, "geometry": { "type": "Polygon", "coordinates": [ [ [ -3.9429, 40.6044 ], [ -3.944, 40.6043 ], [ -3.9444, 40.6041 ], [ -3.945, 40.6035 ], [ -3.9457, 40.6043 ], [ -3.9464, 40.604 ], [ -3.9472, 40.6041 ], [ -3.9492, 40.6036 ], [ -3.9505, 40.6003 ], [ -3.9527, 40.5977 ], [ -3.9495, 40.5978 ], [ -3.9492, 40.5987 ], [ -3.9491, 40.5987 ], [ -3.9489, 40.5993 ], [ -3.9474, 40.602 ], [ -3.9465, 40.6018 ], [ -3.9449, 40.602 ], [ -3.9441, 40.6019 ], [ -3.9429, 40.6044 ] ] ] } },
{ "type": "Feature", "properties": { "municipio": "Hoyo de Manzanares", "clasificacion": "urbanizable-sectorizado", "calificacion": "sin-asignar", "version": "vigente", "fuente": "SIT-CAM WFS — UsoDelSuelo:VPLA_V_CLASIFICACION (https://idem.comunidad.madrid/geosrvg/ows)", "fecha_dato": "2026-05-12", "ambito": "83", "_raw_CD_SIGLAS": "SUBS", "_raw_DS_CLASIF_GEN": "Suelo Urbanizable", "_raw_DS_CLASIF_DET": "Suelo Urbanizable", "_raw_DS_DOCU": "NORMAS SUBSIDIARIAS", "_raw_DS_LEY": "CM Ley 4/1984, E RD 1346/1976", "_raw_FC_AC": "1985-07-30", "_raw_NM_AREA_M2": 87466.413029728195, "_cam_code": "072" }, "geometry": { "type": "Polygon", "coordinates": [ [ [ -3.9062, 40.6031 ], [ -3.9065, 40.6031 ], [ -3.9077, 40.6036 ], [ -3.9081, 40.6036 ], [ -3.9081, 40.6035 ], [ -3.9096, 40.603 ], [ -3.9092, 40.6024 ], [ -3.9076, 40.6011 ], [ -3.9072, 40.6012 ], [ -3.9072, 40.6013 ], [ -3.9069, 40.6013 ], [ -3.9069, 40.6014 ], [ -3.905, 40.6013 ], [ -3.905, 40.6014 ], [ -3.9041, 40.6015 ], [ -3.9041, 40.6016 ], [ -3.9036, 40.6016 ], [ -3.9036, 40.6018 ], [ -3.9038, 40.6019 ], [ -3.9037, 40.6023 ], [ -3.9039, 40.6024 ], [ -3.9038, 40.6025 ], [ -3.9043, 40.6028 ], [ -3.905, 40.6031 ], [ -3.9062, 40.6031 ] ] ] } }
]
}
