{
"type": "FeatureCollection",
"name": "vigente.full",
"features": [
{ "type": "Feature", "properties": { "municipio": "Santorcaz", "clasificacion": "no-urbanizable-protegido", "calificacion": "sin-asignar", "version": "vigente", "fuente": "SIT-CAM WFS — UsoDelSuelo:VPLA_V_CLASIFICACION (https://idem.comunidad.madrid/geosrvg/ows)", "fecha_dato": "2026-05-12", "ambito": "24343", "_raw_CD_SIGLAS": "SNUP", "_raw_DS_CLASIF_GEN": "Suelo No Urbanizable Protegido", "_raw_DS_CLASIF_DET": "Suelo No Urbanizable Especialmente Protegido. Cauces y Riberas", "_raw_DS_DOCU": "NORMAS SUBSIDIARIAS", "_raw_DS_LEY": "CM Ley 4/1984, E RDL 1/1992", "_raw_FC_AC": "1994-04-14", "_raw_NM_AREA_M2": 41838.543011825597, "_cam_code": "136" }, "geometry": { "type": "Polygon", "coordinates": [ [ [ -3.2318, 40.4811 ], [ -3.2307, 40.4817 ], [ -3.2303, 40.4821 ], [ -3.2298, 40.483 ], [ -3.2304, 40.4829 ], [ -3.2311, 40.4821 ], [ -3.2325, 40.4814 ], [ -3.2342, 40.481 ], [ -3.2355, 40.4811 ], [ -3.2383, 40.4804 ], [ -3.2385, 40.4797 ], [ -3.2372, 40.4803 ], [ -3.2364, 40.4805 ], [ -3.2337, 40.4806 ], [ -3.2318, 40.4811 ] ] ] } },
{ "type": "Feature", "properties": { "municipio": "Santorcaz", "clasificacion": "no-urbanizable-protegido", "calificacion": "sin-asignar", "version": "vigente", "fuente": "SIT-CAM WFS — UsoDelSuelo:VPLA_V_CLASIFICACION (https://idem.comunidad.madrid/geosrvg/ows)", "fecha_dato": "2026-05-12", "ambito": "24343", "_raw_CD_SIGLAS": "SNUP", "_raw_DS_CLASIF_GEN": "Suelo No Urbanizable Protegido", "_raw_DS_CLASIF_DET": "Suelo No Urbanizable Especialmente Protegido. Cauces y Riberas", "_raw_DS_DOCU": "NORMAS SUBSIDIARIAS", "_raw_DS_LEY": "CM Ley 4/1984, E RDL 1/1992", "_raw_FC_AC": "1994-04-14", "_raw_NM_AREA_M2": 190174.57465816199, "_cam_code": "136" }, "geometry": { "type": "Polygon", "coordinates": [ [ [ -3.2396, 40.485 ], [ -3.2424, 40.4853 ], [ -3.2421, 40.4873 ], [ -3.242, 40.4877 ], [ -3.2406, 40.4902 ], [ -3.2393, 40.4923 ], [ -3.239, 40.4936 ], [ -3.2381, 40.4952 ], [ -3.2389, 40.4966 ], [ -3.2393, 40.4963 ], [ -3.239, 40.4959 ], [ -3.2389, 40.4952 ], [ -3.2396, 40.4937 ], [ -3.2401, 40.492 ], [ -3.2427, 40.4874 ], [ -3.2429, 40.4861 ], [ -3.2429, 40.4837 ], [ -3.2435, 40.4824 ], [ -3.2447, 40.481 ], [ -3.2451, 40.4802 ], [ -3.2454, 40.4799 ], [ -3.2462, 40.4795 ], [ -3.2472, 40.4785 ], [ -3.2479, 40.4775 ], [ -3.2486, 40.4761 ], [ -3.2495, 40.4754 ], [ -3.2532, 40.4737 ], [ -3.2524, 40.4736 ], [ -3.2505, 40.4744 ], [ -3.2504, 40.4741 ], [ -3.2499, 40.4743 ], [ -3.25, 40.4747 ], [ -3.2489, 40.4752 ], [ -3.248, 40.4761 ], [ -3.2466, 40.4783 ], [ -3.2453, 40.4777 ], [ -3.2447, 40.4776 ], [ -3.2445, 40.4772 ], [ -3.243, 40.4764 ], [ -3.2422, 40.4764 ], [ -3.2415, 40.4766 ], [ -3.2415, 40.4767 ], [ -3.2419, 40.4769 ], [ -3.2432, 40.477 ], [ -3.2444, 40.4778 ], [ -3.2464, 40.4787 ], [ -3.2455, 40.4795 ], [ -3.245, 40.4796 ], [ -3.2445, 40.48 ], [ -3.2444, 40.4805 ], [ -3.2427, 40.4826 ], [ -3.2423, 40.4832 ], [ -3.2424, 40.4839 ], [ -3.2423, 40.4848 ], [ -3.241, 40.4846 ], [ -3.2382, 40.4847 ], [ -3.2372, 40.4851 ], [ -3.2367, 40.4855 ], [ -3.2369, 40.4855 ], [ -3.2369, 40.4859 ], [ -3.2376, 40.4854 ], [ -3.2383, 40.4852 ], [ -3.2396, 40.485 ] ] ] } },
{ "type": "Feature", "properties": { "municipio": "Santorcaz", "clasificacion": "no-urbanizable-protegido", "calificacion": "sin-asignar", "version": "vigente", "fuente": "SIT-CAM WFS — UsoDelSuelo:VPLA_V_CLASIFICACION (https://idem.comunidad.madrid/geosrvg/ows)", "fecha_dato": "2026-05-12", "ambito": "24343", "_raw_CD_SIGLAS": "SNUP", "_raw_DS_CLASIF_GEN": "Suelo No Urbanizable Protegido", "_raw_DS_CLASIF_DET": "Suelo No Urbanizable Especialmente Protegido. Cauces y Riberas", "_raw_DS_DOCU": "NORMAS SUBSIDIARIAS", "_raw_DS_LEY": "CM Ley 4/1984, E RDL 1/1992", "_raw_FC_AC": "1994-04-14", "_raw_NM_AREA_M2": 149751.24911977601, "_cam_code": "136" }, "geometry": { "type": "Polygon", "coordinates": [ [ [ -3.22, 40.5 ], [ -3.2182, 40.5014 ], [ -3.218, 40.5024 ], [ -3.2183, 40.5024 ], [ -3.2186, 40.5021 ], [ -3.2186, 40.5019 ], [ -3.2191, 40.5012 ], [ -3.2201, 40.5005 ], [ -3.221, 40.5001 ], [ -3.2219, 40.4999 ], [ -3.224, 40.5 ], [ -3.2255, 40.4996 ], [ -3.2271, 40.4988 ], [ -3.2282, 40.4978 ], [ -3.2286, 40.4972 ], [ -3.2295, 40.4948 ], [ -3.2297, 40.4946 ], [ -3.2302, 40.4943 ], [ -3.2323, 40.4942 ], [ -3.2335, 40.4937 ], [ -3.2339, 40.4933 ], [ -3.2343, 40.4926 ], [ -3.2344, 40.492 ], [ -3.2342, 40.4915 ], [ -3.235, 40.4908 ], [ -3.2352, 40.4904 ], [ -3.2367, 40.4887 ], [ -3.237, 40.4874 ], [ -3.237, 40.4867 ], [ -3.2367, 40.4858 ], [ -3.2368, 40.4857 ], [ -3.2366, 40.4855 ], [ -3.2348, 40.4858 ], [ -3.2331, 40.4857 ], [ -3.2316, 40.4861 ], [ -3.2314, 40.4865 ], [ -3.2319, 40.4866 ], [ -3.2325, 40.4862 ], [ -3.2348, 40.4863 ], [ -3.2361, 40.486 ], [ -3.2366, 40.486 ], [ -3.2366, 40.4873 ], [ -3.2363, 40.4884 ], [ -3.2355, 40.4896 ], [ -3.2341, 40.4907 ], [ -3.2338, 40.4912 ], [ -3.2338, 40.4923 ], [ -3.2332, 40.4934 ], [ -3.2328, 40.4937 ], [ -3.2299, 40.4939 ], [ -3.2292, 40.4943 ], [ -3.2287, 40.495 ], [ -3.2283, 40.4966 ], [ -3.2276, 40.4978 ], [ -3.2259, 40.4988 ], [ -3.2245, 40.4994 ], [ -3.2219, 40.4995 ], [ -3.2208, 40.4997 ], [ -3.22, 40.5 ] ] ] } },
{ "type": "Feature", "properties": { "municipio": "Santorcaz", "clasificacion": "no-urbanizable-protegido", "calificacion": "sin-asignar", "version": "vigente", "fuente": "SIT-CAM WFS — UsoDelSuelo:VPLA_V_CLASIFICACION (https://idem.comunidad.madrid/geosrvg/ows)", "fecha_dato": "2026-05-12", "ambito": "24343", "_raw_CD_SIGLAS": "SNUP", "_raw_DS_CLASIF_GEN": "Suelo No Urbanizable Protegido", "_raw_DS_CLASIF_DET": "Suelo No Urbanizable Especialmente Protegido. Ecológico", "_raw_DS_DOCU": "NORMAS SUBSIDIARIAS", "_raw_DS_LEY": "CM Ley 4/1984, E RDL 1/1992", "_raw_FC_AC": "1994-04-14", "_raw_NM_AREA_M2": 2783.7250183393699, "_cam_code": "136" }, "geometry": { "type": "Polygon", "coordinates": [ [ [ -3.2533, 40.4737 ], [ -3.2539, 40.4737 ], [ -3.2546, 40.4735 ], [ -3.2545, 40.4731 ], [ -3.2533, 40.4737 ] ] ] } },
{ "type": "Feature", "properties": { "municipio": "Santorcaz", "clasificacion": "no-urbanizable-protegido", "calificacion": "sin-asignar", "version": "vigente", "fuente": "SIT-CAM WFS — UsoDelSuelo:VPLA_V_CLASIFICACION (https://idem.comunidad.madrid/geosrvg/ows)", "fecha_dato": "2026-05-12", "ambito": "24343", "_raw_CD_SIGLAS": "SNUP", "_raw_DS_CLASIF_GEN": "Suelo No Urbanizable Protegido", "_raw_DS_CLASIF_DET": "Suelo No Urbanizable Especialmente Protegido. Ecológico", "_raw_DS_DOCU": "NORMAS SUBSIDIARIAS", "_raw_DS_LEY": "CM Ley 4/1984, E RDL 1/1992", "_raw_FC_AC": "1994-04-14", "_raw_NM_AREA_M2": 824804.17621743795, "_cam_code": "136" }, "geometry": { "type": "Polygon", "coordinates": [ [ [ -3.2364, 40.4743 ], [ -3.2363, 40.4748 ], [ -3.2357, 40.4749 ], [ -3.2374, 40.4756 ], [ -3.2392, 40.4767 ], [ -3.2406, 40.4768 ], [ -3.2413, 40.4767 ], [ -3.2414, 40.4765 ], [ -3.2423, 40.4763 ], [ -3.2436, 40.4756 ], [ -3.2459, 40.4754 ], [ -3.2498, 40.4742 ], [ -3.249, 40.4725 ], [ -3.2474, 40.4709 ], [ -3.2471, 40.4698 ], [ -3.2476, 40.4697 ], [ -3.2478, 40.4704 ], [ -3.2481, 40.4709 ], [ -3.2498, 40.4726 ], [ -3.2504, 40.474 ], [ -3.2521, 40.4735 ], [ -3.2526, 40.4735 ], [ -3.2543, 40.4727 ], [ -3.2542, 40.4723 ], [ -3.2539, 40.4719 ], [ -3.2536, 40.4689 ], [ -3.2534, 40.4687 ], [ -3.253, 40.4688 ], [ -3.2523, 40.4694 ], [ -3.2515, 40.4696 ], [ -3.2502, 40.4693 ], [ -3.2495, 40.4689 ], [ -3.249, 40.4684 ], [ -3.2475, 40.4678 ], [ -3.2468, 40.4681 ], [ -3.2463, 40.468 ], [ -3.2453, 40.4695 ], [ -3.2425, 40.4706 ], [ -3.2411, 40.4705 ], [ -3.2413, 40.4711 ], [ -3.2411, 40.4711 ], [ -3.2411, 40.4712 ], [ -3.2402, 40.4712 ], [ -3.2398, 40.4718 ], [ -3.2398, 40.472 ], [ -3.2389, 40.4721 ], [ -3.2384, 40.4723 ], [ -3.2381, 40.4722 ], [ -3.2379, 40.4724 ], [ -3.2372, 40.4722 ], [ -3.2373, 40.4727 ], [ -3.2368, 40.4733 ], [ -3.2363, 40.4733 ], [ -3.2359, 40.4729 ], [ -3.2359, 40.4732 ], [ -3.2364, 40.4743 ] ], [ [ -3.2387, 40.4738 ], [ -3.2382, 40.4739 ], [ -3.2382, 40.4734 ], [ -3.2385, 40.4733 ], [ -3.2387, 40.4738 ] ] ] } },
{ "type": "Feature", "properties": { "municipio": "Santorcaz", "clasificacion": "no-urbanizable-protegido", "calificacion": "sin-asignar", "version": "vigente", "fuente": "SIT-CAM WFS — UsoDelSuelo:VPLA_V_CLASIFICACION (https://idem.comunidad.madrid/geosrvg/ows)", "fecha_dato": "2026-05-12", "ambito": "24343", "_raw_CD_SIGLAS": "SNUP", "_raw_DS_CLASIF_GEN": "Suelo No Urbanizable Protegido", "_raw_DS_CLASIF_DET": "Suelo No Urbanizable Especialmente Protegido. Ecológico", "_raw_DS_DOCU": "NORMAS SUBSIDIARIAS", "_raw_DS_LEY": "CM Ley 4/1984, E RDL 1/1992", "_raw_FC_AC": "1994-04-14", "_raw_NM_AREA_M2": 265380.52841832198, "_cam_code": "136" }, "geometry": { "type": "Polygon", "coordinates": [ [ [ -3.2413, 40.4783 ], [ -3.2394, 40.4794 ], [ -3.2383, 40.4805 ], [ -3.2381, 40.481 ], [ -3.2379, 40.4811 ], [ -3.238, 40.4812 ], [ -3.2379, 40.4826 ], [ -3.2374, 40.4836 ], [ -3.2368, 40.4842 ], [ -3.2365, 40.4854 ], [ -3.2367, 40.4855 ], [ -3.2372, 40.4851 ], [ -3.2382, 40.4847 ], [ -3.2394, 40.4846 ], [ -3.2402, 40.4843 ], [ -3.2412, 40.4842 ], [ -3.2424, 40.4829 ], [ -3.2427, 40.4821 ], [ -3.2435, 40.4808 ], [ -3.2435, 40.4797 ], [ -3.2431, 40.4787 ], [ -3.2428, 40.4783 ], [ -3.2421, 40.4782 ], [ -3.2413, 40.4783 ] ] ] } },
{ "type": "Feature", "properties": { "municipio": "Santorcaz", "clasificacion": "no-urbanizable-protegido", "calificacion": "sin-asignar", "version": "vigente", "fuente": "SIT-CAM WFS — UsoDelSuelo:VPLA_V_CLASIFICACION (https://idem.comunidad.madrid/geosrvg/ows)", "fecha_dato": "2026-05-12", "ambito": "24343", "_raw_CD_SIGLAS": "SNUP", "_raw_DS_CLASIF_GEN": "Suelo No Urbanizable Protegido", "_raw_DS_CLASIF_DET": "Suelo No Urbanizable Especialmente Protegido. Vías Pecuarias", "_raw_DS_DOCU": "NORMAS SUBSIDIARIAS", "_raw_DS_LEY": "CM Ley 4/1984, E RDL 1/1992", "_raw_FC_AC": "1994-04-14", "_raw_NM_AREA_M2": 17084.994864528198, "_cam_code": "136" }, "geometry": { "type": "Polygon", "coordinates": [ [ [ -3.2521, 40.4735 ], [ -3.2459, 40.4754 ], [ -3.2436, 40.4756 ], [ -3.2423, 40.4763 ], [ -3.2414, 40.4765 ], [ -3.2413, 40.4767 ], [ -3.2427, 40.4775 ], [ -3.2442, 40.4792 ], [ -3.245, 40.4797 ], [ -3.2436, 40.4785 ], [ -3.2435, 40.4782 ], [ -3.2429, 40.4775 ], [ -3.2415, 40.4767 ], [ -3.2415, 40.4766 ], [ -3.2424, 40.4764 ], [ -3.2441, 40.4756 ], [ -3.2458, 40.4755 ], [ -3.2523, 40.4736 ], [ -3.2523, 40.4735 ], [ -3.2534, 40.4738 ], [ -3.2538, 40.4738 ], [ -3.2546, 40.4736 ], [ -3.2546, 40.4735 ], [ -3.2539, 40.4737 ], [ -3.2533, 40.4737 ], [ -3.2526, 40.4735 ], [ -3.2523, 40.4735 ], [ -3.2521, 40.4735 ] ] ] } },
{ "type": "Feature", "properties": { "municipio": "Santorcaz", "clasificacion": "no-urbanizable-protegido", "calificacion": "sin-asignar", "version": "vigente", "fuente": "SIT-CAM WFS — UsoDelSuelo:VPLA_V_CLASIFICACION (https://idem.comunidad.madrid/geosrvg/ows)", "fecha_dato": "2026-05-12", "ambito": "24343", "_raw_CD_SIGLAS": "SNUP", "_raw_DS_CLASIF_GEN": "Suelo No Urbanizable Protegido", "_raw_DS_CLASIF_DET": "Suelo No Urbanizable Especialmente Protegido. Vías Pecuarias", "_raw_DS_DOCU": "NORMAS SUBSIDIARIAS", "_raw_DS_LEY": "CM Ley 4/1984, E RDL 1/1992", "_raw_FC_AC": "1994-04-14", "_raw_NM_AREA_M2": 31111.049415952799, "_cam_code": "136" }, "geometry": { "type": "Polygon", "coordinates": [ [ [ -3.2275, 40.4773 ], [ -3.2264, 40.4783 ], [ -3.2259, 40.4785 ], [ -3.2235, 40.48 ], [ -3.2227, 40.4812 ], [ -3.2221, 40.4828 ], [ -3.2207, 40.4849 ], [ -3.2202, 40.4853 ], [ -3.2195, 40.4863 ], [ -3.2183, 40.487 ], [ -3.2167, 40.4883 ], [ -3.2156, 40.4889 ], [ -3.2154, 40.4891 ], [ -3.214, 40.4915 ], [ -3.2134, 40.4923 ], [ -3.2112, 40.4945 ], [ -3.2083, 40.4976 ], [ -3.2078, 40.4983 ], [ -3.2064, 40.5009 ], [ -3.2066, 40.5008 ], [ -3.2077, 40.4987 ], [ -3.2085, 40.4975 ], [ -3.2106, 40.4952 ], [ -3.2137, 40.4921 ], [ -3.2154, 40.4893 ], [ -3.216, 40.4887 ], [ -3.2168, 40.4883 ], [ -3.2184, 40.487 ], [ -3.2193, 40.4866 ], [ -3.2213, 40.4843 ], [ -3.2235, 40.4802 ], [ -3.2238, 40.4799 ], [ -3.2263, 40.4785 ], [ -3.2277, 40.4773 ], [ -3.2275, 40.4773 ] ] ] } },
{ "type": "Feature", "properties": { "municipio": "Santorcaz", "clasificacion": "no-urbanizable-protegido", "calificacion": "sin-asignar", "version": "vigente", "fuente": "SIT-CAM WFS — UsoDelSuelo:VPLA_V_CLASIFICACION (https://idem.comunidad.madrid/geosrvg/ows)", "fecha_dato": "2026-05-12", "ambito": "24343", "_raw_CD_SIGLAS": "SNUP", "_raw_DS_CLASIF_GEN": "Suelo No Urbanizable Protegido", "_raw_DS_CLASIF_DET": "Suelo No Urbanizable Especialmente Protegido. Vías Pecuarias", "_raw_DS_DOCU": "NORMAS SUBSIDIARIAS", "_raw_DS_LEY": "CM Ley 4/1984, E RDL 1/1992", "_raw_FC_AC": "1994-04-14", "_raw_NM_AREA_M2": 34624.529721963299, "_cam_code": "136" }, "geometry": { "type": "Polygon", "coordinates": [ [ [ -3.2286, 40.5011 ], [ -3.2283, 40.5016 ], [ -3.2287, 40.5011 ], [ -3.2288, 40.5012 ], [ -3.2286, 40.4999 ], [ -3.2295, 40.499 ], [ -3.2308, 40.497 ], [ -3.2314, 40.4964 ], [ -3.2324, 40.4957 ], [ -3.2343, 40.4939 ], [ -3.2347, 40.4927 ], [ -3.2343, 40.4915 ], [ -3.2351, 40.4909 ], [ -3.2352, 40.4905 ], [ -3.2366, 40.489 ], [ -3.2369, 40.4884 ], [ -3.2372, 40.4871 ], [ -3.2369, 40.4861 ], [ -3.2369, 40.4855 ], [ -3.2365, 40.4854 ], [ -3.2365, 40.4851 ], [ -3.2368, 40.4842 ], [ -3.2374, 40.4836 ], [ -3.2379, 40.4826 ], [ -3.2379, 40.4815 ], [ -3.238, 40.4814 ], [ -3.2379, 40.4811 ], [ -3.2381, 40.481 ], [ -3.2388, 40.4793 ], [ -3.2383, 40.4788 ], [ -3.2382, 40.4782 ], [ -3.2383, 40.4775 ], [ -3.2381, 40.4772 ], [ -3.2375, 40.4769 ], [ -3.2369, 40.4763 ], [ -3.2368, 40.4757 ], [ -3.2365, 40.4754 ], [ -3.2357, 40.4751 ], [ -3.2356, 40.4751 ], [ -3.2364, 40.4755 ], [ -3.2368, 40.476 ], [ -3.2369, 40.4765 ], [ -3.2379, 40.4772 ], [ -3.2382, 40.4777 ], [ -3.2381, 40.4782 ], [ -3.2383, 40.479 ], [ -3.2387, 40.4793 ], [ -3.2383, 40.4804 ], [ -3.2378, 40.4811 ], [ -3.2379, 40.4814 ], [ -3.2378, 40.4815 ], [ -3.2377, 40.4828 ], [ -3.2373, 40.4835 ], [ -3.2367, 40.4841 ], [ -3.2364, 40.485 ], [ -3.2364, 40.4854 ], [ -3.2368, 40.4857 ], [ -3.2367, 40.4858 ], [ -3.237, 40.4867 ], [ -3.237, 40.4874 ], [ -3.2367, 40.4887 ], [ -3.2352, 40.4904 ], [ -3.235, 40.4908 ], [ -3.2342, 40.4915 ], [ -3.2346, 40.4927 ], [ -3.2343, 40.4937 ], [ -3.2323, 40.4957 ], [ -3.2315, 40.4962 ], [ -3.231, 40.4967 ], [ -3.2291, 40.4993 ], [ -3.2286, 40.4996 ], [ -3.2285, 40.4999 ], [ -3.2286, 40.5011 ] ] ] } },
{ "type": "Feature", "properties": { "municipio": "Santorcaz", "clasificacion": "no-urbanizable-protegido", "calificacion": "sin-asignar", "version": "vigente", "fuente": "SIT-CAM WFS — UsoDelSuelo:VPLA_V_CLASIFICACION (https://idem.comunidad.madrid/geosrvg/ows)", "fecha_dato": "2026-05-12", "ambito": "24343", "_raw_CD_SIGLAS": "SNUP", "_raw_DS_CLASIF_GEN": "Suelo No Urbanizable Protegido", "_raw_DS_CLASIF_DET": "Suelo No Urbanizable Especialmente Protegido. Interés agrario", "_raw_DS_DOCU": "NORMAS SUBSIDIARIAS", "_raw_DS_LEY": "CM Ley 4/1984, E RDL 1/1992", "_raw_FC_AC": "1994-04-14", "_raw_NM_AREA_M2": 257190.44103207401, "_cam_code": "136" }, "geometry": { "type": "Polygon", "coordinates": [ [ [ -3.2447, 40.481 ], [ -3.2435, 40.4824 ], [ -3.2431, 40.4831 ], [ -3.2429, 40.4837 ], [ -3.2429, 40.4861 ], [ -3.2427, 40.4874 ], [ -3.2401, 40.492 ], [ -3.2396, 40.4937 ], [ -3.2389, 40.4952 ], [ -3.239, 40.4959 ], [ -3.2393, 40.4963 ], [ -3.2396, 40.4961 ], [ -3.2396, 40.4954 ], [ -3.2399, 40.4947 ], [ -3.2406, 40.4937 ], [ -3.241, 40.4916 ], [ -3.2433, 40.4906 ], [ -3.2432, 40.49 ], [ -3.2433, 40.4869 ], [ -3.2438, 40.4851 ], [ -3.2438, 40.4829 ], [ -3.246, 40.4804 ], [ -3.2469, 40.4811 ], [ -3.249, 40.4791 ], [ -3.2494, 40.4762 ], [ -3.25, 40.4759 ], [ -3.2509, 40.4757 ], [ -3.2528, 40.4746 ], [ -3.2531, 40.4739 ], [ -3.2539, 40.474 ], [ -3.2547, 40.4738 ], [ -3.2547, 40.4737 ], [ -3.2546, 40.4736 ], [ -3.2538, 40.4738 ], [ -3.2532, 40.4737 ], [ -3.2492, 40.4756 ], [ -3.2486, 40.4761 ], [ -3.2479, 40.4775 ], [ -3.2472, 40.4785 ], [ -3.2462, 40.4795 ], [ -3.2454, 40.4799 ], [ -3.2451, 40.4802 ], [ -3.2447, 40.481 ] ] ] } },
{ "type": "Feature", "properties": { "municipio": "Santorcaz", "clasificacion": "no-urbanizable-protegido", "calificacion": "sin-asignar", "version": "vigente", "fuente": "SIT-CAM WFS — UsoDelSuelo:VPLA_V_CLASIFICACION (https://idem.comunidad.madrid/geosrvg/ows)", "fecha_dato": "2026-05-12", "ambito": "24343", "_raw_CD_SIGLAS": "SNUP", "_raw_DS_CLASIF_GEN": "Suelo No Urbanizable Protegido", "_raw_DS_CLASIF_DET": "Suelo No Urbanizable Especialmente Protegido. Masas forestales", "_raw_DS_DOCU": "NORMAS SUBSIDIARIAS", "_raw_DS_LEY": "CM Ley 4/1984, E RDL 1/1992", "_raw_FC_AC": "1994-04-14", "_raw_NM_AREA_M2": 29640.344437269301, "_cam_code": "136" }, "geometry": { "type": "Polygon", "coordinates": [ [ [ -3.2468, 40.4811 ], [ -3.246, 40.4804 ], [ -3.2438, 40.4829 ], [ -3.2438, 40.4839 ], [ -3.2445, 40.4835 ], [ -3.2459, 40.4816 ], [ -3.2462, 40.4817 ], [ -3.2468, 40.4811 ] ] ] } },
{ "type": "Feature", "properties": { "municipio": "Santorcaz", "clasificacion": "no-urbanizable-protegido", "calificacion": "sin-asignar", "version": "vigente", "fuente": "SIT-CAM WFS — UsoDelSuelo:VPLA_V_CLASIFICACION (https://idem.comunidad.madrid/geosrvg/ows)", "fecha_dato": "2026-05-12", "ambito": "24343", "_raw_CD_SIGLAS": "SNUP", "_raw_DS_CLASIF_GEN": "Suelo No Urbanizable Protegido", "_raw_DS_CLASIF_DET": "Suelo No Urbanizable Especialmente Protegido. Vías Pecuarias", "_raw_DS_DOCU": "NORMAS SUBSIDIARIAS", "_raw_DS_LEY": "CM Ley 4/1984, E RDL 1/1992", "_raw_FC_AC": "1994-04-14", "_raw_NM_AREA_M2": 19340.657764571901, "_cam_code": "136" }, "geometry": { "type": "Polygon", "coordinates": [ [ [ -3.2443, 40.4522 ], [ -3.2442, 40.453 ], [ -3.2438, 40.4537 ], [ -3.244, 40.4545 ], [ -3.2435, 40.4552 ], [ -3.2434, 40.4563 ], [ -3.2435, 40.4576 ], [ -3.243, 40.4579 ], [ -3.2412, 40.4597 ], [ -3.2409, 40.4603 ], [ -3.2409, 40.4607 ], [ -3.2399, 40.4623 ], [ -3.24, 40.4634 ], [ -3.2393, 40.4642 ], [ -3.2389, 40.4655 ], [ -3.238, 40.4672 ], [ -3.2366, 40.469 ], [ -3.2374, 40.4682 ], [ -3.2389, 40.4658 ], [ -3.2393, 40.4645 ], [ -3.2401, 40.4634 ], [ -3.24, 40.4623 ], [ -3.2409, 40.4609 ], [ -3.2412, 40.4598 ], [ -3.2429, 40.4581 ], [ -3.2434, 40.4578 ], [ -3.2437, 40.4574 ], [ -3.2435, 40.4564 ], [ -3.2436, 40.4552 ], [ -3.2441, 40.4547 ], [ -3.244, 40.4535 ], [ -3.2443, 40.453 ], [ -3.2444, 40.4522 ], [ -3.2446, 40.4519 ], [ -3.2445, 40.4518 ], [ -3.2443, 40.4522 ] ] ] } },
{ "type": "Feature", "properties": { "municipio": "Santorcaz", "clasificacion": "no-urbanizable-protegido", "calificacion": "sin-asignar", "version": "vigente", "fuente": "SIT-CAM WFS — UsoDelSuelo:VPLA_V_CLASIFICACION (https://idem.comunidad.madrid/geosrvg/ows)", "fecha_dato": "2026-05-12", "ambito": "24343", "_raw_CD_SIGLAS": "SNUP", "_raw_DS_CLASIF_GEN": "Suelo No Urbanizable Protegido", "_raw_DS_CLASIF_DET": "Suelo No Urbanizable Especialmente Protegido. Vías Pecuarias", "_raw_DS_DOCU": "NORMAS SUBSIDIARIAS", "_raw_DS_LEY": "CM Ley 4/1984, E RDL 1/1992", "_raw_FC_AC": "1994-04-14", "_raw_NM_AREA_M2": 24622.787124082901, "_cam_code": "136" }, "geometry": { "type": "Polygon", "coordinates": [ [ [ -3.2247, 40.4747 ], [ -3.2252, 40.4747 ], [ -3.2258, 40.4747 ], [ -3.2267, 40.4747 ], [ -3.2284, 40.4743 ], [ -3.2287, 40.4742 ], [ -3.2287, 40.4741 ], [ -3.2266, 40.4746 ], [ -3.226, 40.4746 ], [ -3.2256, 40.4747 ], [ -3.225, 40.4746 ], [ -3.2243, 40.4746 ], [ -3.2207, 40.4741 ], [ -3.2184, 40.4735 ], [ -3.2181, 40.4735 ], [ -3.2173, 40.4731 ], [ -3.2148, 40.4725 ], [ -3.2114, 40.4721 ], [ -3.208, 40.4711 ], [ -3.2069, 40.4706 ], [ -3.2007, 40.469 ], [ -3.1993, 40.4689 ], [ -3.1993, 40.469 ], [ -3.2001, 40.469 ], [ -3.2022, 40.4694 ], [ -3.2044, 40.4701 ], [ -3.2069, 40.4707 ], [ -3.2082, 40.4712 ], [ -3.2114, 40.4722 ], [ -3.2147, 40.4726 ], [ -3.2174, 40.4732 ], [ -3.2177, 40.4735 ], [ -3.2195, 40.4738 ], [ -3.2208, 40.4742 ], [ -3.2247, 40.4747 ] ] ] } },
{ "type": "Feature", "properties": { "municipio": "Santorcaz", "clasificacion": "no-urbanizable-protegido", "calificacion": "sin-asignar", "version": "vigente", "fuente": "SIT-CAM WFS — UsoDelSuelo:VPLA_V_CLASIFICACION (https://idem.comunidad.madrid/geosrvg/ows)", "fecha_dato": "2026-05-12", "ambito": "24343", "_raw_CD_SIGLAS": "SNUP", "_raw_DS_CLASIF_GEN": "Suelo No Urbanizable Protegido", "_raw_DS_CLASIF_DET": "Suelo No Urbanizable Especialmente Protegido. Vías Pecuarias", "_raw_DS_DOCU": "NORMAS SUBSIDIARIAS", "_raw_DS_LEY": "CM Ley 4/1984, E RDL 1/1992", "_raw_FC_AC": "1994-04-14", "_raw_NM_AREA_M2": 3325.8179958956598, "_cam_code": "136" }, "geometry": { "type": "Polygon", "coordinates": [ [ [ -3.2359, 40.473 ], [ -3.2358, 40.4729 ], [ -3.2359, 40.473 ], [ -3.2358, 40.4732 ], [ -3.2363, 40.4745 ], [ -3.2362, 40.4747 ], [ -3.2357, 40.4748 ], [ -3.2357, 40.4749 ], [ -3.2364, 40.4747 ], [ -3.2364, 40.4743 ], [ -3.2359, 40.4732 ], [ -3.2359, 40.4731 ], [ -3.2359, 40.473 ] ] ] } },
{ "type": "Feature", "properties": { "municipio": "Santorcaz", "clasificacion": "no-urbanizable-protegido", "calificacion": "sin-asignar", "version": "vigente", "fuente": "SIT-CAM WFS — UsoDelSuelo:VPLA_V_CLASIFICACION (https://idem.comunidad.madrid/geosrvg/ows)", "fecha_dato": "2026-05-12", "ambito": "24343", "_raw_CD_SIGLAS": "SNUP", "_raw_DS_CLASIF_GEN": "Suelo No Urbanizable Protegido", "_raw_DS_CLASIF_DET": "Suelo No Urbanizable Especialmente Protegido. Cauces y Riberas", "_raw_DS_DOCU": "NORMAS SUBSIDIARIAS", "_raw_DS_LEY": "CM Ley 4/1984, E RDL 1/1992", "_raw_FC_AC": "1994-04-14", "_raw_NM_AREA_M2": 41701.693028005197, "_cam_code": "136" }, "geometry": { "type": "Polygon", "coordinates": [ [ [ -3.2369, 40.476 ], [ -3.2368, 40.4757 ], [ -3.2365, 40.4754 ], [ -3.2357, 40.4751 ], [ -3.2358, 40.4751 ], [ -3.2358, 40.4749 ], [ -3.2357, 40.4749 ], [ -3.2361, 40.475 ], [ -3.2374, 40.4756 ], [ -3.2392, 40.4767 ], [ -3.2407, 40.4771 ], [ -3.2414, 40.4767 ], [ -3.2418, 40.4769 ], [ -3.2403, 40.4782 ], [ -3.2391, 40.4798 ], [ -3.2384, 40.4804 ], [ -3.2388, 40.4793 ], [ -3.2402, 40.4775 ], [ -3.2369, 40.476 ] ] ] } },
{ "type": "Feature", "properties": { "municipio": "Santorcaz", "clasificacion": "no-urbanizable-protegido", "calificacion": "sin-asignar", "version": "vigente", "fuente": "SIT-CAM WFS — UsoDelSuelo:VPLA_V_CLASIFICACION (https://idem.comunidad.madrid/geosrvg/ows)", "fecha_dato": "2026-05-12", "ambito": "24343", "_raw_CD_SIGLAS": "SNUP", "_raw_DS_CLASIF_GEN": "Suelo No Urbanizable Protegido", "_raw_DS_CLASIF_DET": "Suelo No Urbanizable Especialmente Protegido. Cauces y Riberas", "_raw_DS_DOCU": "NORMAS SUBSIDIARIAS", "_raw_DS_LEY": "CM Ley 4/1984, E RDL 1/1992", "_raw_FC_AC": "1994-04-14", "_raw_NM_AREA_M2": 27833.6073497539, "_cam_code": "136" }, "geometry": { "type": "Polygon", "coordinates": [ [ [ -3.2471, 40.4698 ], [ -3.2474, 40.4709 ], [ -3.249, 40.4725 ], [ -3.2498, 40.4742 ], [ -3.2504, 40.474 ], [ -3.2498, 40.4726 ], [ -3.2481, 40.4709 ], [ -3.2478, 40.4704 ], [ -3.2476, 40.4697 ], [ -3.2471, 40.4698 ] ] ] } },
{ "type": "Feature", "properties": { "municipio": "Santorcaz", "clasificacion": "no-urbanizable-protegido", "calificacion": "sin-asignar", "version": "vigente", "fuente": "SIT-CAM WFS — UsoDelSuelo:VPLA_V_CLASIFICACION (https://idem.comunidad.madrid/geosrvg/ows)", "fecha_dato": "2026-05-12", "ambito": "24343", "_raw_CD_SIGLAS": "SNUP", "_raw_DS_CLASIF_GEN": "Suelo No Urbanizable Protegido", "_raw_DS_CLASIF_DET": "Suelo No Urbanizable Especialmente Protegido. Cauces y Riberas", "_raw_DS_DOCU": "NORMAS SUBSIDIARIAS", "_raw_DS_LEY": "CM Ley 4/1984, E RDL 1/1992", "_raw_FC_AC": "1994-04-14", "_raw_NM_AREA_M2": 6816.4189992665197, "_cam_code": "136" }, "geometry": { "type": "Polygon", "coordinates": [ [ [ -3.2526, 40.4735 ], [ -3.2533, 40.4737 ], [ -3.2545, 40.4731 ], [ -3.2543, 40.4727 ], [ -3.2526, 40.4735 ] ] ] } },
{ "type": "Feature", "properties": { "municipio": "Santorcaz", "clasificacion": "no-urbanizable-protegido", "calificacion": "sin-asignar", "version": "vigente", "fuente": "SIT-CAM WFS — UsoDelSuelo:VPLA_V_CLASIFICACION (https://idem.comunidad.madrid/geosrvg/ows)", "fecha_dato": "2026-05-12", "ambito": "24343", "_raw_CD_SIGLAS": "SNUP", "_raw_DS_CLASIF_GEN": "Suelo No Urbanizable Protegido", "_raw_DS_CLASIF_DET": "Suelo No Urbanizable Especialmente Protegido. Ecológico", "_raw_DS_DOCU": "NORMAS SUBSIDIARIAS", "_raw_DS_LEY": "CM Ley 4/1984, E RDL 1/1992", "_raw_FC_AC": "1994-04-14", "_raw_NM_AREA_M2": 8021.4019617396398, "_cam_code": "136" }, "geometry": { "type": "Polygon", "coordinates": [ [ [ -3.2358, 40.4732 ], [ -3.2354, 40.474 ], [ -3.2354, 40.4743 ], [ -3.2355, 40.4746 ], [ -3.2358, 40.4748 ], [ -3.2362, 40.4747 ], [ -3.2363, 40.4744 ], [ -3.2362, 40.4744 ], [ -3.2358, 40.4732 ] ] ] } },
{ "type": "Feature", "properties": { "municipio": "Santorcaz", "clasificacion": "no-urbanizable-protegido", "calificacion": "sin-asignar", "version": "vigente", "fuente": "SIT-CAM WFS — UsoDelSuelo:VPLA_V_CLASIFICACION (https://idem.comunidad.madrid/geosrvg/ows)", "fecha_dato": "2026-05-12", "ambito": "24343", "_raw_CD_SIGLAS": "SNUP", "_raw_DS_CLASIF_GEN": "Suelo No Urbanizable Protegido", "_raw_DS_CLASIF_DET": "Suelo No Urbanizable Especialmente Protegido. Ecológico", "_raw_DS_DOCU": "NORMAS SUBSIDIARIAS", "_raw_DS_LEY": "CM Ley 4/1984, E RDL 1/1992", "_raw_FC_AC": "1994-04-14", "_raw_NM_AREA_M2": 3901.2483078923101, "_cam_code": "136" }, "geometry": { "type": "Polygon", "coordinates": [ [ [ -3.2524, 40.4735 ], [ -3.2504, 40.4741 ], [ -3.2505, 40.4744 ], [ -3.2524, 40.4736 ], [ -3.2524, 40.4735 ] ] ] } },
{ "type": "Feature", "properties": { "municipio": "Santorcaz", "clasificacion": "no-urbanizable-protegido", "calificacion": "sin-asignar", "version": "vigente", "fuente": "SIT-CAM WFS — UsoDelSuelo:VPLA_V_CLASIFICACION (https://idem.comunidad.madrid/geosrvg/ows)", "fecha_dato": "2026-05-12", "ambito": "24343", "_raw_CD_SIGLAS": "SNUP", "_raw_DS_CLASIF_GEN": "Suelo No Urbanizable Protegido", "_raw_DS_CLASIF_DET": "Suelo No Urbanizable Especialmente Protegido. Ecológico", "_raw_DS_DOCU": "NORMAS SUBSIDIARIAS", "_raw_DS_LEY": "CM Ley 4/1984, E RDL 1/1992", "_raw_FC_AC": "1994-04-14", "_raw_NM_AREA_M2": 1091404.30817353, "_cam_code": "136" }, "geometry": { "type": "Polygon", "coordinates": [ [ [ -3.2253, 40.4863 ], [ -3.2259, 40.4866 ], [ -3.227, 40.4867 ], [ -3.2277, 40.4865 ], [ -3.2292, 40.4864 ], [ -3.2299, 40.4861 ], [ -3.2306, 40.4862 ], [ -3.2314, 40.4865 ], [ -3.2316, 40.4861 ], [ -3.2325, 40.4858 ], [ -3.2331, 40.4857 ], [ -3.2348, 40.4858 ], [ -3.2366, 40.4855 ], [ -3.2364, 40.4854 ], [ -3.2365, 40.4847 ], [ -3.2367, 40.4841 ], [ -3.2373, 40.4835 ], [ -3.2377, 40.4828 ], [ -3.2378, 40.4815 ], [ -3.2379, 40.4814 ], [ -3.2378, 40.4811 ], [ -3.2383, 40.4804 ], [ -3.2355, 40.4811 ], [ -3.2342, 40.481 ], [ -3.2325, 40.4814 ], [ -3.2311, 40.4821 ], [ -3.2304, 40.4829 ], [ -3.2298, 40.483 ], [ -3.2303, 40.4821 ], [ -3.2307, 40.4817 ], [ -3.2318, 40.4811 ], [ -3.2337, 40.4806 ], [ -3.2364, 40.4805 ], [ -3.2372, 40.4803 ], [ -3.2385, 40.4797 ], [ -3.2387, 40.4793 ], [ -3.2383, 40.479 ], [ -3.2381, 40.4782 ], [ -3.2382, 40.4777 ], [ -3.2379, 40.4772 ], [ -3.2369, 40.4765 ], [ -3.2368, 40.476 ], [ -3.2364, 40.4755 ], [ -3.2357, 40.4751 ], [ -3.2348, 40.4753 ], [ -3.2342, 40.4751 ], [ -3.2337, 40.4751 ], [ -3.2337, 40.4763 ], [ -3.2332, 40.4762 ], [ -3.233, 40.4764 ], [ -3.233, 40.4764 ], [ -3.233, 40.4764 ], [ -3.233, 40.4765 ], [ -3.233, 40.4766 ], [ -3.233, 40.4767 ], [ -3.2329, 40.4767 ], [ -3.2328, 40.4767 ], [ -3.2331, 40.4767 ], [ -3.233, 40.4771 ], [ -3.2321, 40.4776 ], [ -3.2317, 40.4776 ], [ -3.2316, 40.4773 ], [ -3.2308, 40.4772 ], [ -3.2304, 40.4769 ], [ -3.2302, 40.4769 ], [ -3.2302, 40.4768 ], [ -3.2289, 40.4768 ], [ -3.2286, 40.4767 ], [ -3.2286, 40.4766 ], [ -3.2283, 40.4768 ], [ -3.2278, 40.4774 ], [ -3.2277, 40.4773 ], [ -3.2263, 40.4785 ], [ -3.2251, 40.4792 ], [ -3.2249, 40.4803 ], [ -3.2241, 40.4815 ], [ -3.2242, 40.4833 ], [ -3.2246, 40.4848 ], [ -3.2253, 40.4863 ] ] ] } },
{ "type": "Feature", "properties": { "municipio": "Santorcaz", "clasificacion": "no-urbanizable-protegido", "calificacion": "sin-asignar", "version": "vigente", "fuente": "SIT-CAM WFS — UsoDelSuelo:VPLA_V_CLASIFICACION (https://idem.comunidad.madrid/geosrvg/ows)", "fecha_dato": "2026-05-12", "ambito": "24343", "_raw_CD_SIGLAS": "SNUP", "_raw_DS_CLASIF_GEN": "Suelo No Urbanizable Protegido", "_raw_DS_CLASIF_DET": "Suelo No Urbanizable Especialmente Protegido. Interés agrario", "_raw_DS_DOCU": "NORMAS SUBSIDIARIAS", "_raw_DS_LEY": "CM Ley 4/1984, E RDL 1/1992", "_raw_FC_AC": "1994-04-14", "_raw_NM_AREA_M2": 105288.927351772, "_cam_code": "136" }, "geometry": { "type": "Polygon", "coordinates": [ [ [ -3.243, 40.4764 ], [ -3.2445, 40.4772 ], [ -3.2447, 40.4776 ], [ -3.2453, 40.4777 ], [ -3.2466, 40.4783 ], [ -3.248, 40.4761 ], [ -3.2489, 40.4752 ], [ -3.25, 40.4747 ], [ -3.2499, 40.4743 ], [ -3.2458, 40.4755 ], [ -3.2441, 40.4756 ], [ -3.2424, 40.4764 ], [ -3.243, 40.4764 ] ] ] } },
{ "type": "Feature", "properties": { "municipio": "Santorcaz", "clasificacion": "no-urbanizable-protegido", "calificacion": "sin-asignar", "version": "vigente", "fuente": "SIT-CAM WFS — UsoDelSuelo:VPLA_V_CLASIFICACION (https://idem.comunidad.madrid/geosrvg/ows)", "fecha_dato": "2026-05-12", "ambito": "24343", "_raw_CD_SIGLAS": "SNUP", "_raw_DS_CLASIF_GEN": "Suelo No Urbanizable Protegido", "_raw_DS_CLASIF_DET": "Suelo No Urbanizable Especialmente Protegido. Interés agrario", "_raw_DS_DOCU": "NORMAS SUBSIDIARIAS", "_raw_DS_LEY": "CM Ley 4/1984, E RDL 1/1992", "_raw_FC_AC": "1994-04-14", "_raw_NM_AREA_M2": 56269.699378870901, "_cam_code": "136" }, "geometry": { "type": "Polygon", "coordinates": [ [ [ -3.2397, 40.4854 ], [ -3.2403, 40.4855 ], [ -3.2408, 40.4859 ], [ -3.2417, 40.4871 ], [ -3.2417, 40.4875 ], [ -3.2414, 40.4884 ], [ -3.2409, 40.4889 ], [ -3.2404, 40.49 ], [ -3.2393, 40.4916 ], [ -3.2388, 40.4935 ], [ -3.2381, 40.4947 ], [ -3.2382, 40.495 ], [ -3.239, 40.4936 ], [ -3.2393, 40.4923 ], [ -3.242, 40.4877 ], [ -3.2424, 40.4853 ], [ -3.2396, 40.485 ], [ -3.2383, 40.4852 ], [ -3.2373, 40.4856 ], [ -3.2397, 40.4854 ] ] ] } },
{ "type": "Feature", "properties": { "municipio": "Santorcaz", "clasificacion": "no-urbanizable-protegido", "calificacion": "sin-asignar", "version": "vigente", "fuente": "SIT-CAM WFS — UsoDelSuelo:VPLA_V_CLASIFICACION (https://idem.comunidad.madrid/geosrvg/ows)", "fecha_dato": "2026-05-12", "ambito": "24343", "_raw_CD_SIGLAS": "SNUP", "_raw_DS_CLASIF_GEN": "Suelo No Urbanizable Protegido", "_raw_DS_CLASIF_DET": "Suelo No Urbanizable Especialmente Protegido. Interés agrario", "_raw_DS_DOCU": "NORMAS SUBSIDIARIAS", "_raw_DS_LEY": "CM Ley 4/1984, E RDL 1/1992", "_raw_FC_AC": "1994-04-14", "_raw_NM_AREA_M2": 75547.935895720395, "_cam_code": "136" }, "geometry": { "type": "Polygon", "coordinates": [ [ [ -3.241, 40.4846 ], [ -3.2423, 40.4848 ], [ -3.2424, 40.4839 ], [ -3.2423, 40.4832 ], [ -3.2444, 40.4805 ], [ -3.2445, 40.48 ], [ -3.2449, 40.4797 ], [ -3.2439, 40.4789 ], [ -3.2427, 40.4775 ], [ -3.2418, 40.4769 ], [ -3.2403, 40.4782 ], [ -3.2394, 40.4794 ], [ -3.2413, 40.4783 ], [ -3.2421, 40.4782 ], [ -3.2428, 40.4783 ], [ -3.2431, 40.4787 ], [ -3.2435, 40.4797 ], [ -3.2435, 40.4808 ], [ -3.2427, 40.4821 ], [ -3.2424, 40.4829 ], [ -3.2412, 40.4842 ], [ -3.2402, 40.4843 ], [ -3.2394, 40.4846 ], [ -3.241, 40.4846 ] ] ] } },
{ "type": "Feature", "properties": { "municipio": "Santorcaz", "clasificacion": "no-urbanizable-protegido", "calificacion": "sin-asignar", "version": "vigente", "fuente": "SIT-CAM WFS — UsoDelSuelo:VPLA_V_CLASIFICACION (https://idem.comunidad.madrid/geosrvg/ows)", "fecha_dato": "2026-05-12", "ambito": "24343", "_raw_CD_SIGLAS": "SNUP", "_raw_DS_CLASIF_GEN": "Suelo No Urbanizable Protegido", "_raw_DS_CLASIF_DET": "Suelo No Urbanizable Especialmente Protegido. Interés agrario", "_raw_DS_DOCU": "NORMAS SUBSIDIARIAS", "_raw_DS_LEY": "CM Ley 4/1984, E RDL 1/1992", "_raw_FC_AC": "1994-04-14", "_raw_NM_AREA_M2": 39015.324546223797, "_cam_code": "136" }, "geometry": { "type": "Polygon", "coordinates": [ [ [ -3.2419, 40.4769 ], [ -3.2429, 40.4775 ], [ -3.2437, 40.4786 ], [ -3.245, 40.4796 ], [ -3.2455, 40.4795 ], [ -3.2464, 40.4787 ], [ -3.2444, 40.4778 ], [ -3.2432, 40.477 ], [ -3.2419, 40.4769 ] ] ] } },
{ "type": "Feature", "properties": { "municipio": "Santorcaz", "clasificacion": "no-urbanizable-protegido", "calificacion": "sin-asignar", "version": "vigente", "fuente": "SIT-CAM WFS — UsoDelSuelo:VPLA_V_CLASIFICACION (https://idem.comunidad.madrid/geosrvg/ows)", "fecha_dato": "2026-05-12", "ambito": "24343", "_raw_CD_SIGLAS": "SNUP", "_raw_DS_CLASIF_GEN": "Suelo No Urbanizable Protegido", "_raw_DS_CLASIF_DET": "Suelo No Urbanizable Especialmente Protegido. Interés agrario", "_raw_DS_DOCU": "NORMAS SUBSIDIARIAS", "_raw_DS_LEY": "CM Ley 4/1984, E RDL 1/1992", "_raw_FC_AC": "1994-04-14", "_raw_NM_AREA_M2": 32771.674713377201, "_cam_code": "136" }, "geometry": { "type": "Polygon", "coordinates": [ [ [ -3.2369, 40.476 ], [ -3.2369, 40.4763 ], [ -3.2375, 40.4769 ], [ -3.238, 40.4771 ], [ -3.2383, 40.4775 ], [ -3.2382, 40.4782 ], [ -3.2383, 40.4788 ], [ -3.2388, 40.4793 ], [ -3.2402, 40.4775 ], [ -3.2369, 40.476 ] ] ] } },
{ "type": "Feature", "properties": { "municipio": "Santorcaz", "clasificacion": "no-urbanizable-protegido", "calificacion": "sin-asignar", "version": "vigente", "fuente": "SIT-CAM WFS — UsoDelSuelo:VPLA_V_CLASIFICACION (https://idem.comunidad.madrid/geosrvg/ows)", "fecha_dato": "2026-05-12", "ambito": "24343", "_raw_CD_SIGLAS": "SNUP", "_raw_DS_CLASIF_GEN": "Suelo No Urbanizable Protegido", "_raw_DS_CLASIF_DET": "Suelo No Urbanizable Especialmente Protegido. Interés agrario", "_raw_DS_DOCU": "NORMAS SUBSIDIARIAS", "_raw_DS_LEY": "CM Ley 4/1984, E RDL 1/1992", "_raw_FC_AC": "1994-04-14", "_raw_NM_AREA_M2": 3026.5105494700902, "_cam_code": "136" }, "geometry": { "type": "Polygon", "coordinates": [ [ [ -3.2414, 40.4767 ], [ -3.2398, 40.4768 ], [ -3.2407, 40.4771 ], [ -3.2414, 40.4767 ] ] ] } },
{ "type": "Feature", "properties": { "municipio": "Santorcaz", "clasificacion": "no-urbanizable-protegido", "calificacion": "sin-asignar", "version": "vigente", "fuente": "SIT-CAM WFS — UsoDelSuelo:VPLA_V_CLASIFICACION (https://idem.comunidad.madrid/geosrvg/ows)", "fecha_dato": "2026-05-12", "ambito": "24343", "_raw_CD_SIGLAS": "SNUP", "_raw_DS_CLASIF_GEN": "Suelo No Urbanizable Protegido", "_raw_DS_CLASIF_DET": "Suelo No Urbanizable Especialmente Protegido. Ecológico", "_raw_DS_DOCU": "NORMAS SUBSIDIARIAS", "_raw_DS_LEY": "CM Ley 4/1984, E RDL 1/1992", "_raw_FC_AC": "1994-04-14", "_raw_NM_AREA_M2": 325482.609234092, "_cam_code": "136" }, "geometry": { "type": "Polygon", "coordinates": [ [ [ -3.2397, 40.4854 ], [ -3.2373, 40.4856 ], [ -3.2369, 40.4859 ], [ -3.2372, 40.4871 ], [ -3.2368, 40.4887 ], [ -3.2352, 40.4905 ], [ -3.2351, 40.4909 ], [ -3.2343, 40.4915 ], [ -3.2344, 40.4917 ], [ -3.2353, 40.4924 ], [ -3.2369, 40.4934 ], [ -3.2381, 40.4947 ], [ -3.2388, 40.4935 ], [ -3.2393, 40.4916 ], [ -3.2404, 40.49 ], [ -3.2409, 40.4889 ], [ -3.2414, 40.4884 ], [ -3.2417, 40.4875 ], [ -3.2417, 40.4871 ], [ -3.2414, 40.4866 ], [ -3.2403, 40.4855 ], [ -3.2397, 40.4854 ] ] ] } },
{ "type": "Feature", "properties": { "municipio": "Santorcaz", "clasificacion": "no-urbanizable-protegido", "calificacion": "sin-asignar", "version": "vigente", "fuente": "SIT-CAM WFS — UsoDelSuelo:VPLA_V_CLASIFICACION (https://idem.comunidad.madrid/geosrvg/ows)", "fecha_dato": "2026-05-12", "ambito": "24343", "_raw_CD_SIGLAS": "SNUP", "_raw_DS_CLASIF_GEN": "Suelo No Urbanizable Protegido", "_raw_DS_CLASIF_DET": "Suelo No Urbanizable Especialmente Protegido. Ecológico", "_raw_DS_DOCU": "NORMAS SUBSIDIARIAS", "_raw_DS_LEY": "CM Ley 4/1984, E RDL 1/1992", "_raw_FC_AC": "1994-04-14", "_raw_NM_AREA_M2": 791757.25246210303, "_cam_code": "136" }, "geometry": { "type": "Polygon", "coordinates": [ [ [ -3.2459, 40.4816 ], [ -3.2445, 40.4835 ], [ -3.2438, 40.4839 ], [ -3.2438, 40.4851 ], [ -3.2433, 40.4869 ], [ -3.2432, 40.4893 ], [ -3.2433, 40.4906 ], [ -3.2444, 40.4901 ], [ -3.2447, 40.4898 ], [ -3.2449, 40.4891 ], [ -3.2456, 40.4877 ], [ -3.2459, 40.4874 ], [ -3.2457, 40.4871 ], [ -3.2457, 40.4863 ], [ -3.2469, 40.4856 ], [ -3.2476, 40.4848 ], [ -3.2497, 40.484 ], [ -3.2508, 40.4822 ], [ -3.2513, 40.4821 ], [ -3.2519, 40.4823 ], [ -3.2531, 40.4823 ], [ -3.2538, 40.4827 ], [ -3.2545, 40.4827 ], [ -3.255, 40.4824 ], [ -3.2554, 40.4814 ], [ -3.2559, 40.481 ], [ -3.2563, 40.4803 ], [ -3.2573, 40.4796 ], [ -3.2564, 40.4771 ], [ -3.2547, 40.4738 ], [ -3.2539, 40.474 ], [ -3.2531, 40.4739 ], [ -3.2528, 40.4746 ], [ -3.2509, 40.4757 ], [ -3.25, 40.4759 ], [ -3.2494, 40.4762 ], [ -3.249, 40.4791 ], [ -3.2462, 40.4817 ], [ -3.2459, 40.4816 ] ] ] } },
{ "type": "Feature", "properties": { "municipio": "Santorcaz", "clasificacion": "no-urbanizable-protegido", "calificacion": "sin-asignar", "version": "vigente", "fuente": "SIT-CAM WFS — UsoDelSuelo:VPLA_V_CLASIFICACION (https://idem.comunidad.madrid/geosrvg/ows)", "fecha_dato": "2026-05-12", "ambito": "24343", "_raw_CD_SIGLAS": "SNUP", "_raw_DS_CLASIF_GEN": "Suelo No Urbanizable Protegido", "_raw_DS_CLASIF_DET": "Suelo No Urbanizable Especialmente Protegido. Ecológico", "_raw_DS_DOCU": "NORMAS SUBSIDIARIAS", "_raw_DS_LEY": "CM Ley 4/1984, E RDL 1/1992", "_raw_FC_AC": "1994-04-14", "_raw_NM_AREA_M2": 73422.422928096494, "_cam_code": "136" }, "geometry": { "type": "Polygon", "coordinates": [ [ [ -3.2325, 40.4862 ], [ -3.2319, 40.4866 ], [ -3.2322, 40.4866 ], [ -3.234, 40.4872 ], [ -3.2348, 40.488 ], [ -3.2351, 40.4885 ], [ -3.2351, 40.4888 ], [ -3.2349, 40.4893 ], [ -3.2343, 40.49 ], [ -3.2343, 40.4905 ], [ -3.2347, 40.4903 ], [ -3.2355, 40.4896 ], [ -3.2363, 40.4884 ], [ -3.2366, 40.4873 ], [ -3.2366, 40.486 ], [ -3.2361, 40.486 ], [ -3.2348, 40.4863 ], [ -3.2325, 40.4862 ] ] ] } },
{ "type": "Feature", "properties": { "municipio": "Santorcaz", "clasificacion": "urbano-consolidado", "calificacion": "sin-asignar", "version": "vigente", "fuente": "SIT-CAM WFS — UsoDelSuelo:VPLA_V_CLASIFICACION (https://idem.comunidad.madrid/geosrvg/ows)", "fecha_dato": "2026-05-12", "ambito": "24343", "_raw_CD_SIGLAS": "SU", "_raw_DS_CLASIF_GEN": "Suelo Urbano", "_raw_DS_CLASIF_DET": "Suelo Urbano", "_raw_DS_DOCU": "NORMAS SUBSIDIARIAS", "_raw_DS_LEY": "CM Ley 4/1984, E RDL 1/1992", "_raw_FC_AC": "1994-04-14", "_raw_NM_AREA_M2": 564368.62830362597, "_cam_code": "136" }, "geometry": { "type": "Polygon", "coordinates": [ [ [ -3.2317, 40.4776 ], [ -3.2321, 40.4776 ], [ -3.2329, 40.4772 ], [ -3.2331, 40.4767 ], [ -3.2331, 40.4767 ], [ -3.2328, 40.4767 ], [ -3.2329, 40.4767 ], [ -3.233, 40.4767 ], [ -3.233, 40.4766 ], [ -3.233, 40.4764 ], [ -3.2332, 40.4762 ], [ -3.2337, 40.4763 ], [ -3.2337, 40.4751 ], [ -3.2342, 40.4751 ], [ -3.2346, 40.4753 ], [ -3.2358, 40.4751 ], [ -3.2358, 40.4749 ], [ -3.2355, 40.4746 ], [ -3.2354, 40.4743 ], [ -3.2355, 40.4737 ], [ -3.2359, 40.473 ], [ -3.2358, 40.4729 ], [ -3.236, 40.4729 ], [ -3.2363, 40.4733 ], [ -3.2368, 40.4733 ], [ -3.2373, 40.4727 ], [ -3.2372, 40.4722 ], [ -3.2379, 40.4724 ], [ -3.2381, 40.4722 ], [ -3.2384, 40.4723 ], [ -3.2389, 40.4721 ], [ -3.2398, 40.472 ], [ -3.2398, 40.4718 ], [ -3.2402, 40.4712 ], [ -3.2411, 40.4712 ], [ -3.2411, 40.4711 ], [ -3.2413, 40.4711 ], [ -3.2411, 40.4703 ], [ -3.2404, 40.4704 ], [ -3.2386, 40.4712 ], [ -3.238, 40.4713 ], [ -3.2378, 40.4708 ], [ -3.2377, 40.4708 ], [ -3.2375, 40.4703 ], [ -3.2371, 40.4698 ], [ -3.2376, 40.4694 ], [ -3.237, 40.4687 ], [ -3.2363, 40.4692 ], [ -3.2349, 40.4694 ], [ -3.2347, 40.469 ], [ -3.2331, 40.4688 ], [ -3.2328, 40.4692 ], [ -3.2326, 40.4702 ], [ -3.2324, 40.4703 ], [ -3.2317, 40.4703 ], [ -3.2316, 40.4701 ], [ -3.2312, 40.4702 ], [ -3.2311, 40.4703 ], [ -3.2312, 40.4703 ], [ -3.2309, 40.4703 ], [ -3.2298, 40.47 ], [ -3.2289, 40.4705 ], [ -3.2285, 40.4702 ], [ -3.2287, 40.4718 ], [ -3.2287, 40.4744 ], [ -3.2263, 40.4753 ], [ -3.2261, 40.4749 ], [ -3.2257, 40.475 ], [ -3.2243, 40.4757 ], [ -3.2242, 40.476 ], [ -3.2241, 40.476 ], [ -3.2246, 40.4769 ], [ -3.2259, 40.4765 ], [ -3.2269, 40.4772 ], [ -3.2278, 40.4774 ], [ -3.2285, 40.4767 ], [ -3.2275, 40.4763 ], [ -3.2273, 40.4761 ], [ -3.2283, 40.4751 ], [ -3.2297, 40.4747 ], [ -3.2296, 40.4746 ], [ -3.2299, 40.4746 ], [ -3.23, 40.4743 ], [ -3.23, 40.4744 ], [ -3.2303, 40.4744 ], [ -3.2303, 40.4745 ], [ -3.2306, 40.4746 ], [ -3.2301, 40.4752 ], [ -3.2302, 40.4759 ], [ -3.2312, 40.4758 ], [ -3.2312, 40.4761 ], [ -3.2313, 40.4761 ], [ -3.2314, 40.4768 ], [ -3.2317, 40.4776 ] ] ] } },
{ "type": "Feature", "properties": { "municipio": "Santorcaz", "clasificacion": "urbano-consolidado", "calificacion": "sin-asignar", "version": "vigente", "fuente": "SIT-CAM WFS — UsoDelSuelo:VPLA_V_CLASIFICACION (https://idem.comunidad.madrid/geosrvg/ows)", "fecha_dato": "2026-05-12", "ambito": "24343", "_raw_CD_SIGLAS": "SU", "_raw_DS_CLASIF_GEN": "Suelo Urbano", "_raw_DS_CLASIF_DET": "Suelo Urbano", "_raw_DS_DOCU": "NORMAS SUBSIDIARIAS", "_raw_DS_LEY": "CM Ley 4/1984, E RDL 1/1992", "_raw_FC_AC": "1994-04-14", "_raw_NM_AREA_M2": 2025.0347513695899, "_cam_code": "136" }, "geometry": { "type": "Polygon", "coordinates": [ [ [ -3.2382, 40.4738 ], [ -3.2382, 40.4739 ], [ -3.2387, 40.4738 ], [ -3.2385, 40.4733 ], [ -3.2382, 40.4734 ], [ -3.2382, 40.4738 ] ] ] } },
{ "type": "Feature", "properties": { "municipio": "Santorcaz", "clasificacion": "urbanizable-no-sectorizado", "calificacion": "sin-asignar", "version": "vigente", "fuente": "SIT-CAM WFS — UsoDelSuelo:VPLA_V_CLASIFICACION (https://idem.comunidad.madrid/geosrvg/ows)", "fecha_dato": "2026-05-12", "ambito": "24343", "_raw_CD_SIGLAS": "SUBNS", "_raw_DS_CLASIF_GEN": "Suelo No Urbanizable Común", "_raw_DS_CLASIF_DET": "Suelo No Urbanizable Común", "_raw_DS_DOCU": "NORMAS SUBSIDIARIAS", "_raw_DS_LEY": "CM Ley 4/1984, E RDL 1/1992", "_raw_FC_AC": "1994-04-14", "_raw_NM_AREA_M2": 3334158.5729042902, "_cam_code": "136" }, "geometry": { "type": "Polygon", "coordinates": [ [ [ -3.2207, 40.504 ], [ -3.2215, 40.504 ], [ -3.2253, 40.5047 ], [ -3.2283, 40.5016 ], [ -3.2286, 40.5011 ], [ -3.2285, 40.5001 ], [ -3.2286, 40.4996 ], [ -3.2291, 40.4993 ], [ -3.231, 40.4967 ], [ -3.2315, 40.4962 ], [ -3.2323, 40.4957 ], [ -3.2343, 40.4937 ], [ -3.2346, 40.4927 ], [ -3.2344, 40.492 ], [ -3.2343, 40.4926 ], [ -3.2339, 40.4933 ], [ -3.2335, 40.4937 ], [ -3.2323, 40.4942 ], [ -3.2302, 40.4943 ], [ -3.2297, 40.4946 ], [ -3.2295, 40.4948 ], [ -3.2286, 40.4972 ], [ -3.2282, 40.4978 ], [ -3.2271, 40.4988 ], [ -3.2255, 40.4996 ], [ -3.224, 40.5 ], [ -3.2219, 40.4999 ], [ -3.221, 40.5001 ], [ -3.2201, 40.5005 ], [ -3.2191, 40.5012 ], [ -3.2186, 40.5019 ], [ -3.2186, 40.5021 ], [ -3.2183, 40.5024 ], [ -3.218, 40.5024 ], [ -3.2182, 40.5014 ], [ -3.22, 40.5 ], [ -3.2208, 40.4997 ], [ -3.2219, 40.4995 ], [ -3.2245, 40.4994 ], [ -3.2259, 40.4988 ], [ -3.2276, 40.4978 ], [ -3.2283, 40.4966 ], [ -3.2287, 40.495 ], [ -3.2292, 40.4943 ], [ -3.2295, 40.4941 ], [ -3.2299, 40.4939 ], [ -3.2328, 40.4937 ], [ -3.2332, 40.4934 ], [ -3.2338, 40.4923 ], [ -3.2338, 40.4912 ], [ -3.2343, 40.4905 ], [ -3.2343, 40.49 ], [ -3.2349, 40.4893 ], [ -3.2351, 40.4888 ], [ -3.2351, 40.4885 ], [ -3.2348, 40.488 ], [ -3.234, 40.4872 ], [ -3.2322, 40.4866 ], [ -3.2299, 40.4861 ], [ -3.2292, 40.4864 ], [ -3.2277, 40.4865 ], [ -3.227, 40.4867 ], [ -3.2259, 40.4866 ], [ -3.2253, 40.4863 ], [ -3.2246, 40.4848 ], [ -3.2242, 40.4833 ], [ -3.2241, 40.4818 ], [ -3.2241, 40.4815 ], [ -3.2249, 40.4803 ], [ -3.2251, 40.4792 ], [ -3.2238, 40.4799 ], [ -3.2235, 40.4802 ], [ -3.2215, 40.484 ], [ -3.2197, 40.4862 ], [ -3.2193, 40.4866 ], [ -3.2184, 40.487 ], [ -3.2168, 40.4883 ], [ -3.216, 40.4887 ], [ -3.2154, 40.4893 ], [ -3.2137, 40.4921 ], [ -3.2106, 40.4952 ], [ -3.2085, 40.4975 ], [ -3.2077, 40.4987 ], [ -3.2065, 40.5009 ], [ -3.2097, 40.5022 ], [ -3.2137, 40.503 ], [ -3.2162, 40.5039 ], [ -3.2177, 40.5038 ], [ -3.2182, 40.504 ], [ -3.2207, 40.504 ] ] ] } },
{ "type": "Feature", "properties": { "municipio": "Santorcaz", "clasificacion": "urbanizable-no-sectorizado", "calificacion": "sin-asignar", "version": "vigente", "fuente": "SIT-CAM WFS — UsoDelSuelo:VPLA_V_CLASIFICACION (https://idem.comunidad.madrid/geosrvg/ows)", "fecha_dato": "2026-05-12", "ambito": "24343", "_raw_CD_SIGLAS": "SUBNS", "_raw_DS_CLASIF_GEN": "Suelo No Urbanizable Común", "_raw_DS_CLASIF_DET": "Suelo No Urbanizable Común", "_raw_DS_DOCU": "NORMAS SUBSIDIARIAS", "_raw_DS_LEY": "CM Ley 4/1984, E RDL 1/1992", "_raw_FC_AC": "1994-04-14", "_raw_NM_AREA_M2": 1419253.2448950999, "_cam_code": "136" }, "geometry": { "type": "Polygon", "coordinates": [ [ [ -3.238, 40.4713 ], [ -3.2386, 40.4712 ], [ -3.2408, 40.4703 ], [ -3.2411, 40.4703 ], [ -3.2411, 40.4705 ], [ -3.2425, 40.4706 ], [ -3.2441, 40.47 ], [ -3.2453, 40.4695 ], [ -3.2463, 40.468 ], [ -3.2468, 40.4681 ], [ -3.2475, 40.4678 ], [ -3.249, 40.4684 ], [ -3.2495, 40.4689 ], [ -3.2502, 40.4693 ], [ -3.2515, 40.4696 ], [ -3.2523, 40.4694 ], [ -3.253, 40.4688 ], [ -3.2534, 40.4687 ], [ -3.2526, 40.4681 ], [ -3.2506, 40.464 ], [ -3.2501, 40.4619 ], [ -3.2495, 40.4603 ], [ -3.25, 40.4588 ], [ -3.2488, 40.4566 ], [ -3.246, 40.454 ], [ -3.2446, 40.4519 ], [ -3.2444, 40.4522 ], [ -3.2442, 40.4533 ], [ -3.244, 40.4535 ], [ -3.2441, 40.4547 ], [ -3.2436, 40.4552 ], [ -3.2435, 40.4564 ], [ -3.2437, 40.4574 ], [ -3.2434, 40.4578 ], [ -3.2429, 40.4581 ], [ -3.2412, 40.4598 ], [ -3.2409, 40.4609 ], [ -3.24, 40.4623 ], [ -3.2401, 40.4634 ], [ -3.2394, 40.4643 ], [ -3.2389, 40.4658 ], [ -3.2383, 40.4669 ], [ -3.237, 40.4687 ], [ -3.2376, 40.4694 ], [ -3.2371, 40.4698 ], [ -3.2375, 40.4703 ], [ -3.2377, 40.4708 ], [ -3.2378, 40.4708 ], [ -3.238, 40.4713 ] ] ] } },
{ "type": "Feature", "properties": { "municipio": "Santorcaz", "clasificacion": "urbanizable-no-sectorizado", "calificacion": "sin-asignar", "version": "vigente", "fuente": "SIT-CAM WFS — UsoDelSuelo:VPLA_V_CLASIFICACION (https://idem.comunidad.madrid/geosrvg/ows)", "fecha_dato": "2026-05-12", "ambito": "24343", "_raw_CD_SIGLAS": "SUBNS", "_raw_DS_CLASIF_GEN": "Suelo No Urbanizable Común", "_raw_DS_CLASIF_DET": "Suelo No Urbanizable Común", "_raw_DS_DOCU": "NORMAS SUBSIDIARIAS", "_raw_DS_LEY": "CM Ley 4/1984, E RDL 1/1992", "_raw_FC_AC": "1994-04-14", "_raw_NM_AREA_M2": 11902827.0091378, "_cam_code": "136" }, "geometry": { "type": "Polygon", "coordinates": [ [ [ -3.1993, 40.4689 ], [ -3.2007, 40.469 ], [ -3.2069, 40.4706 ], [ -3.208, 40.4711 ], [ -3.2114, 40.4721 ], [ -3.2148, 40.4725 ], [ -3.2173, 40.4731 ], [ -3.2181, 40.4735 ], [ -3.2207, 40.4741 ], [ -3.2256, 40.4747 ], [ -3.2266, 40.4746 ], [ -3.2287, 40.4741 ], [ -3.2286, 40.4704 ], [ -3.2285, 40.4704 ], [ -3.2284, 40.47 ], [ -3.2282, 40.4699 ], [ -3.228, 40.4695 ], [ -3.2276, 40.4692 ], [ -3.2291, 40.4685 ], [ -3.2311, 40.4685 ], [ -3.2347, 40.469 ], [ -3.2349, 40.4694 ], [ -3.2363, 40.4692 ], [ -3.237, 40.4686 ], [ -3.2383, 40.4667 ], [ -3.2389, 40.4655 ], [ -3.2393, 40.4642 ], [ -3.24, 40.4634 ], [ -3.2399, 40.4623 ], [ -3.2409, 40.4607 ], [ -3.2409, 40.4603 ], [ -3.2412, 40.4597 ], [ -3.243, 40.4579 ], [ -3.2435, 40.4576 ], [ -3.2434, 40.4565 ], [ -3.2435, 40.4552 ], [ -3.244, 40.4545 ], [ -3.2438, 40.4537 ], [ -3.2442, 40.453 ], [ -3.2442, 40.4526 ], [ -3.2445, 40.4518 ], [ -3.2426, 40.4515 ], [ -3.2401, 40.4513 ], [ -3.2374, 40.4503 ], [ -3.2349, 40.4491 ], [ -3.2343, 40.4455 ], [ -3.2352, 40.4444 ], [ -3.2343, 40.4434 ], [ -3.2336, 40.442 ], [ -3.2295, 40.4416 ], [ -3.226, 40.4409 ], [ -3.2247, 40.4403 ], [ -3.2223, 40.4397 ], [ -3.2221, 40.4395 ], [ -3.2195, 40.4393 ], [ -3.2183, 40.4389 ], [ -3.2171, 40.4381 ], [ -3.2159, 40.4379 ], [ -3.2112, 40.4346 ], [ -3.2112, 40.4344 ], [ -3.2101, 40.4346 ], [ -3.2077, 40.4371 ], [ -3.2062, 40.4379 ], [ -3.2033, 40.4391 ], [ -3.202, 40.4402 ], [ -3.2, 40.4405 ], [ -3.1986, 40.4423 ], [ -3.1998, 40.4444 ], [ -3.2005, 40.4463 ], [ -3.2003, 40.4475 ], [ -3.1993, 40.4512 ], [ -3.2, 40.4522 ], [ -3.1996, 40.4553 ], [ -3.1988, 40.4588 ], [ -3.1987, 40.4602 ], [ -3.199, 40.4621 ], [ -3.2002, 40.4638 ], [ -3.2002, 40.4656 ], [ -3.1993, 40.4689 ] ] ] } },
{ "type": "Feature", "properties": { "municipio": "Santorcaz", "clasificacion": "urbanizable-no-sectorizado", "calificacion": "sin-asignar", "version": "vigente", "fuente": "SIT-CAM WFS — UsoDelSuelo:VPLA_V_CLASIFICACION (https://idem.comunidad.madrid/geosrvg/ows)", "fecha_dato": "2026-05-12", "ambito": "24343", "_raw_CD_SIGLAS": "SUBNS", "_raw_DS_CLASIF_GEN": "Suelo No Urbanizable Común", "_raw_DS_CLASIF_DET": "Suelo No Urbanizable Común", "_raw_DS_DOCU": "NORMAS SUBSIDIARIAS", "_raw_DS_LEY": "CM Ley 4/1984, E RDL 1/1992", "_raw_FC_AC": "1994-04-14", "_raw_NM_AREA_M2": 675639.77107458794, "_cam_code": "136" }, "geometry": { "type": "Polygon", "coordinates": [ [ [ -3.2508, 40.4822 ], [ -3.2497, 40.484 ], [ -3.2476, 40.4848 ], [ -3.2469, 40.4856 ], [ -3.2457, 40.4863 ], [ -3.2457, 40.4871 ], [ -3.2459, 40.4874 ], [ -3.2456, 40.4877 ], [ -3.2449, 40.4891 ], [ -3.2447, 40.4898 ], [ -3.2444, 40.4901 ], [ -3.241, 40.4916 ], [ -3.2406, 40.4937 ], [ -3.2399, 40.4947 ], [ -3.2396, 40.4954 ], [ -3.2396, 40.4961 ], [ -3.2408, 40.4954 ], [ -3.2419, 40.4926 ], [ -3.2443, 40.4922 ], [ -3.2472, 40.4906 ], [ -3.2492, 40.4891 ], [ -3.2496, 40.4877 ], [ -3.2535, 40.4868 ], [ -3.2549, 40.4859 ], [ -3.2573, 40.4849 ], [ -3.2583, 40.484 ], [ -3.2585, 40.4828 ], [ -3.2588, 40.4824 ], [ -3.2593, 40.4822 ], [ -3.2587, 40.4814 ], [ -3.2581, 40.4817 ], [ -3.2577, 40.4809 ], [ -3.2573, 40.4796 ], [ -3.2563, 40.4803 ], [ -3.2559, 40.481 ], [ -3.2554, 40.4814 ], [ -3.255, 40.4824 ], [ -3.2545, 40.4827 ], [ -3.2538, 40.4827 ], [ -3.2531, 40.4823 ], [ -3.2519, 40.4823 ], [ -3.2513, 40.4821 ], [ -3.2508, 40.4822 ] ] ] } },
{ "type": "Feature", "properties": { "municipio": "Santorcaz", "clasificacion": "urbanizable-no-sectorizado", "calificacion": "sin-asignar", "version": "vigente", "fuente": "SIT-CAM WFS — UsoDelSuelo:VPLA_V_CLASIFICACION (https://idem.comunidad.madrid/geosrvg/ows)", "fecha_dato": "2026-05-12", "ambito": "24343", "_raw_CD_SIGLAS": "SUBNS", "_raw_DS_CLASIF_GEN": "Suelo No Urbanizable Común", "_raw_DS_CLASIF_DET": "Suelo No Urbanizable Común", "_raw_DS_DOCU": "NORMAS SUBSIDIARIAS", "_raw_DS_LEY": "CM Ley 4/1984, E RDL 1/1992", "_raw_FC_AC": "1994-04-14", "_raw_NM_AREA_M2": 5210079.1631947998, "_cam_code": "136" }, "geometry": { "type": "Polygon", "coordinates": [ [ [ -3.1953, 40.4786 ], [ -3.1961, 40.4805 ], [ -3.1968, 40.4832 ], [ -3.1972, 40.4855 ], [ -3.1991, 40.4879 ], [ -3.2007, 40.4945 ], [ -3.202, 40.4955 ], [ -3.2013, 40.4988 ], [ -3.2064, 40.5009 ], [ -3.2078, 40.4983 ], [ -3.2083, 40.4976 ], [ -3.2134, 40.4923 ], [ -3.214, 40.4915 ], [ -3.2154, 40.4891 ], [ -3.2167, 40.4883 ], [ -3.2183, 40.487 ], [ -3.2195, 40.4863 ], [ -3.2202, 40.4853 ], [ -3.2207, 40.4849 ], [ -3.2221, 40.4828 ], [ -3.2227, 40.4812 ], [ -3.2235, 40.48 ], [ -3.2259, 40.4785 ], [ -3.2264, 40.4783 ], [ -3.2275, 40.4773 ], [ -3.2269, 40.4772 ], [ -3.2259, 40.4765 ], [ -3.2246, 40.4769 ], [ -3.2241, 40.476 ], [ -3.2242, 40.476 ], [ -3.2243, 40.4757 ], [ -3.2261, 40.4749 ], [ -3.2263, 40.4753 ], [ -3.2275, 40.4749 ], [ -3.2287, 40.4744 ], [ -3.2287, 40.4742 ], [ -3.2267, 40.4747 ], [ -3.2247, 40.4747 ], [ -3.2208, 40.4742 ], [ -3.2195, 40.4738 ], [ -3.2177, 40.4735 ], [ -3.2174, 40.4732 ], [ -3.2147, 40.4726 ], [ -3.2114, 40.4722 ], [ -3.2069, 40.4707 ], [ -3.2044, 40.4701 ], [ -3.2018, 40.4693 ], [ -3.2001, 40.469 ], [ -3.1993, 40.469 ], [ -3.199, 40.4701 ], [ -3.1977, 40.4735 ], [ -3.1964, 40.4757 ], [ -3.1953, 40.4786 ] ] ] } },
{ "type": "Feature", "properties": { "municipio": "Santorcaz", "clasificacion": "urbanizable-no-sectorizado", "calificacion": "sin-asignar", "version": "vigente", "fuente": "SIT-CAM WFS — UsoDelSuelo:VPLA_V_CLASIFICACION (https://idem.comunidad.madrid/geosrvg/ows)", "fecha_dato": "2026-05-12", "ambito": "24343", "_raw_CD_SIGLAS": "SUBNS", "_raw_DS_CLASIF_GEN": "Suelo No Urbanizable Común", "_raw_DS_CLASIF_DET": "Suelo No Urbanizable Común", "_raw_DS_DOCU": "NORMAS SUBSIDIARIAS", "_raw_DS_LEY": "CM Ley 4/1984, E RDL 1/1992", "_raw_FC_AC": "1994-04-14", "_raw_NM_AREA_M2": 409747.23378535698, "_cam_code": "136" }, "geometry": { "type": "Polygon", "coordinates": [ [ [ -3.2284, 40.5016 ], [ -3.2316, 40.5011 ], [ -3.234, 40.5004 ], [ -3.2343, 40.4991 ], [ -3.2366, 40.4976 ], [ -3.2375, 40.4975 ], [ -3.2389, 40.4966 ], [ -3.2381, 40.4952 ], [ -3.2382, 40.495 ], [ -3.2379, 40.4944 ], [ -3.2369, 40.4934 ], [ -3.2344, 40.4917 ], [ -3.2347, 40.4927 ], [ -3.2343, 40.4939 ], [ -3.2324, 40.4957 ], [ -3.2314, 40.4964 ], [ -3.2308, 40.497 ], [ -3.2295, 40.499 ], [ -3.2286, 40.4999 ], [ -3.2288, 40.5012 ], [ -3.2287, 40.5011 ], [ -3.2284, 40.5016 ] ] ] } },
{ "type": "Feature", "properties": { "municipio": "Santorcaz", "clasificacion": "urbanizable-sectorizado", "calificacion": "sin-asignar", "version": "vigente", "fuente": "SIT-CAM WFS — UsoDelSuelo:VPLA_V_CLASIFICACION (https://idem.comunidad.madrid/geosrvg/ows)", "fecha_dato": "2026-05-12", "ambito": "24343", "_raw_CD_SIGLAS": "SUBS", "_raw_DS_CLASIF_GEN": "Suelo Apto Para Urbanizar", "_raw_DS_CLASIF_DET": "Suelo Apto para Urbanizar", "_raw_DS_DOCU": "NORMAS SUBSIDIARIAS", "_raw_DS_LEY": "CM Ley 4/1984, E RDL 1/1992", "_raw_FC_AC": "1994-04-14", "_raw_NM_AREA_M2": 58143.368579289301, "_cam_code": "136" }, "geometry": { "type": "Polygon", "coordinates": [ [ [ -3.2301, 40.4768 ], [ -3.2308, 40.4772 ], [ -3.2316, 40.4773 ], [ -3.2312, 40.4758 ], [ -3.2302, 40.4759 ], [ -3.2301, 40.4752 ], [ -3.2306, 40.4746 ], [ -3.2303, 40.4745 ], [ -3.2303, 40.4744 ], [ -3.23, 40.4744 ], [ -3.23, 40.4743 ], [ -3.2299, 40.4746 ], [ -3.2296, 40.4746 ], [ -3.2297, 40.4747 ], [ -3.2283, 40.4751 ], [ -3.2273, 40.4761 ], [ -3.2273, 40.4762 ], [ -3.2283, 40.4767 ], [ -3.2286, 40.4766 ], [ -3.2286, 40.4767 ], [ -3.2289, 40.4768 ], [ -3.2301, 40.4768 ] ] ] } },
{ "type": "Feature", "properties": { "municipio": "Santorcaz", "clasificacion": "urbanizable-sectorizado", "calificacion": "sin-asignar", "version": "vigente", "fuente": "SIT-CAM WFS — UsoDelSuelo:VPLA_V_CLASIFICACION (https://idem.comunidad.madrid/geosrvg/ows)", "fecha_dato": "2026-05-12", "ambito": "24343", "_raw_CD_SIGLAS": "SUBS", "_raw_DS_CLASIF_GEN": "Suelo Apto Para Urbanizar", "_raw_DS_CLASIF_DET": "Suelo Apto para Urbanizar", "_raw_DS_DOCU": "NORMAS SUBSIDIARIAS", "_raw_DS_LEY": "CM Ley 4/1984, E RDL 1/1992", "_raw_FC_AC": "1994-04-14", "_raw_NM_AREA_M2": 71851.475968761602, "_cam_code": "136" }, "geometry": { "type": "Polygon", "coordinates": [ [ [ -3.2276, 40.4692 ], [ -3.2289, 40.4705 ], [ -3.2298, 40.47 ], [ -3.2309, 40.4703 ], [ -3.2309, 40.4703 ], [ -3.2309, 40.4703 ], [ -3.2309, 40.4703 ], [ -3.2312, 40.4703 ], [ -3.2311, 40.4703 ], [ -3.2312, 40.4702 ], [ -3.2316, 40.4701 ], [ -3.2317, 40.4703 ], [ -3.2324, 40.4703 ], [ -3.2326, 40.4702 ], [ -3.2328, 40.4692 ], [ -3.2331, 40.4688 ], [ -3.2311, 40.4685 ], [ -3.2291, 40.4685 ], [ -3.2276, 40.4692 ] ] ] } }
]
}
