{
"type": "FeatureCollection",
"name": "vigente.full",
"features": [
{ "type": "Feature", "properties": { "municipio": "Moraleja de Enmedio", "clasificacion": "no-urbanizable-protegido", "calificacion": "sin-asignar", "version": "vigente", "fuente": "SIT-CAM WFS — UsoDelSuelo:VPLA_V_CLASIFICACION (https://idem.comunidad.madrid/geosrvg/ows)", "fecha_dato": "2026-05-12", "ambito": "94162", "_raw_CD_SIGLAS": "SNUP", "_raw_DS_CLASIF_GEN": "Suelo No Urbanizable Protegido", "_raw_DS_CLASIF_DET": "Suelo No Urbanizable de Especial Protección de Cauces y Riberas", "_raw_DS_DOCU": "NORMAS SUBSIDIARIAS", "_raw_DS_LEY": null, "_raw_FC_AC": "2017-12-15", "_raw_NM_AREA_M2": 1190883.9772928599, "_cam_code": "089" }, "geometry": { "type": "Polygon", "coordinates": [ [ [ -3.881, 40.278 ], [ -3.8857, 40.2787 ], [ -3.8859, 40.2782 ], [ -3.8874, 40.276 ], [ -3.8856, 40.2751 ], [ -3.8835, 40.2744 ], [ -3.8801, 40.2721 ], [ -3.8789, 40.2711 ], [ -3.8775, 40.2721 ], [ -3.8771, 40.2717 ], [ -3.876, 40.2703 ], [ -3.8771, 40.2697 ], [ -3.8737, 40.2637 ], [ -3.8744, 40.2609 ], [ -3.8729, 40.2606 ], [ -3.8726, 40.2606 ], [ -3.8725, 40.2608 ], [ -3.8722, 40.2608 ], [ -3.872, 40.262 ], [ -3.8724, 40.2634 ], [ -3.8717, 40.2633 ], [ -3.8713, 40.263 ], [ -3.8734, 40.2676 ], [ -3.8711, 40.2691 ], [ -3.8679, 40.2682 ], [ -3.8666, 40.2676 ], [ -3.8664, 40.2673 ], [ -3.8644, 40.2656 ], [ -3.8633, 40.2657 ], [ -3.8619, 40.2661 ], [ -3.862, 40.2662 ], [ -3.8619, 40.2664 ], [ -3.8601, 40.2663 ], [ -3.8581, 40.2669 ], [ -3.857, 40.2669 ], [ -3.8564, 40.2663 ], [ -3.8548, 40.2656 ], [ -3.8548, 40.2657 ], [ -3.8543, 40.2659 ], [ -3.8537, 40.2664 ], [ -3.8526, 40.2669 ], [ -3.8514, 40.2672 ], [ -3.8504, 40.2681 ], [ -3.8529, 40.2685 ], [ -3.8535, 40.2675 ], [ -3.8544, 40.2674 ], [ -3.8563, 40.2676 ], [ -3.8572, 40.2681 ], [ -3.858, 40.2676 ], [ -3.8597, 40.2677 ], [ -3.862, 40.2676 ], [ -3.862, 40.2686 ], [ -3.8619, 40.2687 ], [ -3.8633, 40.2687 ], [ -3.864, 40.2703 ], [ -3.8642, 40.2705 ], [ -3.8663, 40.2712 ], [ -3.8681, 40.2715 ], [ -3.8701, 40.2715 ], [ -3.8718, 40.2712 ], [ -3.8732, 40.2714 ], [ -3.8742, 40.2714 ], [ -3.8743, 40.2717 ], [ -3.8745, 40.2719 ], [ -3.8747, 40.2719 ], [ -3.8749, 40.2723 ], [ -3.8747, 40.2733 ], [ -3.8752, 40.2741 ], [ -3.8758, 40.2743 ], [ -3.8758, 40.2744 ], [ -3.877, 40.2745 ], [ -3.8779, 40.2749 ], [ -3.8779, 40.275 ], [ -3.8781, 40.275 ], [ -3.8781, 40.2751 ], [ -3.8783, 40.2751 ], [ -3.8788, 40.2755 ], [ -3.8793, 40.2762 ], [ -3.8795, 40.277 ], [ -3.88, 40.278 ], [ -3.881, 40.278 ] ] ] } },
{ "type": "Feature", "properties": { "municipio": "Moraleja de Enmedio", "clasificacion": "no-urbanizable-protegido", "calificacion": "sin-asignar", "version": "vigente", "fuente": "SIT-CAM WFS — UsoDelSuelo:VPLA_V_CLASIFICACION (https://idem.comunidad.madrid/geosrvg/ows)", "fecha_dato": "2026-05-12", "ambito": "94162", "_raw_CD_SIGLAS": "SNUP", "_raw_DS_CLASIF_GEN": "Suelo No Urbanizable Protegido", "_raw_DS_CLASIF_DET": "Suelo No Urbanizable de Especial Protección de Cauces y Riberas", "_raw_DS_DOCU": "NORMAS SUBSIDIARIAS", "_raw_DS_LEY": null, "_raw_FC_AC": "2017-12-15", "_raw_NM_AREA_M2": 2930929.6944594998, "_cam_code": "089" }, "geometry": { "type": "Polygon", "coordinates": [ [ [ -3.9019, 40.2592 ], [ -3.9033, 40.26 ], [ -3.9036, 40.26 ], [ -3.9036, 40.2601 ], [ -3.9039, 40.2601 ], [ -3.9043, 40.26 ], [ -3.9043, 40.2599 ], [ -3.9046, 40.2599 ], [ -3.9046, 40.2598 ], [ -3.9052, 40.2597 ], [ -3.9052, 40.2596 ], [ -3.906, 40.2599 ], [ -3.9075, 40.2593 ], [ -3.9041, 40.2569 ], [ -3.9031, 40.256 ], [ -3.9013, 40.2569 ], [ -3.9006, 40.257 ], [ -3.9006, 40.2571 ], [ -3.8998, 40.2557 ], [ -3.8995, 40.2555 ], [ -3.8993, 40.2549 ], [ -3.8991, 40.2548 ], [ -3.8991, 40.2546 ], [ -3.899, 40.2546 ], [ -3.8984, 40.2535 ], [ -3.8992, 40.2526 ], [ -3.8961, 40.2512 ], [ -3.8872, 40.2425 ], [ -3.8912, 40.2392 ], [ -3.8893, 40.2368 ], [ -3.8838, 40.24 ], [ -3.8796, 40.2386 ], [ -3.8758, 40.2361 ], [ -3.8746, 40.236 ], [ -3.8708, 40.235 ], [ -3.8697, 40.2356 ], [ -3.8643, 40.2368 ], [ -3.8603, 40.2358 ], [ -3.8593, 40.237 ], [ -3.8576, 40.2385 ], [ -3.8546, 40.2415 ], [ -3.8565, 40.2425 ], [ -3.858, 40.2438 ], [ -3.8631, 40.2445 ], [ -3.8644, 40.2429 ], [ -3.8659, 40.2405 ], [ -3.8666, 40.2403 ], [ -3.8678, 40.2402 ], [ -3.8678, 40.2401 ], [ -3.8682, 40.24 ], [ -3.8687, 40.24 ], [ -3.8687, 40.2399 ], [ -3.8698, 40.2396 ], [ -3.8703, 40.2391 ], [ -3.8704, 40.2388 ], [ -3.8707, 40.2387 ], [ -3.8709, 40.239 ], [ -3.871, 40.2407 ], [ -3.8732, 40.241 ], [ -3.8744, 40.2404 ], [ -3.8753, 40.2412 ], [ -3.8771, 40.2421 ], [ -3.874, 40.2436 ], [ -3.8746, 40.2444 ], [ -3.8766, 40.2445 ], [ -3.8785, 40.2443 ], [ -3.8797, 40.2446 ], [ -3.8805, 40.2445 ], [ -3.8818, 40.244 ], [ -3.8831, 40.2448 ], [ -3.8879, 40.2486 ], [ -3.8869, 40.251 ], [ -3.887, 40.2511 ], [ -3.8903, 40.2526 ], [ -3.8921, 40.2522 ], [ -3.8952, 40.2546 ], [ -3.8963, 40.256 ], [ -3.8963, 40.2563 ], [ -3.8961, 40.2566 ], [ -3.8938, 40.2578 ], [ -3.886, 40.257 ], [ -3.8859, 40.2571 ], [ -3.8859, 40.2588 ], [ -3.886, 40.2589 ], [ -3.8864, 40.259 ], [ -3.8878, 40.2589 ], [ -3.8894, 40.2592 ], [ -3.8894, 40.2593 ], [ -3.8912, 40.2598 ], [ -3.8916, 40.2598 ], [ -3.8926, 40.2593 ], [ -3.8954, 40.2594 ], [ -3.897, 40.2585 ], [ -3.8972, 40.2585 ], [ -3.8972, 40.2584 ], [ -3.8975, 40.2584 ], [ -3.8975, 40.2583 ], [ -3.8993, 40.2581 ], [ -3.8993, 40.2582 ], [ -3.8996, 40.2582 ], [ -3.8996, 40.2583 ], [ -3.8998, 40.2583 ], [ -3.9005, 40.2587 ], [ -3.901, 40.2588 ], [ -3.9014, 40.2591 ], [ -3.9019, 40.2592 ] ] ] } },
{ "type": "Feature", "properties": { "municipio": "Moraleja de Enmedio", "clasificacion": "no-urbanizable-protegido", "calificacion": "sin-asignar", "version": "vigente", "fuente": "SIT-CAM WFS — UsoDelSuelo:VPLA_V_CLASIFICACION (https://idem.comunidad.madrid/geosrvg/ows)", "fecha_dato": "2026-05-12", "ambito": "94162", "_raw_CD_SIGLAS": "SNUP", "_raw_DS_CLASIF_GEN": "Suelo No Urbanizable Protegido", "_raw_DS_CLASIF_DET": "Suelo No Urbanizable de Especial Protección de Cauces y Riberas", "_raw_DS_DOCU": "NORMAS SUBSIDIARIAS", "_raw_DS_LEY": null, "_raw_FC_AC": "2017-12-15", "_raw_NM_AREA_M2": 616730.92718067102, "_cam_code": "089" }, "geometry": { "type": "Polygon", "coordinates": [ [ [ -3.9393, 40.2627 ], [ -3.9406, 40.2627 ], [ -3.9409, 40.2626 ], [ -3.9409, 40.2624 ], [ -3.9406, 40.2623 ], [ -3.9404, 40.262 ], [ -3.9409, 40.2619 ], [ -3.9409, 40.2618 ], [ -3.9412, 40.2619 ], [ -3.9412, 40.2621 ], [ -3.9417, 40.2621 ], [ -3.9425, 40.2625 ], [ -3.9431, 40.2624 ], [ -3.9434, 40.2619 ], [ -3.9408, 40.2601 ], [ -3.9404, 40.26 ], [ -3.9403, 40.2597 ], [ -3.9397, 40.2592 ], [ -3.9393, 40.2586 ], [ -3.9384, 40.2577 ], [ -3.9383, 40.2568 ], [ -3.9377, 40.2559 ], [ -3.9376, 40.2545 ], [ -3.9368, 40.2538 ], [ -3.9359, 40.2535 ], [ -3.9346, 40.2517 ], [ -3.9343, 40.2517 ], [ -3.9309, 40.2489 ], [ -3.9281, 40.2498 ], [ -3.93, 40.2528 ], [ -3.9311, 40.2556 ], [ -3.9329, 40.2575 ], [ -3.9334, 40.2578 ], [ -3.9339, 40.2579 ], [ -3.934, 40.2586 ], [ -3.9347, 40.2591 ], [ -3.9353, 40.2594 ], [ -3.9369, 40.2594 ], [ -3.9371, 40.2597 ], [ -3.9379, 40.2598 ], [ -3.9379, 40.2601 ], [ -3.9382, 40.2603 ], [ -3.9382, 40.2606 ], [ -3.9384, 40.2606 ], [ -3.9384, 40.2611 ], [ -3.9394, 40.2623 ], [ -3.9393, 40.2627 ] ] ] } },
{ "type": "Feature", "properties": { "municipio": "Moraleja de Enmedio", "clasificacion": "urbano-consolidado", "calificacion": "sin-asignar", "version": "vigente", "fuente": "SIT-CAM WFS — UsoDelSuelo:VPLA_V_CLASIFICACION (https://idem.comunidad.madrid/geosrvg/ows)", "fecha_dato": "2026-05-12", "ambito": "94162", "_raw_CD_SIGLAS": "SU", "_raw_DS_CLASIF_GEN": "Suelo Urbano", "_raw_DS_CLASIF_DET": "Suelo Urbano", "_raw_DS_DOCU": "NORMAS SUBSIDIARIAS", "_raw_DS_LEY": null, "_raw_FC_AC": "2017-12-15", "_raw_NM_AREA_M2": 210592.37390000699, "_cam_code": "089" }, "geometry": { "type": "Polygon", "coordinates": [ [ [ -3.876, 40.2703 ], [ -3.8775, 40.2721 ], [ -3.8777, 40.272 ], [ -3.8778, 40.2718 ], [ -3.8784, 40.2715 ], [ -3.879, 40.271 ], [ -3.8792, 40.2711 ], [ -3.8819, 40.2692 ], [ -3.8812, 40.2687 ], [ -3.8834, 40.2674 ], [ -3.8813, 40.2656 ], [ -3.8807, 40.2653 ], [ -3.8793, 40.2649 ], [ -3.8788, 40.265 ], [ -3.8782, 40.2655 ], [ -3.8792, 40.2669 ], [ -3.8798, 40.2674 ], [ -3.8779, 40.2683 ], [ -3.8784, 40.269 ], [ -3.876, 40.2703 ] ] ] } },
{ "type": "Feature", "properties": { "municipio": "Moraleja de Enmedio", "clasificacion": "urbano-consolidado", "calificacion": "sin-asignar", "version": "vigente", "fuente": "SIT-CAM WFS — UsoDelSuelo:VPLA_V_CLASIFICACION (https://idem.comunidad.madrid/geosrvg/ows)", "fecha_dato": "2026-05-12", "ambito": "94162", "_raw_CD_SIGLAS": "SU", "_raw_DS_CLASIF_GEN": "Suelo Urbano", "_raw_DS_CLASIF_DET": "Suelo Urbano", "_raw_DS_DOCU": "NORMAS SUBSIDIARIAS", "_raw_DS_LEY": null, "_raw_FC_AC": "2017-12-15", "_raw_NM_AREA_M2": 1180408.1548492999, "_cam_code": "089" }, "geometry": { "type": "Polygon", "coordinates": [ [ [ -3.8473, 40.2626 ], [ -3.845, 40.2654 ], [ -3.8448, 40.2659 ], [ -3.8504, 40.2681 ], [ -3.8514, 40.2672 ], [ -3.8518, 40.2671 ], [ -3.8496, 40.2662 ], [ -3.8508, 40.2638 ], [ -3.8508, 40.2636 ], [ -3.851, 40.2634 ], [ -3.8511, 40.2629 ], [ -3.8538, 40.2636 ], [ -3.854, 40.2639 ], [ -3.8543, 40.264 ], [ -3.8545, 40.2643 ], [ -3.8549, 40.2645 ], [ -3.855, 40.2647 ], [ -3.8554, 40.2649 ], [ -3.8559, 40.2654 ], [ -3.8572, 40.265 ], [ -3.8577, 40.2646 ], [ -3.8579, 40.2647 ], [ -3.858, 40.2651 ], [ -3.8585, 40.2651 ], [ -3.8589, 40.2644 ], [ -3.859, 40.2639 ], [ -3.8592, 40.2639 ], [ -3.8597, 40.2634 ], [ -3.8599, 40.2634 ], [ -3.8601, 40.2636 ], [ -3.8603, 40.2632 ], [ -3.861, 40.2634 ], [ -3.8616, 40.2634 ], [ -3.8617, 40.2631 ], [ -3.8635, 40.2634 ], [ -3.8642, 40.2632 ], [ -3.8647, 40.2637 ], [ -3.8648, 40.264 ], [ -3.8653, 40.2646 ], [ -3.8657, 40.2648 ], [ -3.866, 40.2646 ], [ -3.8665, 40.2633 ], [ -3.8658, 40.2635 ], [ -3.865, 40.2627 ], [ -3.8642, 40.2626 ], [ -3.8642, 40.2625 ], [ -3.864, 40.2626 ], [ -3.8639, 40.2625 ], [ -3.8644, 40.2621 ], [ -3.8642, 40.2616 ], [ -3.8643, 40.2616 ], [ -3.8643, 40.2612 ], [ -3.8646, 40.2602 ], [ -3.8646, 40.2602 ], [ -3.8652, 40.2602 ], [ -3.8657, 40.2602 ], [ -3.8661, 40.2603 ], [ -3.8663, 40.2603 ], [ -3.8667, 40.2605 ], [ -3.8669, 40.2605 ], [ -3.8669, 40.2606 ], [ -3.8678, 40.2611 ], [ -3.8697, 40.2618 ], [ -3.8715, 40.2632 ], [ -3.8724, 40.2634 ], [ -3.872, 40.262 ], [ -3.8722, 40.2608 ], [ -3.8725, 40.2608 ], [ -3.8726, 40.2606 ], [ -3.8729, 40.2606 ], [ -3.8766, 40.2613 ], [ -3.8779, 40.2592 ], [ -3.8775, 40.2593 ], [ -3.8772, 40.2591 ], [ -3.875, 40.2586 ], [ -3.8747, 40.2587 ], [ -3.8745, 40.2586 ], [ -3.871, 40.2587 ], [ -3.8704, 40.2588 ], [ -3.867, 40.2602 ], [ -3.8667, 40.2602 ], [ -3.8667, 40.2601 ], [ -3.8652, 40.2602 ], [ -3.8643, 40.2601 ], [ -3.8645, 40.2599 ], [ -3.8646, 40.2595 ], [ -3.8647, 40.2595 ], [ -3.8648, 40.2589 ], [ -3.8642, 40.2591 ], [ -3.8623, 40.259 ], [ -3.8611, 40.259 ], [ -3.8609, 40.2591 ], [ -3.8601, 40.2588 ], [ -3.8599, 40.2585 ], [ -3.8593, 40.2587 ], [ -3.8594, 40.2589 ], [ -3.8588, 40.259 ], [ -3.8584, 40.2588 ], [ -3.8586, 40.2584 ], [ -3.8581, 40.2583 ], [ -3.8579, 40.2586 ], [ -3.8577, 40.2586 ], [ -3.8568, 40.2583 ], [ -3.8555, 40.2576 ], [ -3.8553, 40.2576 ], [ -3.8553, 40.2575 ], [ -3.8544, 40.2573 ], [ -3.8536, 40.2596 ], [ -3.8536, 40.2599 ], [ -3.8533, 40.2599 ], [ -3.8523, 40.2604 ], [ -3.8524, 40.2599 ], [ -3.8525, 40.2599 ], [ -3.8526, 40.2596 ], [ -3.8514, 40.2588 ], [ -3.8512, 40.2588 ], [ -3.8505, 40.2584 ], [ -3.8501, 40.2594 ], [ -3.8515, 40.2597 ], [ -3.8514, 40.2601 ], [ -3.8505, 40.26 ], [ -3.8501, 40.2612 ], [ -3.848, 40.2611 ], [ -3.8473, 40.2626 ] ] ] } },
{ "type": "Feature", "properties": { "municipio": "Moraleja de Enmedio", "clasificacion": "urbanizable-no-sectorizado", "calificacion": "sin-asignar", "version": "vigente", "fuente": "SIT-CAM WFS — UsoDelSuelo:VPLA_V_CLASIFICACION (https://idem.comunidad.madrid/geosrvg/ows)", "fecha_dato": "2026-05-12", "ambito": "94162", "_raw_CD_SIGLAS": "SUBNS", "_raw_DS_CLASIF_GEN": "Suelo No Urbanizable Común", "_raw_DS_CLASIF_DET": "Suelo No Urbanizable Común", "_raw_DS_DOCU": "NORMAS SUBSIDIARIAS", "_raw_DS_LEY": null, "_raw_FC_AC": "2017-12-15", "_raw_NM_AREA_M2": 7042057.4148652898, "_cam_code": "089" }, "geometry": { "type": "Polygon", "coordinates": [ [ [ -3.8448, 40.2659 ], [ -3.8439, 40.2671 ], [ -3.8434, 40.2681 ], [ -3.8427, 40.2691 ], [ -3.8415, 40.2728 ], [ -3.8408, 40.2741 ], [ -3.8398, 40.2753 ], [ -3.8397, 40.2764 ], [ -3.8395, 40.277 ], [ -3.8387, 40.2781 ], [ -3.8394, 40.2796 ], [ -3.8394, 40.2808 ], [ -3.8396, 40.2815 ], [ -3.84, 40.2825 ], [ -3.8407, 40.2836 ], [ -3.8408, 40.2851 ], [ -3.8411, 40.2857 ], [ -3.8429, 40.2859 ], [ -3.8446, 40.2864 ], [ -3.8459, 40.2866 ], [ -3.8461, 40.2868 ], [ -3.8467, 40.2869 ], [ -3.8464, 40.2876 ], [ -3.8494, 40.2881 ], [ -3.8507, 40.2881 ], [ -3.8516, 40.2878 ], [ -3.8519, 40.2871 ], [ -3.8558, 40.2876 ], [ -3.8568, 40.2879 ], [ -3.8574, 40.2878 ], [ -3.8574, 40.2879 ], [ -3.8577, 40.2879 ], [ -3.8577, 40.288 ], [ -3.8588, 40.288 ], [ -3.8589, 40.2881 ], [ -3.8592, 40.288 ], [ -3.8596, 40.2881 ], [ -3.8596, 40.2882 ], [ -3.8607, 40.2881 ], [ -3.8607, 40.2882 ], [ -3.8613, 40.2883 ], [ -3.8614, 40.2885 ], [ -3.8625, 40.2885 ], [ -3.8626, 40.2884 ], [ -3.8628, 40.2886 ], [ -3.8634, 40.2885 ], [ -3.8648, 40.2886 ], [ -3.865, 40.2884 ], [ -3.8661, 40.2884 ], [ -3.8663, 40.2882 ], [ -3.8684, 40.2883 ], [ -3.8689, 40.2881 ], [ -3.8703, 40.2883 ], [ -3.8717, 40.2882 ], [ -3.872, 40.2885 ], [ -3.8728, 40.2886 ], [ -3.8733, 40.2888 ], [ -3.8735, 40.2892 ], [ -3.874, 40.2894 ], [ -3.877, 40.2883 ], [ -3.8761, 40.2872 ], [ -3.8774, 40.2864 ], [ -3.8857, 40.2832 ], [ -3.8873, 40.2832 ], [ -3.887, 40.2821 ], [ -3.8848, 40.2803 ], [ -3.8852, 40.2802 ], [ -3.8857, 40.2787 ], [ -3.8815, 40.2781 ], [ -3.8815, 40.278 ], [ -3.88, 40.278 ], [ -3.8795, 40.277 ], [ -3.8793, 40.2762 ], [ -3.8788, 40.2755 ], [ -3.8783, 40.2751 ], [ -3.8781, 40.2751 ], [ -3.8781, 40.275 ], [ -3.8779, 40.275 ], [ -3.8779, 40.2749 ], [ -3.877, 40.2745 ], [ -3.8758, 40.2744 ], [ -3.8758, 40.2743 ], [ -3.8752, 40.2741 ], [ -3.8747, 40.2733 ], [ -3.8749, 40.2723 ], [ -3.8747, 40.2719 ], [ -3.8745, 40.2719 ], [ -3.8743, 40.2717 ], [ -3.8742, 40.2714 ], [ -3.8732, 40.2714 ], [ -3.8718, 40.2712 ], [ -3.8701, 40.2715 ], [ -3.8681, 40.2715 ], [ -3.8663, 40.2712 ], [ -3.8642, 40.2705 ], [ -3.864, 40.2703 ], [ -3.8633, 40.2687 ], [ -3.8619, 40.2687 ], [ -3.862, 40.2686 ], [ -3.862, 40.2676 ], [ -3.8603, 40.2677 ], [ -3.858, 40.2676 ], [ -3.8572, 40.2681 ], [ -3.8563, 40.2676 ], [ -3.8544, 40.2674 ], [ -3.8535, 40.2675 ], [ -3.8529, 40.2685 ], [ -3.8503, 40.2681 ], [ -3.8448, 40.2659 ] ] ] } },
{ "type": "Feature", "properties": { "municipio": "Moraleja de Enmedio", "clasificacion": "urbanizable-no-sectorizado", "calificacion": "sin-asignar", "version": "vigente", "fuente": "SIT-CAM WFS — UsoDelSuelo:VPLA_V_CLASIFICACION (https://idem.comunidad.madrid/geosrvg/ows)", "fecha_dato": "2026-05-12", "ambito": "94162", "_raw_CD_SIGLAS": "SUBNS", "_raw_DS_CLASIF_GEN": "Suelo No Urbanizable Común", "_raw_DS_CLASIF_DET": "Suelo No Urbanizable Común", "_raw_DS_DOCU": "NORMAS SUBSIDIARIAS", "_raw_DS_LEY": null, "_raw_FC_AC": "2017-12-15", "_raw_NM_AREA_M2": 446126.64273651398, "_cam_code": "089" }, "geometry": { "type": "Polygon", "coordinates": [ [ [ -3.8664, 40.2673 ], [ -3.8666, 40.2676 ], [ -3.8679, 40.2682 ], [ -3.8711, 40.2691 ], [ -3.8734, 40.2676 ], [ -3.8713, 40.263 ], [ -3.8709, 40.2628 ], [ -3.8702, 40.2621 ], [ -3.8697, 40.2618 ], [ -3.8679, 40.2611 ], [ -3.8675, 40.2614 ], [ -3.8674, 40.2622 ], [ -3.8665, 40.2633 ], [ -3.8659, 40.2647 ], [ -3.8656, 40.2648 ], [ -3.8653, 40.2646 ], [ -3.8648, 40.264 ], [ -3.8647, 40.2637 ], [ -3.864, 40.264 ], [ -3.8642, 40.2647 ], [ -3.8631, 40.2648 ], [ -3.8631, 40.265 ], [ -3.8621, 40.2652 ], [ -3.8611, 40.2652 ], [ -3.8611, 40.2653 ], [ -3.8604, 40.2653 ], [ -3.8596, 40.2651 ], [ -3.8592, 40.2657 ], [ -3.8597, 40.2664 ], [ -3.8601, 40.2663 ], [ -3.8619, 40.2664 ], [ -3.862, 40.2663 ], [ -3.8619, 40.2661 ], [ -3.8633, 40.2657 ], [ -3.8644, 40.2656 ], [ -3.8664, 40.2673 ] ] ] } },
{ "type": "Feature", "properties": { "municipio": "Moraleja de Enmedio", "clasificacion": "urbanizable-no-sectorizado", "calificacion": "sin-asignar", "version": "vigente", "fuente": "SIT-CAM WFS — UsoDelSuelo:VPLA_V_CLASIFICACION (https://idem.comunidad.madrid/geosrvg/ows)", "fecha_dato": "2026-05-12", "ambito": "94162", "_raw_CD_SIGLAS": "SUBNS", "_raw_DS_CLASIF_GEN": "Suelo No Urbanizable Común", "_raw_DS_CLASIF_DET": "Suelo No Urbanizable Común", "_raw_DS_DOCU": "NORMAS SUBSIDIARIAS", "_raw_DS_LEY": null, "_raw_FC_AC": "2017-12-15", "_raw_NM_AREA_M2": 17024733.341680899, "_cam_code": "089" }, "geometry": { "type": "Polygon", "coordinates": [ [ [ -3.8789, 40.2711 ], [ -3.8801, 40.2721 ], [ -3.8835, 40.2744 ], [ -3.8856, 40.2751 ], [ -3.8874, 40.276 ], [ -3.8914, 40.2726 ], [ -3.8945, 40.2697 ], [ -3.8961, 40.2684 ], [ -3.8971, 40.2678 ], [ -3.898, 40.2667 ], [ -3.8984, 40.2668 ], [ -3.899, 40.2654 ], [ -3.9014, 40.263 ], [ -3.902, 40.2622 ], [ -3.9043, 40.26 ], [ -3.9039, 40.2601 ], [ -3.9033, 40.26 ], [ -3.9019, 40.2592 ], [ -3.9014, 40.2591 ], [ -3.901, 40.2588 ], [ -3.9005, 40.2587 ], [ -3.8998, 40.2583 ], [ -3.8996, 40.2583 ], [ -3.8996, 40.2582 ], [ -3.8993, 40.2582 ], [ -3.8993, 40.2581 ], [ -3.8975, 40.2583 ], [ -3.8975, 40.2584 ], [ -3.8972, 40.2584 ], [ -3.8972, 40.2585 ], [ -3.897, 40.2585 ], [ -3.8954, 40.2594 ], [ -3.8926, 40.2593 ], [ -3.8916, 40.2598 ], [ -3.8912, 40.2598 ], [ -3.8894, 40.2593 ], [ -3.8894, 40.2592 ], [ -3.8878, 40.2589 ], [ -3.8866, 40.259 ], [ -3.886, 40.2589 ], [ -3.8859, 40.2588 ], [ -3.8859, 40.2571 ], [ -3.886, 40.257 ], [ -3.8938, 40.2578 ], [ -3.8961, 40.2566 ], [ -3.8963, 40.2563 ], [ -3.8963, 40.256 ], [ -3.8952, 40.2546 ], [ -3.8921, 40.2522 ], [ -3.8903, 40.2526 ], [ -3.887, 40.2511 ], [ -3.8869, 40.251 ], [ -3.8879, 40.2486 ], [ -3.8831, 40.2448 ], [ -3.8818, 40.244 ], [ -3.8805, 40.2445 ], [ -3.8797, 40.2446 ], [ -3.8785, 40.2443 ], [ -3.8766, 40.2445 ], [ -3.8746, 40.2444 ], [ -3.874, 40.2436 ], [ -3.8771, 40.2421 ], [ -3.8753, 40.2412 ], [ -3.8744, 40.2404 ], [ -3.8732, 40.241 ], [ -3.871, 40.2407 ], [ -3.8709, 40.239 ], [ -3.8707, 40.2387 ], [ -3.8704, 40.2388 ], [ -3.8703, 40.2391 ], [ -3.8698, 40.2396 ], [ -3.8687, 40.2399 ], [ -3.8687, 40.24 ], [ -3.8682, 40.24 ], [ -3.8678, 40.2401 ], [ -3.8678, 40.2402 ], [ -3.8666, 40.2403 ], [ -3.8659, 40.2405 ], [ -3.8644, 40.2429 ], [ -3.8631, 40.2445 ], [ -3.8578, 40.2437 ], [ -3.8573, 40.2431 ], [ -3.8565, 40.2425 ], [ -3.8546, 40.2415 ], [ -3.8576, 40.2385 ], [ -3.8593, 40.237 ], [ -3.8603, 40.2358 ], [ -3.8643, 40.2368 ], [ -3.8697, 40.2356 ], [ -3.8708, 40.235 ], [ -3.8746, 40.236 ], [ -3.8758, 40.2361 ], [ -3.8796, 40.2386 ], [ -3.8838, 40.24 ], [ -3.8893, 40.2368 ], [ -3.8912, 40.2392 ], [ -3.8872, 40.2425 ], [ -3.8961, 40.2512 ], [ -3.8992, 40.2526 ], [ -3.8984, 40.2535 ], [ -3.899, 40.2546 ], [ -3.8991, 40.2546 ], [ -3.8991, 40.2548 ], [ -3.8993, 40.2549 ], [ -3.8995, 40.2555 ], [ -3.8998, 40.2557 ], [ -3.9006, 40.2571 ], [ -3.9006, 40.257 ], [ -3.9013, 40.2569 ], [ -3.9031, 40.256 ], [ -3.9041, 40.2569 ], [ -3.9075, 40.2593 ], [ -3.9083, 40.259 ], [ -3.9098, 40.2578 ], [ -3.912, 40.2563 ], [ -3.913, 40.2567 ], [ -3.9133, 40.2567 ], [ -3.9137, 40.2571 ], [ -3.9141, 40.2584 ], [ -3.9143, 40.2586 ], [ -3.9143, 40.2591 ], [ -3.9141, 40.2593 ], [ -3.9141, 40.2596 ], [ -3.9146, 40.2601 ], [ -3.9157, 40.2608 ], [ -3.9169, 40.2609 ], [ -3.9172, 40.2609 ], [ -3.9197, 40.2598 ], [ -3.9211, 40.2591 ], [ -3.923, 40.2579 ], [ -3.9254, 40.257 ], [ -3.9257, 40.257 ], [ -3.9257, 40.2571 ], [ -3.9287, 40.257 ], [ -3.9287, 40.2569 ], [ -3.9297, 40.2567 ], [ -3.9301, 40.2565 ], [ -3.9315, 40.2566 ], [ -3.9324, 40.257 ], [ -3.9311, 40.2556 ], [ -3.93, 40.2528 ], [ -3.9281, 40.2498 ], [ -3.9309, 40.2489 ], [ -3.9343, 40.2517 ], [ -3.9346, 40.2517 ], [ -3.9359, 40.2535 ], [ -3.9368, 40.2538 ], [ -3.9376, 40.2545 ], [ -3.9377, 40.2559 ], [ -3.9383, 40.2568 ], [ -3.9388, 40.256 ], [ -3.9388, 40.2558 ], [ -3.9389, 40.2558 ], [ -3.9389, 40.2523 ], [ -3.9376, 40.2517 ], [ -3.9373, 40.2512 ], [ -3.9369, 40.2497 ], [ -3.9367, 40.2497 ], [ -3.936, 40.2493 ], [ -3.9349, 40.2484 ], [ -3.9337, 40.2476 ], [ -3.9333, 40.2475 ], [ -3.9333, 40.2474 ], [ -3.9316, 40.2473 ], [ -3.9305, 40.2477 ], [ -3.9292, 40.2479 ], [ -3.9277, 40.2488 ], [ -3.9266, 40.2488 ], [ -3.926, 40.2486 ], [ -3.9259, 40.2482 ], [ -3.9258, 40.2482 ], [ -3.9253, 40.2473 ], [ -3.9252, 40.2467 ], [ -3.9244, 40.2458 ], [ -3.9236, 40.2456 ], [ -3.9229, 40.2456 ], [ -3.9223, 40.2453 ], [ -3.9204, 40.2452 ], [ -3.9187, 40.2448 ], [ -3.917, 40.2437 ], [ -3.9163, 40.2437 ], [ -3.9154, 40.244 ], [ -3.9146, 40.244 ], [ -3.914, 40.2429 ], [ -3.9133, 40.2423 ], [ -3.9127, 40.2423 ], [ -3.9114, 40.2416 ], [ -3.9099, 40.2405 ], [ -3.9096, 40.2399 ], [ -3.9082, 40.2386 ], [ -3.9068, 40.2382 ], [ -3.9062, 40.2377 ], [ -3.9041, 40.2347 ], [ -3.9002, 40.2325 ], [ -3.8959, 40.2322 ], [ -3.893, 40.2317 ], [ -3.8915, 40.2316 ], [ -3.8906, 40.2326 ], [ -3.89, 40.2328 ], [ -3.8884, 40.2328 ], [ -3.8883, 40.2326 ], [ -3.8877, 40.2325 ], [ -3.8877, 40.2324 ], [ -3.8872, 40.2324 ], [ -3.8871, 40.2322 ], [ -3.8857, 40.2323 ], [ -3.8851, 40.2321 ], [ -3.8845, 40.2321 ], [ -3.8843, 40.2323 ], [ -3.8839, 40.2323 ], [ -3.883, 40.2326 ], [ -3.8824, 40.233 ], [ -3.8815, 40.233 ], [ -3.8809, 40.2328 ], [ -3.8805, 40.233 ], [ -3.88, 40.233 ], [ -3.8793, 40.2323 ], [ -3.8793, 40.232 ], [ -3.8789, 40.2313 ], [ -3.8788, 40.2313 ], [ -3.8785, 40.2304 ], [ -3.8777, 40.2293 ], [ -3.8715, 40.2279 ], [ -3.871, 40.2275 ], [ -3.8679, 40.2257 ], [ -3.8659, 40.2292 ], [ -3.8644, 40.2311 ], [ -3.8628, 40.2304 ], [ -3.8612, 40.2329 ], [ -3.8606, 40.2336 ], [ -3.8601, 40.2334 ], [ -3.8573, 40.2363 ], [ -3.8562, 40.2381 ], [ -3.8538, 40.2381 ], [ -3.8515, 40.2368 ], [ -3.8518, 40.2379 ], [ -3.8519, 40.2393 ], [ -3.8529, 40.2411 ], [ -3.8532, 40.2429 ], [ -3.8536, 40.2442 ], [ -3.8535, 40.2457 ], [ -3.8537, 40.2469 ], [ -3.8537, 40.2492 ], [ -3.8533, 40.251 ], [ -3.8531, 40.2514 ], [ -3.8516, 40.2529 ], [ -3.8515, 40.2533 ], [ -3.85, 40.2557 ], [ -3.8513, 40.2564 ], [ -3.8553, 40.2575 ], [ -3.8553, 40.2576 ], [ -3.8555, 40.2576 ], [ -3.8568, 40.2583 ], [ -3.8577, 40.2586 ], [ -3.8579, 40.2586 ], [ -3.8581, 40.2583 ], [ -3.8586, 40.2584 ], [ -3.8584, 40.2588 ], [ -3.8588, 40.259 ], [ -3.8594, 40.2589 ], [ -3.8593, 40.2587 ], [ -3.8599, 40.2585 ], [ -3.8601, 40.2588 ], [ -3.8609, 40.2591 ], [ -3.8611, 40.259 ], [ -3.8642, 40.2591 ], [ -3.8648, 40.2589 ], [ -3.8647, 40.2595 ], [ -3.8646, 40.2595 ], [ -3.8645, 40.2599 ], [ -3.8643, 40.2601 ], [ -3.8652, 40.2602 ], [ -3.8667, 40.2601 ], [ -3.8667, 40.2602 ], [ -3.867, 40.2602 ], [ -3.8704, 40.2588 ], [ -3.871, 40.2587 ], [ -3.8726, 40.2586 ], [ -3.8745, 40.2586 ], [ -3.8747, 40.2587 ], [ -3.875, 40.2586 ], [ -3.8772, 40.2591 ], [ -3.8775, 40.2593 ], [ -3.8779, 40.2592 ], [ -3.8766, 40.2613 ], [ -3.8744, 40.2609 ], [ -3.8737, 40.2637 ], [ -3.8771, 40.2697 ], [ -3.8784, 40.269 ], [ -3.8779, 40.2683 ], [ -3.8798, 40.2674 ], [ -3.8792, 40.2669 ], [ -3.8782, 40.2655 ], [ -3.8788, 40.265 ], [ -3.8793, 40.2649 ], [ -3.8807, 40.2653 ], [ -3.8813, 40.2656 ], [ -3.8834, 40.2674 ], [ -3.8813, 40.2686 ], [ -3.8812, 40.2687 ], [ -3.8819, 40.2692 ], [ -3.8792, 40.2711 ], [ -3.879, 40.271 ], [ -3.8789, 40.2711 ] ] ] } },
{ "type": "Feature", "properties": { "municipio": "Moraleja de Enmedio", "clasificacion": "urbanizable-sectorizado", "calificacion": "sin-asignar", "version": "vigente", "fuente": "SIT-CAM WFS — UsoDelSuelo:VPLA_V_CLASIFICACION (https://idem.comunidad.madrid/geosrvg/ows)", "fecha_dato": "2026-05-12", "ambito": "94162", "_raw_CD_SIGLAS": "SUBS", "_raw_DS_CLASIF_GEN": "Suelo Apto Para Urbanizar", "_raw_DS_CLASIF_DET": "Suelo Apto Para Urbanizar", "_raw_DS_DOCU": "NORMAS SUBSIDIARIAS", "_raw_DS_LEY": null, "_raw_FC_AC": "2017-12-15", "_raw_NM_AREA_M2": 284440.70920753398, "_cam_code": "089" }, "geometry": { "type": "Polygon", "coordinates": [ [ [ -3.8508, 40.2638 ], [ -3.8496, 40.2662 ], [ -3.8518, 40.2671 ], [ -3.8526, 40.2669 ], [ -3.8537, 40.2664 ], [ -3.8543, 40.2659 ], [ -3.8549, 40.2656 ], [ -3.8564, 40.2663 ], [ -3.857, 40.2669 ], [ -3.8581, 40.2669 ], [ -3.8597, 40.2664 ], [ -3.8595, 40.2662 ], [ -3.8595, 40.266 ], [ -3.8592, 40.2658 ], [ -3.8596, 40.2651 ], [ -3.8604, 40.2653 ], [ -3.8611, 40.2653 ], [ -3.8611, 40.2652 ], [ -3.8621, 40.2652 ], [ -3.8631, 40.265 ], [ -3.8631, 40.2648 ], [ -3.8642, 40.2647 ], [ -3.864, 40.264 ], [ -3.8647, 40.2637 ], [ -3.8642, 40.2632 ], [ -3.8637, 40.2634 ], [ -3.8618, 40.2631 ], [ -3.8617, 40.2631 ], [ -3.8616, 40.2634 ], [ -3.861, 40.2634 ], [ -3.8603, 40.2632 ], [ -3.8601, 40.2636 ], [ -3.8599, 40.2634 ], [ -3.8597, 40.2634 ], [ -3.8592, 40.2639 ], [ -3.859, 40.2639 ], [ -3.8589, 40.2644 ], [ -3.8585, 40.2651 ], [ -3.858, 40.2651 ], [ -3.8579, 40.2647 ], [ -3.8577, 40.2646 ], [ -3.8572, 40.265 ], [ -3.8559, 40.2654 ], [ -3.8554, 40.2649 ], [ -3.855, 40.2647 ], [ -3.8549, 40.2645 ], [ -3.8545, 40.2643 ], [ -3.8543, 40.264 ], [ -3.854, 40.2639 ], [ -3.8538, 40.2636 ], [ -3.8511, 40.2629 ], [ -3.851, 40.2634 ], [ -3.8508, 40.2636 ], [ -3.8508, 40.2638 ] ] ] } },
{ "type": "Feature", "properties": { "municipio": "Moraleja de Enmedio", "clasificacion": "urbanizable-sectorizado", "calificacion": "sin-asignar", "version": "vigente", "fuente": "SIT-CAM WFS — UsoDelSuelo:VPLA_V_CLASIFICACION (https://idem.comunidad.madrid/geosrvg/ows)", "fecha_dato": "2026-05-12", "ambito": "94162", "_raw_CD_SIGLAS": "SUBS", "_raw_DS_CLASIF_GEN": "Suelo Apto Para Urbanizar", "_raw_DS_CLASIF_DET": "Suelo Apto Para Urbanizar", "_raw_DS_DOCU": "NORMAS SUBSIDIARIAS", "_raw_DS_LEY": null, "_raw_FC_AC": "2017-12-15", "_raw_NM_AREA_M2": 77795.735500015799, "_cam_code": "089" }, "geometry": { "type": "Polygon", "coordinates": [ [ [ -3.8657, 40.2634 ], [ -3.866, 40.2635 ], [ -3.8667, 40.2631 ], [ -3.8673, 40.2624 ], [ -3.8674, 40.2616 ], [ -3.8678, 40.2611 ], [ -3.8669, 40.2606 ], [ -3.8669, 40.2605 ], [ -3.8663, 40.2603 ], [ -3.8646, 40.2602 ], [ -3.8643, 40.2612 ], [ -3.8643, 40.2616 ], [ -3.8642, 40.2616 ], [ -3.8644, 40.2621 ], [ -3.8639, 40.2625 ], [ -3.864, 40.2626 ], [ -3.8642, 40.2625 ], [ -3.8642, 40.2626 ], [ -3.865, 40.2627 ], [ -3.8657, 40.2634 ] ] ] } },
{ "type": "Feature", "properties": { "municipio": "Moraleja de Enmedio", "clasificacion": "urbanizable-sectorizado", "calificacion": "sin-asignar", "version": "vigente", "fuente": "SIT-CAM WFS — UsoDelSuelo:VPLA_V_CLASIFICACION (https://idem.comunidad.madrid/geosrvg/ows)", "fecha_dato": "2026-05-12", "ambito": "94162", "_raw_CD_SIGLAS": "SUBS", "_raw_DS_CLASIF_GEN": "Suelo Apto Para Urbanizar", "_raw_DS_CLASIF_DET": "Suelo Apto Para Urbanizar", "_raw_DS_DOCU": "NORMAS SUBSIDIARIAS", "_raw_DS_LEY": null, "_raw_FC_AC": "2017-12-15", "_raw_NM_AREA_M2": 166536.287053334, "_cam_code": "089" }, "geometry": { "type": "Polygon", "coordinates": [ [ [ -3.8485, 40.26 ], [ -3.8484, 40.26 ], [ -3.848, 40.2611 ], [ -3.8501, 40.2612 ], [ -3.8505, 40.26 ], [ -3.8514, 40.2601 ], [ -3.8515, 40.2598 ], [ -3.8513, 40.2596 ], [ -3.8501, 40.2594 ], [ -3.8505, 40.2584 ], [ -3.8512, 40.2588 ], [ -3.8514, 40.2588 ], [ -3.8526, 40.2596 ], [ -3.8525, 40.2599 ], [ -3.8524, 40.2599 ], [ -3.8523, 40.2604 ], [ -3.8533, 40.2599 ], [ -3.8536, 40.2599 ], [ -3.8536, 40.2596 ], [ -3.8544, 40.2573 ], [ -3.8513, 40.2564 ], [ -3.85, 40.2557 ], [ -3.8495, 40.2566 ], [ -3.8495, 40.2576 ], [ -3.8486, 40.2595 ], [ -3.8485, 40.26 ] ] ] } }
]
}
