{
"type": "FeatureCollection",
"name": "vigente.full",
"features": [
{ "type": "Feature", "properties": { "municipio": "Colmenar de Oreja", "clasificacion": "no-urbanizable-protegido", "calificacion": "sin-asignar", "version": "vigente", "fuente": "SIT-CAM WFS — UsoDelSuelo:VPLA_V_CLASIFICACION (https://idem.comunidad.madrid/geosrvg/ows)", "fecha_dato": "2026-05-12", "ambito": "58", "_raw_CD_SIGLAS": "SNUP", "_raw_DS_CLASIF_GEN": "Suelo No Urbanizable Protegido", "_raw_DS_CLASIF_DET": "Suelo No Urbanizable Especialmente Protegido", "_raw_DS_DOCU": "NORMAS SUBSIDIARIAS", "_raw_DS_LEY": "CM Ley 4/1984, E RDL 1/1992", "_raw_FC_AC": "1985-01-31", "_raw_NM_AREA_M2": 978436.90017224196, "_cam_code": "043" }, "geometry": { "type": "Polygon", "coordinates": [ [ [ -3.3849, 40.1064 ], [ -3.386, 40.106 ], [ -3.386, 40.1059 ], [ -3.3859, 40.106 ], [ -3.386, 40.1058 ], [ -3.3868, 40.1063 ], [ -3.3875, 40.1063 ], [ -3.3877, 40.1044 ], [ -3.3887, 40.1041 ], [ -3.3888, 40.1038 ], [ -3.3901, 40.1038 ], [ -3.3899, 40.1043 ], [ -3.3896, 40.1045 ], [ -3.3898, 40.1047 ], [ -3.3911, 40.1048 ], [ -3.3921, 40.1044 ], [ -3.3924, 40.1045 ], [ -3.3926, 40.105 ], [ -3.3933, 40.1048 ], [ -3.3935, 40.1054 ], [ -3.3941, 40.1052 ], [ -3.394, 40.1055 ], [ -3.3945, 40.1055 ], [ -3.3966, 40.1042 ], [ -3.3968, 40.1021 ], [ -3.3962, 40.1014 ], [ -3.3955, 40.1015 ], [ -3.3946, 40.1013 ], [ -3.3944, 40.1011 ], [ -3.3944, 40.1007 ], [ -3.3938, 40.0992 ], [ -3.3935, 40.0988 ], [ -3.3926, 40.099 ], [ -3.3913, 40.0982 ], [ -3.3908, 40.0977 ], [ -3.3901, 40.0973 ], [ -3.3898, 40.0969 ], [ -3.3891, 40.0965 ], [ -3.3882, 40.0963 ], [ -3.3883, 40.0967 ], [ -3.3882, 40.097 ], [ -3.3877, 40.0973 ], [ -3.3871, 40.097 ], [ -3.3864, 40.0971 ], [ -3.386, 40.0973 ], [ -3.384, 40.0971 ], [ -3.3825, 40.0979 ], [ -3.3822, 40.0985 ], [ -3.3817, 40.0988 ], [ -3.3817, 40.0994 ], [ -3.3824, 40.1004 ], [ -3.382, 40.1008 ], [ -3.3817, 40.1017 ], [ -3.3818, 40.103 ], [ -3.3817, 40.104 ], [ -3.3815, 40.1043 ], [ -3.3819, 40.1052 ], [ -3.3812, 40.1059 ], [ -3.3818, 40.106 ], [ -3.3817, 40.1059 ], [ -3.3825, 40.1054 ], [ -3.3825, 40.1056 ], [ -3.3828, 40.1055 ], [ -3.3829, 40.1056 ], [ -3.3831, 40.1062 ], [ -3.3833, 40.106 ], [ -3.3849, 40.1064 ] ] ] } },
{ "type": "Feature", "properties": { "municipio": "Colmenar de Oreja", "clasificacion": "no-urbanizable-protegido", "calificacion": "sin-asignar", "version": "vigente", "fuente": "SIT-CAM WFS — UsoDelSuelo:VPLA_V_CLASIFICACION (https://idem.comunidad.madrid/geosrvg/ows)", "fecha_dato": "2026-05-12", "ambito": "58", "_raw_CD_SIGLAS": "SNUP", "_raw_DS_CLASIF_GEN": "Suelo No Urbanizable Protegido", "_raw_DS_CLASIF_DET": "Suelo No Urbanizable Especialmente Protegido", "_raw_DS_DOCU": "NORMAS SUBSIDIARIAS", "_raw_DS_LEY": "CM Ley 4/1984, E RDL 1/1992", "_raw_FC_AC": "1985-01-31", "_raw_NM_AREA_M2": 18209867.3452195, "_cam_code": "043" }, "geometry": { "type": "Polygon", "coordinates": [ [ [ -3.5273, 40.0698 ], [ -3.5316, 40.0686 ], [ -3.5339, 40.0682 ], [ -3.5355, 40.0682 ], [ -3.5345, 40.0576 ], [ -3.5338, 40.052 ], [ -3.5401, 40.0522 ], [ -3.546, 40.0506 ], [ -3.5442, 40.0493 ], [ -3.5411, 40.0503 ], [ -3.5388, 40.0504 ], [ -3.5381, 40.0502 ], [ -3.5374, 40.0498 ], [ -3.5371, 40.0494 ], [ -3.5367, 40.0492 ], [ -3.5356, 40.0491 ], [ -3.535, 40.0494 ], [ -3.534, 40.0507 ], [ -3.5339, 40.051 ], [ -3.5329, 40.0518 ], [ -3.531, 40.0519 ], [ -3.5302, 40.0517 ], [ -3.5288, 40.0517 ], [ -3.5285, 40.0515 ], [ -3.5284, 40.0499 ], [ -3.528, 40.0487 ], [ -3.5277, 40.0483 ], [ -3.5269, 40.0477 ], [ -3.5263, 40.0476 ], [ -3.5259, 40.0477 ], [ -3.5254, 40.0481 ], [ -3.525, 40.0489 ], [ -3.5251, 40.0492 ], [ -3.525, 40.0496 ], [ -3.5243, 40.0505 ], [ -3.523, 40.0513 ], [ -3.5209, 40.0522 ], [ -3.5201, 40.0522 ], [ -3.52, 40.0523 ], [ -3.519, 40.0524 ], [ -3.5183, 40.0517 ], [ -3.5184, 40.0517 ], [ -3.5188, 40.0508 ], [ -3.5189, 40.0508 ], [ -3.5189, 40.0501 ], [ -3.5187, 40.0496 ], [ -3.5189, 40.0491 ], [ -3.5189, 40.0485 ], [ -3.5184, 40.0478 ], [ -3.5183, 40.0472 ], [ -3.518, 40.0468 ], [ -3.5178, 40.0468 ], [ -3.5178, 40.0467 ], [ -3.5167, 40.0468 ], [ -3.5163, 40.0471 ], [ -3.5152, 40.0487 ], [ -3.5142, 40.0486 ], [ -3.5138, 40.0482 ], [ -3.5136, 40.0476 ], [ -3.5135, 40.0467 ], [ -3.5139, 40.045 ], [ -3.5142, 40.0447 ], [ -3.5145, 40.0446 ], [ -3.515, 40.0446 ], [ -3.5156, 40.0449 ], [ -3.5164, 40.0449 ], [ -3.5173, 40.0446 ], [ -3.5175, 40.0444 ], [ -3.5175, 40.0442 ], [ -3.5176, 40.0442 ], [ -3.5176, 40.0439 ], [ -3.5173, 40.0435 ], [ -3.5169, 40.0434 ], [ -3.5164, 40.0434 ], [ -3.5157, 40.0432 ], [ -3.5149, 40.0433 ], [ -3.5141, 40.0429 ], [ -3.5125, 40.0426 ], [ -3.5118, 40.0427 ], [ -3.5115, 40.0429 ], [ -3.5113, 40.0433 ], [ -3.5113, 40.0436 ], [ -3.5116, 40.044 ], [ -3.5115, 40.0448 ], [ -3.5116, 40.0458 ], [ -3.5113, 40.046 ], [ -3.511, 40.046 ], [ -3.5102, 40.0456 ], [ -3.5098, 40.0452 ], [ -3.5082, 40.0444 ], [ -3.5076, 40.0443 ], [ -3.5069, 40.0445 ], [ -3.5065, 40.045 ], [ -3.5064, 40.0456 ], [ -3.5075, 40.0479 ], [ -3.5074, 40.0482 ], [ -3.5068, 40.0487 ], [ -3.506, 40.0488 ], [ -3.5057, 40.0485 ], [ -3.505, 40.0471 ], [ -3.5038, 40.0462 ], [ -3.5029, 40.0458 ], [ -3.5009, 40.0452 ], [ -3.5004, 40.0452 ], [ -3.4993, 40.0449 ], [ -3.498, 40.0453 ], [ -3.4968, 40.046 ], [ -3.4964, 40.0465 ], [ -3.4963, 40.0472 ], [ -3.4957, 40.0476 ], [ -3.4937, 40.0473 ], [ -3.4919, 40.0478 ], [ -3.4906, 40.0476 ], [ -3.4902, 40.0473 ], [ -3.49, 40.045 ], [ -3.4894, 40.044 ], [ -3.4893, 40.0427 ], [ -3.489, 40.0418 ], [ -3.4886, 40.0413 ], [ -3.4881, 40.0412 ], [ -3.4871, 40.0412 ], [ -3.4859, 40.0418 ], [ -3.4855, 40.0423 ], [ -3.485, 40.0434 ], [ -3.485, 40.0437 ], [ -3.4853, 40.0443 ], [ -3.485, 40.045 ], [ -3.4844, 40.0455 ], [ -3.4832, 40.0461 ], [ -3.4824, 40.0461 ], [ -3.4818, 40.0459 ], [ -3.4803, 40.045 ], [ -3.4795, 40.0448 ], [ -3.4781, 40.0448 ], [ -3.4759, 40.0455 ], [ -3.4753, 40.0455 ], [ -3.474, 40.0459 ], [ -3.4725, 40.046 ], [ -3.4724, 40.0459 ], [ -3.4724, 40.0453 ], [ -3.4732, 40.0436 ], [ -3.4733, 40.0431 ], [ -3.4732, 40.0421 ], [ -3.4721, 40.041 ], [ -3.4707, 40.0407 ], [ -3.4697, 40.0408 ], [ -3.4675, 40.0421 ], [ -3.4638, 40.044 ], [ -3.462, 40.0445 ], [ -3.4605, 40.0453 ], [ -3.4599, 40.0455 ], [ -3.4577, 40.0458 ], [ -3.4574, 40.046 ], [ -3.4553, 40.0465 ], [ -3.4548, 40.047 ], [ -3.4549, 40.0479 ], [ -3.4558, 40.049 ], [ -3.4565, 40.0493 ], [ -3.4567, 40.0496 ], [ -3.4567, 40.0498 ], [ -3.4565, 40.05 ], [ -3.4555, 40.0502 ], [ -3.4529, 40.0501 ], [ -3.4519, 40.0499 ], [ -3.4508, 40.0492 ], [ -3.4504, 40.0491 ], [ -3.4492, 40.0493 ], [ -3.4488, 40.0497 ], [ -3.4483, 40.0497 ], [ -3.4475, 40.0492 ], [ -3.4473, 40.0486 ], [ -3.4468, 40.0481 ], [ -3.4468, 40.0477 ], [ -3.4479, 40.0463 ], [ -3.4481, 40.0449 ], [ -3.4486, 40.0443 ], [ -3.4485, 40.0414 ], [ -3.4483, 40.0405 ], [ -3.4478, 40.0392 ], [ -3.4479, 40.0385 ], [ -3.4472, 40.0379 ], [ -3.446, 40.0372 ], [ -3.4452, 40.0373 ], [ -3.443, 40.0382 ], [ -3.4399, 40.0391 ], [ -3.4387, 40.0387 ], [ -3.4342, 40.0389 ], [ -3.4326, 40.0381 ], [ -3.4312, 40.0381 ], [ -3.4302, 40.0384 ], [ -3.4293, 40.0389 ], [ -3.4292, 40.0401 ], [ -3.429, 40.0407 ], [ -3.4284, 40.0418 ], [ -3.4282, 40.0419 ], [ -3.4278, 40.0425 ], [ -3.4274, 40.0437 ], [ -3.4268, 40.0443 ], [ -3.4266, 40.0457 ], [ -3.4262, 40.0464 ], [ -3.4256, 40.0468 ], [ -3.4245, 40.0469 ], [ -3.4237, 40.0464 ], [ -3.4224, 40.0452 ], [ -3.4217, 40.045 ], [ -3.4206, 40.0452 ], [ -3.4199, 40.0455 ], [ -3.4193, 40.0455 ], [ -3.4186, 40.0454 ], [ -3.4173, 40.0449 ], [ -3.4167, 40.0445 ], [ -3.4151, 40.0425 ], [ -3.4143, 40.0421 ], [ -3.4127, 40.0418 ], [ -3.412, 40.0413 ], [ -3.4114, 40.0413 ], [ -3.4108, 40.0418 ], [ -3.4103, 40.042 ], [ -3.41, 40.0419 ], [ -3.4083, 40.0402 ], [ -3.4083, 40.0398 ], [ -3.4087, 40.0394 ], [ -3.4094, 40.0391 ], [ -3.4099, 40.0385 ], [ -3.41, 40.0379 ], [ -3.4098, 40.0376 ], [ -3.4091, 40.0371 ], [ -3.4083, 40.0368 ], [ -3.4068, 40.0365 ], [ -3.4046, 40.0352 ], [ -3.4035, 40.0349 ], [ -3.4022, 40.0343 ], [ -3.4013, 40.0341 ], [ -3.3996, 40.0348 ], [ -3.3959, 40.0354 ], [ -3.394, 40.0355 ], [ -3.3931, 40.0361 ], [ -3.3924, 40.0373 ], [ -3.3921, 40.0382 ], [ -3.3916, 40.0391 ], [ -3.3916, 40.0399 ], [ -3.3914, 40.0409 ], [ -3.3917, 40.0414 ], [ -3.3933, 40.0418 ], [ -3.394, 40.0422 ], [ -3.3944, 40.0431 ], [ -3.3943, 40.0448 ], [ -3.3941, 40.0456 ], [ -3.3939, 40.0459 ], [ -3.3922, 40.0474 ], [ -3.3917, 40.0483 ], [ -3.3904, 40.0489 ], [ -3.3882, 40.0496 ], [ -3.3865, 40.0498 ], [ -3.3859, 40.0506 ], [ -3.386, 40.0513 ], [ -3.3859, 40.0516 ], [ -3.3852, 40.0519 ], [ -3.3826, 40.0517 ], [ -3.3795, 40.0509 ], [ -3.3778, 40.0502 ], [ -3.3769, 40.05 ], [ -3.3758, 40.0513 ], [ -3.3803, 40.0523 ], [ -3.383, 40.0535 ], [ -3.3879, 40.0533 ], [ -3.3895, 40.0541 ], [ -3.3925, 40.054 ], [ -3.3955, 40.0527 ], [ -3.396, 40.052 ], [ -3.3959, 40.051 ], [ -3.3952, 40.0504 ], [ -3.3947, 40.0492 ], [ -3.3945, 40.0483 ], [ -3.3946, 40.0477 ], [ -3.3945, 40.0471 ], [ -3.3947, 40.0459 ], [ -3.3953, 40.0449 ], [ -3.3983, 40.0443 ], [ -3.3993, 40.0442 ], [ -3.4007, 40.0443 ], [ -3.403, 40.0453 ], [ -3.4068, 40.0466 ], [ -3.4072, 40.0473 ], [ -3.4086, 40.0487 ], [ -3.4128, 40.0501 ], [ -3.4158, 40.0499 ], [ -3.4197, 40.0481 ], [ -3.4204, 40.0481 ], [ -3.4219, 40.0487 ], [ -3.4223, 40.0487 ], [ -3.4227, 40.0484 ], [ -3.4239, 40.0479 ], [ -3.4244, 40.0475 ], [ -3.4261, 40.0472 ], [ -3.4267, 40.0469 ], [ -3.4271, 40.0465 ], [ -3.4272, 40.0459 ], [ -3.4277, 40.0456 ], [ -3.4277, 40.0453 ], [ -3.4279, 40.045 ], [ -3.4285, 40.0447 ], [ -3.4292, 40.0447 ], [ -3.4298, 40.045 ], [ -3.4329, 40.0456 ], [ -3.434, 40.0461 ], [ -3.4345, 40.0468 ], [ -3.4348, 40.0475 ], [ -3.4344, 40.0482 ], [ -3.4342, 40.0493 ], [ -3.4361, 40.0515 ], [ -3.4368, 40.0518 ], [ -3.4401, 40.0515 ], [ -3.4418, 40.0522 ], [ -3.4435, 40.0539 ], [ -3.445, 40.0544 ], [ -3.4458, 40.0546 ], [ -3.4479, 40.0542 ], [ -3.4489, 40.0544 ], [ -3.4505, 40.0539 ], [ -3.4536, 40.0536 ], [ -3.4554, 40.0537 ], [ -3.4563, 40.0535 ], [ -3.4577, 40.052 ], [ -3.459, 40.0515 ], [ -3.4596, 40.0518 ], [ -3.4615, 40.052 ], [ -3.4621, 40.0523 ], [ -3.463, 40.0521 ], [ -3.4633, 40.0522 ], [ -3.4639, 40.0527 ], [ -3.4639, 40.0532 ], [ -3.4652, 40.0543 ], [ -3.469, 40.0558 ], [ -3.4703, 40.0558 ], [ -3.4739, 40.0576 ], [ -3.475, 40.0578 ], [ -3.4796, 40.0577 ], [ -3.4875, 40.0606 ], [ -3.4878, 40.0641 ], [ -3.4881, 40.0644 ], [ -3.4892, 40.0645 ], [ -3.4923, 40.0652 ], [ -3.495, 40.0656 ], [ -3.495, 40.0657 ], [ -3.4963, 40.0658 ], [ -3.4974, 40.0661 ], [ -3.4979, 40.0661 ], [ -3.5009, 40.0667 ], [ -3.5024, 40.0669 ], [ -3.503, 40.0668 ], [ -3.5041, 40.0669 ], [ -3.5061, 40.0673 ], [ -3.5075, 40.0674 ], [ -3.5075, 40.0675 ], [ -3.508, 40.0675 ], [ -3.5105, 40.0682 ], [ -3.5123, 40.068 ], [ -3.5152, 40.0681 ], [ -3.5191, 40.069 ], [ -3.5224, 40.0693 ], [ -3.5248, 40.0697 ], [ -3.5273, 40.0698 ] ], [ [ -3.5078, 40.0587 ], [ -3.5065, 40.0588 ], [ -3.5065, 40.0573 ], [ -3.5075, 40.0571 ], [ -3.5094, 40.0573 ], [ -3.5093, 40.0579 ], [ -3.5091, 40.0579 ], [ -3.509, 40.0583 ], [ -3.5078, 40.0582 ], [ -3.5078, 40.0587 ] ] ] } },
{ "type": "Feature", "properties": { "municipio": "Colmenar de Oreja", "clasificacion": "urbano-consolidado", "calificacion": "sin-asignar", "version": "vigente", "fuente": "SIT-CAM WFS — UsoDelSuelo:VPLA_V_CLASIFICACION (https://idem.comunidad.madrid/geosrvg/ows)", "fecha_dato": "2026-05-12", "ambito": "58", "_raw_CD_SIGLAS": "SU", "_raw_DS_CLASIF_GEN": "Suelo Urbano", "_raw_DS_CLASIF_DET": null, "_raw_DS_DOCU": "NORMAS SUBSIDIARIAS", "_raw_DS_LEY": "CM Ley 4/1984, E RDL 1/1992", "_raw_FC_AC": "1985-01-31", "_raw_NM_AREA_M2": 979800.46792368696, "_cam_code": "043" }, "geometry": { "type": "Polygon", "coordinates": [ [ [ -3.3916, 40.1158 ], [ -3.3912, 40.1162 ], [ -3.3923, 40.1165 ], [ -3.3931, 40.1161 ], [ -3.3932, 40.1162 ], [ -3.3935, 40.1161 ], [ -3.3935, 40.116 ], [ -3.3937, 40.116 ], [ -3.3937, 40.1159 ], [ -3.3943, 40.1156 ], [ -3.393, 40.1143 ], [ -3.3947, 40.1134 ], [ -3.3926, 40.1119 ], [ -3.3928, 40.1114 ], [ -3.3941, 40.1104 ], [ -3.3959, 40.1108 ], [ -3.3962, 40.1105 ], [ -3.3944, 40.1087 ], [ -3.3945, 40.1082 ], [ -3.3942, 40.1073 ], [ -3.3936, 40.1072 ], [ -3.394, 40.1061 ], [ -3.3945, 40.1055 ], [ -3.394, 40.1055 ], [ -3.3941, 40.1052 ], [ -3.3935, 40.1054 ], [ -3.3933, 40.1048 ], [ -3.3926, 40.105 ], [ -3.3924, 40.1045 ], [ -3.3921, 40.1044 ], [ -3.3911, 40.1048 ], [ -3.3898, 40.1047 ], [ -3.3896, 40.1045 ], [ -3.3899, 40.1043 ], [ -3.3901, 40.1038 ], [ -3.3888, 40.1038 ], [ -3.3887, 40.1041 ], [ -3.3877, 40.1044 ], [ -3.3875, 40.1063 ], [ -3.3868, 40.1063 ], [ -3.3861, 40.1059 ], [ -3.3861, 40.1058 ], [ -3.3859, 40.1059 ], [ -3.386, 40.106 ], [ -3.385, 40.1064 ], [ -3.3833, 40.106 ], [ -3.3831, 40.1062 ], [ -3.3829, 40.1056 ], [ -3.3828, 40.1055 ], [ -3.3825, 40.1056 ], [ -3.3825, 40.1054 ], [ -3.3817, 40.1059 ], [ -3.3818, 40.106 ], [ -3.3802, 40.1057 ], [ -3.3801, 40.1058 ], [ -3.3801, 40.1063 ], [ -3.3799, 40.1066 ], [ -3.3801, 40.1072 ], [ -3.3804, 40.1077 ], [ -3.3809, 40.1075 ], [ -3.381, 40.1076 ], [ -3.3813, 40.1088 ], [ -3.3811, 40.1088 ], [ -3.3813, 40.1094 ], [ -3.3809, 40.1096 ], [ -3.3811, 40.1102 ], [ -3.3834, 40.1099 ], [ -3.3837, 40.1106 ], [ -3.3838, 40.1106 ], [ -3.3838, 40.1107 ], [ -3.3831, 40.1109 ], [ -3.3818, 40.111 ], [ -3.3819, 40.1111 ], [ -3.3818, 40.1117 ], [ -3.3823, 40.1117 ], [ -3.3824, 40.1119 ], [ -3.3823, 40.112 ], [ -3.3832, 40.1123 ], [ -3.3837, 40.1115 ], [ -3.3858, 40.1121 ], [ -3.3867, 40.1109 ], [ -3.388, 40.1112 ], [ -3.387, 40.1125 ], [ -3.3879, 40.1126 ], [ -3.3879, 40.1127 ], [ -3.3883, 40.1128 ], [ -3.3895, 40.1135 ], [ -3.3896, 40.1138 ], [ -3.3891, 40.1147 ], [ -3.3898, 40.115 ], [ -3.3898, 40.1151 ], [ -3.3907, 40.1154 ], [ -3.3907, 40.1155 ], [ -3.3916, 40.1158 ] ] ] } },
{ "type": "Feature", "properties": { "municipio": "Colmenar de Oreja", "clasificacion": "urbano-consolidado", "calificacion": "sin-asignar", "version": "vigente", "fuente": "SIT-CAM WFS — UsoDelSuelo:VPLA_V_CLASIFICACION (https://idem.comunidad.madrid/geosrvg/ows)", "fecha_dato": "2026-05-12", "ambito": "58", "_raw_CD_SIGLAS": "SU", "_raw_DS_CLASIF_GEN": "Suelo Urbano", "_raw_DS_CLASIF_DET": null, "_raw_DS_DOCU": "NORMAS SUBSIDIARIAS", "_raw_DS_LEY": "CM Ley 4/1984, E RDL 1/1992", "_raw_FC_AC": "1985-01-31", "_raw_NM_AREA_M2": 33090.785922772899, "_cam_code": "043" }, "geometry": { "type": "Polygon", "coordinates": [ [ [ -3.5065, 40.0588 ], [ -3.5078, 40.0587 ], [ -3.5078, 40.0582 ], [ -3.509, 40.0583 ], [ -3.5091, 40.0579 ], [ -3.5093, 40.0579 ], [ -3.5094, 40.0573 ], [ -3.5078, 40.0571 ], [ -3.5065, 40.0573 ], [ -3.5065, 40.0588 ] ] ] } },
{ "type": "Feature", "properties": { "municipio": "Colmenar de Oreja", "clasificacion": "urbanizable-no-sectorizado", "calificacion": "sin-asignar", "version": "vigente", "fuente": "SIT-CAM WFS — UsoDelSuelo:VPLA_V_CLASIFICACION (https://idem.comunidad.madrid/geosrvg/ows)", "fecha_dato": "2026-05-12", "ambito": "58", "_raw_CD_SIGLAS": "SUBNS", "_raw_DS_CLASIF_GEN": "Suelo No Urbanizable Común", "_raw_DS_CLASIF_DET": "Suelo no urbanizable común", "_raw_DS_DOCU": "NORMAS SUBSIDIARIAS", "_raw_DS_LEY": "CM Ley 4/1984, E RDL 1/1992", "_raw_FC_AC": "1985-01-31", "_raw_NM_AREA_M2": 74339096.2080165, "_cam_code": "043" }, "geometry": { "type": "Polygon", "coordinates": [ [ [ -3.3777, 40.1336 ], [ -3.3791, 40.1341 ], [ -3.3806, 40.1343 ], [ -3.3828, 40.1349 ], [ -3.385, 40.1353 ], [ -3.3865, 40.1358 ], [ -3.3876, 40.1351 ], [ -3.3904, 40.1341 ], [ -3.3943, 40.1334 ], [ -3.3966, 40.1335 ], [ -3.3979, 40.1333 ], [ -3.4027, 40.1321 ], [ -3.4055, 40.1298 ], [ -3.4067, 40.1283 ], [ -3.4097, 40.1254 ], [ -3.4113, 40.1234 ], [ -3.4117, 40.1231 ], [ -3.4123, 40.1223 ], [ -3.414, 40.1205 ], [ -3.4154, 40.1212 ], [ -3.4172, 40.1212 ], [ -3.42, 40.1205 ], [ -3.4215, 40.1204 ], [ -3.4238, 40.1197 ], [ -3.4267, 40.1192 ], [ -3.4316, 40.118 ], [ -3.4335, 40.1189 ], [ -3.4353, 40.1193 ], [ -3.4375, 40.1193 ], [ -3.4379, 40.1182 ], [ -3.4389, 40.1176 ], [ -3.4401, 40.1162 ], [ -3.4407, 40.117 ], [ -3.4429, 40.1179 ], [ -3.4443, 40.1182 ], [ -3.4459, 40.1168 ], [ -3.451, 40.1182 ], [ -3.4526, 40.118 ], [ -3.4535, 40.1185 ], [ -3.4548, 40.1182 ], [ -3.4557, 40.1166 ], [ -3.4555, 40.1156 ], [ -3.4557, 40.1151 ], [ -3.4579, 40.1137 ], [ -3.4591, 40.1109 ], [ -3.4598, 40.1086 ], [ -3.4601, 40.1067 ], [ -3.4609, 40.1033 ], [ -3.4631, 40.0996 ], [ -3.4703, 40.0946 ], [ -3.4733, 40.0931 ], [ -3.4733, 40.093 ], [ -3.4779, 40.0902 ], [ -3.48, 40.0887 ], [ -3.4805, 40.0881 ], [ -3.4819, 40.088 ], [ -3.488, 40.086 ], [ -3.4901, 40.086 ], [ -3.4902, 40.0854 ], [ -3.4871, 40.0847 ], [ -3.4862, 40.084 ], [ -3.4864, 40.0838 ], [ -3.4864, 40.0836 ], [ -3.4866, 40.0834 ], [ -3.4866, 40.0832 ], [ -3.4871, 40.0823 ], [ -3.4873, 40.0816 ], [ -3.4873, 40.0803 ], [ -3.4871, 40.0794 ], [ -3.485, 40.0766 ], [ -3.4852, 40.0755 ], [ -3.4866, 40.0741 ], [ -3.4871, 40.073 ], [ -3.4874, 40.0717 ], [ -3.488, 40.0709 ], [ -3.4884, 40.07 ], [ -3.4882, 40.0673 ], [ -3.488, 40.0667 ], [ -3.4879, 40.0657 ], [ -3.4875, 40.0606 ], [ -3.4796, 40.0577 ], [ -3.475, 40.0578 ], [ -3.4739, 40.0576 ], [ -3.4703, 40.0558 ], [ -3.469, 40.0558 ], [ -3.4652, 40.0543 ], [ -3.4639, 40.0532 ], [ -3.4639, 40.0527 ], [ -3.4633, 40.0522 ], [ -3.463, 40.0521 ], [ -3.4621, 40.0523 ], [ -3.4615, 40.052 ], [ -3.4596, 40.0518 ], [ -3.459, 40.0515 ], [ -3.4577, 40.052 ], [ -3.4563, 40.0535 ], [ -3.4554, 40.0537 ], [ -3.4536, 40.0536 ], [ -3.4505, 40.0539 ], [ -3.4489, 40.0544 ], [ -3.4481, 40.0542 ], [ -3.4458, 40.0546 ], [ -3.445, 40.0544 ], [ -3.4435, 40.0539 ], [ -3.4418, 40.0522 ], [ -3.4401, 40.0515 ], [ -3.4368, 40.0518 ], [ -3.4361, 40.0515 ], [ -3.4342, 40.0493 ], [ -3.4344, 40.0482 ], [ -3.4348, 40.0475 ], [ -3.4345, 40.0468 ], [ -3.434, 40.0461 ], [ -3.4329, 40.0456 ], [ -3.4298, 40.045 ], [ -3.4292, 40.0447 ], [ -3.4285, 40.0447 ], [ -3.4279, 40.045 ], [ -3.4277, 40.0453 ], [ -3.4277, 40.0456 ], [ -3.4272, 40.0459 ], [ -3.4271, 40.0465 ], [ -3.4267, 40.0469 ], [ -3.4261, 40.0472 ], [ -3.4244, 40.0475 ], [ -3.4239, 40.0479 ], [ -3.4227, 40.0484 ], [ -3.4223, 40.0487 ], [ -3.4219, 40.0487 ], [ -3.4204, 40.0481 ], [ -3.4197, 40.0481 ], [ -3.4158, 40.0499 ], [ -3.4128, 40.0501 ], [ -3.4086, 40.0487 ], [ -3.4072, 40.0473 ], [ -3.4068, 40.0466 ], [ -3.403, 40.0453 ], [ -3.4007, 40.0443 ], [ -3.4, 40.0442 ], [ -3.3983, 40.0443 ], [ -3.3953, 40.0449 ], [ -3.3947, 40.0459 ], [ -3.3945, 40.0471 ], [ -3.3946, 40.0477 ], [ -3.3945, 40.0483 ], [ -3.3947, 40.0492 ], [ -3.3952, 40.0504 ], [ -3.3959, 40.051 ], [ -3.396, 40.052 ], [ -3.3955, 40.0527 ], [ -3.3925, 40.054 ], [ -3.3895, 40.0541 ], [ -3.3879, 40.0533 ], [ -3.383, 40.0535 ], [ -3.3803, 40.0523 ], [ -3.3758, 40.0513 ], [ -3.3752, 40.0529 ], [ -3.3751, 40.0536 ], [ -3.3743, 40.055 ], [ -3.3745, 40.0584 ], [ -3.3747, 40.0596 ], [ -3.3759, 40.0613 ], [ -3.3777, 40.0623 ], [ -3.3791, 40.0662 ], [ -3.3786, 40.07 ], [ -3.3786, 40.0708 ], [ -3.3778, 40.0734 ], [ -3.3777, 40.0748 ], [ -3.3753, 40.0754 ], [ -3.373, 40.0755 ], [ -3.3661, 40.0755 ], [ -3.3643, 40.075 ], [ -3.3605, 40.0755 ], [ -3.3582, 40.0762 ], [ -3.3555, 40.0768 ], [ -3.3545, 40.0773 ], [ -3.3499, 40.0777 ], [ -3.349, 40.0781 ], [ -3.3479, 40.0788 ], [ -3.3462, 40.0802 ], [ -3.345, 40.0801 ], [ -3.3465, 40.0826 ], [ -3.3473, 40.0851 ], [ -3.3496, 40.0897 ], [ -3.3499, 40.0907 ], [ -3.3499, 40.0915 ], [ -3.3495, 40.0931 ], [ -3.3489, 40.0944 ], [ -3.349, 40.0966 ], [ -3.3487, 40.0978 ], [ -3.3484, 40.098 ], [ -3.3476, 40.1001 ], [ -3.3449, 40.1024 ], [ -3.3446, 40.1043 ], [ -3.3441, 40.1058 ], [ -3.3438, 40.11 ], [ -3.345, 40.1113 ], [ -3.347, 40.1128 ], [ -3.3482, 40.1141 ], [ -3.3521, 40.1175 ], [ -3.3553, 40.1178 ], [ -3.3608, 40.119 ], [ -3.3627, 40.1205 ], [ -3.3639, 40.1208 ], [ -3.3683, 40.1238 ], [ -3.3705, 40.1248 ], [ -3.3712, 40.1253 ], [ -3.3735, 40.1274 ], [ -3.374, 40.1282 ], [ -3.374, 40.1286 ], [ -3.3741, 40.1287 ], [ -3.3742, 40.1285 ], [ -3.3745, 40.1288 ], [ -3.3746, 40.1296 ], [ -3.3762, 40.1313 ], [ -3.3777, 40.1336 ] ], [ [ -3.4502, 40.0871 ], [ -3.4487, 40.0872 ], [ -3.4486, 40.0874 ], [ -3.4484, 40.0874 ], [ -3.4478, 40.086 ], [ -3.4478, 40.0856 ], [ -3.4472, 40.0855 ], [ -3.4468, 40.085 ], [ -3.4457, 40.0854 ], [ -3.4456, 40.0859 ], [ -3.4451, 40.0865 ], [ -3.4448, 40.0863 ], [ -3.4449, 40.0858 ], [ -3.4453, 40.0852 ], [ -3.4451, 40.0847 ], [ -3.4456, 40.0843 ], [ -3.4454, 40.0839 ], [ -3.4456, 40.0839 ], [ -3.4463, 40.0835 ], [ -3.4463, 40.0834 ], [ -3.4459, 40.0833 ], [ -3.4463, 40.0827 ], [ -3.447, 40.0826 ], [ -3.4469, 40.0823 ], [ -3.4464, 40.0821 ], [ -3.4464, 40.082 ], [ -3.4469, 40.0815 ], [ -3.4467, 40.0813 ], [ -3.4475, 40.0808 ], [ -3.4473, 40.0806 ], [ -3.447, 40.0806 ], [ -3.4469, 40.0804 ], [ -3.4462, 40.0807 ], [ -3.446, 40.0804 ], [ -3.4476, 40.08 ], [ -3.4497, 40.0792 ], [ -3.4504, 40.0783 ], [ -3.4505, 40.078 ], [ -3.4505, 40.078 ], [ -3.4505, 40.078 ], [ -3.4505, 40.078 ], [ -3.4505, 40.0779 ], [ -3.4505, 40.0779 ], [ -3.4505, 40.0779 ], [ -3.4505, 40.0779 ], [ -3.4505, 40.0778 ], [ -3.4505, 40.0778 ], [ -3.4505, 40.0777 ], [ -3.4505, 40.0777 ], [ -3.4505, 40.0776 ], [ -3.4505, 40.0775 ], [ -3.4516, 40.0768 ], [ -3.4519, 40.0769 ], [ -3.4528, 40.0778 ], [ -3.4529, 40.0785 ], [ -3.4532, 40.0791 ], [ -3.4531, 40.0803 ], [ -3.4533, 40.0809 ], [ -3.4534, 40.0809 ], [ -3.4534, 40.082 ], [ -3.4529, 40.083 ], [ -3.4528, 40.0839 ], [ -3.4501, 40.0844 ], [ -3.4498, 40.0846 ], [ -3.4499, 40.0852 ], [ -3.4507, 40.0858 ], [ -3.4511, 40.0866 ], [ -3.4505, 40.0867 ], [ -3.4504, 40.087 ], [ -3.4502, 40.0871 ] ], [ [ -3.4432, 40.08 ], [ -3.4436, 40.0802 ], [ -3.4434, 40.0804 ], [ -3.4426, 40.0803 ], [ -3.4423, 40.0799 ], [ -3.4423, 40.0796 ], [ -3.4421, 40.0797 ], [ -3.4423, 40.0792 ], [ -3.4427, 40.0791 ], [ -3.4434, 40.0784 ], [ -3.4435, 40.0781 ], [ -3.444, 40.0781 ], [ -3.4444, 40.0783 ], [ -3.4446, 40.0787 ], [ -3.4451, 40.0785 ], [ -3.4449, 40.0784 ], [ -3.4449, 40.0781 ], [ -3.4447, 40.0777 ], [ -3.4447, 40.077 ], [ -3.4443, 40.0764 ], [ -3.4441, 40.0764 ], [ -3.4441, 40.0762 ], [ -3.4437, 40.0759 ], [ -3.4427, 40.0758 ], [ -3.4431, 40.0751 ], [ -3.4441, 40.075 ], [ -3.4444, 40.0748 ], [ -3.4462, 40.0732 ], [ -3.447, 40.072 ], [ -3.4476, 40.0715 ], [ -3.4485, 40.0711 ], [ -3.4494, 40.0705 ], [ -3.4511, 40.0698 ], [ -3.4513, 40.0696 ], [ -3.4533, 40.0691 ], [ -3.4533, 40.069 ], [ -3.454, 40.0687 ], [ -3.4549, 40.0678 ], [ -3.4556, 40.0676 ], [ -3.4558, 40.0674 ], [ -3.4562, 40.0675 ], [ -3.4554, 40.069 ], [ -3.4544, 40.0713 ], [ -3.4543, 40.0713 ], [ -3.4543, 40.0715 ], [ -3.4511, 40.075 ], [ -3.4505, 40.0763 ], [ -3.4505, 40.0763 ], [ -3.4505, 40.0763 ], [ -3.4505, 40.0764 ], [ -3.4505, 40.0764 ], [ -3.4505, 40.0764 ], [ -3.4505, 40.0764 ], [ -3.4505, 40.0764 ], [ -3.4505, 40.0764 ], [ -3.4505, 40.0765 ], [ -3.4505, 40.0765 ], [ -3.4505, 40.0765 ], [ -3.4505, 40.0765 ], [ -3.4505, 40.0766 ], [ -3.4505, 40.0766 ], [ -3.4505, 40.0767 ], [ -3.4505, 40.0768 ], [ -3.4505, 40.0768 ], [ -3.4505, 40.0769 ], [ -3.4505, 40.0769 ], [ -3.4505, 40.077 ], [ -3.4505, 40.0771 ], [ -3.4505, 40.0771 ], [ -3.4505, 40.0773 ], [ -3.4505, 40.0773 ], [ -3.4505, 40.0774 ], [ -3.4505, 40.0774 ], [ -3.4505, 40.0775 ], [ -3.4505, 40.0775 ], [ -3.4505, 40.0775 ], [ -3.4505, 40.0775 ], [ -3.4505, 40.0776 ], [ -3.4505, 40.0777 ], [ -3.45, 40.0788 ], [ -3.4485, 40.0796 ], [ -3.4463, 40.0799 ], [ -3.4461, 40.0798 ], [ -3.4458, 40.0799 ], [ -3.4459, 40.08 ], [ -3.4455, 40.0801 ], [ -3.4444, 40.0796 ], [ -3.4438, 40.0798 ], [ -3.4433, 40.0797 ], [ -3.4432, 40.08 ] ], [ [ -3.3923, 40.1165 ], [ -3.3912, 40.1162 ], [ -3.3916, 40.1158 ], [ -3.3907, 40.1155 ], [ -3.3907, 40.1154 ], [ -3.3898, 40.1151 ], [ -3.3898, 40.115 ], [ -3.3891, 40.1147 ], [ -3.3896, 40.1138 ], [ -3.3896, 40.1136 ], [ -3.3885, 40.1129 ], [ -3.3885, 40.113 ], [ -3.3883, 40.1128 ], [ -3.3879, 40.1127 ], [ -3.3879, 40.1126 ], [ -3.387, 40.1125 ], [ -3.3859, 40.112 ], [ -3.3858, 40.1121 ], [ -3.3839, 40.1115 ], [ -3.3837, 40.1115 ], [ -3.3832, 40.1123 ], [ -3.3823, 40.112 ], [ -3.3824, 40.1119 ], [ -3.3823, 40.1117 ], [ -3.3818, 40.1117 ], [ -3.3819, 40.1111 ], [ -3.3818, 40.111 ], [ -3.3813, 40.1111 ], [ -3.3812, 40.1104 ], [ -3.3809, 40.1096 ], [ -3.3813, 40.1094 ], [ -3.3812, 40.1089 ], [ -3.3811, 40.1089 ], [ -3.3811, 40.1088 ], [ -3.3813, 40.1088 ], [ -3.381, 40.1076 ], [ -3.3809, 40.1075 ], [ -3.3804, 40.1077 ], [ -3.3799, 40.1066 ], [ -3.3801, 40.1063 ], [ -3.3801, 40.1058 ], [ -3.3802, 40.1057 ], [ -3.3812, 40.1059 ], [ -3.3819, 40.1052 ], [ -3.3815, 40.1043 ], [ -3.3817, 40.104 ], [ -3.3818, 40.103 ], [ -3.3817, 40.1017 ], [ -3.382, 40.1008 ], [ -3.3824, 40.1004 ], [ -3.3817, 40.0994 ], [ -3.3817, 40.0988 ], [ -3.3822, 40.0985 ], [ -3.3825, 40.0979 ], [ -3.384, 40.0971 ], [ -3.386, 40.0973 ], [ -3.3864, 40.0971 ], [ -3.3871, 40.097 ], [ -3.3877, 40.0973 ], [ -3.3882, 40.097 ], [ -3.3883, 40.0967 ], [ -3.3882, 40.0963 ], [ -3.3891, 40.0965 ], [ -3.3898, 40.0969 ], [ -3.3901, 40.0973 ], [ -3.3908, 40.0977 ], [ -3.3913, 40.0982 ], [ -3.3926, 40.099 ], [ -3.3935, 40.0988 ], [ -3.3938, 40.0992 ], [ -3.3944, 40.1007 ], [ -3.3944, 40.1011 ], [ -3.3946, 40.1013 ], [ -3.3955, 40.1015 ], [ -3.3962, 40.1014 ], [ -3.3968, 40.1021 ], [ -3.3966, 40.1042 ], [ -3.3945, 40.1055 ], [ -3.394, 40.1061 ], [ -3.3936, 40.1072 ], [ -3.3942, 40.1073 ], [ -3.3945, 40.1082 ], [ -3.3944, 40.1087 ], [ -3.3962, 40.1105 ], [ -3.3959, 40.1108 ], [ -3.3941, 40.1104 ], [ -3.3941, 40.1105 ], [ -3.3939, 40.1106 ], [ -3.3939, 40.1105 ], [ -3.3932, 40.111 ], [ -3.3926, 40.1117 ], [ -3.3927, 40.112 ], [ -3.3947, 40.1134 ], [ -3.393, 40.1143 ], [ -3.3933, 40.1145 ], [ -3.394, 40.1141 ], [ -3.3943, 40.1141 ], [ -3.3951, 40.1145 ], [ -3.394, 40.1153 ], [ -3.3943, 40.1156 ], [ -3.3942, 40.1157 ], [ -3.3935, 40.116 ], [ -3.3935, 40.1161 ], [ -3.3932, 40.1162 ], [ -3.3931, 40.1161 ], [ -3.3923, 40.1165 ] ], [ [ -3.4328, 40.0743 ], [ -3.4313, 40.0744 ], [ -3.4308, 40.0742 ], [ -3.4307, 40.0739 ], [ -3.4303, 40.0736 ], [ -3.4302, 40.0731 ], [ -3.4294, 40.0724 ], [ -3.4281, 40.0722 ], [ -3.4279, 40.072 ], [ -3.4282, 40.0712 ], [ -3.4289, 40.0708 ], [ -3.4296, 40.0702 ], [ -3.4301, 40.0692 ], [ -3.4305, 40.0689 ], [ -3.4307, 40.0683 ], [ -3.432, 40.066 ], [ -3.4324, 40.0657 ], [ -3.4326, 40.065 ], [ -3.4326, 40.0645 ], [ -3.4331, 40.0638 ], [ -3.4333, 40.0631 ], [ -3.4333, 40.0625 ], [ -3.433, 40.0617 ], [ -3.4326, 40.061 ], [ -3.4321, 40.0605 ], [ -3.4315, 40.0602 ], [ -3.4302, 40.0599 ], [ -3.4296, 40.0594 ], [ -3.4296, 40.0592 ], [ -3.4293, 40.0589 ], [ -3.428, 40.0581 ], [ -3.4281, 40.0573 ], [ -3.4292, 40.0563 ], [ -3.4297, 40.0561 ], [ -3.4297, 40.056 ], [ -3.4305, 40.0558 ], [ -3.4305, 40.0557 ], [ -3.4317, 40.0557 ], [ -3.432, 40.0559 ], [ -3.4339, 40.0558 ], [ -3.4345, 40.0562 ], [ -3.4351, 40.0561 ], [ -3.4354, 40.0556 ], [ -3.4358, 40.0555 ], [ -3.4363, 40.0556 ], [ -3.4369, 40.0555 ], [ -3.4389, 40.0556 ], [ -3.4394, 40.0555 ], [ -3.4419, 40.0566 ], [ -3.4437, 40.0563 ], [ -3.4442, 40.056 ], [ -3.4454, 40.0557 ], [ -3.4514, 40.0569 ], [ -3.452, 40.0572 ], [ -3.4526, 40.0577 ], [ -3.4532, 40.0585 ], [ -3.457, 40.0589 ], [ -3.4597, 40.0589 ], [ -3.4623, 40.0594 ], [ -3.4622, 40.0598 ], [ -3.4619, 40.0602 ], [ -3.462, 40.0614 ], [ -3.4617, 40.0619 ], [ -3.461, 40.0621 ], [ -3.4585, 40.064 ], [ -3.4578, 40.0639 ], [ -3.4555, 40.0657 ], [ -3.4523, 40.0654 ], [ -3.4494, 40.0653 ], [ -3.4464, 40.0649 ], [ -3.4447, 40.0651 ], [ -3.4433, 40.066 ], [ -3.4419, 40.0661 ], [ -3.4375, 40.0694 ], [ -3.4378, 40.0704 ], [ -3.4381, 40.0706 ], [ -3.4381, 40.0708 ], [ -3.4377, 40.0712 ], [ -3.4376, 40.0716 ], [ -3.437, 40.0717 ], [ -3.4357, 40.0704 ], [ -3.4354, 40.0702 ], [ -3.4352, 40.0704 ], [ -3.4355, 40.0712 ], [ -3.4355, 40.0716 ], [ -3.4363, 40.0724 ], [ -3.4359, 40.073 ], [ -3.4359, 40.0735 ], [ -3.4352, 40.0736 ], [ -3.4334, 40.0731 ], [ -3.4332, 40.0734 ], [ -3.4323, 40.0737 ], [ -3.4324, 40.0738 ], [ -3.4333, 40.0736 ], [ -3.4343, 40.0736 ], [ -3.4348, 40.0738 ], [ -3.4348, 40.0741 ], [ -3.434, 40.0744 ], [ -3.4328, 40.0743 ] ] ] } },
{ "type": "Feature", "properties": { "municipio": "Colmenar de Oreja", "clasificacion": "urbanizable-no-sectorizado", "calificacion": "sin-asignar", "version": "vigente", "fuente": "SIT-CAM WFS — UsoDelSuelo:VPLA_V_CLASIFICACION (https://idem.comunidad.madrid/geosrvg/ows)", "fecha_dato": "2026-05-12", "ambito": "58", "_raw_CD_SIGLAS": "SUBNS", "_raw_DS_CLASIF_GEN": "Suelo No Urbanizable Común", "_raw_DS_CLASIF_DET": null, "_raw_DS_DOCU": "NORMAS SUBSIDIARIAS", "_raw_DS_LEY": "CM Ley 4/1984, E RDL 1/1992", "_raw_FC_AC": "1985-01-31", "_raw_NM_AREA_M2": 10814.994515803601, "_cam_code": "043" }, "geometry": { "type": "Polygon", "coordinates": [ [ [ -3.3932, 40.1145 ], [ -3.394, 40.1153 ], [ -3.3951, 40.1145 ], [ -3.3943, 40.1141 ], [ -3.394, 40.1141 ], [ -3.3932, 40.1145 ] ] ] } },
{ "type": "Feature", "properties": { "municipio": "Colmenar de Oreja", "clasificacion": "urbanizable-no-sectorizado", "calificacion": "sin-asignar", "version": "vigente", "fuente": "SIT-CAM WFS — UsoDelSuelo:VPLA_V_CLASIFICACION (https://idem.comunidad.madrid/geosrvg/ows)", "fecha_dato": "2026-05-12", "ambito": "58", "_raw_CD_SIGLAS": "SUBNS", "_raw_DS_CLASIF_GEN": "Suelo No Urbanizable Común", "_raw_DS_CLASIF_DET": "No urbanizable incluido en Catalogo de parcelaciones ilegales", "_raw_DS_DOCU": "NORMAS SUBSIDIARIAS", "_raw_DS_LEY": "CM Ley 4/1984, E RDL 1/1992", "_raw_FC_AC": "1985-01-31", "_raw_NM_AREA_M2": 3023088.3673245199, "_cam_code": "043" }, "geometry": { "type": "Polygon", "coordinates": [ [ [ -3.4313, 40.0744 ], [ -3.4328, 40.0743 ], [ -3.434, 40.0744 ], [ -3.4348, 40.0741 ], [ -3.4348, 40.0738 ], [ -3.4343, 40.0736 ], [ -3.4333, 40.0736 ], [ -3.4324, 40.0738 ], [ -3.4323, 40.0737 ], [ -3.4332, 40.0734 ], [ -3.4334, 40.0731 ], [ -3.4352, 40.0736 ], [ -3.4359, 40.0735 ], [ -3.4359, 40.073 ], [ -3.4363, 40.0724 ], [ -3.4355, 40.0716 ], [ -3.4355, 40.0712 ], [ -3.4352, 40.0704 ], [ -3.4354, 40.0702 ], [ -3.4357, 40.0704 ], [ -3.437, 40.0717 ], [ -3.4376, 40.0716 ], [ -3.4377, 40.0712 ], [ -3.4381, 40.0708 ], [ -3.4381, 40.0706 ], [ -3.4378, 40.0704 ], [ -3.4375, 40.0694 ], [ -3.4419, 40.0661 ], [ -3.4433, 40.066 ], [ -3.4447, 40.0651 ], [ -3.4464, 40.0649 ], [ -3.4494, 40.0653 ], [ -3.4523, 40.0654 ], [ -3.4555, 40.0657 ], [ -3.4578, 40.0639 ], [ -3.4585, 40.064 ], [ -3.461, 40.0621 ], [ -3.4617, 40.0619 ], [ -3.462, 40.0614 ], [ -3.4619, 40.0602 ], [ -3.4622, 40.0598 ], [ -3.4623, 40.0594 ], [ -3.4597, 40.0589 ], [ -3.457, 40.0589 ], [ -3.4532, 40.0585 ], [ -3.4526, 40.0577 ], [ -3.452, 40.0572 ], [ -3.4514, 40.0569 ], [ -3.4454, 40.0557 ], [ -3.4442, 40.056 ], [ -3.4437, 40.0563 ], [ -3.4419, 40.0566 ], [ -3.4394, 40.0555 ], [ -3.4389, 40.0556 ], [ -3.4383, 40.0555 ], [ -3.4363, 40.0556 ], [ -3.4358, 40.0555 ], [ -3.4354, 40.0556 ], [ -3.4351, 40.0561 ], [ -3.4345, 40.0562 ], [ -3.4345, 40.0561 ], [ -3.4343, 40.0561 ], [ -3.4339, 40.0558 ], [ -3.432, 40.0559 ], [ -3.4317, 40.0557 ], [ -3.4305, 40.0557 ], [ -3.4305, 40.0558 ], [ -3.4297, 40.056 ], [ -3.4297, 40.0561 ], [ -3.4292, 40.0563 ], [ -3.4281, 40.0573 ], [ -3.428, 40.0581 ], [ -3.4293, 40.0589 ], [ -3.4296, 40.0592 ], [ -3.4296, 40.0594 ], [ -3.4302, 40.0599 ], [ -3.4318, 40.0603 ], [ -3.4326, 40.061 ], [ -3.4333, 40.0625 ], [ -3.4333, 40.0631 ], [ -3.4331, 40.0638 ], [ -3.4326, 40.0645 ], [ -3.4326, 40.065 ], [ -3.4324, 40.0657 ], [ -3.432, 40.066 ], [ -3.4307, 40.0683 ], [ -3.4305, 40.0689 ], [ -3.4301, 40.0692 ], [ -3.4296, 40.0702 ], [ -3.4289, 40.0708 ], [ -3.4282, 40.0712 ], [ -3.4279, 40.072 ], [ -3.4281, 40.0722 ], [ -3.4294, 40.0724 ], [ -3.4297, 40.0726 ], [ -3.4302, 40.0731 ], [ -3.4303, 40.0736 ], [ -3.4307, 40.0739 ], [ -3.4308, 40.0742 ], [ -3.4313, 40.0744 ] ] ] } },
{ "type": "Feature", "properties": { "municipio": "Colmenar de Oreja", "clasificacion": "urbanizable-no-sectorizado", "calificacion": "sin-asignar", "version": "vigente", "fuente": "SIT-CAM WFS — UsoDelSuelo:VPLA_V_CLASIFICACION (https://idem.comunidad.madrid/geosrvg/ows)", "fecha_dato": "2026-05-12", "ambito": "58", "_raw_CD_SIGLAS": "SUBNS", "_raw_DS_CLASIF_GEN": "Suelo No Urbanizable Común", "_raw_DS_CLASIF_DET": "No urbanizable incluido en Catalogo de parcelaciones ilegales", "_raw_DS_DOCU": "NORMAS SUBSIDIARIAS", "_raw_DS_LEY": "CM Ley 4/1984, E RDL 1/1992", "_raw_FC_AC": "1985-01-31", "_raw_NM_AREA_M2": 3383335.7681520102, "_cam_code": "043" }, "geometry": { "type": "Polygon", "coordinates": [ [ [ -3.4915, 40.0859 ], [ -3.4976, 40.0865 ], [ -3.4987, 40.086 ], [ -3.4995, 40.0853 ], [ -3.4997, 40.0844 ], [ -3.4998, 40.0844 ], [ -3.5002, 40.083 ], [ -3.5004, 40.0827 ], [ -3.5005, 40.0814 ], [ -3.5, 40.0806 ], [ -3.4994, 40.0802 ], [ -3.4987, 40.0811 ], [ -3.4982, 40.081 ], [ -3.4982, 40.0803 ], [ -3.4979, 40.0802 ], [ -3.4952, 40.0801 ], [ -3.4953, 40.0796 ], [ -3.4962, 40.0796 ], [ -3.4969, 40.0794 ], [ -3.4968, 40.0791 ], [ -3.4961, 40.0787 ], [ -3.496, 40.0785 ], [ -3.4962, 40.0785 ], [ -3.4966, 40.0788 ], [ -3.497, 40.0789 ], [ -3.4971, 40.0788 ], [ -3.4975, 40.0792 ], [ -3.498, 40.0792 ], [ -3.4985, 40.0788 ], [ -3.4985, 40.0786 ], [ -3.4982, 40.0784 ], [ -3.4982, 40.0781 ], [ -3.4994, 40.079 ], [ -3.5, 40.0787 ], [ -3.5, 40.0785 ], [ -3.5003, 40.0786 ], [ -3.5002, 40.0789 ], [ -3.5003, 40.079 ], [ -3.5007, 40.0785 ], [ -3.5009, 40.0778 ], [ -3.5013, 40.0776 ], [ -3.5014, 40.0773 ], [ -3.5029, 40.077 ], [ -3.5026, 40.0779 ], [ -3.5032, 40.0782 ], [ -3.5036, 40.0787 ], [ -3.5036, 40.0788 ], [ -3.5032, 40.0787 ], [ -3.5031, 40.079 ], [ -3.5036, 40.0795 ], [ -3.5038, 40.0795 ], [ -3.5041, 40.0792 ], [ -3.5043, 40.0786 ], [ -3.5062, 40.0773 ], [ -3.5067, 40.0771 ], [ -3.5071, 40.0766 ], [ -3.5073, 40.0762 ], [ -3.5073, 40.0758 ], [ -3.5067, 40.0744 ], [ -3.5074, 40.0741 ], [ -3.5083, 40.074 ], [ -3.5091, 40.0737 ], [ -3.5107, 40.0725 ], [ -3.5117, 40.0709 ], [ -3.5119, 40.0698 ], [ -3.5112, 40.0692 ], [ -3.51, 40.0693 ], [ -3.51, 40.0691 ], [ -3.509, 40.0689 ], [ -3.5091, 40.0684 ], [ -3.5086, 40.0683 ], [ -3.5086, 40.0682 ], [ -3.5078, 40.0681 ], [ -3.508, 40.0675 ], [ -3.5048, 40.0671 ], [ -3.5041, 40.0669 ], [ -3.5031, 40.0668 ], [ -3.5024, 40.0669 ], [ -3.5009, 40.0667 ], [ -3.4979, 40.0661 ], [ -3.4974, 40.0661 ], [ -3.4963, 40.0658 ], [ -3.495, 40.0657 ], [ -3.495, 40.0656 ], [ -3.4923, 40.0652 ], [ -3.4892, 40.0645 ], [ -3.4886, 40.0645 ], [ -3.4881, 40.0644 ], [ -3.4878, 40.0641 ], [ -3.4884, 40.07 ], [ -3.488, 40.0709 ], [ -3.4874, 40.0717 ], [ -3.4871, 40.073 ], [ -3.4866, 40.0741 ], [ -3.4852, 40.0755 ], [ -3.485, 40.0763 ], [ -3.4851, 40.0768 ], [ -3.4871, 40.0794 ], [ -3.4873, 40.0803 ], [ -3.4873, 40.0816 ], [ -3.4871, 40.0823 ], [ -3.4866, 40.0832 ], [ -3.4866, 40.0834 ], [ -3.4862, 40.0839 ], [ -3.4873, 40.0846 ], [ -3.4901, 40.0853 ], [ -3.4902, 40.0854 ], [ -3.4901, 40.086 ], [ -3.4915, 40.0859 ] ] ] } },
{ "type": "Feature", "properties": { "municipio": "Colmenar de Oreja", "clasificacion": "urbanizable-no-sectorizado", "calificacion": "sin-asignar", "version": "vigente", "fuente": "SIT-CAM WFS — UsoDelSuelo:VPLA_V_CLASIFICACION (https://idem.comunidad.madrid/geosrvg/ows)", "fecha_dato": "2026-05-12", "ambito": "58", "_raw_CD_SIGLAS": "SUBNS", "_raw_DS_CLASIF_GEN": "Suelo No Urbanizable Común", "_raw_DS_CLASIF_DET": "No urbanizable incluido en Catalogo de parcelaciones ilegales", "_raw_DS_DOCU": "NORMAS SUBSIDIARIAS", "_raw_DS_LEY": "CM Ley 4/1984, E RDL 1/1992", "_raw_FC_AC": "1985-01-31", "_raw_NM_AREA_M2": 653948.29946250794, "_cam_code": "043" }, "geometry": { "type": "Polygon", "coordinates": [ [ [ -3.4423, 40.0796 ], [ -3.4426, 40.0803 ], [ -3.4434, 40.0804 ], [ -3.4436, 40.0802 ], [ -3.4432, 40.08 ], [ -3.4433, 40.0797 ], [ -3.4438, 40.0798 ], [ -3.4444, 40.0796 ], [ -3.4455, 40.0801 ], [ -3.4459, 40.08 ], [ -3.4458, 40.0799 ], [ -3.4461, 40.0798 ], [ -3.4463, 40.0799 ], [ -3.4485, 40.0796 ], [ -3.45, 40.0788 ], [ -3.4505, 40.0777 ], [ -3.4505, 40.0763 ], [ -3.4511, 40.075 ], [ -3.4543, 40.0715 ], [ -3.4543, 40.0713 ], [ -3.4544, 40.0713 ], [ -3.4554, 40.069 ], [ -3.4562, 40.0675 ], [ -3.4558, 40.0674 ], [ -3.4556, 40.0676 ], [ -3.4549, 40.0678 ], [ -3.454, 40.0687 ], [ -3.4533, 40.069 ], [ -3.4533, 40.0691 ], [ -3.4513, 40.0696 ], [ -3.4511, 40.0698 ], [ -3.4494, 40.0705 ], [ -3.4485, 40.0711 ], [ -3.4476, 40.0715 ], [ -3.447, 40.072 ], [ -3.4462, 40.0732 ], [ -3.4444, 40.0748 ], [ -3.4441, 40.075 ], [ -3.4431, 40.0751 ], [ -3.4427, 40.0758 ], [ -3.4437, 40.0759 ], [ -3.4441, 40.0762 ], [ -3.4441, 40.0764 ], [ -3.4443, 40.0764 ], [ -3.4447, 40.077 ], [ -3.4447, 40.0777 ], [ -3.4449, 40.0781 ], [ -3.4449, 40.0784 ], [ -3.4451, 40.0785 ], [ -3.4446, 40.0787 ], [ -3.4444, 40.0783 ], [ -3.444, 40.0781 ], [ -3.4435, 40.0781 ], [ -3.4434, 40.0784 ], [ -3.4427, 40.0791 ], [ -3.4423, 40.0792 ], [ -3.4421, 40.0797 ], [ -3.4423, 40.0796 ] ] ] } },
{ "type": "Feature", "properties": { "municipio": "Colmenar de Oreja", "clasificacion": "urbanizable-no-sectorizado", "calificacion": "sin-asignar", "version": "vigente", "fuente": "SIT-CAM WFS — UsoDelSuelo:VPLA_V_CLASIFICACION (https://idem.comunidad.madrid/geosrvg/ows)", "fecha_dato": "2026-05-12", "ambito": "58", "_raw_CD_SIGLAS": "SUBNS", "_raw_DS_CLASIF_GEN": "Suelo No Urbanizable Común", "_raw_DS_CLASIF_DET": "No urbanizable incluido en Catalogo de parcelaciones ilegales", "_raw_DS_DOCU": "NORMAS SUBSIDIARIAS", "_raw_DS_LEY": "CM Ley 4/1984, E RDL 1/1992", "_raw_FC_AC": "1985-01-31", "_raw_NM_AREA_M2": 448253.21495780401, "_cam_code": "043" }, "geometry": { "type": "Polygon", "coordinates": [ [ [ -3.4478, 40.086 ], [ -3.4484, 40.0874 ], [ -3.4486, 40.0874 ], [ -3.4489, 40.0871 ], [ -3.4502, 40.0871 ], [ -3.4504, 40.087 ], [ -3.4505, 40.0867 ], [ -3.4511, 40.0866 ], [ -3.4507, 40.0858 ], [ -3.4499, 40.0852 ], [ -3.4498, 40.085 ], [ -3.4499, 40.0845 ], [ -3.4528, 40.0839 ], [ -3.4529, 40.083 ], [ -3.4534, 40.082 ], [ -3.4534, 40.0809 ], [ -3.4533, 40.0809 ], [ -3.4531, 40.0803 ], [ -3.4532, 40.0791 ], [ -3.453, 40.0788 ], [ -3.4527, 40.0776 ], [ -3.4522, 40.0773 ], [ -3.4519, 40.0769 ], [ -3.4516, 40.0768 ], [ -3.4505, 40.0775 ], [ -3.4504, 40.0783 ], [ -3.4497, 40.0792 ], [ -3.4476, 40.08 ], [ -3.446, 40.0804 ], [ -3.4462, 40.0807 ], [ -3.4469, 40.0804 ], [ -3.447, 40.0806 ], [ -3.4473, 40.0806 ], [ -3.4475, 40.0808 ], [ -3.4467, 40.0813 ], [ -3.4469, 40.0815 ], [ -3.4464, 40.082 ], [ -3.4464, 40.0821 ], [ -3.4469, 40.0823 ], [ -3.447, 40.0826 ], [ -3.4463, 40.0827 ], [ -3.4459, 40.0832 ], [ -3.446, 40.0834 ], [ -3.4463, 40.0834 ], [ -3.4463, 40.0835 ], [ -3.4456, 40.0839 ], [ -3.4454, 40.0839 ], [ -3.4456, 40.0843 ], [ -3.4451, 40.0847 ], [ -3.4453, 40.0852 ], [ -3.4449, 40.0858 ], [ -3.4448, 40.0863 ], [ -3.4451, 40.0865 ], [ -3.4456, 40.0859 ], [ -3.4457, 40.0854 ], [ -3.4468, 40.085 ], [ -3.4472, 40.0855 ], [ -3.4478, 40.0856 ], [ -3.4478, 40.086 ] ] ] } },
{ "type": "Feature", "properties": { "municipio": "Colmenar de Oreja", "clasificacion": "urbanizable-no-sectorizado", "calificacion": "sin-asignar", "version": "vigente", "fuente": "SIT-CAM WFS — UsoDelSuelo:VPLA_V_CLASIFICACION (https://idem.comunidad.madrid/geosrvg/ows)", "fecha_dato": "2026-05-12", "ambito": "58", "_raw_CD_SIGLAS": "SUBNS", "_raw_DS_CLASIF_GEN": "Suelo No Urbanizable Común", "_raw_DS_CLASIF_DET": "Suelo no urbanizable común", "_raw_DS_DOCU": "NORMAS SUBSIDIARIAS", "_raw_DS_LEY": "CM Ley 4/1984, E RDL 1/1992", "_raw_FC_AC": "1985-01-31", "_raw_NM_AREA_M2": 24219934.945700999, "_cam_code": "043" }, "geometry": { "type": "Polygon", "coordinates": [ [ [ -3.5445, 40.0993 ], [ -3.5494, 40.1019 ], [ -3.5506, 40.1019 ], [ -3.553, 40.1014 ], [ -3.5556, 40.1005 ], [ -3.5599, 40.0996 ], [ -3.5626, 40.0996 ], [ -3.5629, 40.0997 ], [ -3.5637, 40.0995 ], [ -3.5643, 40.0995 ], [ -3.5653, 40.0999 ], [ -3.5672, 40.1003 ], [ -3.569, 40.1003 ], [ -3.5715, 40.101 ], [ -3.5747, 40.1012 ], [ -3.5776, 40.1008 ], [ -3.5791, 40.0998 ], [ -3.5809, 40.099 ], [ -3.5836, 40.0956 ], [ -3.5853, 40.0926 ], [ -3.5853, 40.0908 ], [ -3.5843, 40.0882 ], [ -3.5859, 40.0844 ], [ -3.5874, 40.079 ], [ -3.5892, 40.0768 ], [ -3.591, 40.0729 ], [ -3.5912, 40.0714 ], [ -3.5909, 40.0695 ], [ -3.5913, 40.0685 ], [ -3.5922, 40.0676 ], [ -3.594, 40.067 ], [ -3.5935, 40.0646 ], [ -3.5934, 40.0646 ], [ -3.5934, 40.0644 ], [ -3.5923, 40.0621 ], [ -3.5894, 40.0582 ], [ -3.5876, 40.0579 ], [ -3.5833, 40.0588 ], [ -3.5812, 40.0595 ], [ -3.58, 40.0605 ], [ -3.5761, 40.0618 ], [ -3.5702, 40.0643 ], [ -3.5664, 40.0654 ], [ -3.564, 40.0656 ], [ -3.564, 40.0657 ], [ -3.5626, 40.0662 ], [ -3.5611, 40.0665 ], [ -3.5567, 40.0665 ], [ -3.5407, 40.0681 ], [ -3.5339, 40.0682 ], [ -3.5316, 40.0686 ], [ -3.5273, 40.0698 ], [ -3.5248, 40.0697 ], [ -3.5224, 40.0693 ], [ -3.5191, 40.069 ], [ -3.5152, 40.0681 ], [ -3.5123, 40.068 ], [ -3.5105, 40.0682 ], [ -3.508, 40.0675 ], [ -3.5078, 40.0681 ], [ -3.5086, 40.0682 ], [ -3.5086, 40.0683 ], [ -3.5091, 40.0684 ], [ -3.509, 40.0689 ], [ -3.51, 40.0691 ], [ -3.51, 40.0693 ], [ -3.5112, 40.0692 ], [ -3.5119, 40.0698 ], [ -3.5119, 40.0701 ], [ -3.5117, 40.0709 ], [ -3.5107, 40.0725 ], [ -3.5091, 40.0737 ], [ -3.5083, 40.074 ], [ -3.5074, 40.0741 ], [ -3.5067, 40.0744 ], [ -3.5073, 40.0758 ], [ -3.5073, 40.0762 ], [ -3.5067, 40.0771 ], [ -3.5062, 40.0773 ], [ -3.5043, 40.0786 ], [ -3.5041, 40.0792 ], [ -3.5038, 40.0795 ], [ -3.5036, 40.0795 ], [ -3.5031, 40.079 ], [ -3.5032, 40.0787 ], [ -3.5034, 40.0788 ], [ -3.5036, 40.0788 ], [ -3.5036, 40.0787 ], [ -3.5032, 40.0782 ], [ -3.5026, 40.0779 ], [ -3.5028, 40.0771 ], [ -3.5029, 40.0771 ], [ -3.5028, 40.077 ], [ -3.5014, 40.0773 ], [ -3.5013, 40.0776 ], [ -3.5009, 40.0778 ], [ -3.5007, 40.0785 ], [ -3.5003, 40.079 ], [ -3.5002, 40.079 ], [ -3.5003, 40.0786 ], [ -3.5, 40.0785 ], [ -3.5, 40.0787 ], [ -3.4994, 40.079 ], [ -3.4982, 40.0781 ], [ -3.4982, 40.0784 ], [ -3.4985, 40.0786 ], [ -3.4985, 40.0788 ], [ -3.498, 40.0792 ], [ -3.4975, 40.0792 ], [ -3.4971, 40.0788 ], [ -3.497, 40.0789 ], [ -3.4966, 40.0788 ], [ -3.4962, 40.0785 ], [ -3.496, 40.0785 ], [ -3.4961, 40.0787 ], [ -3.4968, 40.0791 ], [ -3.4969, 40.0794 ], [ -3.4962, 40.0796 ], [ -3.4953, 40.0796 ], [ -3.4952, 40.0797 ], [ -3.4952, 40.0801 ], [ -3.4973, 40.0801 ], [ -3.4982, 40.0803 ], [ -3.4982, 40.081 ], [ -3.4987, 40.0811 ], [ -3.4994, 40.0802 ], [ -3.5, 40.0806 ], [ -3.5005, 40.0814 ], [ -3.5004, 40.0827 ], [ -3.5002, 40.083 ], [ -3.4998, 40.0844 ], [ -3.4997, 40.0844 ], [ -3.4995, 40.0853 ], [ -3.4987, 40.086 ], [ -3.498, 40.0864 ], [ -3.5029, 40.0849 ], [ -3.5043, 40.0859 ], [ -3.5079, 40.0875 ], [ -3.5098, 40.0885 ], [ -3.5125, 40.0895 ], [ -3.5154, 40.0902 ], [ -3.5176, 40.0909 ], [ -3.5312, 40.0957 ], [ -3.541, 40.0985 ], [ -3.5445, 40.0993 ] ] ] } },
{ "type": "Feature", "properties": { "municipio": "Colmenar de Oreja", "clasificacion": "urbanizable-sectorizado", "calificacion": "sin-asignar", "version": "vigente", "fuente": "SIT-CAM WFS — UsoDelSuelo:VPLA_V_CLASIFICACION (https://idem.comunidad.madrid/geosrvg/ows)", "fecha_dato": "2026-05-12", "ambito": "58", "_raw_CD_SIGLAS": "SUBS", "_raw_DS_CLASIF_GEN": "Suelo Urbanizable", "_raw_DS_CLASIF_DET": null, "_raw_DS_DOCU": "NORMAS SUBSIDIARIAS", "_raw_DS_LEY": "CM Ley 4/1984, E RDL 1/1992", "_raw_FC_AC": "1985-01-31", "_raw_NM_AREA_M2": 17797.975703041498, "_cam_code": "043" }, "geometry": { "type": "Polygon", "coordinates": [ [ [ -3.3867, 40.1109 ], [ -3.3859, 40.112 ], [ -3.387, 40.1125 ], [ -3.388, 40.1112 ], [ -3.3867, 40.1109 ] ] ] } },
{ "type": "Feature", "properties": { "municipio": "Colmenar de Oreja", "clasificacion": "urbanizable-sectorizado", "calificacion": "sin-asignar", "version": "vigente", "fuente": "SIT-CAM WFS — UsoDelSuelo:VPLA_V_CLASIFICACION (https://idem.comunidad.madrid/geosrvg/ows)", "fecha_dato": "2026-05-12", "ambito": "58", "_raw_CD_SIGLAS": "SUBS", "_raw_DS_CLASIF_GEN": "Suelo Urbanizable", "_raw_DS_CLASIF_DET": null, "_raw_DS_DOCU": "NORMAS SUBSIDIARIAS", "_raw_DS_LEY": "CM Ley 4/1984, E RDL 1/1992", "_raw_FC_AC": "1985-01-31", "_raw_NM_AREA_M2": 20216.242873094401, "_cam_code": "043" }, "geometry": { "type": "Polygon", "coordinates": [ [ [ -3.3834, 40.1099 ], [ -3.3811, 40.1102 ], [ -3.3813, 40.1111 ], [ -3.3831, 40.1109 ], [ -3.3838, 40.1107 ], [ -3.3834, 40.1099 ] ] ] } }
]
}
