{
"type": "FeatureCollection",
"name": "vigente.full",
"features": [
{ "type": "Feature", "properties": { "municipio": "Robledillo de la Jara", "clasificacion": "no-urbanizable-protegido", "calificacion": "sin-asignar", "version": "vigente", "fuente": "SIT-CAM WFS — UsoDelSuelo:VPLA_V_CLASIFICACION (https://idem.comunidad.madrid/geosrvg/ows)", "fecha_dato": "2026-05-12", "ambito": "19040", "_raw_CD_SIGLAS": "SNUP", "_raw_DS_CLASIF_GEN": "Suelo No Urbanizable Protegido", "_raw_DS_CLASIF_DET": "Suelo no Urbanizable Especialmente Protegido por su interés Forestal y Cañadas", "_raw_DS_DOCU": "NORMAS SUBSIDIARIAS", "_raw_DS_LEY": "CM Ley 4/1984, E RD 1346/1976", "_raw_FC_AC": "1992-07-23", "_raw_NM_AREA_M2": 200978.79216902101, "_cam_code": "124" }, "geometry": { "type": "Polygon", "coordinates": [ [ [ -3.561, 40.9551 ], [ -3.5624, 40.9562 ], [ -3.5643, 40.956 ], [ -3.5647, 40.9557 ], [ -3.5653, 40.9546 ], [ -3.5655, 40.9539 ], [ -3.5655, 40.9534 ], [ -3.565, 40.9527 ], [ -3.5629, 40.9513 ], [ -3.5622, 40.9506 ], [ -3.5616, 40.9496 ], [ -3.5616, 40.9489 ], [ -3.5628, 40.948 ], [ -3.563, 40.9475 ], [ -3.5623, 40.9473 ], [ -3.5616, 40.948 ], [ -3.5609, 40.9481 ], [ -3.5605, 40.9478 ], [ -3.56, 40.947 ], [ -3.5594, 40.9472 ], [ -3.5593, 40.9478 ], [ -3.559, 40.948 ], [ -3.5594, 40.9482 ], [ -3.5598, 40.9488 ], [ -3.5596, 40.9494 ], [ -3.5601, 40.9503 ], [ -3.5601, 40.9508 ], [ -3.5596, 40.9512 ], [ -3.5601, 40.9516 ], [ -3.5606, 40.9515 ], [ -3.5611, 40.9519 ], [ -3.5613, 40.9519 ], [ -3.5618, 40.9525 ], [ -3.5624, 40.9529 ], [ -3.5629, 40.9528 ], [ -3.5631, 40.9531 ], [ -3.5632, 40.953 ], [ -3.564, 40.9531 ], [ -3.5645, 40.9538 ], [ -3.5645, 40.954 ], [ -3.5649, 40.9544 ], [ -3.5647, 40.9544 ], [ -3.5647, 40.9545 ], [ -3.5646, 40.9544 ], [ -3.5647, 40.9547 ], [ -3.5645, 40.9547 ], [ -3.5646, 40.9548 ], [ -3.5645, 40.9548 ], [ -3.5644, 40.9551 ], [ -3.5636, 40.9546 ], [ -3.5617, 40.9548 ], [ -3.5609, 40.9544 ], [ -3.559, 40.9542 ], [ -3.5585, 40.9537 ], [ -3.5585, 40.9534 ], [ -3.558, 40.953 ], [ -3.5572, 40.9527 ], [ -3.5571, 40.9527 ], [ -3.5568, 40.9527 ], [ -3.558, 40.9532 ], [ -3.5583, 40.9539 ], [ -3.5588, 40.9545 ], [ -3.5603, 40.9547 ], [ -3.561, 40.9551 ] ] ] } },
{ "type": "Feature", "properties": { "municipio": "Robledillo de la Jara", "clasificacion": "no-urbanizable-protegido", "calificacion": "sin-asignar", "version": "vigente", "fuente": "SIT-CAM WFS — UsoDelSuelo:VPLA_V_CLASIFICACION (https://idem.comunidad.madrid/geosrvg/ows)", "fecha_dato": "2026-05-12", "ambito": "19040", "_raw_CD_SIGLAS": "SNUP", "_raw_DS_CLASIF_GEN": "Suelo No Urbanizable Protegido", "_raw_DS_CLASIF_DET": "Suelo no Urbanizable Especialmente Protegido por cañadas, cordeles y caminos tradicionales", "_raw_DS_DOCU": "NORMAS SUBSIDIARIAS", "_raw_DS_LEY": "CM Ley 4/1984, E RD 1346/1976", "_raw_FC_AC": "1992-07-23", "_raw_NM_AREA_M2": 151979.87710517299, "_cam_code": "124" }, "geometry": { "type": "Polygon", "coordinates": [ [ [ -3.5257, 40.9506 ], [ -3.5264, 40.9497 ], [ -3.528, 40.9488 ], [ -3.531, 40.9489 ], [ -3.5332, 40.9482 ], [ -3.5338, 40.9469 ], [ -3.5342, 40.9466 ], [ -3.5345, 40.9467 ], [ -3.5344, 40.9465 ], [ -3.5345, 40.9462 ], [ -3.5344, 40.9453 ], [ -3.5346, 40.945 ], [ -3.5347, 40.9445 ], [ -3.5347, 40.9442 ], [ -3.5343, 40.9439 ], [ -3.5343, 40.9427 ], [ -3.5336, 40.9416 ], [ -3.5336, 40.9413 ], [ -3.5342, 40.9414 ], [ -3.5347, 40.9406 ], [ -3.5348, 40.94 ], [ -3.5351, 40.9397 ], [ -3.5354, 40.9396 ], [ -3.5353, 40.9394 ], [ -3.5354, 40.9392 ], [ -3.5359, 40.939 ], [ -3.5369, 40.9389 ], [ -3.5373, 40.9387 ], [ -3.5384, 40.9387 ], [ -3.539, 40.9382 ], [ -3.539, 40.9378 ], [ -3.5395, 40.9375 ], [ -3.5405, 40.9375 ], [ -3.5412, 40.9378 ], [ -3.542, 40.9378 ], [ -3.5421, 40.9377 ], [ -3.5418, 40.9369 ], [ -3.5407, 40.9369 ], [ -3.5407, 40.9362 ], [ -3.5406, 40.9362 ], [ -3.5405, 40.9367 ], [ -3.5403, 40.937 ], [ -3.5401, 40.9371 ], [ -3.5398, 40.937 ], [ -3.5388, 40.9371 ], [ -3.5382, 40.9375 ], [ -3.5379, 40.9381 ], [ -3.5368, 40.9384 ], [ -3.5364, 40.9384 ], [ -3.5359, 40.9382 ], [ -3.5359, 40.9379 ], [ -3.5353, 40.9374 ], [ -3.5345, 40.9373 ], [ -3.5345, 40.9376 ], [ -3.535, 40.9379 ], [ -3.5352, 40.9382 ], [ -3.5356, 40.9381 ], [ -3.5356, 40.9384 ], [ -3.534, 40.9399 ], [ -3.5335, 40.941 ], [ -3.5336, 40.9411 ], [ -3.5334, 40.9415 ], [ -3.5334, 40.9418 ], [ -3.5336, 40.9425 ], [ -3.534, 40.943 ], [ -3.534, 40.9439 ], [ -3.5343, 40.9443 ], [ -3.5345, 40.9443 ], [ -3.5345, 40.9444 ], [ -3.5341, 40.9446 ], [ -3.5339, 40.9456 ], [ -3.5337, 40.9458 ], [ -3.5332, 40.9459 ], [ -3.5322, 40.9458 ], [ -3.5321, 40.9465 ], [ -3.5323, 40.9471 ], [ -3.5318, 40.9476 ], [ -3.5312, 40.948 ], [ -3.53, 40.9484 ], [ -3.5299, 40.9487 ], [ -3.5291, 40.9486 ], [ -3.5279, 40.9487 ], [ -3.5272, 40.9491 ], [ -3.527, 40.9491 ], [ -3.5269, 40.9493 ], [ -3.5262, 40.9497 ], [ -3.5257, 40.9504 ], [ -3.5255, 40.9504 ], [ -3.5255, 40.9506 ], [ -3.5257, 40.9506 ] ] ] } },
{ "type": "Feature", "properties": { "municipio": "Robledillo de la Jara", "clasificacion": "no-urbanizable-protegido", "calificacion": "sin-asignar", "version": "vigente", "fuente": "SIT-CAM WFS — UsoDelSuelo:VPLA_V_CLASIFICACION (https://idem.comunidad.madrid/geosrvg/ows)", "fecha_dato": "2026-05-12", "ambito": "19040", "_raw_CD_SIGLAS": "SNUP", "_raw_DS_CLASIF_GEN": "Suelo No Urbanizable Protegido", "_raw_DS_CLASIF_DET": "Suelo no Urbanizable Especialmente Protegido por cañadas, cordeles y caminos tradicionales", "_raw_DS_DOCU": "NORMAS SUBSIDIARIAS", "_raw_DS_LEY": "CM Ley 4/1984, E RD 1346/1976", "_raw_FC_AC": "1992-07-23", "_raw_NM_AREA_M2": 115050.592230704, "_cam_code": "124" }, "geometry": { "type": "Polygon", "coordinates": [ [ [ -3.5082, 40.9643 ], [ -3.5051, 40.9674 ], [ -3.5051, 40.9681 ], [ -3.5042, 40.9696 ], [ -3.503, 40.9706 ], [ -3.502, 40.972 ], [ -3.5026, 40.9715 ], [ -3.5044, 40.9695 ], [ -3.5049, 40.9687 ], [ -3.5078, 40.9655 ], [ -3.5085, 40.9648 ], [ -3.509, 40.9645 ], [ -3.5097, 40.9642 ], [ -3.5118, 40.9641 ], [ -3.5126, 40.9636 ], [ -3.5137, 40.9632 ], [ -3.5146, 40.9625 ], [ -3.5147, 40.9621 ], [ -3.5154, 40.9619 ], [ -3.516, 40.9619 ], [ -3.5168, 40.9612 ], [ -3.5172, 40.9606 ], [ -3.5173, 40.9602 ], [ -3.5176, 40.9601 ], [ -3.5186, 40.9601 ], [ -3.5209, 40.9611 ], [ -3.5211, 40.9606 ], [ -3.5179, 40.9594 ], [ -3.5171, 40.9593 ], [ -3.5169, 40.9594 ], [ -3.5167, 40.9602 ], [ -3.5161, 40.961 ], [ -3.5156, 40.9613 ], [ -3.5146, 40.9615 ], [ -3.5129, 40.963 ], [ -3.5126, 40.963 ], [ -3.5111, 40.9636 ], [ -3.5102, 40.9636 ], [ -3.5091, 40.9638 ], [ -3.5082, 40.9643 ] ] ] } },
{ "type": "Feature", "properties": { "municipio": "Robledillo de la Jara", "clasificacion": "no-urbanizable-protegido", "calificacion": "sin-asignar", "version": "vigente", "fuente": "SIT-CAM WFS — UsoDelSuelo:VPLA_V_CLASIFICACION (https://idem.comunidad.madrid/geosrvg/ows)", "fecha_dato": "2026-05-12", "ambito": "19040", "_raw_CD_SIGLAS": "SNUP", "_raw_DS_CLASIF_GEN": "Suelo No Urbanizable Protegido", "_raw_DS_CLASIF_DET": "Suelo no Urbanizable Especialmente Protegido por su interés ecológico", "_raw_DS_DOCU": "NORMAS SUBSIDIARIAS", "_raw_DS_LEY": "CM Ley 4/1984, E RD 1346/1976", "_raw_FC_AC": "1992-07-23", "_raw_NM_AREA_M2": 661250.98029949202, "_cam_code": "124" }, "geometry": { "type": "Polygon", "coordinates": [ [ [ -3.5262, 40.9446 ], [ -3.5268, 40.9446 ], [ -3.5276, 40.9449 ], [ -3.5278, 40.9451 ], [ -3.5284, 40.9452 ], [ -3.5284, 40.9451 ], [ -3.5288, 40.9451 ], [ -3.5323, 40.9438 ], [ -3.5336, 40.9436 ], [ -3.5338, 40.9434 ], [ -3.5338, 40.943 ], [ -3.5336, 40.9425 ], [ -3.5333, 40.9422 ], [ -3.5332, 40.9412 ], [ -3.5329, 40.9411 ], [ -3.5323, 40.9413 ], [ -3.5323, 40.9411 ], [ -3.5338, 40.9401 ], [ -3.5345, 40.9393 ], [ -3.535, 40.9385 ], [ -3.5329, 40.9384 ], [ -3.5304, 40.9388 ], [ -3.5291, 40.9388 ], [ -3.5276, 40.9381 ], [ -3.5267, 40.938 ], [ -3.5263, 40.9378 ], [ -3.526, 40.9378 ], [ -3.526, 40.9377 ], [ -3.5255, 40.9377 ], [ -3.5254, 40.9376 ], [ -3.5234, 40.9376 ], [ -3.5224, 40.9378 ], [ -3.5212, 40.9383 ], [ -3.5209, 40.939 ], [ -3.5203, 40.94 ], [ -3.5202, 40.94 ], [ -3.5201, 40.9404 ], [ -3.5196, 40.9407 ], [ -3.5196, 40.941 ], [ -3.5203, 40.941 ], [ -3.5203, 40.9409 ], [ -3.5205, 40.9409 ], [ -3.5208, 40.9406 ], [ -3.5211, 40.9406 ], [ -3.5213, 40.9404 ], [ -3.5217, 40.9405 ], [ -3.5219, 40.9407 ], [ -3.5217, 40.9429 ], [ -3.522, 40.943 ], [ -3.522, 40.9431 ], [ -3.5231, 40.9428 ], [ -3.5264, 40.9425 ], [ -3.5265, 40.9428 ], [ -3.5258, 40.9438 ], [ -3.5255, 40.944 ], [ -3.5255, 40.9444 ], [ -3.5254, 40.9444 ], [ -3.5254, 40.9446 ], [ -3.5262, 40.9446 ] ] ] } },
{ "type": "Feature", "properties": { "municipio": "Robledillo de la Jara", "clasificacion": "no-urbanizable-protegido", "calificacion": "sin-asignar", "version": "vigente", "fuente": "SIT-CAM WFS — UsoDelSuelo:VPLA_V_CLASIFICACION (https://idem.comunidad.madrid/geosrvg/ows)", "fecha_dato": "2026-05-12", "ambito": "19040", "_raw_CD_SIGLAS": "SNUP", "_raw_DS_CLASIF_GEN": "Suelo No Urbanizable Protegido", "_raw_DS_CLASIF_DET": "Suelo no Urbanizable Especialmente Protegido por su interés ecológico", "_raw_DS_DOCU": "NORMAS SUBSIDIARIAS", "_raw_DS_LEY": "CM Ley 4/1984, E RD 1346/1976", "_raw_FC_AC": "1992-07-23", "_raw_NM_AREA_M2": 542562.98878333496, "_cam_code": "124" }, "geometry": { "type": "Polygon", "coordinates": [ [ [ -3.5638, 40.9547 ], [ -3.5644, 40.9551 ], [ -3.5645, 40.9548 ], [ -3.5646, 40.9548 ], [ -3.5645, 40.9547 ], [ -3.5647, 40.9547 ], [ -3.5646, 40.9544 ], [ -3.5647, 40.9545 ], [ -3.5647, 40.9544 ], [ -3.5649, 40.9544 ], [ -3.5645, 40.954 ], [ -3.5645, 40.9538 ], [ -3.564, 40.9531 ], [ -3.5636, 40.953 ], [ -3.5631, 40.9531 ], [ -3.5629, 40.9528 ], [ -3.5624, 40.9529 ], [ -3.5618, 40.9525 ], [ -3.5613, 40.9519 ], [ -3.5611, 40.9519 ], [ -3.5606, 40.9515 ], [ -3.5601, 40.9516 ], [ -3.5596, 40.9512 ], [ -3.5601, 40.9508 ], [ -3.5601, 40.9503 ], [ -3.5596, 40.9494 ], [ -3.5598, 40.9488 ], [ -3.5594, 40.9482 ], [ -3.559, 40.948 ], [ -3.5593, 40.9478 ], [ -3.5594, 40.9472 ], [ -3.56, 40.947 ], [ -3.5605, 40.9478 ], [ -3.5609, 40.9481 ], [ -3.5616, 40.948 ], [ -3.5624, 40.9473 ], [ -3.5614, 40.9455 ], [ -3.5605, 40.945 ], [ -3.5595, 40.945 ], [ -3.5578, 40.9454 ], [ -3.5567, 40.946 ], [ -3.556, 40.9467 ], [ -3.5559, 40.9474 ], [ -3.5556, 40.9481 ], [ -3.5549, 40.9485 ], [ -3.5531, 40.9492 ], [ -3.5528, 40.9495 ], [ -3.5525, 40.951 ], [ -3.5516, 40.9523 ], [ -3.5531, 40.9526 ], [ -3.5536, 40.9522 ], [ -3.5542, 40.9523 ], [ -3.5548, 40.9521 ], [ -3.5557, 40.9528 ], [ -3.5561, 40.9528 ], [ -3.5563, 40.9526 ], [ -3.5565, 40.9526 ], [ -3.5572, 40.9527 ], [ -3.558, 40.953 ], [ -3.5585, 40.9534 ], [ -3.5585, 40.9537 ], [ -3.559, 40.9542 ], [ -3.5609, 40.9544 ], [ -3.5617, 40.9548 ], [ -3.5633, 40.9547 ], [ -3.5634, 40.9546 ], [ -3.5638, 40.9547 ] ] ] } },
{ "type": "Feature", "properties": { "municipio": "Robledillo de la Jara", "clasificacion": "no-urbanizable-protegido", "calificacion": "sin-asignar", "version": "vigente", "fuente": "SIT-CAM WFS — UsoDelSuelo:VPLA_V_CLASIFICACION (https://idem.comunidad.madrid/geosrvg/ows)", "fecha_dato": "2026-05-12", "ambito": "19040", "_raw_CD_SIGLAS": "SNUP", "_raw_DS_CLASIF_GEN": "Suelo No Urbanizable Protegido", "_raw_DS_CLASIF_DET": "Suelo no Urbanizable Especialmente Protegido por su interés ecológico y Cañadas", "_raw_DS_DOCU": "NORMAS SUBSIDIARIAS", "_raw_DS_LEY": "CM Ley 4/1984, E RD 1346/1976", "_raw_FC_AC": "1992-07-23", "_raw_NM_AREA_M2": 10309.2022972303, "_cam_code": "124" }, "geometry": { "type": "Polygon", "coordinates": [ [ [ -3.534, 40.9399 ], [ -3.5323, 40.9411 ], [ -3.5323, 40.9413 ], [ -3.5329, 40.9411 ], [ -3.5332, 40.9412 ], [ -3.5333, 40.9422 ], [ -3.5336, 40.9425 ], [ -3.5334, 40.9415 ], [ -3.5336, 40.9411 ], [ -3.5335, 40.941 ], [ -3.534, 40.9399 ] ] ] } },
{ "type": "Feature", "properties": { "municipio": "Robledillo de la Jara", "clasificacion": "no-urbanizable-protegido", "calificacion": "sin-asignar", "version": "vigente", "fuente": "SIT-CAM WFS — UsoDelSuelo:VPLA_V_CLASIFICACION (https://idem.comunidad.madrid/geosrvg/ows)", "fecha_dato": "2026-05-12", "ambito": "19040", "_raw_CD_SIGLAS": "SNUP", "_raw_DS_CLASIF_GEN": "Suelo No Urbanizable Protegido", "_raw_DS_CLASIF_DET": "Suelo No Urbanizable Especialmente Protegido por su interés Ecológico y Paisajístico", "_raw_DS_DOCU": "NORMAS SUBSIDIARIAS", "_raw_DS_LEY": "CM Ley 4/1984, E RD 1346/1976", "_raw_FC_AC": "1992-07-23", "_raw_NM_AREA_M2": 159150.32387583001, "_cam_code": "124" }, "geometry": { "type": "Polygon", "coordinates": [ [ [ -3.5624, 40.9473 ], [ -3.563, 40.9475 ], [ -3.563, 40.9472 ], [ -3.5627, 40.9472 ], [ -3.5628, 40.9471 ], [ -3.5627, 40.9469 ], [ -3.5629, 40.9469 ], [ -3.563, 40.9467 ], [ -3.563, 40.9462 ], [ -3.5628, 40.9459 ], [ -3.5624, 40.9458 ], [ -3.5626, 40.9455 ], [ -3.5624, 40.9454 ], [ -3.5625, 40.945 ], [ -3.5623, 40.945 ], [ -3.5623, 40.9446 ], [ -3.5621, 40.9445 ], [ -3.5621, 40.9441 ], [ -3.5619, 40.9439 ], [ -3.5621, 40.9439 ], [ -3.5621, 40.9438 ], [ -3.5615, 40.9434 ], [ -3.5606, 40.9433 ], [ -3.5606, 40.9432 ], [ -3.5604, 40.9432 ], [ -3.5604, 40.9429 ], [ -3.5599, 40.9429 ], [ -3.5597, 40.9426 ], [ -3.5593, 40.9427 ], [ -3.5589, 40.9423 ], [ -3.559, 40.9423 ], [ -3.559, 40.9421 ], [ -3.5588, 40.942 ], [ -3.559, 40.9417 ], [ -3.5587, 40.9416 ], [ -3.5587, 40.9415 ], [ -3.559, 40.9414 ], [ -3.5586, 40.9412 ], [ -3.5587, 40.9411 ], [ -3.5585, 40.9409 ], [ -3.558, 40.9408 ], [ -3.5576, 40.9404 ], [ -3.5572, 40.9403 ], [ -3.5573, 40.94 ], [ -3.5572, 40.9397 ], [ -3.5571, 40.9397 ], [ -3.5571, 40.9394 ], [ -3.5569, 40.9393 ], [ -3.5568, 40.939 ], [ -3.5566, 40.939 ], [ -3.5563, 40.9386 ], [ -3.556, 40.9385 ], [ -3.5559, 40.9381 ], [ -3.5558, 40.9381 ], [ -3.556, 40.938 ], [ -3.5557, 40.9378 ], [ -3.5557, 40.9376 ], [ -3.5553, 40.9375 ], [ -3.5554, 40.9373 ], [ -3.5552, 40.9371 ], [ -3.5546, 40.937 ], [ -3.5544, 40.9383 ], [ -3.5541, 40.9389 ], [ -3.554, 40.9379 ], [ -3.5535, 40.937 ], [ -3.5531, 40.9372 ], [ -3.5532, 40.9378 ], [ -3.5525, 40.9384 ], [ -3.5512, 40.9385 ], [ -3.5509, 40.9387 ], [ -3.5504, 40.9385 ], [ -3.5508, 40.9384 ], [ -3.5509, 40.9381 ], [ -3.5514, 40.9381 ], [ -3.5518, 40.9378 ], [ -3.5521, 40.9378 ], [ -3.5521, 40.9376 ], [ -3.5517, 40.9373 ], [ -3.5488, 40.9388 ], [ -3.5488, 40.939 ], [ -3.5492, 40.9393 ], [ -3.5501, 40.939 ], [ -3.5512, 40.939 ], [ -3.5517, 40.9388 ], [ -3.5534, 40.9386 ], [ -3.5541, 40.9405 ], [ -3.5545, 40.9402 ], [ -3.5546, 40.9396 ], [ -3.555, 40.9385 ], [ -3.5551, 40.9385 ], [ -3.556, 40.9395 ], [ -3.5561, 40.9401 ], [ -3.5566, 40.9407 ], [ -3.5571, 40.9407 ], [ -3.558, 40.9416 ], [ -3.558, 40.9418 ], [ -3.5589, 40.9426 ], [ -3.5594, 40.9436 ], [ -3.56, 40.9439 ], [ -3.5618, 40.9443 ], [ -3.5618, 40.9445 ], [ -3.5614, 40.9447 ], [ -3.5616, 40.9459 ], [ -3.5624, 40.9473 ] ] ] } },
{ "type": "Feature", "properties": { "municipio": "Robledillo de la Jara", "clasificacion": "no-urbanizable-protegido", "calificacion": "sin-asignar", "version": "vigente", "fuente": "SIT-CAM WFS — UsoDelSuelo:VPLA_V_CLASIFICACION (https://idem.comunidad.madrid/geosrvg/ows)", "fecha_dato": "2026-05-12", "ambito": "19040", "_raw_CD_SIGLAS": "SNUP", "_raw_DS_CLASIF_GEN": "Suelo No Urbanizable Protegido", "_raw_DS_CLASIF_DET": "Suelo no Urbanizable Especialmente Protegido por su interés Forestal", "_raw_DS_DOCU": "NORMAS SUBSIDIARIAS", "_raw_DS_LEY": "CM Ley 4/1984, E RD 1346/1976", "_raw_FC_AC": "1992-07-23", "_raw_NM_AREA_M2": 329440.08581542101, "_cam_code": "124" }, "geometry": { "type": "Polygon", "coordinates": [ [ [ -3.5211, 40.959 ], [ -3.5229, 40.9593 ], [ -3.5229, 40.9594 ], [ -3.5237, 40.9597 ], [ -3.5237, 40.9598 ], [ -3.5242, 40.9598 ], [ -3.5245, 40.9594 ], [ -3.5248, 40.9594 ], [ -3.5248, 40.9593 ], [ -3.5254, 40.9593 ], [ -3.5263, 40.959 ], [ -3.5263, 40.9589 ], [ -3.5264, 40.959 ], [ -3.5271, 40.959 ], [ -3.5271, 40.9589 ], [ -3.5298, 40.958 ], [ -3.5301, 40.958 ], [ -3.5304, 40.9583 ], [ -3.5305, 40.959 ], [ -3.5309, 40.9591 ], [ -3.5319, 40.958 ], [ -3.5328, 40.9576 ], [ -3.5328, 40.9575 ], [ -3.5331, 40.9575 ], [ -3.5333, 40.9573 ], [ -3.5341, 40.9571 ], [ -3.5341, 40.957 ], [ -3.5358, 40.9559 ], [ -3.5363, 40.9558 ], [ -3.5374, 40.9551 ], [ -3.5388, 40.9545 ], [ -3.5394, 40.9539 ], [ -3.5392, 40.9538 ], [ -3.5387, 40.9542 ], [ -3.5381, 40.9544 ], [ -3.5377, 40.9549 ], [ -3.5374, 40.9549 ], [ -3.5374, 40.9548 ], [ -3.538, 40.9542 ], [ -3.5385, 40.9541 ], [ -3.5385, 40.954 ], [ -3.5381, 40.954 ], [ -3.5381, 40.9541 ], [ -3.5373, 40.9544 ], [ -3.5363, 40.9544 ], [ -3.5362, 40.9543 ], [ -3.5351, 40.9544 ], [ -3.5343, 40.9541 ], [ -3.5335, 40.9541 ], [ -3.533, 40.9544 ], [ -3.533, 40.9547 ], [ -3.5328, 40.9549 ], [ -3.5318, 40.9548 ], [ -3.5317, 40.9547 ], [ -3.5306, 40.9548 ], [ -3.5298, 40.9551 ], [ -3.5297, 40.9553 ], [ -3.5294, 40.9554 ], [ -3.5289, 40.9559 ], [ -3.5288, 40.9562 ], [ -3.5286, 40.9563 ], [ -3.5284, 40.9568 ], [ -3.5278, 40.9573 ], [ -3.5274, 40.9574 ], [ -3.5274, 40.9575 ], [ -3.5267, 40.9575 ], [ -3.5248, 40.9572 ], [ -3.5241, 40.9574 ], [ -3.5235, 40.958 ], [ -3.5221, 40.9586 ], [ -3.5209, 40.9586 ], [ -3.5209, 40.9585 ], [ -3.5205, 40.9584 ], [ -3.52, 40.9584 ], [ -3.52, 40.9586 ], [ -3.5211, 40.959 ] ] ] } },
{ "type": "Feature", "properties": { "municipio": "Robledillo de la Jara", "clasificacion": "no-urbanizable-protegido", "calificacion": "sin-asignar", "version": "vigente", "fuente": "SIT-CAM WFS — UsoDelSuelo:VPLA_V_CLASIFICACION (https://idem.comunidad.madrid/geosrvg/ows)", "fecha_dato": "2026-05-12", "ambito": "19040", "_raw_CD_SIGLAS": "SNUP", "_raw_DS_CLASIF_GEN": "Suelo No Urbanizable Protegido", "_raw_DS_CLASIF_DET": "Suelo no Urbanizable Especialmente Protegido por su interés Forestal", "_raw_DS_DOCU": "NORMAS SUBSIDIARIAS", "_raw_DS_LEY": "CM Ley 4/1984, E RD 1346/1976", "_raw_FC_AC": "1992-07-23", "_raw_NM_AREA_M2": 6728678.0359260198, "_cam_code": "124" }, "geometry": { "type": "Polygon", "coordinates": [ [ [ -3.4927, 40.978 ], [ -3.493, 40.9782 ], [ -3.493, 40.9784 ], [ -3.4998, 40.9755 ], [ -3.5009, 40.9743 ], [ -3.5005, 40.9737 ], [ -3.5005, 40.9731 ], [ -3.5008, 40.9725 ], [ -3.5048, 40.9679 ], [ -3.5055, 40.9667 ], [ -3.5055, 40.9664 ], [ -3.5058, 40.9657 ], [ -3.5064, 40.9649 ], [ -3.5066, 40.9644 ], [ -3.5066, 40.9637 ], [ -3.507, 40.9618 ], [ -3.5069, 40.9615 ], [ -3.507, 40.9611 ], [ -3.5078, 40.9592 ], [ -3.5082, 40.9568 ], [ -3.5091, 40.9544 ], [ -3.5093, 40.9528 ], [ -3.5096, 40.952 ], [ -3.51, 40.9516 ], [ -3.5102, 40.9511 ], [ -3.5103, 40.9499 ], [ -3.5105, 40.9491 ], [ -3.5106, 40.9491 ], [ -3.5104, 40.949 ], [ -3.5101, 40.9492 ], [ -3.5097, 40.9492 ], [ -3.5098, 40.948 ], [ -3.5094, 40.9472 ], [ -3.5094, 40.9465 ], [ -3.5095, 40.9464 ], [ -3.5095, 40.9458 ], [ -3.5098, 40.9453 ], [ -3.5098, 40.9444 ], [ -3.5097, 40.944 ], [ -3.5095, 40.9438 ], [ -3.5092, 40.9424 ], [ -3.5088, 40.9419 ], [ -3.508, 40.9414 ], [ -3.5071, 40.9405 ], [ -3.5066, 40.9402 ], [ -3.5062, 40.9397 ], [ -3.5061, 40.9392 ], [ -3.5058, 40.9389 ], [ -3.5044, 40.9365 ], [ -3.5037, 40.9345 ], [ -3.5036, 40.9327 ], [ -3.5035, 40.9326 ], [ -3.5036, 40.9323 ], [ -3.5036, 40.9307 ], [ -3.5038, 40.9295 ], [ -3.5051, 40.9282 ], [ -3.5054, 40.9267 ], [ -3.5063, 40.9252 ], [ -3.5037, 40.9251 ], [ -3.5026, 40.9246 ], [ -3.4997, 40.9268 ], [ -3.498, 40.9277 ], [ -3.4974, 40.9283 ], [ -3.4968, 40.9294 ], [ -3.4961, 40.9323 ], [ -3.4961, 40.9367 ], [ -3.4963, 40.9382 ], [ -3.4962, 40.9415 ], [ -3.4959, 40.9437 ], [ -3.4929, 40.9513 ], [ -3.4896, 40.9557 ], [ -3.4883, 40.958 ], [ -3.4842, 40.9629 ], [ -3.4842, 40.9632 ], [ -3.485, 40.9647 ], [ -3.485, 40.9658 ], [ -3.4848, 40.966 ], [ -3.4847, 40.9664 ], [ -3.4852, 40.9672 ], [ -3.4852, 40.9674 ], [ -3.4857, 40.9677 ], [ -3.4855, 40.9684 ], [ -3.4849, 40.9684 ], [ -3.4848, 40.969 ], [ -3.4854, 40.9695 ], [ -3.4862, 40.9698 ], [ -3.4863, 40.97 ], [ -3.4869, 40.97 ], [ -3.487, 40.9703 ], [ -3.488, 40.9702 ], [ -3.4881, 40.9705 ], [ -3.4888, 40.9707 ], [ -3.4889, 40.9711 ], [ -3.4896, 40.9711 ], [ -3.4896, 40.9714 ], [ -3.4899, 40.9719 ], [ -3.4915, 40.9728 ], [ -3.4911, 40.9734 ], [ -3.4907, 40.9737 ], [ -3.4902, 40.9737 ], [ -3.4902, 40.9739 ], [ -3.4906, 40.9744 ], [ -3.4909, 40.9744 ], [ -3.4912, 40.9747 ], [ -3.4915, 40.9746 ], [ -3.4918, 40.9743 ], [ -3.4919, 40.9744 ], [ -3.4918, 40.9755 ], [ -3.4917, 40.9756 ], [ -3.4914, 40.9756 ], [ -3.4911, 40.9753 ], [ -3.4908, 40.9752 ], [ -3.4911, 40.976 ], [ -3.4909, 40.9762 ], [ -3.491, 40.9763 ], [ -3.4915, 40.9762 ], [ -3.4916, 40.9766 ], [ -3.492, 40.9772 ], [ -3.492, 40.9774 ], [ -3.4918, 40.9776 ], [ -3.492, 40.978 ], [ -3.4921, 40.9781 ], [ -3.4927, 40.978 ] ] ] } },
{ "type": "Feature", "properties": { "municipio": "Robledillo de la Jara", "clasificacion": "no-urbanizable-protegido", "calificacion": "sin-asignar", "version": "vigente", "fuente": "SIT-CAM WFS — UsoDelSuelo:VPLA_V_CLASIFICACION (https://idem.comunidad.madrid/geosrvg/ows)", "fecha_dato": "2026-05-12", "ambito": "19040", "_raw_CD_SIGLAS": "SNUP", "_raw_DS_CLASIF_GEN": "Suelo No Urbanizable Protegido", "_raw_DS_CLASIF_DET": "Suelo no Urbanizable Especialmente Protegido por su interés Forestal y Cañadas", "_raw_DS_DOCU": "NORMAS SUBSIDIARIAS", "_raw_DS_LEY": "CM Ley 4/1984, E RD 1346/1976", "_raw_FC_AC": "1992-07-23", "_raw_NM_AREA_M2": 299943.54662130901, "_cam_code": "124" }, "geometry": { "type": "Polygon", "coordinates": [ [ [ -3.5627, 40.9469 ], [ -3.5628, 40.9471 ], [ -3.5627, 40.9472 ], [ -3.563, 40.9472 ], [ -3.5631, 40.947 ], [ -3.5631, 40.9461 ], [ -3.5626, 40.9454 ], [ -3.5626, 40.9449 ], [ -3.5622, 40.9437 ], [ -3.5616, 40.9432 ], [ -3.561, 40.943 ], [ -3.5598, 40.9422 ], [ -3.5594, 40.9417 ], [ -3.5593, 40.9409 ], [ -3.5581, 40.94 ], [ -3.5564, 40.9376 ], [ -3.5531, 40.9348 ], [ -3.553, 40.9343 ], [ -3.5543, 40.9318 ], [ -3.5543, 40.9313 ], [ -3.554, 40.9303 ], [ -3.5532, 40.9294 ], [ -3.5529, 40.9288 ], [ -3.5523, 40.9281 ], [ -3.5519, 40.9271 ], [ -3.5503, 40.9255 ], [ -3.5503, 40.9249 ], [ -3.5506, 40.9241 ], [ -3.5506, 40.9237 ], [ -3.5504, 40.9229 ], [ -3.5497, 40.9212 ], [ -3.5491, 40.9222 ], [ -3.5484, 40.9227 ], [ -3.5487, 40.9229 ], [ -3.5488, 40.9233 ], [ -3.5491, 40.9235 ], [ -3.5491, 40.924 ], [ -3.5489, 40.9246 ], [ -3.549, 40.9246 ], [ -3.5489, 40.9248 ], [ -3.549, 40.9255 ], [ -3.5496, 40.9263 ], [ -3.55, 40.9264 ], [ -3.55, 40.9267 ], [ -3.5505, 40.9269 ], [ -3.551, 40.9274 ], [ -3.5509, 40.9275 ], [ -3.5511, 40.9278 ], [ -3.5511, 40.9283 ], [ -3.5514, 40.9287 ], [ -3.5515, 40.9292 ], [ -3.552, 40.9293 ], [ -3.5527, 40.9299 ], [ -3.5529, 40.9299 ], [ -3.5532, 40.9302 ], [ -3.5531, 40.9305 ], [ -3.5533, 40.9309 ], [ -3.5531, 40.9319 ], [ -3.5525, 40.9329 ], [ -3.5525, 40.9332 ], [ -3.5516, 40.9339 ], [ -3.5515, 40.9341 ], [ -3.5516, 40.9343 ], [ -3.5519, 40.9343 ], [ -3.5521, 40.9345 ], [ -3.5516, 40.9347 ], [ -3.5519, 40.9363 ], [ -3.5511, 40.9367 ], [ -3.551, 40.9369 ], [ -3.5518, 40.9373 ], [ -3.5521, 40.9376 ], [ -3.5521, 40.9378 ], [ -3.5518, 40.9378 ], [ -3.5514, 40.9381 ], [ -3.5509, 40.9381 ], [ -3.5508, 40.9384 ], [ -3.5504, 40.9385 ], [ -3.5509, 40.9387 ], [ -3.5512, 40.9385 ], [ -3.5525, 40.9384 ], [ -3.5532, 40.9378 ], [ -3.5531, 40.9372 ], [ -3.5535, 40.937 ], [ -3.554, 40.9379 ], [ -3.5541, 40.9389 ], [ -3.5544, 40.9383 ], [ -3.5546, 40.937 ], [ -3.5552, 40.9371 ], [ -3.5554, 40.9373 ], [ -3.5553, 40.9375 ], [ -3.5557, 40.9376 ], [ -3.5557, 40.9378 ], [ -3.556, 40.938 ], [ -3.5558, 40.9381 ], [ -3.5559, 40.9381 ], [ -3.556, 40.9385 ], [ -3.5563, 40.9386 ], [ -3.5566, 40.939 ], [ -3.5568, 40.939 ], [ -3.5569, 40.9393 ], [ -3.5571, 40.9394 ], [ -3.5571, 40.9397 ], [ -3.5572, 40.9397 ], [ -3.5573, 40.94 ], [ -3.5572, 40.9403 ], [ -3.5576, 40.9404 ], [ -3.558, 40.9408 ], [ -3.5585, 40.9409 ], [ -3.5587, 40.9411 ], [ -3.5586, 40.9412 ], [ -3.559, 40.9414 ], [ -3.5587, 40.9415 ], [ -3.5587, 40.9416 ], [ -3.559, 40.9417 ], [ -3.5588, 40.942 ], [ -3.559, 40.9421 ], [ -3.559, 40.9423 ], [ -3.5589, 40.9423 ], [ -3.5593, 40.9427 ], [ -3.5597, 40.9426 ], [ -3.5599, 40.9429 ], [ -3.5604, 40.9429 ], [ -3.5604, 40.9432 ], [ -3.5606, 40.9432 ], [ -3.5606, 40.9433 ], [ -3.5615, 40.9434 ], [ -3.5621, 40.9438 ], [ -3.5621, 40.9439 ], [ -3.5619, 40.9439 ], [ -3.5621, 40.9441 ], [ -3.5621, 40.9445 ], [ -3.5623, 40.9446 ], [ -3.5623, 40.945 ], [ -3.5625, 40.945 ], [ -3.5624, 40.9454 ], [ -3.5626, 40.9455 ], [ -3.5624, 40.9458 ], [ -3.5628, 40.9459 ], [ -3.563, 40.9462 ], [ -3.563, 40.9467 ], [ -3.5629, 40.9469 ], [ -3.5627, 40.9469 ] ] ] } },
{ "type": "Feature", "properties": { "municipio": "Robledillo de la Jara", "clasificacion": "no-urbanizable-protegido", "calificacion": "sin-asignar", "version": "vigente", "fuente": "SIT-CAM WFS — UsoDelSuelo:VPLA_V_CLASIFICACION (https://idem.comunidad.madrid/geosrvg/ows)", "fecha_dato": "2026-05-12", "ambito": "19040", "_raw_CD_SIGLAS": "SNUP", "_raw_DS_CLASIF_GEN": "Suelo No Urbanizable Protegido", "_raw_DS_CLASIF_DET": "Suelo no Urbanizable Especialmente Protegido por su interés Forestal y Cañadas", "_raw_DS_DOCU": "NORMAS SUBSIDIARIAS", "_raw_DS_LEY": "CM Ley 4/1984, E RD 1346/1976", "_raw_FC_AC": "1992-07-23", "_raw_NM_AREA_M2": 17127.2335441412, "_cam_code": "124" }, "geometry": { "type": "Polygon", "coordinates": [ [ [ -3.5476, 40.9508 ], [ -3.5489, 40.951 ], [ -3.5498, 40.9508 ], [ -3.55, 40.9502 ], [ -3.5499, 40.9501 ], [ -3.5476, 40.9503 ], [ -3.5469, 40.9502 ], [ -3.547, 40.9504 ], [ -3.5476, 40.9508 ] ] ] } },
{ "type": "Feature", "properties": { "municipio": "Robledillo de la Jara", "clasificacion": "no-urbanizable-protegido", "calificacion": "sin-asignar", "version": "vigente", "fuente": "SIT-CAM WFS — UsoDelSuelo:VPLA_V_CLASIFICACION (https://idem.comunidad.madrid/geosrvg/ows)", "fecha_dato": "2026-05-12", "ambito": "19040", "_raw_CD_SIGLAS": "SNUP", "_raw_DS_CLASIF_GEN": "Suelo No Urbanizable Protegido", "_raw_DS_CLASIF_DET": "Suelo no Urbanizable Especialmente Protegido por su interés Forestal y Cañadas", "_raw_DS_DOCU": "NORMAS SUBSIDIARIAS", "_raw_DS_LEY": "CM Ley 4/1984, E RD 1346/1976", "_raw_FC_AC": "1992-07-23", "_raw_NM_AREA_M2": 35879.316904218598, "_cam_code": "124" }, "geometry": { "type": "Polygon", "coordinates": [ [ [ -3.5507, 40.9523 ], [ -3.5516, 40.9523 ], [ -3.5521, 40.9517 ], [ -3.5527, 40.9504 ], [ -3.5528, 40.9495 ], [ -3.5531, 40.9492 ], [ -3.5524, 40.9495 ], [ -3.5523, 40.9497 ], [ -3.5509, 40.9505 ], [ -3.5506, 40.9508 ], [ -3.5505, 40.9515 ], [ -3.5507, 40.9523 ] ] ] } },
{ "type": "Feature", "properties": { "municipio": "Robledillo de la Jara", "clasificacion": "no-urbanizable-protegido", "calificacion": "sin-asignar", "version": "vigente", "fuente": "SIT-CAM WFS — UsoDelSuelo:VPLA_V_CLASIFICACION (https://idem.comunidad.madrid/geosrvg/ows)", "fecha_dato": "2026-05-12", "ambito": "19040", "_raw_CD_SIGLAS": "SNUP", "_raw_DS_CLASIF_GEN": "Suelo No Urbanizable Protegido", "_raw_DS_CLASIF_DET": "Suelo no Urbanizable Especialmente Protegido por su interés Forestal y Cañadas", "_raw_DS_DOCU": "NORMAS SUBSIDIARIAS", "_raw_DS_LEY": "CM Ley 4/1984, E RD 1346/1976", "_raw_FC_AC": "1992-07-23", "_raw_NM_AREA_M2": 2527.66109006242, "_cam_code": "124" }, "geometry": { "type": "Polygon", "coordinates": [ [ [ -3.5385, 40.9541 ], [ -3.538, 40.9542 ], [ -3.5374, 40.9549 ], [ -3.5377, 40.9549 ], [ -3.5381, 40.9544 ], [ -3.5385, 40.9543 ], [ -3.5386, 40.9542 ], [ -3.5385, 40.954 ], [ -3.5385, 40.9541 ] ] ] } },
{ "type": "Feature", "properties": { "municipio": "Robledillo de la Jara", "clasificacion": "no-urbanizable-protegido", "calificacion": "sin-asignar", "version": "vigente", "fuente": "SIT-CAM WFS — UsoDelSuelo:VPLA_V_CLASIFICACION (https://idem.comunidad.madrid/geosrvg/ows)", "fecha_dato": "2026-05-12", "ambito": "19040", "_raw_CD_SIGLAS": "SNUP", "_raw_DS_CLASIF_GEN": "Suelo No Urbanizable Protegido", "_raw_DS_CLASIF_DET": "Suelo no Urbanizable Especialmente Protegido por cañadas, cordeles y caminos tradicionales", "_raw_DS_DOCU": "NORMAS SUBSIDIARIAS", "_raw_DS_LEY": "CM Ley 4/1984, E RD 1346/1976", "_raw_FC_AC": "1992-07-23", "_raw_NM_AREA_M2": 210485.76706817499, "_cam_code": "124" }, "geometry": { "type": "Polygon", "coordinates": [ [ [ -3.5392, 40.9538 ], [ -3.5394, 40.9539 ], [ -3.5392, 40.9542 ], [ -3.5393, 40.9542 ], [ -3.5395, 40.954 ], [ -3.5395, 40.9534 ], [ -3.5402, 40.9527 ], [ -3.5407, 40.9527 ], [ -3.5408, 40.9523 ], [ -3.5414, 40.9518 ], [ -3.5415, 40.9514 ], [ -3.5418, 40.951 ], [ -3.5422, 40.9508 ], [ -3.5433, 40.9508 ], [ -3.5435, 40.9509 ], [ -3.5447, 40.9505 ], [ -3.5457, 40.9506 ], [ -3.5461, 40.9507 ], [ -3.5473, 40.9514 ], [ -3.5479, 40.9515 ], [ -3.5486, 40.9518 ], [ -3.5493, 40.9519 ], [ -3.5499, 40.9517 ], [ -3.5502, 40.9522 ], [ -3.5507, 40.9523 ], [ -3.5505, 40.9513 ], [ -3.5506, 40.9508 ], [ -3.5509, 40.9505 ], [ -3.552, 40.9499 ], [ -3.5524, 40.9495 ], [ -3.5549, 40.9485 ], [ -3.5556, 40.9481 ], [ -3.5559, 40.9474 ], [ -3.556, 40.9467 ], [ -3.5571, 40.9457 ], [ -3.5578, 40.9454 ], [ -3.5581, 40.9454 ], [ -3.5571, 40.945 ], [ -3.5566, 40.9454 ], [ -3.5556, 40.9443 ], [ -3.5549, 40.9432 ], [ -3.5538, 40.9426 ], [ -3.5535, 40.9427 ], [ -3.5535, 40.9428 ], [ -3.5544, 40.9433 ], [ -3.5562, 40.9455 ], [ -3.5555, 40.946 ], [ -3.5552, 40.9464 ], [ -3.555, 40.9473 ], [ -3.5547, 40.9478 ], [ -3.5516, 40.9491 ], [ -3.5515, 40.9493 ], [ -3.5507, 40.9499 ], [ -3.5501, 40.95 ], [ -3.5469, 40.95 ], [ -3.546, 40.9497 ], [ -3.5431, 40.9497 ], [ -3.5428, 40.9485 ], [ -3.5429, 40.9481 ], [ -3.5426, 40.9479 ], [ -3.5431, 40.9472 ], [ -3.5457, 40.9456 ], [ -3.5471, 40.945 ], [ -3.5479, 40.9444 ], [ -3.5503, 40.9439 ], [ -3.55, 40.9437 ], [ -3.5496, 40.9437 ], [ -3.5485, 40.9439 ], [ -3.5468, 40.9445 ], [ -3.5455, 40.9455 ], [ -3.5429, 40.9471 ], [ -3.5424, 40.948 ], [ -3.5427, 40.9485 ], [ -3.5427, 40.949 ], [ -3.5429, 40.9494 ], [ -3.5429, 40.9497 ], [ -3.5425, 40.9498 ], [ -3.5422, 40.9498 ], [ -3.5419, 40.9498 ], [ -3.5416, 40.9498 ], [ -3.5412, 40.9499 ], [ -3.5391, 40.951 ], [ -3.5389, 40.951 ], [ -3.5386, 40.951 ], [ -3.5383, 40.951 ], [ -3.538, 40.951 ], [ -3.5377, 40.951 ], [ -3.5361, 40.9515 ], [ -3.5342, 40.9517 ], [ -3.5339, 40.9518 ], [ -3.5314, 40.9532 ], [ -3.5312, 40.9532 ], [ -3.5302, 40.9526 ], [ -3.5297, 40.9525 ], [ -3.5291, 40.9523 ], [ -3.5279, 40.952 ], [ -3.5275, 40.9519 ], [ -3.5269, 40.9519 ], [ -3.5269, 40.952 ], [ -3.5279, 40.952 ], [ -3.5292, 40.9524 ], [ -3.5312, 40.9533 ], [ -3.5332, 40.9524 ], [ -3.5338, 40.9519 ], [ -3.5345, 40.9517 ], [ -3.5365, 40.9515 ], [ -3.538, 40.951 ], [ -3.539, 40.9511 ], [ -3.5394, 40.951 ], [ -3.5412, 40.95 ], [ -3.5419, 40.9498 ], [ -3.5422, 40.9502 ], [ -3.5422, 40.9504 ], [ -3.5414, 40.951 ], [ -3.541, 40.9516 ], [ -3.541, 40.9518 ], [ -3.54, 40.9528 ], [ -3.5393, 40.9532 ], [ -3.5393, 40.9534 ], [ -3.5387, 40.9539 ], [ -3.5386, 40.9542 ], [ -3.539, 40.954 ], [ -3.539, 40.9539 ], [ -3.5392, 40.9539 ], [ -3.5392, 40.9538 ] ], [ [ -3.5479, 40.9509 ], [ -3.5474, 40.9507 ], [ -3.5469, 40.9502 ], [ -3.5476, 40.9503 ], [ -3.5497, 40.9501 ], [ -3.55, 40.9502 ], [ -3.5498, 40.9508 ], [ -3.5489, 40.951 ], [ -3.5479, 40.9509 ] ] ] } },
{ "type": "Feature", "properties": { "municipio": "Robledillo de la Jara", "clasificacion": "no-urbanizable-protegido", "calificacion": "sin-asignar", "version": "vigente", "fuente": "SIT-CAM WFS — UsoDelSuelo:VPLA_V_CLASIFICACION (https://idem.comunidad.madrid/geosrvg/ows)", "fecha_dato": "2026-05-12", "ambito": "19040", "_raw_CD_SIGLAS": "SNUP", "_raw_DS_CLASIF_GEN": "Suelo No Urbanizable Protegido", "_raw_DS_CLASIF_DET": "Suelo no Urbanizable Especialmente Protegido por su interés Forestal y Cañadas", "_raw_DS_DOCU": "NORMAS SUBSIDIARIAS", "_raw_DS_LEY": "CM Ley 4/1984, E RD 1346/1976", "_raw_FC_AC": "1992-07-23", "_raw_NM_AREA_M2": 41309.445000758598, "_cam_code": "124" }, "geometry": { "type": "Polygon", "coordinates": [ [ [ -3.5048, 40.9679 ], [ -3.5008, 40.9725 ], [ -3.5005, 40.9731 ], [ -3.5005, 40.9737 ], [ -3.5009, 40.9743 ], [ -3.5014, 40.9738 ], [ -3.5012, 40.9735 ], [ -3.5012, 40.9731 ], [ -3.5021, 40.972 ], [ -3.502, 40.972 ], [ -3.503, 40.9706 ], [ -3.5041, 40.9697 ], [ -3.5046, 40.969 ], [ -3.5051, 40.9681 ], [ -3.5051, 40.9674 ], [ -3.5048, 40.9679 ] ] ] } },
{ "type": "Feature", "properties": { "municipio": "Robledillo de la Jara", "clasificacion": "no-urbanizable-protegido", "calificacion": "sin-asignar", "version": "vigente", "fuente": "SIT-CAM WFS — UsoDelSuelo:VPLA_V_CLASIFICACION (https://idem.comunidad.madrid/geosrvg/ows)", "fecha_dato": "2026-05-12", "ambito": "19040", "_raw_CD_SIGLAS": "SNUP", "_raw_DS_CLASIF_GEN": "Suelo No Urbanizable Protegido", "_raw_DS_CLASIF_DET": "Suelo No Urbanizable Especiamente Protegido por Afección de Cauces, Riberas y Embalses", "_raw_DS_DOCU": "NORMAS SUBSIDIARIAS", "_raw_DS_LEY": "CM Ley 4/1984, E RD 1346/1976", "_raw_FC_AC": "1992-07-23", "_raw_NM_AREA_M2": 1122776.4682485, "_cam_code": "124" }, "geometry": { "type": "Polygon", "coordinates": [ [ [ -3.5393, 40.9322 ], [ -3.5405, 40.9332 ], [ -3.5413, 40.9342 ], [ -3.5416, 40.9351 ], [ -3.5417, 40.9363 ], [ -3.5421, 40.9373 ], [ -3.5424, 40.9376 ], [ -3.546, 40.9393 ], [ -3.5462, 40.9392 ], [ -3.5484, 40.9391 ], [ -3.5488, 40.939 ], [ -3.5488, 40.9388 ], [ -3.5506, 40.9378 ], [ -3.5518, 40.9373 ], [ -3.551, 40.9369 ], [ -3.5511, 40.9367 ], [ -3.5519, 40.9363 ], [ -3.5516, 40.9347 ], [ -3.5521, 40.9345 ], [ -3.5519, 40.9343 ], [ -3.5516, 40.9343 ], [ -3.5515, 40.9341 ], [ -3.5516, 40.9339 ], [ -3.5525, 40.9332 ], [ -3.5525, 40.9329 ], [ -3.5531, 40.9319 ], [ -3.5533, 40.9309 ], [ -3.5531, 40.9305 ], [ -3.5532, 40.9302 ], [ -3.5529, 40.9299 ], [ -3.5527, 40.9299 ], [ -3.552, 40.9293 ], [ -3.5515, 40.9292 ], [ -3.5514, 40.9287 ], [ -3.5511, 40.9283 ], [ -3.5511, 40.9278 ], [ -3.5509, 40.9275 ], [ -3.551, 40.9274 ], [ -3.5505, 40.9269 ], [ -3.55, 40.9267 ], [ -3.55, 40.9264 ], [ -3.5496, 40.9263 ], [ -3.549, 40.9255 ], [ -3.5489, 40.9248 ], [ -3.549, 40.9246 ], [ -3.5489, 40.9246 ], [ -3.5491, 40.924 ], [ -3.5491, 40.9235 ], [ -3.5488, 40.9233 ], [ -3.5487, 40.9229 ], [ -3.5484, 40.9227 ], [ -3.5478, 40.9233 ], [ -3.5476, 40.9273 ], [ -3.5468, 40.9283 ], [ -3.5441, 40.9307 ], [ -3.5426, 40.9314 ], [ -3.5426, 40.9307 ], [ -3.5429, 40.93 ], [ -3.5428, 40.9296 ], [ -3.5429, 40.9286 ], [ -3.5425, 40.9281 ], [ -3.5412, 40.9276 ], [ -3.5413, 40.9281 ], [ -3.5409, 40.9285 ], [ -3.5398, 40.9305 ], [ -3.5394, 40.9314 ], [ -3.5395, 40.932 ], [ -3.5393, 40.9322 ] ] ] } },
{ "type": "Feature", "properties": { "municipio": "Robledillo de la Jara", "clasificacion": "urbano-consolidado", "calificacion": "sin-asignar", "version": "vigente", "fuente": "SIT-CAM WFS — UsoDelSuelo:VPLA_V_CLASIFICACION (https://idem.comunidad.madrid/geosrvg/ows)", "fecha_dato": "2026-05-12", "ambito": "19040", "_raw_CD_SIGLAS": "SU", "_raw_DS_CLASIF_GEN": "Suelo Urbano", "_raw_DS_CLASIF_DET": "Suelo Urbano", "_raw_DS_DOCU": "NORMAS SUBSIDIARIAS", "_raw_DS_LEY": "CM Ley 4/1984, E RD 1346/1976", "_raw_FC_AC": "1992-07-23", "_raw_NM_AREA_M2": 109618.667038656, "_cam_code": "124" }, "geometry": { "type": "Polygon", "coordinates": [ [ [ -3.526, 40.9504 ], [ -3.525, 40.9507 ], [ -3.5248, 40.9509 ], [ -3.5246, 40.9509 ], [ -3.5246, 40.951 ], [ -3.5244, 40.951 ], [ -3.5244, 40.9511 ], [ -3.5238, 40.9511 ], [ -3.5235, 40.9513 ], [ -3.5234, 40.9515 ], [ -3.5234, 40.9529 ], [ -3.5233, 40.953 ], [ -3.5234, 40.9531 ], [ -3.5232, 40.9534 ], [ -3.5232, 40.9536 ], [ -3.5246, 40.9538 ], [ -3.5246, 40.9541 ], [ -3.5248, 40.9541 ], [ -3.5252, 40.9544 ], [ -3.5262, 40.9543 ], [ -3.5268, 40.954 ], [ -3.5275, 40.953 ], [ -3.5274, 40.953 ], [ -3.5275, 40.9527 ], [ -3.5269, 40.9526 ], [ -3.5269, 40.9515 ], [ -3.5266, 40.9515 ], [ -3.5266, 40.9508 ], [ -3.5267, 40.9507 ], [ -3.526, 40.9504 ] ] ] } },
{ "type": "Feature", "properties": { "municipio": "Robledillo de la Jara", "clasificacion": "urbanizable-no-sectorizado", "calificacion": "sin-asignar", "version": "vigente", "fuente": "SIT-CAM WFS — UsoDelSuelo:VPLA_V_CLASIFICACION (https://idem.comunidad.madrid/geosrvg/ows)", "fecha_dato": "2026-05-12", "ambito": "19040", "_raw_CD_SIGLAS": "SUBNS", "_raw_DS_CLASIF_GEN": "Suelo No Urbanizable Común", "_raw_DS_CLASIF_DET": "Suelo No Urbanizable Común", "_raw_DS_DOCU": "NORMAS SUBSIDIARIAS", "_raw_DS_LEY": "CM Ley 4/1984, E RD 1346/1976", "_raw_FC_AC": "1992-07-23", "_raw_NM_AREA_M2": 10277046.3190939, "_cam_code": "124" }, "geometry": { "type": "Polygon", "coordinates": [ [ [ -3.5013, 40.973 ], [ -3.5012, 40.9735 ], [ -3.5014, 40.9737 ], [ -3.5095, 40.9646 ], [ -3.512, 40.9651 ], [ -3.5245, 40.9641 ], [ -3.5262, 40.9647 ], [ -3.5309, 40.9627 ], [ -3.5357, 40.9597 ], [ -3.5398, 40.9595 ], [ -3.5437, 40.9548 ], [ -3.5425, 40.9518 ], [ -3.5426, 40.9508 ], [ -3.5422, 40.9508 ], [ -3.5418, 40.951 ], [ -3.5415, 40.9514 ], [ -3.5414, 40.9518 ], [ -3.5408, 40.9523 ], [ -3.5407, 40.9527 ], [ -3.5402, 40.9527 ], [ -3.5395, 40.9534 ], [ -3.5395, 40.954 ], [ -3.5393, 40.9542 ], [ -3.5391, 40.9542 ], [ -3.5388, 40.9545 ], [ -3.5374, 40.9551 ], [ -3.5363, 40.9558 ], [ -3.5358, 40.9559 ], [ -3.5341, 40.957 ], [ -3.5341, 40.9571 ], [ -3.5324, 40.9577 ], [ -3.5319, 40.958 ], [ -3.5309, 40.9591 ], [ -3.5305, 40.959 ], [ -3.5304, 40.9583 ], [ -3.5301, 40.958 ], [ -3.5298, 40.958 ], [ -3.5271, 40.9589 ], [ -3.5271, 40.959 ], [ -3.5264, 40.959 ], [ -3.5263, 40.9589 ], [ -3.5263, 40.959 ], [ -3.5254, 40.9593 ], [ -3.5248, 40.9593 ], [ -3.5248, 40.9594 ], [ -3.5245, 40.9594 ], [ -3.5242, 40.9598 ], [ -3.5237, 40.9598 ], [ -3.5237, 40.9597 ], [ -3.5229, 40.9594 ], [ -3.5229, 40.9593 ], [ -3.5206, 40.9589 ], [ -3.5205, 40.9587 ], [ -3.52, 40.9586 ], [ -3.52, 40.9584 ], [ -3.5205, 40.9584 ], [ -3.5209, 40.9585 ], [ -3.5209, 40.9586 ], [ -3.5221, 40.9586 ], [ -3.5235, 40.958 ], [ -3.5241, 40.9574 ], [ -3.5248, 40.9572 ], [ -3.5267, 40.9575 ], [ -3.5274, 40.9575 ], [ -3.5274, 40.9574 ], [ -3.5278, 40.9573 ], [ -3.5284, 40.9568 ], [ -3.5286, 40.9563 ], [ -3.5288, 40.9562 ], [ -3.5289, 40.9559 ], [ -3.5294, 40.9554 ], [ -3.5297, 40.9553 ], [ -3.5298, 40.9551 ], [ -3.5306, 40.9548 ], [ -3.5317, 40.9547 ], [ -3.5318, 40.9548 ], [ -3.5328, 40.9549 ], [ -3.533, 40.9547 ], [ -3.533, 40.9544 ], [ -3.5335, 40.9541 ], [ -3.5343, 40.9541 ], [ -3.5351, 40.9544 ], [ -3.5356, 40.9544 ], [ -3.5356, 40.9543 ], [ -3.5373, 40.9544 ], [ -3.5381, 40.9541 ], [ -3.5381, 40.954 ], [ -3.5386, 40.9541 ], [ -3.5393, 40.9534 ], [ -3.5394, 40.9531 ], [ -3.54, 40.9528 ], [ -3.541, 40.9518 ], [ -3.541, 40.9516 ], [ -3.5414, 40.951 ], [ -3.5422, 40.9504 ], [ -3.5422, 40.9502 ], [ -3.5419, 40.9498 ], [ -3.5412, 40.95 ], [ -3.5394, 40.951 ], [ -3.539, 40.9511 ], [ -3.538, 40.951 ], [ -3.5365, 40.9515 ], [ -3.5345, 40.9517 ], [ -3.5338, 40.9519 ], [ -3.5332, 40.9524 ], [ -3.5312, 40.9533 ], [ -3.53, 40.9527 ], [ -3.5279, 40.952 ], [ -3.5269, 40.952 ], [ -3.5269, 40.9526 ], [ -3.5275, 40.9527 ], [ -3.5274, 40.953 ], [ -3.5275, 40.953 ], [ -3.5268, 40.954 ], [ -3.5257, 40.9544 ], [ -3.5252, 40.9544 ], [ -3.5248, 40.9541 ], [ -3.5246, 40.9541 ], [ -3.5246, 40.9538 ], [ -3.5232, 40.9536 ], [ -3.5234, 40.9531 ], [ -3.5233, 40.953 ], [ -3.5234, 40.9529 ], [ -3.5234, 40.9515 ], [ -3.5236, 40.9512 ], [ -3.5244, 40.9511 ], [ -3.5244, 40.951 ], [ -3.5246, 40.951 ], [ -3.5246, 40.9509 ], [ -3.5248, 40.9509 ], [ -3.525, 40.9507 ], [ -3.5255, 40.9506 ], [ -3.5255, 40.9504 ], [ -3.5257, 40.9504 ], [ -3.5262, 40.9497 ], [ -3.5269, 40.9493 ], [ -3.527, 40.9491 ], [ -3.5272, 40.9491 ], [ -3.5279, 40.9487 ], [ -3.5291, 40.9486 ], [ -3.5299, 40.9487 ], [ -3.53, 40.9484 ], [ -3.5312, 40.948 ], [ -3.5322, 40.9473 ], [ -3.5323, 40.9471 ], [ -3.5321, 40.9465 ], [ -3.5322, 40.9458 ], [ -3.5332, 40.9459 ], [ -3.5337, 40.9458 ], [ -3.534, 40.9453 ], [ -3.5341, 40.9446 ], [ -3.5345, 40.9444 ], [ -3.5345, 40.9443 ], [ -3.5343, 40.9443 ], [ -3.534, 40.9439 ], [ -3.534, 40.943 ], [ -3.5337, 40.9425 ], [ -3.5336, 40.9426 ], [ -3.5338, 40.943 ], [ -3.5338, 40.9434 ], [ -3.5336, 40.9436 ], [ -3.5323, 40.9438 ], [ -3.5288, 40.9451 ], [ -3.5284, 40.9451 ], [ -3.5284, 40.9452 ], [ -3.5278, 40.9451 ], [ -3.5276, 40.9449 ], [ -3.5268, 40.9446 ], [ -3.5254, 40.9446 ], [ -3.5255, 40.944 ], [ -3.5258, 40.9438 ], [ -3.5265, 40.9428 ], [ -3.5264, 40.9425 ], [ -3.5231, 40.9428 ], [ -3.522, 40.9431 ], [ -3.522, 40.943 ], [ -3.5217, 40.9429 ], [ -3.5219, 40.9415 ], [ -3.5219, 40.9407 ], [ -3.5217, 40.9405 ], [ -3.5213, 40.9404 ], [ -3.5213, 40.9405 ], [ -3.5208, 40.9406 ], [ -3.5203, 40.941 ], [ -3.5196, 40.941 ], [ -3.5196, 40.9407 ], [ -3.5201, 40.9404 ], [ -3.5202, 40.94 ], [ -3.5203, 40.94 ], [ -3.5209, 40.939 ], [ -3.5211, 40.9384 ], [ -3.5216, 40.9381 ], [ -3.5234, 40.9376 ], [ -3.5254, 40.9376 ], [ -3.5255, 40.9377 ], [ -3.526, 40.9377 ], [ -3.526, 40.9378 ], [ -3.5263, 40.9378 ], [ -3.5267, 40.938 ], [ -3.5276, 40.9381 ], [ -3.5291, 40.9388 ], [ -3.5304, 40.9388 ], [ -3.5329, 40.9384 ], [ -3.535, 40.9385 ], [ -3.534, 40.9399 ], [ -3.5356, 40.9384 ], [ -3.5356, 40.9381 ], [ -3.5352, 40.9382 ], [ -3.535, 40.9379 ], [ -3.5345, 40.9376 ], [ -3.5345, 40.9373 ], [ -3.5353, 40.9374 ], [ -3.5359, 40.9379 ], [ -3.5359, 40.9382 ], [ -3.5364, 40.9384 ], [ -3.5368, 40.9384 ], [ -3.5379, 40.9381 ], [ -3.5382, 40.9375 ], [ -3.5388, 40.9371 ], [ -3.5393, 40.937 ], [ -3.5401, 40.9371 ], [ -3.5403, 40.937 ], [ -3.5405, 40.9367 ], [ -3.5406, 40.9362 ], [ -3.5407, 40.9362 ], [ -3.5407, 40.9369 ], [ -3.5418, 40.9369 ], [ -3.5421, 40.9377 ], [ -3.542, 40.9378 ], [ -3.5412, 40.9378 ], [ -3.5405, 40.9375 ], [ -3.5395, 40.9375 ], [ -3.539, 40.9378 ], [ -3.539, 40.9382 ], [ -3.5384, 40.9387 ], [ -3.5373, 40.9387 ], [ -3.5369, 40.9389 ], [ -3.5359, 40.939 ], [ -3.5354, 40.9392 ], [ -3.5353, 40.9394 ], [ -3.5354, 40.9396 ], [ -3.5351, 40.9397 ], [ -3.5348, 40.94 ], [ -3.5347, 40.9406 ], [ -3.5342, 40.9414 ], [ -3.5336, 40.9413 ], [ -3.5336, 40.9416 ], [ -3.5343, 40.9427 ], [ -3.5343, 40.9439 ], [ -3.5347, 40.9442 ], [ -3.5347, 40.9445 ], [ -3.5346, 40.945 ], [ -3.5344, 40.9453 ], [ -3.5345, 40.9461 ], [ -3.5344, 40.9465 ], [ -3.5345, 40.9467 ], [ -3.5342, 40.9466 ], [ -3.5338, 40.9469 ], [ -3.5332, 40.9482 ], [ -3.531, 40.9489 ], [ -3.528, 40.9488 ], [ -3.5264, 40.9497 ], [ -3.5259, 40.9503 ], [ -3.5259, 40.9504 ], [ -3.5267, 40.9507 ], [ -3.5266, 40.9508 ], [ -3.5266, 40.9515 ], [ -3.5269, 40.9515 ], [ -3.5269, 40.9519 ], [ -3.5275, 40.9519 ], [ -3.5279, 40.952 ], [ -3.5291, 40.9523 ], [ -3.5297, 40.9525 ], [ -3.5302, 40.9526 ], [ -3.5312, 40.9532 ], [ -3.5322, 40.9528 ], [ -3.5339, 40.9518 ], [ -3.5342, 40.9517 ], [ -3.5361, 40.9515 ], [ -3.5377, 40.951 ], [ -3.538, 40.951 ], [ -3.5391, 40.951 ], [ -3.5412, 40.9499 ], [ -3.5416, 40.9498 ], [ -3.5419, 40.9498 ], [ -3.5425, 40.9498 ], [ -3.5429, 40.9497 ], [ -3.5429, 40.9494 ], [ -3.5427, 40.949 ], [ -3.5427, 40.9485 ], [ -3.5425, 40.9483 ], [ -3.5425, 40.9481 ], [ -3.5424, 40.9481 ], [ -3.5429, 40.9471 ], [ -3.5455, 40.9455 ], [ -3.5468, 40.9445 ], [ -3.5485, 40.9439 ], [ -3.5496, 40.9437 ], [ -3.55, 40.9437 ], [ -3.5503, 40.9439 ], [ -3.5479, 40.9444 ], [ -3.5471, 40.945 ], [ -3.5457, 40.9456 ], [ -3.5431, 40.9472 ], [ -3.5426, 40.9479 ], [ -3.5429, 40.9481 ], [ -3.5428, 40.9485 ], [ -3.5431, 40.9497 ], [ -3.546, 40.9497 ], [ -3.5469, 40.95 ], [ -3.5501, 40.95 ], [ -3.5509, 40.9498 ], [ -3.5516, 40.9491 ], [ -3.552, 40.9489 ], [ -3.5525, 40.9488 ], [ -3.5536, 40.9482 ], [ -3.5547, 40.9478 ], [ -3.555, 40.9473 ], [ -3.5552, 40.9464 ], [ -3.5555, 40.946 ], [ -3.5562, 40.9455 ], [ -3.5544, 40.9433 ], [ -3.5535, 40.9428 ], [ -3.5535, 40.9427 ], [ -3.5538, 40.9426 ], [ -3.5549, 40.9432 ], [ -3.5556, 40.9443 ], [ -3.5566, 40.9454 ], [ -3.5571, 40.945 ], [ -3.5581, 40.9454 ], [ -3.5595, 40.945 ], [ -3.5605, 40.945 ], [ -3.5614, 40.9455 ], [ -3.5616, 40.9459 ], [ -3.5614, 40.9447 ], [ -3.5618, 40.9445 ], [ -3.5618, 40.9443 ], [ -3.56, 40.9439 ], [ -3.5594, 40.9436 ], [ -3.5589, 40.9426 ], [ -3.558, 40.9418 ], [ -3.558, 40.9416 ], [ -3.5571, 40.9407 ], [ -3.5566, 40.9407 ], [ -3.5561, 40.9401 ], [ -3.556, 40.9395 ], [ -3.5551, 40.9385 ], [ -3.555, 40.9385 ], [ -3.5546, 40.9396 ], [ -3.5545, 40.9402 ], [ -3.5541, 40.9405 ], [ -3.5534, 40.9386 ], [ -3.5517, 40.9388 ], [ -3.5512, 40.939 ], [ -3.5501, 40.939 ], [ -3.5492, 40.9393 ], [ -3.5489, 40.939 ], [ -3.546, 40.9393 ], [ -3.5429, 40.9379 ], [ -3.5424, 40.9376 ], [ -3.5419, 40.9369 ], [ -3.5417, 40.9363 ], [ -3.5416, 40.9351 ], [ -3.5413, 40.9342 ], [ -3.5405, 40.9332 ], [ -3.5393, 40.9322 ], [ -3.5375, 40.9338 ], [ -3.5364, 40.9344 ], [ -3.535, 40.9348 ], [ -3.5322, 40.9349 ], [ -3.5295, 40.9347 ], [ -3.5244, 40.934 ], [ -3.5232, 40.9333 ], [ -3.521, 40.9327 ], [ -3.5201, 40.9328 ], [ -3.5176, 40.9316 ], [ -3.5102, 40.9269 ], [ -3.5069, 40.9253 ], [ -3.5063, 40.9252 ], [ -3.5054, 40.9267 ], [ -3.5051, 40.9282 ], [ -3.5038, 40.9295 ], [ -3.5036, 40.9307 ], [ -3.5036, 40.9323 ], [ -3.5035, 40.9326 ], [ -3.5036, 40.9327 ], [ -3.5037, 40.9345 ], [ -3.5044, 40.9365 ], [ -3.5058, 40.9389 ], [ -3.5061, 40.9392 ], [ -3.5062, 40.9397 ], [ -3.5066, 40.9402 ], [ -3.5071, 40.9405 ], [ -3.508, 40.9414 ], [ -3.5088, 40.9419 ], [ -3.5092, 40.9424 ], [ -3.5095, 40.9438 ], [ -3.5097, 40.944 ], [ -3.5098, 40.9444 ], [ -3.5098, 40.9453 ], [ -3.5095, 40.9458 ], [ -3.5095, 40.9464 ], [ -3.5094, 40.9465 ], [ -3.5094, 40.9472 ], [ -3.5098, 40.948 ], [ -3.5097, 40.9492 ], [ -3.5101, 40.9492 ], [ -3.5104, 40.949 ], [ -3.5106, 40.9491 ], [ -3.5105, 40.9491 ], [ -3.5103, 40.9499 ], [ -3.5101, 40.9514 ], [ -3.5096, 40.952 ], [ -3.5093, 40.9528 ], [ -3.5091, 40.9544 ], [ -3.5082, 40.9568 ], [ -3.5078, 40.9592 ], [ -3.507, 40.9611 ], [ -3.5069, 40.9615 ], [ -3.507, 40.9618 ], [ -3.5066, 40.9637 ], [ -3.5066, 40.9644 ], [ -3.5064, 40.9649 ], [ -3.5056, 40.9661 ], [ -3.5055, 40.9667 ], [ -3.5051, 40.9674 ], [ -3.5063, 40.9663 ], [ -3.5069, 40.9655 ], [ -3.508, 40.9644 ], [ -3.5091, 40.9638 ], [ -3.5102, 40.9636 ], [ -3.5111, 40.9636 ], [ -3.5126, 40.963 ], [ -3.5129, 40.963 ], [ -3.5146, 40.9615 ], [ -3.5156, 40.9613 ], [ -3.5161, 40.961 ], [ -3.5167, 40.9602 ], [ -3.5169, 40.9594 ], [ -3.5171, 40.9593 ], [ -3.5179, 40.9594 ], [ -3.5211, 40.9606 ], [ -3.5211, 40.9607 ], [ -3.5209, 40.9611 ], [ -3.5186, 40.9601 ], [ -3.5176, 40.9601 ], [ -3.5173, 40.9602 ], [ -3.5172, 40.9606 ], [ -3.5168, 40.9612 ], [ -3.516, 40.9619 ], [ -3.5154, 40.9619 ], [ -3.5147, 40.9621 ], [ -3.5146, 40.9625 ], [ -3.5137, 40.9632 ], [ -3.5126, 40.9636 ], [ -3.5118, 40.9641 ], [ -3.5097, 40.9642 ], [ -3.5085, 40.9648 ], [ -3.5049, 40.9687 ], [ -3.5044, 40.9695 ], [ -3.5034, 40.9705 ], [ -3.5013, 40.973 ] ] ] } }
]
}
