{
"type": "FeatureCollection",
"name": "vigente.full",
"features": [
{ "type": "Feature", "properties": { "municipio": "Villaconejos", "clasificacion": "no-urbanizable-protegido", "calificacion": "sin-asignar", "version": "vigente", "fuente": "SIT-CAM WFS — UsoDelSuelo:VPLA_V_CLASIFICACION (https://idem.comunidad.madrid/geosrvg/ows)", "fecha_dato": "2026-05-12", "ambito": "365", "_raw_CD_SIGLAS": "SNUP", "_raw_DS_CLASIF_GEN": "Suelo No Urbanizable Protegido", "_raw_DS_CLASIF_DET": "Suelo No Urbanizable Especialmente Protegido por su valor naturalístico y en defensa del equilibrio ecológico", "_raw_DS_DOCU": "NORMAS SUBSIDIARIAS", "_raw_DS_LEY": "E RD 1346/1976", "_raw_FC_AC": "1984-11-15", "_raw_NM_AREA_M2": 30329.4077210098, "_cam_code": "170" }, "geometry": { "type": "Polygon", "coordinates": [ [ [ -3.5315, 40.1055 ], [ -3.5306, 40.1065 ], [ -3.5305, 40.1071 ], [ -3.5317, 40.1078 ], [ -3.532, 40.1077 ], [ -3.5325, 40.1064 ], [ -3.5325, 40.1056 ], [ -3.5321, 40.1054 ], [ -3.5315, 40.1055 ] ] ] } },
{ "type": "Feature", "properties": { "municipio": "Villaconejos", "clasificacion": "no-urbanizable-protegido", "calificacion": "sin-asignar", "version": "vigente", "fuente": "SIT-CAM WFS — UsoDelSuelo:VPLA_V_CLASIFICACION (https://idem.comunidad.madrid/geosrvg/ows)", "fecha_dato": "2026-05-12", "ambito": "365", "_raw_CD_SIGLAS": "SNUP", "_raw_DS_CLASIF_GEN": "Suelo No Urbanizable Protegido", "_raw_DS_CLASIF_DET": "Suelo No Urbanizable Especialmente Protegido por su valor naturalístico y en defensa del equilibrio ecológico", "_raw_DS_DOCU": "NORMAS SUBSIDIARIAS", "_raw_DS_LEY": "E RD 1346/1976", "_raw_FC_AC": "1984-11-15", "_raw_NM_AREA_M2": 33988.8513090579, "_cam_code": "170" }, "geometry": { "type": "Polygon", "coordinates": [ [ [ -3.5054, 40.1096 ], [ -3.5031, 40.1107 ], [ -3.5032, 40.1111 ], [ -3.504, 40.1117 ], [ -3.5048, 40.1117 ], [ -3.5053, 40.1116 ], [ -3.5056, 40.1114 ], [ -3.5055, 40.1112 ], [ -3.5057, 40.1105 ], [ -3.5056, 40.1096 ], [ -3.5054, 40.1096 ] ] ] } },
{ "type": "Feature", "properties": { "municipio": "Villaconejos", "clasificacion": "no-urbanizable-protegido", "calificacion": "sin-asignar", "version": "vigente", "fuente": "SIT-CAM WFS — UsoDelSuelo:VPLA_V_CLASIFICACION (https://idem.comunidad.madrid/geosrvg/ows)", "fecha_dato": "2026-05-12", "ambito": "365", "_raw_CD_SIGLAS": "SNUP", "_raw_DS_CLASIF_GEN": "Suelo No Urbanizable Protegido", "_raw_DS_CLASIF_DET": "Suelo No Urbanizable Especialmente Protegido por su valor naturalístico y en defensa del equilibrio ecológico", "_raw_DS_DOCU": "NORMAS SUBSIDIARIAS", "_raw_DS_LEY": "E RD 1346/1976", "_raw_FC_AC": "1984-11-15", "_raw_NM_AREA_M2": 28790.2228774328, "_cam_code": "170" }, "geometry": { "type": "Polygon", "coordinates": [ [ [ -3.5217, 40.1116 ], [ -3.5216, 40.1121 ], [ -3.5217, 40.1124 ], [ -3.5221, 40.1128 ], [ -3.5221, 40.1131 ], [ -3.5219, 40.1134 ], [ -3.5228, 40.1135 ], [ -3.523, 40.1129 ], [ -3.5234, 40.1127 ], [ -3.5239, 40.1122 ], [ -3.5239, 40.112 ], [ -3.5237, 40.1118 ], [ -3.5231, 40.1116 ], [ -3.5221, 40.1114 ], [ -3.5217, 40.1116 ] ] ] } },
{ "type": "Feature", "properties": { "municipio": "Villaconejos", "clasificacion": "no-urbanizable-protegido", "calificacion": "sin-asignar", "version": "vigente", "fuente": "SIT-CAM WFS — UsoDelSuelo:VPLA_V_CLASIFICACION (https://idem.comunidad.madrid/geosrvg/ows)", "fecha_dato": "2026-05-12", "ambito": "365", "_raw_CD_SIGLAS": "SNUP", "_raw_DS_CLASIF_GEN": "Suelo No Urbanizable Protegido", "_raw_DS_CLASIF_DET": "Suelo No Urbanizable Especialmente Protegido por su valor naturalístico y en defensa del equilibrio ecológico", "_raw_DS_DOCU": "NORMAS SUBSIDIARIAS", "_raw_DS_LEY": "E RD 1346/1976", "_raw_FC_AC": "1984-11-15", "_raw_NM_AREA_M2": 67517.229152927204, "_cam_code": "170" }, "geometry": { "type": "Polygon", "coordinates": [ [ [ -3.5183, 40.1108 ], [ -3.5173, 40.1111 ], [ -3.5171, 40.1114 ], [ -3.5172, 40.1117 ], [ -3.5178, 40.1121 ], [ -3.5177, 40.1124 ], [ -3.5158, 40.1135 ], [ -3.5159, 40.1141 ], [ -3.5163, 40.1143 ], [ -3.5167, 40.1143 ], [ -3.5178, 40.1141 ], [ -3.5183, 40.1138 ], [ -3.5189, 40.1133 ], [ -3.519, 40.1125 ], [ -3.5197, 40.112 ], [ -3.52, 40.1116 ], [ -3.5199, 40.1114 ], [ -3.5191, 40.1113 ], [ -3.5187, 40.1109 ], [ -3.5183, 40.1108 ] ] ] } },
{ "type": "Feature", "properties": { "municipio": "Villaconejos", "clasificacion": "no-urbanizable-protegido", "calificacion": "sin-asignar", "version": "vigente", "fuente": "SIT-CAM WFS — UsoDelSuelo:VPLA_V_CLASIFICACION (https://idem.comunidad.madrid/geosrvg/ows)", "fecha_dato": "2026-05-12", "ambito": "365", "_raw_CD_SIGLAS": "SNUP", "_raw_DS_CLASIF_GEN": "Suelo No Urbanizable Protegido", "_raw_DS_CLASIF_DET": "Suelo No Urbanizable Especialmente Protegido por su valor naturalístico y en defensa del equilibrio ecológico", "_raw_DS_DOCU": "NORMAS SUBSIDIARIAS", "_raw_DS_LEY": "E RD 1346/1976", "_raw_FC_AC": "1984-11-15", "_raw_NM_AREA_M2": 79985.286327156893, "_cam_code": "170" }, "geometry": { "type": "Polygon", "coordinates": [ [ [ -3.5377, 40.1123 ], [ -3.5364, 40.1124 ], [ -3.5366, 40.1135 ], [ -3.5384, 40.1138 ], [ -3.5388, 40.1143 ], [ -3.5392, 40.1145 ], [ -3.5413, 40.1131 ], [ -3.5416, 40.112 ], [ -3.5408, 40.1123 ], [ -3.54, 40.1122 ], [ -3.5393, 40.112 ], [ -3.5384, 40.1112 ], [ -3.5382, 40.1115 ], [ -3.5382, 40.112 ], [ -3.5377, 40.1123 ] ] ] } },
{ "type": "Feature", "properties": { "municipio": "Villaconejos", "clasificacion": "no-urbanizable-protegido", "calificacion": "sin-asignar", "version": "vigente", "fuente": "SIT-CAM WFS — UsoDelSuelo:VPLA_V_CLASIFICACION (https://idem.comunidad.madrid/geosrvg/ows)", "fecha_dato": "2026-05-12", "ambito": "365", "_raw_CD_SIGLAS": "SNUP", "_raw_DS_CLASIF_GEN": "Suelo No Urbanizable Protegido", "_raw_DS_CLASIF_DET": "Suelo No Urbanizable Especialmente Protegido por su valor naturalístico y en defensa del equilibrio ecológico", "_raw_DS_DOCU": "NORMAS SUBSIDIARIAS", "_raw_DS_LEY": "E RD 1346/1976", "_raw_FC_AC": "1984-11-15", "_raw_NM_AREA_M2": 41603.782431982203, "_cam_code": "170" }, "geometry": { "type": "Polygon", "coordinates": [ [ [ -3.5252, 40.1155 ], [ -3.5249, 40.1157 ], [ -3.5243, 40.1168 ], [ -3.5239, 40.1172 ], [ -3.5238, 40.1178 ], [ -3.5236, 40.1181 ], [ -3.524, 40.1182 ], [ -3.5243, 40.1181 ], [ -3.5252, 40.1173 ], [ -3.5269, 40.1162 ], [ -3.5269, 40.1159 ], [ -3.5266, 40.1156 ], [ -3.526, 40.1154 ], [ -3.5252, 40.1155 ] ] ] } },
{ "type": "Feature", "properties": { "municipio": "Villaconejos", "clasificacion": "no-urbanizable-protegido", "calificacion": "sin-asignar", "version": "vigente", "fuente": "SIT-CAM WFS — UsoDelSuelo:VPLA_V_CLASIFICACION (https://idem.comunidad.madrid/geosrvg/ows)", "fecha_dato": "2026-05-12", "ambito": "365", "_raw_CD_SIGLAS": "SNUP", "_raw_DS_CLASIF_GEN": "Suelo No Urbanizable Protegido", "_raw_DS_CLASIF_DET": "Suelo No Urbanizable Especialmente Protegido por su valor naturalístico y en defensa del equilibrio ecológico", "_raw_DS_DOCU": "NORMAS SUBSIDIARIAS", "_raw_DS_LEY": "E RD 1346/1976", "_raw_FC_AC": "1984-11-15", "_raw_NM_AREA_M2": 51520.74627132, "_cam_code": "170" }, "geometry": { "type": "Polygon", "coordinates": [ [ [ -3.5308, 40.1162 ], [ -3.5305, 40.1164 ], [ -3.5303, 40.1168 ], [ -3.5297, 40.117 ], [ -3.5285, 40.1171 ], [ -3.5283, 40.1174 ], [ -3.5283, 40.1178 ], [ -3.5286, 40.1183 ], [ -3.5295, 40.1185 ], [ -3.5295, 40.1188 ], [ -3.5298, 40.1191 ], [ -3.5306, 40.1191 ], [ -3.5308, 40.1189 ], [ -3.5306, 40.1183 ], [ -3.5302, 40.1177 ], [ -3.5316, 40.1174 ], [ -3.5319, 40.117 ], [ -3.532, 40.1166 ], [ -3.5315, 40.1162 ], [ -3.5308, 40.1162 ] ] ] } },
{ "type": "Feature", "properties": { "municipio": "Villaconejos", "clasificacion": "no-urbanizable-protegido", "calificacion": "sin-asignar", "version": "vigente", "fuente": "SIT-CAM WFS — UsoDelSuelo:VPLA_V_CLASIFICACION (https://idem.comunidad.madrid/geosrvg/ows)", "fecha_dato": "2026-05-12", "ambito": "365", "_raw_CD_SIGLAS": "SNUP", "_raw_DS_CLASIF_GEN": "Suelo No Urbanizable Protegido", "_raw_DS_CLASIF_DET": "Suelo No Urbanizable Especialmente Protegido por su valor naturalístico y en defensa del equilibrio ecológico", "_raw_DS_DOCU": "NORMAS SUBSIDIARIAS", "_raw_DS_LEY": "E RD 1346/1976", "_raw_FC_AC": "1984-11-15", "_raw_NM_AREA_M2": 1459515.5736761501, "_cam_code": "170" }, "geometry": { "type": "Polygon", "coordinates": [ [ [ -3.4565, 40.1212 ], [ -3.4564, 40.122 ], [ -3.4561, 40.1226 ], [ -3.4582, 40.1231 ], [ -3.4615, 40.1235 ], [ -3.4641, 40.1211 ], [ -3.4647, 40.1212 ], [ -3.4652, 40.1215 ], [ -3.4664, 40.1227 ], [ -3.4669, 40.123 ], [ -3.4679, 40.1232 ], [ -3.4688, 40.1228 ], [ -3.4702, 40.1216 ], [ -3.4706, 40.1207 ], [ -3.4708, 40.1191 ], [ -3.4709, 40.1164 ], [ -3.4702, 40.1156 ], [ -3.4694, 40.1151 ], [ -3.4689, 40.1146 ], [ -3.4684, 40.1144 ], [ -3.4679, 40.1139 ], [ -3.4658, 40.1127 ], [ -3.465, 40.1118 ], [ -3.4648, 40.1113 ], [ -3.4649, 40.1109 ], [ -3.4637, 40.1102 ], [ -3.4636, 40.1093 ], [ -3.463, 40.1092 ], [ -3.4613, 40.1093 ], [ -3.4608, 40.1095 ], [ -3.4602, 40.11 ], [ -3.4601, 40.1103 ], [ -3.4593, 40.1102 ], [ -3.4579, 40.1137 ], [ -3.4557, 40.1151 ], [ -3.4555, 40.1156 ], [ -3.4557, 40.1166 ], [ -3.4548, 40.1182 ], [ -3.4558, 40.1195 ], [ -3.4563, 40.1204 ], [ -3.4565, 40.1212 ] ] ] } },
{ "type": "Feature", "properties": { "municipio": "Villaconejos", "clasificacion": "no-urbanizable-protegido", "calificacion": "sin-asignar", "version": "vigente", "fuente": "SIT-CAM WFS — UsoDelSuelo:VPLA_V_CLASIFICACION (https://idem.comunidad.madrid/geosrvg/ows)", "fecha_dato": "2026-05-12", "ambito": "365", "_raw_CD_SIGLAS": "SNUP", "_raw_DS_CLASIF_GEN": "Suelo No Urbanizable Protegido", "_raw_DS_CLASIF_DET": "Suelo No Urbanizable Especialmente Protegido por su valor naturalístico y en defensa del equilibrio ecológico", "_raw_DS_DOCU": "NORMAS SUBSIDIARIAS", "_raw_DS_LEY": "E RD 1346/1976", "_raw_FC_AC": "1984-11-15", "_raw_NM_AREA_M2": 781425.43371075694, "_cam_code": "170" }, "geometry": { "type": "Polygon", "coordinates": [ [ [ -3.4865, 40.1246 ], [ -3.4879, 40.1244 ], [ -3.4883, 40.1245 ], [ -3.4888, 40.1243 ], [ -3.489, 40.1239 ], [ -3.4888, 40.1234 ], [ -3.489, 40.1233 ], [ -3.4902, 40.1237 ], [ -3.491, 40.1232 ], [ -3.4909, 40.1226 ], [ -3.4912, 40.1223 ], [ -3.4915, 40.1222 ], [ -3.4918, 40.1224 ], [ -3.4923, 40.1235 ], [ -3.4925, 40.1237 ], [ -3.4928, 40.1237 ], [ -3.4935, 40.1234 ], [ -3.4949, 40.1227 ], [ -3.4952, 40.1209 ], [ -3.4955, 40.1205 ], [ -3.4964, 40.1205 ], [ -3.497, 40.1207 ], [ -3.4978, 40.1204 ], [ -3.4981, 40.1198 ], [ -3.4982, 40.1198 ], [ -3.4979, 40.1195 ], [ -3.4988, 40.1193 ], [ -3.4992, 40.1189 ], [ -3.4994, 40.1184 ], [ -3.4985, 40.1175 ], [ -3.4971, 40.1169 ], [ -3.4964, 40.1169 ], [ -3.4952, 40.1164 ], [ -3.4962, 40.1162 ], [ -3.4961, 40.1158 ], [ -3.4965, 40.1155 ], [ -3.4955, 40.1151 ], [ -3.495, 40.1154 ], [ -3.4944, 40.1152 ], [ -3.4935, 40.1152 ], [ -3.4925, 40.1156 ], [ -3.4925, 40.1157 ], [ -3.4918, 40.1158 ], [ -3.4918, 40.1161 ], [ -3.4916, 40.1164 ], [ -3.4912, 40.1165 ], [ -3.4909, 40.1169 ], [ -3.4893, 40.1179 ], [ -3.4892, 40.1182 ], [ -3.4881, 40.1183 ], [ -3.4873, 40.1187 ], [ -3.4872, 40.119 ], [ -3.4858, 40.1195 ], [ -3.4849, 40.1188 ], [ -3.484, 40.1194 ], [ -3.4835, 40.12 ], [ -3.4829, 40.1202 ], [ -3.4819, 40.1208 ], [ -3.4818, 40.1211 ], [ -3.4821, 40.1212 ], [ -3.4824, 40.1209 ], [ -3.4828, 40.121 ], [ -3.4826, 40.1216 ], [ -3.4827, 40.1218 ], [ -3.4838, 40.1226 ], [ -3.4849, 40.1224 ], [ -3.4849, 40.1222 ], [ -3.4847, 40.1221 ], [ -3.4847, 40.1218 ], [ -3.4852, 40.1214 ], [ -3.4854, 40.1214 ], [ -3.4856, 40.1216 ], [ -3.4854, 40.1224 ], [ -3.4859, 40.1228 ], [ -3.4865, 40.1246 ] ] ] } },
{ "type": "Feature", "properties": { "municipio": "Villaconejos", "clasificacion": "no-urbanizable-protegido", "calificacion": "sin-asignar", "version": "vigente", "fuente": "SIT-CAM WFS — UsoDelSuelo:VPLA_V_CLASIFICACION (https://idem.comunidad.madrid/geosrvg/ows)", "fecha_dato": "2026-05-12", "ambito": "365", "_raw_CD_SIGLAS": "SNUP", "_raw_DS_CLASIF_GEN": "Suelo No Urbanizable Protegido", "_raw_DS_CLASIF_DET": "Suelo No Urbanizable Especialmente Protegido por su valor naturalístico y en defensa del equilibrio ecológico", "_raw_DS_DOCU": "NORMAS SUBSIDIARIAS", "_raw_DS_LEY": "E RD 1346/1976", "_raw_FC_AC": "1984-11-15", "_raw_NM_AREA_M2": 1523652.29325248, "_cam_code": "170" }, "geometry": { "type": "Polygon", "coordinates": [ [ [ -3.5115, 40.1354 ], [ -3.5111, 40.1358 ], [ -3.5109, 40.1373 ], [ -3.511, 40.1385 ], [ -3.5154, 40.1373 ], [ -3.5183, 40.1369 ], [ -3.5203, 40.1368 ], [ -3.5224, 40.1364 ], [ -3.5223, 40.1347 ], [ -3.5227, 40.1332 ], [ -3.5248, 40.1325 ], [ -3.5259, 40.1314 ], [ -3.5272, 40.1291 ], [ -3.5306, 40.1244 ], [ -3.5319, 40.1233 ], [ -3.5343, 40.1209 ], [ -3.5334, 40.1203 ], [ -3.5324, 40.1203 ], [ -3.5321, 40.1207 ], [ -3.5305, 40.122 ], [ -3.5294, 40.1222 ], [ -3.5288, 40.1221 ], [ -3.5281, 40.1218 ], [ -3.5267, 40.1222 ], [ -3.5261, 40.1218 ], [ -3.5242, 40.1217 ], [ -3.5233, 40.1214 ], [ -3.5223, 40.1221 ], [ -3.5217, 40.1228 ], [ -3.5212, 40.125 ], [ -3.5211, 40.1264 ], [ -3.5207, 40.1268 ], [ -3.5202, 40.1268 ], [ -3.5198, 40.1264 ], [ -3.5188, 40.1258 ], [ -3.5169, 40.1242 ], [ -3.5161, 40.1241 ], [ -3.5144, 40.1247 ], [ -3.514, 40.125 ], [ -3.5141, 40.1253 ], [ -3.516, 40.1268 ], [ -3.5168, 40.1278 ], [ -3.5186, 40.1287 ], [ -3.519, 40.1292 ], [ -3.5164, 40.1291 ], [ -3.5148, 40.1292 ], [ -3.5138, 40.1297 ], [ -3.5137, 40.1313 ], [ -3.514, 40.1315 ], [ -3.516, 40.1318 ], [ -3.5184, 40.1326 ], [ -3.5186, 40.1334 ], [ -3.5183, 40.134 ], [ -3.5158, 40.1345 ], [ -3.5156, 40.1347 ], [ -3.5158, 40.1351 ], [ -3.5156, 40.1352 ], [ -3.5122, 40.1351 ], [ -3.5115, 40.1354 ] ] ] } },
{ "type": "Feature", "properties": { "municipio": "Villaconejos", "clasificacion": "no-urbanizable-protegido", "calificacion": "sin-asignar", "version": "vigente", "fuente": "SIT-CAM WFS — UsoDelSuelo:VPLA_V_CLASIFICACION (https://idem.comunidad.madrid/geosrvg/ows)", "fecha_dato": "2026-05-12", "ambito": "365", "_raw_CD_SIGLAS": "SNUP", "_raw_DS_CLASIF_GEN": "Suelo No Urbanizable Protegido", "_raw_DS_CLASIF_DET": "Suelo No Urbanizable Especialmente Protegido por su valor paisajístico", "_raw_DS_DOCU": "NORMAS SUBSIDIARIAS", "_raw_DS_LEY": "E RD 1346/1976", "_raw_FC_AC": "1984-11-15", "_raw_NM_AREA_M2": 1111639.29771152, "_cam_code": "170" }, "geometry": { "type": "Polygon", "coordinates": [ [ [ -3.4918, 40.0912 ], [ -3.4924, 40.0928 ], [ -3.4923, 40.0936 ], [ -3.4925, 40.0938 ], [ -3.4929, 40.0939 ], [ -3.4929, 40.0941 ], [ -3.4924, 40.0944 ], [ -3.4923, 40.0952 ], [ -3.4927, 40.0957 ], [ -3.4936, 40.0963 ], [ -3.4941, 40.0968 ], [ -3.4949, 40.0968 ], [ -3.4962, 40.0966 ], [ -3.4986, 40.0952 ], [ -3.4996, 40.0949 ], [ -3.5004, 40.0944 ], [ -3.5044, 40.0927 ], [ -3.506, 40.0923 ], [ -3.5087, 40.0919 ], [ -3.5098, 40.091 ], [ -3.5105, 40.0907 ], [ -3.5116, 40.0905 ], [ -3.5124, 40.0905 ], [ -3.5124, 40.0904 ], [ -3.5131, 40.0902 ], [ -3.5131, 40.0901 ], [ -3.5138, 40.0898 ], [ -3.5125, 40.0895 ], [ -3.5098, 40.0885 ], [ -3.5065, 40.0869 ], [ -3.5057, 40.087 ], [ -3.5032, 40.0869 ], [ -3.5027, 40.0872 ], [ -3.5028, 40.0875 ], [ -3.5033, 40.0879 ], [ -3.5029, 40.088 ], [ -3.5025, 40.0877 ], [ -3.5015, 40.0873 ], [ -3.5008, 40.0876 ], [ -3.4998, 40.0884 ], [ -3.4946, 40.0882 ], [ -3.4922, 40.0887 ], [ -3.4924, 40.0896 ], [ -3.4919, 40.0905 ], [ -3.4918, 40.0912 ] ] ] } },
{ "type": "Feature", "properties": { "municipio": "Villaconejos", "clasificacion": "no-urbanizable-protegido", "calificacion": "sin-asignar", "version": "vigente", "fuente": "SIT-CAM WFS — UsoDelSuelo:VPLA_V_CLASIFICACION (https://idem.comunidad.madrid/geosrvg/ows)", "fecha_dato": "2026-05-12", "ambito": "365", "_raw_CD_SIGLAS": "SNUP", "_raw_DS_CLASIF_GEN": "Suelo No Urbanizable Protegido", "_raw_DS_CLASIF_DET": "Suelo No Urbanizable Especialmente Protegido por su valor naturalístico y en defensa del equilibrio ecológico", "_raw_DS_DOCU": "NORMAS SUBSIDIARIAS", "_raw_DS_LEY": "E RD 1346/1976", "_raw_FC_AC": "1984-11-15", "_raw_NM_AREA_M2": 20686.3117202912, "_cam_code": "170" }, "geometry": { "type": "Polygon", "coordinates": [ [ [ -3.5319, 40.1082 ], [ -3.5311, 40.1084 ], [ -3.5312, 40.109 ], [ -3.5317, 40.1094 ], [ -3.5323, 40.1094 ], [ -3.5329, 40.1092 ], [ -3.5331, 40.109 ], [ -3.5331, 40.1082 ], [ -3.5327, 40.108 ], [ -3.5322, 40.108 ], [ -3.5319, 40.1082 ] ] ] } },
{ "type": "Feature", "properties": { "municipio": "Villaconejos", "clasificacion": "no-urbanizable-protegido", "calificacion": "sin-asignar", "version": "vigente", "fuente": "SIT-CAM WFS — UsoDelSuelo:VPLA_V_CLASIFICACION (https://idem.comunidad.madrid/geosrvg/ows)", "fecha_dato": "2026-05-12", "ambito": "365", "_raw_CD_SIGLAS": "SNUP", "_raw_DS_CLASIF_GEN": "Suelo No Urbanizable Protegido", "_raw_DS_CLASIF_DET": "Suelo No Urbanizable Especialmente Protegido por su valor naturalístico y en defensa del equilibrio ecológico", "_raw_DS_DOCU": "NORMAS SUBSIDIARIAS", "_raw_DS_LEY": "E RD 1346/1976", "_raw_FC_AC": "1984-11-15", "_raw_NM_AREA_M2": 32736.826100297301, "_cam_code": "170" }, "geometry": { "type": "Polygon", "coordinates": [ [ [ -3.5186, 40.1085 ], [ -3.5182, 40.1093 ], [ -3.5183, 40.1096 ], [ -3.5189, 40.1102 ], [ -3.52, 40.1104 ], [ -3.5205, 40.1089 ], [ -3.5204, 40.1087 ], [ -3.5199, 40.1083 ], [ -3.5186, 40.1085 ] ] ] } },
{ "type": "Feature", "properties": { "municipio": "Villaconejos", "clasificacion": "no-urbanizable-protegido", "calificacion": "sin-asignar", "version": "vigente", "fuente": "SIT-CAM WFS — UsoDelSuelo:VPLA_V_CLASIFICACION (https://idem.comunidad.madrid/geosrvg/ows)", "fecha_dato": "2026-05-12", "ambito": "365", "_raw_CD_SIGLAS": "SNUP", "_raw_DS_CLASIF_GEN": "Suelo No Urbanizable Protegido", "_raw_DS_CLASIF_DET": "Suelo No Urbanizable Especialmente Protegido por su valor naturalístico y en defensa del equilibrio ecológico", "_raw_DS_DOCU": "NORMAS SUBSIDIARIAS", "_raw_DS_LEY": "E RD 1346/1976", "_raw_FC_AC": "1984-11-15", "_raw_NM_AREA_M2": 52534.797170321297, "_cam_code": "170" }, "geometry": { "type": "Polygon", "coordinates": [ [ [ -3.5258, 40.1077 ], [ -3.5254, 40.1095 ], [ -3.5254, 40.1101 ], [ -3.5257, 40.1101 ], [ -3.5264, 40.1104 ], [ -3.5268, 40.1103 ], [ -3.5272, 40.11 ], [ -3.5274, 40.1091 ], [ -3.5278, 40.1088 ], [ -3.5279, 40.1085 ], [ -3.5276, 40.1075 ], [ -3.5266, 40.1075 ], [ -3.5258, 40.1077 ] ] ] } },
{ "type": "Feature", "properties": { "municipio": "Villaconejos", "clasificacion": "no-urbanizable-protegido", "calificacion": "sin-asignar", "version": "vigente", "fuente": "SIT-CAM WFS — UsoDelSuelo:VPLA_V_CLASIFICACION (https://idem.comunidad.madrid/geosrvg/ows)", "fecha_dato": "2026-05-12", "ambito": "365", "_raw_CD_SIGLAS": "SNUP", "_raw_DS_CLASIF_GEN": "Suelo No Urbanizable Protegido", "_raw_DS_CLASIF_DET": "Suelo No Urbanizable Especialmente Protegido por su valor naturalístico y en defensa del equilibrio ecológico", "_raw_DS_DOCU": "NORMAS SUBSIDIARIAS", "_raw_DS_LEY": "E RD 1346/1976", "_raw_FC_AC": "1984-11-15", "_raw_NM_AREA_M2": 381129.43831856002, "_cam_code": "170" }, "geometry": { "type": "Polygon", "coordinates": [ [ [ -3.4836, 40.1378 ], [ -3.4854, 40.1379 ], [ -3.4878, 40.1384 ], [ -3.4893, 40.1389 ], [ -3.4908, 40.14 ], [ -3.4923, 40.1397 ], [ -3.4926, 40.1391 ], [ -3.4932, 40.1389 ], [ -3.4932, 40.1387 ], [ -3.4937, 40.1386 ], [ -3.4942, 40.1381 ], [ -3.4944, 40.1376 ], [ -3.4937, 40.1375 ], [ -3.4932, 40.1377 ], [ -3.4926, 40.1374 ], [ -3.4922, 40.1374 ], [ -3.4921, 40.1377 ], [ -3.491, 40.1374 ], [ -3.493, 40.1354 ], [ -3.4923, 40.1338 ], [ -3.4924, 40.1332 ], [ -3.4929, 40.1328 ], [ -3.493, 40.1325 ], [ -3.4923, 40.1327 ], [ -3.4915, 40.1327 ], [ -3.4903, 40.1318 ], [ -3.4898, 40.1316 ], [ -3.4895, 40.1317 ], [ -3.4897, 40.1334 ], [ -3.4893, 40.1338 ], [ -3.4893, 40.1347 ], [ -3.4891, 40.1349 ], [ -3.4886, 40.1348 ], [ -3.4882, 40.1351 ], [ -3.4873, 40.1346 ], [ -3.4854, 40.1346 ], [ -3.4852, 40.1348 ], [ -3.4853, 40.1361 ], [ -3.4851, 40.1367 ], [ -3.4836, 40.1378 ] ] ] } },
{ "type": "Feature", "properties": { "municipio": "Villaconejos", "clasificacion": "no-urbanizable-protegido", "calificacion": "sin-asignar", "version": "vigente", "fuente": "SIT-CAM WFS — UsoDelSuelo:VPLA_V_CLASIFICACION (https://idem.comunidad.madrid/geosrvg/ows)", "fecha_dato": "2026-05-12", "ambito": "365", "_raw_CD_SIGLAS": "SNUP", "_raw_DS_CLASIF_GEN": "Suelo No Urbanizable Protegido", "_raw_DS_CLASIF_DET": "Suelo No Urbanizable Especialmente Protegido por su valor naturalístico y en defensa del equilibrio ecológico", "_raw_DS_DOCU": "NORMAS SUBSIDIARIAS", "_raw_DS_LEY": "E RD 1346/1976", "_raw_FC_AC": "1984-11-15", "_raw_NM_AREA_M2": 138410.641582727, "_cam_code": "170" }, "geometry": { "type": "Polygon", "coordinates": [ [ [ -3.5009, 40.1385 ], [ -3.5011, 40.1388 ], [ -3.5011, 40.1391 ], [ -3.5049, 40.139 ], [ -3.5077, 40.1391 ], [ -3.5069, 40.1385 ], [ -3.5067, 40.138 ], [ -3.5061, 40.1377 ], [ -3.505, 40.1381 ], [ -3.5039, 40.1376 ], [ -3.5038, 40.1366 ], [ -3.5036, 40.1361 ], [ -3.5029, 40.1352 ], [ -3.5024, 40.1352 ], [ -3.5019, 40.1359 ], [ -3.5015, 40.136 ], [ -3.501, 40.1357 ], [ -3.5003, 40.1358 ], [ -3.5003, 40.1365 ], [ -3.5005, 40.1368 ], [ -3.5005, 40.1372 ], [ -3.5008, 40.1377 ], [ -3.5009, 40.1385 ] ] ] } },
{ "type": "Feature", "properties": { "municipio": "Villaconejos", "clasificacion": "no-urbanizable-protegido", "calificacion": "sin-asignar", "version": "vigente", "fuente": "SIT-CAM WFS — UsoDelSuelo:VPLA_V_CLASIFICACION (https://idem.comunidad.madrid/geosrvg/ows)", "fecha_dato": "2026-05-12", "ambito": "365", "_raw_CD_SIGLAS": "SNUP", "_raw_DS_CLASIF_GEN": "Suelo No Urbanizable Protegido", "_raw_DS_CLASIF_DET": "Suelo No Urbanizable Especialmente Protegido por su valor naturalístico y en defensa del equilibrio ecológico", "_raw_DS_DOCU": "NORMAS SUBSIDIARIAS", "_raw_DS_LEY": "E RD 1346/1976", "_raw_FC_AC": "1984-11-15", "_raw_NM_AREA_M2": 110153.511739793, "_cam_code": "170" }, "geometry": { "type": "Polygon", "coordinates": [ [ [ -3.5079, 40.099 ], [ -3.5073, 40.1002 ], [ -3.5074, 40.1008 ], [ -3.5072, 40.101 ], [ -3.5061, 40.1013 ], [ -3.5071, 40.1015 ], [ -3.5129, 40.1014 ], [ -3.5113, 40.101 ], [ -3.5113, 40.1004 ], [ -3.5105, 40.1 ], [ -3.5116, 40.0996 ], [ -3.5118, 40.0993 ], [ -3.5118, 40.0988 ], [ -3.5116, 40.0987 ], [ -3.5102, 40.0986 ], [ -3.5097, 40.0987 ], [ -3.509, 40.0985 ], [ -3.5084, 40.0985 ], [ -3.5079, 40.099 ] ] ] } },
{ "type": "Feature", "properties": { "municipio": "Villaconejos", "clasificacion": "no-urbanizable-protegido", "calificacion": "sin-asignar", "version": "vigente", "fuente": "SIT-CAM WFS — UsoDelSuelo:VPLA_V_CLASIFICACION (https://idem.comunidad.madrid/geosrvg/ows)", "fecha_dato": "2026-05-12", "ambito": "365", "_raw_CD_SIGLAS": "SNUP", "_raw_DS_CLASIF_GEN": "Suelo No Urbanizable Protegido", "_raw_DS_CLASIF_DET": "Suelo No Urbanizable Especialmente Protegido por su valor naturalístico y en defensa del equilibrio ecológico", "_raw_DS_DOCU": "NORMAS SUBSIDIARIAS", "_raw_DS_LEY": "E RD 1346/1976", "_raw_FC_AC": "1984-11-15", "_raw_NM_AREA_M2": 20354.424023605599, "_cam_code": "170" }, "geometry": { "type": "Polygon", "coordinates": [ [ [ -3.5313, 40.0957 ], [ -3.532, 40.097 ], [ -3.5332, 40.0971 ], [ -3.5341, 40.0969 ], [ -3.5344, 40.0966 ], [ -3.5313, 40.0957 ] ] ] } },
{ "type": "Feature", "properties": { "municipio": "Villaconejos", "clasificacion": "urbanizable-no-sectorizado", "calificacion": "sin-asignar", "version": "vigente", "fuente": "SIT-CAM WFS — UsoDelSuelo:VPLA_V_CLASIFICACION (https://idem.comunidad.madrid/geosrvg/ows)", "fecha_dato": "2026-05-12", "ambito": "365", "_raw_CD_SIGLAS": "SUBNS", "_raw_DS_CLASIF_GEN": "Suelo No Urbanizable Común", "_raw_DS_CLASIF_DET": "Suelo No Urbanizable con implantación de explotación de recursos naturales", "_raw_DS_DOCU": "NORMAS SUBSIDIARIAS", "_raw_DS_LEY": "E RD 1346/1976", "_raw_FC_AC": "1984-11-15", "_raw_NM_AREA_M2": 3625.2113730669698, "_cam_code": "170" }, "geometry": { "type": "Polygon", "coordinates": [ [ [ -3.4889, 40.1076 ], [ -3.4883, 40.1078 ], [ -3.4885, 40.108 ], [ -3.4886, 40.1084 ], [ -3.4888, 40.1085 ], [ -3.4891, 40.1084 ], [ -3.4889, 40.108 ], [ -3.4889, 40.1076 ] ] ] } },
{ "type": "Feature", "properties": { "municipio": "Villaconejos", "clasificacion": "urbanizable-no-sectorizado", "calificacion": "sin-asignar", "version": "vigente", "fuente": "SIT-CAM WFS — UsoDelSuelo:VPLA_V_CLASIFICACION (https://idem.comunidad.madrid/geosrvg/ows)", "fecha_dato": "2026-05-12", "ambito": "365", "_raw_CD_SIGLAS": "SUBNS", "_raw_DS_CLASIF_GEN": "Suelo No Urbanizable Común", "_raw_DS_CLASIF_DET": "Suelo No Urbanizable", "_raw_DS_DOCU": "NORMAS SUBSIDIARIAS", "_raw_DS_LEY": "E RD 1346/1976", "_raw_FC_AC": "1984-11-15", "_raw_NM_AREA_M2": 164758.301427397, "_cam_code": "170" }, "geometry": { "type": "Polygon", "coordinates": [ [ [ -3.4515, 40.1195 ], [ -3.4519, 40.1214 ], [ -3.4539, 40.1223 ], [ -3.4561, 40.1226 ], [ -3.4564, 40.122 ], [ -3.4565, 40.1212 ], [ -3.4563, 40.1204 ], [ -3.4552, 40.1186 ], [ -3.4548, 40.1182 ], [ -3.4535, 40.1185 ], [ -3.4526, 40.118 ], [ -3.451, 40.1182 ], [ -3.4515, 40.1195 ] ] ] } },
{ "type": "Feature", "properties": { "municipio": "Villaconejos", "clasificacion": "urbanizable-no-sectorizado", "calificacion": "sin-asignar", "version": "vigente", "fuente": "SIT-CAM WFS — UsoDelSuelo:VPLA_V_CLASIFICACION (https://idem.comunidad.madrid/geosrvg/ows)", "fecha_dato": "2026-05-12", "ambito": "365", "_raw_CD_SIGLAS": "SUBNS", "_raw_DS_CLASIF_GEN": "Suelo No Urbanizable Común", "_raw_DS_CLASIF_DET": "Suelo No Urbanizable", "_raw_DS_DOCU": "NORMAS SUBSIDIARIAS", "_raw_DS_LEY": "E RD 1346/1976", "_raw_FC_AC": "1984-11-15", "_raw_NM_AREA_M2": 26311591.051069301, "_cam_code": "170" }, "geometry": { "type": "Polygon", "coordinates": [ [ [ -3.4926, 40.1391 ], [ -3.4922, 40.1397 ], [ -3.4939, 40.1394 ], [ -3.4956, 40.1395 ], [ -3.499, 40.1393 ], [ -3.4989, 40.139 ], [ -3.499, 40.1377 ], [ -3.5001, 40.1379 ], [ -3.5007, 40.1382 ], [ -3.5009, 40.1385 ], [ -3.5008, 40.1377 ], [ -3.5005, 40.1372 ], [ -3.5005, 40.1368 ], [ -3.5003, 40.1365 ], [ -3.5003, 40.1358 ], [ -3.5005, 40.1357 ], [ -3.5015, 40.136 ], [ -3.5019, 40.1359 ], [ -3.5024, 40.1352 ], [ -3.5029, 40.1352 ], [ -3.5033, 40.1356 ], [ -3.5038, 40.1366 ], [ -3.5039, 40.1376 ], [ -3.505, 40.1381 ], [ -3.5061, 40.1377 ], [ -3.5067, 40.138 ], [ -3.5069, 40.1385 ], [ -3.5077, 40.1391 ], [ -3.509, 40.1391 ], [ -3.511, 40.1385 ], [ -3.5109, 40.1373 ], [ -3.5111, 40.1358 ], [ -3.5115, 40.1354 ], [ -3.5122, 40.1351 ], [ -3.5156, 40.1352 ], [ -3.5158, 40.1351 ], [ -3.5156, 40.1347 ], [ -3.5158, 40.1345 ], [ -3.5183, 40.134 ], [ -3.5186, 40.1335 ], [ -3.5184, 40.1326 ], [ -3.516, 40.1318 ], [ -3.5146, 40.1317 ], [ -3.5137, 40.1313 ], [ -3.5138, 40.1297 ], [ -3.5148, 40.1292 ], [ -3.5164, 40.1291 ], [ -3.5186, 40.1293 ], [ -3.519, 40.1292 ], [ -3.5186, 40.1287 ], [ -3.5168, 40.1278 ], [ -3.516, 40.1268 ], [ -3.5141, 40.1253 ], [ -3.514, 40.125 ], [ -3.5144, 40.1247 ], [ -3.5161, 40.1241 ], [ -3.5169, 40.1242 ], [ -3.5188, 40.1258 ], [ -3.5198, 40.1264 ], [ -3.5202, 40.1268 ], [ -3.5207, 40.1268 ], [ -3.5211, 40.1264 ], [ -3.5212, 40.125 ], [ -3.5215, 40.1238 ], [ -3.5216, 40.1228 ], [ -3.5222, 40.1221 ], [ -3.5233, 40.1214 ], [ -3.5242, 40.1217 ], [ -3.5256, 40.1217 ], [ -3.5267, 40.1222 ], [ -3.528, 40.1218 ], [ -3.5294, 40.1222 ], [ -3.5305, 40.122 ], [ -3.5324, 40.1204 ], [ -3.5334, 40.1203 ], [ -3.5343, 40.1209 ], [ -3.5358, 40.119 ], [ -3.5367, 40.1174 ], [ -3.5392, 40.1145 ], [ -3.5388, 40.1143 ], [ -3.5384, 40.1138 ], [ -3.5366, 40.1136 ], [ -3.5364, 40.1132 ], [ -3.5364, 40.1125 ], [ -3.538, 40.1122 ], [ -3.5382, 40.112 ], [ -3.5382, 40.1114 ], [ -3.5384, 40.1112 ], [ -3.5393, 40.112 ], [ -3.5408, 40.1123 ], [ -3.5415, 40.1121 ], [ -3.5417, 40.1117 ], [ -3.5438, 40.1104 ], [ -3.5454, 40.1083 ], [ -3.5463, 40.1065 ], [ -3.5483, 40.1039 ], [ -3.5494, 40.102 ], [ -3.5445, 40.0993 ], [ -3.541, 40.0985 ], [ -3.5344, 40.0966 ], [ -3.5341, 40.0969 ], [ -3.5332, 40.0971 ], [ -3.532, 40.097 ], [ -3.5318, 40.0968 ], [ -3.5313, 40.0957 ], [ -3.5182, 40.0911 ], [ -3.5138, 40.0898 ], [ -3.5131, 40.0901 ], [ -3.5131, 40.0902 ], [ -3.5124, 40.0904 ], [ -3.5124, 40.0905 ], [ -3.5116, 40.0905 ], [ -3.5105, 40.0907 ], [ -3.5098, 40.091 ], [ -3.5086, 40.0919 ], [ -3.506, 40.0923 ], [ -3.5044, 40.0927 ], [ -3.5004, 40.0944 ], [ -3.4996, 40.0949 ], [ -3.4986, 40.0952 ], [ -3.4962, 40.0966 ], [ -3.4941, 40.0968 ], [ -3.4936, 40.0963 ], [ -3.4927, 40.0957 ], [ -3.4923, 40.0952 ], [ -3.4923, 40.0947 ], [ -3.4924, 40.0944 ], [ -3.4929, 40.0941 ], [ -3.4929, 40.0939 ], [ -3.4925, 40.0938 ], [ -3.4923, 40.0936 ], [ -3.4924, 40.0928 ], [ -3.4918, 40.0912 ], [ -3.4919, 40.0905 ], [ -3.4924, 40.0896 ], [ -3.4921, 40.0887 ], [ -3.4946, 40.0882 ], [ -3.4998, 40.0884 ], [ -3.5001, 40.088 ], [ -3.5015, 40.0873 ], [ -3.5025, 40.0877 ], [ -3.5029, 40.088 ], [ -3.5032, 40.0879 ], [ -3.5028, 40.0875 ], [ -3.5027, 40.0872 ], [ -3.5032, 40.0869 ], [ -3.5057, 40.087 ], [ -3.5065, 40.0869 ], [ -3.5042, 40.0859 ], [ -3.5029, 40.0849 ], [ -3.4977, 40.0865 ], [ -3.4915, 40.0859 ], [ -3.488, 40.086 ], [ -3.4819, 40.088 ], [ -3.4805, 40.0881 ], [ -3.48, 40.0887 ], [ -3.4771, 40.0907 ], [ -3.4733, 40.093 ], [ -3.4727, 40.0935 ], [ -3.4703, 40.0946 ], [ -3.4631, 40.0996 ], [ -3.4609, 40.1033 ], [ -3.4601, 40.1067 ], [ -3.4598, 40.1086 ], [ -3.4593, 40.1102 ], [ -3.4601, 40.1103 ], [ -3.4602, 40.11 ], [ -3.4608, 40.1095 ], [ -3.4613, 40.1093 ], [ -3.4623, 40.1092 ], [ -3.4635, 40.1093 ], [ -3.4637, 40.1097 ], [ -3.4637, 40.1102 ], [ -3.4649, 40.111 ], [ -3.4648, 40.1113 ], [ -3.465, 40.1118 ], [ -3.4658, 40.1127 ], [ -3.4679, 40.1139 ], [ -3.4694, 40.1152 ], [ -3.4702, 40.1156 ], [ -3.4709, 40.1164 ], [ -3.4708, 40.1192 ], [ -3.4706, 40.1207 ], [ -3.4702, 40.1216 ], [ -3.4688, 40.1228 ], [ -3.4679, 40.1232 ], [ -3.4669, 40.123 ], [ -3.4664, 40.1227 ], [ -3.4652, 40.1215 ], [ -3.4647, 40.1212 ], [ -3.4641, 40.1211 ], [ -3.4615, 40.1235 ], [ -3.462, 40.1238 ], [ -3.4621, 40.1244 ], [ -3.4628, 40.1256 ], [ -3.463, 40.1269 ], [ -3.4633, 40.1275 ], [ -3.4634, 40.1275 ], [ -3.4636, 40.1285 ], [ -3.4649, 40.1298 ], [ -3.4664, 40.1308 ], [ -3.4675, 40.1318 ], [ -3.4686, 40.1321 ], [ -3.47, 40.1329 ], [ -3.4707, 40.1331 ], [ -3.4713, 40.1331 ], [ -3.4718, 40.1334 ], [ -3.4719, 40.1336 ], [ -3.4722, 40.1337 ], [ -3.4742, 40.1339 ], [ -3.4744, 40.1341 ], [ -3.4775, 40.135 ], [ -3.4793, 40.1358 ], [ -3.483, 40.1364 ], [ -3.4836, 40.1378 ], [ -3.485, 40.1367 ], [ -3.4853, 40.1361 ], [ -3.4852, 40.1348 ], [ -3.4854, 40.1346 ], [ -3.4873, 40.1346 ], [ -3.4881, 40.1351 ], [ -3.4886, 40.1348 ], [ -3.4891, 40.1349 ], [ -3.4893, 40.1347 ], [ -3.4893, 40.1338 ], [ -3.4897, 40.1334 ], [ -3.4895, 40.1318 ], [ -3.4898, 40.1316 ], [ -3.4903, 40.1318 ], [ -3.4915, 40.1327 ], [ -3.4923, 40.1327 ], [ -3.493, 40.1325 ], [ -3.4929, 40.1328 ], [ -3.4924, 40.1332 ], [ -3.4923, 40.1338 ], [ -3.493, 40.1355 ], [ -3.4926, 40.1357 ], [ -3.4916, 40.1369 ], [ -3.491, 40.1374 ], [ -3.4921, 40.1377 ], [ -3.4922, 40.1374 ], [ -3.4926, 40.1374 ], [ -3.4928, 40.1376 ], [ -3.4932, 40.1377 ], [ -3.4937, 40.1375 ], [ -3.4944, 40.1376 ], [ -3.4942, 40.1381 ], [ -3.4937, 40.1386 ], [ -3.4932, 40.1387 ], [ -3.4932, 40.1389 ], [ -3.4926, 40.1391 ] ], [ [ -3.4879, 40.1244 ], [ -3.4865, 40.1246 ], [ -3.4858, 40.1228 ], [ -3.4854, 40.1224 ], [ -3.4856, 40.1216 ], [ -3.4854, 40.1214 ], [ -3.4852, 40.1214 ], [ -3.4847, 40.1218 ], [ -3.4847, 40.1221 ], [ -3.4849, 40.1222 ], [ -3.4849, 40.1224 ], [ -3.4838, 40.1226 ], [ -3.4827, 40.1218 ], [ -3.4826, 40.1216 ], [ -3.4828, 40.121 ], [ -3.4824, 40.1209 ], [ -3.4821, 40.1212 ], [ -3.4818, 40.1211 ], [ -3.4819, 40.1208 ], [ -3.4828, 40.1202 ], [ -3.4835, 40.12 ], [ -3.484, 40.1194 ], [ -3.4849, 40.1189 ], [ -3.4855, 40.1192 ], [ -3.4857, 40.1195 ], [ -3.4872, 40.119 ], [ -3.4873, 40.1187 ], [ -3.4881, 40.1183 ], [ -3.4892, 40.1182 ], [ -3.4893, 40.1179 ], [ -3.4909, 40.1169 ], [ -3.4912, 40.1165 ], [ -3.4916, 40.1164 ], [ -3.4918, 40.1161 ], [ -3.4918, 40.1158 ], [ -3.4925, 40.1157 ], [ -3.4925, 40.1156 ], [ -3.4935, 40.1153 ], [ -3.4944, 40.1152 ], [ -3.495, 40.1154 ], [ -3.4955, 40.1151 ], [ -3.4965, 40.1155 ], [ -3.4961, 40.1158 ], [ -3.4962, 40.1162 ], [ -3.4952, 40.1164 ], [ -3.4964, 40.1169 ], [ -3.4971, 40.1169 ], [ -3.4985, 40.1175 ], [ -3.4994, 40.1184 ], [ -3.4992, 40.1189 ], [ -3.4987, 40.1193 ], [ -3.4979, 40.1196 ], [ -3.4982, 40.1198 ], [ -3.4978, 40.1204 ], [ -3.497, 40.1207 ], [ -3.4963, 40.1205 ], [ -3.4955, 40.1205 ], [ -3.4951, 40.1209 ], [ -3.4948, 40.1228 ], [ -3.4928, 40.1237 ], [ -3.4925, 40.1237 ], [ -3.4923, 40.1235 ], [ -3.4918, 40.1224 ], [ -3.4915, 40.1222 ], [ -3.4912, 40.1223 ], [ -3.4909, 40.1226 ], [ -3.491, 40.1233 ], [ -3.4902, 40.1238 ], [ -3.4897, 40.1235 ], [ -3.489, 40.1233 ], [ -3.4888, 40.1234 ], [ -3.489, 40.1239 ], [ -3.4888, 40.1243 ], [ -3.4883, 40.1245 ], [ -3.4879, 40.1244 ] ], [ [ -3.5246, 40.1163 ], [ -3.5248, 40.1157 ], [ -3.5255, 40.1154 ], [ -3.526, 40.1154 ], [ -3.5266, 40.1156 ], [ -3.5269, 40.1159 ], [ -3.5269, 40.1162 ], [ -3.5252, 40.1173 ], [ -3.5246, 40.1179 ], [ -3.524, 40.1182 ], [ -3.5237, 40.1182 ], [ -3.5236, 40.1181 ], [ -3.5238, 40.1178 ], [ -3.5239, 40.1172 ], [ -3.5246, 40.1163 ] ], [ [ -3.5283, 40.1178 ], [ -3.5283, 40.1174 ], [ -3.5285, 40.1171 ], [ -3.5297, 40.117 ], [ -3.5303, 40.1168 ], [ -3.5305, 40.1164 ], [ -3.5315, 40.1162 ], [ -3.5319, 40.1166 ], [ -3.5319, 40.117 ], [ -3.5316, 40.1174 ], [ -3.5302, 40.1177 ], [ -3.5306, 40.1183 ], [ -3.5308, 40.1189 ], [ -3.5306, 40.1191 ], [ -3.5298, 40.1191 ], [ -3.5295, 40.1188 ], [ -3.5295, 40.1185 ], [ -3.5286, 40.1183 ], [ -3.5283, 40.1178 ] ], [ [ -3.5189, 40.1134 ], [ -3.5178, 40.1141 ], [ -3.5167, 40.1143 ], [ -3.5163, 40.1143 ], [ -3.5159, 40.1141 ], [ -3.5158, 40.1138 ], [ -3.5158, 40.1135 ], [ -3.5162, 40.1132 ], [ -3.5175, 40.1126 ], [ -3.5177, 40.1124 ], [ -3.5176, 40.1119 ], [ -3.5172, 40.1117 ], [ -3.5171, 40.1114 ], [ -3.5173, 40.1111 ], [ -3.5183, 40.1108 ], [ -3.5189, 40.111 ], [ -3.5191, 40.1113 ], [ -3.5199, 40.1114 ], [ -3.52, 40.1116 ], [ -3.5197, 40.112 ], [ -3.5189, 40.1125 ], [ -3.5189, 40.1134 ] ], [ [ -3.5055, 40.1112 ], [ -3.5056, 40.1114 ], [ -3.5053, 40.1116 ], [ -3.504, 40.1117 ], [ -3.5032, 40.1111 ], [ -3.5031, 40.1107 ], [ -3.5054, 40.1096 ], [ -3.5056, 40.1096 ], [ -3.5057, 40.1105 ], [ -3.5055, 40.1112 ] ], [ [ -3.52, 40.1104 ], [ -3.5189, 40.1102 ], [ -3.5183, 40.1096 ], [ -3.5182, 40.1093 ], [ -3.5186, 40.1085 ], [ -3.5198, 40.1083 ], [ -3.5204, 40.1087 ], [ -3.5205, 40.1089 ], [ -3.5202, 40.1099 ], [ -3.52, 40.1104 ] ], [ [ -3.4888, 40.1085 ], [ -3.4886, 40.1084 ], [ -3.4885, 40.108 ], [ -3.4883, 40.1078 ], [ -3.4889, 40.1076 ], [ -3.4889, 40.108 ], [ -3.4891, 40.1084 ], [ -3.4888, 40.1085 ] ], [ [ -3.4853, 40.108 ], [ -3.4852, 40.1082 ], [ -3.4852, 40.1082 ], [ -3.4852, 40.108 ], [ -3.4839, 40.1075 ], [ -3.4834, 40.108 ], [ -3.4823, 40.1075 ], [ -3.4824, 40.1074 ], [ -3.4814, 40.1065 ], [ -3.4807, 40.1069 ], [ -3.4806, 40.1068 ], [ -3.4807, 40.1067 ], [ -3.4803, 40.1065 ], [ -3.4802, 40.1066 ], [ -3.4801, 40.1065 ], [ -3.4802, 40.1065 ], [ -3.4801, 40.1058 ], [ -3.4803, 40.1054 ], [ -3.4806, 40.1052 ], [ -3.4798, 40.1051 ], [ -3.4798, 40.1046 ], [ -3.4796, 40.1047 ], [ -3.479, 40.1034 ], [ -3.4786, 40.1033 ], [ -3.4787, 40.1025 ], [ -3.4789, 40.1026 ], [ -3.48, 40.1023 ], [ -3.4801, 40.1024 ], [ -3.4802, 40.1019 ], [ -3.4803, 40.102 ], [ -3.4807, 40.1015 ], [ -3.4809, 40.1016 ], [ -3.4822, 40.1005 ], [ -3.483, 40.1002 ], [ -3.4855, 40.0997 ], [ -3.4858, 40.0992 ], [ -3.4864, 40.0987 ], [ -3.4869, 40.0987 ], [ -3.4871, 40.0988 ], [ -3.4871, 40.099 ], [ -3.4867, 40.0993 ], [ -3.4861, 40.0995 ], [ -3.4882, 40.0995 ], [ -3.4882, 40.0996 ], [ -3.4888, 40.0997 ], [ -3.4888, 40.0998 ], [ -3.4891, 40.0994 ], [ -3.4896, 40.0991 ], [ -3.4909, 40.0996 ], [ -3.4902, 40.1005 ], [ -3.4904, 40.1005 ], [ -3.4905, 40.1007 ], [ -3.4904, 40.1009 ], [ -3.4911, 40.1017 ], [ -3.4908, 40.102 ], [ -3.4909, 40.1024 ], [ -3.493, 40.1012 ], [ -3.4936, 40.1011 ], [ -3.4942, 40.1007 ], [ -3.4945, 40.1008 ], [ -3.4947, 40.1005 ], [ -3.4959, 40.1006 ], [ -3.4957, 40.1011 ], [ -3.4956, 40.1011 ], [ -3.4956, 40.1015 ], [ -3.4954, 40.1016 ], [ -3.4953, 40.1022 ], [ -3.4936, 40.1022 ], [ -3.4915, 40.1029 ], [ -3.4916, 40.1034 ], [ -3.4913, 40.1036 ], [ -3.4906, 40.1048 ], [ -3.4904, 40.1047 ], [ -3.49, 40.1051 ], [ -3.4896, 40.1053 ], [ -3.4896, 40.1056 ], [ -3.4898, 40.1057 ], [ -3.4893, 40.1062 ], [ -3.4891, 40.1063 ], [ -3.489, 40.1062 ], [ -3.4882, 40.1067 ], [ -3.4882, 40.1068 ], [ -3.4874, 40.1072 ], [ -3.4871, 40.107 ], [ -3.4864, 40.1075 ], [ -3.4862, 40.1075 ], [ -3.4858, 40.108 ], [ -3.4853, 40.1078 ], [ -3.4853, 40.108 ] ], [ [ -3.4719, 40.1064 ], [ -3.4711, 40.1069 ], [ -3.4708, 40.1069 ], [ -3.4701, 40.1065 ], [ -3.4703, 40.1063 ], [ -3.4705, 40.1063 ], [ -3.4707, 40.1059 ], [ -3.4721, 40.1061 ], [ -3.4719, 40.1064 ] ], [ [ -3.5084, 40.0985 ], [ -3.509, 40.0985 ], [ -3.5096, 40.0987 ], [ -3.5102, 40.0986 ], [ -3.5116, 40.0987 ], [ -3.5118, 40.0989 ], [ -3.5118, 40.0993 ], [ -3.5116, 40.0996 ], [ -3.5107, 40.0999 ], [ -3.5105, 40.1001 ], [ -3.5113, 40.1005 ], [ -3.5113, 40.101 ], [ -3.5129, 40.1014 ], [ -3.5071, 40.1015 ], [ -3.5061, 40.1013 ], [ -3.5072, 40.101 ], [ -3.5074, 40.1008 ], [ -3.5073, 40.1002 ], [ -3.5074, 40.0999 ], [ -3.5079, 40.099 ], [ -3.5084, 40.0985 ] ], [ [ -3.5306, 40.1065 ], [ -3.5315, 40.1055 ], [ -3.5321, 40.1054 ], [ -3.5325, 40.1056 ], [ -3.5325, 40.1064 ], [ -3.532, 40.1073 ], [ -3.532, 40.1077 ], [ -3.5317, 40.1078 ], [ -3.5305, 40.1071 ], [ -3.5306, 40.1065 ] ], [ [ -3.5276, 40.1075 ], [ -3.5279, 40.1085 ], [ -3.5278, 40.1088 ], [ -3.5274, 40.1091 ], [ -3.5272, 40.11 ], [ -3.5268, 40.1103 ], [ -3.5264, 40.1104 ], [ -3.5257, 40.1101 ], [ -3.5254, 40.1101 ], [ -3.5254, 40.109 ], [ -3.5258, 40.1077 ], [ -3.5266, 40.1075 ], [ -3.5276, 40.1075 ] ], [ [ -3.5317, 40.1094 ], [ -3.5312, 40.109 ], [ -3.5311, 40.1084 ], [ -3.5319, 40.1082 ], [ -3.5322, 40.108 ], [ -3.5326, 40.108 ], [ -3.533, 40.1082 ], [ -3.5331, 40.109 ], [ -3.5329, 40.1092 ], [ -3.5323, 40.1094 ], [ -3.5317, 40.1094 ] ], [ [ -3.5219, 40.1135 ], [ -3.5221, 40.1131 ], [ -3.5221, 40.1128 ], [ -3.5217, 40.1124 ], [ -3.5216, 40.1121 ], [ -3.5217, 40.1116 ], [ -3.5221, 40.1114 ], [ -3.5237, 40.1118 ], [ -3.5239, 40.1122 ], [ -3.5234, 40.1127 ], [ -3.523, 40.1129 ], [ -3.5228, 40.1135 ], [ -3.5219, 40.1135 ] ] ] } },
{ "type": "Feature", "properties": { "municipio": "Villaconejos", "clasificacion": "urbanizable-no-sectorizado", "calificacion": "sin-asignar", "version": "vigente", "fuente": "SIT-CAM WFS — UsoDelSuelo:VPLA_V_CLASIFICACION (https://idem.comunidad.madrid/geosrvg/ows)", "fecha_dato": "2026-05-12", "ambito": "365", "_raw_CD_SIGLAS": "SUBNS", "_raw_DS_CLASIF_GEN": "Suelo No Urbanizable Común", "_raw_DS_CLASIF_DET": "Suelo No Urbanizable con implantación de explotación de recursos naturales", "_raw_DS_DOCU": "NORMAS SUBSIDIARIAS", "_raw_DS_LEY": "E RD 1346/1976", "_raw_FC_AC": "1984-11-15", "_raw_NM_AREA_M2": 6506.6829118241003, "_cam_code": "170" }, "geometry": { "type": "Polygon", "coordinates": [ [ [ -3.4856, 40.0995 ], [ -3.4861, 40.0995 ], [ -3.4867, 40.0993 ], [ -3.4871, 40.099 ], [ -3.4871, 40.0988 ], [ -3.4864, 40.0987 ], [ -3.4856, 40.0995 ] ] ] } },
{ "type": "Feature", "properties": { "municipio": "Villaconejos", "clasificacion": "urbanizable-no-sectorizado", "calificacion": "sin-asignar", "version": "vigente", "fuente": "SIT-CAM WFS — UsoDelSuelo:VPLA_V_CLASIFICACION (https://idem.comunidad.madrid/geosrvg/ows)", "fecha_dato": "2026-05-12", "ambito": "365", "_raw_CD_SIGLAS": "SUBNS", "_raw_DS_CLASIF_GEN": "Suelo No Urbanizable Común", "_raw_DS_CLASIF_DET": "Suelo No Urbanizable con implantación de explotación de recursos naturales", "_raw_DS_DOCU": "NORMAS SUBSIDIARIAS", "_raw_DS_LEY": "E RD 1346/1976", "_raw_FC_AC": "1984-11-15", "_raw_NM_AREA_M2": 10643.705116986401, "_cam_code": "170" }, "geometry": { "type": "Polygon", "coordinates": [ [ [ -3.4707, 40.1059 ], [ -3.4705, 40.1063 ], [ -3.4703, 40.1063 ], [ -3.4701, 40.1065 ], [ -3.4708, 40.1069 ], [ -3.4719, 40.1064 ], [ -3.4721, 40.1061 ], [ -3.4707, 40.1059 ] ] ] } },
{ "type": "Feature", "properties": { "municipio": "Villaconejos", "clasificacion": "urbanizable-no-sectorizado", "calificacion": "sin-asignar", "version": "vigente", "fuente": "SIT-CAM WFS — UsoDelSuelo:VPLA_V_CLASIFICACION (https://idem.comunidad.madrid/geosrvg/ows)", "fecha_dato": "2026-05-12", "ambito": "365", "_raw_CD_SIGLAS": "SUBNS", "_raw_DS_CLASIF_GEN": "Suelo No Urbanizable Común", "_raw_DS_CLASIF_DET": "Suelo No Urbanizable con implantación de explotación de recursos naturales", "_raw_DS_DOCU": "NORMAS SUBSIDIARIAS", "_raw_DS_LEY": "E RD 1346/1976", "_raw_FC_AC": "1984-11-15", "_raw_NM_AREA_M2": 25932.314321650101, "_cam_code": "170" }, "geometry": { "type": "Polygon", "coordinates": [ [ [ -3.5011, 40.1388 ], [ -3.5007, 40.1382 ], [ -3.4998, 40.1378 ], [ -3.499, 40.1377 ], [ -3.4989, 40.138 ], [ -3.499, 40.1393 ], [ -3.5011, 40.1391 ], [ -3.5011, 40.1388 ] ] ] } },
{ "type": "Feature", "properties": { "municipio": "Villaconejos", "clasificacion": "urbano-consolidado", "calificacion": "sin-asignar", "version": "vigente", "fuente": "SIT-CAM WFS — UsoDelSuelo:VPLA_V_CLASIFICACION (https://idem.comunidad.madrid/geosrvg/ows)", "fecha_dato": "2026-05-12", "ambito": "365", "_raw_CD_SIGLAS": "SUC", "_raw_DS_CLASIF_GEN": "Suelo Urbano Consolidado", "_raw_DS_CLASIF_DET": "Suelo Urbano", "_raw_DS_DOCU": "NORMAS SUBSIDIARIAS", "_raw_DS_LEY": "E RD 1346/1976", "_raw_FC_AC": "1984-11-15", "_raw_NM_AREA_M2": 781331.73256204405, "_cam_code": "170" }, "geometry": { "type": "Polygon", "coordinates": [ [ [ -3.4838, 40.1075 ], [ -3.4852, 40.108 ], [ -3.4852, 40.108 ], [ -3.4852, 40.108 ], [ -3.4852, 40.1082 ], [ -3.4853, 40.1078 ], [ -3.4858, 40.108 ], [ -3.4862, 40.1075 ], [ -3.4864, 40.1075 ], [ -3.4871, 40.107 ], [ -3.4874, 40.1072 ], [ -3.4882, 40.1068 ], [ -3.4882, 40.1067 ], [ -3.489, 40.1062 ], [ -3.4891, 40.1063 ], [ -3.4893, 40.1062 ], [ -3.4898, 40.1057 ], [ -3.4896, 40.1056 ], [ -3.4896, 40.1053 ], [ -3.49, 40.1051 ], [ -3.4904, 40.1047 ], [ -3.4906, 40.1048 ], [ -3.4913, 40.1036 ], [ -3.4916, 40.1034 ], [ -3.4915, 40.1029 ], [ -3.4936, 40.1022 ], [ -3.4953, 40.1022 ], [ -3.4954, 40.1016 ], [ -3.4956, 40.1015 ], [ -3.4956, 40.1012 ], [ -3.4959, 40.1006 ], [ -3.4947, 40.1005 ], [ -3.4946, 40.1007 ], [ -3.4942, 40.1007 ], [ -3.4936, 40.1011 ], [ -3.493, 40.1012 ], [ -3.4909, 40.1024 ], [ -3.4908, 40.102 ], [ -3.4911, 40.1017 ], [ -3.4904, 40.1009 ], [ -3.4906, 40.1007 ], [ -3.4904, 40.1005 ], [ -3.4902, 40.1005 ], [ -3.4909, 40.0996 ], [ -3.4896, 40.0991 ], [ -3.4891, 40.0994 ], [ -3.4888, 40.0998 ], [ -3.4888, 40.0997 ], [ -3.4882, 40.0996 ], [ -3.4882, 40.0995 ], [ -3.4856, 40.0995 ], [ -3.4855, 40.0997 ], [ -3.4851, 40.0997 ], [ -3.4824, 40.1004 ], [ -3.4813, 40.1013 ], [ -3.4807, 40.1015 ], [ -3.4803, 40.102 ], [ -3.4802, 40.1019 ], [ -3.4801, 40.1024 ], [ -3.48, 40.1023 ], [ -3.4787, 40.1026 ], [ -3.4786, 40.1033 ], [ -3.479, 40.1034 ], [ -3.4796, 40.1047 ], [ -3.4798, 40.1046 ], [ -3.4798, 40.1051 ], [ -3.4806, 40.1052 ], [ -3.4801, 40.1057 ], [ -3.4801, 40.1062 ], [ -3.4802, 40.1063 ], [ -3.4802, 40.1065 ], [ -3.4801, 40.1065 ], [ -3.4802, 40.1066 ], [ -3.4802, 40.1065 ], [ -3.4806, 40.1066 ], [ -3.4807, 40.1069 ], [ -3.481, 40.1066 ], [ -3.4815, 40.1065 ], [ -3.4824, 40.1074 ], [ -3.4823, 40.1075 ], [ -3.4835, 40.108 ], [ -3.4838, 40.1075 ] ] ] } }
]
}
