{
"type": "FeatureCollection",
"name": "vigente.full",
"features": [
{ "type": "Feature", "properties": { "municipio": "La Cabrera", "clasificacion": "no-urbanizable-protegido", "calificacion": "sin-asignar", "version": "vigente", "fuente": "SIT-CAM WFS — UsoDelSuelo:VPLA_V_CLASIFICACION (https://idem.comunidad.madrid/geosrvg/ows)", "fecha_dato": "2026-05-12", "ambito": "30561", "_raw_CD_SIGLAS": "SNUP", "_raw_DS_CLASIF_GEN": "Suelo No Urbanizable Protegido", "_raw_DS_CLASIF_DET": "Suelo No Urbanizable Protegido. Protección Ecológica", "_raw_DS_DOCU": "NORMAS SUBSIDIARIAS", "_raw_DS_LEY": "CM Ley 9/1995, E RDL 1/1992", "_raw_FC_AC": "1996-07-25", "_raw_NM_AREA_M2": 134377.72513757899, "_cam_code": "030" }, "geometry": { "type": "Polygon", "coordinates": [ [ [ -3.5942, 40.8586 ], [ -3.5947, 40.8589 ], [ -3.5952, 40.8595 ], [ -3.5953, 40.8607 ], [ -3.5951, 40.8617 ], [ -3.5949, 40.8621 ], [ -3.5949, 40.8626 ], [ -3.5957, 40.863 ], [ -3.5965, 40.8623 ], [ -3.5974, 40.8609 ], [ -3.5979, 40.8592 ], [ -3.5981, 40.858 ], [ -3.5985, 40.8574 ], [ -3.5985, 40.8572 ], [ -3.5991, 40.8566 ], [ -3.5997, 40.8564 ], [ -3.5991, 40.856 ], [ -3.5978, 40.8555 ], [ -3.5978, 40.8569 ], [ -3.5979, 40.8571 ], [ -3.5976, 40.8571 ], [ -3.5972, 40.8569 ], [ -3.597, 40.8575 ], [ -3.5973, 40.8576 ], [ -3.5973, 40.8579 ], [ -3.5968, 40.8579 ], [ -3.5962, 40.8581 ], [ -3.5947, 40.8579 ], [ -3.5951, 40.8584 ], [ -3.595, 40.8585 ], [ -3.5944, 40.8584 ], [ -3.5942, 40.8586 ] ] ] } },
{ "type": "Feature", "properties": { "municipio": "La Cabrera", "clasificacion": "no-urbanizable-protegido", "calificacion": "sin-asignar", "version": "vigente", "fuente": "SIT-CAM WFS — UsoDelSuelo:VPLA_V_CLASIFICACION (https://idem.comunidad.madrid/geosrvg/ows)", "fecha_dato": "2026-05-12", "ambito": "30561", "_raw_CD_SIGLAS": "SNUP", "_raw_DS_CLASIF_GEN": "Suelo No Urbanizable Protegido", "_raw_DS_CLASIF_DET": "Suelo No Urbanizable Protegido. Protección Paisajística", "_raw_DS_DOCU": "NORMAS SUBSIDIARIAS", "_raw_DS_LEY": "CM Ley 9/1995, E RDL 1/1992", "_raw_FC_AC": "1996-07-25", "_raw_NM_AREA_M2": 70193.420301092701, "_cam_code": "030" }, "geometry": { "type": "Polygon", "coordinates": [ [ [ -3.6332, 40.8455 ], [ -3.6335, 40.8463 ], [ -3.6335, 40.8468 ], [ -3.635, 40.8485 ], [ -3.6358, 40.8488 ], [ -3.6365, 40.8495 ], [ -3.6367, 40.8495 ], [ -3.6369, 40.8497 ], [ -3.6372, 40.8498 ], [ -3.6377, 40.8497 ], [ -3.6377, 40.8495 ], [ -3.6372, 40.8489 ], [ -3.6372, 40.8483 ], [ -3.6373, 40.8483 ], [ -3.6374, 40.848 ], [ -3.6367, 40.8476 ], [ -3.6361, 40.8469 ], [ -3.6354, 40.8465 ], [ -3.6332, 40.8455 ] ] ] } },
{ "type": "Feature", "properties": { "municipio": "La Cabrera", "clasificacion": "no-urbanizable-protegido", "calificacion": "sin-asignar", "version": "vigente", "fuente": "SIT-CAM WFS — UsoDelSuelo:VPLA_V_CLASIFICACION (https://idem.comunidad.madrid/geosrvg/ows)", "fecha_dato": "2026-05-12", "ambito": "30561", "_raw_CD_SIGLAS": "SNUP", "_raw_DS_CLASIF_GEN": "Suelo No Urbanizable Protegido", "_raw_DS_CLASIF_DET": "Suelo No Urbanizable Protegido. Protección Paisajística", "_raw_DS_DOCU": "NORMAS SUBSIDIARIAS", "_raw_DS_LEY": "CM Ley 9/1995, E RDL 1/1992", "_raw_FC_AC": "1996-07-25", "_raw_NM_AREA_M2": 118887.47011566799, "_cam_code": "030" }, "geometry": { "type": "Polygon", "coordinates": [ [ [ -3.642, 40.8537 ], [ -3.6429, 40.8544 ], [ -3.6428, 40.8518 ], [ -3.6403, 40.8496 ], [ -3.6398, 40.8493 ], [ -3.6399, 40.85 ], [ -3.6402, 40.8501 ], [ -3.6403, 40.8504 ], [ -3.6404, 40.8504 ], [ -3.6404, 40.8508 ], [ -3.6399, 40.8512 ], [ -3.6399, 40.8514 ], [ -3.6396, 40.8514 ], [ -3.6391, 40.8518 ], [ -3.6386, 40.8518 ], [ -3.6386, 40.8513 ], [ -3.6383, 40.8513 ], [ -3.638, 40.8516 ], [ -3.6375, 40.8516 ], [ -3.6378, 40.8512 ], [ -3.6378, 40.8508 ], [ -3.6373, 40.8508 ], [ -3.6367, 40.8511 ], [ -3.6367, 40.8515 ], [ -3.6371, 40.8517 ], [ -3.6372, 40.852 ], [ -3.6375, 40.852 ], [ -3.6375, 40.8521 ], [ -3.6377, 40.8521 ], [ -3.6379, 40.8523 ], [ -3.6384, 40.8522 ], [ -3.6384, 40.8526 ], [ -3.6386, 40.8526 ], [ -3.6388, 40.8528 ], [ -3.6391, 40.8528 ], [ -3.639, 40.8532 ], [ -3.6392, 40.8534 ], [ -3.6396, 40.8534 ], [ -3.6396, 40.8535 ], [ -3.6403, 40.8534 ], [ -3.6409, 40.8537 ], [ -3.6411, 40.8536 ], [ -3.642, 40.8537 ] ] ] } },
{ "type": "Feature", "properties": { "municipio": "La Cabrera", "clasificacion": "no-urbanizable-protegido", "calificacion": "sin-asignar", "version": "vigente", "fuente": "SIT-CAM WFS — UsoDelSuelo:VPLA_V_CLASIFICACION (https://idem.comunidad.madrid/geosrvg/ows)", "fecha_dato": "2026-05-12", "ambito": "30561", "_raw_CD_SIGLAS": "SNUP", "_raw_DS_CLASIF_GEN": "Suelo No Urbanizable Protegido", "_raw_DS_CLASIF_DET": "Suelo No Urbanizable Protegido. Protección Paisajística", "_raw_DS_DOCU": "NORMAS SUBSIDIARIAS", "_raw_DS_LEY": "CM Ley 9/1995, E RDL 1/1992", "_raw_FC_AC": "1996-07-25", "_raw_NM_AREA_M2": 302732.41074493102, "_cam_code": "030" }, "geometry": { "type": "Polygon", "coordinates": [ [ [ -3.6054, 40.8559 ], [ -3.6059, 40.8556 ], [ -3.606, 40.8559 ], [ -3.606, 40.8566 ], [ -3.6054, 40.8579 ], [ -3.6055, 40.858 ], [ -3.6062, 40.858 ], [ -3.6065, 40.8582 ], [ -3.6065, 40.8584 ], [ -3.6073, 40.8587 ], [ -3.6073, 40.8592 ], [ -3.6074, 40.8593 ], [ -3.607, 40.8596 ], [ -3.607, 40.8598 ], [ -3.6072, 40.8599 ], [ -3.6073, 40.8602 ], [ -3.6066, 40.8609 ], [ -3.6067, 40.861 ], [ -3.6068, 40.8621 ], [ -3.6075, 40.8606 ], [ -3.6088, 40.8586 ], [ -3.6094, 40.8574 ], [ -3.6098, 40.8556 ], [ -3.6104, 40.8541 ], [ -3.6079, 40.8532 ], [ -3.6074, 40.8532 ], [ -3.6073, 40.853 ], [ -3.6071, 40.853 ], [ -3.6069, 40.8532 ], [ -3.6053, 40.8537 ], [ -3.6051, 40.8539 ], [ -3.604, 40.8544 ], [ -3.6037, 40.8547 ], [ -3.6035, 40.8547 ], [ -3.6035, 40.8548 ], [ -3.6032, 40.8548 ], [ -3.6032, 40.8549 ], [ -3.6021, 40.8548 ], [ -3.6016, 40.8557 ], [ -3.6011, 40.8562 ], [ -3.6021, 40.8568 ], [ -3.6039, 40.8574 ], [ -3.6045, 40.8572 ], [ -3.6054, 40.8559 ] ] ] } },
{ "type": "Feature", "properties": { "municipio": "La Cabrera", "clasificacion": "no-urbanizable-protegido", "calificacion": "sin-asignar", "version": "vigente", "fuente": "SIT-CAM WFS — UsoDelSuelo:VPLA_V_CLASIFICACION (https://idem.comunidad.madrid/geosrvg/ows)", "fecha_dato": "2026-05-12", "ambito": "30561", "_raw_CD_SIGLAS": "SNUP", "_raw_DS_CLASIF_GEN": "Suelo No Urbanizable Protegido", "_raw_DS_CLASIF_DET": "Suelo No Urbanizable Protegido. Protección Paisajística", "_raw_DS_DOCU": "NORMAS SUBSIDIARIAS", "_raw_DS_LEY": "CM Ley 9/1995, E RDL 1/1992", "_raw_FC_AC": "1996-07-25", "_raw_NM_AREA_M2": 749176.74158220703, "_cam_code": "030" }, "geometry": { "type": "Polygon", "coordinates": [ [ [ -3.6215, 40.8619 ], [ -3.6221, 40.8621 ], [ -3.6223, 40.8625 ], [ -3.6229, 40.8626 ], [ -3.6237, 40.8633 ], [ -3.6236, 40.864 ], [ -3.6243, 40.8641 ], [ -3.6247, 40.8644 ], [ -3.6247, 40.8644 ], [ -3.6247, 40.8644 ], [ -3.6247, 40.8644 ], [ -3.6247, 40.8644 ], [ -3.6247, 40.8644 ], [ -3.6247, 40.8644 ], [ -3.6247, 40.8644 ], [ -3.6247, 40.8644 ], [ -3.6247, 40.8644 ], [ -3.6247, 40.8644 ], [ -3.6247, 40.8644 ], [ -3.6247, 40.8644 ], [ -3.6247, 40.8644 ], [ -3.6247, 40.8644 ], [ -3.6247, 40.8644 ], [ -3.6247, 40.8644 ], [ -3.6247, 40.8644 ], [ -3.6247, 40.8644 ], [ -3.6248, 40.8644 ], [ -3.6248, 40.8644 ], [ -3.6248, 40.8644 ], [ -3.6248, 40.8644 ], [ -3.6248, 40.8644 ], [ -3.6248, 40.8644 ], [ -3.6248, 40.8644 ], [ -3.6248, 40.8644 ], [ -3.6248, 40.8644 ], [ -3.6248, 40.8644 ], [ -3.6248, 40.8644 ], [ -3.6248, 40.8644 ], [ -3.6248, 40.8644 ], [ -3.6248, 40.8644 ], [ -3.6248, 40.8644 ], [ -3.6248, 40.8644 ], [ -3.6255, 40.8644 ], [ -3.6248, 40.8642 ], [ -3.6247, 40.864 ], [ -3.624, 40.8636 ], [ -3.6244, 40.8633 ], [ -3.6245, 40.8629 ], [ -3.6241, 40.8627 ], [ -3.6238, 40.8627 ], [ -3.6239, 40.8619 ], [ -3.6236, 40.8617 ], [ -3.6235, 40.8614 ], [ -3.6231, 40.8614 ], [ -3.6231, 40.8612 ], [ -3.623, 40.8612 ], [ -3.623, 40.861 ], [ -3.6229, 40.861 ], [ -3.6227, 40.8606 ], [ -3.6227, 40.8602 ], [ -3.6232, 40.8598 ], [ -3.6237, 40.8598 ], [ -3.6245, 40.8595 ], [ -3.6246, 40.8593 ], [ -3.6245, 40.8592 ], [ -3.6247, 40.859 ], [ -3.6249, 40.859 ], [ -3.625, 40.8587 ], [ -3.6251, 40.8587 ], [ -3.625, 40.8583 ], [ -3.6253, 40.8582 ], [ -3.6253, 40.8581 ], [ -3.6259, 40.858 ], [ -3.6261, 40.8576 ], [ -3.6268, 40.8569 ], [ -3.6271, 40.8568 ], [ -3.6274, 40.8565 ], [ -3.6274, 40.8562 ], [ -3.6289, 40.8569 ], [ -3.6304, 40.857 ], [ -3.6308, 40.8575 ], [ -3.6313, 40.8575 ], [ -3.6315, 40.8573 ], [ -3.6319, 40.8568 ], [ -3.632, 40.8562 ], [ -3.6311, 40.8553 ], [ -3.6311, 40.8551 ], [ -3.631, 40.8551 ], [ -3.6309, 40.8554 ], [ -3.6306, 40.8555 ], [ -3.6302, 40.8559 ], [ -3.6302, 40.8558 ], [ -3.6298, 40.8557 ], [ -3.6298, 40.8555 ], [ -3.6295, 40.8556 ], [ -3.6295, 40.8555 ], [ -3.6288, 40.8554 ], [ -3.6286, 40.8552 ], [ -3.6286, 40.855 ], [ -3.6274, 40.8547 ], [ -3.627, 40.8541 ], [ -3.6264, 40.8538 ], [ -3.6261, 40.8537 ], [ -3.626, 40.8538 ], [ -3.6253, 40.8538 ], [ -3.6243, 40.8532 ], [ -3.6241, 40.853 ], [ -3.6242, 40.8524 ], [ -3.6236, 40.8523 ], [ -3.6226, 40.8519 ], [ -3.6223, 40.8519 ], [ -3.6222, 40.8521 ], [ -3.6218, 40.8522 ], [ -3.6184, 40.8521 ], [ -3.6178, 40.8523 ], [ -3.6169, 40.8523 ], [ -3.6169, 40.8522 ], [ -3.6153, 40.852 ], [ -3.6149, 40.8528 ], [ -3.6151, 40.853 ], [ -3.6151, 40.8533 ], [ -3.6178, 40.8555 ], [ -3.6175, 40.8557 ], [ -3.6177, 40.8559 ], [ -3.6176, 40.8563 ], [ -3.6179, 40.857 ], [ -3.6179, 40.8575 ], [ -3.6177, 40.8578 ], [ -3.6177, 40.8581 ], [ -3.6189, 40.8588 ], [ -3.6195, 40.8589 ], [ -3.6198, 40.8591 ], [ -3.6204, 40.8598 ], [ -3.6215, 40.8619 ] ] ] } },
{ "type": "Feature", "properties": { "municipio": "La Cabrera", "clasificacion": "no-urbanizable-protegido", "calificacion": "sin-asignar", "version": "vigente", "fuente": "SIT-CAM WFS — UsoDelSuelo:VPLA_V_CLASIFICACION (https://idem.comunidad.madrid/geosrvg/ows)", "fecha_dato": "2026-05-12", "ambito": "30561", "_raw_CD_SIGLAS": "SNUP", "_raw_DS_CLASIF_GEN": "Suelo No Urbanizable Protegido", "_raw_DS_CLASIF_DET": "Suelo No Urbanizable Protegido. Protección Paisajística", "_raw_DS_DOCU": "NORMAS SUBSIDIARIAS", "_raw_DS_LEY": "CM Ley 9/1995, E RDL 1/1992", "_raw_FC_AC": "1996-07-25", "_raw_NM_AREA_M2": 1108787.23884101, "_cam_code": "030" }, "geometry": { "type": "Polygon", "coordinates": [ [ [ -3.5916, 40.8682 ], [ -3.592, 40.8688 ], [ -3.5939, 40.8705 ], [ -3.5942, 40.871 ], [ -3.596, 40.8721 ], [ -3.5975, 40.8725 ], [ -3.5977, 40.8727 ], [ -3.5979, 40.8732 ], [ -3.598, 40.8732 ], [ -3.5976, 40.8737 ], [ -3.5976, 40.8742 ], [ -3.5979, 40.8746 ], [ -3.5985, 40.875 ], [ -3.5984, 40.8753 ], [ -3.5983, 40.8753 ], [ -3.5984, 40.8776 ], [ -3.5987, 40.8786 ], [ -3.5992, 40.8766 ], [ -3.6001, 40.8748 ], [ -3.6005, 40.8744 ], [ -3.6004, 40.8741 ], [ -3.5994, 40.8738 ], [ -3.5995, 40.8732 ], [ -3.6002, 40.8727 ], [ -3.6023, 40.872 ], [ -3.6032, 40.8714 ], [ -3.6039, 40.8707 ], [ -3.6048, 40.869 ], [ -3.6051, 40.8681 ], [ -3.6057, 40.8649 ], [ -3.6059, 40.8646 ], [ -3.6051, 40.864 ], [ -3.6039, 40.8641 ], [ -3.6037, 40.8639 ], [ -3.6036, 40.8634 ], [ -3.6034, 40.8632 ], [ -3.6034, 40.863 ], [ -3.6033, 40.863 ], [ -3.6033, 40.8626 ], [ -3.6036, 40.8623 ], [ -3.6037, 40.8617 ], [ -3.6028, 40.86 ], [ -3.6027, 40.8593 ], [ -3.6024, 40.8588 ], [ -3.6019, 40.8584 ], [ -3.6013, 40.8576 ], [ -3.6007, 40.857 ], [ -3.6001, 40.8567 ], [ -3.5995, 40.8569 ], [ -3.5991, 40.8574 ], [ -3.5993, 40.8584 ], [ -3.5991, 40.8587 ], [ -3.599, 40.8593 ], [ -3.5988, 40.8595 ], [ -3.5984, 40.861 ], [ -3.5983, 40.861 ], [ -3.5982, 40.8613 ], [ -3.5982, 40.8616 ], [ -3.598, 40.8618 ], [ -3.5979, 40.8622 ], [ -3.5965, 40.8636 ], [ -3.5966, 40.8636 ], [ -3.5967, 40.8639 ], [ -3.5974, 40.8638 ], [ -3.5981, 40.8641 ], [ -3.5979, 40.8651 ], [ -3.5981, 40.8657 ], [ -3.5985, 40.8663 ], [ -3.5984, 40.8667 ], [ -3.598, 40.867 ], [ -3.5977, 40.8676 ], [ -3.5972, 40.8681 ], [ -3.5966, 40.8681 ], [ -3.5962, 40.8679 ], [ -3.5958, 40.8679 ], [ -3.5952, 40.8676 ], [ -3.5941, 40.8674 ], [ -3.5931, 40.867 ], [ -3.593, 40.8668 ], [ -3.5931, 40.8658 ], [ -3.5916, 40.8672 ], [ -3.5915, 40.8675 ], [ -3.5916, 40.8682 ] ] ] } },
{ "type": "Feature", "properties": { "municipio": "La Cabrera", "clasificacion": "no-urbanizable-protegido", "calificacion": "sin-asignar", "version": "vigente", "fuente": "SIT-CAM WFS — UsoDelSuelo:VPLA_V_CLASIFICACION (https://idem.comunidad.madrid/geosrvg/ows)", "fecha_dato": "2026-05-12", "ambito": "30561", "_raw_CD_SIGLAS": "SNUP", "_raw_DS_CLASIF_GEN": "Suelo No Urbanizable Protegido", "_raw_DS_CLASIF_DET": "Suelo No Urbanizable Protegido. Protección Paisajística", "_raw_DS_DOCU": "NORMAS SUBSIDIARIAS", "_raw_DS_LEY": "CM Ley 9/1995, E RDL 1/1992", "_raw_FC_AC": "1996-07-25", "_raw_NM_AREA_M2": 1933528.60323195, "_cam_code": "030" }, "geometry": { "type": "Polygon", "coordinates": [ [ [ -3.5824, 40.8608 ], [ -3.5826, 40.861 ], [ -3.5826, 40.8613 ], [ -3.5822, 40.8616 ], [ -3.5822, 40.8618 ], [ -3.583, 40.8621 ], [ -3.583, 40.8627 ], [ -3.5827, 40.8628 ], [ -3.5827, 40.8629 ], [ -3.5818, 40.8631 ], [ -3.583, 40.8646 ], [ -3.5862, 40.868 ], [ -3.5861, 40.869 ], [ -3.5876, 40.8716 ], [ -3.5903, 40.8736 ], [ -3.5909, 40.8743 ], [ -3.591, 40.8745 ], [ -3.5909, 40.8749 ], [ -3.591, 40.8749 ], [ -3.5913, 40.8755 ], [ -3.5927, 40.8764 ], [ -3.5944, 40.8781 ], [ -3.5975, 40.8836 ], [ -3.5977, 40.8822 ], [ -3.5976, 40.8802 ], [ -3.5973, 40.8791 ], [ -3.5973, 40.8784 ], [ -3.5965, 40.8765 ], [ -3.5964, 40.876 ], [ -3.5955, 40.8744 ], [ -3.5949, 40.8738 ], [ -3.5946, 40.8738 ], [ -3.5942, 40.8735 ], [ -3.5938, 40.8721 ], [ -3.5934, 40.8715 ], [ -3.5926, 40.8707 ], [ -3.5921, 40.8699 ], [ -3.5911, 40.869 ], [ -3.5909, 40.8684 ], [ -3.5903, 40.8676 ], [ -3.5903, 40.8671 ], [ -3.5904, 40.867 ], [ -3.5909, 40.867 ], [ -3.5914, 40.8663 ], [ -3.5918, 40.8659 ], [ -3.5921, 40.8658 ], [ -3.593, 40.8648 ], [ -3.5928, 40.8642 ], [ -3.5929, 40.8636 ], [ -3.5943, 40.8614 ], [ -3.5944, 40.86 ], [ -3.5941, 40.8596 ], [ -3.5935, 40.8595 ], [ -3.5935, 40.8596 ], [ -3.5927, 40.8596 ], [ -3.5926, 40.8597 ], [ -3.5927, 40.86 ], [ -3.5925, 40.8602 ], [ -3.5921, 40.8602 ], [ -3.5913, 40.8607 ], [ -3.591, 40.8602 ], [ -3.5907, 40.8602 ], [ -3.5904, 40.86 ], [ -3.5902, 40.86 ], [ -3.5897, 40.8605 ], [ -3.5893, 40.8601 ], [ -3.589, 40.8601 ], [ -3.5887, 40.8606 ], [ -3.5885, 40.8606 ], [ -3.5879, 40.86 ], [ -3.5872, 40.8597 ], [ -3.5872, 40.8595 ], [ -3.588, 40.8593 ], [ -3.5883, 40.859 ], [ -3.5882, 40.8587 ], [ -3.5875, 40.8584 ], [ -3.5874, 40.8581 ], [ -3.5875, 40.8574 ], [ -3.5877, 40.8572 ], [ -3.5882, 40.8573 ], [ -3.5884, 40.8579 ], [ -3.5888, 40.8579 ], [ -3.5895, 40.8577 ], [ -3.5899, 40.8568 ], [ -3.5896, 40.8566 ], [ -3.5896, 40.8563 ], [ -3.5897, 40.8563 ], [ -3.5896, 40.8561 ], [ -3.5893, 40.856 ], [ -3.5891, 40.8556 ], [ -3.5887, 40.8554 ], [ -3.5887, 40.8552 ], [ -3.5885, 40.8552 ], [ -3.5885, 40.8544 ], [ -3.588, 40.8541 ], [ -3.588, 40.8538 ], [ -3.5878, 40.8534 ], [ -3.5866, 40.852 ], [ -3.5868, 40.8517 ], [ -3.5876, 40.8513 ], [ -3.5873, 40.851 ], [ -3.5868, 40.8509 ], [ -3.5868, 40.8508 ], [ -3.586, 40.8505 ], [ -3.5857, 40.8501 ], [ -3.5853, 40.8501 ], [ -3.5849, 40.8498 ], [ -3.5845, 40.8498 ], [ -3.5845, 40.8497 ], [ -3.5833, 40.8494 ], [ -3.5826, 40.8496 ], [ -3.5831, 40.8502 ], [ -3.5832, 40.8505 ], [ -3.5823, 40.8509 ], [ -3.5822, 40.8519 ], [ -3.582, 40.8521 ], [ -3.582, 40.8523 ], [ -3.5809, 40.8528 ], [ -3.5808, 40.853 ], [ -3.5808, 40.8538 ], [ -3.5812, 40.8541 ], [ -3.5817, 40.8542 ], [ -3.5824, 40.8546 ], [ -3.5824, 40.8549 ], [ -3.5822, 40.8549 ], [ -3.5822, 40.8551 ], [ -3.5824, 40.8552 ], [ -3.5823, 40.8552 ], [ -3.5823, 40.8556 ], [ -3.5821, 40.8558 ], [ -3.5817, 40.8559 ], [ -3.5817, 40.856 ], [ -3.5812, 40.856 ], [ -3.5812, 40.8558 ], [ -3.5809, 40.8556 ], [ -3.5804, 40.8557 ], [ -3.5799, 40.8555 ], [ -3.5799, 40.8552 ], [ -3.5796, 40.8549 ], [ -3.5781, 40.8555 ], [ -3.5777, 40.8555 ], [ -3.5775, 40.8553 ], [ -3.5773, 40.8553 ], [ -3.5769, 40.8558 ], [ -3.5771, 40.856 ], [ -3.5771, 40.8562 ], [ -3.5769, 40.8563 ], [ -3.5769, 40.857 ], [ -3.5772, 40.8571 ], [ -3.5777, 40.8586 ], [ -3.5792, 40.86 ], [ -3.5791, 40.8597 ], [ -3.5793, 40.8595 ], [ -3.5797, 40.8594 ], [ -3.5797, 40.8589 ], [ -3.5796, 40.8589 ], [ -3.5797, 40.8587 ], [ -3.5802, 40.8586 ], [ -3.5807, 40.8592 ], [ -3.581, 40.8592 ], [ -3.581, 40.859 ], [ -3.5811, 40.859 ], [ -3.581, 40.859 ], [ -3.581, 40.8586 ], [ -3.5813, 40.8586 ], [ -3.5817, 40.8591 ], [ -3.5826, 40.8591 ], [ -3.5829, 40.8587 ], [ -3.5831, 40.8591 ], [ -3.5832, 40.8591 ], [ -3.5832, 40.8594 ], [ -3.5827, 40.8595 ], [ -3.5821, 40.8599 ], [ -3.5821, 40.8601 ], [ -3.5825, 40.8602 ], [ -3.5824, 40.8608 ] ] ] } },
{ "type": "Feature", "properties": { "municipio": "La Cabrera", "clasificacion": "no-urbanizable-protegido", "calificacion": "sin-asignar", "version": "vigente", "fuente": "SIT-CAM WFS — UsoDelSuelo:VPLA_V_CLASIFICACION (https://idem.comunidad.madrid/geosrvg/ows)", "fecha_dato": "2026-05-12", "ambito": "30561", "_raw_CD_SIGLAS": "SNUP", "_raw_DS_CLASIF_GEN": "Suelo No Urbanizable Protegido", "_raw_DS_CLASIF_DET": "Suelo No Urbanizable Protegido.Zona de Protección de Autovía", "_raw_DS_DOCU": "NORMAS SUBSIDIARIAS", "_raw_DS_LEY": "CM Ley 9/1995, E RDL 1/1992", "_raw_FC_AC": "1996-07-25", "_raw_NM_AREA_M2": 695307.35163606098, "_cam_code": "030" }, "geometry": { "type": "Polygon", "coordinates": [ [ [ -3.5983, 40.8849 ], [ -3.5987, 40.8865 ], [ -3.599, 40.8887 ], [ -3.5997, 40.8886 ], [ -3.6005, 40.8883 ], [ -3.5998, 40.8871 ], [ -3.5994, 40.8854 ], [ -3.5994, 40.8833 ], [ -3.5997, 40.8818 ], [ -3.5998, 40.8803 ], [ -3.6005, 40.8774 ], [ -3.6007, 40.877 ], [ -3.6012, 40.8765 ], [ -3.6021, 40.8758 ], [ -3.6023, 40.8758 ], [ -3.6022, 40.8756 ], [ -3.6023, 40.8755 ], [ -3.6046, 40.8743 ], [ -3.6038, 40.8743 ], [ -3.6023, 40.8739 ], [ -3.6037, 40.8725 ], [ -3.6046, 40.8713 ], [ -3.6055, 40.8697 ], [ -3.6061, 40.8678 ], [ -3.6061, 40.8674 ], [ -3.6071, 40.8633 ], [ -3.6088, 40.8601 ], [ -3.6089, 40.8601 ], [ -3.6093, 40.8595 ], [ -3.6094, 40.8591 ], [ -3.6099, 40.8585 ], [ -3.6114, 40.8543 ], [ -3.6119, 40.8535 ], [ -3.6123, 40.8531 ], [ -3.6134, 40.8524 ], [ -3.6139, 40.8525 ], [ -3.6144, 40.853 ], [ -3.6146, 40.8528 ], [ -3.6151, 40.8533 ], [ -3.6151, 40.853 ], [ -3.6149, 40.8528 ], [ -3.6168, 40.8495 ], [ -3.6176, 40.8476 ], [ -3.6197, 40.8438 ], [ -3.6204, 40.8423 ], [ -3.6208, 40.8418 ], [ -3.621, 40.8413 ], [ -3.6211, 40.8413 ], [ -3.6212, 40.8409 ], [ -3.6198, 40.8406 ], [ -3.6197, 40.8411 ], [ -3.6195, 40.8413 ], [ -3.619, 40.8424 ], [ -3.6189, 40.8424 ], [ -3.6188, 40.8428 ], [ -3.6159, 40.8482 ], [ -3.6158, 40.8482 ], [ -3.6158, 40.8484 ], [ -3.615, 40.8491 ], [ -3.6123, 40.8504 ], [ -3.612, 40.8507 ], [ -3.6119, 40.8521 ], [ -3.6118, 40.8521 ], [ -3.6114, 40.8528 ], [ -3.611, 40.8531 ], [ -3.6104, 40.8541 ], [ -3.6098, 40.8556 ], [ -3.6094, 40.8574 ], [ -3.6088, 40.8586 ], [ -3.6075, 40.8606 ], [ -3.6065, 40.8626 ], [ -3.6059, 40.8646 ], [ -3.6057, 40.8649 ], [ -3.6051, 40.8681 ], [ -3.6048, 40.869 ], [ -3.6039, 40.8707 ], [ -3.6032, 40.8714 ], [ -3.6023, 40.872 ], [ -3.6002, 40.8727 ], [ -3.5995, 40.8732 ], [ -3.5994, 40.8738 ], [ -3.6004, 40.8741 ], [ -3.6005, 40.8744 ], [ -3.6001, 40.8748 ], [ -3.5992, 40.8766 ], [ -3.5985, 40.879 ], [ -3.5978, 40.884 ], [ -3.5978, 40.8842 ], [ -3.5983, 40.8849 ] ] ] } },
{ "type": "Feature", "properties": { "municipio": "La Cabrera", "clasificacion": "no-urbanizable-protegido", "calificacion": "sin-asignar", "version": "vigente", "fuente": "SIT-CAM WFS — UsoDelSuelo:VPLA_V_CLASIFICACION (https://idem.comunidad.madrid/geosrvg/ows)", "fecha_dato": "2026-05-12", "ambito": "30561", "_raw_CD_SIGLAS": "SNUP", "_raw_DS_CLASIF_GEN": "Suelo No Urbanizable Protegido", "_raw_DS_CLASIF_DET": "Suelo No Urbanizable Protegido. Protección Ecológica", "_raw_DS_DOCU": "NORMAS SUBSIDIARIAS", "_raw_DS_LEY": "CM Ley 9/1995, E RDL 1/1992", "_raw_FC_AC": "1996-07-25", "_raw_NM_AREA_M2": 92423.106891852905, "_cam_code": "030" }, "geometry": { "type": "Polygon", "coordinates": [ [ [ -3.5796, 40.8588 ], [ -3.5797, 40.8594 ], [ -3.5793, 40.8595 ], [ -3.5791, 40.8597 ], [ -3.5792, 40.86 ], [ -3.5818, 40.8631 ], [ -3.5829, 40.8628 ], [ -3.583, 40.8627 ], [ -3.583, 40.8621 ], [ -3.5822, 40.8618 ], [ -3.5822, 40.8616 ], [ -3.5826, 40.8613 ], [ -3.5826, 40.861 ], [ -3.5824, 40.8608 ], [ -3.5825, 40.8602 ], [ -3.5821, 40.8601 ], [ -3.5821, 40.8599 ], [ -3.5827, 40.8595 ], [ -3.5832, 40.8594 ], [ -3.5832, 40.8591 ], [ -3.5831, 40.8591 ], [ -3.583, 40.8588 ], [ -3.5828, 40.8587 ], [ -3.5828, 40.8589 ], [ -3.5826, 40.8591 ], [ -3.5817, 40.8591 ], [ -3.5813, 40.8586 ], [ -3.581, 40.8586 ], [ -3.581, 40.859 ], [ -3.5811, 40.859 ], [ -3.581, 40.859 ], [ -3.581, 40.8592 ], [ -3.5807, 40.8592 ], [ -3.5801, 40.8586 ], [ -3.5796, 40.8588 ] ] ] } },
{ "type": "Feature", "properties": { "municipio": "La Cabrera", "clasificacion": "no-urbanizable-protegido", "calificacion": "sin-asignar", "version": "vigente", "fuente": "SIT-CAM WFS — UsoDelSuelo:VPLA_V_CLASIFICACION (https://idem.comunidad.madrid/geosrvg/ows)", "fecha_dato": "2026-05-12", "ambito": "30561", "_raw_CD_SIGLAS": "SNUP", "_raw_DS_CLASIF_GEN": "Suelo No Urbanizable Protegido", "_raw_DS_CLASIF_DET": "Suelo No Urbanizable Especialmente Protegido. Protección de Cauces y Vaguadas", "_raw_DS_DOCU": "NORMAS SUBSIDIARIAS", "_raw_DS_LEY": "CM Ley 9/1995, E RDL 1/1992", "_raw_FC_AC": "1996-07-25", "_raw_NM_AREA_M2": 1250219.78588035, "_cam_code": "030" }, "geometry": { "type": "Polygon", "coordinates": [ [ [ -3.5931, 40.8658 ], [ -3.5931, 40.8664 ], [ -3.593, 40.8665 ], [ -3.5931, 40.867 ], [ -3.5941, 40.8674 ], [ -3.5952, 40.8676 ], [ -3.5958, 40.8679 ], [ -3.5962, 40.8679 ], [ -3.5966, 40.8681 ], [ -3.5972, 40.8681 ], [ -3.5985, 40.8665 ], [ -3.5979, 40.8651 ], [ -3.5981, 40.8641 ], [ -3.5974, 40.8638 ], [ -3.5967, 40.8639 ], [ -3.5965, 40.8635 ], [ -3.5956, 40.8629 ], [ -3.5949, 40.8626 ], [ -3.5949, 40.8621 ], [ -3.5951, 40.8617 ], [ -3.5953, 40.8607 ], [ -3.5952, 40.8595 ], [ -3.5947, 40.8589 ], [ -3.5942, 40.8586 ], [ -3.5944, 40.8584 ], [ -3.5946, 40.8585 ], [ -3.5951, 40.8584 ], [ -3.5947, 40.8579 ], [ -3.5958, 40.858 ], [ -3.5959, 40.8581 ], [ -3.5973, 40.8579 ], [ -3.5973, 40.8576 ], [ -3.597, 40.8575 ], [ -3.5972, 40.8569 ], [ -3.5976, 40.8571 ], [ -3.5979, 40.8571 ], [ -3.5978, 40.8569 ], [ -3.5978, 40.8555 ], [ -3.5991, 40.856 ], [ -3.6002, 40.8568 ], [ -3.6007, 40.857 ], [ -3.6019, 40.8584 ], [ -3.6024, 40.8588 ], [ -3.6027, 40.8593 ], [ -3.6028, 40.86 ], [ -3.6037, 40.8617 ], [ -3.6036, 40.8623 ], [ -3.6033, 40.8626 ], [ -3.6033, 40.863 ], [ -3.6034, 40.863 ], [ -3.6034, 40.8632 ], [ -3.6036, 40.8634 ], [ -3.6037, 40.8639 ], [ -3.6039, 40.8641 ], [ -3.6051, 40.864 ], [ -3.6059, 40.8646 ], [ -3.6065, 40.8626 ], [ -3.6068, 40.8621 ], [ -3.6067, 40.861 ], [ -3.6066, 40.8609 ], [ -3.6073, 40.8602 ], [ -3.6072, 40.8599 ], [ -3.607, 40.8598 ], [ -3.607, 40.8596 ], [ -3.6074, 40.8593 ], [ -3.6073, 40.8592 ], [ -3.6073, 40.8587 ], [ -3.6065, 40.8584 ], [ -3.6065, 40.8582 ], [ -3.6062, 40.858 ], [ -3.6055, 40.858 ], [ -3.6054, 40.8579 ], [ -3.606, 40.8566 ], [ -3.6059, 40.8556 ], [ -3.6057, 40.8556 ], [ -3.6054, 40.8559 ], [ -3.6045, 40.8572 ], [ -3.6037, 40.8574 ], [ -3.6029, 40.857 ], [ -3.6021, 40.8568 ], [ -3.6012, 40.8562 ], [ -3.6008, 40.8561 ], [ -3.6007, 40.8559 ], [ -3.5995, 40.8552 ], [ -3.5995, 40.8551 ], [ -3.5992, 40.8551 ], [ -3.5992, 40.855 ], [ -3.5982, 40.8547 ], [ -3.5969, 40.854 ], [ -3.5959, 40.8532 ], [ -3.5956, 40.8529 ], [ -3.5955, 40.8526 ], [ -3.5952, 40.8526 ], [ -3.5952, 40.8525 ], [ -3.5948, 40.8524 ], [ -3.594, 40.8524 ], [ -3.594, 40.8523 ], [ -3.5933, 40.8521 ], [ -3.5933, 40.852 ], [ -3.593, 40.852 ], [ -3.5928, 40.8517 ], [ -3.592, 40.8514 ], [ -3.5915, 40.8509 ], [ -3.5902, 40.8507 ], [ -3.5897, 40.8505 ], [ -3.5896, 40.8503 ], [ -3.5891, 40.8503 ], [ -3.5888, 40.8507 ], [ -3.5881, 40.8507 ], [ -3.587, 40.8502 ], [ -3.587, 40.85 ], [ -3.5868, 40.8498 ], [ -3.5862, 40.8497 ], [ -3.5862, 40.8496 ], [ -3.5859, 40.8497 ], [ -3.5859, 40.8496 ], [ -3.5855, 40.8496 ], [ -3.5838, 40.8491 ], [ -3.5836, 40.8486 ], [ -3.5832, 40.8482 ], [ -3.582, 40.8478 ], [ -3.5806, 40.848 ], [ -3.5813, 40.8483 ], [ -3.5813, 40.8484 ], [ -3.5826, 40.8485 ], [ -3.583, 40.8487 ], [ -3.5832, 40.8492 ], [ -3.5835, 40.8495 ], [ -3.5845, 40.8497 ], [ -3.5845, 40.8498 ], [ -3.5849, 40.8498 ], [ -3.5853, 40.8501 ], [ -3.5857, 40.8501 ], [ -3.586, 40.8505 ], [ -3.5868, 40.8508 ], [ -3.5868, 40.8509 ], [ -3.5873, 40.851 ], [ -3.5876, 40.8513 ], [ -3.5868, 40.8517 ], [ -3.5866, 40.852 ], [ -3.5878, 40.8534 ], [ -3.588, 40.8538 ], [ -3.588, 40.8541 ], [ -3.5885, 40.8544 ], [ -3.5885, 40.8552 ], [ -3.5887, 40.8552 ], [ -3.5887, 40.8554 ], [ -3.5891, 40.8556 ], [ -3.5893, 40.856 ], [ -3.5896, 40.8561 ], [ -3.5897, 40.8563 ], [ -3.5896, 40.8563 ], [ -3.5896, 40.8566 ], [ -3.5899, 40.8569 ], [ -3.5895, 40.8577 ], [ -3.5888, 40.8579 ], [ -3.5884, 40.8579 ], [ -3.5882, 40.8573 ], [ -3.5877, 40.8572 ], [ -3.5875, 40.8574 ], [ -3.5874, 40.8577 ], [ -3.5875, 40.8584 ], [ -3.5882, 40.8587 ], [ -3.5883, 40.859 ], [ -3.588, 40.8593 ], [ -3.5872, 40.8595 ], [ -3.5872, 40.8597 ], [ -3.5879, 40.86 ], [ -3.5885, 40.8606 ], [ -3.5887, 40.8606 ], [ -3.589, 40.8601 ], [ -3.5893, 40.8601 ], [ -3.5897, 40.8605 ], [ -3.5902, 40.86 ], [ -3.5904, 40.86 ], [ -3.5907, 40.8602 ], [ -3.591, 40.8602 ], [ -3.5913, 40.8607 ], [ -3.5921, 40.8602 ], [ -3.5925, 40.8602 ], [ -3.5927, 40.86 ], [ -3.5926, 40.8598 ], [ -3.5927, 40.8596 ], [ -3.5939, 40.8595 ], [ -3.5943, 40.8598 ], [ -3.5944, 40.86 ], [ -3.5943, 40.8614 ], [ -3.5929, 40.8636 ], [ -3.5928, 40.8642 ], [ -3.5931, 40.865 ], [ -3.5931, 40.8658 ] ] ] } },
{ "type": "Feature", "properties": { "municipio": "La Cabrera", "clasificacion": "no-urbanizable-protegido", "calificacion": "sin-asignar", "version": "vigente", "fuente": "SIT-CAM WFS — UsoDelSuelo:VPLA_V_CLASIFICACION (https://idem.comunidad.madrid/geosrvg/ows)", "fecha_dato": "2026-05-12", "ambito": "30561", "_raw_CD_SIGLAS": "SNUP", "_raw_DS_CLASIF_GEN": "Suelo No Urbanizable Protegido", "_raw_DS_CLASIF_DET": "Suelo No Urbanizable Especialmente Protegido. Protección de la Sierra de la Cabrera", "_raw_DS_DOCU": "NORMAS SUBSIDIARIAS", "_raw_DS_LEY": "CM Ley 9/1995, E RDL 1/1992", "_raw_FC_AC": "1996-07-25", "_raw_NM_AREA_M2": 6806031.9142914098, "_cam_code": "030" }, "geometry": { "type": "Polygon", "coordinates": [ [ [ -3.6, 40.8792 ], [ -3.5994, 40.8833 ], [ -3.5994, 40.8854 ], [ -3.5998, 40.8871 ], [ -3.6005, 40.8883 ], [ -3.6075, 40.8859 ], [ -3.6097, 40.8854 ], [ -3.615, 40.8832 ], [ -3.619, 40.882 ], [ -3.6221, 40.8827 ], [ -3.6261, 40.8822 ], [ -3.6342, 40.8808 ], [ -3.6372, 40.8797 ], [ -3.6393, 40.8793 ], [ -3.6443, 40.8793 ], [ -3.6504, 40.8797 ], [ -3.6486, 40.8769 ], [ -3.6479, 40.8761 ], [ -3.648, 40.8746 ], [ -3.6479, 40.8726 ], [ -3.6476, 40.8709 ], [ -3.6476, 40.8702 ], [ -3.6465, 40.8681 ], [ -3.6453, 40.8667 ], [ -3.6449, 40.8647 ], [ -3.6448, 40.863 ], [ -3.6443, 40.8615 ], [ -3.6441, 40.8595 ], [ -3.6431, 40.8566 ], [ -3.643, 40.8557 ], [ -3.6403, 40.855 ], [ -3.6403, 40.8554 ], [ -3.6404, 40.8554 ], [ -3.6406, 40.8558 ], [ -3.6405, 40.8561 ], [ -3.6392, 40.856 ], [ -3.6382, 40.8555 ], [ -3.6385, 40.8551 ], [ -3.6393, 40.8546 ], [ -3.6371, 40.8539 ], [ -3.6354, 40.8545 ], [ -3.6339, 40.8545 ], [ -3.6354, 40.8554 ], [ -3.6358, 40.8558 ], [ -3.6357, 40.8566 ], [ -3.6361, 40.8571 ], [ -3.6357, 40.8575 ], [ -3.6356, 40.8579 ], [ -3.6351, 40.8583 ], [ -3.635, 40.8589 ], [ -3.6347, 40.859 ], [ -3.6347, 40.8591 ], [ -3.6347, 40.859 ], [ -3.6343, 40.8589 ], [ -3.6341, 40.8592 ], [ -3.6342, 40.8594 ], [ -3.6344, 40.8594 ], [ -3.6348, 40.8597 ], [ -3.6347, 40.8597 ], [ -3.6345, 40.8613 ], [ -3.6342, 40.8623 ], [ -3.6344, 40.8633 ], [ -3.6341, 40.8649 ], [ -3.6338, 40.865 ], [ -3.6333, 40.8655 ], [ -3.6333, 40.8657 ], [ -3.6325, 40.8659 ], [ -3.6298, 40.8662 ], [ -3.6297, 40.8663 ], [ -3.6286, 40.866 ], [ -3.6272, 40.8651 ], [ -3.6268, 40.8647 ], [ -3.6262, 40.8645 ], [ -3.6247, 40.8644 ], [ -3.6243, 40.8641 ], [ -3.6236, 40.864 ], [ -3.6236, 40.8639 ], [ -3.6223, 40.8643 ], [ -3.6214, 40.8641 ], [ -3.6211, 40.8643 ], [ -3.621, 40.8647 ], [ -3.6215, 40.8653 ], [ -3.6214, 40.8654 ], [ -3.6214, 40.8664 ], [ -3.622, 40.8666 ], [ -3.6223, 40.8665 ], [ -3.6225, 40.8671 ], [ -3.6227, 40.8673 ], [ -3.6212, 40.8677 ], [ -3.6216, 40.8692 ], [ -3.622, 40.8698 ], [ -3.6225, 40.8702 ], [ -3.6217, 40.8712 ], [ -3.6213, 40.8714 ], [ -3.6199, 40.8715 ], [ -3.6182, 40.8712 ], [ -3.618, 40.8719 ], [ -3.6175, 40.8719 ], [ -3.6176, 40.8722 ], [ -3.6178, 40.8723 ], [ -3.6177, 40.8723 ], [ -3.6177, 40.8725 ], [ -3.6179, 40.8727 ], [ -3.6179, 40.873 ], [ -3.6184, 40.8729 ], [ -3.6184, 40.8731 ], [ -3.6192, 40.8737 ], [ -3.619, 40.8739 ], [ -3.6154, 40.8739 ], [ -3.6153, 40.874 ], [ -3.6142, 40.874 ], [ -3.6134, 40.8742 ], [ -3.6128, 40.8742 ], [ -3.6123, 40.8744 ], [ -3.6115, 40.8745 ], [ -3.611, 40.8743 ], [ -3.6104, 40.8743 ], [ -3.6098, 40.874 ], [ -3.6098, 40.8746 ], [ -3.609, 40.8746 ], [ -3.609, 40.8745 ], [ -3.6081, 40.8744 ], [ -3.6075, 40.8744 ], [ -3.6073, 40.8746 ], [ -3.6066, 40.8745 ], [ -3.6066, 40.8747 ], [ -3.6061, 40.8751 ], [ -3.604, 40.8761 ], [ -3.6026, 40.876 ], [ -3.6023, 40.8757 ], [ -3.6023, 40.8758 ], [ -3.6021, 40.8758 ], [ -3.6012, 40.8765 ], [ -3.6007, 40.877 ], [ -3.6005, 40.8774 ], [ -3.6, 40.8792 ] ] ] } },
{ "type": "Feature", "properties": { "municipio": "La Cabrera", "clasificacion": "no-urbanizable-protegido", "calificacion": "sin-asignar", "version": "vigente", "fuente": "SIT-CAM WFS — UsoDelSuelo:VPLA_V_CLASIFICACION (https://idem.comunidad.madrid/geosrvg/ows)", "fecha_dato": "2026-05-12", "ambito": "30561", "_raw_CD_SIGLAS": "SNUP", "_raw_DS_CLASIF_GEN": "Suelo No Urbanizable Protegido", "_raw_DS_CLASIF_DET": "Suelo No Urbanizable Protegido. Protección de Vías Pecuarias", "_raw_DS_DOCU": "NORMAS SUBSIDIARIAS", "_raw_DS_LEY": "CM Ley 9/1995, E RDL 1/1992", "_raw_FC_AC": "1996-07-25", "_raw_NM_AREA_M2": 116801.655844063, "_cam_code": "030" }, "geometry": { "type": "Polygon", "coordinates": [ [ [ -3.602, 40.8541 ], [ -3.6011, 40.8549 ], [ -3.6011, 40.8552 ], [ -3.601, 40.8552 ], [ -3.6006, 40.8559 ], [ -3.601, 40.8562 ], [ -3.6016, 40.8557 ], [ -3.6021, 40.8548 ], [ -3.6026, 40.8548 ], [ -3.6026, 40.8549 ], [ -3.6035, 40.8548 ], [ -3.6035, 40.8547 ], [ -3.6037, 40.8547 ], [ -3.604, 40.8544 ], [ -3.6051, 40.8539 ], [ -3.6053, 40.8537 ], [ -3.6069, 40.8532 ], [ -3.6071, 40.853 ], [ -3.6073, 40.853 ], [ -3.6074, 40.8532 ], [ -3.6079, 40.8532 ], [ -3.6104, 40.8541 ], [ -3.611, 40.8531 ], [ -3.6114, 40.8528 ], [ -3.6118, 40.8521 ], [ -3.6119, 40.8521 ], [ -3.612, 40.8516 ], [ -3.6119, 40.851 ], [ -3.612, 40.8508 ], [ -3.6115, 40.8507 ], [ -3.6095, 40.8518 ], [ -3.6085, 40.8521 ], [ -3.6082, 40.8524 ], [ -3.6075, 40.8525 ], [ -3.6068, 40.8528 ], [ -3.6064, 40.8528 ], [ -3.6064, 40.8529 ], [ -3.6061, 40.853 ], [ -3.6051, 40.8529 ], [ -3.6051, 40.8531 ], [ -3.6046, 40.8536 ], [ -3.6039, 40.8536 ], [ -3.6039, 40.8538 ], [ -3.6037, 40.8538 ], [ -3.6037, 40.8539 ], [ -3.6033, 40.8541 ], [ -3.6033, 40.8543 ], [ -3.6028, 40.8544 ], [ -3.6028, 40.8543 ], [ -3.602, 40.8541 ] ] ] } },
{ "type": "Feature", "properties": { "municipio": "La Cabrera", "clasificacion": "no-urbanizable-protegido", "calificacion": "sin-asignar", "version": "vigente", "fuente": "SIT-CAM WFS — UsoDelSuelo:VPLA_V_CLASIFICACION (https://idem.comunidad.madrid/geosrvg/ows)", "fecha_dato": "2026-05-12", "ambito": "30561", "_raw_CD_SIGLAS": "SNUP", "_raw_DS_CLASIF_GEN": "Suelo No Urbanizable Protegido", "_raw_DS_CLASIF_DET": "Suelo No Urbanizable Protegido. Protección Ecológica", "_raw_DS_DOCU": "NORMAS SUBSIDIARIAS", "_raw_DS_LEY": "CM Ley 9/1995, E RDL 1/1992", "_raw_FC_AC": "1996-07-25", "_raw_NM_AREA_M2": 2828944.5142873898, "_cam_code": "030" }, "geometry": { "type": "Polygon", "coordinates": [ [ [ -3.6297, 40.8663 ], [ -3.6311, 40.866 ], [ -3.633, 40.8658 ], [ -3.6333, 40.8657 ], [ -3.6333, 40.8655 ], [ -3.6338, 40.865 ], [ -3.6341, 40.8649 ], [ -3.6344, 40.8633 ], [ -3.6342, 40.8623 ], [ -3.6345, 40.8613 ], [ -3.6347, 40.8597 ], [ -3.6348, 40.8597 ], [ -3.6344, 40.8594 ], [ -3.6342, 40.8594 ], [ -3.6341, 40.8592 ], [ -3.6343, 40.8589 ], [ -3.6347, 40.859 ], [ -3.6347, 40.8591 ], [ -3.6347, 40.859 ], [ -3.635, 40.8589 ], [ -3.6351, 40.8583 ], [ -3.6356, 40.8579 ], [ -3.6357, 40.8575 ], [ -3.6359, 40.8574 ], [ -3.6361, 40.857 ], [ -3.6357, 40.8566 ], [ -3.6358, 40.8558 ], [ -3.6354, 40.8554 ], [ -3.6339, 40.8545 ], [ -3.6354, 40.8545 ], [ -3.6367, 40.854 ], [ -3.6373, 40.8539 ], [ -3.6413, 40.8553 ], [ -3.6417, 40.8553 ], [ -3.6417, 40.8554 ], [ -3.643, 40.8557 ], [ -3.643, 40.8556 ], [ -3.6411, 40.8551 ], [ -3.6414, 40.8545 ], [ -3.6409, 40.8541 ], [ -3.6409, 40.8539 ], [ -3.641, 40.8539 ], [ -3.6409, 40.8537 ], [ -3.6403, 40.8534 ], [ -3.6399, 40.8534 ], [ -3.6399, 40.8535 ], [ -3.6392, 40.8534 ], [ -3.639, 40.8532 ], [ -3.6391, 40.8528 ], [ -3.6388, 40.8528 ], [ -3.6386, 40.8526 ], [ -3.6384, 40.8526 ], [ -3.6384, 40.8522 ], [ -3.6379, 40.8523 ], [ -3.6377, 40.8521 ], [ -3.6375, 40.8521 ], [ -3.6375, 40.852 ], [ -3.6372, 40.852 ], [ -3.6371, 40.8517 ], [ -3.6367, 40.8515 ], [ -3.6367, 40.8511 ], [ -3.6373, 40.8508 ], [ -3.6378, 40.8508 ], [ -3.6378, 40.8512 ], [ -3.6375, 40.8516 ], [ -3.638, 40.8516 ], [ -3.6383, 40.8513 ], [ -3.6386, 40.8513 ], [ -3.6386, 40.8518 ], [ -3.6391, 40.8518 ], [ -3.6396, 40.8514 ], [ -3.6399, 40.8514 ], [ -3.6399, 40.8512 ], [ -3.6404, 40.8508 ], [ -3.6404, 40.8504 ], [ -3.6403, 40.8504 ], [ -3.6402, 40.8501 ], [ -3.6399, 40.85 ], [ -3.6398, 40.8493 ], [ -3.6374, 40.848 ], [ -3.6373, 40.8483 ], [ -3.6372, 40.8483 ], [ -3.6372, 40.8489 ], [ -3.6377, 40.8495 ], [ -3.6377, 40.8497 ], [ -3.6376, 40.8498 ], [ -3.6369, 40.8497 ], [ -3.6367, 40.8495 ], [ -3.6365, 40.8495 ], [ -3.6358, 40.8488 ], [ -3.635, 40.8485 ], [ -3.6343, 40.8478 ], [ -3.6335, 40.8468 ], [ -3.6335, 40.8463 ], [ -3.6332, 40.8455 ], [ -3.6304, 40.8444 ], [ -3.6282, 40.843 ], [ -3.625, 40.8413 ], [ -3.6221, 40.8411 ], [ -3.6212, 40.8409 ], [ -3.6211, 40.8413 ], [ -3.621, 40.8413 ], [ -3.6208, 40.8418 ], [ -3.6204, 40.8423 ], [ -3.6197, 40.8438 ], [ -3.6176, 40.8476 ], [ -3.6168, 40.8495 ], [ -3.6153, 40.852 ], [ -3.6169, 40.8522 ], [ -3.6169, 40.8523 ], [ -3.6178, 40.8523 ], [ -3.6184, 40.8521 ], [ -3.6218, 40.8522 ], [ -3.6222, 40.8521 ], [ -3.6223, 40.8519 ], [ -3.6226, 40.8519 ], [ -3.6236, 40.8523 ], [ -3.6242, 40.8524 ], [ -3.6241, 40.853 ], [ -3.6243, 40.8532 ], [ -3.6253, 40.8538 ], [ -3.626, 40.8538 ], [ -3.626, 40.8537 ], [ -3.6264, 40.8538 ], [ -3.627, 40.8541 ], [ -3.6274, 40.8547 ], [ -3.6286, 40.855 ], [ -3.6286, 40.8552 ], [ -3.6288, 40.8554 ], [ -3.6295, 40.8555 ], [ -3.6295, 40.8556 ], [ -3.6298, 40.8555 ], [ -3.6298, 40.8557 ], [ -3.6302, 40.8558 ], [ -3.6302, 40.8559 ], [ -3.6306, 40.8555 ], [ -3.6309, 40.8554 ], [ -3.631, 40.8551 ], [ -3.6311, 40.8551 ], [ -3.6311, 40.8553 ], [ -3.632, 40.8562 ], [ -3.6319, 40.8568 ], [ -3.6313, 40.8575 ], [ -3.6308, 40.8575 ], [ -3.6304, 40.857 ], [ -3.6289, 40.8569 ], [ -3.6274, 40.8562 ], [ -3.6274, 40.8565 ], [ -3.6271, 40.8568 ], [ -3.6268, 40.8569 ], [ -3.6261, 40.8576 ], [ -3.6259, 40.858 ], [ -3.6253, 40.8581 ], [ -3.6253, 40.8582 ], [ -3.625, 40.8583 ], [ -3.6251, 40.8587 ], [ -3.625, 40.8587 ], [ -3.6249, 40.859 ], [ -3.6247, 40.859 ], [ -3.6245, 40.8592 ], [ -3.6246, 40.8593 ], [ -3.6245, 40.8595 ], [ -3.6237, 40.8598 ], [ -3.6232, 40.8598 ], [ -3.6227, 40.8602 ], [ -3.6227, 40.8606 ], [ -3.6229, 40.861 ], [ -3.623, 40.861 ], [ -3.623, 40.8612 ], [ -3.6231, 40.8612 ], [ -3.6231, 40.8614 ], [ -3.6235, 40.8614 ], [ -3.6236, 40.8617 ], [ -3.6239, 40.8619 ], [ -3.6238, 40.8627 ], [ -3.6241, 40.8627 ], [ -3.6245, 40.8629 ], [ -3.6244, 40.8633 ], [ -3.624, 40.8636 ], [ -3.6247, 40.864 ], [ -3.6248, 40.8642 ], [ -3.6253, 40.8644 ], [ -3.6268, 40.8647 ], [ -3.6272, 40.8651 ], [ -3.6286, 40.866 ], [ -3.6297, 40.8663 ] ] ] } },
{ "type": "Feature", "properties": { "municipio": "La Cabrera", "clasificacion": "no-urbanizable-protegido", "calificacion": "sin-asignar", "version": "vigente", "fuente": "SIT-CAM WFS — UsoDelSuelo:VPLA_V_CLASIFICACION (https://idem.comunidad.madrid/geosrvg/ows)", "fecha_dato": "2026-05-12", "ambito": "30561", "_raw_CD_SIGLAS": "SNUP", "_raw_DS_CLASIF_GEN": "Suelo No Urbanizable Protegido", "_raw_DS_CLASIF_DET": "Suelo No Urbanizable Protegido. Protección Ecológica", "_raw_DS_DOCU": "NORMAS SUBSIDIARIAS", "_raw_DS_LEY": "CM Ley 9/1995, E RDL 1/1992", "_raw_FC_AC": "1996-07-25", "_raw_NM_AREA_M2": 677662.77991542604, "_cam_code": "030" }, "geometry": { "type": "Polygon", "coordinates": [ [ [ -3.5777, 40.8586 ], [ -3.5772, 40.8571 ], [ -3.5769, 40.857 ], [ -3.5769, 40.8563 ], [ -3.5771, 40.8562 ], [ -3.5771, 40.856 ], [ -3.5769, 40.8558 ], [ -3.5773, 40.8553 ], [ -3.5775, 40.8553 ], [ -3.5777, 40.8555 ], [ -3.5781, 40.8555 ], [ -3.5797, 40.8549 ], [ -3.5797, 40.8551 ], [ -3.5799, 40.8552 ], [ -3.5799, 40.8555 ], [ -3.5804, 40.8557 ], [ -3.5809, 40.8556 ], [ -3.5812, 40.8558 ], [ -3.5812, 40.856 ], [ -3.5817, 40.856 ], [ -3.5817, 40.8559 ], [ -3.5821, 40.8558 ], [ -3.5823, 40.8556 ], [ -3.5823, 40.8552 ], [ -3.5824, 40.8552 ], [ -3.5822, 40.8551 ], [ -3.5822, 40.8549 ], [ -3.5824, 40.8549 ], [ -3.5824, 40.8546 ], [ -3.5817, 40.8542 ], [ -3.5812, 40.8541 ], [ -3.5808, 40.8538 ], [ -3.5808, 40.853 ], [ -3.5809, 40.8528 ], [ -3.582, 40.8523 ], [ -3.582, 40.8521 ], [ -3.5822, 40.8519 ], [ -3.5823, 40.8509 ], [ -3.5832, 40.8505 ], [ -3.5831, 40.8502 ], [ -3.5826, 40.8496 ], [ -3.5832, 40.8494 ], [ -3.5834, 40.8495 ], [ -3.5837, 40.8495 ], [ -3.5838, 40.8495 ], [ -3.5834, 40.8494 ], [ -3.583, 40.8487 ], [ -3.5826, 40.8485 ], [ -3.5813, 40.8484 ], [ -3.5813, 40.8483 ], [ -3.5806, 40.848 ], [ -3.5765, 40.8485 ], [ -3.5746, 40.8496 ], [ -3.5734, 40.8496 ], [ -3.572, 40.8506 ], [ -3.571, 40.851 ], [ -3.5717, 40.8533 ], [ -3.5753, 40.8569 ], [ -3.5777, 40.8586 ] ] ] } },
{ "type": "Feature", "properties": { "municipio": "La Cabrera", "clasificacion": "no-urbanizable-protegido", "calificacion": "sin-asignar", "version": "vigente", "fuente": "SIT-CAM WFS — UsoDelSuelo:VPLA_V_CLASIFICACION (https://idem.comunidad.madrid/geosrvg/ows)", "fecha_dato": "2026-05-12", "ambito": "30561", "_raw_CD_SIGLAS": "SNUP", "_raw_DS_CLASIF_GEN": "Suelo No Urbanizable Protegido", "_raw_DS_CLASIF_DET": "Suelo No Urbanizable Protegido. Protección Ecológica", "_raw_DS_DOCU": "NORMAS SUBSIDIARIAS", "_raw_DS_LEY": "CM Ley 9/1995, E RDL 1/1992", "_raw_FC_AC": "1996-07-25", "_raw_NM_AREA_M2": 2101647.12570799, "_cam_code": "030" }, "geometry": { "type": "Polygon", "coordinates": [ [ [ -3.596, 40.8533 ], [ -3.5982, 40.8547 ], [ -3.5992, 40.855 ], [ -3.5992, 40.8551 ], [ -3.5995, 40.8551 ], [ -3.5995, 40.8552 ], [ -3.6, 40.8554 ], [ -3.6006, 40.8559 ], [ -3.601, 40.8552 ], [ -3.6011, 40.8552 ], [ -3.6011, 40.8549 ], [ -3.6014, 40.8548 ], [ -3.602, 40.8541 ], [ -3.6028, 40.8543 ], [ -3.6028, 40.8544 ], [ -3.6033, 40.8543 ], [ -3.6033, 40.8541 ], [ -3.6037, 40.8539 ], [ -3.6037, 40.8538 ], [ -3.6039, 40.8538 ], [ -3.6039, 40.8536 ], [ -3.6046, 40.8536 ], [ -3.6051, 40.8531 ], [ -3.6051, 40.8529 ], [ -3.6061, 40.853 ], [ -3.6064, 40.8529 ], [ -3.6064, 40.8528 ], [ -3.6068, 40.8528 ], [ -3.6075, 40.8525 ], [ -3.6082, 40.8524 ], [ -3.6085, 40.8521 ], [ -3.6095, 40.8518 ], [ -3.6103, 40.8514 ], [ -3.6097, 40.8505 ], [ -3.6097, 40.85 ], [ -3.6115, 40.849 ], [ -3.6119, 40.8484 ], [ -3.613, 40.8481 ], [ -3.6141, 40.8468 ], [ -3.6143, 40.8468 ], [ -3.6143, 40.8467 ], [ -3.6145, 40.8467 ], [ -3.6147, 40.8465 ], [ -3.6149, 40.8459 ], [ -3.615, 40.8459 ], [ -3.6154, 40.8452 ], [ -3.6159, 40.8448 ], [ -3.6159, 40.8432 ], [ -3.6162, 40.842 ], [ -3.6163, 40.8417 ], [ -3.6164, 40.8417 ], [ -3.6164, 40.8414 ], [ -3.6165, 40.8414 ], [ -3.6165, 40.8411 ], [ -3.6133, 40.8418 ], [ -3.6095, 40.8421 ], [ -3.6072, 40.8425 ], [ -3.6047, 40.8422 ], [ -3.6004, 40.8451 ], [ -3.5993, 40.8458 ], [ -3.5989, 40.8459 ], [ -3.5909, 40.8467 ], [ -3.5877, 40.8473 ], [ -3.5845, 40.8473 ], [ -3.5819, 40.8478 ], [ -3.5832, 40.8482 ], [ -3.5836, 40.8486 ], [ -3.5837, 40.849 ], [ -3.584, 40.8491 ], [ -3.584, 40.8492 ], [ -3.5847, 40.8493 ], [ -3.5855, 40.8496 ], [ -3.5859, 40.8496 ], [ -3.5859, 40.8497 ], [ -3.5862, 40.8496 ], [ -3.5862, 40.8497 ], [ -3.5868, 40.8498 ], [ -3.587, 40.85 ], [ -3.587, 40.8502 ], [ -3.5881, 40.8507 ], [ -3.5888, 40.8507 ], [ -3.5891, 40.8503 ], [ -3.5896, 40.8503 ], [ -3.5897, 40.8505 ], [ -3.5902, 40.8507 ], [ -3.5915, 40.8509 ], [ -3.592, 40.8514 ], [ -3.5928, 40.8517 ], [ -3.593, 40.852 ], [ -3.5933, 40.852 ], [ -3.5933, 40.8521 ], [ -3.594, 40.8523 ], [ -3.594, 40.8524 ], [ -3.5948, 40.8524 ], [ -3.5952, 40.8525 ], [ -3.5952, 40.8526 ], [ -3.5955, 40.8526 ], [ -3.5956, 40.8529 ], [ -3.596, 40.8533 ] ] ] } },
{ "type": "Feature", "properties": { "municipio": "La Cabrera", "clasificacion": "no-urbanizable-protegido", "calificacion": "sin-asignar", "version": "vigente", "fuente": "SIT-CAM WFS — UsoDelSuelo:VPLA_V_CLASIFICACION (https://idem.comunidad.madrid/geosrvg/ows)", "fecha_dato": "2026-05-12", "ambito": "30561", "_raw_CD_SIGLAS": "SNUP", "_raw_DS_CLASIF_GEN": "Suelo No Urbanizable Protegido", "_raw_DS_CLASIF_DET": "Suelo No Urbanizable Protegido. Protección de Vías Pecuarias", "_raw_DS_DOCU": "NORMAS SUBSIDIARIAS", "_raw_DS_LEY": "CM Ley 9/1995, E RDL 1/1992", "_raw_FC_AC": "1996-07-25", "_raw_NM_AREA_M2": 252279.193244664, "_cam_code": "030" }, "geometry": { "type": "Polygon", "coordinates": [ [ [ -3.593, 40.8648 ], [ -3.5921, 40.8658 ], [ -3.5918, 40.8659 ], [ -3.5914, 40.8663 ], [ -3.5909, 40.867 ], [ -3.5904, 40.867 ], [ -3.5903, 40.8671 ], [ -3.5903, 40.8676 ], [ -3.5909, 40.8684 ], [ -3.5911, 40.869 ], [ -3.5921, 40.8699 ], [ -3.5926, 40.8707 ], [ -3.5934, 40.8715 ], [ -3.5938, 40.8721 ], [ -3.5942, 40.8735 ], [ -3.5946, 40.8738 ], [ -3.5949, 40.8738 ], [ -3.5955, 40.8744 ], [ -3.5964, 40.876 ], [ -3.5965, 40.8765 ], [ -3.5973, 40.8784 ], [ -3.5973, 40.8791 ], [ -3.5976, 40.8802 ], [ -3.5977, 40.8821 ], [ -3.5975, 40.8836 ], [ -3.5978, 40.8842 ], [ -3.5982, 40.8808 ], [ -3.5985, 40.8795 ], [ -3.5985, 40.879 ], [ -3.5986, 40.8786 ], [ -3.5987, 40.8786 ], [ -3.5984, 40.8776 ], [ -3.5983, 40.8753 ], [ -3.5984, 40.8753 ], [ -3.5985, 40.875 ], [ -3.5979, 40.8746 ], [ -3.5976, 40.8742 ], [ -3.5976, 40.8737 ], [ -3.598, 40.8732 ], [ -3.5979, 40.8732 ], [ -3.5979, 40.873 ], [ -3.5975, 40.8725 ], [ -3.596, 40.8721 ], [ -3.5942, 40.871 ], [ -3.5939, 40.8705 ], [ -3.592, 40.8688 ], [ -3.5916, 40.8682 ], [ -3.5915, 40.8678 ], [ -3.5916, 40.8672 ], [ -3.5931, 40.8658 ], [ -3.5931, 40.865 ], [ -3.593, 40.8648 ] ] ] } },
{ "type": "Feature", "properties": { "municipio": "La Cabrera", "clasificacion": "no-urbanizable-protegido", "calificacion": "sin-asignar", "version": "vigente", "fuente": "SIT-CAM WFS — UsoDelSuelo:VPLA_V_CLASIFICACION (https://idem.comunidad.madrid/geosrvg/ows)", "fecha_dato": "2026-05-12", "ambito": "30561", "_raw_CD_SIGLAS": "SNUP", "_raw_DS_CLASIF_GEN": "Suelo No Urbanizable Protegido", "_raw_DS_CLASIF_DET": "Suelo No Urbanizable Protegido. Protección de Vías Pecuarias", "_raw_DS_DOCU": "NORMAS SUBSIDIARIAS", "_raw_DS_LEY": "CM Ley 9/1995, E RDL 1/1992", "_raw_FC_AC": "1996-07-25", "_raw_NM_AREA_M2": 68907.414736501902, "_cam_code": "030" }, "geometry": { "type": "Polygon", "coordinates": [ [ [ -3.5996, 40.8564 ], [ -3.5991, 40.8566 ], [ -3.5985, 40.8572 ], [ -3.5985, 40.8574 ], [ -3.5981, 40.858 ], [ -3.5979, 40.8592 ], [ -3.5974, 40.8609 ], [ -3.5965, 40.8623 ], [ -3.5957, 40.863 ], [ -3.5965, 40.8636 ], [ -3.5977, 40.8625 ], [ -3.5982, 40.8616 ], [ -3.5982, 40.8613 ], [ -3.5983, 40.861 ], [ -3.5984, 40.861 ], [ -3.5988, 40.8595 ], [ -3.599, 40.8593 ], [ -3.5991, 40.8587 ], [ -3.5993, 40.8584 ], [ -3.5991, 40.8574 ], [ -3.5995, 40.8569 ], [ -3.6001, 40.8567 ], [ -3.5996, 40.8564 ] ] ] } },
{ "type": "Feature", "properties": { "municipio": "La Cabrera", "clasificacion": "urbano-consolidado", "calificacion": "sin-asignar", "version": "vigente", "fuente": "SIT-CAM WFS — UsoDelSuelo:VPLA_V_CLASIFICACION (https://idem.comunidad.madrid/geosrvg/ows)", "fecha_dato": "2026-05-12", "ambito": "30561", "_raw_CD_SIGLAS": "SU", "_raw_DS_CLASIF_GEN": "Suelo Urbano", "_raw_DS_CLASIF_DET": "Suelo Urbano", "_raw_DS_DOCU": "NORMAS SUBSIDIARIAS", "_raw_DS_LEY": "CM Ley 9/1995, E RDL 1/1992", "_raw_FC_AC": "1996-07-25", "_raw_NM_AREA_M2": 1780072.5061139001, "_cam_code": "030" }, "geometry": { "type": "Polygon", "coordinates": [ [ [ -3.6022, 40.8756 ], [ -3.6026, 40.876 ], [ -3.604, 40.8761 ], [ -3.6061, 40.8751 ], [ -3.6066, 40.8747 ], [ -3.6066, 40.8745 ], [ -3.6073, 40.8746 ], [ -3.6075, 40.8744 ], [ -3.6081, 40.8744 ], [ -3.609, 40.8745 ], [ -3.609, 40.8746 ], [ -3.6098, 40.8746 ], [ -3.6098, 40.874 ], [ -3.6104, 40.8743 ], [ -3.611, 40.8743 ], [ -3.6115, 40.8745 ], [ -3.6123, 40.8744 ], [ -3.6128, 40.8742 ], [ -3.6134, 40.8742 ], [ -3.6142, 40.874 ], [ -3.6153, 40.874 ], [ -3.6154, 40.8739 ], [ -3.619, 40.8739 ], [ -3.6192, 40.8737 ], [ -3.6184, 40.8731 ], [ -3.6184, 40.8729 ], [ -3.6179, 40.873 ], [ -3.6179, 40.8727 ], [ -3.6177, 40.8725 ], [ -3.6177, 40.8723 ], [ -3.6178, 40.8723 ], [ -3.6175, 40.872 ], [ -3.6175, 40.8719 ], [ -3.618, 40.8719 ], [ -3.6183, 40.871 ], [ -3.6182, 40.8705 ], [ -3.6173, 40.8708 ], [ -3.6164, 40.8708 ], [ -3.6156, 40.8706 ], [ -3.6157, 40.8695 ], [ -3.6154, 40.8681 ], [ -3.616, 40.868 ], [ -3.6161, 40.8676 ], [ -3.6178, 40.867 ], [ -3.6188, 40.8676 ], [ -3.6193, 40.8677 ], [ -3.6196, 40.8679 ], [ -3.62, 40.8685 ], [ -3.6204, 40.8684 ], [ -3.6204, 40.868 ], [ -3.6227, 40.8673 ], [ -3.6225, 40.8671 ], [ -3.6223, 40.8665 ], [ -3.622, 40.8666 ], [ -3.6214, 40.8664 ], [ -3.6214, 40.8654 ], [ -3.6215, 40.8653 ], [ -3.621, 40.8647 ], [ -3.6211, 40.8643 ], [ -3.6214, 40.8641 ], [ -3.6223, 40.8643 ], [ -3.6236, 40.8639 ], [ -3.6237, 40.8633 ], [ -3.6229, 40.8626 ], [ -3.6223, 40.8625 ], [ -3.6221, 40.8621 ], [ -3.6215, 40.8619 ], [ -3.6204, 40.8598 ], [ -3.6198, 40.8591 ], [ -3.6191, 40.8588 ], [ -3.619, 40.8602 ], [ -3.6186, 40.8609 ], [ -3.618, 40.8615 ], [ -3.6157, 40.8617 ], [ -3.6157, 40.8614 ], [ -3.6153, 40.8614 ], [ -3.6146, 40.8604 ], [ -3.6146, 40.86 ], [ -3.615, 40.8599 ], [ -3.6151, 40.8596 ], [ -3.6152, 40.8596 ], [ -3.615, 40.8594 ], [ -3.6142, 40.8593 ], [ -3.6141, 40.8589 ], [ -3.614, 40.8589 ], [ -3.6145, 40.8588 ], [ -3.6144, 40.8583 ], [ -3.6147, 40.8581 ], [ -3.6146, 40.8568 ], [ -3.6145, 40.8568 ], [ -3.6146, 40.8565 ], [ -3.6177, 40.8559 ], [ -3.6176, 40.8558 ], [ -3.6146, 40.8563 ], [ -3.6154, 40.8535 ], [ -3.6146, 40.8528 ], [ -3.6144, 40.853 ], [ -3.6137, 40.8524 ], [ -3.6134, 40.8524 ], [ -3.6128, 40.8527 ], [ -3.6116, 40.8539 ], [ -3.611, 40.8552 ], [ -3.611, 40.8555 ], [ -3.6117, 40.8559 ], [ -3.6116, 40.8563 ], [ -3.6122, 40.8574 ], [ -3.612, 40.8574 ], [ -3.6118, 40.8576 ], [ -3.6116, 40.8595 ], [ -3.6108, 40.861 ], [ -3.6123, 40.8613 ], [ -3.6123, 40.8625 ], [ -3.6122, 40.8625 ], [ -3.6121, 40.8628 ], [ -3.6119, 40.8628 ], [ -3.6121, 40.8631 ], [ -3.6114, 40.8631 ], [ -3.6113, 40.8632 ], [ -3.6108, 40.8628 ], [ -3.6102, 40.8629 ], [ -3.6094, 40.8619 ], [ -3.6083, 40.8626 ], [ -3.6076, 40.8624 ], [ -3.6075, 40.8625 ], [ -3.6082, 40.8627 ], [ -3.6087, 40.863 ], [ -3.6098, 40.8648 ], [ -3.6097, 40.8652 ], [ -3.6098, 40.8663 ], [ -3.6091, 40.8678 ], [ -3.6091, 40.8679 ], [ -3.6096, 40.868 ], [ -3.6088, 40.8688 ], [ -3.6081, 40.8691 ], [ -3.607, 40.8691 ], [ -3.6057, 40.8689 ], [ -3.6055, 40.8697 ], [ -3.6046, 40.8713 ], [ -3.6037, 40.8725 ], [ -3.6023, 40.8739 ], [ -3.6038, 40.8743 ], [ -3.6046, 40.8743 ], [ -3.6023, 40.8755 ], [ -3.6022, 40.8756 ] ] ] } },
{ "type": "Feature", "properties": { "municipio": "La Cabrera", "clasificacion": "urbanizable-no-sectorizado", "calificacion": "sin-asignar", "version": "vigente", "fuente": "SIT-CAM WFS — UsoDelSuelo:VPLA_V_CLASIFICACION (https://idem.comunidad.madrid/geosrvg/ows)", "fecha_dato": "2026-05-12", "ambito": "30561", "_raw_CD_SIGLAS": "SUBNS", "_raw_DS_CLASIF_GEN": "Suelo No Urbanizable Común", "_raw_DS_CLASIF_DET": "Suelo No Urbanizable Común", "_raw_DS_DOCU": "NORMAS SUBSIDIARIAS", "_raw_DS_LEY": "CM Ley 9/1995, E RDL 1/1992", "_raw_FC_AC": "1996-07-25", "_raw_NM_AREA_M2": 20333.424922259299, "_cam_code": "030" }, "geometry": { "type": "Polygon", "coordinates": [ [ [ -3.6392, 40.856 ], [ -3.6405, 40.8561 ], [ -3.6406, 40.8558 ], [ -3.6404, 40.8554 ], [ -3.6403, 40.8554 ], [ -3.6403, 40.855 ], [ -3.6393, 40.8546 ], [ -3.6385, 40.8551 ], [ -3.6382, 40.8555 ], [ -3.6392, 40.856 ] ] ] } },
{ "type": "Feature", "properties": { "municipio": "La Cabrera", "clasificacion": "urbanizable-no-sectorizado", "calificacion": "sin-asignar", "version": "vigente", "fuente": "SIT-CAM WFS — UsoDelSuelo:VPLA_V_CLASIFICACION (https://idem.comunidad.madrid/geosrvg/ows)", "fecha_dato": "2026-05-12", "ambito": "30561", "_raw_CD_SIGLAS": "SUBNS", "_raw_DS_CLASIF_GEN": "Suelo No Urbanizable Común", "_raw_DS_CLASIF_DET": "Suelo No Urbanizable Común", "_raw_DS_DOCU": "NORMAS SUBSIDIARIAS", "_raw_DS_LEY": "CM Ley 9/1995, E RDL 1/1992", "_raw_FC_AC": "1996-07-25", "_raw_NM_AREA_M2": 258188.27232890599, "_cam_code": "030" }, "geometry": { "type": "Polygon", "coordinates": [ [ [ -3.6101, 40.851 ], [ -3.6101, 40.8512 ], [ -3.6103, 40.8514 ], [ -3.6108, 40.851 ], [ -3.6115, 40.8507 ], [ -3.612, 40.8508 ], [ -3.6123, 40.8504 ], [ -3.615, 40.8491 ], [ -3.6158, 40.8484 ], [ -3.6158, 40.8482 ], [ -3.6159, 40.8482 ], [ -3.6188, 40.8428 ], [ -3.6189, 40.8424 ], [ -3.619, 40.8424 ], [ -3.6195, 40.8413 ], [ -3.6197, 40.8411 ], [ -3.6198, 40.8406 ], [ -3.6199, 40.8406 ], [ -3.6191, 40.8405 ], [ -3.6165, 40.8411 ], [ -3.6165, 40.8414 ], [ -3.6164, 40.8414 ], [ -3.6164, 40.8417 ], [ -3.6163, 40.8417 ], [ -3.6162, 40.842 ], [ -3.6159, 40.8432 ], [ -3.6159, 40.8448 ], [ -3.6154, 40.8452 ], [ -3.615, 40.8459 ], [ -3.6149, 40.8459 ], [ -3.6147, 40.8465 ], [ -3.6145, 40.8467 ], [ -3.6143, 40.8467 ], [ -3.6143, 40.8468 ], [ -3.6141, 40.8468 ], [ -3.613, 40.8481 ], [ -3.6119, 40.8484 ], [ -3.6115, 40.849 ], [ -3.6097, 40.85 ], [ -3.6097, 40.8505 ], [ -3.6101, 40.851 ] ] ] } },
{ "type": "Feature", "properties": { "municipio": "La Cabrera", "clasificacion": "urbanizable-no-sectorizado", "calificacion": "sin-asignar", "version": "vigente", "fuente": "SIT-CAM WFS — UsoDelSuelo:VPLA_V_CLASIFICACION (https://idem.comunidad.madrid/geosrvg/ows)", "fecha_dato": "2026-05-12", "ambito": "30561", "_raw_CD_SIGLAS": "SUBNS", "_raw_DS_CLASIF_GEN": "Suelo No Urbanizable Común", "_raw_DS_CLASIF_DET": "Suelo No Urbanizable Común", "_raw_DS_DOCU": "NORMAS SUBSIDIARIAS", "_raw_DS_LEY": "CM Ley 9/1995, E RDL 1/1992", "_raw_FC_AC": "1996-07-25", "_raw_NM_AREA_M2": 25545.9197324421, "_cam_code": "030" }, "geometry": { "type": "Polygon", "coordinates": [ [ [ -3.6409, 40.8541 ], [ -3.6414, 40.8545 ], [ -3.6411, 40.8551 ], [ -3.643, 40.8556 ], [ -3.6429, 40.8544 ], [ -3.6425, 40.8542 ], [ -3.6422, 40.8538 ], [ -3.6411, 40.8536 ], [ -3.6409, 40.8537 ], [ -3.641, 40.8539 ], [ -3.6409, 40.8539 ], [ -3.6409, 40.8541 ] ] ] } },
{ "type": "Feature", "properties": { "municipio": "La Cabrera", "clasificacion": "urbanizable-sectorizado", "calificacion": "sin-asignar", "version": "vigente", "fuente": "SIT-CAM WFS — UsoDelSuelo:VPLA_V_CLASIFICACION (https://idem.comunidad.madrid/geosrvg/ows)", "fecha_dato": "2026-05-12", "ambito": "30561", "_raw_CD_SIGLAS": "SUBS", "_raw_DS_CLASIF_GEN": "Suelo Apto Para Urbanizar", "_raw_DS_CLASIF_DET": "Suelo Apto para Urbanizar", "_raw_DS_DOCU": "NORMAS SUBSIDIARIAS", "_raw_DS_LEY": "CM Ley 9/1995, E RDL 1/1992", "_raw_FC_AC": "1996-07-25", "_raw_NM_AREA_M2": 168136.507338089, "_cam_code": "030" }, "geometry": { "type": "Polygon", "coordinates": [ [ [ -3.6075, 40.8625 ], [ -3.6071, 40.8633 ], [ -3.6069, 40.864 ], [ -3.6069, 40.8644 ], [ -3.6064, 40.8661 ], [ -3.6061, 40.8678 ], [ -3.6057, 40.8689 ], [ -3.607, 40.8691 ], [ -3.6081, 40.8691 ], [ -3.6088, 40.8688 ], [ -3.6096, 40.868 ], [ -3.6091, 40.8679 ], [ -3.6091, 40.8678 ], [ -3.6098, 40.8663 ], [ -3.6098, 40.8657 ], [ -3.6097, 40.8657 ], [ -3.6098, 40.8648 ], [ -3.6086, 40.8629 ], [ -3.6075, 40.8625 ] ] ] } },
{ "type": "Feature", "properties": { "municipio": "La Cabrera", "clasificacion": "urbanizable-sectorizado", "calificacion": "sin-asignar", "version": "vigente", "fuente": "SIT-CAM WFS — UsoDelSuelo:VPLA_V_CLASIFICACION (https://idem.comunidad.madrid/geosrvg/ows)", "fecha_dato": "2026-05-12", "ambito": "30561", "_raw_CD_SIGLAS": "SUBS", "_raw_DS_CLASIF_GEN": "Suelo Apto Para Urbanizar", "_raw_DS_CLASIF_DET": "Suelo Apto para Urbanizar", "_raw_DS_DOCU": "NORMAS SUBSIDIARIAS", "_raw_DS_LEY": "CM Ley 9/1995, E RDL 1/1992", "_raw_FC_AC": "1996-07-25", "_raw_NM_AREA_M2": 155052.183820276, "_cam_code": "030" }, "geometry": { "type": "Polygon", "coordinates": [ [ [ -3.611, 40.8629 ], [ -3.6113, 40.8632 ], [ -3.6114, 40.8631 ], [ -3.6121, 40.8631 ], [ -3.6119, 40.8628 ], [ -3.6121, 40.8628 ], [ -3.6122, 40.8625 ], [ -3.6123, 40.8625 ], [ -3.6123, 40.8613 ], [ -3.6108, 40.861 ], [ -3.6116, 40.8595 ], [ -3.6118, 40.8576 ], [ -3.612, 40.8574 ], [ -3.6122, 40.8574 ], [ -3.6116, 40.8563 ], [ -3.6117, 40.8559 ], [ -3.6114, 40.8558 ], [ -3.611, 40.8554 ], [ -3.6099, 40.8585 ], [ -3.6094, 40.8591 ], [ -3.6093, 40.8595 ], [ -3.6089, 40.8601 ], [ -3.6088, 40.8601 ], [ -3.6076, 40.8624 ], [ -3.6083, 40.8626 ], [ -3.6094, 40.8619 ], [ -3.6102, 40.8629 ], [ -3.6108, 40.8628 ], [ -3.6108, 40.8629 ], [ -3.611, 40.8629 ] ] ] } },
{ "type": "Feature", "properties": { "municipio": "La Cabrera", "clasificacion": "urbanizable-sectorizado", "calificacion": "sin-asignar", "version": "vigente", "fuente": "SIT-CAM WFS — UsoDelSuelo:VPLA_V_CLASIFICACION (https://idem.comunidad.madrid/geosrvg/ows)", "fecha_dato": "2026-05-12", "ambito": "30561", "_raw_CD_SIGLAS": "SUBS", "_raw_DS_CLASIF_GEN": "Suelo Apto Para Urbanizar", "_raw_DS_CLASIF_DET": "Suelo Apto para Urbanizar", "_raw_DS_DOCU": "NORMAS SUBSIDIARIAS", "_raw_DS_LEY": "CM Ley 9/1995, E RDL 1/1992", "_raw_FC_AC": "1996-07-25", "_raw_NM_AREA_M2": 184645.96964297499, "_cam_code": "030" }, "geometry": { "type": "Polygon", "coordinates": [ [ [ -3.6155, 40.8614 ], [ -3.6157, 40.8614 ], [ -3.6157, 40.8617 ], [ -3.618, 40.8615 ], [ -3.6186, 40.8609 ], [ -3.619, 40.8602 ], [ -3.6191, 40.8588 ], [ -3.6181, 40.8584 ], [ -3.6177, 40.8581 ], [ -3.6177, 40.8578 ], [ -3.6179, 40.8575 ], [ -3.6179, 40.857 ], [ -3.6176, 40.8563 ], [ -3.6177, 40.8559 ], [ -3.6146, 40.8565 ], [ -3.6145, 40.8567 ], [ -3.6146, 40.8568 ], [ -3.6147, 40.8581 ], [ -3.6144, 40.8583 ], [ -3.6145, 40.8588 ], [ -3.614, 40.8589 ], [ -3.6141, 40.8589 ], [ -3.6142, 40.8593 ], [ -3.615, 40.8594 ], [ -3.6152, 40.8596 ], [ -3.6151, 40.8596 ], [ -3.615, 40.8599 ], [ -3.6146, 40.86 ], [ -3.6146, 40.8604 ], [ -3.6151, 40.8612 ], [ -3.6153, 40.8614 ], [ -3.6155, 40.8614 ] ] ] } },
{ "type": "Feature", "properties": { "municipio": "La Cabrera", "clasificacion": "urbanizable-sectorizado", "calificacion": "sin-asignar", "version": "vigente", "fuente": "SIT-CAM WFS — UsoDelSuelo:VPLA_V_CLASIFICACION (https://idem.comunidad.madrid/geosrvg/ows)", "fecha_dato": "2026-05-12", "ambito": "30561", "_raw_CD_SIGLAS": "SUBS", "_raw_DS_CLASIF_GEN": "Suelo Apto Para Urbanizar", "_raw_DS_CLASIF_DET": "Suelo Apto para Urbanizar", "_raw_DS_DOCU": "NORMAS SUBSIDIARIAS", "_raw_DS_LEY": "CM Ley 9/1995, E RDL 1/1992", "_raw_FC_AC": "1996-07-25", "_raw_NM_AREA_M2": 42675.487097889403, "_cam_code": "030" }, "geometry": { "type": "Polygon", "coordinates": [ [ [ -3.6154, 40.8535 ], [ -3.6146, 40.8563 ], [ -3.6176, 40.8558 ], [ -3.6175, 40.8557 ], [ -3.6178, 40.8555 ], [ -3.6154, 40.8535 ] ] ] } },
{ "type": "Feature", "properties": { "municipio": "La Cabrera", "clasificacion": "urbanizable-sectorizado", "calificacion": "sin-asignar", "version": "vigente", "fuente": "SIT-CAM WFS — UsoDelSuelo:VPLA_V_CLASIFICACION (https://idem.comunidad.madrid/geosrvg/ows)", "fecha_dato": "2026-05-12", "ambito": "30561", "_raw_CD_SIGLAS": "SUBS", "_raw_DS_CLASIF_GEN": "Suelo Apto Para Urbanizar", "_raw_DS_CLASIF_DET": "Suelo Apto para Urbanizar", "_raw_DS_DOCU": "NORMAS SUBSIDIARIAS", "_raw_DS_LEY": "CM Ley 9/1995, E RDL 1/1992", "_raw_FC_AC": "1996-07-25", "_raw_NM_AREA_M2": 196932.64283984699, "_cam_code": "030" }, "geometry": { "type": "Polygon", "coordinates": [ [ [ -3.6183, 40.8707 ], [ -3.6182, 40.8712 ], [ -3.6199, 40.8715 ], [ -3.621, 40.8715 ], [ -3.621, 40.8714 ], [ -3.6213, 40.8714 ], [ -3.6217, 40.8712 ], [ -3.6225, 40.8702 ], [ -3.622, 40.8698 ], [ -3.6216, 40.8692 ], [ -3.6212, 40.8677 ], [ -3.6204, 40.868 ], [ -3.6204, 40.8684 ], [ -3.62, 40.8685 ], [ -3.6196, 40.8679 ], [ -3.6193, 40.8677 ], [ -3.6188, 40.8676 ], [ -3.6178, 40.867 ], [ -3.6161, 40.8676 ], [ -3.616, 40.868 ], [ -3.6154, 40.8681 ], [ -3.6157, 40.8695 ], [ -3.6156, 40.8706 ], [ -3.6164, 40.8708 ], [ -3.6173, 40.8708 ], [ -3.6182, 40.8705 ], [ -3.6183, 40.8707 ] ] ] } }
]
}
