{
"type": "FeatureCollection",
"name": "vigente.full",
"features": [
{ "type": "Feature", "properties": { "municipio": "Fuentidueña de Tajo", "clasificacion": "urbano-consolidado", "calificacion": "equipamiento", "version": "vigente", "fuente": "SIT-CAM WFS — UsoDelSuelo:VPLA_V_CLASIFICACION (https://idem.comunidad.madrid/geosrvg/ows)", "fecha_dato": "2026-05-12", "ambito": "24823", "_raw_CD_SIGLAS": "SG", "_raw_DS_CLASIF_GEN": "Sistemas Generales", "_raw_DS_CLASIF_DET": "Autovía A-3", "_raw_DS_DOCU": "NORMAS SUBSIDIARIAS", "_raw_DS_LEY": "CM Ley 4/1984, E RDL 1/1992", "_raw_FC_AC": "1994-06-23", "_raw_NM_AREA_M2": 158271.492868945, "_cam_code": "060" }, "geometry": { "type": "Polygon", "coordinates": [ [ [ -3.1901, 40.1404 ], [ -3.1941, 40.141 ], [ -3.1983, 40.141 ], [ -3.2001, 40.1409 ], [ -3.2002, 40.1405 ], [ -3.1955, 40.1407 ], [ -3.1916, 40.1403 ], [ -3.1892, 40.1398 ], [ -3.1873, 40.1392 ], [ -3.1841, 40.1379 ], [ -3.1802, 40.136 ], [ -3.1791, 40.1353 ], [ -3.1766, 40.1329 ], [ -3.1755, 40.1323 ], [ -3.1688, 40.1296 ], [ -3.168, 40.1291 ], [ -3.1654, 40.127 ], [ -3.163, 40.1237 ], [ -3.1619, 40.1229 ], [ -3.165, 40.1272 ], [ -3.1667, 40.1287 ], [ -3.1685, 40.1299 ], [ -3.1752, 40.1326 ], [ -3.1763, 40.1332 ], [ -3.1782, 40.1351 ], [ -3.1794, 40.136 ], [ -3.1838, 40.1382 ], [ -3.1871, 40.1395 ], [ -3.1901, 40.1404 ] ] ] } },
{ "type": "Feature", "properties": { "municipio": "Fuentidueña de Tajo", "clasificacion": "urbano-consolidado", "calificacion": "equipamiento", "version": "vigente", "fuente": "SIT-CAM WFS — UsoDelSuelo:VPLA_V_CLASIFICACION (https://idem.comunidad.madrid/geosrvg/ows)", "fecha_dato": "2026-05-12", "ambito": "24823", "_raw_CD_SIGLAS": "SG", "_raw_DS_CLASIF_GEN": "Sistemas Generales", "_raw_DS_CLASIF_DET": "Autovía A-3", "_raw_DS_DOCU": "NORMAS SUBSIDIARIAS", "_raw_DS_LEY": "CM Ley 4/1984, E RDL 1/1992", "_raw_FC_AC": "1994-06-23", "_raw_NM_AREA_M2": 213030.82992091301, "_cam_code": "060" }, "geometry": { "type": "Polygon", "coordinates": [ [ [ -3.1113, 40.0835 ], [ -3.111, 40.0847 ], [ -3.1132, 40.0857 ], [ -3.1217, 40.0912 ], [ -3.1248, 40.0934 ], [ -3.1282, 40.0961 ], [ -3.1318, 40.0984 ], [ -3.1354, 40.1019 ], [ -3.1418, 40.1098 ], [ -3.144, 40.1127 ], [ -3.1449, 40.1134 ], [ -3.1472, 40.1148 ], [ -3.1486, 40.1159 ], [ -3.1489, 40.1162 ], [ -3.15, 40.1184 ], [ -3.1505, 40.1184 ], [ -3.1497, 40.1167 ], [ -3.149, 40.1157 ], [ -3.1475, 40.1145 ], [ -3.1454, 40.1133 ], [ -3.1444, 40.1125 ], [ -3.1365, 40.1027 ], [ -3.1363, 40.1023 ], [ -3.1322, 40.0982 ], [ -3.1285, 40.0958 ], [ -3.1226, 40.0913 ], [ -3.1147, 40.0862 ], [ -3.1124, 40.0845 ], [ -3.1117, 40.0837 ], [ -3.1113, 40.0835 ] ] ] } },
{ "type": "Feature", "properties": { "municipio": "Fuentidueña de Tajo", "clasificacion": "urbano-consolidado", "calificacion": "equipamiento", "version": "vigente", "fuente": "SIT-CAM WFS — UsoDelSuelo:VPLA_V_CLASIFICACION (https://idem.comunidad.madrid/geosrvg/ows)", "fecha_dato": "2026-05-12", "ambito": "24823", "_raw_CD_SIGLAS": "SG", "_raw_DS_CLASIF_GEN": "Sistemas Generales", "_raw_DS_CLASIF_DET": "Autovía A-3", "_raw_DS_DOCU": "NORMAS SUBSIDIARIAS", "_raw_DS_LEY": "CM Ley 4/1984, E RDL 1/1992", "_raw_FC_AC": "1994-06-23", "_raw_NM_AREA_M2": 44755.039701868896, "_cam_code": "060" }, "geometry": { "type": "Polygon", "coordinates": [ [ [ -3.1534, 40.1216 ], [ -3.1565, 40.1221 ], [ -3.1591, 40.1223 ], [ -3.1604, 40.1226 ], [ -3.1616, 40.1232 ], [ -3.1615, 40.1227 ], [ -3.1601, 40.1222 ], [ -3.1584, 40.1219 ], [ -3.1562, 40.1217 ], [ -3.1556, 40.1209 ], [ -3.1547, 40.1216 ], [ -3.1536, 40.1214 ], [ -3.1536, 40.1213 ], [ -3.1528, 40.121 ], [ -3.1514, 40.12 ], [ -3.1508, 40.1191 ], [ -3.1502, 40.119 ], [ -3.1509, 40.1201 ], [ -3.1514, 40.1206 ], [ -3.1526, 40.1213 ], [ -3.1534, 40.1216 ] ] ] } },
{ "type": "Feature", "properties": { "municipio": "Fuentidueña de Tajo", "clasificacion": "no-urbanizable-protegido", "calificacion": "sin-asignar", "version": "vigente", "fuente": "SIT-CAM WFS — UsoDelSuelo:VPLA_V_CLASIFICACION (https://idem.comunidad.madrid/geosrvg/ows)", "fecha_dato": "2026-05-12", "ambito": "24823", "_raw_CD_SIGLAS": "SNUP", "_raw_DS_CLASIF_GEN": "Suelo No Urbanizable Protegido", "_raw_DS_CLASIF_DET": "Suelo No Urbanizable de Especial Protección de cauces y Riberas", "_raw_DS_DOCU": "NORMAS SUBSIDIARIAS", "_raw_DS_LEY": "CM Ley 4/1984, E RDL 1/1992", "_raw_FC_AC": "1994-06-23", "_raw_NM_AREA_M2": 153792.051098831, "_cam_code": "060" }, "geometry": { "type": "Polygon", "coordinates": [ [ [ -3.1562, 40.1014 ], [ -3.1563, 40.1021 ], [ -3.1561, 40.1029 ], [ -3.1551, 40.1057 ], [ -3.1545, 40.1067 ], [ -3.1513, 40.1082 ], [ -3.1505, 40.1087 ], [ -3.1496, 40.1094 ], [ -3.1492, 40.1101 ], [ -3.1504, 40.1109 ], [ -3.1514, 40.1118 ], [ -3.1522, 40.1123 ], [ -3.1537, 40.1129 ], [ -3.1545, 40.1134 ], [ -3.1549, 40.1138 ], [ -3.1554, 40.1135 ], [ -3.1542, 40.1126 ], [ -3.1534, 40.1124 ], [ -3.1534, 40.1123 ], [ -3.153, 40.1122 ], [ -3.152, 40.1116 ], [ -3.15, 40.1101 ], [ -3.1499, 40.1098 ], [ -3.15, 40.1095 ], [ -3.155, 40.1069 ], [ -3.1558, 40.1053 ], [ -3.1566, 40.1017 ], [ -3.1564, 40.1012 ], [ -3.1559, 40.1009 ], [ -3.1547, 40.1013 ], [ -3.1542, 40.1012 ], [ -3.1536, 40.1004 ], [ -3.1516, 40.0994 ], [ -3.1515, 40.0991 ], [ -3.1518, 40.0988 ], [ -3.1521, 40.0989 ], [ -3.153, 40.0981 ], [ -3.1535, 40.0979 ], [ -3.1545, 40.0978 ], [ -3.155, 40.0975 ], [ -3.1557, 40.0974 ], [ -3.1561, 40.0971 ], [ -3.1578, 40.0969 ], [ -3.1591, 40.0969 ], [ -3.1611, 40.0972 ], [ -3.1617, 40.0971 ], [ -3.1622, 40.0968 ], [ -3.1629, 40.0955 ], [ -3.1641, 40.0945 ], [ -3.1653, 40.093 ], [ -3.1664, 40.0911 ], [ -3.1661, 40.0907 ], [ -3.1656, 40.0918 ], [ -3.1645, 40.0934 ], [ -3.1637, 40.0944 ], [ -3.1629, 40.095 ], [ -3.1623, 40.0957 ], [ -3.162, 40.0966 ], [ -3.1615, 40.0969 ], [ -3.1588, 40.0966 ], [ -3.1552, 40.0969 ], [ -3.1545, 40.0971 ], [ -3.1522, 40.0983 ], [ -3.1517, 40.0984 ], [ -3.1511, 40.0992 ], [ -3.1511, 40.0994 ], [ -3.1514, 40.0997 ], [ -3.1529, 40.1003 ], [ -3.1534, 40.1007 ], [ -3.1536, 40.1012 ], [ -3.1539, 40.1014 ], [ -3.1544, 40.1016 ], [ -3.1548, 40.1016 ], [ -3.1559, 40.1012 ], [ -3.1562, 40.1014 ] ] ] } },
{ "type": "Feature", "properties": { "municipio": "Fuentidueña de Tajo", "clasificacion": "no-urbanizable-protegido", "calificacion": "sin-asignar", "version": "vigente", "fuente": "SIT-CAM WFS — UsoDelSuelo:VPLA_V_CLASIFICACION (https://idem.comunidad.madrid/geosrvg/ows)", "fecha_dato": "2026-05-12", "ambito": "24823", "_raw_CD_SIGLAS": "SNUP", "_raw_DS_CLASIF_GEN": "Suelo No Urbanizable Protegido", "_raw_DS_CLASIF_DET": "Suelo No Urbanizable de Especial Protección de cauces y Riberas", "_raw_DS_DOCU": "NORMAS SUBSIDIARIAS", "_raw_DS_LEY": "CM Ley 4/1984, E RDL 1/1992", "_raw_FC_AC": "1994-06-23", "_raw_NM_AREA_M2": 65806.870925271694, "_cam_code": "060" }, "geometry": { "type": "Polygon", "coordinates": [ [ [ -3.1523, 40.1195 ], [ -3.1542, 40.1197 ], [ -3.1546, 40.1193 ], [ -3.1548, 40.1194 ], [ -3.1556, 40.1191 ], [ -3.1563, 40.1186 ], [ -3.1568, 40.117 ], [ -3.1568, 40.1161 ], [ -3.1563, 40.1147 ], [ -3.1554, 40.1136 ], [ -3.1549, 40.1138 ], [ -3.1559, 40.115 ], [ -3.1562, 40.1156 ], [ -3.1562, 40.1163 ], [ -3.1556, 40.1184 ], [ -3.1552, 40.1187 ], [ -3.1543, 40.1188 ], [ -3.1535, 40.1187 ], [ -3.1518, 40.1182 ], [ -3.1505, 40.1184 ], [ -3.1508, 40.1191 ], [ -3.1509, 40.119 ], [ -3.1521, 40.119 ], [ -3.1523, 40.1195 ] ] ] } },
{ "type": "Feature", "properties": { "municipio": "Fuentidueña de Tajo", "clasificacion": "no-urbanizable-protegido", "calificacion": "sin-asignar", "version": "vigente", "fuente": "SIT-CAM WFS — UsoDelSuelo:VPLA_V_CLASIFICACION (https://idem.comunidad.madrid/geosrvg/ows)", "fecha_dato": "2026-05-12", "ambito": "24823", "_raw_CD_SIGLAS": "SNUP", "_raw_DS_CLASIF_GEN": "Suelo No Urbanizable Protegido", "_raw_DS_CLASIF_DET": "Suelo No Urbanizable de Especial Protección Por Interés Naturalístico", "_raw_DS_DOCU": "NORMAS SUBSIDIARIAS", "_raw_DS_LEY": "CM Ley 4/1984, E RDL 1/1992", "_raw_FC_AC": "1994-06-23", "_raw_NM_AREA_M2": 2489009.64104706, "_cam_code": "060" }, "geometry": { "type": "Polygon", "coordinates": [ [ [ -3.1494, 40.0917 ], [ -3.1499, 40.0949 ], [ -3.1517, 40.0971 ], [ -3.1517, 40.0984 ], [ -3.1522, 40.0983 ], [ -3.1545, 40.0971 ], [ -3.1572, 40.0966 ], [ -3.159, 40.0958 ], [ -3.16, 40.0948 ], [ -3.1602, 40.0942 ], [ -3.1608, 40.0935 ], [ -3.1611, 40.0929 ], [ -3.1618, 40.0922 ], [ -3.1629, 40.0923 ], [ -3.164, 40.0918 ], [ -3.1648, 40.0911 ], [ -3.1661, 40.0907 ], [ -3.1664, 40.0902 ], [ -3.1667, 40.0885 ], [ -3.1669, 40.0881 ], [ -3.1674, 40.0877 ], [ -3.168, 40.0864 ], [ -3.168, 40.0851 ], [ -3.1639, 40.0837 ], [ -3.1632, 40.0837 ], [ -3.1631, 40.082 ], [ -3.1628, 40.0812 ], [ -3.1626, 40.077 ], [ -3.1616, 40.0747 ], [ -3.1624, 40.0725 ], [ -3.1619, 40.0731 ], [ -3.1607, 40.0754 ], [ -3.1592, 40.0777 ], [ -3.1579, 40.0785 ], [ -3.1555, 40.0794 ], [ -3.1539, 40.0802 ], [ -3.1534, 40.0806 ], [ -3.1527, 40.0818 ], [ -3.1496, 40.0826 ], [ -3.1491, 40.0834 ], [ -3.1492, 40.0839 ], [ -3.1491, 40.0845 ], [ -3.148, 40.0869 ], [ -3.1479, 40.0896 ], [ -3.1483, 40.09 ], [ -3.1488, 40.0913 ], [ -3.1494, 40.0917 ] ] ] } },
{ "type": "Feature", "properties": { "municipio": "Fuentidueña de Tajo", "clasificacion": "no-urbanizable-protegido", "calificacion": "sin-asignar", "version": "vigente", "fuente": "SIT-CAM WFS — UsoDelSuelo:VPLA_V_CLASIFICACION (https://idem.comunidad.madrid/geosrvg/ows)", "fecha_dato": "2026-05-12", "ambito": "24823", "_raw_CD_SIGLAS": "SNUP", "_raw_DS_CLASIF_GEN": "Suelo No Urbanizable Protegido", "_raw_DS_CLASIF_DET": "Suelo No Urbanizable de Especial Protección Por Interés Naturalístico", "_raw_DS_DOCU": "NORMAS SUBSIDIARIAS", "_raw_DS_LEY": "CM Ley 4/1984, E RDL 1/1992", "_raw_FC_AC": "1994-06-23", "_raw_NM_AREA_M2": 188852.73882452099, "_cam_code": "060" }, "geometry": { "type": "Polygon", "coordinates": [ [ [ -3.1438, 40.0896 ], [ -3.1453, 40.0914 ], [ -3.1462, 40.0919 ], [ -3.1473, 40.0928 ], [ -3.1478, 40.0951 ], [ -3.1477, 40.0961 ], [ -3.1478, 40.0963 ], [ -3.1488, 40.0969 ], [ -3.1501, 40.0981 ], [ -3.1499, 40.0985 ], [ -3.1491, 40.0994 ], [ -3.1499, 40.1003 ], [ -3.1501, 40.1001 ], [ -3.1502, 40.0991 ], [ -3.1508, 40.0982 ], [ -3.1509, 40.0973 ], [ -3.149, 40.0951 ], [ -3.1488, 40.0926 ], [ -3.1486, 40.092 ], [ -3.148, 40.0917 ], [ -3.1475, 40.0903 ], [ -3.1471, 40.0898 ], [ -3.1471, 40.0882 ], [ -3.1438, 40.0896 ] ] ] } },
{ "type": "Feature", "properties": { "municipio": "Fuentidueña de Tajo", "clasificacion": "no-urbanizable-protegido", "calificacion": "sin-asignar", "version": "vigente", "fuente": "SIT-CAM WFS — UsoDelSuelo:VPLA_V_CLASIFICACION (https://idem.comunidad.madrid/geosrvg/ows)", "fecha_dato": "2026-05-12", "ambito": "24823", "_raw_CD_SIGLAS": "SNUP", "_raw_DS_CLASIF_GEN": "Suelo No Urbanizable Protegido", "_raw_DS_CLASIF_DET": "Suelo No Urbanizable de Especial Protección Por Interés Naturalístico", "_raw_DS_DOCU": "NORMAS SUBSIDIARIAS", "_raw_DS_LEY": "CM Ley 4/1984, E RDL 1/1992", "_raw_FC_AC": "1994-06-23", "_raw_NM_AREA_M2": 3421.8579885336198, "_cam_code": "060" }, "geometry": { "type": "Polygon", "coordinates": [ [ [ -3.1601, 40.1222 ], [ -3.1614, 40.1227 ], [ -3.1615, 40.1227 ], [ -3.1612, 40.1222 ], [ -3.1612, 40.1223 ], [ -3.1604, 40.122 ], [ -3.1601, 40.1222 ] ] ] } },
{ "type": "Feature", "properties": { "municipio": "Fuentidueña de Tajo", "clasificacion": "no-urbanizable-protegido", "calificacion": "sin-asignar", "version": "vigente", "fuente": "SIT-CAM WFS — UsoDelSuelo:VPLA_V_CLASIFICACION (https://idem.comunidad.madrid/geosrvg/ows)", "fecha_dato": "2026-05-12", "ambito": "24823", "_raw_CD_SIGLAS": "SNUP", "_raw_DS_CLASIF_GEN": "Suelo No Urbanizable Protegido", "_raw_DS_CLASIF_DET": "Suelo No Urbanizable de Especial Protección Por Interés Naturalístico", "_raw_DS_DOCU": "NORMAS SUBSIDIARIAS", "_raw_DS_LEY": "CM Ley 4/1984, E RDL 1/1992", "_raw_FC_AC": "1994-06-23", "_raw_NM_AREA_M2": 9346547.3472356703, "_cam_code": "060" }, "geometry": { "type": "Polygon", "coordinates": [ [ [ -3.1916, 40.1403 ], [ -3.1955, 40.1407 ], [ -3.2002, 40.1405 ], [ -3.2002, 40.1406 ], [ -3.2006, 40.1391 ], [ -3.2023, 40.1356 ], [ -3.2031, 40.1324 ], [ -3.2033, 40.1279 ], [ -3.2025, 40.1228 ], [ -3.2019, 40.1205 ], [ -3.203, 40.1181 ], [ -3.2038, 40.1169 ], [ -3.2045, 40.1154 ], [ -3.2044, 40.1124 ], [ -3.2046, 40.1093 ], [ -3.2023, 40.1068 ], [ -3.2011, 40.1062 ], [ -3.2006, 40.1061 ], [ -3.1997, 40.1054 ], [ -3.1992, 40.1053 ], [ -3.1982, 40.1044 ], [ -3.1968, 40.104 ], [ -3.1953, 40.1041 ], [ -3.1938, 40.1035 ], [ -3.1934, 40.1037 ], [ -3.1926, 40.1035 ], [ -3.192, 40.1031 ], [ -3.1918, 40.1031 ], [ -3.1901, 40.1041 ], [ -3.189, 40.105 ], [ -3.1889, 40.1053 ], [ -3.1886, 40.1056 ], [ -3.1872, 40.1061 ], [ -3.1859, 40.1074 ], [ -3.1821, 40.1082 ], [ -3.1811, 40.1086 ], [ -3.1793, 40.1103 ], [ -3.1769, 40.1121 ], [ -3.1756, 40.1126 ], [ -3.1739, 40.1136 ], [ -3.1731, 40.1143 ], [ -3.1728, 40.1148 ], [ -3.1708, 40.1152 ], [ -3.1702, 40.1155 ], [ -3.1704, 40.1155 ], [ -3.1701, 40.1157 ], [ -3.1702, 40.1158 ], [ -3.17, 40.1158 ], [ -3.1698, 40.1161 ], [ -3.1696, 40.1161 ], [ -3.1685, 40.117 ], [ -3.168, 40.1171 ], [ -3.168, 40.1173 ], [ -3.1678, 40.1173 ], [ -3.1671, 40.1179 ], [ -3.1671, 40.1181 ], [ -3.167, 40.1181 ], [ -3.1671, 40.1182 ], [ -3.167, 40.1182 ], [ -3.1674, 40.1186 ], [ -3.1669, 40.1189 ], [ -3.1666, 40.1187 ], [ -3.1665, 40.1188 ], [ -3.1662, 40.1187 ], [ -3.1662, 40.1189 ], [ -3.1653, 40.1193 ], [ -3.1652, 40.1192 ], [ -3.1649, 40.1193 ], [ -3.1649, 40.1192 ], [ -3.1647, 40.1193 ], [ -3.1646, 40.1192 ], [ -3.1641, 40.1195 ], [ -3.1636, 40.1202 ], [ -3.1638, 40.1215 ], [ -3.1647, 40.1212 ], [ -3.1653, 40.1222 ], [ -3.1642, 40.1224 ], [ -3.164, 40.122 ], [ -3.1634, 40.1219 ], [ -3.1634, 40.122 ], [ -3.1629, 40.1221 ], [ -3.1614, 40.1223 ], [ -3.1619, 40.1229 ], [ -3.163, 40.1237 ], [ -3.1645, 40.1258 ], [ -3.1662, 40.1258 ], [ -3.1671, 40.126 ], [ -3.1672, 40.1257 ], [ -3.1683, 40.1254 ], [ -3.1686, 40.1252 ], [ -3.1689, 40.1252 ], [ -3.1694, 40.1247 ], [ -3.1698, 40.124 ], [ -3.1704, 40.1244 ], [ -3.1715, 40.1258 ], [ -3.1725, 40.1265 ], [ -3.173, 40.1276 ], [ -3.1736, 40.1279 ], [ -3.174, 40.1283 ], [ -3.1741, 40.1289 ], [ -3.1748, 40.1295 ], [ -3.175, 40.1299 ], [ -3.1758, 40.1303 ], [ -3.1766, 40.1313 ], [ -3.1766, 40.1317 ], [ -3.1794, 40.1341 ], [ -3.1814, 40.1366 ], [ -3.186, 40.1387 ], [ -3.1892, 40.1398 ], [ -3.1916, 40.1403 ] ] ] } },
{ "type": "Feature", "properties": { "municipio": "Fuentidueña de Tajo", "clasificacion": "no-urbanizable-protegido", "calificacion": "sin-asignar", "version": "vigente", "fuente": "SIT-CAM WFS — UsoDelSuelo:VPLA_V_CLASIFICACION (https://idem.comunidad.madrid/geosrvg/ows)", "fecha_dato": "2026-05-12", "ambito": "24823", "_raw_CD_SIGLAS": "SNUP", "_raw_DS_CLASIF_GEN": "Suelo No Urbanizable Protegido", "_raw_DS_CLASIF_DET": "Suelo No Urbanizable de Especial Protección Por Interés Naturalístico", "_raw_DS_DOCU": "NORMAS SUBSIDIARIAS", "_raw_DS_LEY": "CM Ley 4/1984, E RDL 1/1992", "_raw_FC_AC": "1994-06-23", "_raw_NM_AREA_M2": 7638934.2772667501, "_cam_code": "060" }, "geometry": { "type": "Polygon", "coordinates": [ [ [ -3.1452, 40.157 ], [ -3.1466, 40.1578 ], [ -3.1478, 40.1595 ], [ -3.1498, 40.1615 ], [ -3.1517, 40.161 ], [ -3.1535, 40.159 ], [ -3.1587, 40.1556 ], [ -3.1603, 40.1558 ], [ -3.1663, 40.1554 ], [ -3.1669, 40.1558 ], [ -3.1669, 40.1554 ], [ -3.1688, 40.1555 ], [ -3.1719, 40.1549 ], [ -3.1728, 40.1543 ], [ -3.1741, 40.153 ], [ -3.1733, 40.1518 ], [ -3.1726, 40.1502 ], [ -3.1721, 40.1489 ], [ -3.1718, 40.1477 ], [ -3.1708, 40.1469 ], [ -3.1702, 40.1454 ], [ -3.1702, 40.1443 ], [ -3.17, 40.1429 ], [ -3.1692, 40.1415 ], [ -3.1689, 40.1398 ], [ -3.1685, 40.1389 ], [ -3.1678, 40.138 ], [ -3.1679, 40.1372 ], [ -3.1683, 40.1369 ], [ -3.1684, 40.1363 ], [ -3.1695, 40.1358 ], [ -3.1695, 40.1355 ], [ -3.1694, 40.1355 ], [ -3.1694, 40.1353 ], [ -3.1689, 40.1346 ], [ -3.1679, 40.1336 ], [ -3.1678, 40.133 ], [ -3.165, 40.1326 ], [ -3.1644, 40.1321 ], [ -3.1641, 40.1313 ], [ -3.1643, 40.1303 ], [ -3.1642, 40.1296 ], [ -3.1637, 40.1286 ], [ -3.163, 40.1256 ], [ -3.1619, 40.1243 ], [ -3.1616, 40.1232 ], [ -3.1604, 40.1226 ], [ -3.1594, 40.1224 ], [ -3.1585, 40.1229 ], [ -3.1584, 40.1231 ], [ -3.1583, 40.123 ], [ -3.1584, 40.1231 ], [ -3.1582, 40.1233 ], [ -3.1584, 40.1234 ], [ -3.158, 40.1235 ], [ -3.1574, 40.1241 ], [ -3.1573, 40.124 ], [ -3.1564, 40.125 ], [ -3.1561, 40.1248 ], [ -3.155, 40.1265 ], [ -3.1543, 40.1271 ], [ -3.1531, 40.1278 ], [ -3.1516, 40.1283 ], [ -3.1491, 40.132 ], [ -3.148, 40.1324 ], [ -3.1474, 40.1329 ], [ -3.1474, 40.1336 ], [ -3.1459, 40.1352 ], [ -3.1445, 40.1358 ], [ -3.141, 40.1378 ], [ -3.1401, 40.1393 ], [ -3.1389, 40.1405 ], [ -3.1393, 40.1418 ], [ -3.1391, 40.1423 ], [ -3.1389, 40.1459 ], [ -3.1397, 40.149 ], [ -3.1413, 40.1516 ], [ -3.1438, 40.1536 ], [ -3.1444, 40.1554 ], [ -3.1452, 40.157 ] ] ] } },
{ "type": "Feature", "properties": { "municipio": "Fuentidueña de Tajo", "clasificacion": "no-urbanizable-protegido", "calificacion": "sin-asignar", "version": "vigente", "fuente": "SIT-CAM WFS — UsoDelSuelo:VPLA_V_CLASIFICACION (https://idem.comunidad.madrid/geosrvg/ows)", "fecha_dato": "2026-05-12", "ambito": "24823", "_raw_CD_SIGLAS": "SNUP", "_raw_DS_CLASIF_GEN": "Suelo No Urbanizable Protegido", "_raw_DS_CLASIF_DET": "Suelo No Urbanizable de Especial Protección Por su Interés Agrícola", "_raw_DS_DOCU": "NORMAS SUBSIDIARIAS", "_raw_DS_LEY": "CM Ley 4/1984, E RDL 1/1992", "_raw_FC_AC": "1994-06-23", "_raw_NM_AREA_M2": 173172.518132839, "_cam_code": "060" }, "geometry": { "type": "Polygon", "coordinates": [ [ [ -3.1588, 40.0966 ], [ -3.1615, 40.0969 ], [ -3.162, 40.0966 ], [ -3.1623, 40.0957 ], [ -3.1629, 40.095 ], [ -3.1637, 40.0944 ], [ -3.1645, 40.0934 ], [ -3.1656, 40.0918 ], [ -3.1661, 40.0907 ], [ -3.1648, 40.0911 ], [ -3.164, 40.0918 ], [ -3.1629, 40.0923 ], [ -3.1618, 40.0922 ], [ -3.1611, 40.0929 ], [ -3.1608, 40.0935 ], [ -3.1602, 40.0942 ], [ -3.16, 40.0948 ], [ -3.159, 40.0958 ], [ -3.1572, 40.0966 ], [ -3.1561, 40.0968 ], [ -3.1573, 40.0968 ], [ -3.1588, 40.0966 ] ] ] } },
{ "type": "Feature", "properties": { "municipio": "Fuentidueña de Tajo", "clasificacion": "no-urbanizable-protegido", "calificacion": "sin-asignar", "version": "vigente", "fuente": "SIT-CAM WFS — UsoDelSuelo:VPLA_V_CLASIFICACION (https://idem.comunidad.madrid/geosrvg/ows)", "fecha_dato": "2026-05-12", "ambito": "24823", "_raw_CD_SIGLAS": "SNUP", "_raw_DS_CLASIF_GEN": "Suelo No Urbanizable Protegido", "_raw_DS_CLASIF_DET": "Suelo No Urbanizable de Especial Protección de cauces y Riberas", "_raw_DS_DOCU": "NORMAS SUBSIDIARIAS", "_raw_DS_LEY": "CM Ley 4/1984, E RDL 1/1992", "_raw_FC_AC": "1994-06-23", "_raw_NM_AREA_M2": 67873.697574409904, "_cam_code": "060" }, "geometry": { "type": "Polygon", "coordinates": [ [ [ -3.1453, 40.1275 ], [ -3.1467, 40.1275 ], [ -3.1476, 40.1273 ], [ -3.1485, 40.126 ], [ -3.1491, 40.1246 ], [ -3.1491, 40.1229 ], [ -3.1488, 40.1213 ], [ -3.148, 40.1194 ], [ -3.148, 40.1191 ], [ -3.1483, 40.1189 ], [ -3.1502, 40.119 ], [ -3.15, 40.1184 ], [ -3.1491, 40.1187 ], [ -3.148, 40.1187 ], [ -3.1477, 40.1189 ], [ -3.1476, 40.1192 ], [ -3.1477, 40.1197 ], [ -3.1484, 40.121 ], [ -3.1488, 40.1225 ], [ -3.1489, 40.1232 ], [ -3.1488, 40.1244 ], [ -3.1479, 40.1265 ], [ -3.1469, 40.1272 ], [ -3.1465, 40.1273 ], [ -3.1454, 40.1272 ], [ -3.1445, 40.1266 ], [ -3.1437, 40.1264 ], [ -3.1413, 40.1254 ], [ -3.1407, 40.1253 ], [ -3.139, 40.1255 ], [ -3.1372, 40.1247 ], [ -3.1361, 40.1247 ], [ -3.1355, 40.1251 ], [ -3.1341, 40.125 ], [ -3.134, 40.1251 ], [ -3.1343, 40.1253 ], [ -3.1351, 40.1253 ], [ -3.1359, 40.1252 ], [ -3.1367, 40.1248 ], [ -3.1373, 40.1249 ], [ -3.139, 40.1257 ], [ -3.141, 40.1256 ], [ -3.1448, 40.1271 ], [ -3.1453, 40.1275 ] ] ] } },
{ "type": "Feature", "properties": { "municipio": "Fuentidueña de Tajo", "clasificacion": "no-urbanizable-protegido", "calificacion": "sin-asignar", "version": "vigente", "fuente": "SIT-CAM WFS — UsoDelSuelo:VPLA_V_CLASIFICACION (https://idem.comunidad.madrid/geosrvg/ows)", "fecha_dato": "2026-05-12", "ambito": "24823", "_raw_CD_SIGLAS": "SNUP", "_raw_DS_CLASIF_GEN": "Suelo No Urbanizable Protegido", "_raw_DS_CLASIF_DET": "Suelo No Urbanizable de Especial Protección de Cauces y Riberas-Autovía A-3", "_raw_DS_DOCU": "NORMAS SUBSIDIARIAS", "_raw_DS_LEY": "CM Ley 4/1984, E RDL 1/1992", "_raw_FC_AC": "1994-06-23", "_raw_NM_AREA_M2": 2899.8650373533901, "_cam_code": "060" }, "geometry": { "type": "Polygon", "coordinates": [ [ [ -3.15, 40.1184 ], [ -3.1502, 40.119 ], [ -3.1508, 40.1191 ], [ -3.1505, 40.1184 ], [ -3.15, 40.1184 ] ] ] } },
{ "type": "Feature", "properties": { "municipio": "Fuentidueña de Tajo", "clasificacion": "no-urbanizable-protegido", "calificacion": "sin-asignar", "version": "vigente", "fuente": "SIT-CAM WFS — UsoDelSuelo:VPLA_V_CLASIFICACION (https://idem.comunidad.madrid/geosrvg/ows)", "fecha_dato": "2026-05-12", "ambito": "24823", "_raw_CD_SIGLAS": "SNUP", "_raw_DS_CLASIF_GEN": "Suelo No Urbanizable Protegido", "_raw_DS_CLASIF_DET": "Suelo No Urbanizable de Especial Protección de Cauces y Riberas-Vía Pecuaria", "_raw_DS_DOCU": "NORMAS SUBSIDIARIAS", "_raw_DS_LEY": "CM Ley 4/1984, E RDL 1/1992", "_raw_FC_AC": "1994-06-23", "_raw_NM_AREA_M2": 333.45259045671099, "_cam_code": "060" }, "geometry": { "type": "Polygon", "coordinates": [ [ [ -3.1554, 40.1135 ], [ -3.1553, 40.1136 ], [ -3.1549, 40.1138 ], [ -3.1554, 40.1136 ], [ -3.1554, 40.1135 ] ] ] } },
{ "type": "Feature", "properties": { "municipio": "Fuentidueña de Tajo", "clasificacion": "no-urbanizable-protegido", "calificacion": "sin-asignar", "version": "vigente", "fuente": "SIT-CAM WFS — UsoDelSuelo:VPLA_V_CLASIFICACION (https://idem.comunidad.madrid/geosrvg/ows)", "fecha_dato": "2026-05-12", "ambito": "24823", "_raw_CD_SIGLAS": "SNUP", "_raw_DS_CLASIF_GEN": "Suelo No Urbanizable Protegido", "_raw_DS_CLASIF_DET": "Suelo No Urbanizable de Especial Protección Por Interés Naturalístico", "_raw_DS_DOCU": "NORMAS SUBSIDIARIAS", "_raw_DS_LEY": "CM Ley 4/1984, E RDL 1/1992", "_raw_FC_AC": "1994-06-23", "_raw_NM_AREA_M2": 2157201.7770515801, "_cam_code": "060" }, "geometry": { "type": "Polygon", "coordinates": [ [ [ -3.1485, 40.0697 ], [ -3.1471, 40.0716 ], [ -3.1473, 40.072 ], [ -3.1488, 40.0727 ], [ -3.1492, 40.0731 ], [ -3.1492, 40.0742 ], [ -3.1499, 40.0755 ], [ -3.1503, 40.0759 ], [ -3.1504, 40.0765 ], [ -3.1498, 40.0772 ], [ -3.1495, 40.0778 ], [ -3.1494, 40.079 ], [ -3.1486, 40.0799 ], [ -3.148, 40.08 ], [ -3.1476, 40.0806 ], [ -3.1477, 40.0815 ], [ -3.1473, 40.0822 ], [ -3.1469, 40.0824 ], [ -3.1454, 40.0825 ], [ -3.145, 40.0827 ], [ -3.1449, 40.083 ], [ -3.1447, 40.0843 ], [ -3.1456, 40.0851 ], [ -3.1458, 40.0856 ], [ -3.1458, 40.086 ], [ -3.1471, 40.088 ], [ -3.1471, 40.0868 ], [ -3.1483, 40.0844 ], [ -3.1482, 40.0835 ], [ -3.1483, 40.0831 ], [ -3.149, 40.0821 ], [ -3.1522, 40.0813 ], [ -3.1526, 40.0803 ], [ -3.1533, 40.0797 ], [ -3.1551, 40.0788 ], [ -3.1556, 40.0787 ], [ -3.1575, 40.0779 ], [ -3.1586, 40.0772 ], [ -3.1599, 40.0752 ], [ -3.1603, 40.0742 ], [ -3.1615, 40.073 ], [ -3.1621, 40.0722 ], [ -3.1625, 40.0708 ], [ -3.1629, 40.0709 ], [ -3.162, 40.0705 ], [ -3.1612, 40.0692 ], [ -3.1612, 40.0677 ], [ -3.1616, 40.0649 ], [ -3.1607, 40.0647 ], [ -3.1577, 40.0645 ], [ -3.1571, 40.0648 ], [ -3.1564, 40.0648 ], [ -3.1564, 40.0647 ], [ -3.1527, 40.0657 ], [ -3.1496, 40.066 ], [ -3.1472, 40.0653 ], [ -3.1462, 40.0652 ], [ -3.1433, 40.0642 ], [ -3.142, 40.0635 ], [ -3.1411, 40.0632 ], [ -3.1351, 40.0625 ], [ -3.133, 40.0626 ], [ -3.1346, 40.063 ], [ -3.1355, 40.0634 ], [ -3.1375, 40.0652 ], [ -3.1379, 40.0653 ], [ -3.1387, 40.0652 ], [ -3.1396, 40.0655 ], [ -3.1404, 40.066 ], [ -3.1413, 40.068 ], [ -3.1446, 40.068 ], [ -3.1452, 40.0679 ], [ -3.1458, 40.068 ], [ -3.1469, 40.0688 ], [ -3.1485, 40.0697 ] ] ] } },
{ "type": "Feature", "properties": { "municipio": "Fuentidueña de Tajo", "clasificacion": "no-urbanizable-protegido", "calificacion": "sin-asignar", "version": "vigente", "fuente": "SIT-CAM WFS — UsoDelSuelo:VPLA_V_CLASIFICACION (https://idem.comunidad.madrid/geosrvg/ows)", "fecha_dato": "2026-05-12", "ambito": "24823", "_raw_CD_SIGLAS": "SNUP", "_raw_DS_CLASIF_GEN": "Suelo No Urbanizable Protegido", "_raw_DS_CLASIF_DET": "Suelo No Urbanizable de Especial Protección Por su Interés Agrícola", "_raw_DS_DOCU": "NORMAS SUBSIDIARIAS", "_raw_DS_LEY": "CM Ley 4/1984, E RDL 1/1992", "_raw_FC_AC": "1994-06-23", "_raw_NM_AREA_M2": 455939.11286914599, "_cam_code": "060" }, "geometry": { "type": "Polygon", "coordinates": [ [ [ -3.15, 40.1163 ], [ -3.1512, 40.1171 ], [ -3.1518, 40.1182 ], [ -3.1535, 40.1187 ], [ -3.1543, 40.1188 ], [ -3.1552, 40.1187 ], [ -3.1556, 40.1184 ], [ -3.1558, 40.1179 ], [ -3.1562, 40.1163 ], [ -3.1562, 40.1156 ], [ -3.1559, 40.115 ], [ -3.1549, 40.1138 ], [ -3.1543, 40.1141 ], [ -3.1539, 40.114 ], [ -3.1538, 40.1137 ], [ -3.1522, 40.1129 ], [ -3.1511, 40.1121 ], [ -3.1486, 40.1107 ], [ -3.1484, 40.1103 ], [ -3.1486, 40.1097 ], [ -3.1477, 40.1106 ], [ -3.1471, 40.1107 ], [ -3.147, 40.111 ], [ -3.1468, 40.111 ], [ -3.1462, 40.1117 ], [ -3.1457, 40.112 ], [ -3.145, 40.1121 ], [ -3.1445, 40.1126 ], [ -3.1454, 40.1133 ], [ -3.1485, 40.1152 ], [ -3.1494, 40.1162 ], [ -3.1505, 40.1184 ], [ -3.1507, 40.1183 ], [ -3.1498, 40.1165 ], [ -3.15, 40.1163 ] ] ] } },
{ "type": "Feature", "properties": { "municipio": "Fuentidueña de Tajo", "clasificacion": "no-urbanizable-protegido", "calificacion": "sin-asignar", "version": "vigente", "fuente": "SIT-CAM WFS — UsoDelSuelo:VPLA_V_CLASIFICACION (https://idem.comunidad.madrid/geosrvg/ows)", "fecha_dato": "2026-05-12", "ambito": "24823", "_raw_CD_SIGLAS": "SNUP", "_raw_DS_CLASIF_GEN": "Suelo No Urbanizable Protegido", "_raw_DS_CLASIF_DET": "Suelo No Urbanizable de Especial Protección Por su Interés Agrícola", "_raw_DS_DOCU": "NORMAS SUBSIDIARIAS", "_raw_DS_LEY": "CM Ley 4/1984, E RDL 1/1992", "_raw_FC_AC": "1994-06-23", "_raw_NM_AREA_M2": 3081.7112814584102, "_cam_code": "060" }, "geometry": { "type": "Polygon", "coordinates": [ [ [ -3.1522, 40.1206 ], [ -3.1533, 40.1212 ], [ -3.1527, 40.1206 ], [ -3.1522, 40.1206 ], [ -3.1522, 40.1205 ], [ -3.1521, 40.1205 ], [ -3.152, 40.1205 ], [ -3.152, 40.1204 ], [ -3.1515, 40.12 ], [ -3.1509, 40.119 ], [ -3.1508, 40.1191 ], [ -3.1514, 40.12 ], [ -3.1517, 40.1202 ], [ -3.1519, 40.1204 ], [ -3.1522, 40.1206 ] ] ] } },
{ "type": "Feature", "properties": { "municipio": "Fuentidueña de Tajo", "clasificacion": "no-urbanizable-protegido", "calificacion": "sin-asignar", "version": "vigente", "fuente": "SIT-CAM WFS — UsoDelSuelo:VPLA_V_CLASIFICACION (https://idem.comunidad.madrid/geosrvg/ows)", "fecha_dato": "2026-05-12", "ambito": "24823", "_raw_CD_SIGLAS": "SNUP", "_raw_DS_CLASIF_GEN": "Suelo No Urbanizable Protegido", "_raw_DS_CLASIF_DET": "Suelo No Urbanizable de Especial Protección Por su Interés Agrícola", "_raw_DS_DOCU": "NORMAS SUBSIDIARIAS", "_raw_DS_LEY": "CM Ley 4/1984, E RDL 1/1992", "_raw_FC_AC": "1994-06-23", "_raw_NM_AREA_M2": 331971.43092441099, "_cam_code": "060" }, "geometry": { "type": "Polygon", "coordinates": [ [ [ -3.1505, 40.1011 ], [ -3.1503, 40.1021 ], [ -3.1507, 40.1054 ], [ -3.1506, 40.1068 ], [ -3.1496, 40.1094 ], [ -3.1513, 40.1082 ], [ -3.1545, 40.1067 ], [ -3.1551, 40.1057 ], [ -3.1563, 40.1021 ], [ -3.1563, 40.1016 ], [ -3.1559, 40.1012 ], [ -3.1548, 40.1016 ], [ -3.1544, 40.1016 ], [ -3.1536, 40.1012 ], [ -3.1534, 40.1007 ], [ -3.1529, 40.1003 ], [ -3.1514, 40.0997 ], [ -3.1512, 40.1004 ], [ -3.1508, 40.1006 ], [ -3.1505, 40.1011 ] ] ] } },
{ "type": "Feature", "properties": { "municipio": "Fuentidueña de Tajo", "clasificacion": "no-urbanizable-protegido", "calificacion": "sin-asignar", "version": "vigente", "fuente": "SIT-CAM WFS — UsoDelSuelo:VPLA_V_CLASIFICACION (https://idem.comunidad.madrid/geosrvg/ows)", "fecha_dato": "2026-05-12", "ambito": "24823", "_raw_CD_SIGLAS": "SNUP", "_raw_DS_CLASIF_GEN": "Suelo No Urbanizable Protegido", "_raw_DS_CLASIF_DET": "Suelo No Urbanizable de Especial Protección Por su Interés Agrícola", "_raw_DS_DOCU": "NORMAS SUBSIDIARIAS", "_raw_DS_LEY": "CM Ley 4/1984, E RDL 1/1992", "_raw_FC_AC": "1994-06-23", "_raw_NM_AREA_M2": 7058296.1485805996, "_cam_code": "060" }, "geometry": { "type": "Polygon", "coordinates": [ [ [ -3.1635, 40.1158 ], [ -3.1624, 40.1164 ], [ -3.1643, 40.1155 ], [ -3.1649, 40.1151 ], [ -3.1716, 40.113 ], [ -3.1737, 40.1119 ], [ -3.1746, 40.1086 ], [ -3.1793, 40.1059 ], [ -3.1823, 40.1031 ], [ -3.1853, 40.1021 ], [ -3.186, 40.1014 ], [ -3.1866, 40.101 ], [ -3.189, 40.0997 ], [ -3.1904, 40.0975 ], [ -3.1912, 40.0968 ], [ -3.1931, 40.0944 ], [ -3.1927, 40.0931 ], [ -3.1941, 40.0925 ], [ -3.1946, 40.091 ], [ -3.195, 40.0908 ], [ -3.1965, 40.0911 ], [ -3.1968, 40.0908 ], [ -3.1968, 40.0901 ], [ -3.1974, 40.0895 ], [ -3.1979, 40.0893 ], [ -3.1985, 40.0892 ], [ -3.1995, 40.0899 ], [ -3.2001, 40.0898 ], [ -3.2002, 40.0887 ], [ -3.2007, 40.0881 ], [ -3.201, 40.0856 ], [ -3.1992, 40.0853 ], [ -3.1982, 40.0854 ], [ -3.1968, 40.0862 ], [ -3.1959, 40.087 ], [ -3.1948, 40.0869 ], [ -3.192, 40.0857 ], [ -3.1915, 40.0853 ], [ -3.1913, 40.0849 ], [ -3.1898, 40.0834 ], [ -3.188, 40.082 ], [ -3.1874, 40.0817 ], [ -3.1858, 40.0817 ], [ -3.1844, 40.0834 ], [ -3.1839, 40.0853 ], [ -3.1835, 40.0856 ], [ -3.183, 40.0855 ], [ -3.1808, 40.0843 ], [ -3.1801, 40.0843 ], [ -3.1795, 40.0845 ], [ -3.1777, 40.0855 ], [ -3.1762, 40.087 ], [ -3.1761, 40.0872 ], [ -3.1762, 40.0875 ], [ -3.1775, 40.0877 ], [ -3.1786, 40.0881 ], [ -3.1808, 40.088 ], [ -3.1811, 40.0883 ], [ -3.1806, 40.0888 ], [ -3.1804, 40.0892 ], [ -3.1804, 40.0895 ], [ -3.1806, 40.0898 ], [ -3.1806, 40.0903 ], [ -3.1798, 40.091 ], [ -3.1796, 40.0914 ], [ -3.1787, 40.0918 ], [ -3.1783, 40.0922 ], [ -3.1776, 40.0922 ], [ -3.1767, 40.0917 ], [ -3.1767, 40.0916 ], [ -3.1763, 40.0915 ], [ -3.1763, 40.0914 ], [ -3.1748, 40.0915 ], [ -3.1726, 40.0909 ], [ -3.1702, 40.0906 ], [ -3.1676, 40.0907 ], [ -3.1664, 40.0911 ], [ -3.1648, 40.0937 ], [ -3.1641, 40.0945 ], [ -3.1629, 40.0955 ], [ -3.1622, 40.0968 ], [ -3.1617, 40.0971 ], [ -3.1611, 40.0972 ], [ -3.1591, 40.0969 ], [ -3.1578, 40.0969 ], [ -3.1561, 40.0971 ], [ -3.1557, 40.0974 ], [ -3.155, 40.0975 ], [ -3.1545, 40.0978 ], [ -3.1535, 40.0979 ], [ -3.153, 40.0981 ], [ -3.1521, 40.0989 ], [ -3.1518, 40.0988 ], [ -3.1515, 40.0991 ], [ -3.1516, 40.0994 ], [ -3.1536, 40.1004 ], [ -3.1542, 40.1012 ], [ -3.1547, 40.1013 ], [ -3.1559, 40.1009 ], [ -3.1564, 40.1012 ], [ -3.1566, 40.1017 ], [ -3.1558, 40.1053 ], [ -3.155, 40.1069 ], [ -3.15, 40.1095 ], [ -3.1499, 40.1098 ], [ -3.15, 40.1101 ], [ -3.1511, 40.1109 ], [ -3.1513, 40.1107 ], [ -3.1521, 40.1107 ], [ -3.1528, 40.111 ], [ -3.1535, 40.1105 ], [ -3.1546, 40.1118 ], [ -3.1547, 40.1122 ], [ -3.156, 40.1134 ], [ -3.1561, 40.1137 ], [ -3.1564, 40.1138 ], [ -3.1588, 40.116 ], [ -3.1588, 40.1159 ], [ -3.1631, 40.1142 ], [ -3.1648, 40.112 ], [ -3.1656, 40.1125 ], [ -3.1662, 40.1119 ], [ -3.1669, 40.1125 ], [ -3.1674, 40.1132 ], [ -3.1685, 40.1132 ], [ -3.1687, 40.1133 ], [ -3.1685, 40.1133 ], [ -3.1671, 40.1141 ], [ -3.165, 40.115 ], [ -3.1649, 40.1151 ], [ -3.1648, 40.1152 ], [ -3.1647, 40.1152 ], [ -3.1646, 40.1152 ], [ -3.1635, 40.1158 ] ] ] } },
{ "type": "Feature", "properties": { "municipio": "Fuentidueña de Tajo", "clasificacion": "no-urbanizable-protegido", "calificacion": "sin-asignar", "version": "vigente", "fuente": "SIT-CAM WFS — UsoDelSuelo:VPLA_V_CLASIFICACION (https://idem.comunidad.madrid/geosrvg/ows)", "fecha_dato": "2026-05-12", "ambito": "24823", "_raw_CD_SIGLAS": "SNUP", "_raw_DS_CLASIF_GEN": "Suelo No Urbanizable Protegido", "_raw_DS_CLASIF_DET": "Suelo No Urbanizable de Especial Protección Por su Interés Agrícola", "_raw_DS_DOCU": "NORMAS SUBSIDIARIAS", "_raw_DS_LEY": "CM Ley 4/1984, E RDL 1/1992", "_raw_FC_AC": "1994-06-23", "_raw_NM_AREA_M2": 1148311.1688149699, "_cam_code": "060" }, "geometry": { "type": "Polygon", "coordinates": [ [ [ -3.1413, 40.1254 ], [ -3.1437, 40.1264 ], [ -3.1445, 40.1266 ], [ -3.1454, 40.1272 ], [ -3.1465, 40.1273 ], [ -3.1469, 40.1272 ], [ -3.1479, 40.1265 ], [ -3.1488, 40.1244 ], [ -3.1489, 40.1232 ], [ -3.1488, 40.1225 ], [ -3.1484, 40.121 ], [ -3.1477, 40.1197 ], [ -3.1476, 40.1192 ], [ -3.1477, 40.1189 ], [ -3.148, 40.1187 ], [ -3.1491, 40.1187 ], [ -3.15, 40.1184 ], [ -3.1489, 40.1162 ], [ -3.1486, 40.1159 ], [ -3.1472, 40.1148 ], [ -3.1449, 40.1134 ], [ -3.1441, 40.1134 ], [ -3.1427, 40.1137 ], [ -3.1421, 40.1137 ], [ -3.1423, 40.1145 ], [ -3.141, 40.1177 ], [ -3.1405, 40.1183 ], [ -3.1383, 40.1198 ], [ -3.1376, 40.1205 ], [ -3.1357, 40.1218 ], [ -3.1356, 40.1226 ], [ -3.1348, 40.1244 ], [ -3.1341, 40.125 ], [ -3.1355, 40.1251 ], [ -3.1361, 40.1247 ], [ -3.1372, 40.1247 ], [ -3.139, 40.1255 ], [ -3.1407, 40.1253 ], [ -3.1413, 40.1254 ] ] ] } },
{ "type": "Feature", "properties": { "municipio": "Fuentidueña de Tajo", "clasificacion": "no-urbanizable-protegido", "calificacion": "sin-asignar", "version": "vigente", "fuente": "SIT-CAM WFS — UsoDelSuelo:VPLA_V_CLASIFICACION (https://idem.comunidad.madrid/geosrvg/ows)", "fecha_dato": "2026-05-12", "ambito": "24823", "_raw_CD_SIGLAS": "SNUP", "_raw_DS_CLASIF_GEN": "Suelo No Urbanizable Protegido", "_raw_DS_CLASIF_DET": "Suelo No Urbanizable de Especial Protección Por su Interés Agrícola", "_raw_DS_DOCU": "NORMAS SUBSIDIARIAS", "_raw_DS_LEY": "CM Ley 4/1984, E RDL 1/1992", "_raw_FC_AC": "1994-06-23", "_raw_NM_AREA_M2": 2227122.7302882001, "_cam_code": "060" }, "geometry": { "type": "Polygon", "coordinates": [ [ [ -3.129, 40.1273 ], [ -3.1309, 40.1296 ], [ -3.133, 40.1329 ], [ -3.1336, 40.1334 ], [ -3.1379, 40.1384 ], [ -3.1384, 40.1391 ], [ -3.1383, 40.1391 ], [ -3.1389, 40.1405 ], [ -3.1401, 40.1393 ], [ -3.141, 40.1378 ], [ -3.1445, 40.1358 ], [ -3.1459, 40.1352 ], [ -3.1474, 40.1336 ], [ -3.1474, 40.1329 ], [ -3.148, 40.1324 ], [ -3.1491, 40.132 ], [ -3.1516, 40.1283 ], [ -3.1531, 40.1278 ], [ -3.1543, 40.1271 ], [ -3.155, 40.1265 ], [ -3.1557, 40.1253 ], [ -3.157, 40.1239 ], [ -3.1569, 40.1238 ], [ -3.1578, 40.1231 ], [ -3.1565, 40.1221 ], [ -3.1544, 40.1218 ], [ -3.154, 40.122 ], [ -3.1533, 40.122 ], [ -3.1527, 40.1218 ], [ -3.1526, 40.1213 ], [ -3.1514, 40.1206 ], [ -3.1509, 40.1201 ], [ -3.1502, 40.119 ], [ -3.1483, 40.1189 ], [ -3.148, 40.1191 ], [ -3.148, 40.1194 ], [ -3.149, 40.122 ], [ -3.1491, 40.1246 ], [ -3.1485, 40.126 ], [ -3.1476, 40.1273 ], [ -3.1467, 40.1275 ], [ -3.1453, 40.1275 ], [ -3.1448, 40.1271 ], [ -3.141, 40.1256 ], [ -3.139, 40.1257 ], [ -3.1373, 40.1249 ], [ -3.1367, 40.1248 ], [ -3.1359, 40.1252 ], [ -3.1351, 40.1253 ], [ -3.1343, 40.1253 ], [ -3.134, 40.1251 ], [ -3.1313, 40.1254 ], [ -3.1294, 40.1258 ], [ -3.1279, 40.1263 ], [ -3.129, 40.1273 ] ], [ [ -3.1534, 40.1234 ], [ -3.1531, 40.1235 ], [ -3.1527, 40.1231 ], [ -3.1535, 40.1225 ], [ -3.1544, 40.1224 ], [ -3.1534, 40.1234 ] ] ] } },
{ "type": "Feature", "properties": { "municipio": "Fuentidueña de Tajo", "clasificacion": "no-urbanizable-protegido", "calificacion": "sin-asignar", "version": "vigente", "fuente": "SIT-CAM WFS — UsoDelSuelo:VPLA_V_CLASIFICACION (https://idem.comunidad.madrid/geosrvg/ows)", "fecha_dato": "2026-05-12", "ambito": "24823", "_raw_CD_SIGLAS": "SNUP", "_raw_DS_CLASIF_GEN": "Suelo No Urbanizable Protegido", "_raw_DS_CLASIF_DET": "Vía Pecuaria", "_raw_DS_DOCU": "NORMAS SUBSIDIARIAS", "_raw_DS_LEY": "CM Ley 4/1984, E RDL 1/1992", "_raw_FC_AC": "1994-06-23", "_raw_NM_AREA_M2": 406504.35789024999, "_cam_code": "060" }, "geometry": { "type": "Polygon", "coordinates": [ [ [ -3.1625, 40.0708 ], [ -3.1621, 40.0722 ], [ -3.1615, 40.073 ], [ -3.1603, 40.0742 ], [ -3.1599, 40.0752 ], [ -3.1586, 40.0772 ], [ -3.1575, 40.0779 ], [ -3.1556, 40.0787 ], [ -3.1551, 40.0788 ], [ -3.1533, 40.0797 ], [ -3.1526, 40.0803 ], [ -3.1522, 40.0813 ], [ -3.149, 40.0821 ], [ -3.1483, 40.0831 ], [ -3.1482, 40.0835 ], [ -3.1483, 40.0844 ], [ -3.1471, 40.0868 ], [ -3.1471, 40.0898 ], [ -3.1475, 40.0903 ], [ -3.148, 40.0917 ], [ -3.1486, 40.092 ], [ -3.1489, 40.0933 ], [ -3.149, 40.0951 ], [ -3.1509, 40.0973 ], [ -3.1508, 40.0982 ], [ -3.1502, 40.0991 ], [ -3.1501, 40.1001 ], [ -3.1497, 40.1008 ], [ -3.1494, 40.102 ], [ -3.1497, 40.1039 ], [ -3.1497, 40.1048 ], [ -3.1498, 40.1049 ], [ -3.1497, 40.1067 ], [ -3.1495, 40.1075 ], [ -3.1488, 40.1089 ], [ -3.1484, 40.1103 ], [ -3.1486, 40.1107 ], [ -3.1511, 40.1121 ], [ -3.1522, 40.1129 ], [ -3.1538, 40.1137 ], [ -3.1539, 40.114 ], [ -3.1543, 40.1141 ], [ -3.1549, 40.1138 ], [ -3.1545, 40.1134 ], [ -3.1537, 40.1129 ], [ -3.1522, 40.1123 ], [ -3.1492, 40.1101 ], [ -3.1496, 40.1094 ], [ -3.1506, 40.1068 ], [ -3.1507, 40.1054 ], [ -3.1503, 40.102 ], [ -3.1505, 40.1011 ], [ -3.1508, 40.1006 ], [ -3.1512, 40.1004 ], [ -3.1514, 40.0997 ], [ -3.1511, 40.0994 ], [ -3.1511, 40.0992 ], [ -3.1517, 40.0984 ], [ -3.1517, 40.0971 ], [ -3.1499, 40.0949 ], [ -3.1494, 40.0917 ], [ -3.1488, 40.0913 ], [ -3.1483, 40.09 ], [ -3.1479, 40.0896 ], [ -3.148, 40.0869 ], [ -3.1491, 40.0845 ], [ -3.1492, 40.0839 ], [ -3.1491, 40.0834 ], [ -3.1496, 40.0826 ], [ -3.1527, 40.0818 ], [ -3.1534, 40.0806 ], [ -3.1539, 40.0802 ], [ -3.1555, 40.0794 ], [ -3.1579, 40.0785 ], [ -3.1592, 40.0777 ], [ -3.1607, 40.0754 ], [ -3.1619, 40.0731 ], [ -3.1624, 40.0725 ], [ -3.1629, 40.0709 ], [ -3.1628, 40.0708 ], [ -3.1625, 40.0708 ] ] ] } },
{ "type": "Feature", "properties": { "municipio": "Fuentidueña de Tajo", "clasificacion": "no-urbanizable-protegido", "calificacion": "sin-asignar", "version": "vigente", "fuente": "SIT-CAM WFS — UsoDelSuelo:VPLA_V_CLASIFICACION (https://idem.comunidad.madrid/geosrvg/ows)", "fecha_dato": "2026-05-12", "ambito": "24823", "_raw_CD_SIGLAS": "SNUP", "_raw_DS_CLASIF_GEN": "Suelo No Urbanizable Protegido", "_raw_DS_CLASIF_DET": "Vía Pecuaria", "_raw_DS_DOCU": "NORMAS SUBSIDIARIAS", "_raw_DS_LEY": "CM Ley 4/1984, E RDL 1/1992", "_raw_FC_AC": "1994-06-23", "_raw_NM_AREA_M2": 93607.174215984705, "_cam_code": "060" }, "geometry": { "type": "Polygon", "coordinates": [ [ [ -3.1606, 40.1212 ], [ -3.1609, 40.122 ], [ -3.161, 40.1221 ], [ -3.1612, 40.1222 ], [ -3.1612, 40.1222 ], [ -3.1613, 40.1222 ], [ -3.1613, 40.1222 ], [ -3.1613, 40.1223 ], [ -3.1614, 40.1226 ], [ -3.1619, 40.1229 ], [ -3.1614, 40.1223 ], [ -3.1614, 40.1223 ], [ -3.1611, 40.122 ], [ -3.161, 40.1219 ], [ -3.1609, 40.1218 ], [ -3.1607, 40.1212 ], [ -3.1612, 40.121 ], [ -3.1612, 40.1211 ], [ -3.1612, 40.121 ], [ -3.1619, 40.1206 ], [ -3.1624, 40.1205 ], [ -3.163, 40.1206 ], [ -3.1633, 40.1203 ], [ -3.1632, 40.1198 ], [ -3.1631, 40.1198 ], [ -3.1634, 40.1195 ], [ -3.1635, 40.1194 ], [ -3.1635, 40.1192 ], [ -3.1636, 40.1192 ], [ -3.1637, 40.1189 ], [ -3.1637, 40.1189 ], [ -3.1637, 40.1189 ], [ -3.1637, 40.1189 ], [ -3.1637, 40.1188 ], [ -3.1637, 40.1188 ], [ -3.1637, 40.1188 ], [ -3.1637, 40.1187 ], [ -3.1637, 40.1187 ], [ -3.1637, 40.1186 ], [ -3.1637, 40.1186 ], [ -3.1637, 40.1185 ], [ -3.1637, 40.1184 ], [ -3.1637, 40.1183 ], [ -3.1639, 40.1181 ], [ -3.1639, 40.1181 ], [ -3.164, 40.1181 ], [ -3.1645, 40.1181 ], [ -3.1645, 40.118 ], [ -3.1652, 40.1179 ], [ -3.1652, 40.1178 ], [ -3.1652, 40.1178 ], [ -3.1653, 40.1178 ], [ -3.1653, 40.1178 ], [ -3.1653, 40.1178 ], [ -3.1653, 40.1178 ], [ -3.1656, 40.1177 ], [ -3.1656, 40.1177 ], [ -3.1658, 40.1177 ], [ -3.1663, 40.1175 ], [ -3.1681, 40.1164 ], [ -3.1683, 40.1164 ], [ -3.1691, 40.116 ], [ -3.1691, 40.1159 ], [ -3.17, 40.1155 ], [ -3.1703, 40.1155 ], [ -3.1708, 40.1152 ], [ -3.1728, 40.1148 ], [ -3.1731, 40.1143 ], [ -3.1739, 40.1136 ], [ -3.1756, 40.1126 ], [ -3.1769, 40.1121 ], [ -3.1793, 40.1103 ], [ -3.1811, 40.1086 ], [ -3.1821, 40.1082 ], [ -3.1859, 40.1074 ], [ -3.1872, 40.1061 ], [ -3.1886, 40.1056 ], [ -3.1889, 40.1053 ], [ -3.189, 40.105 ], [ -3.1908, 40.1036 ], [ -3.1912, 40.1035 ], [ -3.1918, 40.1031 ], [ -3.1925, 40.1029 ], [ -3.1932, 40.1024 ], [ -3.1939, 40.1022 ], [ -3.1945, 40.1018 ], [ -3.1948, 40.1018 ], [ -3.1954, 40.1015 ], [ -3.1956, 40.1012 ], [ -3.1964, 40.1008 ], [ -3.198, 40.1003 ], [ -3.1996, 40.0995 ], [ -3.2014, 40.0979 ], [ -3.2013, 40.0976 ], [ -3.2012, 40.0978 ], [ -3.1987, 40.0997 ], [ -3.197, 40.1003 ], [ -3.1958, 40.1009 ], [ -3.1951, 40.1014 ], [ -3.1931, 40.1022 ], [ -3.1925, 40.1027 ], [ -3.1913, 40.1031 ], [ -3.1902, 40.1037 ], [ -3.1893, 40.1046 ], [ -3.189, 40.1047 ], [ -3.1883, 40.1055 ], [ -3.187, 40.106 ], [ -3.1857, 40.1073 ], [ -3.1826, 40.1079 ], [ -3.1809, 40.1085 ], [ -3.1789, 40.1104 ], [ -3.1766, 40.1121 ], [ -3.1748, 40.1127 ], [ -3.1737, 40.1135 ], [ -3.1727, 40.1146 ], [ -3.1708, 40.115 ], [ -3.1702, 40.1154 ], [ -3.1693, 40.1157 ], [ -3.1691, 40.1159 ], [ -3.1672, 40.1168 ], [ -3.1671, 40.117 ], [ -3.1664, 40.1174 ], [ -3.1657, 40.1176 ], [ -3.1657, 40.1176 ], [ -3.1657, 40.1177 ], [ -3.1655, 40.1177 ], [ -3.1654, 40.1177 ], [ -3.164, 40.1181 ], [ -3.164, 40.1181 ], [ -3.1639, 40.1181 ], [ -3.1637, 40.1181 ], [ -3.1636, 40.1182 ], [ -3.1637, 40.1182 ], [ -3.1637, 40.1183 ], [ -3.1637, 40.1183 ], [ -3.1637, 40.1183 ], [ -3.1637, 40.1183 ], [ -3.1637, 40.1183 ], [ -3.1637, 40.1184 ], [ -3.1637, 40.1184 ], [ -3.1637, 40.1184 ], [ -3.1637, 40.1184 ], [ -3.1637, 40.1186 ], [ -3.1636, 40.1187 ], [ -3.1634, 40.1195 ], [ -3.163, 40.1198 ], [ -3.1632, 40.1199 ], [ -3.1631, 40.1199 ], [ -3.1632, 40.1203 ], [ -3.163, 40.1205 ], [ -3.1626, 40.1204 ], [ -3.1619, 40.1205 ], [ -3.1615, 40.1207 ], [ -3.1615, 40.1208 ], [ -3.1607, 40.1211 ], [ -3.1597, 40.1202 ], [ -3.1569, 40.1197 ], [ -3.1568, 40.1188 ], [ -3.1571, 40.1184 ], [ -3.1571, 40.1184 ], [ -3.1571, 40.1184 ], [ -3.1571, 40.1184 ], [ -3.1571, 40.1183 ], [ -3.1571, 40.1183 ], [ -3.1571, 40.1183 ], [ -3.1571, 40.1182 ], [ -3.1571, 40.1182 ], [ -3.1571, 40.1182 ], [ -3.1571, 40.1181 ], [ -3.1571, 40.1179 ], [ -3.1578, 40.1176 ], [ -3.1576, 40.1175 ], [ -3.1574, 40.1171 ], [ -3.1575, 40.117 ], [ -3.1572, 40.1167 ], [ -3.157, 40.1156 ], [ -3.1569, 40.1156 ], [ -3.1567, 40.1149 ], [ -3.1563, 40.1144 ], [ -3.156, 40.1137 ], [ -3.1557, 40.1135 ], [ -3.1554, 40.1135 ], [ -3.1554, 40.1136 ], [ -3.1558, 40.1136 ], [ -3.1564, 40.1146 ], [ -3.157, 40.1159 ], [ -3.157, 40.1166 ], [ -3.1574, 40.1174 ], [ -3.1573, 40.1177 ], [ -3.157, 40.1179 ], [ -3.1571, 40.1182 ], [ -3.1568, 40.1185 ], [ -3.1567, 40.1195 ], [ -3.1568, 40.1195 ], [ -3.1569, 40.1197 ], [ -3.1571, 40.1198 ], [ -3.1571, 40.1199 ], [ -3.1577, 40.1199 ], [ -3.1597, 40.1203 ], [ -3.1606, 40.1212 ] ] ] } },
{ "type": "Feature", "properties": { "municipio": "Fuentidueña de Tajo", "clasificacion": "no-urbanizable-protegido", "calificacion": "sin-asignar", "version": "vigente", "fuente": "SIT-CAM WFS — UsoDelSuelo:VPLA_V_CLASIFICACION (https://idem.comunidad.madrid/geosrvg/ows)", "fecha_dato": "2026-05-12", "ambito": "24823", "_raw_CD_SIGLAS": "SNUP", "_raw_DS_CLASIF_GEN": "Suelo No Urbanizable Protegido", "_raw_DS_CLASIF_DET": "Vía Pecuaria", "_raw_DS_DOCU": "NORMAS SUBSIDIARIAS", "_raw_DS_LEY": "CM Ley 4/1984, E RDL 1/1992", "_raw_FC_AC": "1994-06-23", "_raw_NM_AREA_M2": 318650.464390593, "_cam_code": "060" }, "geometry": { "type": "Polygon", "coordinates": [ [ [ -3.1669, 40.1554 ], [ -3.1669, 40.1558 ], [ -3.1671, 40.156 ], [ -3.1726, 40.1552 ], [ -3.1735, 40.1548 ], [ -3.1748, 40.1534 ], [ -3.175, 40.1529 ], [ -3.1741, 40.1516 ], [ -3.1726, 40.1474 ], [ -3.1715, 40.1466 ], [ -3.1711, 40.1453 ], [ -3.1709, 40.1427 ], [ -3.17, 40.1413 ], [ -3.1698, 40.1397 ], [ -3.1693, 40.1386 ], [ -3.1686, 40.1376 ], [ -3.1691, 40.1372 ], [ -3.1693, 40.1365 ], [ -3.1701, 40.1363 ], [ -3.1704, 40.1359 ], [ -3.1703, 40.1352 ], [ -3.1696, 40.1342 ], [ -3.1688, 40.1334 ], [ -3.1686, 40.1327 ], [ -3.1684, 40.1325 ], [ -3.1673, 40.1322 ], [ -3.1653, 40.1319 ], [ -3.165, 40.1312 ], [ -3.1652, 40.1304 ], [ -3.1651, 40.1294 ], [ -3.1645, 40.1284 ], [ -3.1641, 40.1259 ], [ -3.1627, 40.124 ], [ -3.1616, 40.1232 ], [ -3.1619, 40.1243 ], [ -3.163, 40.1256 ], [ -3.1637, 40.1286 ], [ -3.1642, 40.1296 ], [ -3.1643, 40.1303 ], [ -3.1641, 40.1313 ], [ -3.1644, 40.1321 ], [ -3.165, 40.1326 ], [ -3.1678, 40.133 ], [ -3.1679, 40.1336 ], [ -3.1689, 40.1346 ], [ -3.1694, 40.1353 ], [ -3.1694, 40.1355 ], [ -3.1695, 40.1355 ], [ -3.1695, 40.1358 ], [ -3.1684, 40.1363 ], [ -3.1683, 40.1369 ], [ -3.1679, 40.1372 ], [ -3.1678, 40.138 ], [ -3.1685, 40.1389 ], [ -3.1689, 40.1398 ], [ -3.1692, 40.1415 ], [ -3.17, 40.1429 ], [ -3.1702, 40.1443 ], [ -3.1702, 40.1454 ], [ -3.1708, 40.1469 ], [ -3.1718, 40.1477 ], [ -3.1721, 40.1489 ], [ -3.1726, 40.1502 ], [ -3.1733, 40.1518 ], [ -3.1741, 40.153 ], [ -3.1728, 40.1543 ], [ -3.1719, 40.1549 ], [ -3.1688, 40.1555 ], [ -3.1676, 40.1554 ], [ -3.1669, 40.1554 ] ] ] } },
{ "type": "Feature", "properties": { "municipio": "Fuentidueña de Tajo", "clasificacion": "no-urbanizable-protegido", "calificacion": "sin-asignar", "version": "vigente", "fuente": "SIT-CAM WFS — UsoDelSuelo:VPLA_V_CLASIFICACION (https://idem.comunidad.madrid/geosrvg/ows)", "fecha_dato": "2026-05-12", "ambito": "24823", "_raw_CD_SIGLAS": "SNUP", "_raw_DS_CLASIF_GEN": "Suelo No Urbanizable Protegido", "_raw_DS_CLASIF_DET": "Vía Pecuaria-Autovía A-3", "_raw_DS_DOCU": "NORMAS SUBSIDIARIAS", "_raw_DS_LEY": "CM Ley 4/1984, E RDL 1/1992", "_raw_FC_AC": "1994-06-23", "_raw_NM_AREA_M2": 3524.4181042530499, "_cam_code": "060" }, "geometry": { "type": "Polygon", "coordinates": [ [ [ -3.1616, 40.1232 ], [ -3.1627, 40.124 ], [ -3.1619, 40.1229 ], [ -3.1615, 40.1227 ], [ -3.1616, 40.1232 ] ] ] } },
{ "type": "Feature", "properties": { "municipio": "Fuentidueña de Tajo", "clasificacion": "urbano-consolidado", "calificacion": "sin-asignar", "version": "vigente", "fuente": "SIT-CAM WFS — UsoDelSuelo:VPLA_V_CLASIFICACION (https://idem.comunidad.madrid/geosrvg/ows)", "fecha_dato": "2026-05-12", "ambito": "24823", "_raw_CD_SIGLAS": "SU", "_raw_DS_CLASIF_GEN": "Suelo Urbano", "_raw_DS_CLASIF_DET": "Suelo Urbano", "_raw_DS_DOCU": "NORMAS SUBSIDIARIAS", "_raw_DS_LEY": "CM Ley 4/1984, E RDL 1/1992", "_raw_FC_AC": "1994-06-23", "_raw_NM_AREA_M2": 119813.065937319, "_cam_code": "060" }, "geometry": { "type": "Polygon", "coordinates": [ [ [ -3.1642, 40.1224 ], [ -3.1653, 40.1222 ], [ -3.1647, 40.1212 ], [ -3.1638, 40.1215 ], [ -3.1636, 40.1202 ], [ -3.1641, 40.1195 ], [ -3.1646, 40.1192 ], [ -3.1647, 40.1193 ], [ -3.1648, 40.1192 ], [ -3.1653, 40.1193 ], [ -3.1662, 40.1189 ], [ -3.1662, 40.1187 ], [ -3.1664, 40.1188 ], [ -3.1666, 40.1187 ], [ -3.1669, 40.1189 ], [ -3.1674, 40.1186 ], [ -3.167, 40.1182 ], [ -3.1671, 40.1182 ], [ -3.167, 40.1181 ], [ -3.1671, 40.1181 ], [ -3.1671, 40.1179 ], [ -3.1678, 40.1173 ], [ -3.168, 40.1173 ], [ -3.168, 40.1171 ], [ -3.1685, 40.117 ], [ -3.1696, 40.1161 ], [ -3.1698, 40.1161 ], [ -3.1704, 40.1155 ], [ -3.17, 40.1155 ], [ -3.1691, 40.1159 ], [ -3.1691, 40.116 ], [ -3.1681, 40.1164 ], [ -3.1663, 40.1175 ], [ -3.1652, 40.1178 ], [ -3.1652, 40.1179 ], [ -3.1645, 40.118 ], [ -3.1645, 40.1181 ], [ -3.1639, 40.1181 ], [ -3.1637, 40.1183 ], [ -3.1636, 40.1192 ], [ -3.1631, 40.1198 ], [ -3.1632, 40.1198 ], [ -3.1633, 40.1203 ], [ -3.163, 40.1206 ], [ -3.1627, 40.1205 ], [ -3.1619, 40.1206 ], [ -3.1612, 40.121 ], [ -3.1612, 40.1211 ], [ -3.1612, 40.121 ], [ -3.1607, 40.1212 ], [ -3.1609, 40.1218 ], [ -3.1614, 40.1223 ], [ -3.1629, 40.1221 ], [ -3.1634, 40.122 ], [ -3.1634, 40.1219 ], [ -3.164, 40.122 ], [ -3.1642, 40.1224 ] ] ] } },
{ "type": "Feature", "properties": { "municipio": "Fuentidueña de Tajo", "clasificacion": "urbano-consolidado", "calificacion": "sin-asignar", "version": "vigente", "fuente": "SIT-CAM WFS — UsoDelSuelo:VPLA_V_CLASIFICACION (https://idem.comunidad.madrid/geosrvg/ows)", "fecha_dato": "2026-05-12", "ambito": "24823", "_raw_CD_SIGLAS": "SU", "_raw_DS_CLASIF_GEN": "Suelo Urbano", "_raw_DS_CLASIF_DET": "Suelo Urbano", "_raw_DS_DOCU": "NORMAS SUBSIDIARIAS", "_raw_DS_LEY": "CM Ley 4/1984, E RDL 1/1992", "_raw_FC_AC": "1994-06-23", "_raw_NM_AREA_M2": 25368.437607857999, "_cam_code": "060" }, "geometry": { "type": "Polygon", "coordinates": [ [ [ -3.1561, 40.1248 ], [ -3.1564, 40.125 ], [ -3.1573, 40.124 ], [ -3.1574, 40.1241 ], [ -3.158, 40.1235 ], [ -3.1584, 40.1234 ], [ -3.1582, 40.1233 ], [ -3.1584, 40.1231 ], [ -3.1583, 40.123 ], [ -3.1584, 40.1231 ], [ -3.1585, 40.1229 ], [ -3.1594, 40.1224 ], [ -3.1565, 40.1221 ], [ -3.1578, 40.1231 ], [ -3.157, 40.1237 ], [ -3.1569, 40.1238 ], [ -3.157, 40.1239 ], [ -3.1561, 40.1248 ] ] ] } },
{ "type": "Feature", "properties": { "municipio": "Fuentidueña de Tajo", "clasificacion": "urbano-consolidado", "calificacion": "sin-asignar", "version": "vigente", "fuente": "SIT-CAM WFS — UsoDelSuelo:VPLA_V_CLASIFICACION (https://idem.comunidad.madrid/geosrvg/ows)", "fecha_dato": "2026-05-12", "ambito": "24823", "_raw_CD_SIGLAS": "SU", "_raw_DS_CLASIF_GEN": "Suelo Urbano", "_raw_DS_CLASIF_DET": "Suelo Urbano", "_raw_DS_DOCU": "NORMAS SUBSIDIARIAS", "_raw_DS_LEY": "CM Ley 4/1984, E RDL 1/1992", "_raw_FC_AC": "1994-06-23", "_raw_NM_AREA_M2": 6629.8811516715496, "_cam_code": "060" }, "geometry": { "type": "Polygon", "coordinates": [ [ [ -3.1544, 40.1224 ], [ -3.1533, 40.1226 ], [ -3.1527, 40.1231 ], [ -3.1531, 40.1235 ], [ -3.1534, 40.1234 ], [ -3.1544, 40.1224 ] ] ] } },
{ "type": "Feature", "properties": { "municipio": "Fuentidueña de Tajo", "clasificacion": "urbano-consolidado", "calificacion": "sin-asignar", "version": "vigente", "fuente": "SIT-CAM WFS — UsoDelSuelo:VPLA_V_CLASIFICACION (https://idem.comunidad.madrid/geosrvg/ows)", "fecha_dato": "2026-05-12", "ambito": "24823", "_raw_CD_SIGLAS": "SU", "_raw_DS_CLASIF_GEN": "Suelo Urbano", "_raw_DS_CLASIF_DET": "Suelo Urbano", "_raw_DS_DOCU": "NORMAS SUBSIDIARIAS", "_raw_DS_LEY": "CM Ley 4/1984, E RDL 1/1992", "_raw_FC_AC": "1994-06-23", "_raw_NM_AREA_M2": 179957.24602362001, "_cam_code": "060" }, "geometry": { "type": "Polygon", "coordinates": [ [ [ -3.1612, 40.1223 ], [ -3.1613, 40.1222 ], [ -3.1609, 40.122 ], [ -3.1606, 40.1214 ], [ -3.1607, 40.1214 ], [ -3.1606, 40.1211 ], [ -3.1598, 40.1205 ], [ -3.1597, 40.1203 ], [ -3.1577, 40.1199 ], [ -3.1571, 40.1199 ], [ -3.1567, 40.1195 ], [ -3.1568, 40.1185 ], [ -3.1571, 40.1182 ], [ -3.157, 40.1179 ], [ -3.1573, 40.1177 ], [ -3.1574, 40.1174 ], [ -3.157, 40.1166 ], [ -3.157, 40.1159 ], [ -3.1558, 40.1136 ], [ -3.1554, 40.1136 ], [ -3.1563, 40.1147 ], [ -3.1568, 40.1161 ], [ -3.1568, 40.117 ], [ -3.1563, 40.1186 ], [ -3.1556, 40.1191 ], [ -3.1548, 40.1194 ], [ -3.1546, 40.1193 ], [ -3.1542, 40.1197 ], [ -3.1523, 40.1195 ], [ -3.1521, 40.119 ], [ -3.1509, 40.119 ], [ -3.1515, 40.12 ], [ -3.152, 40.1205 ], [ -3.1527, 40.1206 ], [ -3.153, 40.121 ], [ -3.1536, 40.1213 ], [ -3.1536, 40.1214 ], [ -3.1547, 40.1216 ], [ -3.1556, 40.1209 ], [ -3.1562, 40.1217 ], [ -3.1584, 40.1219 ], [ -3.1601, 40.1222 ], [ -3.1604, 40.122 ], [ -3.1612, 40.1223 ], [ -3.1612, 40.1222 ], [ -3.1612, 40.1223 ] ] ] } },
{ "type": "Feature", "properties": { "municipio": "Fuentidueña de Tajo", "clasificacion": "urbano-consolidado", "calificacion": "sin-asignar", "version": "vigente", "fuente": "SIT-CAM WFS — UsoDelSuelo:VPLA_V_CLASIFICACION (https://idem.comunidad.madrid/geosrvg/ows)", "fecha_dato": "2026-05-12", "ambito": "24823", "_raw_CD_SIGLAS": "SU", "_raw_DS_CLASIF_GEN": "Suelo Urbano", "_raw_DS_CLASIF_DET": "Suelo Urbano", "_raw_DS_DOCU": "NORMAS SUBSIDIARIAS", "_raw_DS_LEY": "CM Ley 4/1984, E RDL 1/1992", "_raw_FC_AC": "1994-06-23", "_raw_NM_AREA_M2": 5240.7913052160502, "_cam_code": "060" }, "geometry": { "type": "Polygon", "coordinates": [ [ [ -3.1527, 40.1218 ], [ -3.1533, 40.122 ], [ -3.154, 40.122 ], [ -3.1543, 40.1218 ], [ -3.1526, 40.1213 ], [ -3.1527, 40.1218 ] ] ] } },
{ "type": "Feature", "properties": { "municipio": "Fuentidueña de Tajo", "clasificacion": "urbano-consolidado", "calificacion": "sin-asignar", "version": "vigente", "fuente": "SIT-CAM WFS — UsoDelSuelo:VPLA_V_CLASIFICACION (https://idem.comunidad.madrid/geosrvg/ows)", "fecha_dato": "2026-05-12", "ambito": "24823", "_raw_CD_SIGLAS": "SU", "_raw_DS_CLASIF_GEN": "Suelo Urbano", "_raw_DS_CLASIF_DET": "Suelo Urbano", "_raw_DS_DOCU": "NORMAS SUBSIDIARIAS", "_raw_DS_LEY": "CM Ley 4/1984, E RDL 1/1992", "_raw_FC_AC": "1994-06-23", "_raw_NM_AREA_M2": 361553.45855319803, "_cam_code": "060" }, "geometry": { "type": "Polygon", "coordinates": [ [ [ -3.1597, 40.1202 ], [ -3.1608, 40.1211 ], [ -3.1619, 40.1205 ], [ -3.1624, 40.1205 ], [ -3.1625, 40.1204 ], [ -3.163, 40.1205 ], [ -3.1632, 40.1203 ], [ -3.1632, 40.12 ], [ -3.1631, 40.12 ], [ -3.1632, 40.1199 ], [ -3.163, 40.1198 ], [ -3.1634, 40.1195 ], [ -3.1636, 40.119 ], [ -3.1637, 40.1186 ], [ -3.1637, 40.1182 ], [ -3.1636, 40.1182 ], [ -3.1657, 40.1177 ], [ -3.1655, 40.1172 ], [ -3.1653, 40.1171 ], [ -3.1652, 40.1167 ], [ -3.1651, 40.1166 ], [ -3.1649, 40.1167 ], [ -3.1638, 40.1157 ], [ -3.1625, 40.1164 ], [ -3.1621, 40.1163 ], [ -3.1611, 40.1156 ], [ -3.1607, 40.1158 ], [ -3.16, 40.1157 ], [ -3.1599, 40.1155 ], [ -3.1588, 40.1159 ], [ -3.1588, 40.116 ], [ -3.1564, 40.1138 ], [ -3.1561, 40.1137 ], [ -3.156, 40.1134 ], [ -3.1547, 40.1122 ], [ -3.1546, 40.1118 ], [ -3.1535, 40.1105 ], [ -3.1528, 40.111 ], [ -3.1521, 40.1107 ], [ -3.1513, 40.1107 ], [ -3.1511, 40.1109 ], [ -3.1526, 40.112 ], [ -3.1534, 40.1123 ], [ -3.1534, 40.1124 ], [ -3.1542, 40.1126 ], [ -3.1554, 40.1135 ], [ -3.1557, 40.1135 ], [ -3.156, 40.1137 ], [ -3.1563, 40.1144 ], [ -3.1567, 40.1149 ], [ -3.1569, 40.1156 ], [ -3.157, 40.1156 ], [ -3.1572, 40.1167 ], [ -3.1575, 40.117 ], [ -3.1574, 40.1171 ], [ -3.1576, 40.1175 ], [ -3.1578, 40.1176 ], [ -3.1571, 40.1179 ], [ -3.1571, 40.1184 ], [ -3.1568, 40.1188 ], [ -3.1569, 40.1197 ], [ -3.1597, 40.1202 ] ] ] } },
{ "type": "Feature", "properties": { "municipio": "Fuentidueña de Tajo", "clasificacion": "urbano-consolidado", "calificacion": "sin-asignar", "version": "vigente", "fuente": "SIT-CAM WFS — UsoDelSuelo:VPLA_V_CLASIFICACION (https://idem.comunidad.madrid/geosrvg/ows)", "fecha_dato": "2026-05-12", "ambito": "24823", "_raw_CD_SIGLAS": "SU", "_raw_DS_CLASIF_GEN": "Suelo Urbano", "_raw_DS_CLASIF_DET": "Suelo Urbano", "_raw_DS_DOCU": "NORMAS SUBSIDIARIAS", "_raw_DS_LEY": "CM Ley 4/1984, E RDL 1/1992", "_raw_FC_AC": "1994-06-23", "_raw_NM_AREA_M2": 17866.496647664299, "_cam_code": "060" }, "geometry": { "type": "Polygon", "coordinates": [ [ [ -3.15, 40.1163 ], [ -3.1498, 40.1165 ], [ -3.1507, 40.1183 ], [ -3.1518, 40.1182 ], [ -3.1512, 40.1171 ], [ -3.15, 40.1163 ] ] ] } },
{ "type": "Feature", "properties": { "municipio": "Fuentidueña de Tajo", "clasificacion": "urbanizable-no-sectorizado", "calificacion": "sin-asignar", "version": "vigente", "fuente": "SIT-CAM WFS — UsoDelSuelo:VPLA_V_CLASIFICACION (https://idem.comunidad.madrid/geosrvg/ows)", "fecha_dato": "2026-05-12", "ambito": "24823", "_raw_CD_SIGLAS": "SUBNS", "_raw_DS_CLASIF_GEN": "Suelo No Urbanizable Común", "_raw_DS_CLASIF_DET": "Suelo No Urbanizable Común", "_raw_DS_DOCU": "NORMAS SUBSIDIARIAS", "_raw_DS_LEY": "CM Ley 4/1984, E RDL 1/1992", "_raw_FC_AC": "1994-06-23", "_raw_NM_AREA_M2": 1875174.8734756401, "_cam_code": "060" }, "geometry": { "type": "Polygon", "coordinates": [ [ [ -3.1941, 40.0925 ], [ -3.1927, 40.0931 ], [ -3.1931, 40.0944 ], [ -3.1912, 40.0968 ], [ -3.1904, 40.0975 ], [ -3.189, 40.0997 ], [ -3.1866, 40.101 ], [ -3.186, 40.1014 ], [ -3.1853, 40.1021 ], [ -3.1823, 40.1031 ], [ -3.1793, 40.1059 ], [ -3.1746, 40.1086 ], [ -3.1737, 40.1119 ], [ -3.1716, 40.113 ], [ -3.1649, 40.1151 ], [ -3.1667, 40.1172 ], [ -3.1671, 40.117 ], [ -3.1672, 40.1168 ], [ -3.1691, 40.1159 ], [ -3.1693, 40.1157 ], [ -3.1702, 40.1154 ], [ -3.1708, 40.115 ], [ -3.1727, 40.1146 ], [ -3.1737, 40.1135 ], [ -3.1748, 40.1127 ], [ -3.1766, 40.1121 ], [ -3.1789, 40.1104 ], [ -3.1809, 40.1085 ], [ -3.1826, 40.1079 ], [ -3.1857, 40.1073 ], [ -3.187, 40.106 ], [ -3.1883, 40.1055 ], [ -3.189, 40.1047 ], [ -3.1893, 40.1046 ], [ -3.1902, 40.1037 ], [ -3.1913, 40.1031 ], [ -3.1925, 40.1027 ], [ -3.1931, 40.1022 ], [ -3.1951, 40.1014 ], [ -3.1958, 40.1009 ], [ -3.197, 40.1003 ], [ -3.1987, 40.0997 ], [ -3.2013, 40.0977 ], [ -3.2012, 40.097 ], [ -3.2019, 40.0954 ], [ -3.2012, 40.0893 ], [ -3.201, 40.0886 ], [ -3.2007, 40.0881 ], [ -3.2002, 40.0887 ], [ -3.2001, 40.0898 ], [ -3.1995, 40.0899 ], [ -3.1985, 40.0892 ], [ -3.1974, 40.0895 ], [ -3.1968, 40.0901 ], [ -3.1968, 40.0908 ], [ -3.1965, 40.0911 ], [ -3.195, 40.0908 ], [ -3.1946, 40.091 ], [ -3.1941, 40.0925 ] ] ] } },
{ "type": "Feature", "properties": { "municipio": "Fuentidueña de Tajo", "clasificacion": "urbanizable-no-sectorizado", "calificacion": "sin-asignar", "version": "vigente", "fuente": "SIT-CAM WFS — UsoDelSuelo:VPLA_V_CLASIFICACION (https://idem.comunidad.madrid/geosrvg/ows)", "fecha_dato": "2026-05-12", "ambito": "24823", "_raw_CD_SIGLAS": "SUBNS", "_raw_DS_CLASIF_GEN": "Suelo No Urbanizable Común", "_raw_DS_CLASIF_DET": "Suelo No Urbanizable Común", "_raw_DS_DOCU": "NORMAS SUBSIDIARIAS", "_raw_DS_LEY": "CM Ley 4/1984, E RDL 1/1992", "_raw_FC_AC": "1994-06-23", "_raw_NM_AREA_M2": 433937.591594761, "_cam_code": "060" }, "geometry": { "type": "Polygon", "coordinates": [ [ [ -3.1645, 40.1258 ], [ -3.1656, 40.1272 ], [ -3.1683, 40.1293 ], [ -3.1688, 40.1296 ], [ -3.1755, 40.1323 ], [ -3.1766, 40.1329 ], [ -3.1791, 40.1353 ], [ -3.1814, 40.1366 ], [ -3.1794, 40.1341 ], [ -3.1766, 40.1317 ], [ -3.1766, 40.1313 ], [ -3.1758, 40.1303 ], [ -3.175, 40.1299 ], [ -3.1748, 40.1295 ], [ -3.1741, 40.1289 ], [ -3.174, 40.1283 ], [ -3.1736, 40.1279 ], [ -3.173, 40.1276 ], [ -3.1725, 40.1265 ], [ -3.1715, 40.1258 ], [ -3.1704, 40.1244 ], [ -3.1698, 40.124 ], [ -3.1694, 40.1247 ], [ -3.1689, 40.1252 ], [ -3.1686, 40.1252 ], [ -3.1683, 40.1254 ], [ -3.1672, 40.1257 ], [ -3.1671, 40.126 ], [ -3.1662, 40.1258 ], [ -3.1645, 40.1258 ] ] ] } },
{ "type": "Feature", "properties": { "municipio": "Fuentidueña de Tajo", "clasificacion": "urbanizable-no-sectorizado", "calificacion": "sin-asignar", "version": "vigente", "fuente": "SIT-CAM WFS — UsoDelSuelo:VPLA_V_CLASIFICACION (https://idem.comunidad.madrid/geosrvg/ows)", "fecha_dato": "2026-05-12", "ambito": "24823", "_raw_CD_SIGLAS": "SUBNS", "_raw_DS_CLASIF_GEN": "Suelo No Urbanizable Común", "_raw_DS_CLASIF_DET": "Suelo No Urbanizable Común", "_raw_DS_DOCU": "NORMAS SUBSIDIARIAS", "_raw_DS_LEY": "CM Ley 4/1984, E RDL 1/1992", "_raw_FC_AC": "1994-06-23", "_raw_NM_AREA_M2": 5288955.31552085, "_cam_code": "060" }, "geometry": { "type": "Polygon", "coordinates": [ [ [ -3.1279, 40.1136 ], [ -3.1312, 40.1181 ], [ -3.134, 40.1244 ], [ -3.134, 40.1251 ], [ -3.1348, 40.1244 ], [ -3.1356, 40.1226 ], [ -3.1357, 40.1218 ], [ -3.1376, 40.1205 ], [ -3.1383, 40.1198 ], [ -3.1405, 40.1183 ], [ -3.141, 40.1177 ], [ -3.1423, 40.1145 ], [ -3.1421, 40.1137 ], [ -3.1413, 40.1137 ], [ -3.1387, 40.1131 ], [ -3.1399, 40.1104 ], [ -3.1412, 40.1096 ], [ -3.1431, 40.1121 ], [ -3.1433, 40.1122 ], [ -3.144, 40.1133 ], [ -3.1441, 40.1134 ], [ -3.1449, 40.1134 ], [ -3.144, 40.1127 ], [ -3.1418, 40.1098 ], [ -3.1354, 40.1019 ], [ -3.1318, 40.0984 ], [ -3.1282, 40.0961 ], [ -3.1248, 40.0934 ], [ -3.1217, 40.0912 ], [ -3.1132, 40.0857 ], [ -3.111, 40.0847 ], [ -3.1096, 40.0904 ], [ -3.1075, 40.0958 ], [ -3.1074, 40.0976 ], [ -3.1075, 40.0982 ], [ -3.1083, 40.1001 ], [ -3.1115, 40.1025 ], [ -3.119, 40.1063 ], [ -3.1235, 40.1081 ], [ -3.1252, 40.1108 ], [ -3.1279, 40.1136 ] ] ] } },
{ "type": "Feature", "properties": { "municipio": "Fuentidueña de Tajo", "clasificacion": "urbanizable-no-sectorizado", "calificacion": "sin-asignar", "version": "vigente", "fuente": "SIT-CAM WFS — UsoDelSuelo:VPLA_V_CLASIFICACION (https://idem.comunidad.madrid/geosrvg/ows)", "fecha_dato": "2026-05-12", "ambito": "24823", "_raw_CD_SIGLAS": "SUBNS", "_raw_DS_CLASIF_GEN": "Suelo No Urbanizable Común", "_raw_DS_CLASIF_DET": "Suelo No Urbanizable Común", "_raw_DS_DOCU": "NORMAS SUBSIDIARIAS", "_raw_DS_LEY": "CM Ley 4/1984, E RDL 1/1992", "_raw_FC_AC": "1994-06-23", "_raw_NM_AREA_M2": 5374787.4883372299, "_cam_code": "060" }, "geometry": { "type": "Polygon", "coordinates": [ [ [ -3.1758, 40.1574 ], [ -3.1773, 40.1589 ], [ -3.1799, 40.1592 ], [ -3.1804, 40.1578 ], [ -3.1831, 40.1569 ], [ -3.1863, 40.1572 ], [ -3.1898, 40.1567 ], [ -3.1968, 40.1572 ], [ -3.1989, 40.1548 ], [ -3.2003, 40.1517 ], [ -3.2006, 40.1497 ], [ -3.1997, 40.1463 ], [ -3.1996, 40.1445 ], [ -3.2001, 40.1409 ], [ -3.1941, 40.141 ], [ -3.1924, 40.1408 ], [ -3.1901, 40.1404 ], [ -3.1871, 40.1395 ], [ -3.1845, 40.1385 ], [ -3.1794, 40.136 ], [ -3.1782, 40.1351 ], [ -3.1763, 40.1332 ], [ -3.1752, 40.1326 ], [ -3.1685, 40.1299 ], [ -3.168, 40.1296 ], [ -3.1655, 40.1277 ], [ -3.165, 40.1272 ], [ -3.1641, 40.1259 ], [ -3.1645, 40.1284 ], [ -3.1651, 40.1294 ], [ -3.1652, 40.1304 ], [ -3.165, 40.1312 ], [ -3.1653, 40.1319 ], [ -3.1673, 40.1322 ], [ -3.1684, 40.1325 ], [ -3.1686, 40.1327 ], [ -3.1688, 40.1334 ], [ -3.1696, 40.1342 ], [ -3.1703, 40.1352 ], [ -3.1704, 40.1359 ], [ -3.1701, 40.1363 ], [ -3.1693, 40.1365 ], [ -3.1691, 40.1372 ], [ -3.1686, 40.1376 ], [ -3.1693, 40.1386 ], [ -3.1698, 40.1397 ], [ -3.17, 40.1413 ], [ -3.1709, 40.1427 ], [ -3.1711, 40.1453 ], [ -3.1715, 40.1466 ], [ -3.1726, 40.1474 ], [ -3.1741, 40.1516 ], [ -3.175, 40.1529 ], [ -3.1748, 40.1534 ], [ -3.1735, 40.1548 ], [ -3.1726, 40.1552 ], [ -3.1727, 40.1556 ], [ -3.1758, 40.1574 ] ] ] } },
{ "type": "Feature", "properties": { "municipio": "Fuentidueña de Tajo", "clasificacion": "urbanizable-no-sectorizado", "calificacion": "sin-asignar", "version": "vigente", "fuente": "SIT-CAM WFS — UsoDelSuelo:VPLA_V_CLASIFICACION (https://idem.comunidad.madrid/geosrvg/ows)", "fecha_dato": "2026-05-12", "ambito": "24823", "_raw_CD_SIGLAS": "SUBNS", "_raw_DS_CLASIF_GEN": "Suelo No Urbanizable Común", "_raw_DS_CLASIF_DET": "Suelo No Urbanizable Común", "_raw_DS_DOCU": "NORMAS SUBSIDIARIAS", "_raw_DS_LEY": "CM Ley 4/1984, E RDL 1/1992", "_raw_FC_AC": "1994-06-23", "_raw_NM_AREA_M2": 9589734.3084091209, "_cam_code": "060" }, "geometry": { "type": "Polygon", "coordinates": [ [ [ -3.1226, 40.0913 ], [ -3.1285, 40.0958 ], [ -3.1322, 40.0982 ], [ -3.1363, 40.1023 ], [ -3.1365, 40.1027 ], [ -3.1445, 40.1126 ], [ -3.145, 40.1121 ], [ -3.1457, 40.112 ], [ -3.1462, 40.1117 ], [ -3.1468, 40.111 ], [ -3.147, 40.111 ], [ -3.1471, 40.1107 ], [ -3.1477, 40.1106 ], [ -3.1486, 40.1097 ], [ -3.1488, 40.1089 ], [ -3.1496, 40.1072 ], [ -3.1498, 40.1059 ], [ -3.1497, 40.1039 ], [ -3.1494, 40.102 ], [ -3.1499, 40.1003 ], [ -3.1491, 40.0994 ], [ -3.1499, 40.0985 ], [ -3.1501, 40.0981 ], [ -3.1488, 40.0969 ], [ -3.1478, 40.0963 ], [ -3.1477, 40.0961 ], [ -3.1478, 40.0951 ], [ -3.1473, 40.0928 ], [ -3.1462, 40.0919 ], [ -3.1453, 40.0914 ], [ -3.1438, 40.0896 ], [ -3.1471, 40.0882 ], [ -3.1471, 40.088 ], [ -3.1458, 40.086 ], [ -3.1458, 40.0856 ], [ -3.1456, 40.0851 ], [ -3.1447, 40.0843 ], [ -3.1449, 40.083 ], [ -3.145, 40.0827 ], [ -3.1454, 40.0825 ], [ -3.1469, 40.0824 ], [ -3.1473, 40.0822 ], [ -3.1477, 40.0815 ], [ -3.1476, 40.0806 ], [ -3.148, 40.08 ], [ -3.1486, 40.0799 ], [ -3.1494, 40.079 ], [ -3.1495, 40.0778 ], [ -3.1498, 40.0772 ], [ -3.1504, 40.0765 ], [ -3.1503, 40.0759 ], [ -3.1499, 40.0755 ], [ -3.1492, 40.0742 ], [ -3.1492, 40.0731 ], [ -3.1488, 40.0727 ], [ -3.1473, 40.072 ], [ -3.1471, 40.0716 ], [ -3.1485, 40.0697 ], [ -3.1469, 40.0688 ], [ -3.1458, 40.068 ], [ -3.1452, 40.0679 ], [ -3.1446, 40.068 ], [ -3.1413, 40.068 ], [ -3.1404, 40.066 ], [ -3.1396, 40.0655 ], [ -3.1387, 40.0652 ], [ -3.1379, 40.0653 ], [ -3.1375, 40.0652 ], [ -3.1355, 40.0634 ], [ -3.1346, 40.063 ], [ -3.133, 40.0626 ], [ -3.1322, 40.0626 ], [ -3.1299, 40.0622 ], [ -3.1285, 40.0621 ], [ -3.1271, 40.0621 ], [ -3.127, 40.0622 ], [ -3.1268, 40.0621 ], [ -3.1254, 40.0621 ], [ -3.1248, 40.0622 ], [ -3.1222, 40.0616 ], [ -3.1207, 40.0617 ], [ -3.1205, 40.0616 ], [ -3.1189, 40.0616 ], [ -3.1182, 40.0615 ], [ -3.1182, 40.0614 ], [ -3.1167, 40.0655 ], [ -3.1162, 40.0697 ], [ -3.1156, 40.0718 ], [ -3.1142, 40.0747 ], [ -3.1129, 40.0787 ], [ -3.1116, 40.0818 ], [ -3.1113, 40.0835 ], [ -3.1117, 40.0837 ], [ -3.1124, 40.0845 ], [ -3.1147, 40.0862 ], [ -3.1226, 40.0913 ] ], [ [ -3.1298, 40.07 ], [ -3.1305, 40.072 ], [ -3.1316, 40.0743 ], [ -3.1317, 40.0743 ], [ -3.1317, 40.0745 ], [ -3.1324, 40.0755 ], [ -3.1337, 40.0779 ], [ -3.1352, 40.0802 ], [ -3.1384, 40.0857 ], [ -3.1392, 40.0867 ], [ -3.1428, 40.09 ], [ -3.1408, 40.0909 ], [ -3.138, 40.0923 ], [ -3.1378, 40.0925 ], [ -3.1364, 40.0918 ], [ -3.1347, 40.0906 ], [ -3.1315, 40.0891 ], [ -3.131, 40.0887 ], [ -3.1299, 40.0882 ], [ -3.1296, 40.0879 ], [ -3.1293, 40.0859 ], [ -3.129, 40.0851 ], [ -3.1287, 40.0836 ], [ -3.1286, 40.0823 ], [ -3.1278, 40.08 ], [ -3.1276, 40.079 ], [ -3.1275, 40.079 ], [ -3.1269, 40.0775 ], [ -3.1268, 40.0775 ], [ -3.1266, 40.0764 ], [ -3.1263, 40.0756 ], [ -3.1262, 40.0756 ], [ -3.126, 40.075 ], [ -3.1259, 40.075 ], [ -3.1256, 40.0737 ], [ -3.1242, 40.072 ], [ -3.1298, 40.07 ] ] ] } },
{ "type": "Feature", "properties": { "municipio": "Fuentidueña de Tajo", "clasificacion": "urbanizable-no-sectorizado", "calificacion": "sin-asignar", "version": "vigente", "fuente": "SIT-CAM WFS — UsoDelSuelo:VPLA_V_CLASIFICACION (https://idem.comunidad.madrid/geosrvg/ows)", "fecha_dato": "2026-05-12", "ambito": "24823", "_raw_CD_SIGLAS": "SUBNS", "_raw_DS_CLASIF_GEN": "Suelo No Urbanizable Común", "_raw_DS_CLASIF_DET": "Suelo No Urbanizable Común", "_raw_DS_DOCU": "NORMAS SUBSIDIARIAS", "_raw_DS_LEY": "CM Ley 4/1984, E RDL 1/1992", "_raw_FC_AC": "1994-06-23", "_raw_NM_AREA_M2": 368550.584732747, "_cam_code": "060" }, "geometry": { "type": "Polygon", "coordinates": [ [ [ -3.1968, 40.104 ], [ -3.1982, 40.1044 ], [ -3.1992, 40.1053 ], [ -3.1997, 40.1054 ], [ -3.2006, 40.1061 ], [ -3.2011, 40.1062 ], [ -3.2023, 40.1068 ], [ -3.202, 40.1028 ], [ -3.2014, 40.0979 ], [ -3.1996, 40.0995 ], [ -3.198, 40.1003 ], [ -3.1964, 40.1008 ], [ -3.1956, 40.1012 ], [ -3.1954, 40.1015 ], [ -3.1932, 40.1024 ], [ -3.1929, 40.1027 ], [ -3.192, 40.1031 ], [ -3.1926, 40.1035 ], [ -3.1934, 40.1037 ], [ -3.1938, 40.1035 ], [ -3.1953, 40.1041 ], [ -3.1968, 40.104 ] ] ] } },
{ "type": "Feature", "properties": { "municipio": "Fuentidueña de Tajo", "clasificacion": "urbanizable-sectorizado", "calificacion": "sin-asignar", "version": "vigente", "fuente": "SIT-CAM WFS — UsoDelSuelo:VPLA_V_CLASIFICACION (https://idem.comunidad.madrid/geosrvg/ows)", "fecha_dato": "2026-05-12", "ambito": "24823", "_raw_CD_SIGLAS": "SUBS", "_raw_DS_CLASIF_GEN": "Suelo Apto Para Urbanizar", "_raw_DS_CLASIF_DET": "Suelo Apto para Urbanizar", "_raw_DS_DOCU": "NORMAS SUBSIDIARIAS", "_raw_DS_LEY": "CM Ley 4/1984, E RDL 1/1992", "_raw_FC_AC": "1994-06-23", "_raw_NM_AREA_M2": 1501276.17124433, "_cam_code": "060" }, "geometry": { "type": "Polygon", "coordinates": [ [ [ -3.1298, 40.07 ], [ -3.1242, 40.072 ], [ -3.1256, 40.0737 ], [ -3.1259, 40.075 ], [ -3.126, 40.075 ], [ -3.1262, 40.0756 ], [ -3.1263, 40.0756 ], [ -3.1266, 40.0764 ], [ -3.1268, 40.0775 ], [ -3.1269, 40.0775 ], [ -3.1269, 40.0777 ], [ -3.1272, 40.0781 ], [ -3.1275, 40.079 ], [ -3.1276, 40.079 ], [ -3.1278, 40.08 ], [ -3.1286, 40.0823 ], [ -3.1287, 40.0836 ], [ -3.129, 40.0851 ], [ -3.1293, 40.0859 ], [ -3.1296, 40.0879 ], [ -3.1299, 40.0882 ], [ -3.131, 40.0887 ], [ -3.1315, 40.0891 ], [ -3.1347, 40.0906 ], [ -3.1364, 40.0918 ], [ -3.1378, 40.0925 ], [ -3.138, 40.0923 ], [ -3.1408, 40.0909 ], [ -3.1428, 40.09 ], [ -3.1392, 40.0867 ], [ -3.1384, 40.0857 ], [ -3.1352, 40.0802 ], [ -3.1337, 40.0779 ], [ -3.1324, 40.0755 ], [ -3.1317, 40.0745 ], [ -3.1317, 40.0743 ], [ -3.1316, 40.0743 ], [ -3.1305, 40.072 ], [ -3.1298, 40.07 ] ] ] } },
{ "type": "Feature", "properties": { "municipio": "Fuentidueña de Tajo", "clasificacion": "urbanizable-sectorizado", "calificacion": "sin-asignar", "version": "vigente", "fuente": "SIT-CAM WFS — UsoDelSuelo:VPLA_V_CLASIFICACION (https://idem.comunidad.madrid/geosrvg/ows)", "fecha_dato": "2026-05-12", "ambito": "24823", "_raw_CD_SIGLAS": "SUBS", "_raw_DS_CLASIF_GEN": "Suelo Apto Para Urbanizar", "_raw_DS_CLASIF_DET": "Suelo Apto para Urbanizar", "_raw_DS_DOCU": "NORMAS SUBSIDIARIAS", "_raw_DS_LEY": "CM Ley 4/1984, E RDL 1/1992", "_raw_FC_AC": "1994-06-23", "_raw_NM_AREA_M2": 26484.1531031331, "_cam_code": "060" }, "geometry": { "type": "Polygon", "coordinates": [ [ [ -3.1651, 40.1166 ], [ -3.1652, 40.1167 ], [ -3.1653, 40.1171 ], [ -3.1655, 40.1172 ], [ -3.1657, 40.1176 ], [ -3.1667, 40.1172 ], [ -3.1649, 40.1151 ], [ -3.1638, 40.1157 ], [ -3.1649, 40.1167 ], [ -3.1651, 40.1166 ] ] ] } },
{ "type": "Feature", "properties": { "municipio": "Fuentidueña de Tajo", "clasificacion": "urbanizable-sectorizado", "calificacion": "sin-asignar", "version": "vigente", "fuente": "SIT-CAM WFS — UsoDelSuelo:VPLA_V_CLASIFICACION (https://idem.comunidad.madrid/geosrvg/ows)", "fecha_dato": "2026-05-12", "ambito": "24823", "_raw_CD_SIGLAS": "SUBS", "_raw_DS_CLASIF_GEN": "Suelo Apto Para Urbanizar", "_raw_DS_CLASIF_DET": "Suelo Apto para Urbanizar", "_raw_DS_DOCU": "NORMAS SUBSIDIARIAS", "_raw_DS_LEY": "CM Ley 4/1984, E RDL 1/1992", "_raw_FC_AC": "1994-06-23", "_raw_NM_AREA_M2": 130556.762936438, "_cam_code": "060" }, "geometry": { "type": "Polygon", "coordinates": [ [ [ -3.1611, 40.1156 ], [ -3.1624, 40.1164 ], [ -3.1644, 40.1153 ], [ -3.1648, 40.1152 ], [ -3.165, 40.115 ], [ -3.1663, 40.1145 ], [ -3.1663, 40.1144 ], [ -3.1671, 40.1141 ], [ -3.1685, 40.1133 ], [ -3.1687, 40.1133 ], [ -3.1685, 40.1132 ], [ -3.1674, 40.1132 ], [ -3.1669, 40.1125 ], [ -3.1662, 40.1119 ], [ -3.1656, 40.1125 ], [ -3.1648, 40.112 ], [ -3.1631, 40.1142 ], [ -3.1599, 40.1155 ], [ -3.16, 40.1157 ], [ -3.1607, 40.1158 ], [ -3.1611, 40.1156 ] ] ] } },
{ "type": "Feature", "properties": { "municipio": "Fuentidueña de Tajo", "clasificacion": "urbanizable-sectorizado", "calificacion": "sin-asignar", "version": "vigente", "fuente": "SIT-CAM WFS — UsoDelSuelo:VPLA_V_CLASIFICACION (https://idem.comunidad.madrid/geosrvg/ows)", "fecha_dato": "2026-05-12", "ambito": "24823", "_raw_CD_SIGLAS": "SUBS", "_raw_DS_CLASIF_GEN": "Suelo Apto Para Urbanizar", "_raw_DS_CLASIF_DET": "Suelo Apto para Urbanizar", "_raw_DS_DOCU": "NORMAS SUBSIDIARIAS", "_raw_DS_LEY": "CM Ley 4/1984, E RDL 1/1992", "_raw_FC_AC": "1994-06-23", "_raw_NM_AREA_M2": 120108.62374743501, "_cam_code": "060" }, "geometry": { "type": "Polygon", "coordinates": [ [ [ -3.1399, 40.1104 ], [ -3.1387, 40.1131 ], [ -3.1413, 40.1137 ], [ -3.1427, 40.1137 ], [ -3.1441, 40.1134 ], [ -3.1433, 40.1122 ], [ -3.1431, 40.1121 ], [ -3.1412, 40.1096 ], [ -3.1399, 40.1104 ] ] ] } }
]
}
