{
"type": "FeatureCollection",
"name": "vigente.full",
"features": [
{ "type": "Feature", "properties": { "municipio": "Alpedrete", "clasificacion": "no-urbanizable-protegido", "calificacion": "sin-asignar", "version": "vigente", "fuente": "SIT-CAM WFS — UsoDelSuelo:VPLA_V_CLASIFICACION (https://idem.comunidad.madrid/geosrvg/ows)", "fecha_dato": "2026-05-12", "ambito": "24526", "_raw_CD_SIGLAS": "SNUP", "_raw_DS_CLASIF_GEN": "Suelo No Urbanizable Protegido", "_raw_DS_CLASIF_DET": "Suelo No Urbanizable Especial Protección. Protección de masas forestales", "_raw_DS_DOCU": "NORMAS SUBSIDIARIAS", "_raw_DS_LEY": "CM Ley 4/1984, E RD 1346/1976", "_raw_FC_AC": "1994-05-27", "_raw_NM_AREA_M2": 2454822.1191197401, "_cam_code": "010" }, "geometry": { "type": "Polygon", "coordinates": [ [ [ -3.9961, 40.6665 ], [ -3.9964, 40.6694 ], [ -3.9967, 40.6703 ], [ -3.9974, 40.6739 ], [ -3.9972, 40.6752 ], [ -3.9967, 40.6762 ], [ -3.9962, 40.6777 ], [ -3.9953, 40.6811 ], [ -4.0012, 40.6842 ], [ -4.0038, 40.6836 ], [ -4.0105, 40.683 ], [ -4.0128, 40.6825 ], [ -4.0123, 40.68 ], [ -4.0092, 40.6749 ], [ -4.0095, 40.6738 ], [ -4.0104, 40.6726 ], [ -4.0101, 40.6677 ], [ -4.0107, 40.665 ], [ -4.0104, 40.6619 ], [ -4.0099, 40.6621 ], [ -4.0095, 40.6627 ], [ -4.0091, 40.6627 ], [ -4.0074, 40.664 ], [ -4.0071, 40.665 ], [ -4.0072, 40.6668 ], [ -4.0066, 40.6667 ], [ -4.0064, 40.6669 ], [ -4.0045, 40.6666 ], [ -4.004, 40.6661 ], [ -4.0035, 40.6661 ], [ -4.0029, 40.6657 ], [ -4.0014, 40.6652 ], [ -3.9996, 40.6643 ], [ -3.9986, 40.6637 ], [ -3.9983, 40.6633 ], [ -3.9974, 40.6647 ], [ -3.9972, 40.6653 ], [ -3.9961, 40.6665 ] ] ] } },
{ "type": "Feature", "properties": { "municipio": "Alpedrete", "clasificacion": "no-urbanizable-protegido", "calificacion": "sin-asignar", "version": "vigente", "fuente": "SIT-CAM WFS — UsoDelSuelo:VPLA_V_CLASIFICACION (https://idem.comunidad.madrid/geosrvg/ows)", "fecha_dato": "2026-05-12", "ambito": "24526", "_raw_CD_SIGLAS": "SNUP", "_raw_DS_CLASIF_GEN": "Suelo No Urbanizable Protegido", "_raw_DS_CLASIF_DET": "Suelo No Urbanizable Especial Protección. Comunicaciones e infraestructuras", "_raw_DS_DOCU": "NORMAS SUBSIDIARIAS", "_raw_DS_LEY": "CM Ley 4/1984, E RD 1346/1976", "_raw_FC_AC": "1994-05-27", "_raw_NM_AREA_M2": 60684.6799550902, "_cam_code": "010" }, "geometry": { "type": "Polygon", "coordinates": [ [ [ -4.028, 40.6425 ], [ -4.0325, 40.6431 ], [ -4.0316, 40.6424 ], [ -4.0307, 40.6424 ], [ -4.0275, 40.642 ], [ -4.0255, 40.6414 ], [ -4.0228, 40.6405 ], [ -4.018, 40.6384 ], [ -4.0177, 40.6386 ], [ -4.0208, 40.6401 ], [ -4.024, 40.6414 ], [ -4.0262, 40.6421 ], [ -4.028, 40.6425 ] ] ] } },
{ "type": "Feature", "properties": { "municipio": "Alpedrete", "clasificacion": "no-urbanizable-protegido", "calificacion": "sin-asignar", "version": "vigente", "fuente": "SIT-CAM WFS — UsoDelSuelo:VPLA_V_CLASIFICACION (https://idem.comunidad.madrid/geosrvg/ows)", "fecha_dato": "2026-05-12", "ambito": "24526", "_raw_CD_SIGLAS": "SNUP", "_raw_DS_CLASIF_GEN": "Suelo No Urbanizable Protegido", "_raw_DS_CLASIF_DET": "Suelo No Urbanizable Especial Protección. Comunicaciones e infraestructuras", "_raw_DS_DOCU": "NORMAS SUBSIDIARIAS", "_raw_DS_LEY": "CM Ley 4/1984, E RD 1346/1976", "_raw_FC_AC": "1994-05-27", "_raw_NM_AREA_M2": 188570.80783387399, "_cam_code": "010" }, "geometry": { "type": "Polygon", "coordinates": [ [ [ -4.0095, 40.6544 ], [ -4.009, 40.6553 ], [ -4.0092, 40.6575 ], [ -4.0094, 40.6585 ], [ -4.01, 40.6594 ], [ -4.0102, 40.6603 ], [ -4.0104, 40.6614 ], [ -4.0107, 40.665 ], [ -4.0101, 40.6677 ], [ -4.0104, 40.6726 ], [ -4.0095, 40.6738 ], [ -4.0092, 40.6749 ], [ -4.0123, 40.68 ], [ -4.0128, 40.6825 ], [ -4.0134, 40.6822 ], [ -4.013, 40.6799 ], [ -4.01, 40.6749 ], [ -4.0102, 40.6739 ], [ -4.0111, 40.6727 ], [ -4.0108, 40.6677 ], [ -4.0114, 40.665 ], [ -4.011, 40.6603 ], [ -4.01, 40.6578 ], [ -4.0098, 40.657 ], [ -4.0095, 40.6544 ] ] ] } },
{ "type": "Feature", "properties": { "municipio": "Alpedrete", "clasificacion": "no-urbanizable-protegido", "calificacion": "sin-asignar", "version": "vigente", "fuente": "SIT-CAM WFS — UsoDelSuelo:VPLA_V_CLASIFICACION (https://idem.comunidad.madrid/geosrvg/ows)", "fecha_dato": "2026-05-12", "ambito": "24526", "_raw_CD_SIGLAS": "SNUP", "_raw_DS_CLASIF_GEN": "Suelo No Urbanizable Protegido", "_raw_DS_CLASIF_DET": "Suelo No Urbanizable Especial Protección. Protección de cauces", "_raw_DS_DOCU": "NORMAS SUBSIDIARIAS", "_raw_DS_LEY": "CM Ley 4/1984, E RD 1346/1976", "_raw_FC_AC": "1994-05-27", "_raw_NM_AREA_M2": 76198.988395947003, "_cam_code": "010" }, "geometry": { "type": "Polygon", "coordinates": [ [ [ -4.0282, 40.6425 ], [ -4.0299, 40.6437 ], [ -4.0307, 40.644 ], [ -4.0311, 40.6445 ], [ -4.0314, 40.6445 ], [ -4.0318, 40.6447 ], [ -4.0326, 40.6447 ], [ -4.034, 40.6455 ], [ -4.0353, 40.646 ], [ -4.0357, 40.6458 ], [ -4.0358, 40.6456 ], [ -4.0325, 40.6431 ], [ -4.029, 40.6427 ], [ -4.0282, 40.6425 ] ] ] } },
{ "type": "Feature", "properties": { "municipio": "Alpedrete", "clasificacion": "no-urbanizable-protegido", "calificacion": "sin-asignar", "version": "vigente", "fuente": "SIT-CAM WFS — UsoDelSuelo:VPLA_V_CLASIFICACION (https://idem.comunidad.madrid/geosrvg/ows)", "fecha_dato": "2026-05-12", "ambito": "24526", "_raw_CD_SIGLAS": "SNUP", "_raw_DS_CLASIF_GEN": "Suelo No Urbanizable Protegido", "_raw_DS_CLASIF_DET": "Suelo No Urbanizable Especial Protección. Protección de masas forestales", "_raw_DS_DOCU": "NORMAS SUBSIDIARIAS", "_raw_DS_LEY": "CM Ley 4/1984, E RD 1346/1976", "_raw_FC_AC": "1994-05-27", "_raw_NM_AREA_M2": 313295.90159643599, "_cam_code": "010" }, "geometry": { "type": "Polygon", "coordinates": [ [ [ -4.0163, 40.653 ], [ -4.0194, 40.6534 ], [ -4.0205, 40.654 ], [ -4.0211, 40.6539 ], [ -4.0208, 40.6536 ], [ -4.0205, 40.6535 ], [ -4.0205, 40.6527 ], [ -4.0206, 40.6522 ], [ -4.0209, 40.6517 ], [ -4.0208, 40.6513 ], [ -4.0209, 40.6505 ], [ -4.0216, 40.6496 ], [ -4.0218, 40.6495 ], [ -4.0217, 40.6491 ], [ -4.021, 40.649 ], [ -4.021, 40.6489 ], [ -4.0205, 40.6489 ], [ -4.02, 40.6487 ], [ -4.0196, 40.6489 ], [ -4.0196, 40.649 ], [ -4.0177, 40.6488 ], [ -4.0174, 40.6487 ], [ -4.0174, 40.6485 ], [ -4.017, 40.648 ], [ -4.0141, 40.6501 ], [ -4.0109, 40.6519 ], [ -4.0109, 40.652 ], [ -4.0124, 40.6523 ], [ -4.0128, 40.6525 ], [ -4.0139, 40.6524 ], [ -4.0163, 40.653 ] ] ] } },
{ "type": "Feature", "properties": { "municipio": "Alpedrete", "clasificacion": "no-urbanizable-protegido", "calificacion": "sin-asignar", "version": "vigente", "fuente": "SIT-CAM WFS — UsoDelSuelo:VPLA_V_CLASIFICACION (https://idem.comunidad.madrid/geosrvg/ows)", "fecha_dato": "2026-05-12", "ambito": "24526", "_raw_CD_SIGLAS": "SNUP", "_raw_DS_CLASIF_GEN": "Suelo No Urbanizable Protegido", "_raw_DS_CLASIF_DET": "Suelo No Urbanizable Especial Protección. Protección de masas forestales", "_raw_DS_DOCU": "NORMAS SUBSIDIARIAS", "_raw_DS_LEY": "CM Ley 4/1984, E RD 1346/1976", "_raw_FC_AC": "1994-05-27", "_raw_NM_AREA_M2": 411777.558142789, "_cam_code": "010" }, "geometry": { "type": "Polygon", "coordinates": [ [ [ -4.0264, 40.6549 ], [ -4.0284, 40.655 ], [ -4.0307, 40.6557 ], [ -4.0312, 40.656 ], [ -4.032, 40.6551 ], [ -4.0332, 40.6547 ], [ -4.034, 40.6548 ], [ -4.0343, 40.6546 ], [ -4.0346, 40.6546 ], [ -4.0353, 40.6531 ], [ -4.0354, 40.6525 ], [ -4.0353, 40.6516 ], [ -4.035, 40.651 ], [ -4.0337, 40.6497 ], [ -4.032, 40.6491 ], [ -4.0293, 40.6486 ], [ -4.0307, 40.649 ], [ -4.0295, 40.6498 ], [ -4.0272, 40.6521 ], [ -4.0257, 40.6543 ], [ -4.0255, 40.655 ], [ -4.026, 40.6551 ], [ -4.026, 40.655 ], [ -4.0264, 40.6549 ] ] ] } },
{ "type": "Feature", "properties": { "municipio": "Alpedrete", "clasificacion": "no-urbanizable-protegido", "calificacion": "sin-asignar", "version": "vigente", "fuente": "SIT-CAM WFS — UsoDelSuelo:VPLA_V_CLASIFICACION (https://idem.comunidad.madrid/geosrvg/ows)", "fecha_dato": "2026-05-12", "ambito": "24526", "_raw_CD_SIGLAS": "SNUP", "_raw_DS_CLASIF_GEN": "Suelo No Urbanizable Protegido", "_raw_DS_CLASIF_DET": "Suelo No Urbanizable Especial Protección. Protección de masas forestales", "_raw_DS_DOCU": "NORMAS SUBSIDIARIAS", "_raw_DS_LEY": "CM Ley 4/1984, E RD 1346/1976", "_raw_FC_AC": "1994-05-27", "_raw_NM_AREA_M2": 397793.09306047601, "_cam_code": "010" }, "geometry": { "type": "Polygon", "coordinates": [ [ [ -4.011, 40.6603 ], [ -4.0111, 40.661 ], [ -4.0118, 40.6608 ], [ -4.0118, 40.6599 ], [ -4.0121, 40.66 ], [ -4.0129, 40.6599 ], [ -4.0132, 40.6595 ], [ -4.0153, 40.6586 ], [ -4.0169, 40.6589 ], [ -4.0178, 40.6589 ], [ -4.0183, 40.6595 ], [ -4.0202, 40.6599 ], [ -4.0204, 40.6598 ], [ -4.0204, 40.6596 ], [ -4.0206, 40.6596 ], [ -4.0205, 40.6592 ], [ -4.0204, 40.6592 ], [ -4.0204, 40.6588 ], [ -4.0206, 40.6586 ], [ -4.0204, 40.6584 ], [ -4.0206, 40.6584 ], [ -4.0207, 40.6581 ], [ -4.0206, 40.6581 ], [ -4.0206, 40.6579 ], [ -4.02, 40.6577 ], [ -4.0203, 40.657 ], [ -4.0206, 40.6568 ], [ -4.0204, 40.6565 ], [ -4.0192, 40.656 ], [ -4.0187, 40.6561 ], [ -4.0175, 40.6558 ], [ -4.0144, 40.6554 ], [ -4.0126, 40.6548 ], [ -4.0111, 40.6546 ], [ -4.0096, 40.6542 ], [ -4.0095, 40.6544 ], [ -4.0098, 40.657 ], [ -4.01, 40.6578 ], [ -4.011, 40.6603 ] ] ] } },
{ "type": "Feature", "properties": { "municipio": "Alpedrete", "clasificacion": "urbano-consolidado", "calificacion": "sin-asignar", "version": "vigente", "fuente": "SIT-CAM WFS — UsoDelSuelo:VPLA_V_CLASIFICACION (https://idem.comunidad.madrid/geosrvg/ows)", "fecha_dato": "2026-05-12", "ambito": "24526", "_raw_CD_SIGLAS": "SU", "_raw_DS_CLASIF_GEN": "Suelo Urbano", "_raw_DS_CLASIF_DET": "Suelo Urbano", "_raw_DS_DOCU": "NORMAS SUBSIDIARIAS", "_raw_DS_LEY": "CM Ley 4/1984, E RD 1346/1976", "_raw_FC_AC": "1994-05-27", "_raw_NM_AREA_M2": 3654698.9272034401, "_cam_code": "010" }, "geometry": { "type": "Polygon", "coordinates": [ [ [ -4.031, 40.6665 ], [ -4.0335, 40.6663 ], [ -4.0361, 40.6649 ], [ -4.0363, 40.6649 ], [ -4.0369, 40.6644 ], [ -4.0412, 40.666 ], [ -4.0417, 40.6656 ], [ -4.042, 40.6664 ], [ -4.0426, 40.6659 ], [ -4.0431, 40.6651 ], [ -4.0433, 40.6641 ], [ -4.0435, 40.6642 ], [ -4.0477, 40.6597 ], [ -4.0475, 40.6583 ], [ -4.047, 40.6563 ], [ -4.0468, 40.6559 ], [ -4.0458, 40.6551 ], [ -4.0448, 40.654 ], [ -4.0427, 40.6526 ], [ -4.0392, 40.6491 ], [ -4.037, 40.6475 ], [ -4.0358, 40.6456 ], [ -4.0357, 40.6458 ], [ -4.0349, 40.6462 ], [ -4.0343, 40.6463 ], [ -4.0334, 40.6468 ], [ -4.0314, 40.6486 ], [ -4.031, 40.6488 ], [ -4.0302, 40.6487 ], [ -4.0289, 40.6483 ], [ -4.0274, 40.6473 ], [ -4.0234, 40.6411 ], [ -4.0208, 40.6401 ], [ -4.0177, 40.6386 ], [ -4.0176, 40.6388 ], [ -4.0195, 40.6415 ], [ -4.02, 40.6428 ], [ -4.0216, 40.6452 ], [ -4.0202, 40.6456 ], [ -4.0205, 40.6466 ], [ -4.0203, 40.6467 ], [ -4.0205, 40.6476 ], [ -4.0199, 40.648 ], [ -4.0203, 40.6488 ], [ -4.0217, 40.6491 ], [ -4.0218, 40.6493 ], [ -4.0218, 40.6495 ], [ -4.021, 40.6503 ], [ -4.0208, 40.6509 ], [ -4.021, 40.6509 ], [ -4.021, 40.6507 ], [ -4.0215, 40.6502 ], [ -4.0218, 40.6501 ], [ -4.0219, 40.6499 ], [ -4.0223, 40.6499 ], [ -4.0223, 40.6498 ], [ -4.0225, 40.65 ], [ -4.0225, 40.6509 ], [ -4.0224, 40.651 ], [ -4.0227, 40.651 ], [ -4.0237, 40.6515 ], [ -4.0237, 40.6516 ], [ -4.0249, 40.652 ], [ -4.0252, 40.6519 ], [ -4.0247, 40.6513 ], [ -4.0252, 40.6508 ], [ -4.0258, 40.6507 ], [ -4.0262, 40.6501 ], [ -4.0262, 40.6498 ], [ -4.0256, 40.6492 ], [ -4.0258, 40.649 ], [ -4.0243, 40.6482 ], [ -4.0231, 40.6473 ], [ -4.0223, 40.6469 ], [ -4.0221, 40.646 ], [ -4.0221, 40.6451 ], [ -4.0224, 40.6448 ], [ -4.0232, 40.6446 ], [ -4.0229, 40.6433 ], [ -4.0232, 40.6433 ], [ -4.0232, 40.6431 ], [ -4.0235, 40.6428 ], [ -4.0245, 40.6434 ], [ -4.0247, 40.6434 ], [ -4.0271, 40.6473 ], [ -4.0282, 40.6482 ], [ -4.0291, 40.6486 ], [ -4.0305, 40.6489 ], [ -4.0311, 40.6489 ], [ -4.033, 40.6494 ], [ -4.0337, 40.6497 ], [ -4.0344, 40.6503 ], [ -4.035, 40.651 ], [ -4.0353, 40.6516 ], [ -4.0354, 40.6521 ], [ -4.0353, 40.6531 ], [ -4.0346, 40.6546 ], [ -4.0343, 40.6546 ], [ -4.034, 40.6548 ], [ -4.0332, 40.6547 ], [ -4.032, 40.6551 ], [ -4.0312, 40.656 ], [ -4.0307, 40.6557 ], [ -4.0291, 40.6552 ], [ -4.0275, 40.6549 ], [ -4.0264, 40.6549 ], [ -4.026, 40.655 ], [ -4.026, 40.6551 ], [ -4.0257, 40.6551 ], [ -4.0255, 40.6549 ], [ -4.0254, 40.6552 ], [ -4.0245, 40.6554 ], [ -4.0244, 40.6556 ], [ -4.024, 40.6557 ], [ -4.0234, 40.6555 ], [ -4.0235, 40.655 ], [ -4.0232, 40.6549 ], [ -4.0232, 40.6546 ], [ -4.0228, 40.6546 ], [ -4.0227, 40.6544 ], [ -4.0226, 40.6545 ], [ -4.0219, 40.6535 ], [ -4.0213, 40.6539 ], [ -4.0205, 40.654 ], [ -4.0201, 40.6537 ], [ -4.019, 40.6533 ], [ -4.0163, 40.653 ], [ -4.0139, 40.6524 ], [ -4.0128, 40.6525 ], [ -4.0124, 40.6523 ], [ -4.0109, 40.652 ], [ -4.01, 40.6535 ], [ -4.011, 40.6534 ], [ -4.0115, 40.6532 ], [ -4.0121, 40.6532 ], [ -4.012, 40.6547 ], [ -4.0144, 40.6554 ], [ -4.0175, 40.6558 ], [ -4.0187, 40.6561 ], [ -4.0192, 40.656 ], [ -4.0204, 40.6565 ], [ -4.0206, 40.6568 ], [ -4.0203, 40.657 ], [ -4.02, 40.6577 ], [ -4.0206, 40.6579 ], [ -4.0206, 40.6581 ], [ -4.0207, 40.6581 ], [ -4.0206, 40.6584 ], [ -4.0204, 40.6584 ], [ -4.0206, 40.6586 ], [ -4.0204, 40.6588 ], [ -4.0204, 40.6592 ], [ -4.0205, 40.6592 ], [ -4.0206, 40.6596 ], [ -4.0204, 40.6596 ], [ -4.0204, 40.6598 ], [ -4.0202, 40.6599 ], [ -4.0183, 40.6595 ], [ -4.0178, 40.6589 ], [ -4.0169, 40.6589 ], [ -4.0153, 40.6586 ], [ -4.0132, 40.6595 ], [ -4.0129, 40.6599 ], [ -4.0121, 40.66 ], [ -4.0118, 40.6599 ], [ -4.0118, 40.6608 ], [ -4.0117, 40.6609 ], [ -4.0131, 40.6608 ], [ -4.0145, 40.6611 ], [ -4.0156, 40.6608 ], [ -4.0161, 40.6608 ], [ -4.0161, 40.6611 ], [ -4.0164, 40.6612 ], [ -4.0162, 40.6618 ], [ -4.0181, 40.6622 ], [ -4.0181, 40.6626 ], [ -4.0202, 40.6625 ], [ -4.0201, 40.6629 ], [ -4.0196, 40.6635 ], [ -4.0196, 40.6637 ], [ -4.0206, 40.6637 ], [ -4.0218, 40.6639 ], [ -4.0216, 40.6644 ], [ -4.0215, 40.6644 ], [ -4.0215, 40.6647 ], [ -4.0222, 40.6649 ], [ -4.0228, 40.6653 ], [ -4.023, 40.6653 ], [ -4.0234, 40.6636 ], [ -4.0239, 40.6631 ], [ -4.0239, 40.6629 ], [ -4.0241, 40.6629 ], [ -4.0242, 40.6627 ], [ -4.0245, 40.6626 ], [ -4.025, 40.663 ], [ -4.0254, 40.663 ], [ -4.0259, 40.6632 ], [ -4.0259, 40.6636 ], [ -4.0262, 40.6638 ], [ -4.0264, 40.6644 ], [ -4.0266, 40.6643 ], [ -4.0267, 40.6641 ], [ -4.0266, 40.664 ], [ -4.0268, 40.6638 ], [ -4.0269, 40.6639 ], [ -4.0274, 40.6639 ], [ -4.0278, 40.6642 ], [ -4.0286, 40.6645 ], [ -4.0289, 40.6648 ], [ -4.029, 40.6648 ], [ -4.0291, 40.6648 ], [ -4.0289, 40.6646 ], [ -4.0289, 40.6642 ], [ -4.0292, 40.6633 ], [ -4.0308, 40.6634 ], [ -4.0316, 40.666 ], [ -4.0314, 40.6661 ], [ -4.031, 40.666 ], [ -4.031, 40.6665 ] ], [ [ -4.0239, 40.6429 ], [ -4.0238, 40.6428 ], [ -4.0238, 40.6423 ], [ -4.0236, 40.6424 ], [ -4.0227, 40.6423 ], [ -4.0222, 40.642 ], [ -4.0221, 40.6424 ], [ -4.0218, 40.6424 ], [ -4.0212, 40.6405 ], [ -4.0235, 40.6416 ], [ -4.0242, 40.6427 ], [ -4.0239, 40.6429 ] ], [ [ -4.0231, 40.6559 ], [ -4.0235, 40.6563 ], [ -4.0232, 40.6564 ], [ -4.0232, 40.6569 ], [ -4.0233, 40.657 ], [ -4.0227, 40.6573 ], [ -4.0226, 40.6577 ], [ -4.0212, 40.6572 ], [ -4.0208, 40.6568 ], [ -4.0222, 40.6557 ], [ -4.0231, 40.6559 ] ] ] } },
{ "type": "Feature", "properties": { "municipio": "Alpedrete", "clasificacion": "urbano-consolidado", "calificacion": "sin-asignar", "version": "vigente", "fuente": "SIT-CAM WFS — UsoDelSuelo:VPLA_V_CLASIFICACION (https://idem.comunidad.madrid/geosrvg/ows)", "fecha_dato": "2026-05-12", "ambito": "24526", "_raw_CD_SIGLAS": "SU", "_raw_DS_CLASIF_GEN": "Suelo Urbano", "_raw_DS_CLASIF_DET": "Suelo Urbano", "_raw_DS_DOCU": "NORMAS SUBSIDIARIAS", "_raw_DS_LEY": "CM Ley 4/1984, E RD 1346/1976", "_raw_FC_AC": "1994-05-27", "_raw_NM_AREA_M2": 643404.69606377406, "_cam_code": "010" }, "geometry": { "type": "Polygon", "coordinates": [ [ [ -4.0253, 40.6324 ], [ -4.0229, 40.6344 ], [ -4.0213, 40.6355 ], [ -4.0208, 40.636 ], [ -4.0193, 40.637 ], [ -4.018, 40.6384 ], [ -4.0228, 40.6405 ], [ -4.0275, 40.642 ], [ -4.0307, 40.6424 ], [ -4.0316, 40.6424 ], [ -4.0302, 40.6413 ], [ -4.0304, 40.6405 ], [ -4.0305, 40.6391 ], [ -4.0263, 40.6329 ], [ -4.0253, 40.6324 ] ] ] } },
{ "type": "Feature", "properties": { "municipio": "Alpedrete", "clasificacion": "urbanizable-no-sectorizado", "calificacion": "sin-asignar", "version": "vigente", "fuente": "SIT-CAM WFS — UsoDelSuelo:VPLA_V_CLASIFICACION (https://idem.comunidad.madrid/geosrvg/ows)", "fecha_dato": "2026-05-12", "ambito": "24526", "_raw_CD_SIGLAS": "SUBNS", "_raw_DS_CLASIF_GEN": "Suelo No Urbanizable Común", "_raw_DS_CLASIF_DET": "Suelo No Urbanizable Común", "_raw_DS_DOCU": "NORMAS SUBSIDIARIAS", "_raw_DS_LEY": "CM Ley 4/1984, E RD 1346/1976", "_raw_FC_AC": "1994-05-27", "_raw_NM_AREA_M2": 349345.00402120303, "_cam_code": "010" }, "geometry": { "type": "Polygon", "coordinates": [ [ [ -4.0056, 40.6667 ], [ -4.0064, 40.6669 ], [ -4.0066, 40.6667 ], [ -4.0072, 40.6668 ], [ -4.0071, 40.665 ], [ -4.0074, 40.664 ], [ -4.0091, 40.6627 ], [ -4.0095, 40.6627 ], [ -4.0099, 40.6621 ], [ -4.0104, 40.6619 ], [ -4.01, 40.6594 ], [ -4.0094, 40.6585 ], [ -4.009, 40.6553 ], [ -4.0074, 40.6603 ], [ -4.0066, 40.6624 ], [ -4.0044, 40.6631 ], [ -4.0033, 40.6633 ], [ -4.0001, 40.6634 ], [ -3.9983, 40.6633 ], [ -3.9986, 40.6637 ], [ -4.0014, 40.6652 ], [ -4.0029, 40.6657 ], [ -4.0035, 40.6661 ], [ -4.004, 40.6661 ], [ -4.0045, 40.6666 ], [ -4.0056, 40.6667 ] ] ] } },
{ "type": "Feature", "properties": { "municipio": "Alpedrete", "clasificacion": "urbanizable-no-sectorizado", "calificacion": "sin-asignar", "version": "vigente", "fuente": "SIT-CAM WFS — UsoDelSuelo:VPLA_V_CLASIFICACION (https://idem.comunidad.madrid/geosrvg/ows)", "fecha_dato": "2026-05-12", "ambito": "24526", "_raw_CD_SIGLAS": "SUBNS", "_raw_DS_CLASIF_GEN": "Suelo No Urbanizable Común", "_raw_DS_CLASIF_DET": "Suelo No Urbanizable Común", "_raw_DS_DOCU": "NORMAS SUBSIDIARIAS", "_raw_DS_LEY": "CM Ley 4/1984, E RD 1346/1976", "_raw_FC_AC": "1994-05-27", "_raw_NM_AREA_M2": 2516205.97814016, "_cam_code": "010" }, "geometry": { "type": "Polygon", "coordinates": [ [ [ -4.0108, 40.6677 ], [ -4.0111, 40.6727 ], [ -4.0102, 40.6739 ], [ -4.01, 40.6749 ], [ -4.013, 40.6799 ], [ -4.0134, 40.6822 ], [ -4.0156, 40.681 ], [ -4.0193, 40.6795 ], [ -4.0217, 40.6777 ], [ -4.0246, 40.6758 ], [ -4.0269, 40.6745 ], [ -4.0306, 40.6728 ], [ -4.0316, 40.6717 ], [ -4.032, 40.6716 ], [ -4.0309, 40.6712 ], [ -4.0294, 40.6702 ], [ -4.0299, 40.6696 ], [ -4.0301, 40.6677 ], [ -4.0284, 40.6675 ], [ -4.0281, 40.6672 ], [ -4.0277, 40.6665 ], [ -4.0279, 40.6667 ], [ -4.0279, 40.6665 ], [ -4.0274, 40.6658 ], [ -4.0254, 40.666 ], [ -4.0228, 40.6653 ], [ -4.0222, 40.6649 ], [ -4.0215, 40.6647 ], [ -4.0205, 40.6647 ], [ -4.0198, 40.665 ], [ -4.0199, 40.6648 ], [ -4.0198, 40.6645 ], [ -4.0194, 40.6642 ], [ -4.0194, 40.6639 ], [ -4.0201, 40.6629 ], [ -4.0202, 40.6625 ], [ -4.0181, 40.6626 ], [ -4.0181, 40.6622 ], [ -4.0162, 40.6618 ], [ -4.0164, 40.6612 ], [ -4.0161, 40.6611 ], [ -4.0161, 40.6608 ], [ -4.0156, 40.6608 ], [ -4.0145, 40.6611 ], [ -4.0131, 40.6608 ], [ -4.0117, 40.6609 ], [ -4.0118, 40.6608 ], [ -4.0111, 40.661 ], [ -4.0114, 40.665 ], [ -4.0108, 40.6677 ] ] ] } },
{ "type": "Feature", "properties": { "municipio": "Alpedrete", "clasificacion": "urbanizable-no-sectorizado", "calificacion": "sin-asignar", "version": "vigente", "fuente": "SIT-CAM WFS — UsoDelSuelo:VPLA_V_CLASIFICACION (https://idem.comunidad.madrid/geosrvg/ows)", "fecha_dato": "2026-05-12", "ambito": "24526", "_raw_CD_SIGLAS": "SUBNS", "_raw_DS_CLASIF_GEN": "Suelo No Urbanizable Común", "_raw_DS_CLASIF_DET": "Suelo No Urbanizable Común", "_raw_DS_DOCU": "NORMAS SUBSIDIARIAS", "_raw_DS_LEY": "CM Ley 4/1984, E RD 1346/1976", "_raw_FC_AC": "1994-05-27", "_raw_NM_AREA_M2": 346284.58989834902, "_cam_code": "010" }, "geometry": { "type": "Polygon", "coordinates": [ [ [ -4.0242, 40.6422 ], [ -4.0266, 40.6462 ], [ -4.0274, 40.6473 ], [ -4.0289, 40.6483 ], [ -4.0302, 40.6487 ], [ -4.031, 40.6488 ], [ -4.0314, 40.6486 ], [ -4.0334, 40.6468 ], [ -4.0343, 40.6463 ], [ -4.0346, 40.6463 ], [ -4.0353, 40.646 ], [ -4.034, 40.6455 ], [ -4.0326, 40.6447 ], [ -4.0318, 40.6447 ], [ -4.0314, 40.6445 ], [ -4.0311, 40.6445 ], [ -4.0307, 40.644 ], [ -4.0299, 40.6437 ], [ -4.0282, 40.6425 ], [ -4.0262, 40.6421 ], [ -4.024, 40.6414 ], [ -4.0234, 40.6411 ], [ -4.0242, 40.6422 ] ] ] } },
{ "type": "Feature", "properties": { "municipio": "Alpedrete", "clasificacion": "urbanizable-sectorizado", "calificacion": "sin-asignar", "version": "vigente", "fuente": "SIT-CAM WFS — UsoDelSuelo:VPLA_V_CLASIFICACION (https://idem.comunidad.madrid/geosrvg/ows)", "fecha_dato": "2026-05-12", "ambito": "24526", "_raw_CD_SIGLAS": "SUBS", "_raw_DS_CLASIF_GEN": "Suelo Apto Para Urbanizar", "_raw_DS_CLASIF_DET": "Suelo Apto para Urbanizar", "_raw_DS_DOCU": "NORMAS SUBSIDIARIAS", "_raw_DS_LEY": "CM Ley 4/1984, E RD 1346/1976", "_raw_FC_AC": "1994-05-27", "_raw_NM_AREA_M2": 206593.43470208999, "_cam_code": "010" }, "geometry": { "type": "Polygon", "coordinates": [ [ [ -4.0277, 40.6665 ], [ -4.0284, 40.6675 ], [ -4.0288, 40.6676 ], [ -4.0301, 40.6677 ], [ -4.0298, 40.6672 ], [ -4.0301, 40.6666 ], [ -4.0304, 40.6665 ], [ -4.0306, 40.6658 ], [ -4.0311, 40.666 ], [ -4.0311, 40.6661 ], [ -4.0316, 40.666 ], [ -4.0308, 40.6634 ], [ -4.0292, 40.6633 ], [ -4.0289, 40.6642 ], [ -4.0289, 40.6646 ], [ -4.0291, 40.6648 ], [ -4.0289, 40.6648 ], [ -4.0286, 40.6645 ], [ -4.0278, 40.6642 ], [ -4.0274, 40.6639 ], [ -4.0269, 40.6639 ], [ -4.0268, 40.6638 ], [ -4.0266, 40.664 ], [ -4.0267, 40.6641 ], [ -4.0266, 40.6643 ], [ -4.0264, 40.6644 ], [ -4.0262, 40.6638 ], [ -4.0259, 40.6636 ], [ -4.0259, 40.6632 ], [ -4.0254, 40.663 ], [ -4.025, 40.663 ], [ -4.0245, 40.6626 ], [ -4.0242, 40.6627 ], [ -4.0241, 40.6629 ], [ -4.0239, 40.6629 ], [ -4.0239, 40.6631 ], [ -4.0234, 40.6636 ], [ -4.023, 40.6653 ], [ -4.0254, 40.666 ], [ -4.0274, 40.6658 ], [ -4.0279, 40.6665 ], [ -4.0279, 40.6667 ], [ -4.0277, 40.6665 ] ] ] } },
{ "type": "Feature", "properties": { "municipio": "Alpedrete", "clasificacion": "urbanizable-sectorizado", "calificacion": "sin-asignar", "version": "vigente", "fuente": "SIT-CAM WFS — UsoDelSuelo:VPLA_V_CLASIFICACION (https://idem.comunidad.madrid/geosrvg/ows)", "fecha_dato": "2026-05-12", "ambito": "24526", "_raw_CD_SIGLAS": "SUBS", "_raw_DS_CLASIF_GEN": "Suelo Apto Para Urbanizar", "_raw_DS_CLASIF_DET": "Suelo Apto para Urbanizar", "_raw_DS_DOCU": "NORMAS SUBSIDIARIAS", "_raw_DS_LEY": "CM Ley 4/1984, E RD 1346/1976", "_raw_FC_AC": "1994-05-27", "_raw_NM_AREA_M2": 25303.324084399101, "_cam_code": "010" }, "geometry": { "type": "Polygon", "coordinates": [ [ [ -4.0238, 40.6428 ], [ -4.0239, 40.6429 ], [ -4.0242, 40.6427 ], [ -4.0235, 40.6416 ], [ -4.0212, 40.6405 ], [ -4.0218, 40.6424 ], [ -4.0221, 40.6424 ], [ -4.0222, 40.642 ], [ -4.0227, 40.6423 ], [ -4.0235, 40.6424 ], [ -4.0238, 40.6423 ], [ -4.0238, 40.6428 ] ] ] } },
{ "type": "Feature", "properties": { "municipio": "Alpedrete", "clasificacion": "urbanizable-sectorizado", "calificacion": "sin-asignar", "version": "vigente", "fuente": "SIT-CAM WFS — UsoDelSuelo:VPLA_V_CLASIFICACION (https://idem.comunidad.madrid/geosrvg/ows)", "fecha_dato": "2026-05-12", "ambito": "24526", "_raw_CD_SIGLAS": "SUBS", "_raw_DS_CLASIF_GEN": "Suelo Apto Para Urbanizar", "_raw_DS_CLASIF_DET": "Suelo Apto para Urbanizar", "_raw_DS_DOCU": "NORMAS SUBSIDIARIAS", "_raw_DS_LEY": "CM Ley 4/1984, E RD 1346/1976", "_raw_FC_AC": "1994-05-27", "_raw_NM_AREA_M2": 66725.724287660705, "_cam_code": "010" }, "geometry": { "type": "Polygon", "coordinates": [ [ [ -4.0182, 40.6489 ], [ -4.0196, 40.649 ], [ -4.0196, 40.6489 ], [ -4.02, 40.6487 ], [ -4.0203, 40.6488 ], [ -4.0199, 40.648 ], [ -4.0205, 40.6476 ], [ -4.0203, 40.647 ], [ -4.0203, 40.6467 ], [ -4.0205, 40.6466 ], [ -4.0202, 40.6456 ], [ -4.0197, 40.6457 ], [ -4.017, 40.648 ], [ -4.0174, 40.6485 ], [ -4.0174, 40.6487 ], [ -4.0182, 40.6489 ] ] ] } },
{ "type": "Feature", "properties": { "municipio": "Alpedrete", "clasificacion": "urbanizable-sectorizado", "calificacion": "sin-asignar", "version": "vigente", "fuente": "SIT-CAM WFS — UsoDelSuelo:VPLA_V_CLASIFICACION (https://idem.comunidad.madrid/geosrvg/ows)", "fecha_dato": "2026-05-12", "ambito": "24526", "_raw_CD_SIGLAS": "SUBS", "_raw_DS_CLASIF_GEN": "Suelo Apto Para Urbanizar", "_raw_DS_CLASIF_DET": "Suelo Apto para Urbanizar", "_raw_DS_DOCU": "NORMAS SUBSIDIARIAS", "_raw_DS_LEY": "CM Ley 4/1984, E RD 1346/1976", "_raw_FC_AC": "1994-05-27", "_raw_NM_AREA_M2": 297378.43931717501, "_cam_code": "010" }, "geometry": { "type": "Polygon", "coordinates": [ [ [ -4.0265, 40.653 ], [ -4.0272, 40.6521 ], [ -4.0295, 40.6498 ], [ -4.0307, 40.649 ], [ -4.0288, 40.6485 ], [ -4.0282, 40.6482 ], [ -4.0272, 40.6474 ], [ -4.0251, 40.6442 ], [ -4.0247, 40.6434 ], [ -4.0245, 40.6434 ], [ -4.0235, 40.6428 ], [ -4.0232, 40.6431 ], [ -4.0232, 40.6433 ], [ -4.0229, 40.6433 ], [ -4.0232, 40.6446 ], [ -4.0224, 40.6448 ], [ -4.0221, 40.6451 ], [ -4.0222, 40.6466 ], [ -4.0224, 40.647 ], [ -4.0231, 40.6473 ], [ -4.0243, 40.6482 ], [ -4.0258, 40.649 ], [ -4.0256, 40.6492 ], [ -4.0262, 40.6498 ], [ -4.0262, 40.6501 ], [ -4.0258, 40.6507 ], [ -4.0252, 40.6508 ], [ -4.0247, 40.6513 ], [ -4.0254, 40.652 ], [ -4.0256, 40.6524 ], [ -4.0256, 40.6527 ], [ -4.0265, 40.653 ] ] ] } },
{ "type": "Feature", "properties": { "municipio": "Alpedrete", "clasificacion": "urbanizable-sectorizado", "calificacion": "sin-asignar", "version": "vigente", "fuente": "SIT-CAM WFS — UsoDelSuelo:VPLA_V_CLASIFICACION (https://idem.comunidad.madrid/geosrvg/ows)", "fecha_dato": "2026-05-12", "ambito": "24526", "_raw_CD_SIGLAS": "SUBS", "_raw_DS_CLASIF_GEN": "Suelo Apto Para Urbanizar", "_raw_DS_CLASIF_DET": "Suelo Apto para Urbanizar", "_raw_DS_DOCU": "NORMAS SUBSIDIARIAS", "_raw_DS_LEY": "CM Ley 4/1984, E RD 1346/1976", "_raw_FC_AC": "1994-05-27", "_raw_NM_AREA_M2": 25181.937489104901, "_cam_code": "010" }, "geometry": { "type": "Polygon", "coordinates": [ [ [ -4.0111, 40.6546 ], [ -4.012, 40.6547 ], [ -4.0121, 40.6532 ], [ -4.0115, 40.6532 ], [ -4.0099, 40.6536 ], [ -4.0096, 40.6542 ], [ -4.0111, 40.6546 ] ] ] } },
{ "type": "Feature", "properties": { "municipio": "Alpedrete", "clasificacion": "urbanizable-sectorizado", "calificacion": "sin-asignar", "version": "vigente", "fuente": "SIT-CAM WFS — UsoDelSuelo:VPLA_V_CLASIFICACION (https://idem.comunidad.madrid/geosrvg/ows)", "fecha_dato": "2026-05-12", "ambito": "24526", "_raw_CD_SIGLAS": "SUBS", "_raw_DS_CLASIF_GEN": "Suelo Apto Para Urbanizar", "_raw_DS_CLASIF_DET": "Suelo Apto para Urbanizar", "_raw_DS_DOCU": "NORMAS SUBSIDIARIAS", "_raw_DS_LEY": "CM Ley 4/1984, E RD 1346/1976", "_raw_FC_AC": "1994-05-27", "_raw_NM_AREA_M2": 29552.819046345601, "_cam_code": "010" }, "geometry": { "type": "Polygon", "coordinates": [ [ [ -4.0225, 40.6577 ], [ -4.0227, 40.6576 ], [ -4.0227, 40.6573 ], [ -4.0233, 40.657 ], [ -4.0232, 40.6569 ], [ -4.0232, 40.6564 ], [ -4.0235, 40.6563 ], [ -4.0235, 40.6562 ], [ -4.0231, 40.6559 ], [ -4.0222, 40.6557 ], [ -4.0208, 40.6568 ], [ -4.021, 40.6571 ], [ -4.0225, 40.6577 ] ] ] } },
{ "type": "Feature", "properties": { "municipio": "Alpedrete", "clasificacion": "urbanizable-sectorizado", "calificacion": "sin-asignar", "version": "vigente", "fuente": "SIT-CAM WFS — UsoDelSuelo:VPLA_V_CLASIFICACION (https://idem.comunidad.madrid/geosrvg/ows)", "fecha_dato": "2026-05-12", "ambito": "24526", "_raw_CD_SIGLAS": "SUBS", "_raw_DS_CLASIF_GEN": "Suelo Apto Para Urbanizar", "_raw_DS_CLASIF_DET": "Suelo Apto para Urbanizar", "_raw_DS_DOCU": "NORMAS SUBSIDIARIAS", "_raw_DS_LEY": "CM Ley 4/1984, E RD 1346/1976", "_raw_FC_AC": "1994-05-27", "_raw_NM_AREA_M2": 19357.200002407, "_cam_code": "010" }, "geometry": { "type": "Polygon", "coordinates": [ [ [ -4.0199, 40.6648 ], [ -4.0198, 40.665 ], [ -4.0202, 40.6649 ], [ -4.0205, 40.6647 ], [ -4.0215, 40.6647 ], [ -4.0215, 40.6644 ], [ -4.0216, 40.6644 ], [ -4.0218, 40.6639 ], [ -4.0206, 40.6637 ], [ -4.0195, 40.6637 ], [ -4.0194, 40.6642 ], [ -4.0198, 40.6645 ], [ -4.0199, 40.6648 ] ] ] } },
{ "type": "Feature", "properties": { "municipio": "Alpedrete", "clasificacion": "urbanizable-sectorizado", "calificacion": "sin-asignar", "version": "vigente", "fuente": "SIT-CAM WFS — UsoDelSuelo:VPLA_V_CLASIFICACION (https://idem.comunidad.madrid/geosrvg/ows)", "fecha_dato": "2026-05-12", "ambito": "24526", "_raw_CD_SIGLAS": "SUBS_A", "_raw_DS_CLASIF_GEN": "Suelo Apto para Urbanizar (APLAZADO)", "_raw_DS_CLASIF_DET": "Suelo Apto para Urbanizar", "_raw_DS_DOCU": "NORMAS SUBSIDIARIAS", "_raw_DS_LEY": "CM Ley 4/1984, E RD 1346/1976", "_raw_FC_AC": "1994-05-27", "_raw_NM_AREA_M2": 172523.59829637001, "_cam_code": "010" }, "geometry": { "type": "Polygon", "coordinates": [ [ [ -4.0232, 40.6549 ], [ -4.0235, 40.655 ], [ -4.0234, 40.6555 ], [ -4.024, 40.6557 ], [ -4.0244, 40.6556 ], [ -4.0245, 40.6554 ], [ -4.0254, 40.6552 ], [ -4.0257, 40.6543 ], [ -4.0266, 40.653 ], [ -4.0263, 40.653 ], [ -4.0256, 40.6527 ], [ -4.0256, 40.6524 ], [ -4.0254, 40.652 ], [ -4.0252, 40.6519 ], [ -4.0249, 40.652 ], [ -4.0237, 40.6516 ], [ -4.0237, 40.6515 ], [ -4.0227, 40.651 ], [ -4.0224, 40.651 ], [ -4.0225, 40.6509 ], [ -4.0225, 40.65 ], [ -4.0223, 40.6498 ], [ -4.0223, 40.6499 ], [ -4.0219, 40.6499 ], [ -4.0218, 40.6501 ], [ -4.0215, 40.6502 ], [ -4.0209, 40.6509 ], [ -4.0208, 40.6512 ], [ -4.0209, 40.6517 ], [ -4.0206, 40.6522 ], [ -4.0205, 40.6527 ], [ -4.0205, 40.6535 ], [ -4.0208, 40.6536 ], [ -4.0211, 40.6539 ], [ -4.0213, 40.6539 ], [ -4.0219, 40.6535 ], [ -4.0226, 40.6545 ], [ -4.0227, 40.6544 ], [ -4.0228, 40.6546 ], [ -4.0232, 40.6546 ], [ -4.0232, 40.6549 ] ] ] } },
{ "type": "Feature", "properties": { "municipio": "Alpedrete", "clasificacion": "urbanizable-sectorizado", "calificacion": "sin-asignar", "version": "vigente", "fuente": "SIT-CAM WFS — UsoDelSuelo:VPLA_V_CLASIFICACION (https://idem.comunidad.madrid/geosrvg/ows)", "fecha_dato": "2026-05-12", "ambito": "24526", "_raw_CD_SIGLAS": "SUBS_A", "_raw_DS_CLASIF_GEN": "Suelo Apto para Urbanizar (APLAZADO)", "_raw_DS_CLASIF_DET": "Suelo Apto para Urbanizar", "_raw_DS_DOCU": "NORMAS SUBSIDIARIAS", "_raw_DS_LEY": "CM Ley 4/1984, E RD 1346/1976", "_raw_FC_AC": "1994-05-27", "_raw_NM_AREA_M2": 405098.46734833502, "_cam_code": "010" }, "geometry": { "type": "Polygon", "coordinates": [ [ [ -4.0299, 40.6696 ], [ -4.0294, 40.6702 ], [ -4.0313, 40.6714 ], [ -4.032, 40.6716 ], [ -4.0336, 40.6713 ], [ -4.0348, 40.6706 ], [ -4.0361, 40.6696 ], [ -4.036, 40.6696 ], [ -4.0366, 40.6692 ], [ -4.037, 40.6686 ], [ -4.038, 40.6678 ], [ -4.0396, 40.6668 ], [ -4.0412, 40.666 ], [ -4.037, 40.6644 ], [ -4.0363, 40.6649 ], [ -4.0361, 40.6649 ], [ -4.0335, 40.6663 ], [ -4.031, 40.6665 ], [ -4.031, 40.666 ], [ -4.0306, 40.6658 ], [ -4.0304, 40.6665 ], [ -4.0301, 40.6666 ], [ -4.0298, 40.6672 ], [ -4.0301, 40.6676 ], [ -4.0299, 40.6696 ] ] ] } }
]
}
