{
"type": "FeatureCollection",
"name": "vigente.full",
"features": [
{ "type": "Feature", "properties": { "municipio": "Casarrubuelos", "clasificacion": "no-urbanizable-protegido", "calificacion": "sin-asignar", "version": "vigente", "fuente": "SIT-CAM WFS — UsoDelSuelo:VPLA_V_CLASIFICACION (https://idem.comunidad.madrid/geosrvg/ows)", "fecha_dato": "2026-05-12", "ambito": "67112", "_raw_CD_SIGLAS": "SNUP", "_raw_DS_CLASIF_GEN": "Suelo No Urbanizable Protegido", "_raw_DS_CLASIF_DET": "Suelo No Urbanizable de Protección Cauces Públicos", "_raw_DS_DOCU": "PLAN GENERAL", "_raw_DS_LEY": "CM Ley 9/2001, E Ley 6/1998", "_raw_FC_AC": "2007-01-18", "_raw_NM_AREA_M2": 11874.264129089799, "_cam_code": "036" }, "geometry": { "type": "Polygon", "coordinates": [ [ [ -3.8101, 40.1694 ], [ -3.811, 40.1698 ], [ -3.8114, 40.1698 ], [ -3.8116, 40.1696 ], [ -3.8121, 40.1696 ], [ -3.8126, 40.1699 ], [ -3.8128, 40.1698 ], [ -3.813, 40.1694 ], [ -3.8125, 40.1692 ], [ -3.8107, 40.1693 ], [ -3.8104, 40.169 ], [ -3.8101, 40.1694 ] ] ] } },
{ "type": "Feature", "properties": { "municipio": "Casarrubuelos", "clasificacion": "no-urbanizable-protegido", "calificacion": "sin-asignar", "version": "vigente", "fuente": "SIT-CAM WFS — UsoDelSuelo:VPLA_V_CLASIFICACION (https://idem.comunidad.madrid/geosrvg/ows)", "fecha_dato": "2026-05-12", "ambito": "67112", "_raw_CD_SIGLAS": "SNUP", "_raw_DS_CLASIF_GEN": "Suelo No Urbanizable Protegido", "_raw_DS_CLASIF_DET": "Suelo No Urbanizable de Protección por su interés Arqueológico", "_raw_DS_DOCU": "PLAN GENERAL", "_raw_DS_LEY": "CM Ley 9/2001, E Ley 6/1998", "_raw_FC_AC": "2007-01-18", "_raw_NM_AREA_M2": 162461.98374211599, "_cam_code": "036" }, "geometry": { "type": "Polygon", "coordinates": [ [ [ -3.8248, 40.1693 ], [ -3.8264, 40.1697 ], [ -3.8264, 40.1696 ], [ -3.8268, 40.1696 ], [ -3.8288, 40.168 ], [ -3.8295, 40.1675 ], [ -3.8297, 40.1675 ], [ -3.8298, 40.1672 ], [ -3.8296, 40.1668 ], [ -3.8281, 40.1649 ], [ -3.8245, 40.167 ], [ -3.823, 40.1681 ], [ -3.8231, 40.1684 ], [ -3.8241, 40.169 ], [ -3.8248, 40.1693 ] ] ] } },
{ "type": "Feature", "properties": { "municipio": "Casarrubuelos", "clasificacion": "no-urbanizable-protegido", "calificacion": "sin-asignar", "version": "vigente", "fuente": "SIT-CAM WFS — UsoDelSuelo:VPLA_V_CLASIFICACION (https://idem.comunidad.madrid/geosrvg/ows)", "fecha_dato": "2026-05-12", "ambito": "67112", "_raw_CD_SIGLAS": "SNUP", "_raw_DS_CLASIF_GEN": "Suelo No Urbanizable Protegido", "_raw_DS_CLASIF_DET": "Suelo No Urbanizable de Protección por su interés Paisajístico", "_raw_DS_DOCU": "PLAN GENERAL", "_raw_DS_LEY": "CM Ley 9/2001, E Ley 6/1998", "_raw_FC_AC": "2007-01-18", "_raw_NM_AREA_M2": 122012.45934494599, "_cam_code": "036" }, "geometry": { "type": "Polygon", "coordinates": [ [ [ -3.8364, 40.1788 ], [ -3.8365, 40.1792 ], [ -3.8373, 40.179 ], [ -3.841, 40.1789 ], [ -3.8402, 40.1784 ], [ -3.8401, 40.1779 ], [ -3.8397, 40.1775 ], [ -3.8391, 40.1774 ], [ -3.8391, 40.1773 ], [ -3.8385, 40.177 ], [ -3.8384, 40.1767 ], [ -3.838, 40.1765 ], [ -3.8379, 40.1762 ], [ -3.8372, 40.176 ], [ -3.8362, 40.1742 ], [ -3.8356, 40.1743 ], [ -3.8349, 40.1739 ], [ -3.8351, 40.1742 ], [ -3.8355, 40.1758 ], [ -3.8356, 40.1772 ], [ -3.8358, 40.1773 ], [ -3.8364, 40.1788 ] ] ] } },
{ "type": "Feature", "properties": { "municipio": "Casarrubuelos", "clasificacion": "no-urbanizable-protegido", "calificacion": "sin-asignar", "version": "vigente", "fuente": "SIT-CAM WFS — UsoDelSuelo:VPLA_V_CLASIFICACION (https://idem.comunidad.madrid/geosrvg/ows)", "fecha_dato": "2026-05-12", "ambito": "67112", "_raw_CD_SIGLAS": "SNUP", "_raw_DS_CLASIF_GEN": "Suelo No Urbanizable Protegido", "_raw_DS_CLASIF_DET": "Suelo No Urbanizable de Protección por su interés Paisajístico", "_raw_DS_DOCU": "PLAN GENERAL", "_raw_DS_LEY": "CM Ley 9/2001, E Ley 6/1998", "_raw_FC_AC": "2007-01-18", "_raw_NM_AREA_M2": 10141.4645511041, "_cam_code": "036" }, "geometry": { "type": "Polygon", "coordinates": [ [ [ -3.825, 40.176 ], [ -3.825, 40.1762 ], [ -3.8249, 40.1763 ], [ -3.8246, 40.1766 ], [ -3.8241, 40.1781 ], [ -3.824, 40.1788 ], [ -3.8237, 40.1793 ], [ -3.824, 40.1793 ], [ -3.8241, 40.179 ], [ -3.8245, 40.1787 ], [ -3.8247, 40.1783 ], [ -3.8248, 40.1766 ], [ -3.8251, 40.1761 ], [ -3.825, 40.176 ] ] ] } },
{ "type": "Feature", "properties": { "municipio": "Casarrubuelos", "clasificacion": "no-urbanizable-protegido", "calificacion": "sin-asignar", "version": "vigente", "fuente": "SIT-CAM WFS — UsoDelSuelo:VPLA_V_CLASIFICACION (https://idem.comunidad.madrid/geosrvg/ows)", "fecha_dato": "2026-05-12", "ambito": "67112", "_raw_CD_SIGLAS": "SNUP", "_raw_DS_CLASIF_GEN": "Suelo No Urbanizable Protegido", "_raw_DS_CLASIF_DET": "Suelo No Urbanizable de Protección por su interés Paisajístico", "_raw_DS_DOCU": "PLAN GENERAL", "_raw_DS_LEY": "CM Ley 9/2001, E Ley 6/1998", "_raw_FC_AC": "2007-01-18", "_raw_NM_AREA_M2": 5404.9284204797596, "_cam_code": "036" }, "geometry": { "type": "Polygon", "coordinates": [ [ [ -3.8356, 40.1773 ], [ -3.8356, 40.178 ], [ -3.836, 40.1792 ], [ -3.8364, 40.1792 ], [ -3.8363, 40.1789 ], [ -3.8362, 40.1789 ], [ -3.8359, 40.1778 ], [ -3.8358, 40.1778 ], [ -3.8358, 40.1775 ], [ -3.8356, 40.1773 ] ] ] } },
{ "type": "Feature", "properties": { "municipio": "Casarrubuelos", "clasificacion": "no-urbanizable-protegido", "calificacion": "sin-asignar", "version": "vigente", "fuente": "SIT-CAM WFS — UsoDelSuelo:VPLA_V_CLASIFICACION (https://idem.comunidad.madrid/geosrvg/ows)", "fecha_dato": "2026-05-12", "ambito": "67112", "_raw_CD_SIGLAS": "SNUP", "_raw_DS_CLASIF_GEN": "Suelo No Urbanizable Protegido", "_raw_DS_CLASIF_DET": "Suelo No Urbanizable de Protección Cauces Públicos", "_raw_DS_DOCU": "PLAN GENERAL", "_raw_DS_LEY": "CM Ley 9/2001, E Ley 6/1998", "_raw_FC_AC": "2007-01-18", "_raw_NM_AREA_M2": 2269.68865163183, "_cam_code": "036" }, "geometry": { "type": "Polygon", "coordinates": [ [ [ -3.8251, 40.1759 ], [ -3.8248, 40.1766 ], [ -3.8248, 40.1767 ], [ -3.8248, 40.1773 ], [ -3.8247, 40.1774 ], [ -3.8247, 40.1775 ], [ -3.8247, 40.1775 ], [ -3.8247, 40.1776 ], [ -3.8247, 40.1777 ], [ -3.8247, 40.1777 ], [ -3.8247, 40.1778 ], [ -3.8247, 40.1779 ], [ -3.8247, 40.178 ], [ -3.8247, 40.1781 ], [ -3.8247, 40.1783 ], [ -3.8245, 40.1787 ], [ -3.8241, 40.179 ], [ -3.824, 40.1793 ], [ -3.8247, 40.1785 ], [ -3.8247, 40.1785 ], [ -3.8247, 40.1784 ], [ -3.8247, 40.1783 ], [ -3.8247, 40.1782 ], [ -3.8247, 40.1781 ], [ -3.8247, 40.1779 ], [ -3.8247, 40.1778 ], [ -3.8247, 40.1777 ], [ -3.8249, 40.1771 ], [ -3.8248, 40.1767 ], [ -3.8251, 40.1763 ], [ -3.8251, 40.1759 ] ] ] } },
{ "type": "Feature", "properties": { "municipio": "Casarrubuelos", "clasificacion": "no-urbanizable-protegido", "calificacion": "sin-asignar", "version": "vigente", "fuente": "SIT-CAM WFS — UsoDelSuelo:VPLA_V_CLASIFICACION (https://idem.comunidad.madrid/geosrvg/ows)", "fecha_dato": "2026-05-12", "ambito": "67112", "_raw_CD_SIGLAS": "SNUP", "_raw_DS_CLASIF_GEN": "Suelo No Urbanizable Protegido", "_raw_DS_CLASIF_DET": "Suelo No Urbanizable de Protección Red Ferroviaria", "_raw_DS_DOCU": "PLAN GENERAL", "_raw_DS_LEY": "CM Ley 9/2001, E Ley 6/1998", "_raw_FC_AC": "2007-01-18", "_raw_NM_AREA_M2": 6346.3530326425798, "_cam_code": "036" }, "geometry": { "type": "Polygon", "coordinates": [ [ [ -3.8517, 40.1684 ], [ -3.852, 40.1705 ], [ -3.852, 40.1706 ], [ -3.852, 40.1706 ], [ -3.852, 40.1707 ], [ -3.852, 40.1709 ], [ -3.852, 40.1711 ], [ -3.852, 40.1713 ], [ -3.852, 40.1714 ], [ -3.852, 40.1716 ], [ -3.852, 40.1717 ], [ -3.8523, 40.1711 ], [ -3.8522, 40.171 ], [ -3.852, 40.1686 ], [ -3.8517, 40.1684 ] ] ] } },
{ "type": "Feature", "properties": { "municipio": "Casarrubuelos", "clasificacion": "no-urbanizable-protegido", "calificacion": "sin-asignar", "version": "vigente", "fuente": "SIT-CAM WFS — UsoDelSuelo:VPLA_V_CLASIFICACION (https://idem.comunidad.madrid/geosrvg/ows)", "fecha_dato": "2026-05-12", "ambito": "67112", "_raw_CD_SIGLAS": "SNUP", "_raw_DS_CLASIF_GEN": "Suelo No Urbanizable Protegido", "_raw_DS_CLASIF_DET": "Suelo No Urbanizable de Protección Red Ferroviaria", "_raw_DS_DOCU": "PLAN GENERAL", "_raw_DS_LEY": "CM Ley 9/2001, E Ley 6/1998", "_raw_FC_AC": "2007-01-18", "_raw_NM_AREA_M2": 718.00736752147895, "_cam_code": "036" }, "geometry": { "type": "Polygon", "coordinates": [ [ [ -3.8528, 40.1789 ], [ -3.8529, 40.1795 ], [ -3.8531, 40.1795 ], [ -3.853, 40.1791 ], [ -3.8528, 40.1789 ] ] ] } },
{ "type": "Feature", "properties": { "municipio": "Casarrubuelos", "clasificacion": "no-urbanizable-protegido", "calificacion": "sin-asignar", "version": "vigente", "fuente": "SIT-CAM WFS — UsoDelSuelo:VPLA_V_CLASIFICACION (https://idem.comunidad.madrid/geosrvg/ows)", "fecha_dato": "2026-05-12", "ambito": "67112", "_raw_CD_SIGLAS": "SNUP", "_raw_DS_CLASIF_GEN": "Suelo No Urbanizable Protegido", "_raw_DS_CLASIF_DET": "Suelo No Urbanizable de Protección por su interés Paisajístico", "_raw_DS_DOCU": "PLAN GENERAL", "_raw_DS_LEY": "CM Ley 9/2001, E Ley 6/1998", "_raw_FC_AC": "2007-01-18", "_raw_NM_AREA_M2": 4769.8910014634703, "_cam_code": "036" }, "geometry": { "type": "Polygon", "coordinates": [ [ [ -3.8521, 40.1696 ], [ -3.8522, 40.171 ], [ -3.8523, 40.1711 ], [ -3.8527, 40.1696 ], [ -3.8521, 40.1696 ] ] ] } },
{ "type": "Feature", "properties": { "municipio": "Casarrubuelos", "clasificacion": "no-urbanizable-protegido", "calificacion": "sin-asignar", "version": "vigente", "fuente": "SIT-CAM WFS — UsoDelSuelo:VPLA_V_CLASIFICACION (https://idem.comunidad.madrid/geosrvg/ows)", "fecha_dato": "2026-05-12", "ambito": "67112", "_raw_CD_SIGLAS": "SNUP", "_raw_DS_CLASIF_GEN": "Suelo No Urbanizable Protegido", "_raw_DS_CLASIF_DET": "Suelo No Urbanizable de Protección por su interés Paisajístico", "_raw_DS_DOCU": "PLAN GENERAL", "_raw_DS_LEY": "CM Ley 9/2001, E Ley 6/1998", "_raw_FC_AC": "2007-01-18", "_raw_NM_AREA_M2": 404.80434544065099, "_cam_code": "036" }, "geometry": { "type": "Polygon", "coordinates": [ [ [ -3.8415, 40.1719 ], [ -3.8412, 40.1719 ], [ -3.841, 40.1719 ], [ -3.8408, 40.1719 ], [ -3.8407, 40.1719 ], [ -3.8406, 40.1719 ], [ -3.8405, 40.1719 ], [ -3.8402, 40.1719 ], [ -3.8397, 40.1719 ], [ -3.8396, 40.1719 ], [ -3.8394, 40.1719 ], [ -3.8394, 40.1719 ], [ -3.8394, 40.1719 ], [ -3.8396, 40.1719 ], [ -3.8396, 40.1719 ], [ -3.8396, 40.1719 ], [ -3.8397, 40.1719 ], [ -3.8401, 40.1719 ], [ -3.8402, 40.1719 ], [ -3.8404, 40.1719 ], [ -3.8405, 40.1719 ], [ -3.8405, 40.1719 ], [ -3.8407, 40.1719 ], [ -3.8412, 40.1719 ], [ -3.8415, 40.1719 ] ] ] } },
{ "type": "Feature", "properties": { "municipio": "Casarrubuelos", "clasificacion": "no-urbanizable-protegido", "calificacion": "sin-asignar", "version": "vigente", "fuente": "SIT-CAM WFS — UsoDelSuelo:VPLA_V_CLASIFICACION (https://idem.comunidad.madrid/geosrvg/ows)", "fecha_dato": "2026-05-12", "ambito": "67112", "_raw_CD_SIGLAS": "SNUP", "_raw_DS_CLASIF_GEN": "Suelo No Urbanizable Protegido", "_raw_DS_CLASIF_DET": "Suelo No Urbanizable de Protección Cauces Públicos", "_raw_DS_DOCU": "PLAN GENERAL", "_raw_DS_LEY": "CM Ley 9/2001, E Ley 6/1998", "_raw_FC_AC": "2007-01-18", "_raw_NM_AREA_M2": 2530.62314628179, "_cam_code": "036" }, "geometry": { "type": "Polygon", "coordinates": [ [ [ -3.8476, 40.1749 ], [ -3.8492, 40.176 ], [ -3.8493, 40.176 ], [ -3.8476, 40.1749 ], [ -3.8476, 40.1748 ], [ -3.8472, 40.1745 ], [ -3.847, 40.1744 ], [ -3.8468, 40.1744 ], [ -3.8467, 40.1743 ], [ -3.8466, 40.1743 ], [ -3.8465, 40.1742 ], [ -3.8464, 40.1741 ], [ -3.8463, 40.174 ], [ -3.8462, 40.1737 ], [ -3.8462, 40.1737 ], [ -3.8461, 40.1737 ], [ -3.846, 40.1737 ], [ -3.846, 40.1736 ], [ -3.846, 40.1736 ], [ -3.846, 40.1736 ], [ -3.8459, 40.1736 ], [ -3.8458, 40.1736 ], [ -3.8457, 40.1736 ], [ -3.8457, 40.1735 ], [ -3.8456, 40.1735 ], [ -3.8455, 40.1735 ], [ -3.8453, 40.1732 ], [ -3.8452, 40.1727 ], [ -3.8445, 40.172 ], [ -3.8445, 40.1722 ], [ -3.8452, 40.1728 ], [ -3.8452, 40.1732 ], [ -3.8455, 40.1735 ], [ -3.8457, 40.1736 ], [ -3.8457, 40.1736 ], [ -3.8457, 40.1736 ], [ -3.8457, 40.1736 ], [ -3.8458, 40.1736 ], [ -3.8459, 40.1736 ], [ -3.846, 40.1737 ], [ -3.8461, 40.1737 ], [ -3.8463, 40.1741 ], [ -3.8465, 40.1742 ], [ -3.8465, 40.1743 ], [ -3.8471, 40.1745 ], [ -3.8476, 40.1749 ] ] ] } },
{ "type": "Feature", "properties": { "municipio": "Casarrubuelos", "clasificacion": "no-urbanizable-protegido", "calificacion": "sin-asignar", "version": "vigente", "fuente": "SIT-CAM WFS — UsoDelSuelo:VPLA_V_CLASIFICACION (https://idem.comunidad.madrid/geosrvg/ows)", "fecha_dato": "2026-05-12", "ambito": "67112", "_raw_CD_SIGLAS": "SNUP", "_raw_DS_CLASIF_GEN": "Suelo No Urbanizable Protegido", "_raw_DS_CLASIF_DET": "Suelo No Urbanizable de Protección Cauces Públicos", "_raw_DS_DOCU": "PLAN GENERAL", "_raw_DS_LEY": "CM Ley 9/2001, E Ley 6/1998", "_raw_FC_AC": "2007-01-18", "_raw_NM_AREA_M2": 21246.803558114501, "_cam_code": "036" }, "geometry": { "type": "Polygon", "coordinates": [ [ [ -3.8351, 40.1721 ], [ -3.8393, 40.1719 ], [ -3.8394, 40.1721 ], [ -3.8395, 40.1723 ], [ -3.8396, 40.1724 ], [ -3.8396, 40.1725 ], [ -3.8396, 40.1725 ], [ -3.8396, 40.1725 ], [ -3.8396, 40.1725 ], [ -3.8396, 40.1725 ], [ -3.8396, 40.1725 ], [ -3.8396, 40.1725 ], [ -3.8396, 40.1725 ], [ -3.8396, 40.1725 ], [ -3.8396, 40.1726 ], [ -3.8396, 40.1726 ], [ -3.8396, 40.1726 ], [ -3.8396, 40.1726 ], [ -3.8396, 40.1726 ], [ -3.8396, 40.1726 ], [ -3.8396, 40.1726 ], [ -3.8396, 40.1726 ], [ -3.8396, 40.1727 ], [ -3.8396, 40.1728 ], [ -3.8396, 40.1728 ], [ -3.8395, 40.1728 ], [ -3.8394, 40.1728 ], [ -3.8394, 40.1728 ], [ -3.8394, 40.1729 ], [ -3.8394, 40.1729 ], [ -3.8394, 40.1731 ], [ -3.8394, 40.1732 ], [ -3.8394, 40.1734 ], [ -3.8396, 40.1737 ], [ -3.84, 40.1741 ], [ -3.8401, 40.1741 ], [ -3.8402, 40.1742 ], [ -3.8412, 40.1747 ], [ -3.8413, 40.1747 ], [ -3.8418, 40.1754 ], [ -3.8421, 40.1757 ], [ -3.843, 40.1765 ], [ -3.8433, 40.1768 ], [ -3.8437, 40.1774 ], [ -3.8438, 40.1774 ], [ -3.844, 40.1775 ], [ -3.844, 40.1776 ], [ -3.8448, 40.1779 ], [ -3.8451, 40.1782 ], [ -3.8452, 40.1782 ], [ -3.8447, 40.1778 ], [ -3.8441, 40.1775 ], [ -3.844, 40.1775 ], [ -3.8439, 40.1775 ], [ -3.8438, 40.1774 ], [ -3.8438, 40.1773 ], [ -3.843, 40.1765 ], [ -3.8421, 40.1757 ], [ -3.8413, 40.1747 ], [ -3.84, 40.174 ], [ -3.8395, 40.1735 ], [ -3.8394, 40.1729 ], [ -3.8396, 40.1728 ], [ -3.8397, 40.1724 ], [ -3.8394, 40.1721 ], [ -3.8394, 40.1719 ], [ -3.8433, 40.1718 ], [ -3.8447, 40.1721 ], [ -3.8453, 40.1721 ], [ -3.8476, 40.1725 ], [ -3.848, 40.1725 ], [ -3.8485, 40.1725 ], [ -3.8489, 40.1725 ], [ -3.8494, 40.1725 ], [ -3.8504, 40.1726 ], [ -3.8511, 40.1728 ], [ -3.8516, 40.1729 ], [ -3.8519, 40.1729 ], [ -3.8509, 40.1726 ], [ -3.8484, 40.1724 ], [ -3.8473, 40.1724 ], [ -3.8472, 40.1723 ], [ -3.8467, 40.1723 ], [ -3.8454, 40.172 ], [ -3.8445, 40.172 ], [ -3.8432, 40.1717 ], [ -3.8406, 40.1718 ], [ -3.8408, 40.1715 ], [ -3.8409, 40.1715 ], [ -3.8413, 40.1713 ], [ -3.8414, 40.1711 ], [ -3.8414, 40.1711 ], [ -3.8415, 40.1711 ], [ -3.842, 40.1711 ], [ -3.8421, 40.171 ], [ -3.8422, 40.171 ], [ -3.8424, 40.1709 ], [ -3.8425, 40.1708 ], [ -3.8426, 40.1708 ], [ -3.8427, 40.1706 ], [ -3.8428, 40.1706 ], [ -3.8429, 40.1706 ], [ -3.843, 40.1706 ], [ -3.8432, 40.1706 ], [ -3.8436, 40.1707 ], [ -3.8437, 40.1707 ], [ -3.8441, 40.1708 ], [ -3.8441, 40.1708 ], [ -3.8442, 40.1708 ], [ -3.8444, 40.1708 ], [ -3.845, 40.1705 ], [ -3.8452, 40.1705 ], [ -3.8453, 40.1705 ], [ -3.8456, 40.1705 ], [ -3.8471, 40.17 ], [ -3.8472, 40.17 ], [ -3.8472, 40.17 ], [ -3.8472, 40.17 ], [ -3.8472, 40.17 ], [ -3.8473, 40.17 ], [ -3.8473, 40.17 ], [ -3.8473, 40.17 ], [ -3.8474, 40.17 ], [ -3.8474, 40.17 ], [ -3.8474, 40.17 ], [ -3.8475, 40.17 ], [ -3.8478, 40.17 ], [ -3.8501, 40.1698 ], [ -3.8503, 40.1697 ], [ -3.8504, 40.1696 ], [ -3.8499, 40.1698 ], [ -3.8471, 40.17 ], [ -3.8464, 40.1702 ], [ -3.8461, 40.1703 ], [ -3.8458, 40.1704 ], [ -3.8455, 40.1705 ], [ -3.8452, 40.1705 ], [ -3.8451, 40.1705 ], [ -3.845, 40.1705 ], [ -3.8448, 40.1705 ], [ -3.8442, 40.1708 ], [ -3.844, 40.1707 ], [ -3.8436, 40.1707 ], [ -3.8436, 40.1706 ], [ -3.8432, 40.1706 ], [ -3.8431, 40.1706 ], [ -3.843, 40.1706 ], [ -3.8428, 40.1706 ], [ -3.8427, 40.1706 ], [ -3.8422, 40.171 ], [ -3.842, 40.171 ], [ -3.8415, 40.171 ], [ -3.8411, 40.1714 ], [ -3.8409, 40.1714 ], [ -3.8409, 40.1715 ], [ -3.8406, 40.1718 ], [ -3.8378, 40.1717 ], [ -3.8378, 40.1718 ], [ -3.8369, 40.1718 ], [ -3.8368, 40.1719 ], [ -3.8357, 40.1719 ], [ -3.8351, 40.1721 ] ] ] } },
{ "type": "Feature", "properties": { "municipio": "Casarrubuelos", "clasificacion": "no-urbanizable-protegido", "calificacion": "sin-asignar", "version": "vigente", "fuente": "SIT-CAM WFS — UsoDelSuelo:VPLA_V_CLASIFICACION (https://idem.comunidad.madrid/geosrvg/ows)", "fecha_dato": "2026-05-12", "ambito": "67112", "_raw_CD_SIGLAS": "SNUP", "_raw_DS_CLASIF_GEN": "Suelo No Urbanizable Protegido", "_raw_DS_CLASIF_DET": "Suelo No Urbanizable de Protección Cauces Públicos", "_raw_DS_DOCU": "PLAN GENERAL", "_raw_DS_LEY": "CM Ley 9/2001, E Ley 6/1998", "_raw_FC_AC": "2007-01-18", "_raw_NM_AREA_M2": 5299.9099670349096, "_cam_code": "036" }, "geometry": { "type": "Polygon", "coordinates": [ [ [ -3.8362, 40.1742 ], [ -3.8367, 40.1752 ], [ -3.8369, 40.1755 ], [ -3.837, 40.1756 ], [ -3.8371, 40.1757 ], [ -3.8371, 40.1757 ], [ -3.8371, 40.1757 ], [ -3.8372, 40.1759 ], [ -3.8372, 40.176 ], [ -3.8379, 40.1762 ], [ -3.838, 40.1765 ], [ -3.8384, 40.1767 ], [ -3.8385, 40.177 ], [ -3.8391, 40.1773 ], [ -3.8391, 40.1774 ], [ -3.8397, 40.1775 ], [ -3.84, 40.1779 ], [ -3.8401, 40.1779 ], [ -3.8402, 40.1784 ], [ -3.8404, 40.1786 ], [ -3.841, 40.1789 ], [ -3.8403, 40.1785 ], [ -3.8401, 40.1779 ], [ -3.8396, 40.1774 ], [ -3.8392, 40.1774 ], [ -3.8392, 40.1773 ], [ -3.8385, 40.177 ], [ -3.8385, 40.1768 ], [ -3.8384, 40.1767 ], [ -3.8382, 40.1765 ], [ -3.8381, 40.1765 ], [ -3.8379, 40.1762 ], [ -3.8376, 40.176 ], [ -3.8373, 40.176 ], [ -3.8372, 40.1758 ], [ -3.8372, 40.1758 ], [ -3.8372, 40.1758 ], [ -3.8371, 40.1758 ], [ -3.8371, 40.1757 ], [ -3.837, 40.1755 ], [ -3.8362, 40.1741 ], [ -3.8358, 40.1742 ], [ -3.8351, 40.1739 ], [ -3.8344, 40.1738 ], [ -3.8342, 40.1736 ], [ -3.8342, 40.1736 ], [ -3.8341, 40.1736 ], [ -3.834, 40.1736 ], [ -3.834, 40.1735 ], [ -3.8335, 40.1736 ], [ -3.833, 40.1734 ], [ -3.8329, 40.1734 ], [ -3.8328, 40.1734 ], [ -3.8327, 40.1728 ], [ -3.8323, 40.1729 ], [ -3.8325, 40.1729 ], [ -3.8328, 40.1734 ], [ -3.8332, 40.1736 ], [ -3.8333, 40.1736 ], [ -3.8333, 40.1736 ], [ -3.8334, 40.1736 ], [ -3.8335, 40.1736 ], [ -3.8335, 40.1736 ], [ -3.8336, 40.1736 ], [ -3.8337, 40.1736 ], [ -3.8338, 40.1736 ], [ -3.8338, 40.1736 ], [ -3.8339, 40.1736 ], [ -3.8339, 40.1736 ], [ -3.834, 40.1736 ], [ -3.8341, 40.1736 ], [ -3.8345, 40.1739 ], [ -3.8352, 40.174 ], [ -3.8352, 40.1741 ], [ -3.8356, 40.1743 ], [ -3.8362, 40.1742 ] ] ] } },
{ "type": "Feature", "properties": { "municipio": "Casarrubuelos", "clasificacion": "no-urbanizable-protegido", "calificacion": "sin-asignar", "version": "vigente", "fuente": "SIT-CAM WFS — UsoDelSuelo:VPLA_V_CLASIFICACION (https://idem.comunidad.madrid/geosrvg/ows)", "fecha_dato": "2026-05-12", "ambito": "67112", "_raw_CD_SIGLAS": "SNUP", "_raw_DS_CLASIF_GEN": "Suelo No Urbanizable Protegido", "_raw_DS_CLASIF_DET": "Suelo No Urbanizable de Protección por su interés Paisajístico", "_raw_DS_DOCU": "PLAN GENERAL", "_raw_DS_LEY": "CM Ley 9/2001, E Ley 6/1998", "_raw_FC_AC": "2007-01-18", "_raw_NM_AREA_M2": 1104.92206631061, "_cam_code": "036" }, "geometry": { "type": "Polygon", "coordinates": [ [ [ -3.8484, 40.1724 ], [ -3.849, 40.1725 ], [ -3.8503, 40.1726 ], [ -3.8504, 40.1726 ], [ -3.8504, 40.1726 ], [ -3.8506, 40.1726 ], [ -3.8507, 40.1726 ], [ -3.8509, 40.1726 ], [ -3.8501, 40.1724 ], [ -3.8484, 40.1724 ] ] ] } },
{ "type": "Feature", "properties": { "municipio": "Casarrubuelos", "clasificacion": "no-urbanizable-protegido", "calificacion": "sin-asignar", "version": "vigente", "fuente": "SIT-CAM WFS — UsoDelSuelo:VPLA_V_CLASIFICACION (https://idem.comunidad.madrid/geosrvg/ows)", "fecha_dato": "2026-05-12", "ambito": "67112", "_raw_CD_SIGLAS": "SNUP", "_raw_DS_CLASIF_GEN": "Suelo No Urbanizable Protegido", "_raw_DS_CLASIF_DET": "Suelo No Urbanizable de Protección por su interés Paisajístico", "_raw_DS_DOCU": "PLAN GENERAL", "_raw_DS_LEY": "CM Ley 9/2001, E Ley 6/1998", "_raw_FC_AC": "2007-01-18", "_raw_NM_AREA_M2": 8911.7468404443498, "_cam_code": "036" }, "geometry": { "type": "Polygon", "coordinates": [ [ [ -3.8393, 40.1719 ], [ -3.8392, 40.172 ], [ -3.8376, 40.1719 ], [ -3.8375, 40.172 ], [ -3.8366, 40.172 ], [ -3.8365, 40.1721 ], [ -3.8384, 40.1722 ], [ -3.8396, 40.1728 ], [ -3.8396, 40.1724 ], [ -3.8393, 40.1719 ] ] ] } },
{ "type": "Feature", "properties": { "municipio": "Casarrubuelos", "clasificacion": "no-urbanizable-protegido", "calificacion": "sin-asignar", "version": "vigente", "fuente": "SIT-CAM WFS — UsoDelSuelo:VPLA_V_CLASIFICACION (https://idem.comunidad.madrid/geosrvg/ows)", "fecha_dato": "2026-05-12", "ambito": "67112", "_raw_CD_SIGLAS": "SNUP", "_raw_DS_CLASIF_GEN": "Suelo No Urbanizable Protegido", "_raw_DS_CLASIF_DET": "Suelo No Urbanizable de Protección Cauces Públicos", "_raw_DS_DOCU": "PLAN GENERAL", "_raw_DS_LEY": "CM Ley 9/2001, E Ley 6/1998", "_raw_FC_AC": "2007-01-18", "_raw_NM_AREA_M2": 1492.6843210228601, "_cam_code": "036" }, "geometry": { "type": "Polygon", "coordinates": [ [ [ -3.8247, 40.1736 ], [ -3.8244, 40.1737 ], [ -3.8235, 40.1739 ], [ -3.8235, 40.174 ], [ -3.8235, 40.1741 ], [ -3.824, 40.1747 ], [ -3.8245, 40.175 ], [ -3.8245, 40.1751 ], [ -3.8246, 40.1752 ], [ -3.8247, 40.1753 ], [ -3.8248, 40.1754 ], [ -3.825, 40.1756 ], [ -3.8249, 40.1757 ], [ -3.825, 40.1759 ], [ -3.825, 40.1759 ], [ -3.825, 40.1759 ], [ -3.825, 40.1758 ], [ -3.825, 40.1758 ], [ -3.825, 40.1758 ], [ -3.825, 40.1758 ], [ -3.825, 40.1758 ], [ -3.825, 40.1758 ], [ -3.825, 40.1757 ], [ -3.825, 40.1757 ], [ -3.825, 40.1756 ], [ -3.825, 40.1755 ], [ -3.8248, 40.1754 ], [ -3.8246, 40.1752 ], [ -3.8246, 40.175 ], [ -3.8241, 40.1747 ], [ -3.8235, 40.174 ], [ -3.8246, 40.1737 ], [ -3.8247, 40.1736 ] ] ] } },
{ "type": "Feature", "properties": { "municipio": "Casarrubuelos", "clasificacion": "no-urbanizable-protegido", "calificacion": "sin-asignar", "version": "vigente", "fuente": "SIT-CAM WFS — UsoDelSuelo:VPLA_V_CLASIFICACION (https://idem.comunidad.madrid/geosrvg/ows)", "fecha_dato": "2026-05-12", "ambito": "67112", "_raw_CD_SIGLAS": "SNUP", "_raw_DS_CLASIF_GEN": "Suelo No Urbanizable Protegido", "_raw_DS_CLASIF_DET": "Suelo No Urbanizable de Protección Red Viaria", "_raw_DS_DOCU": "PLAN GENERAL", "_raw_DS_LEY": "CM Ley 9/2001, E Ley 6/1998", "_raw_FC_AC": "2007-01-18", "_raw_NM_AREA_M2": 5339.5012407476197, "_cam_code": "036" }, "geometry": { "type": "Polygon", "coordinates": [ [ [ -3.8478, 40.1777 ], [ -3.849, 40.1783 ], [ -3.8492, 40.1783 ], [ -3.8493, 40.1783 ], [ -3.8493, 40.1784 ], [ -3.8497, 40.1785 ], [ -3.8497, 40.1786 ], [ -3.85, 40.1787 ], [ -3.8501, 40.1788 ], [ -3.8505, 40.179 ], [ -3.8508, 40.1791 ], [ -3.8513, 40.1794 ], [ -3.8514, 40.1794 ], [ -3.8514, 40.1795 ], [ -3.8517, 40.1796 ], [ -3.8511, 40.1792 ], [ -3.8501, 40.1788 ], [ -3.85, 40.1787 ], [ -3.8499, 40.1786 ], [ -3.8498, 40.1786 ], [ -3.8497, 40.1785 ], [ -3.8494, 40.1784 ], [ -3.8493, 40.1783 ], [ -3.8489, 40.1781 ], [ -3.8476, 40.1776 ], [ -3.8472, 40.1775 ], [ -3.8471, 40.1775 ], [ -3.8469, 40.1775 ], [ -3.8462, 40.1772 ], [ -3.8459, 40.1769 ], [ -3.8456, 40.1768 ], [ -3.8449, 40.1763 ], [ -3.8448, 40.1763 ], [ -3.8448, 40.1762 ], [ -3.8447, 40.1762 ], [ -3.8446, 40.1762 ], [ -3.8445, 40.1761 ], [ -3.8444, 40.176 ], [ -3.8443, 40.1759 ], [ -3.8442, 40.1758 ], [ -3.8422, 40.1743 ], [ -3.8406, 40.1733 ], [ -3.8395, 40.1728 ], [ -3.8395, 40.1729 ], [ -3.8405, 40.1733 ], [ -3.8422, 40.1743 ], [ -3.8424, 40.1746 ], [ -3.8427, 40.1747 ], [ -3.8444, 40.1761 ], [ -3.8455, 40.1768 ], [ -3.8456, 40.1768 ], [ -3.8457, 40.1769 ], [ -3.8461, 40.1771 ], [ -3.8462, 40.1772 ], [ -3.8466, 40.1774 ], [ -3.8471, 40.1776 ], [ -3.8474, 40.1776 ], [ -3.8475, 40.1777 ], [ -3.8478, 40.1777 ] ] ] } },
{ "type": "Feature", "properties": { "municipio": "Casarrubuelos", "clasificacion": "no-urbanizable-protegido", "calificacion": "sin-asignar", "version": "vigente", "fuente": "SIT-CAM WFS — UsoDelSuelo:VPLA_V_CLASIFICACION (https://idem.comunidad.madrid/geosrvg/ows)", "fecha_dato": "2026-05-12", "ambito": "67112", "_raw_CD_SIGLAS": "SNUP", "_raw_DS_CLASIF_GEN": "Suelo No Urbanizable Protegido", "_raw_DS_CLASIF_DET": "Suelo No Urbanizable de Protección por su interés Paisajístico", "_raw_DS_DOCU": "PLAN GENERAL", "_raw_DS_LEY": "CM Ley 9/2001, E Ley 6/1998", "_raw_FC_AC": "2007-01-18", "_raw_NM_AREA_M2": 161392.87568996899, "_cam_code": "036" }, "geometry": { "type": "Polygon", "coordinates": [ [ [ -3.8501, 40.1724 ], [ -3.8518, 40.1729 ], [ -3.852, 40.1717 ], [ -3.8519, 40.1696 ], [ -3.848, 40.1696 ], [ -3.847, 40.1696 ], [ -3.8472, 40.17 ], [ -3.8494, 40.1698 ], [ -3.8495, 40.1698 ], [ -3.8497, 40.1698 ], [ -3.8499, 40.1698 ], [ -3.8501, 40.1697 ], [ -3.8503, 40.1697 ], [ -3.8504, 40.1696 ], [ -3.8504, 40.1696 ], [ -3.8503, 40.1697 ], [ -3.8501, 40.1698 ], [ -3.8472, 40.17 ], [ -3.847, 40.1707 ], [ -3.8468, 40.1709 ], [ -3.846, 40.1711 ], [ -3.8457, 40.1713 ], [ -3.8451, 40.1713 ], [ -3.845, 40.171 ], [ -3.8449, 40.171 ], [ -3.8449, 40.1706 ], [ -3.8444, 40.1708 ], [ -3.8427, 40.1706 ], [ -3.8426, 40.1708 ], [ -3.842, 40.1711 ], [ -3.8414, 40.1711 ], [ -3.8413, 40.1713 ], [ -3.8406, 40.1717 ], [ -3.8406, 40.1718 ], [ -3.8436, 40.1717 ], [ -3.8436, 40.1718 ], [ -3.8442, 40.1718 ], [ -3.8447, 40.172 ], [ -3.8457, 40.172 ], [ -3.8476, 40.1724 ], [ -3.8501, 40.1724 ] ], [ [ -3.8505, 40.1699 ], [ -3.8498, 40.1722 ], [ -3.8485, 40.1721 ], [ -3.849, 40.1703 ], [ -3.8496, 40.1701 ], [ -3.8502, 40.1701 ], [ -3.8505, 40.1699 ] ] ] } },
{ "type": "Feature", "properties": { "municipio": "Casarrubuelos", "clasificacion": "no-urbanizable-protegido", "calificacion": "sin-asignar", "version": "vigente", "fuente": "SIT-CAM WFS — UsoDelSuelo:VPLA_V_CLASIFICACION (https://idem.comunidad.madrid/geosrvg/ows)", "fecha_dato": "2026-05-12", "ambito": "67112", "_raw_CD_SIGLAS": "SNUP", "_raw_DS_CLASIF_GEN": "Suelo No Urbanizable Protegido", "_raw_DS_CLASIF_DET": "Suelo No Urbanizable de Protección por su interés Paisajístico", "_raw_DS_DOCU": "PLAN GENERAL", "_raw_DS_LEY": "CM Ley 9/2001, E Ley 6/1998", "_raw_FC_AC": "2007-01-18", "_raw_NM_AREA_M2": 73.323780831870906, "_cam_code": "036" }, "geometry": { "type": "Polygon", "coordinates": [ [ [ -3.8234, 40.1739 ], [ -3.8232, 40.1739 ], [ -3.8232, 40.1739 ], [ -3.8232, 40.1739 ], [ -3.8231, 40.1739 ], [ -3.8231, 40.1739 ], [ -3.8231, 40.1739 ], [ -3.8231, 40.1739 ], [ -3.823, 40.1739 ], [ -3.823, 40.1739 ], [ -3.823, 40.1739 ], [ -3.823, 40.1739 ], [ -3.823, 40.1739 ], [ -3.8229, 40.1739 ], [ -3.8228, 40.1739 ], [ -3.8229, 40.1739 ], [ -3.8231, 40.1739 ], [ -3.8232, 40.1739 ], [ -3.8234, 40.1739 ] ] ] } },
{ "type": "Feature", "properties": { "municipio": "Casarrubuelos", "clasificacion": "no-urbanizable-protegido", "calificacion": "sin-asignar", "version": "vigente", "fuente": "SIT-CAM WFS — UsoDelSuelo:VPLA_V_CLASIFICACION (https://idem.comunidad.madrid/geosrvg/ows)", "fecha_dato": "2026-05-12", "ambito": "67112", "_raw_CD_SIGLAS": "SNUP", "_raw_DS_CLASIF_GEN": "Suelo No Urbanizable Protegido", "_raw_DS_CLASIF_DET": "Suelo No Urbanizable de Protección por su interés Paisajístico", "_raw_DS_DOCU": "PLAN GENERAL", "_raw_DS_LEY": "CM Ley 9/2001, E Ley 6/1998", "_raw_FC_AC": "2007-01-18", "_raw_NM_AREA_M2": 16336.759721083199, "_cam_code": "036" }, "geometry": { "type": "Polygon", "coordinates": [ [ [ -3.8328, 40.1727 ], [ -3.8328, 40.1733 ], [ -3.8329, 40.1734 ], [ -3.8341, 40.1735 ], [ -3.8344, 40.1738 ], [ -3.8349, 40.1738 ], [ -3.8348, 40.1727 ], [ -3.8345, 40.1728 ], [ -3.8339, 40.1728 ], [ -3.8337, 40.1726 ], [ -3.8328, 40.1727 ] ] ] } },
{ "type": "Feature", "properties": { "municipio": "Casarrubuelos", "clasificacion": "no-urbanizable-protegido", "calificacion": "sin-asignar", "version": "vigente", "fuente": "SIT-CAM WFS — UsoDelSuelo:VPLA_V_CLASIFICACION (https://idem.comunidad.madrid/geosrvg/ows)", "fecha_dato": "2026-05-12", "ambito": "67112", "_raw_CD_SIGLAS": "SNUP", "_raw_DS_CLASIF_GEN": "Suelo No Urbanizable Protegido", "_raw_DS_CLASIF_DET": "Suelo No Urbanizable de Protección por su interés Paisajístico", "_raw_DS_DOCU": "PLAN GENERAL", "_raw_DS_LEY": "CM Ley 9/2001, E Ley 6/1998", "_raw_FC_AC": "2007-01-18", "_raw_NM_AREA_M2": 141664.91530430201, "_cam_code": "036" }, "geometry": { "type": "Polygon", "coordinates": [ [ [ -3.8395, 40.1728 ], [ -3.8406, 40.1733 ], [ -3.8434, 40.1752 ], [ -3.8467, 40.1747 ], [ -3.8476, 40.1749 ], [ -3.8471, 40.1745 ], [ -3.8465, 40.1743 ], [ -3.8461, 40.1737 ], [ -3.8455, 40.1735 ], [ -3.8452, 40.1732 ], [ -3.8452, 40.1728 ], [ -3.8445, 40.1722 ], [ -3.8445, 40.172 ], [ -3.8433, 40.1718 ], [ -3.8394, 40.1719 ], [ -3.8394, 40.1721 ], [ -3.8397, 40.1724 ], [ -3.8397, 40.1726 ], [ -3.8395, 40.1728 ] ] ] } },
{ "type": "Feature", "properties": { "municipio": "Casarrubuelos", "clasificacion": "no-urbanizable-protegido", "calificacion": "sin-asignar", "version": "vigente", "fuente": "SIT-CAM WFS — UsoDelSuelo:VPLA_V_CLASIFICACION (https://idem.comunidad.madrid/geosrvg/ows)", "fecha_dato": "2026-05-12", "ambito": "67112", "_raw_CD_SIGLAS": "SNUP", "_raw_DS_CLASIF_GEN": "Suelo No Urbanizable Protegido", "_raw_DS_CLASIF_DET": "Suelo No Urbanizable de Protección por su interés Paisajístico", "_raw_DS_DOCU": "PLAN GENERAL", "_raw_DS_LEY": "CM Ley 9/2001, E Ley 6/1998", "_raw_FC_AC": "2007-01-18", "_raw_NM_AREA_M2": 36949.043220405802, "_cam_code": "036" }, "geometry": { "type": "Polygon", "coordinates": [ [ [ -3.8247, 40.1737 ], [ -3.8247, 40.1736 ], [ -3.8235, 40.174 ], [ -3.8241, 40.1747 ], [ -3.8246, 40.175 ], [ -3.8246, 40.1752 ], [ -3.825, 40.1755 ], [ -3.825, 40.1758 ], [ -3.8253, 40.1753 ], [ -3.8259, 40.1747 ], [ -3.8274, 40.1738 ], [ -3.8268, 40.1737 ], [ -3.8265, 40.1735 ], [ -3.8261, 40.1736 ], [ -3.8252, 40.1735 ], [ -3.825, 40.1737 ], [ -3.8247, 40.1737 ] ] ] } },
{ "type": "Feature", "properties": { "municipio": "Casarrubuelos", "clasificacion": "no-urbanizable-protegido", "calificacion": "sin-asignar", "version": "vigente", "fuente": "SIT-CAM WFS — UsoDelSuelo:VPLA_V_CLASIFICACION (https://idem.comunidad.madrid/geosrvg/ows)", "fecha_dato": "2026-05-12", "ambito": "67112", "_raw_CD_SIGLAS": "SNUP", "_raw_DS_CLASIF_GEN": "Suelo No Urbanizable Protegido", "_raw_DS_CLASIF_DET": "Suelo No Urbanizable de Protección por su interés Paisajístico", "_raw_DS_DOCU": "PLAN GENERAL", "_raw_DS_LEY": "CM Ley 9/2001, E Ley 6/1998", "_raw_FC_AC": "2007-01-18", "_raw_NM_AREA_M2": 26274.445499210698, "_cam_code": "036" }, "geometry": { "type": "Polygon", "coordinates": [ [ [ -3.8328, 40.1736 ], [ -3.8348, 40.1762 ], [ -3.8353, 40.1767 ], [ -3.8352, 40.1756 ], [ -3.8347, 40.174 ], [ -3.8344, 40.174 ], [ -3.834, 40.1737 ], [ -3.8328, 40.1736 ] ] ] } },
{ "type": "Feature", "properties": { "municipio": "Casarrubuelos", "clasificacion": "no-urbanizable-protegido", "calificacion": "sin-asignar", "version": "vigente", "fuente": "SIT-CAM WFS — UsoDelSuelo:VPLA_V_CLASIFICACION (https://idem.comunidad.madrid/geosrvg/ows)", "fecha_dato": "2026-05-12", "ambito": "67112", "_raw_CD_SIGLAS": "SNUP", "_raw_DS_CLASIF_GEN": "Suelo No Urbanizable Protegido", "_raw_DS_CLASIF_DET": "Suelo No Urbanizable de Protección por su interés Ecológico", "_raw_DS_DOCU": "PLAN GENERAL", "_raw_DS_LEY": "CM Ley 9/2001, E Ley 6/1998", "_raw_FC_AC": "2007-01-18", "_raw_NM_AREA_M2": 12734.6189543733, "_cam_code": "036" }, "geometry": { "type": "Polygon", "coordinates": [ [ [ -3.8453, 40.1696 ], [ -3.8452, 40.17 ], [ -3.8449, 40.1705 ], [ -3.8455, 40.1705 ], [ -3.8472, 40.17 ], [ -3.847, 40.1696 ], [ -3.8453, 40.1696 ] ] ] } },
{ "type": "Feature", "properties": { "municipio": "Casarrubuelos", "clasificacion": "no-urbanizable-protegido", "calificacion": "sin-asignar", "version": "vigente", "fuente": "SIT-CAM WFS — UsoDelSuelo:VPLA_V_CLASIFICACION (https://idem.comunidad.madrid/geosrvg/ows)", "fecha_dato": "2026-05-12", "ambito": "67112", "_raw_CD_SIGLAS": "SNUP", "_raw_DS_CLASIF_GEN": "Suelo No Urbanizable Protegido", "_raw_DS_CLASIF_DET": "Suelo No Urbanizable de Protección por su interés Ecológico", "_raw_DS_DOCU": "PLAN GENERAL", "_raw_DS_LEY": "CM Ley 9/2001, E Ley 6/1998", "_raw_FC_AC": "2007-01-18", "_raw_NM_AREA_M2": 15432.711950877299, "_cam_code": "036" }, "geometry": { "type": "Polygon", "coordinates": [ [ [ -3.8449, 40.1706 ], [ -3.8449, 40.171 ], [ -3.845, 40.171 ], [ -3.8451, 40.1713 ], [ -3.8457, 40.1713 ], [ -3.846, 40.1711 ], [ -3.8468, 40.1709 ], [ -3.847, 40.1707 ], [ -3.8472, 40.17 ], [ -3.8449, 40.1706 ] ] ] } },
{ "type": "Feature", "properties": { "municipio": "Casarrubuelos", "clasificacion": "no-urbanizable-protegido", "calificacion": "sin-asignar", "version": "vigente", "fuente": "SIT-CAM WFS — UsoDelSuelo:VPLA_V_CLASIFICACION (https://idem.comunidad.madrid/geosrvg/ows)", "fecha_dato": "2026-05-12", "ambito": "67112", "_raw_CD_SIGLAS": "SNUP", "_raw_DS_CLASIF_GEN": "Suelo No Urbanizable Protegido", "_raw_DS_CLASIF_DET": "Suelo No Urbanizable de Protección Red Viaria", "_raw_DS_DOCU": "PLAN GENERAL", "_raw_DS_LEY": "CM Ley 9/2001, E Ley 6/1998", "_raw_FC_AC": "2007-01-18", "_raw_NM_AREA_M2": 3333.7030124982998, "_cam_code": "036" }, "geometry": { "type": "Polygon", "coordinates": [ [ [ -3.8376, 40.167 ], [ -3.8377, 40.167 ], [ -3.8386, 40.166 ], [ -3.8391, 40.1653 ], [ -3.8401, 40.1635 ], [ -3.8409, 40.1627 ], [ -3.8404, 40.163 ], [ -3.8393, 40.1648 ], [ -3.8391, 40.1653 ], [ -3.8376, 40.167 ] ] ] } },
{ "type": "Feature", "properties": { "municipio": "Casarrubuelos", "clasificacion": "no-urbanizable-protegido", "calificacion": "sin-asignar", "version": "vigente", "fuente": "SIT-CAM WFS — UsoDelSuelo:VPLA_V_CLASIFICACION (https://idem.comunidad.madrid/geosrvg/ows)", "fecha_dato": "2026-05-12", "ambito": "67112", "_raw_CD_SIGLAS": "SNUP", "_raw_DS_CLASIF_GEN": "Suelo No Urbanizable Protegido", "_raw_DS_CLASIF_DET": "Suelo No Urbanizable de Protección Red Viaria", "_raw_DS_DOCU": "PLAN GENERAL", "_raw_DS_LEY": "CM Ley 9/2001, E Ley 6/1998", "_raw_FC_AC": "2007-01-18", "_raw_NM_AREA_M2": 2683.7861602017801, "_cam_code": "036" }, "geometry": { "type": "Polygon", "coordinates": [ [ [ -3.8341, 40.1623 ], [ -3.8342, 40.1644 ], [ -3.834, 40.1649 ], [ -3.8339, 40.1654 ], [ -3.8339, 40.166 ], [ -3.8338, 40.1661 ], [ -3.8339, 40.1663 ], [ -3.8341, 40.1647 ], [ -3.8343, 40.1642 ], [ -3.8342, 40.1614 ], [ -3.8341, 40.1623 ] ] ] } },
{ "type": "Feature", "properties": { "municipio": "Casarrubuelos", "clasificacion": "no-urbanizable-protegido", "calificacion": "sin-asignar", "version": "vigente", "fuente": "SIT-CAM WFS — UsoDelSuelo:VPLA_V_CLASIFICACION (https://idem.comunidad.madrid/geosrvg/ows)", "fecha_dato": "2026-05-12", "ambito": "67112", "_raw_CD_SIGLAS": "SNUP", "_raw_DS_CLASIF_GEN": "Suelo No Urbanizable Protegido", "_raw_DS_CLASIF_DET": "Suelo No Urbanizable de Protección por su interés Paisajístico", "_raw_DS_DOCU": "PLAN GENERAL", "_raw_DS_LEY": "CM Ley 9/2001, E Ley 6/1998", "_raw_FC_AC": "2007-01-18", "_raw_NM_AREA_M2": 313087.51266585902, "_cam_code": "036" }, "geometry": { "type": "Polygon", "coordinates": [ [ [ -3.8159, 40.1792 ], [ -3.8188, 40.1794 ], [ -3.8214, 40.1793 ], [ -3.8226, 40.1791 ], [ -3.8237, 40.1792 ], [ -3.824, 40.1788 ], [ -3.824, 40.1783 ], [ -3.8243, 40.1776 ], [ -3.8244, 40.177 ], [ -3.8249, 40.1761 ], [ -3.825, 40.1761 ], [ -3.825, 40.1758 ], [ -3.8249, 40.1758 ], [ -3.825, 40.1756 ], [ -3.8244, 40.1749 ], [ -3.8236, 40.1743 ], [ -3.8235, 40.1741 ], [ -3.8235, 40.1741 ], [ -3.8235, 40.174 ], [ -3.8235, 40.174 ], [ -3.8235, 40.1739 ], [ -3.8236, 40.1739 ], [ -3.8236, 40.1739 ], [ -3.8233, 40.1739 ], [ -3.8229, 40.1739 ], [ -3.8225, 40.174 ], [ -3.8205, 40.1747 ], [ -3.8196, 40.1752 ], [ -3.8194, 40.1752 ], [ -3.8194, 40.1753 ], [ -3.8183, 40.176 ], [ -3.8174, 40.1764 ], [ -3.8174, 40.1767 ], [ -3.8171, 40.1768 ], [ -3.8159, 40.1792 ] ] ] } },
{ "type": "Feature", "properties": { "municipio": "Casarrubuelos", "clasificacion": "no-urbanizable-protegido", "calificacion": "sin-asignar", "version": "vigente", "fuente": "SIT-CAM WFS — UsoDelSuelo:VPLA_V_CLASIFICACION (https://idem.comunidad.madrid/geosrvg/ows)", "fecha_dato": "2026-05-12", "ambito": "67112", "_raw_CD_SIGLAS": "SNUP", "_raw_DS_CLASIF_GEN": "Suelo No Urbanizable Protegido", "_raw_DS_CLASIF_DET": "Suelo No Urbanizable de Protección Red Viaria", "_raw_DS_DOCU": "PLAN GENERAL", "_raw_DS_LEY": "CM Ley 9/2001, E Ley 6/1998", "_raw_FC_AC": "2007-01-18", "_raw_NM_AREA_M2": 4436.0269736645296, "_cam_code": "036" }, "geometry": { "type": "Polygon", "coordinates": [ [ [ -3.8227, 40.1739 ], [ -3.8196, 40.175 ], [ -3.8186, 40.1757 ], [ -3.8174, 40.1763 ], [ -3.8174, 40.1764 ], [ -3.8183, 40.176 ], [ -3.8194, 40.1753 ], [ -3.8194, 40.1752 ], [ -3.8196, 40.1752 ], [ -3.8205, 40.1747 ], [ -3.8225, 40.174 ], [ -3.8237, 40.1739 ], [ -3.8227, 40.1739 ] ] ] } },
{ "type": "Feature", "properties": { "municipio": "Casarrubuelos", "clasificacion": "no-urbanizable-protegido", "calificacion": "sin-asignar", "version": "vigente", "fuente": "SIT-CAM WFS — UsoDelSuelo:VPLA_V_CLASIFICACION (https://idem.comunidad.madrid/geosrvg/ows)", "fecha_dato": "2026-05-12", "ambito": "67112", "_raw_CD_SIGLAS": "SNUP", "_raw_DS_CLASIF_GEN": "Suelo No Urbanizable Protegido", "_raw_DS_CLASIF_DET": "Suelo No Urbanizable de Protección Red Viaria", "_raw_DS_DOCU": "PLAN GENERAL", "_raw_DS_LEY": "CM Ley 9/2001, E Ley 6/1998", "_raw_FC_AC": "2007-01-18", "_raw_NM_AREA_M2": 2856.74307581427, "_cam_code": "036" }, "geometry": { "type": "Polygon", "coordinates": [ [ [ -3.8367, 40.1721 ], [ -3.837, 40.1721 ], [ -3.8373, 40.1721 ], [ -3.8375, 40.1722 ], [ -3.8381, 40.1722 ], [ -3.8395, 40.1728 ], [ -3.8384, 40.1722 ], [ -3.8379, 40.1721 ], [ -3.8379, 40.1721 ], [ -3.8378, 40.1721 ], [ -3.8377, 40.1721 ], [ -3.8375, 40.1721 ], [ -3.8373, 40.1721 ], [ -3.8372, 40.1721 ], [ -3.8371, 40.1721 ], [ -3.8369, 40.1721 ], [ -3.8368, 40.1721 ], [ -3.8366, 40.1721 ], [ -3.8365, 40.1721 ], [ -3.8366, 40.172 ], [ -3.8367, 40.172 ], [ -3.8369, 40.172 ], [ -3.8369, 40.172 ], [ -3.837, 40.172 ], [ -3.8375, 40.172 ], [ -3.8376, 40.1719 ], [ -3.8377, 40.1719 ], [ -3.838, 40.1719 ], [ -3.838, 40.1719 ], [ -3.8382, 40.1719 ], [ -3.8383, 40.1719 ], [ -3.8384, 40.1719 ], [ -3.8385, 40.1719 ], [ -3.8386, 40.1719 ], [ -3.8386, 40.1719 ], [ -3.8388, 40.1719 ], [ -3.8389, 40.172 ], [ -3.8393, 40.1719 ], [ -3.8393, 40.1719 ], [ -3.8392, 40.1719 ], [ -3.8391, 40.1719 ], [ -3.839, 40.1719 ], [ -3.839, 40.1719 ], [ -3.8389, 40.1719 ], [ -3.8389, 40.1719 ], [ -3.8389, 40.1719 ], [ -3.8388, 40.1719 ], [ -3.8387, 40.1719 ], [ -3.8387, 40.1719 ], [ -3.8387, 40.1719 ], [ -3.8386, 40.1719 ], [ -3.8385, 40.1719 ], [ -3.8384, 40.1719 ], [ -3.8383, 40.1719 ], [ -3.8382, 40.1719 ], [ -3.8382, 40.1719 ], [ -3.8382, 40.1719 ], [ -3.8381, 40.1719 ], [ -3.8378, 40.1719 ], [ -3.8374, 40.1719 ], [ -3.8371, 40.1719 ], [ -3.837, 40.172 ], [ -3.837, 40.172 ], [ -3.837, 40.172 ], [ -3.8369, 40.172 ], [ -3.8369, 40.172 ], [ -3.8369, 40.172 ], [ -3.8369, 40.172 ], [ -3.8368, 40.172 ], [ -3.8368, 40.172 ], [ -3.8367, 40.172 ], [ -3.8367, 40.172 ], [ -3.8366, 40.172 ], [ -3.8362, 40.172 ], [ -3.8351, 40.1721 ], [ -3.8351, 40.1723 ], [ -3.8358, 40.1721 ], [ -3.8361, 40.1721 ], [ -3.8364, 40.1721 ], [ -3.8365, 40.1721 ], [ -3.8366, 40.1721 ], [ -3.8367, 40.1721 ] ] ] } },
{ "type": "Feature", "properties": { "municipio": "Casarrubuelos", "clasificacion": "no-urbanizable-protegido", "calificacion": "sin-asignar", "version": "vigente", "fuente": "SIT-CAM WFS — UsoDelSuelo:VPLA_V_CLASIFICACION (https://idem.comunidad.madrid/geosrvg/ows)", "fecha_dato": "2026-05-12", "ambito": "67112", "_raw_CD_SIGLAS": "SNUP", "_raw_DS_CLASIF_GEN": "Suelo No Urbanizable Protegido", "_raw_DS_CLASIF_DET": "Suelo No Urbanizable de Protección Red Viaria", "_raw_DS_DOCU": "PLAN GENERAL", "_raw_DS_LEY": "CM Ley 9/2001, E Ley 6/1998", "_raw_FC_AC": "2007-01-18", "_raw_NM_AREA_M2": 2716.6800417424301, "_cam_code": "036" }, "geometry": { "type": "Polygon", "coordinates": [ [ [ -3.8498, 40.1724 ], [ -3.851, 40.1727 ], [ -3.8507, 40.1725 ], [ -3.8503, 40.1725 ], [ -3.8503, 40.1724 ], [ -3.8502, 40.1724 ], [ -3.8501, 40.1724 ], [ -3.8501, 40.1724 ], [ -3.8498, 40.1724 ], [ -3.8497, 40.1724 ], [ -3.8497, 40.1724 ], [ -3.8494, 40.1724 ], [ -3.8493, 40.1724 ], [ -3.8493, 40.1724 ], [ -3.8493, 40.1724 ], [ -3.849, 40.1724 ], [ -3.849, 40.1724 ], [ -3.8489, 40.1724 ], [ -3.8488, 40.1724 ], [ -3.8486, 40.1724 ], [ -3.8485, 40.1724 ], [ -3.8484, 40.1724 ], [ -3.8482, 40.1724 ], [ -3.848, 40.1724 ], [ -3.8478, 40.1724 ], [ -3.8476, 40.1724 ], [ -3.8474, 40.1723 ], [ -3.8472, 40.1723 ], [ -3.8471, 40.1723 ], [ -3.847, 40.1723 ], [ -3.847, 40.1723 ], [ -3.8469, 40.1723 ], [ -3.8468, 40.1723 ], [ -3.8467, 40.1722 ], [ -3.8457, 40.172 ], [ -3.8456, 40.172 ], [ -3.8454, 40.172 ], [ -3.8454, 40.172 ], [ -3.8453, 40.172 ], [ -3.8453, 40.172 ], [ -3.8452, 40.172 ], [ -3.845, 40.172 ], [ -3.8449, 40.172 ], [ -3.8447, 40.172 ], [ -3.8442, 40.1718 ], [ -3.8441, 40.1718 ], [ -3.844, 40.1718 ], [ -3.8439, 40.1718 ], [ -3.8436, 40.1718 ], [ -3.8436, 40.1717 ], [ -3.8435, 40.1717 ], [ -3.8435, 40.1717 ], [ -3.8435, 40.1717 ], [ -3.8432, 40.1717 ], [ -3.843, 40.1717 ], [ -3.8428, 40.1717 ], [ -3.8425, 40.1717 ], [ -3.8422, 40.1717 ], [ -3.8421, 40.1718 ], [ -3.8432, 40.1717 ], [ -3.8434, 40.1718 ], [ -3.8436, 40.1718 ], [ -3.8439, 40.1718 ], [ -3.8445, 40.172 ], [ -3.8446, 40.172 ], [ -3.8447, 40.172 ], [ -3.8449, 40.172 ], [ -3.845, 40.172 ], [ -3.8453, 40.172 ], [ -3.8454, 40.172 ], [ -3.8467, 40.1723 ], [ -3.8467, 40.1723 ], [ -3.847, 40.1723 ], [ -3.8472, 40.1723 ], [ -3.8473, 40.1724 ], [ -3.8475, 40.1724 ], [ -3.8476, 40.1724 ], [ -3.8476, 40.1724 ], [ -3.8478, 40.1724 ], [ -3.848, 40.1724 ], [ -3.8484, 40.1724 ], [ -3.8484, 40.1724 ], [ -3.8486, 40.1724 ], [ -3.8488, 40.1724 ], [ -3.849, 40.1724 ], [ -3.8493, 40.1724 ], [ -3.8494, 40.1724 ], [ -3.8495, 40.1724 ], [ -3.8495, 40.1724 ], [ -3.8498, 40.1724 ] ] ] } },
{ "type": "Feature", "properties": { "municipio": "Casarrubuelos", "clasificacion": "no-urbanizable-protegido", "calificacion": "sin-asignar", "version": "vigente", "fuente": "SIT-CAM WFS — UsoDelSuelo:VPLA_V_CLASIFICACION (https://idem.comunidad.madrid/geosrvg/ows)", "fecha_dato": "2026-05-12", "ambito": "67112", "_raw_CD_SIGLAS": "SNUP", "_raw_DS_CLASIF_GEN": "Suelo No Urbanizable Protegido", "_raw_DS_CLASIF_DET": "Suelo No Urbanizable de Protección Red Viaria", "_raw_DS_DOCU": "PLAN GENERAL", "_raw_DS_LEY": "CM Ley 9/2001, E Ley 6/1998", "_raw_FC_AC": "2007-01-18", "_raw_NM_AREA_M2": 764.06042978113703, "_cam_code": "036" }, "geometry": { "type": "Polygon", "coordinates": [ [ [ -3.8396, 40.1719 ], [ -3.8394, 40.1719 ], [ -3.8396, 40.1719 ], [ -3.84, 40.1719 ], [ -3.8402, 40.1719 ], [ -3.8406, 40.1719 ], [ -3.8406, 40.1719 ], [ -3.8408, 40.1719 ], [ -3.8408, 40.1719 ], [ -3.841, 40.1719 ], [ -3.841, 40.1719 ], [ -3.841, 40.1719 ], [ -3.8411, 40.1719 ], [ -3.8412, 40.1719 ], [ -3.8412, 40.1719 ], [ -3.8414, 40.1719 ], [ -3.8414, 40.1719 ], [ -3.8415, 40.1719 ], [ -3.8417, 40.1719 ], [ -3.8419, 40.1718 ], [ -3.8415, 40.1719 ], [ -3.8415, 40.1719 ], [ -3.8415, 40.1719 ], [ -3.8412, 40.1719 ], [ -3.8407, 40.1719 ], [ -3.8405, 40.1719 ], [ -3.8405, 40.1719 ], [ -3.8404, 40.1719 ], [ -3.8402, 40.1719 ], [ -3.8401, 40.1719 ], [ -3.8397, 40.1719 ], [ -3.8396, 40.1719 ] ] ] } },
{ "type": "Feature", "properties": { "municipio": "Casarrubuelos", "clasificacion": "no-urbanizable-protegido", "calificacion": "sin-asignar", "version": "vigente", "fuente": "SIT-CAM WFS — UsoDelSuelo:VPLA_V_CLASIFICACION (https://idem.comunidad.madrid/geosrvg/ows)", "fecha_dato": "2026-05-12", "ambito": "67112", "_raw_CD_SIGLAS": "SNUP", "_raw_DS_CLASIF_GEN": "Suelo No Urbanizable Protegido", "_raw_DS_CLASIF_DET": "Suelo No Urbanizable de Protección Red Viaria", "_raw_DS_DOCU": "PLAN GENERAL", "_raw_DS_LEY": "CM Ley 9/2001, E Ley 6/1998", "_raw_FC_AC": "2007-01-18", "_raw_NM_AREA_M2": 1237.25131656142, "_cam_code": "036" }, "geometry": { "type": "Polygon", "coordinates": [ [ [ -3.8127, 40.1699 ], [ -3.8129, 40.1701 ], [ -3.8132, 40.1694 ], [ -3.813, 40.1694 ], [ -3.8127, 40.1699 ] ] ] } },
{ "type": "Feature", "properties": { "municipio": "Casarrubuelos", "clasificacion": "no-urbanizable-protegido", "calificacion": "sin-asignar", "version": "vigente", "fuente": "SIT-CAM WFS — UsoDelSuelo:VPLA_V_CLASIFICACION (https://idem.comunidad.madrid/geosrvg/ows)", "fecha_dato": "2026-05-12", "ambito": "67112", "_raw_CD_SIGLAS": "SNUP", "_raw_DS_CLASIF_GEN": "Suelo No Urbanizable Protegido", "_raw_DS_CLASIF_DET": "Suelo No Urbanizable de Protección Red Viaria", "_raw_DS_DOCU": "PLAN GENERAL", "_raw_DS_LEY": "CM Ley 9/2001, E Ley 6/1998", "_raw_FC_AC": "2007-01-18", "_raw_NM_AREA_M2": 3281.7374456427001, "_cam_code": "036" }, "geometry": { "type": "Polygon", "coordinates": [ [ [ -3.844, 40.1675 ], [ -3.8439, 40.1675 ], [ -3.8438, 40.1675 ], [ -3.8437, 40.1676 ], [ -3.8437, 40.1676 ], [ -3.8436, 40.1676 ], [ -3.8435, 40.1676 ], [ -3.8431, 40.1678 ], [ -3.8431, 40.1678 ], [ -3.843, 40.1678 ], [ -3.843, 40.1678 ], [ -3.8429, 40.1678 ], [ -3.8427, 40.1678 ], [ -3.8427, 40.1679 ], [ -3.8427, 40.1679 ], [ -3.8426, 40.1679 ], [ -3.8426, 40.1679 ], [ -3.8425, 40.1679 ], [ -3.8424, 40.1679 ], [ -3.8424, 40.168 ], [ -3.8424, 40.168 ], [ -3.8423, 40.168 ], [ -3.8422, 40.168 ], [ -3.8418, 40.1682 ], [ -3.8418, 40.1683 ], [ -3.8417, 40.1683 ], [ -3.8416, 40.1683 ], [ -3.8409, 40.1686 ], [ -3.8409, 40.1687 ], [ -3.8408, 40.1687 ], [ -3.8407, 40.1687 ], [ -3.8407, 40.1688 ], [ -3.8406, 40.1688 ], [ -3.8405, 40.1688 ], [ -3.8405, 40.1689 ], [ -3.8404, 40.1689 ], [ -3.8403, 40.1689 ], [ -3.84, 40.169 ], [ -3.84, 40.1691 ], [ -3.8399, 40.1691 ], [ -3.8399, 40.1691 ], [ -3.8399, 40.1691 ], [ -3.8398, 40.1691 ], [ -3.8397, 40.1691 ], [ -3.8397, 40.1692 ], [ -3.8397, 40.1692 ], [ -3.8396, 40.1692 ], [ -3.8394, 40.1692 ], [ -3.8394, 40.1693 ], [ -3.8393, 40.1693 ], [ -3.8393, 40.1693 ], [ -3.8392, 40.1693 ], [ -3.839, 40.1693 ], [ -3.839, 40.1694 ], [ -3.839, 40.1694 ], [ -3.8389, 40.1694 ], [ -3.8388, 40.1694 ], [ -3.8387, 40.1694 ], [ -3.8384, 40.1695 ], [ -3.8384, 40.1696 ], [ -3.8384, 40.1695 ], [ -3.8391, 40.1694 ], [ -3.8392, 40.1693 ], [ -3.8392, 40.1693 ], [ -3.8392, 40.1693 ], [ -3.8393, 40.1693 ], [ -3.8393, 40.1693 ], [ -3.8394, 40.1693 ], [ -3.8395, 40.1693 ], [ -3.8398, 40.1692 ], [ -3.8398, 40.1691 ], [ -3.8399, 40.1691 ], [ -3.8399, 40.1691 ], [ -3.84, 40.1691 ], [ -3.8401, 40.1691 ], [ -3.8401, 40.169 ], [ -3.8403, 40.169 ], [ -3.8404, 40.1689 ], [ -3.8405, 40.1689 ], [ -3.8406, 40.1688 ], [ -3.8407, 40.1688 ], [ -3.8409, 40.1687 ], [ -3.8412, 40.1685 ], [ -3.8414, 40.1685 ], [ -3.8414, 40.1684 ], [ -3.8416, 40.1684 ], [ -3.8416, 40.1683 ], [ -3.8417, 40.1683 ], [ -3.8418, 40.1683 ], [ -3.8419, 40.1682 ], [ -3.8422, 40.1681 ], [ -3.8423, 40.168 ], [ -3.8424, 40.168 ], [ -3.8425, 40.1679 ], [ -3.8425, 40.1679 ], [ -3.8426, 40.1679 ], [ -3.8426, 40.1679 ], [ -3.8427, 40.1679 ], [ -3.8428, 40.1679 ], [ -3.8432, 40.1678 ], [ -3.8435, 40.1677 ], [ -3.8435, 40.1676 ], [ -3.8436, 40.1676 ], [ -3.8436, 40.1676 ], [ -3.8437, 40.1676 ], [ -3.8439, 40.1676 ], [ -3.8439, 40.1675 ], [ -3.8439, 40.1675 ], [ -3.844, 40.1675 ], [ -3.844, 40.1675 ], [ -3.8441, 40.1675 ], [ -3.8441, 40.1675 ], [ -3.8441, 40.1675 ], [ -3.8442, 40.1675 ], [ -3.8442, 40.1675 ], [ -3.8443, 40.1675 ], [ -3.8443, 40.1675 ], [ -3.8444, 40.1675 ], [ -3.8444, 40.1675 ], [ -3.8444, 40.1675 ], [ -3.8445, 40.1675 ], [ -3.8445, 40.1675 ], [ -3.8445, 40.1675 ], [ -3.8446, 40.1675 ], [ -3.8446, 40.1675 ], [ -3.8447, 40.1675 ], [ -3.8447, 40.1675 ], [ -3.8448, 40.1675 ], [ -3.8448, 40.1675 ], [ -3.8449, 40.1675 ], [ -3.8449, 40.1675 ], [ -3.845, 40.1675 ], [ -3.845, 40.1675 ], [ -3.8451, 40.1675 ], [ -3.8452, 40.1675 ], [ -3.8453, 40.1676 ], [ -3.8463, 40.1678 ], [ -3.8463, 40.1678 ], [ -3.8464, 40.1678 ], [ -3.8464, 40.1678 ], [ -3.8465, 40.1678 ], [ -3.8466, 40.1678 ], [ -3.8466, 40.1678 ], [ -3.8467, 40.1678 ], [ -3.8467, 40.1678 ], [ -3.8468, 40.1678 ], [ -3.8468, 40.1678 ], [ -3.8468, 40.1678 ], [ -3.8468, 40.1678 ], [ -3.8469, 40.1678 ], [ -3.8469, 40.1678 ], [ -3.847, 40.1678 ], [ -3.847, 40.1678 ], [ -3.8471, 40.1678 ], [ -3.8472, 40.1678 ], [ -3.8472, 40.1678 ], [ -3.8473, 40.1678 ], [ -3.8474, 40.1678 ], [ -3.8474, 40.1678 ], [ -3.8475, 40.1678 ], [ -3.8475, 40.1678 ], [ -3.8476, 40.1678 ], [ -3.8476, 40.1678 ], [ -3.8477, 40.1678 ], [ -3.8479, 40.1678 ], [ -3.8484, 40.1677 ], [ -3.8484, 40.1676 ], [ -3.8485, 40.1676 ], [ -3.8486, 40.1676 ], [ -3.8487, 40.1676 ], [ -3.8488, 40.1675 ], [ -3.8488, 40.1675 ], [ -3.8489, 40.1675 ], [ -3.849, 40.1675 ], [ -3.8492, 40.1675 ], [ -3.8492, 40.1674 ], [ -3.8493, 40.1674 ], [ -3.8493, 40.1674 ], [ -3.8494, 40.1674 ], [ -3.8494, 40.1674 ], [ -3.8495, 40.1674 ], [ -3.8495, 40.1674 ], [ -3.8495, 40.1674 ], [ -3.8496, 40.1674 ], [ -3.8497, 40.1674 ], [ -3.8496, 40.1674 ], [ -3.8496, 40.1674 ], [ -3.8496, 40.1674 ], [ -3.8496, 40.1674 ], [ -3.8495, 40.1674 ], [ -3.8494, 40.1674 ], [ -3.8494, 40.1674 ], [ -3.8493, 40.1674 ], [ -3.8493, 40.1674 ], [ -3.8492, 40.1674 ], [ -3.849, 40.1674 ], [ -3.849, 40.1675 ], [ -3.8489, 40.1675 ], [ -3.8489, 40.1675 ], [ -3.8488, 40.1675 ], [ -3.8487, 40.1675 ], [ -3.8486, 40.1676 ], [ -3.8486, 40.1676 ], [ -3.8485, 40.1676 ], [ -3.8484, 40.1676 ], [ -3.8483, 40.1676 ], [ -3.8482, 40.1677 ], [ -3.8478, 40.1677 ], [ -3.8477, 40.1678 ], [ -3.8477, 40.1678 ], [ -3.8476, 40.1678 ], [ -3.8476, 40.1678 ], [ -3.8475, 40.1678 ], [ -3.8475, 40.1678 ], [ -3.8474, 40.1678 ], [ -3.8474, 40.1678 ], [ -3.8473, 40.1678 ], [ -3.8472, 40.1678 ], [ -3.8472, 40.1678 ], [ -3.8471, 40.1678 ], [ -3.847, 40.1678 ], [ -3.847, 40.1678 ], [ -3.8469, 40.1678 ], [ -3.8469, 40.1678 ], [ -3.8468, 40.1678 ], [ -3.8468, 40.1678 ], [ -3.8468, 40.1678 ], [ -3.8468, 40.1678 ], [ -3.8467, 40.1678 ], [ -3.8467, 40.1678 ], [ -3.8466, 40.1678 ], [ -3.8466, 40.1678 ], [ -3.8465, 40.1678 ], [ -3.8464, 40.1678 ], [ -3.8454, 40.1675 ], [ -3.8453, 40.1675 ], [ -3.8453, 40.1675 ], [ -3.8453, 40.1675 ], [ -3.8452, 40.1675 ], [ -3.8452, 40.1675 ], [ -3.8452, 40.1675 ], [ -3.8451, 40.1675 ], [ -3.8451, 40.1675 ], [ -3.845, 40.1675 ], [ -3.845, 40.1675 ], [ -3.8449, 40.1675 ], [ -3.8449, 40.1675 ], [ -3.8448, 40.1675 ], [ -3.8448, 40.1675 ], [ -3.8447, 40.1675 ], [ -3.8447, 40.1675 ], [ -3.8446, 40.1675 ], [ -3.8446, 40.1675 ], [ -3.8446, 40.1675 ], [ -3.8445, 40.1675 ], [ -3.8445, 40.1675 ], [ -3.8445, 40.1675 ], [ -3.8444, 40.1675 ], [ -3.8444, 40.1675 ], [ -3.8443, 40.1675 ], [ -3.8443, 40.1675 ], [ -3.8442, 40.1675 ], [ -3.8442, 40.1675 ], [ -3.8442, 40.1675 ], [ -3.8441, 40.1675 ], [ -3.844, 40.1675 ] ] ] } },
{ "type": "Feature", "properties": { "municipio": "Casarrubuelos", "clasificacion": "no-urbanizable-protegido", "calificacion": "sin-asignar", "version": "vigente", "fuente": "SIT-CAM WFS — UsoDelSuelo:VPLA_V_CLASIFICACION (https://idem.comunidad.madrid/geosrvg/ows)", "fecha_dato": "2026-05-12", "ambito": "67112", "_raw_CD_SIGLAS": "SNUP", "_raw_DS_CLASIF_GEN": "Suelo No Urbanizable Protegido", "_raw_DS_CLASIF_DET": "Suelo No Urbanizable de Protección Red Viaria", "_raw_DS_DOCU": "PLAN GENERAL", "_raw_DS_LEY": "CM Ley 9/2001, E Ley 6/1998", "_raw_FC_AC": "2007-01-18", "_raw_NM_AREA_M2": 2793.4405114239999, "_cam_code": "036" }, "geometry": { "type": "Polygon", "coordinates": [ [ [ -3.828, 40.1649 ], [ -3.8299, 40.1672 ], [ -3.8291, 40.1661 ], [ -3.8302, 40.1646 ], [ -3.8301, 40.1638 ], [ -3.8301, 40.1646 ], [ -3.8291, 40.166 ], [ -3.8286, 40.1656 ], [ -3.8282, 40.1651 ], [ -3.8281, 40.1648 ], [ -3.828, 40.1648 ], [ -3.828, 40.1649 ] ] ] } },
{ "type": "Feature", "properties": { "municipio": "Casarrubuelos", "clasificacion": "no-urbanizable-protegido", "calificacion": "sin-asignar", "version": "vigente", "fuente": "SIT-CAM WFS — UsoDelSuelo:VPLA_V_CLASIFICACION (https://idem.comunidad.madrid/geosrvg/ows)", "fecha_dato": "2026-05-12", "ambito": "67112", "_raw_CD_SIGLAS": "SNUP", "_raw_DS_CLASIF_GEN": "Suelo No Urbanizable Protegido", "_raw_DS_CLASIF_DET": "Suelo No Urbanizable de Protección por su interés Paisajístico", "_raw_DS_DOCU": "PLAN GENERAL", "_raw_DS_LEY": "CM Ley 9/2001, E Ley 6/1998", "_raw_FC_AC": "2007-01-18", "_raw_NM_AREA_M2": 231039.89393270601, "_cam_code": "036" }, "geometry": { "type": "Polygon", "coordinates": [ [ [ -3.8452, 40.1727 ], [ -3.8455, 40.1735 ], [ -3.8462, 40.1737 ], [ -3.8463, 40.174 ], [ -3.8466, 40.1743 ], [ -3.8472, 40.1745 ], [ -3.8476, 40.1749 ], [ -3.8505, 40.1753 ], [ -3.8503, 40.176 ], [ -3.8496, 40.1764 ], [ -3.849, 40.1772 ], [ -3.8489, 40.1781 ], [ -3.8517, 40.1796 ], [ -3.8529, 40.1795 ], [ -3.8528, 40.1789 ], [ -3.8514, 40.1775 ], [ -3.852, 40.173 ], [ -3.8519, 40.1729 ], [ -3.8494, 40.1725 ], [ -3.8476, 40.1725 ], [ -3.8445, 40.172 ], [ -3.8452, 40.1727 ] ] ] } },
{ "type": "Feature", "properties": { "municipio": "Casarrubuelos", "clasificacion": "no-urbanizable-protegido", "calificacion": "sin-asignar", "version": "vigente", "fuente": "SIT-CAM WFS — UsoDelSuelo:VPLA_V_CLASIFICACION (https://idem.comunidad.madrid/geosrvg/ows)", "fecha_dato": "2026-05-12", "ambito": "67112", "_raw_CD_SIGLAS": "SNUP", "_raw_DS_CLASIF_GEN": "Suelo No Urbanizable Protegido", "_raw_DS_CLASIF_DET": "Suelo No Urbanizable de Protección por su interés Paisajístico", "_raw_DS_DOCU": "PLAN GENERAL", "_raw_DS_LEY": "CM Ley 9/2001, E Ley 6/1998", "_raw_FC_AC": "2007-01-18", "_raw_NM_AREA_M2": 403530.21234241, "_cam_code": "036" }, "geometry": { "type": "Polygon", "coordinates": [ [ [ -3.841, 40.1789 ], [ -3.8452, 40.1791 ], [ -3.8486, 40.18 ], [ -3.8517, 40.1796 ], [ -3.8497, 40.1786 ], [ -3.8497, 40.1785 ], [ -3.8489, 40.1782 ], [ -3.8487, 40.1791 ], [ -3.8484, 40.1792 ], [ -3.8483, 40.1794 ], [ -3.8473, 40.179 ], [ -3.846, 40.1788 ], [ -3.8459, 40.1779 ], [ -3.8456, 40.1773 ], [ -3.844, 40.1768 ], [ -3.843, 40.1763 ], [ -3.8434, 40.1753 ], [ -3.8427, 40.1747 ], [ -3.8424, 40.1746 ], [ -3.8422, 40.1743 ], [ -3.8405, 40.1733 ], [ -3.8397, 40.173 ], [ -3.8395, 40.1728 ], [ -3.8394, 40.1729 ], [ -3.8395, 40.1735 ], [ -3.84, 40.174 ], [ -3.8413, 40.1747 ], [ -3.8416, 40.175 ], [ -3.8421, 40.1757 ], [ -3.843, 40.1765 ], [ -3.8438, 40.1773 ], [ -3.8439, 40.1775 ], [ -3.844, 40.1775 ], [ -3.8441, 40.1775 ], [ -3.8447, 40.1778 ], [ -3.8452, 40.1782 ], [ -3.8437, 40.1774 ], [ -3.8433, 40.1768 ], [ -3.843, 40.1765 ], [ -3.8421, 40.1757 ], [ -3.8418, 40.1754 ], [ -3.8413, 40.1747 ], [ -3.84, 40.1741 ], [ -3.8394, 40.1734 ], [ -3.8394, 40.1732 ], [ -3.8394, 40.1731 ], [ -3.8394, 40.1729 ], [ -3.8394, 40.1728 ], [ -3.839, 40.1725 ], [ -3.8381, 40.1722 ], [ -3.8373, 40.1721 ], [ -3.8352, 40.1722 ], [ -3.8349, 40.1727 ], [ -3.835, 40.1738 ], [ -3.8354, 40.1741 ], [ -3.8358, 40.1742 ], [ -3.8362, 40.1741 ], [ -3.8368, 40.1753 ], [ -3.8373, 40.176 ], [ -3.8376, 40.176 ], [ -3.8379, 40.1762 ], [ -3.8385, 40.1768 ], [ -3.8385, 40.177 ], [ -3.8392, 40.1773 ], [ -3.8392, 40.1774 ], [ -3.8396, 40.1774 ], [ -3.8401, 40.1779 ], [ -3.8404, 40.1786 ], [ -3.841, 40.1789 ] ] ] } },
{ "type": "Feature", "properties": { "municipio": "Casarrubuelos", "clasificacion": "no-urbanizable-protegido", "calificacion": "sin-asignar", "version": "vigente", "fuente": "SIT-CAM WFS — UsoDelSuelo:VPLA_V_CLASIFICACION (https://idem.comunidad.madrid/geosrvg/ows)", "fecha_dato": "2026-05-12", "ambito": "67112", "_raw_CD_SIGLAS": "SNUP", "_raw_DS_CLASIF_GEN": "Suelo No Urbanizable Protegido", "_raw_DS_CLASIF_DET": "Suelo No Urbanizable de Protección por su interés Paisajístico", "_raw_DS_DOCU": "PLAN GENERAL", "_raw_DS_LEY": "CM Ley 9/2001, E Ley 6/1998", "_raw_FC_AC": "2007-01-18", "_raw_NM_AREA_M2": 857.92770640687604, "_cam_code": "036" }, "geometry": { "type": "Polygon", "coordinates": [ [ [ -3.853, 40.1791 ], [ -3.8531, 40.1795 ], [ -3.8535, 40.1794 ], [ -3.8535, 40.1794 ], [ -3.853, 40.1791 ] ] ] } },
{ "type": "Feature", "properties": { "municipio": "Casarrubuelos", "clasificacion": "no-urbanizable-protegido", "calificacion": "sin-asignar", "version": "vigente", "fuente": "SIT-CAM WFS — UsoDelSuelo:VPLA_V_CLASIFICACION (https://idem.comunidad.madrid/geosrvg/ows)", "fecha_dato": "2026-05-12", "ambito": "67112", "_raw_CD_SIGLAS": "SNUP", "_raw_DS_CLASIF_GEN": "Suelo No Urbanizable Protegido", "_raw_DS_CLASIF_DET": "Suelo No Urbanizable de Protección por su interés Paisajístico", "_raw_DS_DOCU": "PLAN GENERAL", "_raw_DS_LEY": "CM Ley 9/2001, E Ley 6/1998", "_raw_FC_AC": "2007-01-18", "_raw_NM_AREA_M2": 151981.809962714, "_cam_code": "036" }, "geometry": { "type": "Polygon", "coordinates": [ [ [ -3.8304, 40.1787 ], [ -3.8303, 40.1787 ], [ -3.8303, 40.1791 ], [ -3.8302, 40.1791 ], [ -3.8302, 40.1793 ], [ -3.8301, 40.1794 ], [ -3.8301, 40.1794 ], [ -3.8301, 40.1795 ], [ -3.8301, 40.1796 ], [ -3.83, 40.1796 ], [ -3.83, 40.1796 ], [ -3.83, 40.1796 ], [ -3.8333, 40.1787 ], [ -3.8336, 40.1786 ], [ -3.8357, 40.1792 ], [ -3.8353, 40.1781 ], [ -3.8353, 40.1769 ], [ -3.8352, 40.1767 ], [ -3.835, 40.1766 ], [ -3.8344, 40.1757 ], [ -3.8342, 40.1756 ], [ -3.8327, 40.1737 ], [ -3.8326, 40.1741 ], [ -3.8325, 40.1741 ], [ -3.8322, 40.1758 ], [ -3.8307, 40.1774 ], [ -3.8304, 40.1783 ], [ -3.8304, 40.1787 ] ] ] } },
{ "type": "Feature", "properties": { "municipio": "Casarrubuelos", "clasificacion": "no-urbanizable-protegido", "calificacion": "sin-asignar", "version": "vigente", "fuente": "SIT-CAM WFS — UsoDelSuelo:VPLA_V_CLASIFICACION (https://idem.comunidad.madrid/geosrvg/ows)", "fecha_dato": "2026-05-12", "ambito": "67112", "_raw_CD_SIGLAS": "SNUP", "_raw_DS_CLASIF_GEN": "Suelo No Urbanizable Protegido", "_raw_DS_CLASIF_DET": "Suelo No Urbanizable de Protección por su interés Paisajístico", "_raw_DS_DOCU": "PLAN GENERAL", "_raw_DS_LEY": "CM Ley 9/2001, E Ley 6/1998", "_raw_FC_AC": "2007-01-18", "_raw_NM_AREA_M2": 327268.370062056, "_cam_code": "036" }, "geometry": { "type": "Polygon", "coordinates": [ [ [ -3.8288, 40.179 ], [ -3.83, 40.1796 ], [ -3.8303, 40.1789 ], [ -3.8305, 40.1778 ], [ -3.8308, 40.1772 ], [ -3.8313, 40.1766 ], [ -3.832, 40.1761 ], [ -3.8323, 40.1753 ], [ -3.8323, 40.1749 ], [ -3.8324, 40.1749 ], [ -3.8324, 40.1743 ], [ -3.8327, 40.1737 ], [ -3.8321, 40.173 ], [ -3.8318, 40.173 ], [ -3.8315, 40.1733 ], [ -3.83, 40.1734 ], [ -3.8297, 40.1739 ], [ -3.8281, 40.174 ], [ -3.828, 40.1739 ], [ -3.8275, 40.1739 ], [ -3.8275, 40.1738 ], [ -3.8262, 40.1745 ], [ -3.8256, 40.175 ], [ -3.8255, 40.1753 ], [ -3.8251, 40.1757 ], [ -3.8251, 40.1763 ], [ -3.8248, 40.1767 ], [ -3.8249, 40.1771 ], [ -3.8247, 40.1777 ], [ -3.8247, 40.1785 ], [ -3.824, 40.1793 ], [ -3.8288, 40.179 ] ] ] } },
{ "type": "Feature", "properties": { "municipio": "Casarrubuelos", "clasificacion": "no-urbanizable-protegido", "calificacion": "sin-asignar", "version": "vigente", "fuente": "SIT-CAM WFS — UsoDelSuelo:VPLA_V_CLASIFICACION (https://idem.comunidad.madrid/geosrvg/ows)", "fecha_dato": "2026-05-12", "ambito": "67112", "_raw_CD_SIGLAS": "SNUP", "_raw_DS_CLASIF_GEN": "Suelo No Urbanizable Protegido", "_raw_DS_CLASIF_DET": "Suelo No Urbanizable de Protección por su interés Paisajístico", "_raw_DS_DOCU": "PLAN GENERAL", "_raw_DS_LEY": "CM Ley 9/2001, E Ley 6/1998", "_raw_FC_AC": "2007-01-18", "_raw_NM_AREA_M2": 54671.524017367999, "_cam_code": "036" }, "geometry": { "type": "Polygon", "coordinates": [ [ [ -3.8355, 40.1719 ], [ -3.8351, 40.172 ], [ -3.8351, 40.1721 ], [ -3.8353, 40.172 ], [ -3.8354, 40.172 ], [ -3.8357, 40.1719 ], [ -3.8358, 40.1719 ], [ -3.8359, 40.1719 ], [ -3.8361, 40.1719 ], [ -3.8368, 40.1719 ], [ -3.8369, 40.1718 ], [ -3.8378, 40.1718 ], [ -3.8378, 40.1717 ], [ -3.8379, 40.1717 ], [ -3.838, 40.1717 ], [ -3.8382, 40.1717 ], [ -3.8383, 40.1717 ], [ -3.8386, 40.1717 ], [ -3.8389, 40.1717 ], [ -3.839, 40.1718 ], [ -3.8406, 40.1718 ], [ -3.8409, 40.1714 ], [ -3.8411, 40.1714 ], [ -3.8415, 40.171 ], [ -3.8422, 40.171 ], [ -3.8427, 40.1706 ], [ -3.8436, 40.1706 ], [ -3.8436, 40.1707 ], [ -3.8441, 40.1708 ], [ -3.8445, 40.1707 ], [ -3.8449, 40.1705 ], [ -3.8453, 40.1696 ], [ -3.8445, 40.1696 ], [ -3.8388, 40.171 ], [ -3.8388, 40.1711 ], [ -3.8386, 40.1711 ], [ -3.8386, 40.1717 ], [ -3.8386, 40.1717 ], [ -3.8384, 40.1717 ], [ -3.8382, 40.1717 ], [ -3.8376, 40.1717 ], [ -3.8371, 40.1717 ], [ -3.8355, 40.1719 ] ] ] } },
{ "type": "Feature", "properties": { "municipio": "Casarrubuelos", "clasificacion": "no-urbanizable-protegido", "calificacion": "sin-asignar", "version": "vigente", "fuente": "SIT-CAM WFS — UsoDelSuelo:VPLA_V_CLASIFICACION (https://idem.comunidad.madrid/geosrvg/ows)", "fecha_dato": "2026-05-12", "ambito": "67112", "_raw_CD_SIGLAS": "SNUP", "_raw_DS_CLASIF_GEN": "Suelo No Urbanizable Protegido", "_raw_DS_CLASIF_DET": "Suelo No Urbanizable de Protección Red Viaria", "_raw_DS_DOCU": "PLAN GENERAL", "_raw_DS_LEY": "CM Ley 9/2001, E Ley 6/1998", "_raw_FC_AC": "2007-01-18", "_raw_NM_AREA_M2": 10694.239778643199, "_cam_code": "036" }, "geometry": { "type": "Polygon", "coordinates": [ [ [ -3.8327, 40.1737 ], [ -3.8324, 40.1743 ], [ -3.8324, 40.1744 ], [ -3.8324, 40.1745 ], [ -3.8324, 40.1745 ], [ -3.8324, 40.1746 ], [ -3.8324, 40.1747 ], [ -3.8324, 40.1748 ], [ -3.8324, 40.1749 ], [ -3.8323, 40.1749 ], [ -3.8323, 40.175 ], [ -3.8323, 40.175 ], [ -3.8323, 40.175 ], [ -3.8323, 40.1751 ], [ -3.8323, 40.1751 ], [ -3.8323, 40.1752 ], [ -3.8323, 40.1752 ], [ -3.8323, 40.1753 ], [ -3.8322, 40.1754 ], [ -3.8322, 40.1754 ], [ -3.8322, 40.1755 ], [ -3.8322, 40.1756 ], [ -3.8322, 40.1757 ], [ -3.832, 40.1761 ], [ -3.8313, 40.1766 ], [ -3.8308, 40.1772 ], [ -3.8305, 40.1778 ], [ -3.8305, 40.178 ], [ -3.8305, 40.1781 ], [ -3.8304, 40.1781 ], [ -3.8303, 40.1785 ], [ -3.8303, 40.1786 ], [ -3.8303, 40.1787 ], [ -3.8303, 40.1788 ], [ -3.8303, 40.1788 ], [ -3.8303, 40.1789 ], [ -3.8302, 40.179 ], [ -3.8301, 40.1794 ], [ -3.83, 40.1794 ], [ -3.83, 40.1796 ], [ -3.8301, 40.1796 ], [ -3.8302, 40.1791 ], [ -3.8303, 40.1791 ], [ -3.8303, 40.179 ], [ -3.8303, 40.179 ], [ -3.8303, 40.1788 ], [ -3.8303, 40.1787 ], [ -3.8304, 40.1787 ], [ -3.8304, 40.1783 ], [ -3.8305, 40.1782 ], [ -3.8306, 40.1776 ], [ -3.8307, 40.1776 ], [ -3.8307, 40.1774 ], [ -3.8308, 40.1774 ], [ -3.8309, 40.1771 ], [ -3.8311, 40.177 ], [ -3.8321, 40.176 ], [ -3.8322, 40.1758 ], [ -3.8324, 40.1751 ], [ -3.8325, 40.1741 ], [ -3.8326, 40.1741 ], [ -3.8327, 40.1737 ], [ -3.8358, 40.1775 ], [ -3.8358, 40.1778 ], [ -3.8359, 40.1778 ], [ -3.8361, 40.1786 ], [ -3.8362, 40.1786 ], [ -3.8362, 40.1789 ], [ -3.8365, 40.1792 ], [ -3.8356, 40.177 ], [ -3.8348, 40.1762 ], [ -3.8323, 40.1729 ], [ -3.8321, 40.173 ], [ -3.8327, 40.1737 ] ] ] } },
{ "type": "Feature", "properties": { "municipio": "Casarrubuelos", "clasificacion": "no-urbanizable-protegido", "calificacion": "sin-asignar", "version": "vigente", "fuente": "SIT-CAM WFS — UsoDelSuelo:VPLA_V_CLASIFICACION (https://idem.comunidad.madrid/geosrvg/ows)", "fecha_dato": "2026-05-12", "ambito": "67112", "_raw_CD_SIGLAS": "SNUP", "_raw_DS_CLASIF_GEN": "Suelo No Urbanizable Protegido", "_raw_DS_CLASIF_DET": "Suelo No Urbanizable de Protección Red Viaria", "_raw_DS_DOCU": "PLAN GENERAL", "_raw_DS_LEY": "CM Ley 9/2001, E Ley 6/1998", "_raw_FC_AC": "2007-01-18", "_raw_NM_AREA_M2": 2641.93646184916, "_cam_code": "036" }, "geometry": { "type": "Polygon", "coordinates": [ [ [ -3.8276, 40.1737 ], [ -3.8274, 40.1738 ], [ -3.8271, 40.174 ], [ -3.827, 40.174 ], [ -3.8266, 40.1742 ], [ -3.8259, 40.1747 ], [ -3.8258, 40.1749 ], [ -3.8255, 40.1752 ], [ -3.8254, 40.1752 ], [ -3.8254, 40.1753 ], [ -3.8253, 40.1753 ], [ -3.825, 40.1758 ], [ -3.825, 40.1758 ], [ -3.825, 40.1758 ], [ -3.825, 40.1759 ], [ -3.825, 40.1759 ], [ -3.825, 40.176 ], [ -3.825, 40.1761 ], [ -3.8249, 40.1761 ], [ -3.8246, 40.1766 ], [ -3.8246, 40.1768 ], [ -3.8245, 40.1769 ], [ -3.8244, 40.177 ], [ -3.8243, 40.1773 ], [ -3.8243, 40.1774 ], [ -3.8243, 40.1775 ], [ -3.8243, 40.1776 ], [ -3.8242, 40.1777 ], [ -3.824, 40.1783 ], [ -3.824, 40.1785 ], [ -3.824, 40.1786 ], [ -3.824, 40.1788 ], [ -3.8239, 40.1789 ], [ -3.8238, 40.179 ], [ -3.8238, 40.1791 ], [ -3.8237, 40.1791 ], [ -3.8237, 40.1793 ], [ -3.824, 40.1788 ], [ -3.8241, 40.1781 ], [ -3.8245, 40.1771 ], [ -3.8246, 40.1766 ], [ -3.825, 40.1762 ], [ -3.8251, 40.1757 ], [ -3.8252, 40.1757 ], [ -3.8253, 40.1754 ], [ -3.8262, 40.1745 ], [ -3.8267, 40.1743 ], [ -3.827, 40.174 ], [ -3.8271, 40.174 ], [ -3.8272, 40.174 ], [ -3.8276, 40.1738 ], [ -3.8276, 40.1737 ] ] ] } },
{ "type": "Feature", "properties": { "municipio": "Casarrubuelos", "clasificacion": "no-urbanizable-protegido", "calificacion": "sin-asignar", "version": "vigente", "fuente": "SIT-CAM WFS — UsoDelSuelo:VPLA_V_CLASIFICACION (https://idem.comunidad.madrid/geosrvg/ows)", "fecha_dato": "2026-05-12", "ambito": "67112", "_raw_CD_SIGLAS": "SNUP", "_raw_DS_CLASIF_GEN": "Suelo No Urbanizable Protegido", "_raw_DS_CLASIF_DET": "Suelo No Urbanizable de Protección Red Viaria", "_raw_DS_DOCU": "PLAN GENERAL", "_raw_DS_LEY": "CM Ley 9/2001, E Ley 6/1998", "_raw_FC_AC": "2007-01-18", "_raw_NM_AREA_M2": 67683.411735978007, "_cam_code": "036" }, "geometry": { "type": "Polygon", "coordinates": [ [ [ -3.8136, 40.1697 ], [ -3.8135, 40.1702 ], [ -3.8134, 40.1702 ], [ -3.8133, 40.1706 ], [ -3.8117, 40.1737 ], [ -3.8111, 40.1751 ], [ -3.811, 40.1753 ], [ -3.8092, 40.1792 ], [ -3.8091, 40.1792 ], [ -3.8091, 40.1792 ], [ -3.8093, 40.1792 ], [ -3.8098, 40.1792 ], [ -3.81, 40.179 ], [ -3.8133, 40.1717 ], [ -3.8136, 40.1712 ], [ -3.8145, 40.1703 ], [ -3.8147, 40.1699 ], [ -3.814, 40.1696 ], [ -3.8136, 40.1697 ] ] ] } },
{ "type": "Feature", "properties": { "municipio": "Casarrubuelos", "clasificacion": "no-urbanizable-protegido", "calificacion": "sin-asignar", "version": "vigente", "fuente": "SIT-CAM WFS — UsoDelSuelo:VPLA_V_CLASIFICACION (https://idem.comunidad.madrid/geosrvg/ows)", "fecha_dato": "2026-05-12", "ambito": "67112", "_raw_CD_SIGLAS": "SNUP", "_raw_DS_CLASIF_GEN": "Suelo No Urbanizable Protegido", "_raw_DS_CLASIF_DET": "Suelo No Urbanizable de Protección Cauces Públicos", "_raw_DS_DOCU": "PLAN GENERAL", "_raw_DS_LEY": "CM Ley 9/2001, E Ley 6/1998", "_raw_FC_AC": "2007-01-18", "_raw_NM_AREA_M2": 1686.2714689813699, "_cam_code": "036" }, "geometry": { "type": "Polygon", "coordinates": [ [ [ -3.8275, 40.1738 ], [ -3.8275, 40.1739 ], [ -3.828, 40.1739 ], [ -3.8281, 40.174 ], [ -3.8291, 40.1739 ], [ -3.8291, 40.1738 ], [ -3.8285, 40.1739 ], [ -3.8275, 40.1738 ] ] ] } },
{ "type": "Feature", "properties": { "municipio": "Casarrubuelos", "clasificacion": "no-urbanizable-protegido", "calificacion": "sin-asignar", "version": "vigente", "fuente": "SIT-CAM WFS — UsoDelSuelo:VPLA_V_CLASIFICACION (https://idem.comunidad.madrid/geosrvg/ows)", "fecha_dato": "2026-05-12", "ambito": "67112", "_raw_CD_SIGLAS": "SNUP", "_raw_DS_CLASIF_GEN": "Suelo No Urbanizable Protegido", "_raw_DS_CLASIF_DET": "Suelo No Urbanizable de Protección Cauces Públicos", "_raw_DS_DOCU": "PLAN GENERAL", "_raw_DS_LEY": "CM Ley 9/2001, E Ley 6/1998", "_raw_FC_AC": "2007-01-18", "_raw_NM_AREA_M2": 3171.0595890691402, "_cam_code": "036" }, "geometry": { "type": "Polygon", "coordinates": [ [ [ -3.8253, 40.1734 ], [ -3.8252, 40.1735 ], [ -3.8252, 40.1735 ], [ -3.8254, 40.1735 ], [ -3.8257, 40.1735 ], [ -3.8257, 40.1736 ], [ -3.8265, 40.1735 ], [ -3.8268, 40.1737 ], [ -3.8273, 40.1738 ], [ -3.8276, 40.1737 ], [ -3.8269, 40.1736 ], [ -3.8265, 40.1734 ], [ -3.8265, 40.1733 ], [ -3.8262, 40.1734 ], [ -3.8262, 40.1735 ], [ -3.8262, 40.1734 ], [ -3.8253, 40.1734 ] ] ] } },
{ "type": "Feature", "properties": { "municipio": "Casarrubuelos", "clasificacion": "no-urbanizable-protegido", "calificacion": "sin-asignar", "version": "vigente", "fuente": "SIT-CAM WFS — UsoDelSuelo:VPLA_V_CLASIFICACION (https://idem.comunidad.madrid/geosrvg/ows)", "fecha_dato": "2026-05-12", "ambito": "67112", "_raw_CD_SIGLAS": "SNUP", "_raw_DS_CLASIF_GEN": "Suelo No Urbanizable Protegido", "_raw_DS_CLASIF_DET": "Suelo No Urbanizable de Protección Cauces Públicos", "_raw_DS_DOCU": "PLAN GENERAL", "_raw_DS_LEY": "CM Ley 9/2001, E Ley 6/1998", "_raw_FC_AC": "2007-01-18", "_raw_NM_AREA_M2": 4285.0591047573198, "_cam_code": "036" }, "geometry": { "type": "Polygon", "coordinates": [ [ [ -3.8149, 40.1705 ], [ -3.8159, 40.1711 ], [ -3.8165, 40.1712 ], [ -3.8163, 40.171 ], [ -3.8159, 40.1709 ], [ -3.8154, 40.1704 ], [ -3.815, 40.1703 ], [ -3.8144, 40.1704 ], [ -3.8147, 40.1705 ], [ -3.8147, 40.1706 ], [ -3.8149, 40.1705 ] ] ] } },
{ "type": "Feature", "properties": { "municipio": "Casarrubuelos", "clasificacion": "no-urbanizable-protegido", "calificacion": "sin-asignar", "version": "vigente", "fuente": "SIT-CAM WFS — UsoDelSuelo:VPLA_V_CLASIFICACION (https://idem.comunidad.madrid/geosrvg/ows)", "fecha_dato": "2026-05-12", "ambito": "67112", "_raw_CD_SIGLAS": "SNUP", "_raw_DS_CLASIF_GEN": "Suelo No Urbanizable Protegido", "_raw_DS_CLASIF_DET": "Suelo No Urbanizable de Protección Cauces Públicos", "_raw_DS_DOCU": "PLAN GENERAL", "_raw_DS_LEY": "CM Ley 9/2001, E Ley 6/1998", "_raw_FC_AC": "2007-01-18", "_raw_NM_AREA_M2": 5558.9459150492803, "_cam_code": "036" }, "geometry": { "type": "Polygon", "coordinates": [ [ [ -3.8132, 40.1694 ], [ -3.8128, 40.1703 ], [ -3.8133, 40.1706 ], [ -3.8137, 40.1695 ], [ -3.8132, 40.1694 ] ] ] } },
{ "type": "Feature", "properties": { "municipio": "Casarrubuelos", "clasificacion": "no-urbanizable-protegido", "calificacion": "sin-asignar", "version": "vigente", "fuente": "SIT-CAM WFS — UsoDelSuelo:VPLA_V_CLASIFICACION (https://idem.comunidad.madrid/geosrvg/ows)", "fecha_dato": "2026-05-12", "ambito": "67112", "_raw_CD_SIGLAS": "SNUP", "_raw_DS_CLASIF_GEN": "Suelo No Urbanizable Protegido", "_raw_DS_CLASIF_DET": "Suelo No Urbanizable de Protección por su interés Ecológico", "_raw_DS_DOCU": "PLAN GENERAL", "_raw_DS_LEY": "CM Ley 9/2001, E Ley 6/1998", "_raw_FC_AC": "2007-01-18", "_raw_NM_AREA_M2": 245893.998877245, "_cam_code": "036" }, "geometry": { "type": "Polygon", "coordinates": [ [ [ -3.8339, 40.1663 ], [ -3.8341, 40.1665 ], [ -3.8373, 40.1671 ], [ -3.8376, 40.167 ], [ -3.8391, 40.1653 ], [ -3.8404, 40.163 ], [ -3.8408, 40.1627 ], [ -3.838, 40.162 ], [ -3.8342, 40.1614 ], [ -3.8343, 40.1642 ], [ -3.8341, 40.1647 ], [ -3.8339, 40.1663 ] ] ] } },
{ "type": "Feature", "properties": { "municipio": "Casarrubuelos", "clasificacion": "no-urbanizable-protegido", "calificacion": "sin-asignar", "version": "vigente", "fuente": "SIT-CAM WFS — UsoDelSuelo:VPLA_V_CLASIFICACION (https://idem.comunidad.madrid/geosrvg/ows)", "fecha_dato": "2026-05-12", "ambito": "67112", "_raw_CD_SIGLAS": "SNUP", "_raw_DS_CLASIF_GEN": "Suelo No Urbanizable Protegido", "_raw_DS_CLASIF_DET": "Suelo No Urbanizable de Protección por su interés Arqueológico", "_raw_DS_DOCU": "PLAN GENERAL", "_raw_DS_LEY": "CM Ley 9/2001, E Ley 6/1998", "_raw_FC_AC": "2007-01-18", "_raw_NM_AREA_M2": 161545.351309444, "_cam_code": "036" }, "geometry": { "type": "Polygon", "coordinates": [ [ [ -3.83, 40.1672 ], [ -3.8334, 40.1664 ], [ -3.8336, 40.1662 ], [ -3.8338, 40.1662 ], [ -3.834, 40.1649 ], [ -3.8342, 40.1644 ], [ -3.8341, 40.1622 ], [ -3.8333, 40.162 ], [ -3.8301, 40.1638 ], [ -3.8302, 40.1646 ], [ -3.8291, 40.1661 ], [ -3.83, 40.1672 ] ] ] } },
{ "type": "Feature", "properties": { "municipio": "Casarrubuelos", "clasificacion": "no-urbanizable-protegido", "calificacion": "sin-asignar", "version": "vigente", "fuente": "SIT-CAM WFS — UsoDelSuelo:VPLA_V_CLASIFICACION (https://idem.comunidad.madrid/geosrvg/ows)", "fecha_dato": "2026-05-12", "ambito": "67112", "_raw_CD_SIGLAS": "SNUP", "_raw_DS_CLASIF_GEN": "Suelo No Urbanizable Protegido", "_raw_DS_CLASIF_DET": "Suelo No Urbanizable de Protección por su interés Arqueológico", "_raw_DS_DOCU": "PLAN GENERAL", "_raw_DS_LEY": "CM Ley 9/2001, E Ley 6/1998", "_raw_FC_AC": "2007-01-18", "_raw_NM_AREA_M2": 22028.7580975356, "_cam_code": "036" }, "geometry": { "type": "Polygon", "coordinates": [ [ [ -3.828, 40.1648 ], [ -3.8281, 40.1648 ], [ -3.8286, 40.1656 ], [ -3.8291, 40.166 ], [ -3.8301, 40.1646 ], [ -3.8301, 40.1638 ], [ -3.828, 40.1648 ] ] ] } },
{ "type": "Feature", "properties": { "municipio": "Casarrubuelos", "clasificacion": "no-urbanizable-protegido", "calificacion": "sin-asignar", "version": "vigente", "fuente": "SIT-CAM WFS — UsoDelSuelo:VPLA_V_CLASIFICACION (https://idem.comunidad.madrid/geosrvg/ows)", "fecha_dato": "2026-05-12", "ambito": "67112", "_raw_CD_SIGLAS": "SNUP", "_raw_DS_CLASIF_GEN": "Suelo No Urbanizable Protegido", "_raw_DS_CLASIF_DET": "Suelo No Urbanizable de Protección Vías Pecuarias", "_raw_DS_DOCU": "PLAN GENERAL", "_raw_DS_LEY": "CM Ley 9/2001, E Ley 6/1998", "_raw_FC_AC": "2007-01-18", "_raw_NM_AREA_M2": 5579.2635903706596, "_cam_code": "036" }, "geometry": { "type": "Polygon", "coordinates": [ [ [ -3.8357, 40.1792 ], [ -3.836, 40.1793 ], [ -3.8356, 40.178 ], [ -3.8356, 40.1773 ], [ -3.8353, 40.1769 ], [ -3.8353, 40.1781 ], [ -3.8357, 40.1792 ] ] ] } },
{ "type": "Feature", "properties": { "municipio": "Casarrubuelos", "clasificacion": "no-urbanizable-protegido", "calificacion": "sin-asignar", "version": "vigente", "fuente": "SIT-CAM WFS — UsoDelSuelo:VPLA_V_CLASIFICACION (https://idem.comunidad.madrid/geosrvg/ows)", "fecha_dato": "2026-05-12", "ambito": "67112", "_raw_CD_SIGLAS": "SNUP", "_raw_DS_CLASIF_GEN": "Suelo No Urbanizable Protegido", "_raw_DS_CLASIF_DET": "Suelo No Urbanizable de Protección Vías Pecuarias", "_raw_DS_DOCU": "PLAN GENERAL", "_raw_DS_LEY": "CM Ley 9/2001, E Ley 6/1998", "_raw_FC_AC": "2007-01-18", "_raw_NM_AREA_M2": 22247.027137855599, "_cam_code": "036" }, "geometry": { "type": "Polygon", "coordinates": [ [ [ -3.8344, 40.174 ], [ -3.8347, 40.174 ], [ -3.8348, 40.1742 ], [ -3.8352, 40.1756 ], [ -3.8353, 40.1768 ], [ -3.8356, 40.177 ], [ -3.8355, 40.1758 ], [ -3.835, 40.174 ], [ -3.8345, 40.1739 ], [ -3.8343, 40.1738 ], [ -3.8341, 40.1736 ], [ -3.8341, 40.1736 ], [ -3.834, 40.1736 ], [ -3.834, 40.1736 ], [ -3.834, 40.1736 ], [ -3.834, 40.1736 ], [ -3.8339, 40.1736 ], [ -3.8339, 40.1736 ], [ -3.8338, 40.1736 ], [ -3.8338, 40.1736 ], [ -3.8337, 40.1736 ], [ -3.8336, 40.1736 ], [ -3.8335, 40.1736 ], [ -3.8332, 40.1736 ], [ -3.8329, 40.1735 ], [ -3.8329, 40.1734 ], [ -3.8328, 40.1734 ], [ -3.8327, 40.1733 ], [ -3.8326, 40.173 ], [ -3.8325, 40.173 ], [ -3.8325, 40.1729 ], [ -3.8323, 40.1729 ], [ -3.8327, 40.1728 ], [ -3.8328, 40.1734 ], [ -3.8329, 40.1734 ], [ -3.833, 40.1734 ], [ -3.8335, 40.1736 ], [ -3.834, 40.1735 ], [ -3.834, 40.1736 ], [ -3.8341, 40.1736 ], [ -3.8342, 40.1736 ], [ -3.8344, 40.1738 ], [ -3.8351, 40.1739 ], [ -3.835, 40.1738 ], [ -3.835, 40.1732 ], [ -3.8349, 40.1732 ], [ -3.8349, 40.1727 ], [ -3.8351, 40.1721 ], [ -3.8338, 40.1725 ], [ -3.8337, 40.172 ], [ -3.8334, 40.172 ], [ -3.8335, 40.1723 ], [ -3.8324, 40.1727 ], [ -3.8322, 40.1725 ], [ -3.8323, 40.1726 ], [ -3.8322, 40.1726 ], [ -3.8322, 40.1729 ], [ -3.8328, 40.1736 ], [ -3.834, 40.1737 ], [ -3.8344, 40.174 ] ], [ [ -3.8341, 40.1735 ], [ -3.834, 40.1735 ], [ -3.8334, 40.1735 ], [ -3.8333, 40.1734 ], [ -3.8333, 40.1734 ], [ -3.8332, 40.1734 ], [ -3.8331, 40.1734 ], [ -3.8331, 40.1734 ], [ -3.8331, 40.1734 ], [ -3.8331, 40.1734 ], [ -3.833, 40.1734 ], [ -3.8329, 40.1734 ], [ -3.8328, 40.1733 ], [ -3.8328, 40.1727 ], [ -3.8337, 40.1726 ], [ -3.8339, 40.1728 ], [ -3.8348, 40.1727 ], [ -3.8349, 40.1738 ], [ -3.8344, 40.1738 ], [ -3.8341, 40.1735 ] ] ] } },
{ "type": "Feature", "properties": { "municipio": "Casarrubuelos", "clasificacion": "no-urbanizable-protegido", "calificacion": "sin-asignar", "version": "vigente", "fuente": "SIT-CAM WFS — UsoDelSuelo:VPLA_V_CLASIFICACION (https://idem.comunidad.madrid/geosrvg/ows)", "fecha_dato": "2026-05-12", "ambito": "67112", "_raw_CD_SIGLAS": "SNUP", "_raw_DS_CLASIF_GEN": "Suelo No Urbanizable Protegido", "_raw_DS_CLASIF_DET": "Suelo No Urbanizable de Protección por su interés Paisajístico Uso Ganadero", "_raw_DS_DOCU": "PLAN GENERAL", "_raw_DS_LEY": "CM Ley 9/2001, E Ley 6/1998", "_raw_FC_AC": "2007-01-18", "_raw_NM_AREA_M2": 61057.625854538201, "_cam_code": "036" }, "geometry": { "type": "Polygon", "coordinates": [ [ [ -3.8434, 40.1753 ], [ -3.843, 40.1763 ], [ -3.844, 40.1768 ], [ -3.8456, 40.1773 ], [ -3.8459, 40.1779 ], [ -3.846, 40.1788 ], [ -3.8473, 40.179 ], [ -3.8483, 40.1794 ], [ -3.8484, 40.1792 ], [ -3.8487, 40.1791 ], [ -3.8489, 40.1782 ], [ -3.8478, 40.1777 ], [ -3.8471, 40.1776 ], [ -3.8462, 40.1772 ], [ -3.8444, 40.1761 ], [ -3.8434, 40.1753 ] ] ] } },
{ "type": "Feature", "properties": { "municipio": "Casarrubuelos", "clasificacion": "no-urbanizable-protegido", "calificacion": "sin-asignar", "version": "vigente", "fuente": "SIT-CAM WFS — UsoDelSuelo:VPLA_V_CLASIFICACION (https://idem.comunidad.madrid/geosrvg/ows)", "fecha_dato": "2026-05-12", "ambito": "67112", "_raw_CD_SIGLAS": "SNUP", "_raw_DS_CLASIF_GEN": "Suelo No Urbanizable Protegido", "_raw_DS_CLASIF_DET": "Suelo No Urbanizable de Protección por su interés Paisajístico Uso Ganadero", "_raw_DS_DOCU": "PLAN GENERAL", "_raw_DS_LEY": "CM Ley 9/2001, E Ley 6/1998", "_raw_FC_AC": "2007-01-18", "_raw_NM_AREA_M2": 121516.73995806, "_cam_code": "036" }, "geometry": { "type": "Polygon", "coordinates": [ [ [ -3.8434, 40.1752 ], [ -3.8446, 40.1762 ], [ -3.8448, 40.1762 ], [ -3.8451, 40.1765 ], [ -3.8462, 40.1771 ], [ -3.8462, 40.1772 ], [ -3.8488, 40.1781 ], [ -3.8489, 40.1781 ], [ -3.849, 40.1772 ], [ -3.8496, 40.1764 ], [ -3.8503, 40.176 ], [ -3.8505, 40.1753 ], [ -3.8477, 40.1749 ], [ -3.8476, 40.1749 ], [ -3.8477, 40.1749 ], [ -3.8491, 40.1758 ], [ -3.8493, 40.176 ], [ -3.8492, 40.176 ], [ -3.8478, 40.175 ], [ -3.8467, 40.1747 ], [ -3.8434, 40.1752 ] ] ] } },
{ "type": "Feature", "properties": { "municipio": "Casarrubuelos", "clasificacion": "no-urbanizable-protegido", "calificacion": "sin-asignar", "version": "vigente", "fuente": "SIT-CAM WFS — UsoDelSuelo:VPLA_V_CLASIFICACION (https://idem.comunidad.madrid/geosrvg/ows)", "fecha_dato": "2026-05-12", "ambito": "67112", "_raw_CD_SIGLAS": "SNUP", "_raw_DS_CLASIF_GEN": "Suelo No Urbanizable Protegido", "_raw_DS_CLASIF_DET": "Suelo No Urbanizable de Protección por su interés Ecológico", "_raw_DS_DOCU": "PLAN GENERAL", "_raw_DS_LEY": "CM Ley 9/2001, E Ley 6/1998", "_raw_FC_AC": "2007-01-18", "_raw_NM_AREA_M2": 25370.507488563599, "_cam_code": "036" }, "geometry": { "type": "Polygon", "coordinates": [ [ [ -3.8505, 40.1699 ], [ -3.849, 40.1703 ], [ -3.8485, 40.1721 ], [ -3.8498, 40.1722 ], [ -3.8505, 40.1699 ] ] ] } },
{ "type": "Feature", "properties": { "municipio": "Casarrubuelos", "clasificacion": "urbanizable-no-sectorizado", "calificacion": "sin-asignar", "version": "vigente", "fuente": "SIT-CAM WFS — UsoDelSuelo:VPLA_V_CLASIFICACION (https://idem.comunidad.madrid/geosrvg/ows)", "fecha_dato": "2026-05-12", "ambito": "67112", "_raw_CD_SIGLAS": "SUBNS", "_raw_DS_CLASIF_GEN": "Suelo Urbanizable No Sectorizado", "_raw_DS_CLASIF_DET": "Suelo Urbanizable No Sectorizado", "_raw_DS_DOCU": "PLAN GENERAL", "_raw_DS_LEY": "CM Ley 9/2001, E Ley 6/1998", "_raw_FC_AC": "2007-01-18", "_raw_NM_AREA_M2": 316138.23219864501, "_cam_code": "036" }, "geometry": { "type": "Polygon", "coordinates": [ [ [ -3.8379, 40.1675 ], [ -3.8384, 40.1695 ], [ -3.8394, 40.1693 ], [ -3.8394, 40.1692 ], [ -3.84, 40.1691 ], [ -3.84, 40.169 ], [ -3.8405, 40.1689 ], [ -3.8405, 40.1688 ], [ -3.8409, 40.1687 ], [ -3.8411, 40.1685 ], [ -3.8418, 40.1683 ], [ -3.8418, 40.1682 ], [ -3.8424, 40.168 ], [ -3.8424, 40.1679 ], [ -3.8431, 40.1678 ], [ -3.8438, 40.1675 ], [ -3.8454, 40.1675 ], [ -3.8464, 40.1678 ], [ -3.8477, 40.1678 ], [ -3.849, 40.1675 ], [ -3.849, 40.1674 ], [ -3.8496, 40.1674 ], [ -3.8458, 40.1658 ], [ -3.8443, 40.1653 ], [ -3.8409, 40.1627 ], [ -3.8401, 40.1635 ], [ -3.8386, 40.166 ], [ -3.8377, 40.1669 ], [ -3.838, 40.1672 ], [ -3.8379, 40.1675 ] ] ] } },
{ "type": "Feature", "properties": { "municipio": "Casarrubuelos", "clasificacion": "urbanizable-no-sectorizado", "calificacion": "sin-asignar", "version": "vigente", "fuente": "SIT-CAM WFS — UsoDelSuelo:VPLA_V_CLASIFICACION (https://idem.comunidad.madrid/geosrvg/ows)", "fecha_dato": "2026-05-12", "ambito": "67112", "_raw_CD_SIGLAS": "SUBNS", "_raw_DS_CLASIF_GEN": "Suelo Urbanizable No Sectorizado", "_raw_DS_CLASIF_DET": "Suelo Urbanizable No Sectorizado", "_raw_DS_DOCU": "PLAN GENERAL", "_raw_DS_LEY": "CM Ley 9/2001, E Ley 6/1998", "_raw_FC_AC": "2007-01-18", "_raw_NM_AREA_M2": 4597.6520036048296, "_cam_code": "036" }, "geometry": { "type": "Polygon", "coordinates": [ [ [ -3.8521, 40.1696 ], [ -3.8527, 40.1696 ], [ -3.8528, 40.1692 ], [ -3.852, 40.1686 ], [ -3.8521, 40.1696 ] ] ] } },
{ "type": "Feature", "properties": { "municipio": "Casarrubuelos", "clasificacion": "urbanizable-no-sectorizado", "calificacion": "sin-asignar", "version": "vigente", "fuente": "SIT-CAM WFS — UsoDelSuelo:VPLA_V_CLASIFICACION (https://idem.comunidad.madrid/geosrvg/ows)", "fecha_dato": "2026-05-12", "ambito": "67112", "_raw_CD_SIGLAS": "SUBNS", "_raw_DS_CLASIF_GEN": "Suelo Urbanizable No Sectorizado", "_raw_DS_CLASIF_DET": "Suelo Urbanizable No Sectorizado", "_raw_DS_DOCU": "PLAN GENERAL", "_raw_DS_LEY": "CM Ley 9/2001, E Ley 6/1998", "_raw_FC_AC": "2007-01-18", "_raw_NM_AREA_M2": 238058.503842109, "_cam_code": "036" }, "geometry": { "type": "Polygon", "coordinates": [ [ [ -3.8386, 40.1706 ], [ -3.8389, 40.1708 ], [ -3.8388, 40.171 ], [ -3.8445, 40.1696 ], [ -3.8519, 40.1696 ], [ -3.8517, 40.1684 ], [ -3.8497, 40.1674 ], [ -3.8492, 40.1674 ], [ -3.8492, 40.1675 ], [ -3.8488, 40.1675 ], [ -3.8479, 40.1678 ], [ -3.8463, 40.1678 ], [ -3.8452, 40.1675 ], [ -3.8439, 40.1675 ], [ -3.8439, 40.1676 ], [ -3.8435, 40.1676 ], [ -3.8435, 40.1677 ], [ -3.8432, 40.1678 ], [ -3.8425, 40.1679 ], [ -3.8418, 40.1683 ], [ -3.8416, 40.1683 ], [ -3.8416, 40.1684 ], [ -3.8414, 40.1684 ], [ -3.8414, 40.1685 ], [ -3.8401, 40.169 ], [ -3.8401, 40.1691 ], [ -3.8384, 40.1695 ], [ -3.8386, 40.1706 ] ] ] } },
{ "type": "Feature", "properties": { "municipio": "Casarrubuelos", "clasificacion": "urbanizable-sectorizado", "calificacion": "sin-asignar", "version": "vigente", "fuente": "SIT-CAM WFS — UsoDelSuelo:VPLA_V_CLASIFICACION (https://idem.comunidad.madrid/geosrvg/ows)", "fecha_dato": "2026-05-12", "ambito": "67112", "_raw_CD_SIGLAS": "SUBS", "_raw_DS_CLASIF_GEN": "Suelo Urbanizable Sectorizado", "_raw_DS_CLASIF_DET": "Suelo Urbanizable Sectorizado", "_raw_DS_DOCU": "PLAN GENERAL", "_raw_DS_LEY": "CM Ley 9/2001, E Ley 6/1998", "_raw_FC_AC": "2007-01-18", "_raw_NM_AREA_M2": 465727.08375138702, "_cam_code": "036" }, "geometry": { "type": "Polygon", "coordinates": [ [ [ -3.8118, 40.1785 ], [ -3.8128, 40.1784 ], [ -3.8141, 40.1791 ], [ -3.8159, 40.1792 ], [ -3.8171, 40.1768 ], [ -3.8174, 40.1767 ], [ -3.8174, 40.1763 ], [ -3.8186, 40.1757 ], [ -3.8196, 40.175 ], [ -3.8227, 40.1739 ], [ -3.8222, 40.1739 ], [ -3.8201, 40.1734 ], [ -3.8194, 40.1736 ], [ -3.819, 40.1734 ], [ -3.819, 40.1733 ], [ -3.8186, 40.1732 ], [ -3.8183, 40.1729 ], [ -3.8182, 40.1726 ], [ -3.8169, 40.1722 ], [ -3.8161, 40.1718 ], [ -3.8165, 40.1712 ], [ -3.8159, 40.1711 ], [ -3.8152, 40.1706 ], [ -3.8149, 40.1705 ], [ -3.8147, 40.1706 ], [ -3.8147, 40.1705 ], [ -3.8144, 40.1704 ], [ -3.8136, 40.1712 ], [ -3.8133, 40.1717 ], [ -3.81, 40.179 ], [ -3.811, 40.1787 ], [ -3.8114, 40.1787 ], [ -3.8114, 40.1786 ], [ -3.8118, 40.1786 ], [ -3.8118, 40.1785 ] ] ] } },
{ "type": "Feature", "properties": { "municipio": "Casarrubuelos", "clasificacion": "urbanizable-sectorizado", "calificacion": "sin-asignar", "version": "vigente", "fuente": "SIT-CAM WFS — UsoDelSuelo:VPLA_V_CLASIFICACION (https://idem.comunidad.madrid/geosrvg/ows)", "fecha_dato": "2026-05-12", "ambito": "67112", "_raw_CD_SIGLAS": "SUBS", "_raw_DS_CLASIF_GEN": "Suelo Urbanizable Sectorizado", "_raw_DS_CLASIF_DET": "Suelo Urbanizable Sectorizado", "_raw_DS_DOCU": "PLAN GENERAL", "_raw_DS_LEY": "CM Ley 9/2001, E Ley 6/1998", "_raw_FC_AC": "2007-01-18", "_raw_NM_AREA_M2": 5716.3304850739396, "_cam_code": "036" }, "geometry": { "type": "Polygon", "coordinates": [ [ [ -3.8149, 40.1703 ], [ -3.8154, 40.1704 ], [ -3.8159, 40.1709 ], [ -3.8164, 40.1711 ], [ -3.8166, 40.1711 ], [ -3.8167, 40.1709 ], [ -3.8164, 40.1707 ], [ -3.8161, 40.1707 ], [ -3.8156, 40.1703 ], [ -3.8154, 40.1703 ], [ -3.8154, 40.1702 ], [ -3.8147, 40.1699 ], [ -3.8144, 40.1704 ], [ -3.8149, 40.1703 ] ] ] } },
{ "type": "Feature", "properties": { "municipio": "Casarrubuelos", "clasificacion": "urbanizable-sectorizado", "calificacion": "sin-asignar", "version": "vigente", "fuente": "SIT-CAM WFS — UsoDelSuelo:VPLA_V_CLASIFICACION (https://idem.comunidad.madrid/geosrvg/ows)", "fecha_dato": "2026-05-12", "ambito": "67112", "_raw_CD_SIGLAS": "SUBS", "_raw_DS_CLASIF_GEN": "Suelo Urbanizable Sectorizado", "_raw_DS_CLASIF_DET": "Suelo Urbanizable Sectorizado", "_raw_DS_DOCU": "PLAN GENERAL", "_raw_DS_LEY": "CM Ley 9/2001, E Ley 6/1998", "_raw_FC_AC": "2007-01-18", "_raw_NM_AREA_M2": 347.94917867350898, "_cam_code": "036" }, "geometry": { "type": "Polygon", "coordinates": [ [ [ -3.8188, 40.1715 ], [ -3.8189, 40.1715 ], [ -3.8187, 40.1713 ], [ -3.8184, 40.1715 ], [ -3.8188, 40.1715 ] ] ] } },
{ "type": "Feature", "properties": { "municipio": "Casarrubuelos", "clasificacion": "urbanizable-sectorizado", "calificacion": "sin-asignar", "version": "vigente", "fuente": "SIT-CAM WFS — UsoDelSuelo:VPLA_V_CLASIFICACION (https://idem.comunidad.madrid/geosrvg/ows)", "fecha_dato": "2026-05-12", "ambito": "67112", "_raw_CD_SIGLAS": "SUBS", "_raw_DS_CLASIF_GEN": "Suelo Urbanizable Sectorizado", "_raw_DS_CLASIF_DET": "Suelo Urbanizable Sectorizado", "_raw_DS_DOCU": "PLAN GENERAL", "_raw_DS_LEY": "CM Ley 9/2001, E Ley 6/1998", "_raw_FC_AC": "2007-01-18", "_raw_NM_AREA_M2": 1210.3704320705299, "_cam_code": "036" }, "geometry": { "type": "Polygon", "coordinates": [ [ [ -3.817, 40.1712 ], [ -3.8174, 40.1718 ], [ -3.818, 40.1717 ], [ -3.8181, 40.1715 ], [ -3.8174, 40.1717 ], [ -3.8173, 40.1714 ], [ -3.817, 40.1712 ] ] ] } },
{ "type": "Feature", "properties": { "municipio": "Casarrubuelos", "clasificacion": "urbanizable-sectorizado", "calificacion": "sin-asignar", "version": "vigente", "fuente": "SIT-CAM WFS — UsoDelSuelo:VPLA_V_CLASIFICACION (https://idem.comunidad.madrid/geosrvg/ows)", "fecha_dato": "2026-05-12", "ambito": "67112", "_raw_CD_SIGLAS": "SUBS", "_raw_DS_CLASIF_GEN": "Suelo Urbanizable Sectorizado", "_raw_DS_CLASIF_DET": "Suelo Urbanizable Sectorizado", "_raw_DS_DOCU": "PLAN GENERAL", "_raw_DS_LEY": "CM Ley 9/2001, E Ley 6/1998", "_raw_FC_AC": "2007-01-18", "_raw_NM_AREA_M2": 411495.53013675997, "_cam_code": "036" }, "geometry": { "type": "Polygon", "coordinates": [ [ [ -3.8352, 40.1716 ], [ -3.8351, 40.172 ], [ -3.8371, 40.1717 ], [ -3.8386, 40.1717 ], [ -3.8386, 40.1711 ], [ -3.8388, 40.1711 ], [ -3.8389, 40.1708 ], [ -3.8386, 40.1706 ], [ -3.8379, 40.1675 ], [ -3.838, 40.1672 ], [ -3.8378, 40.167 ], [ -3.8373, 40.1671 ], [ -3.8341, 40.1665 ], [ -3.834, 40.1663 ], [ -3.8336, 40.1662 ], [ -3.8334, 40.1664 ], [ -3.8302, 40.1672 ], [ -3.8298, 40.1672 ], [ -3.8297, 40.1675 ], [ -3.8295, 40.1675 ], [ -3.8288, 40.168 ], [ -3.8268, 40.1696 ], [ -3.8264, 40.1696 ], [ -3.8264, 40.1697 ], [ -3.8248, 40.1693 ], [ -3.8241, 40.169 ], [ -3.8231, 40.1684 ], [ -3.823, 40.1681 ], [ -3.822, 40.1689 ], [ -3.8211, 40.1693 ], [ -3.8196, 40.1703 ], [ -3.8251, 40.171 ], [ -3.8251, 40.1711 ], [ -3.8255, 40.171 ], [ -3.8255, 40.1711 ], [ -3.827, 40.1699 ], [ -3.8284, 40.1702 ], [ -3.8291, 40.1694 ], [ -3.8306, 40.1686 ], [ -3.8306, 40.1685 ], [ -3.832, 40.1681 ], [ -3.8325, 40.1694 ], [ -3.8339, 40.1692 ], [ -3.8342, 40.1701 ], [ -3.8347, 40.1708 ], [ -3.835, 40.1716 ], [ -3.8352, 40.1716 ] ] ] } },
{ "type": "Feature", "properties": { "municipio": "Casarrubuelos", "clasificacion": "urbano-consolidado", "calificacion": "sin-asignar", "version": "vigente", "fuente": "SIT-CAM WFS — UsoDelSuelo:VPLA_V_CLASIFICACION (https://idem.comunidad.madrid/geosrvg/ows)", "fecha_dato": "2026-05-12", "ambito": "67112", "_raw_CD_SIGLAS": "SUC", "_raw_DS_CLASIF_GEN": "Suelo Urbano Consolidado", "_raw_DS_CLASIF_DET": "Suelo Urbano Consolidado", "_raw_DS_DOCU": "PLAN GENERAL", "_raw_DS_LEY": "CM Ley 9/2001, E Ley 6/1998", "_raw_FC_AC": "2007-01-18", "_raw_NM_AREA_M2": 287912.64176613902, "_cam_code": "036" }, "geometry": { "type": "Polygon", "coordinates": [ [ [ -3.8084, 40.1775 ], [ -3.8079, 40.1795 ], [ -3.8083, 40.1793 ], [ -3.8092, 40.1792 ], [ -3.8117, 40.1737 ], [ -3.8133, 40.1706 ], [ -3.8128, 40.1703 ], [ -3.8129, 40.1701 ], [ -3.8127, 40.1699 ], [ -3.8121, 40.1696 ], [ -3.8116, 40.1696 ], [ -3.8114, 40.1698 ], [ -3.811, 40.1698 ], [ -3.8101, 40.1694 ], [ -3.8092, 40.1708 ], [ -3.8087, 40.1723 ], [ -3.8086, 40.1723 ], [ -3.8077, 40.1744 ], [ -3.8068, 40.1771 ], [ -3.8068, 40.1772 ], [ -3.8075, 40.1774 ], [ -3.8084, 40.1775 ] ] ] } },
{ "type": "Feature", "properties": { "municipio": "Casarrubuelos", "clasificacion": "urbano-consolidado", "calificacion": "sin-asignar", "version": "vigente", "fuente": "SIT-CAM WFS — UsoDelSuelo:VPLA_V_CLASIFICACION (https://idem.comunidad.madrid/geosrvg/ows)", "fecha_dato": "2026-05-12", "ambito": "67112", "_raw_CD_SIGLAS": "SUC", "_raw_DS_CLASIF_GEN": "Suelo Urbano Consolidado", "_raw_DS_CLASIF_DET": "Suelo Urbano Consolidado", "_raw_DS_DOCU": "PLAN GENERAL", "_raw_DS_LEY": "CM Ley 9/2001, E Ley 6/1998", "_raw_FC_AC": "2007-01-18", "_raw_NM_AREA_M2": 548818.845164406, "_cam_code": "036" }, "geometry": { "type": "Polygon", "coordinates": [ [ [ -3.8291, 40.1738 ], [ -3.8291, 40.1739 ], [ -3.8297, 40.1739 ], [ -3.83, 40.1734 ], [ -3.8304, 40.1733 ], [ -3.8315, 40.1733 ], [ -3.8318, 40.173 ], [ -3.8323, 40.1729 ], [ -3.8322, 40.1729 ], [ -3.8322, 40.1726 ], [ -3.8323, 40.1726 ], [ -3.8322, 40.1725 ], [ -3.8324, 40.1727 ], [ -3.8335, 40.1723 ], [ -3.8334, 40.172 ], [ -3.8337, 40.172 ], [ -3.8338, 40.1725 ], [ -3.835, 40.1722 ], [ -3.8351, 40.1719 ], [ -3.8352, 40.1719 ], [ -3.8352, 40.1716 ], [ -3.835, 40.1716 ], [ -3.8347, 40.1708 ], [ -3.8342, 40.1701 ], [ -3.8339, 40.1692 ], [ -3.8325, 40.1694 ], [ -3.8321, 40.1683 ], [ -3.8319, 40.1681 ], [ -3.8308, 40.1684 ], [ -3.8308, 40.1685 ], [ -3.8301, 40.1688 ], [ -3.8291, 40.1694 ], [ -3.8284, 40.1702 ], [ -3.827, 40.1699 ], [ -3.8255, 40.1711 ], [ -3.8255, 40.171 ], [ -3.8251, 40.1711 ], [ -3.8251, 40.171 ], [ -3.8196, 40.1703 ], [ -3.8178, 40.1713 ], [ -3.8172, 40.1713 ], [ -3.8174, 40.1717 ], [ -3.8181, 40.1715 ], [ -3.818, 40.1717 ], [ -3.8174, 40.1718 ], [ -3.8172, 40.1714 ], [ -3.8167, 40.1709 ], [ -3.8161, 40.1718 ], [ -3.8169, 40.1722 ], [ -3.8182, 40.1726 ], [ -3.8183, 40.1729 ], [ -3.8186, 40.1732 ], [ -3.819, 40.1733 ], [ -3.819, 40.1734 ], [ -3.8194, 40.1736 ], [ -3.8201, 40.1734 ], [ -3.8222, 40.1739 ], [ -3.8237, 40.1739 ], [ -3.8247, 40.1736 ], [ -3.8247, 40.1737 ], [ -3.825, 40.1737 ], [ -3.8253, 40.1734 ], [ -3.8262, 40.1734 ], [ -3.8262, 40.1735 ], [ -3.8262, 40.1734 ], [ -3.8265, 40.1733 ], [ -3.8265, 40.1734 ], [ -3.8269, 40.1736 ], [ -3.8276, 40.1737 ], [ -3.8276, 40.1738 ], [ -3.8281, 40.1738 ], [ -3.8282, 40.1739 ], [ -3.8291, 40.1738 ] ], [ [ -3.8187, 40.1713 ], [ -3.8189, 40.1715 ], [ -3.8184, 40.1715 ], [ -3.8185, 40.1714 ], [ -3.8187, 40.1713 ] ] ] } }
]
}
