{
"type": "FeatureCollection",
"name": "vigente.full",
"features": [
{ "type": "Feature", "properties": { "municipio": "Robregordo", "clasificacion": "no-urbanizable-protegido", "calificacion": "sin-asignar", "version": "vigente", "fuente": "SIT-CAM WFS — UsoDelSuelo:VPLA_V_CLASIFICACION (https://idem.comunidad.madrid/geosrvg/ows)", "fecha_dato": "2026-05-12", "ambito": "19039", "_raw_CD_SIGLAS": "SNUP", "_raw_DS_CLASIF_GEN": "Suelo No Urbanizable Protegido", "_raw_DS_CLASIF_DET": "Suelo No Urbanizable Especialmente Protegido pro su interés forestal y paisajístico", "_raw_DS_DOCU": "NORMAS SUBSIDIARIAS", "_raw_DS_LEY": "CM Ley 4/1984, E RD 1346/1976", "_raw_FC_AC": "1992-07-23", "_raw_NM_AREA_M2": 7786532.9184507299, "_cam_code": "126" }, "geometry": { "type": "Polygon", "coordinates": [ [ [ -3.6134, 41.1328 ], [ -3.6135, 41.1332 ], [ -3.6142, 41.1338 ], [ -3.6143, 41.1341 ], [ -3.6165, 41.1348 ], [ -3.6171, 41.1354 ], [ -3.6173, 41.1354 ], [ -3.6176, 41.1359 ], [ -3.6179, 41.1378 ], [ -3.6184, 41.1386 ], [ -3.6185, 41.139 ], [ -3.6187, 41.1409 ], [ -3.6192, 41.1415 ], [ -3.6193, 41.1419 ], [ -3.6195, 41.1421 ], [ -3.6206, 41.1423 ], [ -3.6206, 41.1425 ], [ -3.62, 41.143 ], [ -3.6194, 41.1431 ], [ -3.6193, 41.1435 ], [ -3.6223, 41.1418 ], [ -3.625, 41.1407 ], [ -3.627, 41.1384 ], [ -3.6289, 41.1374 ], [ -3.6328, 41.1363 ], [ -3.634, 41.1349 ], [ -3.6338, 41.1311 ], [ -3.6339, 41.1306 ], [ -3.6335, 41.1263 ], [ -3.6346, 41.1255 ], [ -3.6389, 41.1238 ], [ -3.6401, 41.123 ], [ -3.645, 41.1213 ], [ -3.6417, 41.1201 ], [ -3.6408, 41.12 ], [ -3.6399, 41.1201 ], [ -3.6379, 41.1206 ], [ -3.6361, 41.1208 ], [ -3.6349, 41.1207 ], [ -3.6335, 41.1209 ], [ -3.6324, 41.1208 ], [ -3.6312, 41.1202 ], [ -3.6305, 41.1194 ], [ -3.6299, 41.1184 ], [ -3.6247, 41.116 ], [ -3.6237, 41.115 ], [ -3.6219, 41.1138 ], [ -3.6196, 41.1125 ], [ -3.6166, 41.1102 ], [ -3.6152, 41.109 ], [ -3.6148, 41.1084 ], [ -3.6146, 41.1077 ], [ -3.6147, 41.1071 ], [ -3.6144, 41.1067 ], [ -3.6134, 41.1057 ], [ -3.6121, 41.1047 ], [ -3.6106, 41.1029 ], [ -3.6102, 41.1026 ], [ -3.6087, 41.1027 ], [ -3.6067, 41.1014 ], [ -3.6056, 41.1009 ], [ -3.6047, 41.1007 ], [ -3.6022, 41.0984 ], [ -3.6021, 41.0976 ], [ -3.6016, 41.0974 ], [ -3.6008, 41.0981 ], [ -3.6004, 41.0981 ], [ -3.6002, 41.0986 ], [ -3.5998, 41.0988 ], [ -3.5996, 41.0992 ], [ -3.5996, 41.0996 ], [ -3.5997, 41.1001 ], [ -3.6, 41.1004 ], [ -3.6001, 41.1007 ], [ -3.6003, 41.1008 ], [ -3.6009, 41.1007 ], [ -3.601, 41.1003 ], [ -3.6017, 41.1003 ], [ -3.603, 41.1012 ], [ -3.6025, 41.1016 ], [ -3.6021, 41.1022 ], [ -3.6027, 41.1033 ], [ -3.6027, 41.1038 ], [ -3.6014, 41.1042 ], [ -3.6004, 41.1042 ], [ -3.6004, 41.1044 ], [ -3.6011, 41.1044 ], [ -3.6014, 41.1046 ], [ -3.6016, 41.105 ], [ -3.601, 41.1053 ], [ -3.6004, 41.1058 ], [ -3.5995, 41.106 ], [ -3.599, 41.1072 ], [ -3.5993, 41.1074 ], [ -3.5992, 41.1076 ], [ -3.5999, 41.1079 ], [ -3.5998, 41.1084 ], [ -3.5993, 41.1089 ], [ -3.599, 41.1095 ], [ -3.5987, 41.1098 ], [ -3.5982, 41.1106 ], [ -3.598, 41.1112 ], [ -3.5984, 41.1118 ], [ -3.5992, 41.1125 ], [ -3.5994, 41.113 ], [ -3.5993, 41.1135 ], [ -3.6, 41.1143 ], [ -3.6013, 41.1147 ], [ -3.6031, 41.1155 ], [ -3.6035, 41.116 ], [ -3.6039, 41.1161 ], [ -3.6041, 41.1165 ], [ -3.6046, 41.1168 ], [ -3.6049, 41.1173 ], [ -3.6046, 41.1183 ], [ -3.605, 41.1197 ], [ -3.6051, 41.1199 ], [ -3.6056, 41.1201 ], [ -3.6059, 41.1204 ], [ -3.6064, 41.1213 ], [ -3.6065, 41.1222 ], [ -3.6071, 41.1232 ], [ -3.6071, 41.1242 ], [ -3.6075, 41.1253 ], [ -3.6075, 41.126 ], [ -3.6082, 41.1264 ], [ -3.6084, 41.1263 ], [ -3.6085, 41.1265 ], [ -3.6072, 41.1269 ], [ -3.605, 41.1273 ], [ -3.6033, 41.1272 ], [ -3.6021, 41.1274 ], [ -3.6011, 41.1272 ], [ -3.6016, 41.1278 ], [ -3.6017, 41.129 ], [ -3.602, 41.1295 ], [ -3.6023, 41.1298 ], [ -3.6038, 41.1303 ], [ -3.6046, 41.1309 ], [ -3.6066, 41.1312 ], [ -3.6069, 41.1315 ], [ -3.6077, 41.1316 ], [ -3.6077, 41.1317 ], [ -3.6088, 41.1321 ], [ -3.6095, 41.1326 ], [ -3.6099, 41.1327 ], [ -3.6114, 41.1328 ], [ -3.6122, 41.1326 ], [ -3.6123, 41.1327 ], [ -3.6134, 41.1328 ] ] ] } },
{ "type": "Feature", "properties": { "municipio": "Robregordo", "clasificacion": "no-urbanizable-protegido", "calificacion": "sin-asignar", "version": "vigente", "fuente": "SIT-CAM WFS — UsoDelSuelo:VPLA_V_CLASIFICACION (https://idem.comunidad.madrid/geosrvg/ows)", "fecha_dato": "2026-05-12", "ambito": "19039", "_raw_CD_SIGLAS": "SNUP", "_raw_DS_CLASIF_GEN": "Suelo No Urbanizable Protegido", "_raw_DS_CLASIF_DET": "Suelo No Urbanizable Especialmente Protegido pro su interés agropecuario y paisajístico", "_raw_DS_DOCU": "NORMAS SUBSIDIARIAS", "_raw_DS_LEY": "CM Ley 4/1984, E RD 1346/1976", "_raw_FC_AC": "1992-07-23", "_raw_NM_AREA_M2": 20213.025754049399, "_cam_code": "126" }, "geometry": { "type": "Polygon", "coordinates": [ [ [ -3.5988, 41.0967 ], [ -3.5987, 41.0972 ], [ -3.5991, 41.0979 ], [ -3.5994, 41.0981 ], [ -3.6006, 41.0977 ], [ -3.6008, 41.0973 ], [ -3.6003, 41.0971 ], [ -3.5993, 41.0963 ], [ -3.5988, 41.0967 ] ] ] } },
{ "type": "Feature", "properties": { "municipio": "Robregordo", "clasificacion": "no-urbanizable-protegido", "calificacion": "sin-asignar", "version": "vigente", "fuente": "SIT-CAM WFS — UsoDelSuelo:VPLA_V_CLASIFICACION (https://idem.comunidad.madrid/geosrvg/ows)", "fecha_dato": "2026-05-12", "ambito": "19039", "_raw_CD_SIGLAS": "SNUP", "_raw_DS_CLASIF_GEN": "Suelo No Urbanizable Protegido", "_raw_DS_CLASIF_DET": "Suelo No Urbanizable Especialmente Protegido pro su interés agropecuario y paisajístico", "_raw_DS_DOCU": "NORMAS SUBSIDIARIAS", "_raw_DS_LEY": "CM Ley 4/1984, E RD 1346/1976", "_raw_FC_AC": "1992-07-23", "_raw_NM_AREA_M2": 42319.867811010998, "_cam_code": "126" }, "geometry": { "type": "Polygon", "coordinates": [ [ [ -3.5919, 41.1126 ], [ -3.592, 41.113 ], [ -3.592, 41.1129 ], [ -3.5925, 41.1129 ], [ -3.593, 41.1126 ], [ -3.5935, 41.1127 ], [ -3.5939, 41.1126 ], [ -3.594, 41.1121 ], [ -3.5938, 41.1119 ], [ -3.5937, 41.1115 ], [ -3.5937, 41.1109 ], [ -3.5939, 41.1101 ], [ -3.5933, 41.1098 ], [ -3.5926, 41.1103 ], [ -3.5924, 41.1111 ], [ -3.5919, 41.1111 ], [ -3.592, 41.1126 ], [ -3.5919, 41.1126 ] ] ] } },
{ "type": "Feature", "properties": { "municipio": "Robregordo", "clasificacion": "no-urbanizable-protegido", "calificacion": "sin-asignar", "version": "vigente", "fuente": "SIT-CAM WFS — UsoDelSuelo:VPLA_V_CLASIFICACION (https://idem.comunidad.madrid/geosrvg/ows)", "fecha_dato": "2026-05-12", "ambito": "19039", "_raw_CD_SIGLAS": "SNUP", "_raw_DS_CLASIF_GEN": "Suelo No Urbanizable Protegido", "_raw_DS_CLASIF_DET": "Suelo No Urbanizable Especialmente Protegido pro su interés agropecuario y paisajístico", "_raw_DS_DOCU": "NORMAS SUBSIDIARIAS", "_raw_DS_LEY": "CM Ley 4/1984, E RD 1346/1976", "_raw_FC_AC": "1992-07-23", "_raw_NM_AREA_M2": 1996909.11072396, "_cam_code": "126" }, "geometry": { "type": "Polygon", "coordinates": [ [ [ -3.5993, 41.1167 ], [ -3.6012, 41.1175 ], [ -3.6017, 41.1176 ], [ -3.6027, 41.1183 ], [ -3.6035, 41.1191 ], [ -3.6043, 41.1196 ], [ -3.6047, 41.1197 ], [ -3.6047, 41.1198 ], [ -3.6051, 41.1199 ], [ -3.6046, 41.1183 ], [ -3.6049, 41.1173 ], [ -3.6046, 41.1168 ], [ -3.6041, 41.1165 ], [ -3.6039, 41.1161 ], [ -3.6035, 41.116 ], [ -3.6031, 41.1155 ], [ -3.6013, 41.1147 ], [ -3.6, 41.1143 ], [ -3.5993, 41.1135 ], [ -3.5994, 41.113 ], [ -3.5992, 41.1125 ], [ -3.5984, 41.1118 ], [ -3.598, 41.1112 ], [ -3.5982, 41.1106 ], [ -3.5987, 41.1098 ], [ -3.599, 41.1095 ], [ -3.5993, 41.1089 ], [ -3.5998, 41.1084 ], [ -3.5999, 41.1079 ], [ -3.5992, 41.1076 ], [ -3.5993, 41.1074 ], [ -3.599, 41.1072 ], [ -3.5995, 41.106 ], [ -3.6004, 41.1058 ], [ -3.601, 41.1053 ], [ -3.6016, 41.105 ], [ -3.6014, 41.1046 ], [ -3.6011, 41.1044 ], [ -3.6004, 41.1044 ], [ -3.6004, 41.1042 ], [ -3.6014, 41.1042 ], [ -3.6027, 41.1038 ], [ -3.6027, 41.1033 ], [ -3.6021, 41.1022 ], [ -3.6025, 41.1016 ], [ -3.603, 41.1012 ], [ -3.6017, 41.1003 ], [ -3.601, 41.1003 ], [ -3.6009, 41.1007 ], [ -3.6003, 41.1008 ], [ -3.6001, 41.1007 ], [ -3.6, 41.1004 ], [ -3.5997, 41.1001 ], [ -3.5996, 41.0992 ], [ -3.5998, 41.0988 ], [ -3.6002, 41.0986 ], [ -3.6004, 41.0981 ], [ -3.6, 41.0983 ], [ -3.5988, 41.0985 ], [ -3.5985, 41.0989 ], [ -3.5978, 41.0993 ], [ -3.5977, 41.0992 ], [ -3.5969, 41.0995 ], [ -3.5959, 41.0995 ], [ -3.5958, 41.0996 ], [ -3.596, 41.0996 ], [ -3.5958, 41.1005 ], [ -3.596, 41.1005 ], [ -3.596, 41.1009 ], [ -3.5961, 41.1009 ], [ -3.5959, 41.101 ], [ -3.596, 41.101 ], [ -3.5959, 41.102 ], [ -3.5961, 41.1028 ], [ -3.5963, 41.1026 ], [ -3.5966, 41.1028 ], [ -3.5964, 41.103 ], [ -3.5963, 41.1034 ], [ -3.5964, 41.1037 ], [ -3.5966, 41.1036 ], [ -3.5966, 41.1038 ], [ -3.5977, 41.1042 ], [ -3.5978, 41.1049 ], [ -3.5976, 41.105 ], [ -3.5978, 41.1051 ], [ -3.5976, 41.1053 ], [ -3.5974, 41.1052 ], [ -3.5972, 41.1054 ], [ -3.597, 41.1053 ], [ -3.5968, 41.1054 ], [ -3.5961, 41.1059 ], [ -3.596, 41.1063 ], [ -3.5955, 41.1065 ], [ -3.5955, 41.1066 ], [ -3.5951, 41.1065 ], [ -3.5949, 41.1068 ], [ -3.5939, 41.1068 ], [ -3.5938, 41.1073 ], [ -3.5937, 41.1072 ], [ -3.5935, 41.1074 ], [ -3.5939, 41.1076 ], [ -3.5936, 41.108 ], [ -3.5934, 41.1079 ], [ -3.5935, 41.1078 ], [ -3.5933, 41.1078 ], [ -3.5933, 41.1074 ], [ -3.5928, 41.1074 ], [ -3.5928, 41.1075 ], [ -3.5924, 41.1077 ], [ -3.5921, 41.1072 ], [ -3.5924, 41.1072 ], [ -3.5923, 41.107 ], [ -3.5918, 41.1071 ], [ -3.5911, 41.1076 ], [ -3.5912, 41.1077 ], [ -3.59, 41.1082 ], [ -3.59, 41.1078 ], [ -3.5905, 41.1074 ], [ -3.5908, 41.1073 ], [ -3.5931, 41.1057 ], [ -3.5941, 41.1052 ], [ -3.5942, 41.105 ], [ -3.5942, 41.1047 ], [ -3.5939, 41.1046 ], [ -3.594, 41.1043 ], [ -3.5939, 41.1043 ], [ -3.5938, 41.1039 ], [ -3.5938, 41.1035 ], [ -3.5937, 41.1035 ], [ -3.5931, 41.102 ], [ -3.5933, 41.102 ], [ -3.5931, 41.1014 ], [ -3.5931, 41.1009 ], [ -3.5935, 41.1009 ], [ -3.5937, 41.1003 ], [ -3.5943, 41.0997 ], [ -3.5961, 41.0992 ], [ -3.5972, 41.0993 ], [ -3.5978, 41.099 ], [ -3.5987, 41.098 ], [ -3.5985, 41.0978 ], [ -3.5983, 41.097 ], [ -3.5984, 41.0966 ], [ -3.5994, 41.0956 ], [ -3.5992, 41.0953 ], [ -3.5982, 41.0954 ], [ -3.5962, 41.0966 ], [ -3.5951, 41.0971 ], [ -3.5935, 41.0986 ], [ -3.5924, 41.0985 ], [ -3.5895, 41.0986 ], [ -3.5893, 41.0989 ], [ -3.5877, 41.0994 ], [ -3.5878, 41.1001 ], [ -3.5887, 41.1027 ], [ -3.5887, 41.1031 ], [ -3.5879, 41.1045 ], [ -3.5878, 41.1056 ], [ -3.5872, 41.1064 ], [ -3.5874, 41.1073 ], [ -3.5866, 41.1081 ], [ -3.5865, 41.1085 ], [ -3.5864, 41.1085 ], [ -3.5864, 41.1087 ], [ -3.5862, 41.1089 ], [ -3.586, 41.1099 ], [ -3.5862, 41.1104 ], [ -3.5862, 41.1117 ], [ -3.586, 41.112 ], [ -3.586, 41.113 ], [ -3.5856, 41.1134 ], [ -3.5856, 41.1142 ], [ -3.5853, 41.1146 ], [ -3.5852, 41.1143 ], [ -3.5847, 41.1144 ], [ -3.5844, 41.1147 ], [ -3.5843, 41.1149 ], [ -3.5844, 41.1149 ], [ -3.5844, 41.1164 ], [ -3.5842, 41.1168 ], [ -3.5841, 41.1168 ], [ -3.5839, 41.1176 ], [ -3.583, 41.1183 ], [ -3.5828, 41.1187 ], [ -3.5828, 41.1191 ], [ -3.5826, 41.1194 ], [ -3.5837, 41.1192 ], [ -3.5847, 41.1197 ], [ -3.5855, 41.1199 ], [ -3.5864, 41.1198 ], [ -3.5874, 41.1194 ], [ -3.5884, 41.1192 ], [ -3.5895, 41.1173 ], [ -3.589, 41.1161 ], [ -3.5894, 41.1141 ], [ -3.5897, 41.1135 ], [ -3.5899, 41.1135 ], [ -3.5903, 41.1132 ], [ -3.5908, 41.1122 ], [ -3.5909, 41.1112 ], [ -3.5908, 41.1109 ], [ -3.5907, 41.1109 ], [ -3.5914, 41.1099 ], [ -3.5922, 41.1093 ], [ -3.593, 41.1089 ], [ -3.593, 41.1088 ], [ -3.5932, 41.1089 ], [ -3.5935, 41.1096 ], [ -3.5941, 41.1094 ], [ -3.5947, 41.1095 ], [ -3.5949, 41.11 ], [ -3.5939, 41.11 ], [ -3.5943, 41.1101 ], [ -3.5947, 41.1105 ], [ -3.5947, 41.112 ], [ -3.5951, 41.1131 ], [ -3.5975, 41.1156 ], [ -3.5977, 41.1156 ], [ -3.5981, 41.1161 ], [ -3.5983, 41.1161 ], [ -3.5993, 41.1167 ] ] ] } },
{ "type": "Feature", "properties": { "municipio": "Robregordo", "clasificacion": "no-urbanizable-protegido", "calificacion": "sin-asignar", "version": "vigente", "fuente": "SIT-CAM WFS — UsoDelSuelo:VPLA_V_CLASIFICACION (https://idem.comunidad.madrid/geosrvg/ows)", "fecha_dato": "2026-05-12", "ambito": "19039", "_raw_CD_SIGLAS": "SNUP", "_raw_DS_CLASIF_GEN": "Suelo No Urbanizable Protegido", "_raw_DS_CLASIF_DET": "Suelo No Urbanizable Especialmente Protegido pro su interés agropecuario y paisajístico", "_raw_DS_DOCU": "NORMAS SUBSIDIARIAS", "_raw_DS_LEY": "CM Ley 4/1984, E RD 1346/1976", "_raw_FC_AC": "1992-07-23", "_raw_NM_AREA_M2": 27572.389528408399, "_cam_code": "126" }, "geometry": { "type": "Polygon", "coordinates": [ [ [ -3.5826, 41.1195 ], [ -3.5817, 41.1203 ], [ -3.5814, 41.1204 ], [ -3.5828, 41.1209 ], [ -3.5852, 41.1202 ], [ -3.5842, 41.1196 ], [ -3.5836, 41.1195 ], [ -3.5829, 41.1196 ], [ -3.5826, 41.1195 ] ] ] } },
{ "type": "Feature", "properties": { "municipio": "Robregordo", "clasificacion": "no-urbanizable-protegido", "calificacion": "sin-asignar", "version": "vigente", "fuente": "SIT-CAM WFS — UsoDelSuelo:VPLA_V_CLASIFICACION (https://idem.comunidad.madrid/geosrvg/ows)", "fecha_dato": "2026-05-12", "ambito": "19039", "_raw_CD_SIGLAS": "SNUP", "_raw_DS_CLASIF_GEN": "Suelo No Urbanizable Protegido", "_raw_DS_CLASIF_DET": "Suelo No Urbanizable Especialmente Protegido pro su interés agropecuario y paisajístico", "_raw_DS_DOCU": "NORMAS SUBSIDIARIAS", "_raw_DS_LEY": "CM Ley 4/1984, E RD 1346/1976", "_raw_FC_AC": "1992-07-23", "_raw_NM_AREA_M2": 13107.1566194597, "_cam_code": "126" }, "geometry": { "type": "Polygon", "coordinates": [ [ [ -3.5949, 41.1051 ], [ -3.5942, 41.1053 ], [ -3.5942, 41.1056 ], [ -3.5946, 41.1058 ], [ -3.5943, 41.1061 ], [ -3.5944, 41.1063 ], [ -3.5943, 41.1067 ], [ -3.5946, 41.1067 ], [ -3.5946, 41.1066 ], [ -3.595, 41.1065 ], [ -3.5952, 41.1062 ], [ -3.5955, 41.1049 ], [ -3.5949, 41.1051 ], [ -3.5949, 41.1052 ], [ -3.5949, 41.1051 ] ] ] } },
{ "type": "Feature", "properties": { "municipio": "Robregordo", "clasificacion": "no-urbanizable-protegido", "calificacion": "sin-asignar", "version": "vigente", "fuente": "SIT-CAM WFS — UsoDelSuelo:VPLA_V_CLASIFICACION (https://idem.comunidad.madrid/geosrvg/ows)", "fecha_dato": "2026-05-12", "ambito": "19039", "_raw_CD_SIGLAS": "SNUP", "_raw_DS_CLASIF_GEN": "Suelo No Urbanizable Protegido", "_raw_DS_CLASIF_DET": "Suelo No Urbanizable Especialmente Protegido pro su interés agropecuario y paisajístico", "_raw_DS_DOCU": "NORMAS SUBSIDIARIAS", "_raw_DS_LEY": "CM Ley 4/1984, E RD 1346/1976", "_raw_FC_AC": "1992-07-23", "_raw_NM_AREA_M2": 231878.97861784999, "_cam_code": "126" }, "geometry": { "type": "Polygon", "coordinates": [ [ [ -3.5903, 41.1204 ], [ -3.5906, 41.1208 ], [ -3.5907, 41.1228 ], [ -3.5904, 41.1234 ], [ -3.5897, 41.1241 ], [ -3.5897, 41.1243 ], [ -3.5899, 41.1245 ], [ -3.5899, 41.1248 ], [ -3.5902, 41.1249 ], [ -3.5905, 41.1253 ], [ -3.5929, 41.1258 ], [ -3.5941, 41.1259 ], [ -3.597, 41.1253 ], [ -3.5969, 41.1248 ], [ -3.5966, 41.1244 ], [ -3.5948, 41.123 ], [ -3.593, 41.1211 ], [ -3.5932, 41.1209 ], [ -3.5931, 41.1209 ], [ -3.5929, 41.1204 ], [ -3.5923, 41.1198 ], [ -3.5917, 41.1197 ], [ -3.5911, 41.1203 ], [ -3.5906, 41.1205 ], [ -3.5903, 41.1204 ] ] ] } },
{ "type": "Feature", "properties": { "municipio": "Robregordo", "clasificacion": "no-urbanizable-protegido", "calificacion": "sin-asignar", "version": "vigente", "fuente": "SIT-CAM WFS — UsoDelSuelo:VPLA_V_CLASIFICACION (https://idem.comunidad.madrid/geosrvg/ows)", "fecha_dato": "2026-05-12", "ambito": "19039", "_raw_CD_SIGLAS": "SNUP", "_raw_DS_CLASIF_GEN": "Suelo No Urbanizable Protegido", "_raw_DS_CLASIF_DET": "Suelo No Urbanizable Especialmente Protegido pro su interés agropecuario y paisajístico", "_raw_DS_DOCU": "NORMAS SUBSIDIARIAS", "_raw_DS_LEY": "CM Ley 4/1984, E RD 1346/1976", "_raw_FC_AC": "1992-07-23", "_raw_NM_AREA_M2": 185445.72011771199, "_cam_code": "126" }, "geometry": { "type": "Polygon", "coordinates": [ [ [ -3.6005, 41.1309 ], [ -3.601, 41.1334 ], [ -3.6026, 41.1329 ], [ -3.6026, 41.1327 ], [ -3.6025, 41.1327 ], [ -3.6027, 41.1324 ], [ -3.6024, 41.1322 ], [ -3.6024, 41.1314 ], [ -3.6019, 41.1308 ], [ -3.6017, 41.1308 ], [ -3.6017, 41.1305 ], [ -3.6014, 41.1305 ], [ -3.6018, 41.1299 ], [ -3.6012, 41.1293 ], [ -3.6011, 41.1289 ], [ -3.6012, 41.1283 ], [ -3.601, 41.1278 ], [ -3.6006, 41.1275 ], [ -3.6003, 41.127 ], [ -3.6004, 41.1266 ], [ -3.6001, 41.1255 ], [ -3.5979, 41.1234 ], [ -3.5959, 41.1225 ], [ -3.5943, 41.1205 ], [ -3.5937, 41.1202 ], [ -3.5927, 41.1194 ], [ -3.5922, 41.1193 ], [ -3.592, 41.1194 ], [ -3.5924, 41.1195 ], [ -3.5926, 41.1199 ], [ -3.5932, 41.1204 ], [ -3.5946, 41.1221 ], [ -3.5949, 41.1227 ], [ -3.5958, 41.1233 ], [ -3.5963, 41.1239 ], [ -3.5971, 41.1244 ], [ -3.5972, 41.1251 ], [ -3.5973, 41.1252 ], [ -3.5976, 41.1251 ], [ -3.5978, 41.1254 ], [ -3.5983, 41.1256 ], [ -3.599, 41.1264 ], [ -3.5999, 41.1286 ], [ -3.6, 41.1295 ], [ -3.6005, 41.1309 ] ] ] } },
{ "type": "Feature", "properties": { "municipio": "Robregordo", "clasificacion": "no-urbanizable-protegido", "calificacion": "sin-asignar", "version": "vigente", "fuente": "SIT-CAM WFS — UsoDelSuelo:VPLA_V_CLASIFICACION (https://idem.comunidad.madrid/geosrvg/ows)", "fecha_dato": "2026-05-12", "ambito": "19039", "_raw_CD_SIGLAS": "SNUP", "_raw_DS_CLASIF_GEN": "Suelo No Urbanizable Protegido", "_raw_DS_CLASIF_DET": "Suelo No Urbanizable Especialmente Protegido pro su interés agropecuario y paisajístico", "_raw_DS_DOCU": "NORMAS SUBSIDIARIAS", "_raw_DS_LEY": "CM Ley 4/1984, E RD 1346/1976", "_raw_FC_AC": "1992-07-23", "_raw_NM_AREA_M2": 175824.17706495599, "_cam_code": "126" }, "geometry": { "type": "Polygon", "coordinates": [ [ [ -3.5974, 41.1326 ], [ -3.5946, 41.1345 ], [ -3.593, 41.1351 ], [ -3.5918, 41.1351 ], [ -3.5916, 41.1354 ], [ -3.5916, 41.1361 ], [ -3.5941, 41.1361 ], [ -3.5978, 41.1344 ], [ -3.6004, 41.1335 ], [ -3.6003, 41.132 ], [ -3.5998, 41.1299 ], [ -3.5995, 41.1294 ], [ -3.5993, 41.1287 ], [ -3.5991, 41.1275 ], [ -3.5987, 41.1268 ], [ -3.5983, 41.1264 ], [ -3.5982, 41.1264 ], [ -3.5982, 41.1266 ], [ -3.5987, 41.1282 ], [ -3.5985, 41.1304 ], [ -3.5987, 41.1324 ], [ -3.598, 41.1327 ], [ -3.5974, 41.1326 ] ] ] } },
{ "type": "Feature", "properties": { "municipio": "Robregordo", "clasificacion": "no-urbanizable-protegido", "calificacion": "sin-asignar", "version": "vigente", "fuente": "SIT-CAM WFS — UsoDelSuelo:VPLA_V_CLASIFICACION (https://idem.comunidad.madrid/geosrvg/ows)", "fecha_dato": "2026-05-12", "ambito": "19039", "_raw_CD_SIGLAS": "SNUP", "_raw_DS_CLASIF_GEN": "Suelo No Urbanizable Protegido", "_raw_DS_CLASIF_DET": "Suelo No Urbanizable Especialmente Protegido pro su interés ecológico y paisajístico", "_raw_DS_DOCU": "NORMAS SUBSIDIARIAS", "_raw_DS_LEY": "CM Ley 4/1984, E RD 1346/1976", "_raw_FC_AC": "1992-07-23", "_raw_NM_AREA_M2": 169923.84910284201, "_cam_code": "126" }, "geometry": { "type": "Polygon", "coordinates": [ [ [ -3.6106, 41.1029 ], [ -3.6121, 41.1047 ], [ -3.6134, 41.1057 ], [ -3.6144, 41.1067 ], [ -3.6147, 41.1071 ], [ -3.6146, 41.1077 ], [ -3.6148, 41.1084 ], [ -3.6152, 41.109 ], [ -3.6196, 41.1125 ], [ -3.6219, 41.1138 ], [ -3.6237, 41.115 ], [ -3.6219, 41.1136 ], [ -3.617, 41.1102 ], [ -3.6161, 41.1093 ], [ -3.6157, 41.1091 ], [ -3.6157, 41.1089 ], [ -3.6152, 41.108 ], [ -3.6153, 41.107 ], [ -3.6149, 41.1067 ], [ -3.6141, 41.1055 ], [ -3.613, 41.1049 ], [ -3.6124, 41.1039 ], [ -3.6119, 41.1035 ], [ -3.6109, 41.1021 ], [ -3.6103, 41.1021 ], [ -3.61, 41.1023 ], [ -3.6095, 41.1023 ], [ -3.6095, 41.1022 ], [ -3.6088, 41.102 ], [ -3.6074, 41.1012 ], [ -3.6063, 41.1004 ], [ -3.6052, 41.1004 ], [ -3.605, 41.1003 ], [ -3.6035, 41.0989 ], [ -3.6027, 41.0984 ], [ -3.6026, 41.0981 ], [ -3.6028, 41.0974 ], [ -3.6026, 41.0972 ], [ -3.6007, 41.097 ], [ -3.6004, 41.0968 ], [ -3.6003, 41.0965 ], [ -3.5994, 41.0956 ], [ -3.5984, 41.0966 ], [ -3.5983, 41.0973 ], [ -3.5987, 41.098 ], [ -3.5978, 41.099 ], [ -3.5972, 41.0993 ], [ -3.5961, 41.0992 ], [ -3.595, 41.0995 ], [ -3.5958, 41.0996 ], [ -3.5959, 41.0995 ], [ -3.5969, 41.0995 ], [ -3.5977, 41.0992 ], [ -3.5978, 41.0993 ], [ -3.5985, 41.0989 ], [ -3.5988, 41.0985 ], [ -3.6008, 41.0981 ], [ -3.6016, 41.0974 ], [ -3.6021, 41.0976 ], [ -3.6022, 41.0984 ], [ -3.6047, 41.1007 ], [ -3.6056, 41.1009 ], [ -3.6067, 41.1014 ], [ -3.6087, 41.1027 ], [ -3.6102, 41.1026 ], [ -3.6106, 41.1029 ] ], [ [ -3.5993, 41.0963 ], [ -3.6003, 41.0971 ], [ -3.6008, 41.0973 ], [ -3.6006, 41.0977 ], [ -3.5994, 41.0981 ], [ -3.5991, 41.0979 ], [ -3.5987, 41.0972 ], [ -3.5987, 41.097 ], [ -3.5988, 41.0967 ], [ -3.5993, 41.0963 ] ] ] } },
{ "type": "Feature", "properties": { "municipio": "Robregordo", "clasificacion": "no-urbanizable-protegido", "calificacion": "sin-asignar", "version": "vigente", "fuente": "SIT-CAM WFS — UsoDelSuelo:VPLA_V_CLASIFICACION (https://idem.comunidad.madrid/geosrvg/ows)", "fecha_dato": "2026-05-12", "ambito": "19039", "_raw_CD_SIGLAS": "SNUP", "_raw_DS_CLASIF_GEN": "Suelo No Urbanizable Protegido", "_raw_DS_CLASIF_DET": "Suelo No Urbanizable Especialmente Protegido pro su interés ecológico y paisajístico", "_raw_DS_DOCU": "NORMAS SUBSIDIARIAS", "_raw_DS_LEY": "CM Ley 4/1984, E RD 1346/1976", "_raw_FC_AC": "1992-07-23", "_raw_NM_AREA_M2": 4516332.6989014102, "_cam_code": "126" }, "geometry": { "type": "Polygon", "coordinates": [ [ [ -3.5945, 41.1513 ], [ -3.5948, 41.1517 ], [ -3.5949, 41.1521 ], [ -3.5984, 41.1505 ], [ -3.6032, 41.1494 ], [ -3.6109, 41.1487 ], [ -3.6137, 41.1491 ], [ -3.6141, 41.1474 ], [ -3.6154, 41.1462 ], [ -3.6193, 41.1435 ], [ -3.6194, 41.1431 ], [ -3.6198, 41.1431 ], [ -3.6204, 41.1427 ], [ -3.6206, 41.1425 ], [ -3.6206, 41.1423 ], [ -3.6195, 41.1421 ], [ -3.6193, 41.1419 ], [ -3.6192, 41.1415 ], [ -3.6188, 41.1411 ], [ -3.6185, 41.1397 ], [ -3.6185, 41.139 ], [ -3.6184, 41.1386 ], [ -3.6179, 41.1378 ], [ -3.6176, 41.1359 ], [ -3.6173, 41.1354 ], [ -3.6171, 41.1354 ], [ -3.6165, 41.1348 ], [ -3.6143, 41.1341 ], [ -3.6142, 41.1338 ], [ -3.6135, 41.1332 ], [ -3.6134, 41.1328 ], [ -3.6129, 41.1328 ], [ -3.6122, 41.1326 ], [ -3.6114, 41.1328 ], [ -3.6104, 41.1328 ], [ -3.6095, 41.1326 ], [ -3.6088, 41.1321 ], [ -3.6077, 41.1317 ], [ -3.6077, 41.1316 ], [ -3.6074, 41.1316 ], [ -3.6074, 41.1315 ], [ -3.6069, 41.1315 ], [ -3.6066, 41.1312 ], [ -3.6046, 41.1309 ], [ -3.6038, 41.1303 ], [ -3.6023, 41.1298 ], [ -3.602, 41.1295 ], [ -3.6017, 41.129 ], [ -3.6016, 41.1278 ], [ -3.6011, 41.1272 ], [ -3.6021, 41.1274 ], [ -3.6033, 41.1272 ], [ -3.605, 41.1273 ], [ -3.6072, 41.1269 ], [ -3.6085, 41.1265 ], [ -3.6084, 41.1263 ], [ -3.6082, 41.1264 ], [ -3.6075, 41.126 ], [ -3.6075, 41.1253 ], [ -3.6071, 41.1242 ], [ -3.6071, 41.1232 ], [ -3.6065, 41.1222 ], [ -3.6064, 41.1213 ], [ -3.6059, 41.1204 ], [ -3.6056, 41.1201 ], [ -3.6047, 41.1198 ], [ -3.6047, 41.1197 ], [ -3.6038, 41.1193 ], [ -3.6027, 41.1183 ], [ -3.6017, 41.1176 ], [ -3.5995, 41.1168 ], [ -3.5983, 41.1161 ], [ -3.5981, 41.1161 ], [ -3.5977, 41.1156 ], [ -3.5975, 41.1156 ], [ -3.5951, 41.1131 ], [ -3.5947, 41.112 ], [ -3.5947, 41.1105 ], [ -3.5946, 41.1103 ], [ -3.5939, 41.11 ], [ -3.5935, 41.1096 ], [ -3.5931, 41.1088 ], [ -3.5914, 41.1099 ], [ -3.5907, 41.1109 ], [ -3.5908, 41.1109 ], [ -3.5909, 41.1112 ], [ -3.5908, 41.1122 ], [ -3.5903, 41.1132 ], [ -3.5899, 41.1135 ], [ -3.5897, 41.1135 ], [ -3.5894, 41.1141 ], [ -3.589, 41.1161 ], [ -3.5895, 41.1173 ], [ -3.5884, 41.1192 ], [ -3.5874, 41.1194 ], [ -3.5864, 41.1198 ], [ -3.5855, 41.1199 ], [ -3.5847, 41.1197 ], [ -3.5837, 41.1192 ], [ -3.5826, 41.1194 ], [ -3.5825, 41.1191 ], [ -3.5819, 41.1188 ], [ -3.5819, 41.1187 ], [ -3.5814, 41.1186 ], [ -3.5815, 41.1184 ], [ -3.582, 41.1182 ], [ -3.5825, 41.1178 ], [ -3.5826, 41.1163 ], [ -3.5825, 41.1163 ], [ -3.5823, 41.1154 ], [ -3.5816, 41.1147 ], [ -3.5815, 41.1138 ], [ -3.5809, 41.1135 ], [ -3.5821, 41.1131 ], [ -3.5846, 41.1133 ], [ -3.5846, 41.1135 ], [ -3.5849, 41.1137 ], [ -3.5849, 41.1141 ], [ -3.5846, 41.1145 ], [ -3.5852, 41.1143 ], [ -3.5853, 41.1146 ], [ -3.5856, 41.1142 ], [ -3.5856, 41.1134 ], [ -3.586, 41.113 ], [ -3.586, 41.112 ], [ -3.5862, 41.1117 ], [ -3.5862, 41.1104 ], [ -3.586, 41.1101 ], [ -3.5862, 41.1089 ], [ -3.5864, 41.1087 ], [ -3.5864, 41.1085 ], [ -3.5865, 41.1085 ], [ -3.5866, 41.1081 ], [ -3.5874, 41.1073 ], [ -3.5872, 41.1064 ], [ -3.5878, 41.1056 ], [ -3.5879, 41.1045 ], [ -3.5887, 41.1031 ], [ -3.5887, 41.1027 ], [ -3.5878, 41.1001 ], [ -3.5877, 41.0994 ], [ -3.5893, 41.0989 ], [ -3.5895, 41.0986 ], [ -3.5891, 41.0985 ], [ -3.587, 41.0994 ], [ -3.5872, 41.0995 ], [ -3.5874, 41.1 ], [ -3.5873, 41.1005 ], [ -3.5868, 41.1009 ], [ -3.5871, 41.1025 ], [ -3.5871, 41.1031 ], [ -3.5868, 41.1046 ], [ -3.5866, 41.1048 ], [ -3.5866, 41.1051 ], [ -3.5867, 41.1051 ], [ -3.5865, 41.1059 ], [ -3.586, 41.1068 ], [ -3.5853, 41.107 ], [ -3.5834, 41.107 ], [ -3.5829, 41.1072 ], [ -3.5803, 41.1073 ], [ -3.5799, 41.1075 ], [ -3.5789, 41.1076 ], [ -3.5788, 41.1064 ], [ -3.5787, 41.106 ], [ -3.5786, 41.106 ], [ -3.5786, 41.1055 ], [ -3.5785, 41.1055 ], [ -3.5785, 41.1056 ], [ -3.5782, 41.1057 ], [ -3.5785, 41.1069 ], [ -3.5785, 41.1077 ], [ -3.5761, 41.1089 ], [ -3.5753, 41.1075 ], [ -3.5753, 41.1072 ], [ -3.5748, 41.1074 ], [ -3.5753, 41.1085 ], [ -3.5757, 41.109 ], [ -3.5768, 41.1099 ], [ -3.5773, 41.1107 ], [ -3.5774, 41.1109 ], [ -3.5772, 41.112 ], [ -3.577, 41.1127 ], [ -3.5764, 41.1137 ], [ -3.5758, 41.1155 ], [ -3.575, 41.1168 ], [ -3.574, 41.1176 ], [ -3.5737, 41.118 ], [ -3.573, 41.1181 ], [ -3.5726, 41.1185 ], [ -3.5743, 41.1181 ], [ -3.5745, 41.1178 ], [ -3.5749, 41.1176 ], [ -3.5759, 41.1161 ], [ -3.5772, 41.1133 ], [ -3.5779, 41.1112 ], [ -3.5777, 41.1104 ], [ -3.5765, 41.1091 ], [ -3.5787, 41.108 ], [ -3.5798, 41.108 ], [ -3.5801, 41.1083 ], [ -3.5803, 41.1089 ], [ -3.5803, 41.1095 ], [ -3.5805, 41.1103 ], [ -3.5806, 41.1119 ], [ -3.5805, 41.1133 ], [ -3.5806, 41.1136 ], [ -3.5811, 41.1139 ], [ -3.5815, 41.1149 ], [ -3.582, 41.1155 ], [ -3.5823, 41.1167 ], [ -3.5822, 41.1178 ], [ -3.5811, 41.1184 ], [ -3.5795, 41.1186 ], [ -3.5774, 41.1186 ], [ -3.578, 41.1189 ], [ -3.5783, 41.1188 ], [ -3.5787, 41.1189 ], [ -3.5813, 41.1188 ], [ -3.5816, 41.1191 ], [ -3.5829, 41.1196 ], [ -3.5836, 41.1195 ], [ -3.5842, 41.1196 ], [ -3.5852, 41.1202 ], [ -3.5864, 41.1198 ], [ -3.5898, 41.1198 ], [ -3.5903, 41.1204 ], [ -3.5906, 41.1205 ], [ -3.5911, 41.1203 ], [ -3.5917, 41.1197 ], [ -3.5921, 41.1197 ], [ -3.5929, 41.1204 ], [ -3.5931, 41.1209 ], [ -3.5932, 41.1209 ], [ -3.593, 41.1211 ], [ -3.5942, 41.1224 ], [ -3.5966, 41.1244 ], [ -3.5969, 41.1248 ], [ -3.597, 41.1253 ], [ -3.5973, 41.1252 ], [ -3.5971, 41.1244 ], [ -3.5963, 41.1239 ], [ -3.5958, 41.1233 ], [ -3.5949, 41.1227 ], [ -3.5946, 41.1221 ], [ -3.5932, 41.1204 ], [ -3.5926, 41.1199 ], [ -3.5924, 41.1195 ], [ -3.592, 41.1194 ], [ -3.5922, 41.1193 ], [ -3.5927, 41.1194 ], [ -3.5937, 41.1202 ], [ -3.5943, 41.1205 ], [ -3.5959, 41.1225 ], [ -3.5979, 41.1234 ], [ -3.6001, 41.1255 ], [ -3.6004, 41.1266 ], [ -3.6003, 41.127 ], [ -3.6006, 41.1275 ], [ -3.601, 41.1278 ], [ -3.6012, 41.1283 ], [ -3.6011, 41.1289 ], [ -3.6012, 41.1293 ], [ -3.6018, 41.1299 ], [ -3.6014, 41.1305 ], [ -3.6017, 41.1305 ], [ -3.6017, 41.1308 ], [ -3.6019, 41.1308 ], [ -3.6024, 41.1314 ], [ -3.6024, 41.1322 ], [ -3.6027, 41.1324 ], [ -3.6025, 41.1327 ], [ -3.6026, 41.1327 ], [ -3.6026, 41.1329 ], [ -3.601, 41.1334 ], [ -3.6005, 41.1309 ], [ -3.6, 41.1295 ], [ -3.5999, 41.1286 ], [ -3.599, 41.1264 ], [ -3.5983, 41.1256 ], [ -3.5978, 41.1254 ], [ -3.5982, 41.1264 ], [ -3.5987, 41.1268 ], [ -3.5991, 41.1275 ], [ -3.5993, 41.1287 ], [ -3.5995, 41.1294 ], [ -3.5998, 41.1299 ], [ -3.6003, 41.132 ], [ -3.6004, 41.1335 ], [ -3.5978, 41.1344 ], [ -3.5941, 41.1361 ], [ -3.5916, 41.1361 ], [ -3.5917, 41.137 ], [ -3.5917, 41.1375 ], [ -3.5916, 41.1376 ], [ -3.5921, 41.1387 ], [ -3.5921, 41.1393 ], [ -3.5924, 41.1401 ], [ -3.5923, 41.1419 ], [ -3.5925, 41.1429 ], [ -3.5928, 41.1467 ], [ -3.5936, 41.1486 ], [ -3.5945, 41.1513 ] ], [ [ -3.5819, 41.1128 ], [ -3.5808, 41.1132 ], [ -3.5808, 41.113 ], [ -3.5807, 41.113 ], [ -3.5808, 41.1127 ], [ -3.5808, 41.1089 ], [ -3.5806, 41.1082 ], [ -3.5802, 41.1078 ], [ -3.5804, 41.1076 ], [ -3.5814, 41.1078 ], [ -3.5819, 41.1076 ], [ -3.5835, 41.1076 ], [ -3.5852, 41.1074 ], [ -3.5853, 41.1075 ], [ -3.585, 41.1081 ], [ -3.5851, 41.1102 ], [ -3.5855, 41.1125 ], [ -3.5847, 41.1129 ], [ -3.5842, 41.1128 ], [ -3.5819, 41.1128 ] ], [ [ -3.6041, 41.1269 ], [ -3.6015, 41.1271 ], [ -3.6013, 41.1269 ], [ -3.6009, 41.1268 ], [ -3.6007, 41.1266 ], [ -3.6007, 41.1257 ], [ -3.6002, 41.1249 ], [ -3.5994, 41.1245 ], [ -3.5979, 41.123 ], [ -3.5974, 41.1229 ], [ -3.597, 41.1225 ], [ -3.5962, 41.1223 ], [ -3.5954, 41.1215 ], [ -3.5948, 41.1204 ], [ -3.5941, 41.1199 ], [ -3.5936, 41.1198 ], [ -3.5929, 41.1194 ], [ -3.592, 41.1182 ], [ -3.5916, 41.1184 ], [ -3.5907, 41.1193 ], [ -3.5907, 41.1201 ], [ -3.5906, 41.1202 ], [ -3.5902, 41.1202 ], [ -3.59, 41.1196 ], [ -3.5898, 41.1195 ], [ -3.5895, 41.1195 ], [ -3.5892, 41.1197 ], [ -3.5887, 41.1195 ], [ -3.5891, 41.1186 ], [ -3.59, 41.1174 ], [ -3.5898, 41.1167 ], [ -3.5895, 41.1164 ], [ -3.5895, 41.1154 ], [ -3.5896, 41.1154 ], [ -3.5897, 41.1148 ], [ -3.5909, 41.1134 ], [ -3.5911, 41.1134 ], [ -3.5912, 41.1132 ], [ -3.5917, 41.1132 ], [ -3.5918, 41.113 ], [ -3.592, 41.113 ], [ -3.5919, 41.1129 ], [ -3.5919, 41.1126 ], [ -3.592, 41.1126 ], [ -3.5919, 41.1122 ], [ -3.592, 41.1102 ], [ -3.593, 41.1092 ], [ -3.5933, 41.1098 ], [ -3.5939, 41.1101 ], [ -3.5937, 41.1109 ], [ -3.5937, 41.1115 ], [ -3.5944, 41.1133 ], [ -3.5968, 41.1158 ], [ -3.5973, 41.1161 ], [ -3.5976, 41.1165 ], [ -3.5983, 41.1169 ], [ -3.6007, 41.1179 ], [ -3.6012, 41.118 ], [ -3.6017, 41.1184 ], [ -3.6019, 41.1184 ], [ -3.6033, 41.1197 ], [ -3.6035, 41.1197 ], [ -3.604, 41.1201 ], [ -3.6051, 41.1205 ], [ -3.6057, 41.1214 ], [ -3.6058, 41.1223 ], [ -3.6064, 41.1233 ], [ -3.6064, 41.1243 ], [ -3.6068, 41.1253 ], [ -3.6069, 41.1267 ], [ -3.6049, 41.127 ], [ -3.6041, 41.1269 ] ] ] } },
{ "type": "Feature", "properties": { "municipio": "Robregordo", "clasificacion": "no-urbanizable-protegido", "calificacion": "sin-asignar", "version": "vigente", "fuente": "SIT-CAM WFS — UsoDelSuelo:VPLA_V_CLASIFICACION (https://idem.comunidad.madrid/geosrvg/ows)", "fecha_dato": "2026-05-12", "ambito": "19039", "_raw_CD_SIGLAS": "SNUP", "_raw_DS_CLASIF_GEN": "Suelo No Urbanizable Protegido", "_raw_DS_CLASIF_DET": "Suelo No Urbanizable Especialmente Protegido pro su interés forestal y paisajístico", "_raw_DS_DOCU": "NORMAS SUBSIDIARIAS", "_raw_DS_LEY": "CM Ley 4/1984, E RD 1346/1976", "_raw_FC_AC": "1992-07-23", "_raw_NM_AREA_M2": 369766.04562920402, "_cam_code": "126" }, "geometry": { "type": "Polygon", "coordinates": [ [ [ -3.5788, 41.1064 ], [ -3.5789, 41.1076 ], [ -3.5794, 41.1076 ], [ -3.5803, 41.1073 ], [ -3.5829, 41.1072 ], [ -3.5834, 41.107 ], [ -3.5853, 41.107 ], [ -3.586, 41.1068 ], [ -3.5865, 41.1059 ], [ -3.5867, 41.1051 ], [ -3.5866, 41.1051 ], [ -3.5866, 41.1048 ], [ -3.5868, 41.1046 ], [ -3.5871, 41.1031 ], [ -3.5871, 41.1025 ], [ -3.5868, 41.1009 ], [ -3.5873, 41.1005 ], [ -3.5874, 41.1 ], [ -3.5872, 41.0995 ], [ -3.587, 41.0994 ], [ -3.5891, 41.0985 ], [ -3.5883, 41.0985 ], [ -3.5873, 41.0989 ], [ -3.5872, 41.0991 ], [ -3.587, 41.0991 ], [ -3.5869, 41.0993 ], [ -3.5866, 41.0994 ], [ -3.5862, 41.0998 ], [ -3.5837, 41.1015 ], [ -3.5836, 41.1017 ], [ -3.5821, 41.1029 ], [ -3.5818, 41.1033 ], [ -3.5788, 41.1053 ], [ -3.5786, 41.1055 ], [ -3.5786, 41.106 ], [ -3.5787, 41.106 ], [ -3.5788, 41.1064 ] ] ] } },
{ "type": "Feature", "properties": { "municipio": "Robregordo", "clasificacion": "no-urbanizable-protegido", "calificacion": "sin-asignar", "version": "vigente", "fuente": "SIT-CAM WFS — UsoDelSuelo:VPLA_V_CLASIFICACION (https://idem.comunidad.madrid/geosrvg/ows)", "fecha_dato": "2026-05-12", "ambito": "19039", "_raw_CD_SIGLAS": "SNUP", "_raw_DS_CLASIF_GEN": "Suelo No Urbanizable Protegido", "_raw_DS_CLASIF_DET": "Suelo No Urbanizable Especialmente Protegido pro su interés forestal y paisajístico", "_raw_DS_DOCU": "NORMAS SUBSIDIARIAS", "_raw_DS_LEY": "CM Ley 4/1984, E RD 1346/1976", "_raw_FC_AC": "1992-07-23", "_raw_NM_AREA_M2": 54089.483555620303, "_cam_code": "126" }, "geometry": { "type": "Polygon", "coordinates": [ [ [ -3.5782, 41.1057 ], [ -3.578, 41.1059 ], [ -3.5753, 41.1072 ], [ -3.5753, 41.1075 ], [ -3.5761, 41.1089 ], [ -3.5785, 41.1077 ], [ -3.5785, 41.1069 ], [ -3.5783, 41.1058 ], [ -3.5782, 41.1057 ] ] ] } },
{ "type": "Feature", "properties": { "municipio": "Robregordo", "clasificacion": "no-urbanizable-protegido", "calificacion": "sin-asignar", "version": "vigente", "fuente": "SIT-CAM WFS — UsoDelSuelo:VPLA_V_CLASIFICACION (https://idem.comunidad.madrid/geosrvg/ows)", "fecha_dato": "2026-05-12", "ambito": "19039", "_raw_CD_SIGLAS": "SNUP", "_raw_DS_CLASIF_GEN": "Suelo No Urbanizable Protegido", "_raw_DS_CLASIF_DET": "Suelo No Urbanizable Especialmente Protegido pro su interés forestal y paisajístico", "_raw_DS_DOCU": "NORMAS SUBSIDIARIAS", "_raw_DS_LEY": "CM Ley 4/1984, E RD 1346/1976", "_raw_FC_AC": "1992-07-23", "_raw_NM_AREA_M2": 8977.3306394172996, "_cam_code": "126" }, "geometry": { "type": "Polygon", "coordinates": [ [ [ -3.6129, 41.1046 ], [ -3.6129, 41.1047 ], [ -3.613, 41.1049 ], [ -3.6141, 41.1055 ], [ -3.6149, 41.1067 ], [ -3.6153, 41.107 ], [ -3.6152, 41.108 ], [ -3.6157, 41.1089 ], [ -3.6158, 41.1089 ], [ -3.6158, 41.1086 ], [ -3.6154, 41.108 ], [ -3.6155, 41.1069 ], [ -3.6151, 41.1067 ], [ -3.6148, 41.106 ], [ -3.6142, 41.1054 ], [ -3.613, 41.1048 ], [ -3.6129, 41.1046 ] ] ] } },
{ "type": "Feature", "properties": { "municipio": "Robregordo", "clasificacion": "no-urbanizable-protegido", "calificacion": "sin-asignar", "version": "vigente", "fuente": "SIT-CAM WFS — UsoDelSuelo:VPLA_V_CLASIFICACION (https://idem.comunidad.madrid/geosrvg/ows)", "fecha_dato": "2026-05-12", "ambito": "19039", "_raw_CD_SIGLAS": "SNUP", "_raw_DS_CLASIF_GEN": "Suelo No Urbanizable Protegido", "_raw_DS_CLASIF_DET": "Suelo No Urbanizable Especialmente Protegido pro su interés forestal y paisajístico", "_raw_DS_DOCU": "NORMAS SUBSIDIARIAS", "_raw_DS_LEY": "CM Ley 4/1984, E RD 1346/1976", "_raw_FC_AC": "1992-07-23", "_raw_NM_AREA_M2": 217816.119907457, "_cam_code": "126" }, "geometry": { "type": "Polygon", "coordinates": [ [ [ -3.5807, 41.1128 ], [ -3.5808, 41.1132 ], [ -3.5813, 41.1129 ], [ -3.5819, 41.1128 ], [ -3.5842, 41.1128 ], [ -3.5847, 41.1129 ], [ -3.5855, 41.1125 ], [ -3.5851, 41.1102 ], [ -3.585, 41.1081 ], [ -3.5853, 41.1075 ], [ -3.5852, 41.1074 ], [ -3.5835, 41.1076 ], [ -3.5819, 41.1076 ], [ -3.5814, 41.1078 ], [ -3.5804, 41.1076 ], [ -3.5802, 41.1078 ], [ -3.5806, 41.1082 ], [ -3.5808, 41.1089 ], [ -3.5808, 41.1127 ], [ -3.5807, 41.1128 ] ] ] } },
{ "type": "Feature", "properties": { "municipio": "Robregordo", "clasificacion": "no-urbanizable-protegido", "calificacion": "sin-asignar", "version": "vigente", "fuente": "SIT-CAM WFS — UsoDelSuelo:VPLA_V_CLASIFICACION (https://idem.comunidad.madrid/geosrvg/ows)", "fecha_dato": "2026-05-12", "ambito": "19039", "_raw_CD_SIGLAS": "SNUP", "_raw_DS_CLASIF_GEN": "Suelo No Urbanizable Protegido", "_raw_DS_CLASIF_DET": "Suelo No Urbanizable Especialmente Protegido pro su interés forestal y paisajístico", "_raw_DS_DOCU": "NORMAS SUBSIDIARIAS", "_raw_DS_LEY": "CM Ley 4/1984, E RD 1346/1976", "_raw_FC_AC": "1992-07-23", "_raw_NM_AREA_M2": 669267.54496579699, "_cam_code": "126" }, "geometry": { "type": "Polygon", "coordinates": [ [ [ -3.5748, 41.1074 ], [ -3.5732, 41.1082 ], [ -3.5728, 41.1086 ], [ -3.5695, 41.1108 ], [ -3.5693, 41.1111 ], [ -3.566, 41.1139 ], [ -3.5664, 41.1147 ], [ -3.5672, 41.1154 ], [ -3.5677, 41.1156 ], [ -3.569, 41.1168 ], [ -3.5724, 41.1185 ], [ -3.5726, 41.1185 ], [ -3.573, 41.1181 ], [ -3.5737, 41.118 ], [ -3.574, 41.1176 ], [ -3.575, 41.1168 ], [ -3.5758, 41.1155 ], [ -3.5764, 41.1137 ], [ -3.577, 41.1127 ], [ -3.5774, 41.1109 ], [ -3.5768, 41.1099 ], [ -3.5757, 41.109 ], [ -3.5753, 41.1085 ], [ -3.5748, 41.1074 ] ] ] } },
{ "type": "Feature", "properties": { "municipio": "Robregordo", "clasificacion": "no-urbanizable-protegido", "calificacion": "sin-asignar", "version": "vigente", "fuente": "SIT-CAM WFS — UsoDelSuelo:VPLA_V_CLASIFICACION (https://idem.comunidad.madrid/geosrvg/ows)", "fecha_dato": "2026-05-12", "ambito": "19039", "_raw_CD_SIGLAS": "SNUP", "_raw_DS_CLASIF_GEN": "Suelo No Urbanizable Protegido", "_raw_DS_CLASIF_DET": "Suelo No Urbanizable Especialmente Protegido pro su interés forestal y paisajístico", "_raw_DS_DOCU": "NORMAS SUBSIDIARIAS", "_raw_DS_LEY": "CM Ley 4/1984, E RD 1346/1976", "_raw_FC_AC": "1992-07-23", "_raw_NM_AREA_M2": 420050.88044144202, "_cam_code": "126" }, "geometry": { "type": "Polygon", "coordinates": [ [ [ -3.5782, 41.1186 ], [ -3.5795, 41.1186 ], [ -3.5811, 41.1184 ], [ -3.5822, 41.1178 ], [ -3.5823, 41.1173 ], [ -3.5823, 41.1167 ], [ -3.582, 41.1155 ], [ -3.5815, 41.1149 ], [ -3.5811, 41.1139 ], [ -3.5806, 41.1136 ], [ -3.5805, 41.1133 ], [ -3.5806, 41.1119 ], [ -3.5805, 41.1103 ], [ -3.5803, 41.1095 ], [ -3.5803, 41.1089 ], [ -3.5801, 41.1083 ], [ -3.5798, 41.108 ], [ -3.5787, 41.108 ], [ -3.5765, 41.1091 ], [ -3.5777, 41.1104 ], [ -3.5779, 41.1112 ], [ -3.5772, 41.1133 ], [ -3.5759, 41.1161 ], [ -3.5749, 41.1176 ], [ -3.5745, 41.1178 ], [ -3.5743, 41.1181 ], [ -3.5746, 41.118 ], [ -3.5764, 41.1181 ], [ -3.5774, 41.1186 ], [ -3.5782, 41.1186 ] ] ] } },
{ "type": "Feature", "properties": { "municipio": "Robregordo", "clasificacion": "no-urbanizable-protegido", "calificacion": "sin-asignar", "version": "vigente", "fuente": "SIT-CAM WFS — UsoDelSuelo:VPLA_V_CLASIFICACION (https://idem.comunidad.madrid/geosrvg/ows)", "fecha_dato": "2026-05-12", "ambito": "19039", "_raw_CD_SIGLAS": "SNUP", "_raw_DS_CLASIF_GEN": "Suelo No Urbanizable Protegido", "_raw_DS_CLASIF_DET": "Suelo No Urbanizable Especialmente Protegido pro su interés forestal y paisajístico", "_raw_DS_DOCU": "NORMAS SUBSIDIARIAS", "_raw_DS_LEY": "CM Ley 4/1984, E RD 1346/1976", "_raw_FC_AC": "1992-07-23", "_raw_NM_AREA_M2": 114296.699085948, "_cam_code": "126" }, "geometry": { "type": "Polygon", "coordinates": [ [ [ -3.5821, 41.1131 ], [ -3.5809, 41.1135 ], [ -3.5815, 41.1138 ], [ -3.5816, 41.1147 ], [ -3.5823, 41.1154 ], [ -3.5825, 41.1163 ], [ -3.5826, 41.1163 ], [ -3.5825, 41.1178 ], [ -3.582, 41.1182 ], [ -3.5815, 41.1184 ], [ -3.5814, 41.1186 ], [ -3.5819, 41.1187 ], [ -3.5819, 41.1188 ], [ -3.5825, 41.1191 ], [ -3.5826, 41.1194 ], [ -3.5828, 41.1191 ], [ -3.5828, 41.1187 ], [ -3.583, 41.1183 ], [ -3.5839, 41.1176 ], [ -3.5841, 41.1168 ], [ -3.5842, 41.1168 ], [ -3.5844, 41.1164 ], [ -3.5844, 41.1149 ], [ -3.5843, 41.1149 ], [ -3.5849, 41.1141 ], [ -3.5849, 41.1137 ], [ -3.5846, 41.1135 ], [ -3.5846, 41.1133 ], [ -3.5821, 41.1131 ] ] ] } },
{ "type": "Feature", "properties": { "municipio": "Robregordo", "clasificacion": "no-urbanizable-protegido", "calificacion": "sin-asignar", "version": "vigente", "fuente": "SIT-CAM WFS — UsoDelSuelo:VPLA_V_CLASIFICACION (https://idem.comunidad.madrid/geosrvg/ows)", "fecha_dato": "2026-05-12", "ambito": "19039", "_raw_CD_SIGLAS": "SNUP", "_raw_DS_CLASIF_GEN": "Suelo No Urbanizable Protegido", "_raw_DS_CLASIF_DET": "Suelo No Urbanizable Especialmente Protegido pro su interés forestal y paisajístico", "_raw_DS_DOCU": "NORMAS SUBSIDIARIAS", "_raw_DS_LEY": "CM Ley 4/1984, E RD 1346/1976", "_raw_FC_AC": "1992-07-23", "_raw_NM_AREA_M2": 36281.775779456897, "_cam_code": "126" }, "geometry": { "type": "Polygon", "coordinates": [ [ [ -3.578, 41.1189 ], [ -3.5794, 41.1197 ], [ -3.5814, 41.1204 ], [ -3.5817, 41.1203 ], [ -3.5826, 41.1195 ], [ -3.5816, 41.1191 ], [ -3.5813, 41.1188 ], [ -3.5802, 41.1189 ], [ -3.5783, 41.1188 ], [ -3.578, 41.1189 ] ] ] } },
{ "type": "Feature", "properties": { "municipio": "Robregordo", "clasificacion": "no-urbanizable-protegido", "calificacion": "sin-asignar", "version": "vigente", "fuente": "SIT-CAM WFS — UsoDelSuelo:VPLA_V_CLASIFICACION (https://idem.comunidad.madrid/geosrvg/ows)", "fecha_dato": "2026-05-12", "ambito": "19039", "_raw_CD_SIGLAS": "SNUP", "_raw_DS_CLASIF_GEN": "Suelo No Urbanizable Protegido", "_raw_DS_CLASIF_DET": "Suelo No Urbanizable Especialmente Protegido pro su interés forestal y paisajístico", "_raw_DS_DOCU": "NORMAS SUBSIDIARIAS", "_raw_DS_LEY": "CM Ley 4/1984, E RD 1346/1976", "_raw_FC_AC": "1992-07-23", "_raw_NM_AREA_M2": 1069650.56306171, "_cam_code": "126" }, "geometry": { "type": "Polygon", "coordinates": [ [ [ -3.6013, 41.127 ], [ -3.6015, 41.127 ], [ -3.6015, 41.1271 ], [ -3.6026, 41.1271 ], [ -3.6036, 41.127 ], [ -3.6037, 41.1269 ], [ -3.6049, 41.127 ], [ -3.6069, 41.1267 ], [ -3.6068, 41.1253 ], [ -3.6064, 41.1243 ], [ -3.6064, 41.1233 ], [ -3.6058, 41.1223 ], [ -3.6057, 41.1214 ], [ -3.6053, 41.1207 ], [ -3.6049, 41.1204 ], [ -3.604, 41.1201 ], [ -3.6037, 41.1198 ], [ -3.6033, 41.1197 ], [ -3.6019, 41.1184 ], [ -3.6017, 41.1184 ], [ -3.6012, 41.118 ], [ -3.5992, 41.1173 ], [ -3.5976, 41.1165 ], [ -3.5947, 41.1137 ], [ -3.5942, 41.1129 ], [ -3.5941, 41.1124 ], [ -3.5938, 41.1127 ], [ -3.593, 41.1126 ], [ -3.5925, 41.1129 ], [ -3.592, 41.1129 ], [ -3.5917, 41.1132 ], [ -3.5912, 41.1132 ], [ -3.5911, 41.1134 ], [ -3.5909, 41.1134 ], [ -3.5897, 41.1148 ], [ -3.5896, 41.1154 ], [ -3.5895, 41.1154 ], [ -3.5895, 41.1164 ], [ -3.5898, 41.1167 ], [ -3.59, 41.1174 ], [ -3.5891, 41.1186 ], [ -3.5887, 41.1195 ], [ -3.589, 41.1197 ], [ -3.5898, 41.1195 ], [ -3.59, 41.1196 ], [ -3.5902, 41.1202 ], [ -3.5906, 41.1202 ], [ -3.5907, 41.1201 ], [ -3.5907, 41.1193 ], [ -3.5916, 41.1184 ], [ -3.592, 41.1182 ], [ -3.5929, 41.1194 ], [ -3.5936, 41.1198 ], [ -3.5941, 41.1199 ], [ -3.5948, 41.1204 ], [ -3.5954, 41.1215 ], [ -3.5962, 41.1223 ], [ -3.597, 41.1225 ], [ -3.5974, 41.1229 ], [ -3.5979, 41.123 ], [ -3.5994, 41.1245 ], [ -3.6002, 41.1249 ], [ -3.6007, 41.1257 ], [ -3.6007, 41.1266 ], [ -3.6009, 41.1268 ], [ -3.6013, 41.1269 ], [ -3.6013, 41.127 ] ] ] } },
{ "type": "Feature", "properties": { "municipio": "Robregordo", "clasificacion": "urbano-consolidado", "calificacion": "sin-asignar", "version": "vigente", "fuente": "SIT-CAM WFS — UsoDelSuelo:VPLA_V_CLASIFICACION (https://idem.comunidad.madrid/geosrvg/ows)", "fecha_dato": "2026-05-12", "ambito": "19039", "_raw_CD_SIGLAS": "SU", "_raw_DS_CLASIF_GEN": "Suelo Urbano", "_raw_DS_CLASIF_DET": "Suelo Urbano", "_raw_DS_DOCU": "NORMAS SUBSIDIARIAS", "_raw_DS_LEY": "CM Ley 4/1984, E RD 1346/1976", "_raw_FC_AC": "1992-07-23", "_raw_NM_AREA_M2": 11092.3717767215, "_cam_code": "126" }, "geometry": { "type": "Polygon", "coordinates": [ [ [ -3.593, 41.1092 ], [ -3.592, 41.1102 ], [ -3.5919, 41.1111 ], [ -3.5924, 41.1111 ], [ -3.5926, 41.1103 ], [ -3.5933, 41.1098 ], [ -3.593, 41.1092 ] ] ] } },
{ "type": "Feature", "properties": { "municipio": "Robregordo", "clasificacion": "urbano-consolidado", "calificacion": "sin-asignar", "version": "vigente", "fuente": "SIT-CAM WFS — UsoDelSuelo:VPLA_V_CLASIFICACION (https://idem.comunidad.madrid/geosrvg/ows)", "fecha_dato": "2026-05-12", "ambito": "19039", "_raw_CD_SIGLAS": "SU", "_raw_DS_CLASIF_GEN": "Suelo Urbano", "_raw_DS_CLASIF_DET": "Suelo Urbano", "_raw_DS_DOCU": "NORMAS SUBSIDIARIAS", "_raw_DS_LEY": "CM Ley 4/1984, E RD 1346/1976", "_raw_FC_AC": "1992-07-23", "_raw_NM_AREA_M2": 5299.7252930079803, "_cam_code": "126" }, "geometry": { "type": "Polygon", "coordinates": [ [ [ -3.5935, 41.1096 ], [ -3.5939, 41.11 ], [ -3.5949, 41.11 ], [ -3.5947, 41.1095 ], [ -3.5941, 41.1094 ], [ -3.5935, 41.1096 ] ] ] } },
{ "type": "Feature", "properties": { "municipio": "Robregordo", "clasificacion": "urbano-consolidado", "calificacion": "sin-asignar", "version": "vigente", "fuente": "SIT-CAM WFS — UsoDelSuelo:VPLA_V_CLASIFICACION (https://idem.comunidad.madrid/geosrvg/ows)", "fecha_dato": "2026-05-12", "ambito": "19039", "_raw_CD_SIGLAS": "SU", "_raw_DS_CLASIF_GEN": "Suelo Urbano", "_raw_DS_CLASIF_DET": "Suelo Urbano", "_raw_DS_DOCU": "NORMAS SUBSIDIARIAS", "_raw_DS_LEY": "CM Ley 4/1984, E RD 1346/1976", "_raw_FC_AC": "1992-07-23", "_raw_NM_AREA_M2": 206133.75394033099, "_cam_code": "126" }, "geometry": { "type": "Polygon", "coordinates": [ [ [ -3.5931, 41.1057 ], [ -3.59, 41.1078 ], [ -3.59, 41.1082 ], [ -3.5912, 41.1077 ], [ -3.5911, 41.1076 ], [ -3.5918, 41.1071 ], [ -3.5923, 41.107 ], [ -3.5924, 41.1072 ], [ -3.5921, 41.1072 ], [ -3.5924, 41.1077 ], [ -3.5928, 41.1075 ], [ -3.5928, 41.1074 ], [ -3.5933, 41.1074 ], [ -3.5933, 41.1078 ], [ -3.5935, 41.1078 ], [ -3.5934, 41.1079 ], [ -3.5936, 41.108 ], [ -3.5939, 41.1076 ], [ -3.5935, 41.1074 ], [ -3.5937, 41.1072 ], [ -3.5938, 41.1073 ], [ -3.5939, 41.1068 ], [ -3.5949, 41.1068 ], [ -3.5951, 41.1065 ], [ -3.5955, 41.1066 ], [ -3.5955, 41.1065 ], [ -3.596, 41.1063 ], [ -3.5961, 41.1059 ], [ -3.5968, 41.1054 ], [ -3.597, 41.1053 ], [ -3.5972, 41.1054 ], [ -3.5974, 41.1052 ], [ -3.5976, 41.1053 ], [ -3.5978, 41.1051 ], [ -3.5976, 41.105 ], [ -3.5978, 41.1049 ], [ -3.5977, 41.1042 ], [ -3.5966, 41.1038 ], [ -3.5966, 41.1036 ], [ -3.5964, 41.1037 ], [ -3.5963, 41.1034 ], [ -3.5964, 41.103 ], [ -3.5966, 41.1028 ], [ -3.5963, 41.1026 ], [ -3.5961, 41.1028 ], [ -3.5959, 41.102 ], [ -3.596, 41.101 ], [ -3.5959, 41.101 ], [ -3.5961, 41.1009 ], [ -3.596, 41.1009 ], [ -3.596, 41.1005 ], [ -3.5958, 41.1005 ], [ -3.596, 41.0996 ], [ -3.595, 41.0995 ], [ -3.5943, 41.0997 ], [ -3.5937, 41.1003 ], [ -3.5935, 41.1009 ], [ -3.5931, 41.1009 ], [ -3.5931, 41.1014 ], [ -3.5933, 41.1019 ], [ -3.5933, 41.102 ], [ -3.5931, 41.102 ], [ -3.5937, 41.1035 ], [ -3.5938, 41.1035 ], [ -3.5938, 41.1039 ], [ -3.5939, 41.1043 ], [ -3.594, 41.1043 ], [ -3.5939, 41.1046 ], [ -3.5942, 41.1047 ], [ -3.5942, 41.105 ], [ -3.5941, 41.1052 ], [ -3.5931, 41.1057 ] ], [ [ -3.5948, 41.1066 ], [ -3.5943, 41.1067 ], [ -3.5944, 41.1064 ], [ -3.5943, 41.1061 ], [ -3.5946, 41.1058 ], [ -3.5942, 41.1056 ], [ -3.5942, 41.1053 ], [ -3.5948, 41.1052 ], [ -3.5948, 41.1051 ], [ -3.5949, 41.1052 ], [ -3.5949, 41.1051 ], [ -3.5955, 41.1049 ], [ -3.5952, 41.1062 ], [ -3.5948, 41.1066 ] ] ] } }
]
}
