{
"type": "FeatureCollection",
"name": "vigente.full",
"features": [
{ "type": "Feature", "properties": { "municipio": "Ciempozuelos", "clasificacion": "no-urbanizable-protegido", "calificacion": "sin-asignar", "version": "vigente", "fuente": "SIT-CAM WFS — UsoDelSuelo:VPLA_V_CLASIFICACION (https://idem.comunidad.madrid/geosrvg/ows)", "fecha_dato": "2026-05-12", "ambito": "71823", "_raw_CD_SIGLAS": "SNUP", "_raw_DS_CLASIF_GEN": "Suelo No Urbanizable Protegido", "_raw_DS_CLASIF_DET": "Suelo No Urbanizable Protegido-Parque Regional D-Explotación Recursos Naturales", "_raw_DS_DOCU": "PLAN GENERAL", "_raw_DS_LEY": "CM Ley 9/2001, E Ley 6/1998", "_raw_FC_AC": "2008-07-03", "_raw_NM_AREA_M2": 17578.8685097778, "_cam_code": "040" }, "geometry": { "type": "Polygon", "coordinates": [ [ [ -3.6017, 40.1688 ], [ -3.6015, 40.17 ], [ -3.6013, 40.1702 ], [ -3.6006, 40.1712 ], [ -3.6002, 40.172 ], [ -3.5996, 40.1739 ], [ -3.5993, 40.1743 ], [ -3.5987, 40.1754 ], [ -3.5982, 40.1765 ], [ -3.5977, 40.1782 ], [ -3.597, 40.1792 ], [ -3.597, 40.1801 ], [ -3.5969, 40.1802 ], [ -3.5965, 40.1815 ], [ -3.5961, 40.1822 ], [ -3.5958, 40.183 ], [ -3.5958, 40.183 ], [ -3.5958, 40.1831 ], [ -3.5958, 40.1833 ], [ -3.5958, 40.1836 ], [ -3.5958, 40.1837 ], [ -3.5957, 40.1838 ], [ -3.5952, 40.1845 ], [ -3.5948, 40.1851 ], [ -3.5948, 40.1853 ], [ -3.5947, 40.1853 ], [ -3.5947, 40.1854 ], [ -3.5947, 40.1855 ], [ -3.5947, 40.1858 ], [ -3.5947, 40.186 ], [ -3.5947, 40.1863 ], [ -3.5947, 40.1866 ], [ -3.5948, 40.1866 ], [ -3.5948, 40.1865 ], [ -3.5947, 40.1864 ], [ -3.5947, 40.1864 ], [ -3.5947, 40.1863 ], [ -3.5947, 40.1862 ], [ -3.5947, 40.1861 ], [ -3.5947, 40.186 ], [ -3.5947, 40.1859 ], [ -3.5947, 40.1858 ], [ -3.5947, 40.1855 ], [ -3.5948, 40.1855 ], [ -3.595, 40.1848 ], [ -3.5958, 40.1838 ], [ -3.5958, 40.1838 ], [ -3.5958, 40.1837 ], [ -3.5958, 40.1836 ], [ -3.5958, 40.1836 ], [ -3.5958, 40.1835 ], [ -3.5958, 40.1835 ], [ -3.5958, 40.1834 ], [ -3.5958, 40.1833 ], [ -3.5958, 40.1832 ], [ -3.5959, 40.1831 ], [ -3.596, 40.1825 ], [ -3.5965, 40.1817 ], [ -3.5967, 40.1809 ], [ -3.5971, 40.1804 ], [ -3.5972, 40.1794 ], [ -3.5975, 40.1787 ], [ -3.5979, 40.1782 ], [ -3.5982, 40.1767 ], [ -3.5984, 40.1762 ], [ -3.5987, 40.1759 ], [ -3.5988, 40.1753 ], [ -3.5992, 40.1745 ], [ -3.5998, 40.1738 ], [ -3.6005, 40.1715 ], [ -3.6006, 40.1715 ], [ -3.6016, 40.1699 ], [ -3.6017, 40.1688 ] ] ] } },
{ "type": "Feature", "properties": { "municipio": "Ciempozuelos", "clasificacion": "no-urbanizable-protegido", "calificacion": "sin-asignar", "version": "vigente", "fuente": "SIT-CAM WFS — UsoDelSuelo:VPLA_V_CLASIFICACION (https://idem.comunidad.madrid/geosrvg/ows)", "fecha_dato": "2026-05-12", "ambito": "71823", "_raw_CD_SIGLAS": "SNUP", "_raw_DS_CLASIF_GEN": "Suelo No Urbanizable Protegido", "_raw_DS_CLASIF_DET": "Suelo No Urbanizable Protegido-Parque Regional C-Degradada Regenerar", "_raw_DS_DOCU": "PLAN GENERAL", "_raw_DS_LEY": "CM Ley 9/2001, E Ley 6/1998", "_raw_FC_AC": "2008-07-03", "_raw_NM_AREA_M2": 2966.0002687738902, "_cam_code": "040" }, "geometry": { "type": "Polygon", "coordinates": [ [ [ -3.6484, 40.1244 ], [ -3.649, 40.1248 ], [ -3.6508, 40.1247 ], [ -3.6495, 40.1246 ], [ -3.6484, 40.1244 ] ] ] } },
{ "type": "Feature", "properties": { "municipio": "Ciempozuelos", "clasificacion": "no-urbanizable-protegido", "calificacion": "sin-asignar", "version": "vigente", "fuente": "SIT-CAM WFS — UsoDelSuelo:VPLA_V_CLASIFICACION (https://idem.comunidad.madrid/geosrvg/ows)", "fecha_dato": "2026-05-12", "ambito": "71823", "_raw_CD_SIGLAS": "SNUP", "_raw_DS_CLASIF_GEN": "Suelo No Urbanizable Protegido", "_raw_DS_CLASIF_DET": "Suelo No Urbanizable Protegido-Parque Regional A-Reserva Integral", "_raw_DS_DOCU": "PLAN GENERAL", "_raw_DS_LEY": "CM Ley 9/2001, E Ley 6/1998", "_raw_FC_AC": "2008-07-03", "_raw_NM_AREA_M2": 906398.052631862, "_cam_code": "040" }, "geometry": { "type": "Polygon", "coordinates": [ [ [ -3.5723, 40.1481 ], [ -3.5737, 40.1495 ], [ -3.5745, 40.1501 ], [ -3.5756, 40.1506 ], [ -3.5758, 40.1506 ], [ -3.5771, 40.1493 ], [ -3.5773, 40.1475 ], [ -3.5769, 40.146 ], [ -3.5766, 40.1424 ], [ -3.5766, 40.1399 ], [ -3.5764, 40.139 ], [ -3.5769, 40.139 ], [ -3.577, 40.1391 ], [ -3.5772, 40.144 ], [ -3.5774, 40.146 ], [ -3.5778, 40.1472 ], [ -3.5776, 40.1489 ], [ -3.5872, 40.1394 ], [ -3.5829, 40.135 ], [ -3.5819, 40.136 ], [ -3.5809, 40.1367 ], [ -3.5797, 40.1371 ], [ -3.5797, 40.1372 ], [ -3.5787, 40.1376 ], [ -3.5776, 40.1384 ], [ -3.5763, 40.1388 ], [ -3.5751, 40.1394 ], [ -3.5742, 40.1406 ], [ -3.5741, 40.1415 ], [ -3.5743, 40.142 ], [ -3.5752, 40.1428 ], [ -3.5759, 40.1432 ], [ -3.5762, 40.1437 ], [ -3.5762, 40.1445 ], [ -3.5759, 40.145 ], [ -3.5755, 40.1463 ], [ -3.5752, 40.1467 ], [ -3.5733, 40.1479 ], [ -3.5723, 40.1481 ] ] ] } },
{ "type": "Feature", "properties": { "municipio": "Ciempozuelos", "clasificacion": "no-urbanizable-protegido", "calificacion": "sin-asignar", "version": "vigente", "fuente": "SIT-CAM WFS — UsoDelSuelo:VPLA_V_CLASIFICACION (https://idem.comunidad.madrid/geosrvg/ows)", "fecha_dato": "2026-05-12", "ambito": "71823", "_raw_CD_SIGLAS": "SNUP", "_raw_DS_CLASIF_GEN": "Suelo No Urbanizable Protegido", "_raw_DS_CLASIF_DET": "Suelo No Urbanizable Protegido-Parque Regional C-Degradada Regenerar", "_raw_DS_DOCU": "PLAN GENERAL", "_raw_DS_LEY": "CM Ley 9/2001, E Ley 6/1998", "_raw_FC_AC": "2008-07-03", "_raw_NM_AREA_M2": 3011.4348615701801, "_cam_code": "040" }, "geometry": { "type": "Polygon", "coordinates": [ [ [ -3.6516, 40.1248 ], [ -3.6515, 40.1249 ], [ -3.6521, 40.125 ], [ -3.6521, 40.1251 ], [ -3.6523, 40.1251 ], [ -3.653, 40.1255 ], [ -3.6534, 40.1254 ], [ -3.6534, 40.1252 ], [ -3.6534, 40.1253 ], [ -3.6516, 40.1248 ] ] ] } },
{ "type": "Feature", "properties": { "municipio": "Ciempozuelos", "clasificacion": "no-urbanizable-protegido", "calificacion": "sin-asignar", "version": "vigente", "fuente": "SIT-CAM WFS — UsoDelSuelo:VPLA_V_CLASIFICACION (https://idem.comunidad.madrid/geosrvg/ows)", "fecha_dato": "2026-05-12", "ambito": "71823", "_raw_CD_SIGLAS": "SNUP", "_raw_DS_CLASIF_GEN": "Suelo No Urbanizable Protegido", "_raw_DS_CLASIF_DET": "Suelo No Urbanizable Protegido-Parque Regional C-Degradada Regenerar", "_raw_DS_DOCU": "PLAN GENERAL", "_raw_DS_LEY": "CM Ley 9/2001, E Ley 6/1998", "_raw_FC_AC": "2008-07-03", "_raw_NM_AREA_M2": 217252.32227318001, "_cam_code": "040" }, "geometry": { "type": "Polygon", "coordinates": [ [ [ -3.6267, 40.1167 ], [ -3.6263, 40.1174 ], [ -3.6262, 40.1179 ], [ -3.6281, 40.1193 ], [ -3.6296, 40.1199 ], [ -3.6337, 40.1209 ], [ -3.6349, 40.121 ], [ -3.6371, 40.1203 ], [ -3.6408, 40.1212 ], [ -3.644, 40.1226 ], [ -3.6458, 40.1231 ], [ -3.6471, 40.1236 ], [ -3.6471, 40.1237 ], [ -3.6471, 40.1236 ], [ -3.6454, 40.1225 ], [ -3.6444, 40.1224 ], [ -3.641, 40.1205 ], [ -3.6338, 40.1191 ], [ -3.6289, 40.1178 ], [ -3.6267, 40.1167 ] ] ] } },
{ "type": "Feature", "properties": { "municipio": "Ciempozuelos", "clasificacion": "no-urbanizable-protegido", "calificacion": "sin-asignar", "version": "vigente", "fuente": "SIT-CAM WFS — UsoDelSuelo:VPLA_V_CLASIFICACION (https://idem.comunidad.madrid/geosrvg/ows)", "fecha_dato": "2026-05-12", "ambito": "71823", "_raw_CD_SIGLAS": "SNUP", "_raw_DS_CLASIF_GEN": "Suelo No Urbanizable Protegido", "_raw_DS_CLASIF_DET": "Suelo No Urbanizable Protegido-Parque Regional B-Reserva Natural", "_raw_DS_DOCU": "PLAN GENERAL", "_raw_DS_LEY": "CM Ley 9/2001, E Ley 6/1998", "_raw_FC_AC": "2008-07-03", "_raw_NM_AREA_M2": 1177178.3468617799, "_cam_code": "040" }, "geometry": { "type": "Polygon", "coordinates": [ [ [ -3.5528, 40.1845 ], [ -3.5531, 40.1844 ], [ -3.5533, 40.1839 ], [ -3.5555, 40.1859 ], [ -3.5555, 40.1847 ], [ -3.5562, 40.1831 ], [ -3.5564, 40.1819 ], [ -3.5571, 40.1807 ], [ -3.5574, 40.1799 ], [ -3.558, 40.1772 ], [ -3.5583, 40.1765 ], [ -3.5588, 40.1759 ], [ -3.5591, 40.175 ], [ -3.5612, 40.1711 ], [ -3.5598, 40.1718 ], [ -3.5597, 40.172 ], [ -3.5598, 40.1723 ], [ -3.5596, 40.1723 ], [ -3.5587, 40.1728 ], [ -3.5577, 40.1729 ], [ -3.5574, 40.1732 ], [ -3.5572, 40.174 ], [ -3.5569, 40.1742 ], [ -3.5559, 40.1743 ], [ -3.5539, 40.1749 ], [ -3.5535, 40.1749 ], [ -3.5528, 40.1746 ], [ -3.5522, 40.1746 ], [ -3.5513, 40.1751 ], [ -3.5503, 40.1754 ], [ -3.5488, 40.1753 ], [ -3.5479, 40.1755 ], [ -3.5446, 40.1774 ], [ -3.5444, 40.1773 ], [ -3.5437, 40.1789 ], [ -3.5423, 40.1801 ], [ -3.5423, 40.1804 ], [ -3.5421, 40.1808 ], [ -3.5414, 40.1819 ], [ -3.5435, 40.1821 ], [ -3.5446, 40.1827 ], [ -3.5451, 40.1828 ], [ -3.5451, 40.1829 ], [ -3.5468, 40.183 ], [ -3.5468, 40.1831 ], [ -3.5473, 40.183 ], [ -3.5478, 40.1831 ], [ -3.548, 40.1833 ], [ -3.5491, 40.1834 ], [ -3.5494, 40.1837 ], [ -3.551, 40.1836 ], [ -3.5518, 40.1841 ], [ -3.5519, 40.1846 ], [ -3.5521, 40.1846 ], [ -3.5521, 40.1845 ], [ -3.5525, 40.1843 ], [ -3.5527, 40.1843 ], [ -3.5528, 40.1845 ] ] ] } },
{ "type": "Feature", "properties": { "municipio": "Ciempozuelos", "clasificacion": "no-urbanizable-protegido", "calificacion": "sin-asignar", "version": "vigente", "fuente": "SIT-CAM WFS — UsoDelSuelo:VPLA_V_CLASIFICACION (https://idem.comunidad.madrid/geosrvg/ows)", "fecha_dato": "2026-05-12", "ambito": "71823", "_raw_CD_SIGLAS": "SNUP", "_raw_DS_CLASIF_GEN": "Suelo No Urbanizable Protegido", "_raw_DS_CLASIF_DET": "Suelo No Urbanizable Protegido-Vías Pecuarias", "_raw_DS_DOCU": "PLAN GENERAL", "_raw_DS_LEY": "CM Ley 9/2001, E Ley 6/1998", "_raw_FC_AC": "2008-07-03", "_raw_NM_AREA_M2": 581366.25952882203, "_cam_code": "040" }, "geometry": { "type": "Polygon", "coordinates": [ [ [ -3.5912, 40.1963 ], [ -3.5916, 40.1964 ], [ -3.5915, 40.1963 ], [ -3.5915, 40.1957 ], [ -3.592, 40.1949 ], [ -3.5919, 40.1944 ], [ -3.5922, 40.1937 ], [ -3.5922, 40.1934 ], [ -3.5926, 40.1928 ], [ -3.5931, 40.1915 ], [ -3.5932, 40.1915 ], [ -3.5932, 40.1906 ], [ -3.5934, 40.1898 ], [ -3.5939, 40.1892 ], [ -3.594, 40.1889 ], [ -3.5939, 40.1885 ], [ -3.594, 40.188 ], [ -3.5945, 40.1873 ], [ -3.5947, 40.1867 ], [ -3.5948, 40.1867 ], [ -3.5947, 40.1866 ], [ -3.5947, 40.1853 ], [ -3.5948, 40.1853 ], [ -3.5948, 40.1851 ], [ -3.5958, 40.1837 ], [ -3.5958, 40.183 ], [ -3.597, 40.1801 ], [ -3.597, 40.1792 ], [ -3.5977, 40.1782 ], [ -3.5982, 40.1765 ], [ -3.5987, 40.1754 ], [ -3.5996, 40.1739 ], [ -3.6002, 40.172 ], [ -3.6006, 40.1712 ], [ -3.6015, 40.17 ], [ -3.6017, 40.1688 ], [ -3.6016, 40.1686 ], [ -3.6017, 40.1676 ], [ -3.6015, 40.166 ], [ -3.6016, 40.166 ], [ -3.6017, 40.1656 ], [ -3.6018, 40.1646 ], [ -3.6021, 40.1636 ], [ -3.6025, 40.1629 ], [ -3.6025, 40.1627 ], [ -3.6026, 40.1627 ], [ -3.603, 40.1613 ], [ -3.6049, 40.1602 ], [ -3.6057, 40.1603 ], [ -3.6076, 40.16 ], [ -3.6074, 40.1598 ], [ -3.6069, 40.1597 ], [ -3.606, 40.1598 ], [ -3.6059, 40.1597 ], [ -3.6069, 40.1592 ], [ -3.6066, 40.1589 ], [ -3.6045, 40.16 ], [ -3.6006, 40.158 ], [ -3.5997, 40.1577 ], [ -3.5967, 40.1559 ], [ -3.5955, 40.1554 ], [ -3.5918, 40.1543 ], [ -3.5889, 40.1535 ], [ -3.5864, 40.1532 ], [ -3.5853, 40.1529 ], [ -3.5825, 40.1526 ], [ -3.577, 40.151 ], [ -3.5775, 40.15 ], [ -3.5778, 40.1472 ], [ -3.5774, 40.146 ], [ -3.5772, 40.144 ], [ -3.577, 40.1391 ], [ -3.5769, 40.139 ], [ -3.5764, 40.139 ], [ -3.5766, 40.1399 ], [ -3.5766, 40.1424 ], [ -3.5769, 40.146 ], [ -3.5773, 40.1475 ], [ -3.5771, 40.1499 ], [ -3.5766, 40.1509 ], [ -3.5756, 40.1506 ], [ -3.5745, 40.1501 ], [ -3.5737, 40.1495 ], [ -3.5723, 40.1481 ], [ -3.572, 40.1482 ], [ -3.5728, 40.1491 ], [ -3.5738, 40.1499 ], [ -3.5748, 40.1505 ], [ -3.5765, 40.1511 ], [ -3.5753, 40.153 ], [ -3.5772, 40.1572 ], [ -3.5775, 40.1582 ], [ -3.5778, 40.161 ], [ -3.5788, 40.1622 ], [ -3.5775, 40.1622 ], [ -3.5773, 40.1623 ], [ -3.5759, 40.1634 ], [ -3.5708, 40.1663 ], [ -3.5705, 40.1667 ], [ -3.57, 40.1679 ], [ -3.5691, 40.1685 ], [ -3.5681, 40.1687 ], [ -3.5671, 40.1683 ], [ -3.5674, 40.1679 ], [ -3.5657, 40.1674 ], [ -3.5656, 40.1681 ], [ -3.5656, 40.1682 ], [ -3.5669, 40.1684 ], [ -3.5681, 40.169 ], [ -3.5693, 40.1686 ], [ -3.5703, 40.168 ], [ -3.571, 40.1664 ], [ -3.5748, 40.1643 ], [ -3.5761, 40.1635 ], [ -3.5774, 40.1625 ], [ -3.578, 40.1623 ], [ -3.578, 40.1624 ], [ -3.5789, 40.1625 ], [ -3.5799, 40.1638 ], [ -3.5807, 40.1659 ], [ -3.5805, 40.167 ], [ -3.5801, 40.1679 ], [ -3.5787, 40.1681 ], [ -3.5784, 40.1685 ], [ -3.5763, 40.1727 ], [ -3.5761, 40.1736 ], [ -3.5761, 40.1746 ], [ -3.576, 40.1747 ], [ -3.5761, 40.1753 ], [ -3.576, 40.1753 ], [ -3.5759, 40.1775 ], [ -3.5756, 40.1788 ], [ -3.5752, 40.1795 ], [ -3.5747, 40.18 ], [ -3.5737, 40.1818 ], [ -3.5732, 40.1824 ], [ -3.5723, 40.1829 ], [ -3.5706, 40.1834 ], [ -3.5691, 40.1835 ], [ -3.568, 40.1833 ], [ -3.5655, 40.1832 ], [ -3.5562, 40.1839 ], [ -3.5563, 40.1841 ], [ -3.5565, 40.1841 ], [ -3.5655, 40.1834 ], [ -3.5682, 40.1837 ], [ -3.57, 40.1837 ], [ -3.5724, 40.1832 ], [ -3.5735, 40.1826 ], [ -3.5732, 40.1836 ], [ -3.5735, 40.1876 ], [ -3.5734, 40.1877 ], [ -3.5733, 40.1888 ], [ -3.573, 40.1895 ], [ -3.5722, 40.1926 ], [ -3.5668, 40.1915 ], [ -3.5657, 40.1915 ], [ -3.5625, 40.1905 ], [ -3.5603, 40.1899 ], [ -3.5604, 40.1895 ], [ -3.5597, 40.1894 ], [ -3.5597, 40.1896 ], [ -3.5602, 40.1898 ], [ -3.5602, 40.1899 ], [ -3.5602, 40.1899 ], [ -3.5604, 40.1899 ], [ -3.5605, 40.1899 ], [ -3.5607, 40.19 ], [ -3.5608, 40.1901 ], [ -3.5609, 40.1902 ], [ -3.5659, 40.1917 ], [ -3.5722, 40.1927 ], [ -3.5775, 40.1938 ], [ -3.5793, 40.194 ], [ -3.5808, 40.1944 ], [ -3.5827, 40.1947 ], [ -3.5827, 40.1946 ], [ -3.5727, 40.1928 ], [ -3.5727, 40.1924 ], [ -3.5734, 40.1896 ], [ -3.5737, 40.1891 ], [ -3.5739, 40.1881 ], [ -3.574, 40.1871 ], [ -3.5736, 40.1838 ], [ -3.574, 40.1825 ], [ -3.5769, 40.1832 ], [ -3.5813, 40.1838 ], [ -3.5865, 40.1851 ], [ -3.5945, 40.1867 ], [ -3.5942, 40.1874 ], [ -3.5939, 40.1876 ], [ -3.5936, 40.1891 ], [ -3.5932, 40.1898 ], [ -3.5929, 40.1916 ], [ -3.5919, 40.1934 ], [ -3.5917, 40.1944 ], [ -3.5918, 40.1949 ], [ -3.5913, 40.1955 ], [ -3.5912, 40.1963 ] ], [ [ -3.5798, 40.1682 ], [ -3.5804, 40.1682 ], [ -3.5804, 40.168 ], [ -3.5809, 40.1675 ], [ -3.5812, 40.166 ], [ -3.5803, 40.1637 ], [ -3.5782, 40.1609 ], [ -3.5779, 40.1581 ], [ -3.5777, 40.1574 ], [ -3.5767, 40.1548 ], [ -3.5758, 40.153 ], [ -3.577, 40.1512 ], [ -3.5825, 40.1528 ], [ -3.5891, 40.1538 ], [ -3.5921, 40.1546 ], [ -3.597, 40.1563 ], [ -3.5992, 40.1577 ], [ -3.6001, 40.158 ], [ -3.6032, 40.1597 ], [ -3.6043, 40.1601 ], [ -3.604, 40.1603 ], [ -3.604, 40.1605 ], [ -3.6027, 40.1614 ], [ -3.6026, 40.162 ], [ -3.6016, 40.1644 ], [ -3.6013, 40.1658 ], [ -3.6013, 40.1667 ], [ -3.6014, 40.1668 ], [ -3.6013, 40.1679 ], [ -3.6014, 40.1693 ], [ -3.6013, 40.1698 ], [ -3.6004, 40.171 ], [ -3.6, 40.1718 ], [ -3.5994, 40.1737 ], [ -3.5978, 40.1768 ], [ -3.5976, 40.1778 ], [ -3.5968, 40.1792 ], [ -3.5967, 40.1792 ], [ -3.5967, 40.1803 ], [ -3.5955, 40.183 ], [ -3.5955, 40.1837 ], [ -3.5954, 40.1837 ], [ -3.5948, 40.1847 ], [ -3.5944, 40.1856 ], [ -3.5944, 40.1865 ], [ -3.5871, 40.185 ], [ -3.5819, 40.1837 ], [ -3.5777, 40.1831 ], [ -3.5741, 40.1822 ], [ -3.575, 40.1804 ], [ -3.5758, 40.1798 ], [ -3.5763, 40.1776 ], [ -3.5765, 40.1754 ], [ -3.5771, 40.1721 ], [ -3.5787, 40.1688 ], [ -3.579, 40.1684 ], [ -3.5798, 40.1682 ] ] ] } },
{ "type": "Feature", "properties": { "municipio": "Ciempozuelos", "clasificacion": "no-urbanizable-protegido", "calificacion": "sin-asignar", "version": "vigente", "fuente": "SIT-CAM WFS — UsoDelSuelo:VPLA_V_CLASIFICACION (https://idem.comunidad.madrid/geosrvg/ows)", "fecha_dato": "2026-05-12", "ambito": "71823", "_raw_CD_SIGLAS": "SNUP", "_raw_DS_CLASIF_GEN": "Suelo No Urbanizable Protegido", "_raw_DS_CLASIF_DET": "Suelo No Urbanizable Protegido-Vías Pecuarias", "_raw_DS_DOCU": "PLAN GENERAL", "_raw_DS_LEY": "CM Ley 9/2001, E Ley 6/1998", "_raw_FC_AC": "2008-07-03", "_raw_NM_AREA_M2": 11454.9294112795, "_cam_code": "040" }, "geometry": { "type": "Polygon", "coordinates": [ [ [ -3.6068, 40.1092 ], [ -3.608, 40.1098 ], [ -3.6091, 40.1101 ], [ -3.6105, 40.1107 ], [ -3.6119, 40.1112 ], [ -3.6124, 40.1114 ], [ -3.6093, 40.1099 ], [ -3.6081, 40.1096 ], [ -3.6071, 40.1091 ], [ -3.6068, 40.1092 ] ] ] } },
{ "type": "Feature", "properties": { "municipio": "Ciempozuelos", "clasificacion": "no-urbanizable-protegido", "calificacion": "sin-asignar", "version": "vigente", "fuente": "SIT-CAM WFS — UsoDelSuelo:VPLA_V_CLASIFICACION (https://idem.comunidad.madrid/geosrvg/ows)", "fecha_dato": "2026-05-12", "ambito": "71823", "_raw_CD_SIGLAS": "SNUP", "_raw_DS_CLASIF_GEN": "Suelo No Urbanizable Protegido", "_raw_DS_CLASIF_DET": "Suelo No Urbanizable Protegido Zepa", "_raw_DS_DOCU": "PLAN GENERAL", "_raw_DS_LEY": "CM Ley 9/2001, E Ley 6/1998", "_raw_FC_AC": "2008-07-03", "_raw_NM_AREA_M2": 167036.520729899, "_cam_code": "040" }, "geometry": { "type": "Polygon", "coordinates": [ [ [ -3.6142, 40.1497 ], [ -3.6112, 40.151 ], [ -3.6106, 40.1514 ], [ -3.6101, 40.1522 ], [ -3.6093, 40.1528 ], [ -3.6091, 40.1534 ], [ -3.6082, 40.1524 ], [ -3.6077, 40.1525 ], [ -3.6077, 40.1531 ], [ -3.6083, 40.155 ], [ -3.6101, 40.1544 ], [ -3.6113, 40.1522 ], [ -3.6122, 40.1524 ], [ -3.6122, 40.1525 ], [ -3.6129, 40.1529 ], [ -3.6131, 40.1534 ], [ -3.6166, 40.1524 ], [ -3.6146, 40.1503 ], [ -3.6142, 40.1497 ] ] ] } },
{ "type": "Feature", "properties": { "municipio": "Ciempozuelos", "clasificacion": "no-urbanizable-protegido", "calificacion": "sin-asignar", "version": "vigente", "fuente": "SIT-CAM WFS — UsoDelSuelo:VPLA_V_CLASIFICACION (https://idem.comunidad.madrid/geosrvg/ows)", "fecha_dato": "2026-05-12", "ambito": "71823", "_raw_CD_SIGLAS": "SNUP", "_raw_DS_CLASIF_GEN": "Suelo No Urbanizable Protegido", "_raw_DS_CLASIF_DET": "Suelo No Urbanizable Protegido Zepa", "_raw_DS_DOCU": "PLAN GENERAL", "_raw_DS_LEY": "CM Ley 9/2001, E Ley 6/1998", "_raw_FC_AC": "2008-07-03", "_raw_NM_AREA_M2": 169736.695155186, "_cam_code": "040" }, "geometry": { "type": "Polygon", "coordinates": [ [ [ -3.6236, 40.1485 ], [ -3.6244, 40.1479 ], [ -3.6261, 40.1492 ], [ -3.6281, 40.1478 ], [ -3.6299, 40.1457 ], [ -3.6301, 40.1455 ], [ -3.6304, 40.1455 ], [ -3.6306, 40.1446 ], [ -3.6313, 40.1434 ], [ -3.6319, 40.1427 ], [ -3.6307, 40.1425 ], [ -3.6301, 40.144 ], [ -3.6299, 40.1451 ], [ -3.6253, 40.1451 ], [ -3.6249, 40.1455 ], [ -3.6245, 40.1468 ], [ -3.6242, 40.1474 ], [ -3.6239, 40.1475 ], [ -3.6236, 40.1485 ] ] ] } },
{ "type": "Feature", "properties": { "municipio": "Ciempozuelos", "clasificacion": "no-urbanizable-protegido", "calificacion": "sin-asignar", "version": "vigente", "fuente": "SIT-CAM WFS — UsoDelSuelo:VPLA_V_CLASIFICACION (https://idem.comunidad.madrid/geosrvg/ows)", "fecha_dato": "2026-05-12", "ambito": "71823", "_raw_CD_SIGLAS": "SNUP", "_raw_DS_CLASIF_GEN": "Suelo No Urbanizable Protegido", "_raw_DS_CLASIF_DET": "Suelo No Urbanizable Protegido-Parque Regional D-Explotación Recursos Naturales", "_raw_DS_DOCU": "PLAN GENERAL", "_raw_DS_LEY": "CM Ley 9/2001, E Ley 6/1998", "_raw_FC_AC": "2008-07-03", "_raw_NM_AREA_M2": 3354.7571843793899, "_cam_code": "040" }, "geometry": { "type": "Polygon", "coordinates": [ [ [ -3.6069, 40.1592 ], [ -3.6064, 40.1595 ], [ -3.6059, 40.1597 ], [ -3.606, 40.1598 ], [ -3.6063, 40.1597 ], [ -3.6074, 40.1598 ], [ -3.607, 40.1595 ], [ -3.607, 40.1593 ], [ -3.6069, 40.1594 ], [ -3.6069, 40.1592 ] ] ] } },
{ "type": "Feature", "properties": { "municipio": "Ciempozuelos", "clasificacion": "no-urbanizable-protegido", "calificacion": "sin-asignar", "version": "vigente", "fuente": "SIT-CAM WFS — UsoDelSuelo:VPLA_V_CLASIFICACION (https://idem.comunidad.madrid/geosrvg/ows)", "fecha_dato": "2026-05-12", "ambito": "71823", "_raw_CD_SIGLAS": "SNUP", "_raw_DS_CLASIF_GEN": "Suelo No Urbanizable Protegido", "_raw_DS_CLASIF_DET": "Suelo No Urbanizable Protegido-Parque Regional D-Explotación Recursos Naturales", "_raw_DS_DOCU": "PLAN GENERAL", "_raw_DS_LEY": "CM Ley 9/2001, E Ley 6/1998", "_raw_FC_AC": "2008-07-03", "_raw_NM_AREA_M2": 3876.1932529634, "_cam_code": "040" }, "geometry": { "type": "Polygon", "coordinates": [ [ [ -3.6055, 40.1603 ], [ -3.6049, 40.1602 ], [ -3.6041, 40.1606 ], [ -3.603, 40.1613 ], [ -3.6029, 40.1616 ], [ -3.6038, 40.161 ], [ -3.605, 40.1604 ], [ -3.6055, 40.1603 ] ] ] } },
{ "type": "Feature", "properties": { "municipio": "Ciempozuelos", "clasificacion": "no-urbanizable-protegido", "calificacion": "sin-asignar", "version": "vigente", "fuente": "SIT-CAM WFS — UsoDelSuelo:VPLA_V_CLASIFICACION (https://idem.comunidad.madrid/geosrvg/ows)", "fecha_dato": "2026-05-12", "ambito": "71823", "_raw_CD_SIGLAS": "SNUP", "_raw_DS_CLASIF_GEN": "Suelo No Urbanizable Protegido", "_raw_DS_CLASIF_DET": "Suelo No Urbanizable Protegido-Parque Regional D-Explotación Recursos Naturales", "_raw_DS_DOCU": "PLAN GENERAL", "_raw_DS_LEY": "CM Ley 9/2001, E Ley 6/1998", "_raw_FC_AC": "2008-07-03", "_raw_NM_AREA_M2": 6067.2542963276301, "_cam_code": "040" }, "geometry": { "type": "Polygon", "coordinates": [ [ [ -3.6071, 40.1091 ], [ -3.6081, 40.1096 ], [ -3.6093, 40.1099 ], [ -3.6102, 40.1103 ], [ -3.6076, 40.109 ], [ -3.6071, 40.1091 ] ] ] } },
{ "type": "Feature", "properties": { "municipio": "Ciempozuelos", "clasificacion": "no-urbanizable-protegido", "calificacion": "sin-asignar", "version": "vigente", "fuente": "SIT-CAM WFS — UsoDelSuelo:VPLA_V_CLASIFICACION (https://idem.comunidad.madrid/geosrvg/ows)", "fecha_dato": "2026-05-12", "ambito": "71823", "_raw_CD_SIGLAS": "SNUP", "_raw_DS_CLASIF_GEN": "Suelo No Urbanizable Protegido", "_raw_DS_CLASIF_DET": "Suelo No Urbanizable Protegido-Parque Regional D-Explotación Recursos Naturales", "_raw_DS_DOCU": "PLAN GENERAL", "_raw_DS_LEY": "CM Ley 9/2001, E Ley 6/1998", "_raw_FC_AC": "2008-07-03", "_raw_NM_AREA_M2": 7620.2069506109101, "_cam_code": "040" }, "geometry": { "type": "Polygon", "coordinates": [ [ [ -3.5758, 40.1506 ], [ -3.5766, 40.1509 ], [ -3.5771, 40.1499 ], [ -3.5771, 40.1493 ], [ -3.5758, 40.1506 ] ] ] } },
{ "type": "Feature", "properties": { "municipio": "Ciempozuelos", "clasificacion": "no-urbanizable-protegido", "calificacion": "sin-asignar", "version": "vigente", "fuente": "SIT-CAM WFS — UsoDelSuelo:VPLA_V_CLASIFICACION (https://idem.comunidad.madrid/geosrvg/ows)", "fecha_dato": "2026-05-12", "ambito": "71823", "_raw_CD_SIGLAS": "SNUP", "_raw_DS_CLASIF_GEN": "Suelo No Urbanizable Protegido", "_raw_DS_CLASIF_DET": "Suelo No Urbanizable Protegido-Parque Regional D-Explotación Recursos Naturales", "_raw_DS_DOCU": "PLAN GENERAL", "_raw_DS_LEY": "CM Ley 9/2001, E Ley 6/1998", "_raw_FC_AC": "2008-07-03", "_raw_NM_AREA_M2": 1883399.15832147, "_cam_code": "040" }, "geometry": { "type": "Polygon", "coordinates": [ [ [ -3.5827, 40.1947 ], [ -3.5847, 40.1951 ], [ -3.5851, 40.1953 ], [ -3.5855, 40.1952 ], [ -3.5912, 40.1963 ], [ -3.5913, 40.1955 ], [ -3.5918, 40.1949 ], [ -3.5917, 40.1944 ], [ -3.5919, 40.1934 ], [ -3.5929, 40.1916 ], [ -3.5932, 40.1898 ], [ -3.5936, 40.1891 ], [ -3.5939, 40.1876 ], [ -3.5942, 40.1874 ], [ -3.5945, 40.1867 ], [ -3.5865, 40.1851 ], [ -3.5813, 40.1838 ], [ -3.5769, 40.1832 ], [ -3.574, 40.1825 ], [ -3.5736, 40.1838 ], [ -3.574, 40.1871 ], [ -3.5739, 40.1881 ], [ -3.5737, 40.1891 ], [ -3.5734, 40.1896 ], [ -3.5727, 40.1924 ], [ -3.5727, 40.1928 ], [ -3.5827, 40.1946 ], [ -3.5827, 40.1947 ] ] ] } },
{ "type": "Feature", "properties": { "municipio": "Ciempozuelos", "clasificacion": "no-urbanizable-protegido", "calificacion": "sin-asignar", "version": "vigente", "fuente": "SIT-CAM WFS — UsoDelSuelo:VPLA_V_CLASIFICACION (https://idem.comunidad.madrid/geosrvg/ows)", "fecha_dato": "2026-05-12", "ambito": "71823", "_raw_CD_SIGLAS": "SNUP", "_raw_DS_CLASIF_GEN": "Suelo No Urbanizable Protegido", "_raw_DS_CLASIF_DET": "Suelo No Urbanizable Protegido-Parque Regional D-Explotación Recursos Naturales", "_raw_DS_DOCU": "PLAN GENERAL", "_raw_DS_LEY": "CM Ley 9/2001, E Ley 6/1998", "_raw_FC_AC": "2008-07-03", "_raw_NM_AREA_M2": 4686590.1147191403, "_cam_code": "040" }, "geometry": { "type": "Polygon", "coordinates": [ [ [ -3.5776, 40.1489 ], [ -3.5775, 40.15 ], [ -3.577, 40.151 ], [ -3.5825, 40.1526 ], [ -3.5853, 40.1529 ], [ -3.5864, 40.1532 ], [ -3.5894, 40.1536 ], [ -3.5955, 40.1554 ], [ -3.5971, 40.1561 ], [ -3.5997, 40.1577 ], [ -3.6006, 40.158 ], [ -3.6022, 40.1589 ], [ -3.6046, 40.16 ], [ -3.6066, 40.1589 ], [ -3.6061, 40.1507 ], [ -3.6055, 40.147 ], [ -3.6052, 40.146 ], [ -3.6058, 40.1388 ], [ -3.6062, 40.1367 ], [ -3.5989, 40.1354 ], [ -3.5965, 40.1348 ], [ -3.5881, 40.1337 ], [ -3.5855, 40.1328 ], [ -3.5839, 40.1324 ], [ -3.5837, 40.1336 ], [ -3.5834, 40.1343 ], [ -3.5829, 40.135 ], [ -3.5872, 40.1394 ], [ -3.5776, 40.1489 ] ] ] } },
{ "type": "Feature", "properties": { "municipio": "Ciempozuelos", "clasificacion": "no-urbanizable-protegido", "calificacion": "sin-asignar", "version": "vigente", "fuente": "SIT-CAM WFS — UsoDelSuelo:VPLA_V_CLASIFICACION (https://idem.comunidad.madrid/geosrvg/ows)", "fecha_dato": "2026-05-12", "ambito": "71823", "_raw_CD_SIGLAS": "SNUP", "_raw_DS_CLASIF_GEN": "Suelo No Urbanizable Protegido", "_raw_DS_CLASIF_DET": "Suelo No Urbanizable Protegido-Parque Regional D-Explotación Recursos Naturales", "_raw_DS_DOCU": "PLAN GENERAL", "_raw_DS_LEY": "CM Ley 9/2001, E Ley 6/1998", "_raw_FC_AC": "2008-07-03", "_raw_NM_AREA_M2": 5405951.8390310798, "_cam_code": "040" }, "geometry": { "type": "Polygon", "coordinates": [ [ [ -3.5597, 40.1896 ], [ -3.5597, 40.1894 ], [ -3.5604, 40.1895 ], [ -3.5603, 40.1899 ], [ -3.5657, 40.1915 ], [ -3.5668, 40.1915 ], [ -3.5722, 40.1926 ], [ -3.573, 40.1895 ], [ -3.5733, 40.1888 ], [ -3.5734, 40.1877 ], [ -3.5735, 40.1876 ], [ -3.5732, 40.1837 ], [ -3.5735, 40.1826 ], [ -3.5724, 40.1832 ], [ -3.57, 40.1837 ], [ -3.5682, 40.1837 ], [ -3.5655, 40.1834 ], [ -3.5565, 40.1841 ], [ -3.5563, 40.1841 ], [ -3.5562, 40.1839 ], [ -3.5655, 40.1832 ], [ -3.568, 40.1833 ], [ -3.5691, 40.1835 ], [ -3.5706, 40.1834 ], [ -3.5723, 40.1829 ], [ -3.5732, 40.1824 ], [ -3.5737, 40.1818 ], [ -3.5747, 40.18 ], [ -3.5752, 40.1795 ], [ -3.5756, 40.1788 ], [ -3.5759, 40.1775 ], [ -3.576, 40.1753 ], [ -3.5761, 40.1753 ], [ -3.576, 40.1747 ], [ -3.5761, 40.1746 ], [ -3.5761, 40.1736 ], [ -3.5763, 40.1727 ], [ -3.5784, 40.1685 ], [ -3.5787, 40.1681 ], [ -3.5801, 40.1679 ], [ -3.5805, 40.167 ], [ -3.5807, 40.1659 ], [ -3.5799, 40.1638 ], [ -3.5789, 40.1625 ], [ -3.578, 40.1624 ], [ -3.578, 40.1623 ], [ -3.5774, 40.1625 ], [ -3.5761, 40.1635 ], [ -3.5748, 40.1643 ], [ -3.571, 40.1664 ], [ -3.5703, 40.168 ], [ -3.5693, 40.1686 ], [ -3.5681, 40.169 ], [ -3.5669, 40.1684 ], [ -3.5656, 40.1682 ], [ -3.5656, 40.1681 ], [ -3.5657, 40.1674 ], [ -3.5674, 40.1679 ], [ -3.5671, 40.1683 ], [ -3.5681, 40.1687 ], [ -3.5691, 40.1685 ], [ -3.57, 40.1679 ], [ -3.5705, 40.1667 ], [ -3.5708, 40.1663 ], [ -3.5759, 40.1634 ], [ -3.5773, 40.1623 ], [ -3.5775, 40.1622 ], [ -3.5788, 40.1622 ], [ -3.5778, 40.161 ], [ -3.5775, 40.1582 ], [ -3.5772, 40.1572 ], [ -3.5753, 40.153 ], [ -3.5765, 40.1511 ], [ -3.5756, 40.1508 ], [ -3.5701, 40.1563 ], [ -3.5658, 40.1546 ], [ -3.5638, 40.1564 ], [ -3.5634, 40.1578 ], [ -3.5632, 40.158 ], [ -3.5631, 40.159 ], [ -3.5637, 40.1609 ], [ -3.5637, 40.1647 ], [ -3.5636, 40.1648 ], [ -3.5639, 40.166 ], [ -3.5642, 40.1664 ], [ -3.5641, 40.1683 ], [ -3.5636, 40.1694 ], [ -3.5629, 40.1702 ], [ -3.5625, 40.1703 ], [ -3.5625, 40.1705 ], [ -3.562, 40.1711 ], [ -3.5612, 40.1711 ], [ -3.5603, 40.1729 ], [ -3.5598, 40.1736 ], [ -3.5591, 40.175 ], [ -3.5588, 40.1759 ], [ -3.5583, 40.1765 ], [ -3.558, 40.1772 ], [ -3.5574, 40.1799 ], [ -3.5571, 40.1807 ], [ -3.5564, 40.1819 ], [ -3.5562, 40.1831 ], [ -3.5555, 40.1847 ], [ -3.5555, 40.1859 ], [ -3.5597, 40.1896 ] ] ] } },
{ "type": "Feature", "properties": { "municipio": "Ciempozuelos", "clasificacion": "no-urbanizable-protegido", "calificacion": "sin-asignar", "version": "vigente", "fuente": "SIT-CAM WFS — UsoDelSuelo:VPLA_V_CLASIFICACION (https://idem.comunidad.madrid/geosrvg/ows)", "fecha_dato": "2026-05-12", "ambito": "71823", "_raw_CD_SIGLAS": "SNUP", "_raw_DS_CLASIF_GEN": "Suelo No Urbanizable Protegido", "_raw_DS_CLASIF_DET": "Suelo No Urbanizable Protegido-Parque Regional D-Explotación Recursos Naturales", "_raw_DS_DOCU": "PLAN GENERAL", "_raw_DS_LEY": "CM Ley 9/2001, E Ley 6/1998", "_raw_FC_AC": "2008-07-03", "_raw_NM_AREA_M2": 6392095.6146707498, "_cam_code": "040" }, "geometry": { "type": "Polygon", "coordinates": [ [ [ -3.5798, 40.1682 ], [ -3.579, 40.1684 ], [ -3.5787, 40.1688 ], [ -3.5771, 40.1721 ], [ -3.5765, 40.1754 ], [ -3.5763, 40.1776 ], [ -3.5758, 40.1798 ], [ -3.575, 40.1804 ], [ -3.5741, 40.1822 ], [ -3.5777, 40.1831 ], [ -3.5819, 40.1837 ], [ -3.5871, 40.185 ], [ -3.5944, 40.1865 ], [ -3.5944, 40.1856 ], [ -3.5948, 40.1847 ], [ -3.5954, 40.1837 ], [ -3.5955, 40.1837 ], [ -3.5955, 40.183 ], [ -3.5967, 40.1803 ], [ -3.5967, 40.1792 ], [ -3.5968, 40.1792 ], [ -3.5976, 40.1778 ], [ -3.5978, 40.1768 ], [ -3.5994, 40.1737 ], [ -3.6, 40.1718 ], [ -3.6004, 40.171 ], [ -3.6013, 40.1698 ], [ -3.6014, 40.1693 ], [ -3.6013, 40.1658 ], [ -3.6016, 40.1644 ], [ -3.6026, 40.162 ], [ -3.6027, 40.1614 ], [ -3.604, 40.1605 ], [ -3.604, 40.1603 ], [ -3.6043, 40.1601 ], [ -3.6032, 40.1597 ], [ -3.6001, 40.158 ], [ -3.5992, 40.1577 ], [ -3.597, 40.1563 ], [ -3.5921, 40.1546 ], [ -3.5891, 40.1538 ], [ -3.5825, 40.1528 ], [ -3.577, 40.1512 ], [ -3.5758, 40.153 ], [ -3.5767, 40.1548 ], [ -3.5777, 40.1574 ], [ -3.5779, 40.1581 ], [ -3.5782, 40.1609 ], [ -3.5803, 40.1637 ], [ -3.5812, 40.166 ], [ -3.5809, 40.1675 ], [ -3.5804, 40.168 ], [ -3.5804, 40.1682 ], [ -3.5798, 40.1682 ] ] ] } },
{ "type": "Feature", "properties": { "municipio": "Ciempozuelos", "clasificacion": "no-urbanizable-protegido", "calificacion": "sin-asignar", "version": "vigente", "fuente": "SIT-CAM WFS — UsoDelSuelo:VPLA_V_CLASIFICACION (https://idem.comunidad.madrid/geosrvg/ows)", "fecha_dato": "2026-05-12", "ambito": "71823", "_raw_CD_SIGLAS": "SNUP", "_raw_DS_CLASIF_GEN": "Suelo No Urbanizable Protegido", "_raw_DS_CLASIF_DET": "Suelo No Urbanizable Protegido-Vías Pecuarias", "_raw_DS_DOCU": "PLAN GENERAL", "_raw_DS_LEY": "CM Ley 9/2001, E Ley 6/1998", "_raw_FC_AC": "2008-07-03", "_raw_NM_AREA_M2": 7063.2494864075798, "_cam_code": "040" }, "geometry": { "type": "Polygon", "coordinates": [ [ [ -3.541, 40.1817 ], [ -3.5414, 40.1819 ], [ -3.5416, 40.1817 ], [ -3.5423, 40.1804 ], [ -3.5423, 40.1801 ], [ -3.5419, 40.1803 ], [ -3.541, 40.1817 ] ] ] } },
{ "type": "Feature", "properties": { "municipio": "Ciempozuelos", "clasificacion": "no-urbanizable-protegido", "calificacion": "sin-asignar", "version": "vigente", "fuente": "SIT-CAM WFS — UsoDelSuelo:VPLA_V_CLASIFICACION (https://idem.comunidad.madrid/geosrvg/ows)", "fecha_dato": "2026-05-12", "ambito": "71823", "_raw_CD_SIGLAS": "SNUP", "_raw_DS_CLASIF_GEN": "Suelo No Urbanizable Protegido", "_raw_DS_CLASIF_DET": "Suelo No Urbanizable Protegido-Vías Pecuarias", "_raw_DS_DOCU": "PLAN GENERAL", "_raw_DS_LEY": "CM Ley 9/2001, E Ley 6/1998", "_raw_FC_AC": "2008-07-03", "_raw_NM_AREA_M2": 13657.832760155599, "_cam_code": "040" }, "geometry": { "type": "Polygon", "coordinates": [ [ [ -3.6085, 40.1604 ], [ -3.6088, 40.1612 ], [ -3.6101, 40.1623 ], [ -3.6109, 40.1627 ], [ -3.6111, 40.1625 ], [ -3.6109, 40.1624 ], [ -3.6108, 40.1621 ], [ -3.6085, 40.1604 ] ] ] } },
{ "type": "Feature", "properties": { "municipio": "Ciempozuelos", "clasificacion": "no-urbanizable-protegido", "calificacion": "sin-asignar", "version": "vigente", "fuente": "SIT-CAM WFS — UsoDelSuelo:VPLA_V_CLASIFICACION (https://idem.comunidad.madrid/geosrvg/ows)", "fecha_dato": "2026-05-12", "ambito": "71823", "_raw_CD_SIGLAS": "SNUP", "_raw_DS_CLASIF_GEN": "Suelo No Urbanizable Protegido", "_raw_DS_CLASIF_DET": "Suelo No Urbanizable Protegido-Vías Pecuarias", "_raw_DS_DOCU": "PLAN GENERAL", "_raw_DS_LEY": "CM Ley 9/2001, E Ley 6/1998", "_raw_FC_AC": "2008-07-03", "_raw_NM_AREA_M2": 22271.7266800508, "_cam_code": "040" }, "geometry": { "type": "Polygon", "coordinates": [ [ [ -3.6297, 40.1758 ], [ -3.6302, 40.1759 ], [ -3.6305, 40.1761 ], [ -3.6306, 40.1761 ], [ -3.6309, 40.1759 ], [ -3.631, 40.1758 ], [ -3.631, 40.1759 ], [ -3.6312, 40.1759 ], [ -3.6338, 40.1742 ], [ -3.6338, 40.174 ], [ -3.6341, 40.1738 ], [ -3.6345, 40.1732 ], [ -3.6347, 40.1726 ], [ -3.6355, 40.172 ], [ -3.6359, 40.1707 ], [ -3.6368, 40.1706 ], [ -3.6382, 40.17 ], [ -3.6392, 40.1698 ], [ -3.6384, 40.1698 ], [ -3.6369, 40.1704 ], [ -3.6357, 40.1705 ], [ -3.6355, 40.1708 ], [ -3.6354, 40.1715 ], [ -3.6352, 40.1719 ], [ -3.6346, 40.1724 ], [ -3.6341, 40.1734 ], [ -3.6337, 40.1737 ], [ -3.6336, 40.1741 ], [ -3.6318, 40.1752 ], [ -3.6309, 40.1758 ], [ -3.6309, 40.1759 ], [ -3.6297, 40.1758 ] ] ] } },
{ "type": "Feature", "properties": { "municipio": "Ciempozuelos", "clasificacion": "no-urbanizable-protegido", "calificacion": "sin-asignar", "version": "vigente", "fuente": "SIT-CAM WFS — UsoDelSuelo:VPLA_V_CLASIFICACION (https://idem.comunidad.madrid/geosrvg/ows)", "fecha_dato": "2026-05-12", "ambito": "71823", "_raw_CD_SIGLAS": "SNUP", "_raw_DS_CLASIF_GEN": "Suelo No Urbanizable Protegido", "_raw_DS_CLASIF_DET": "Suelo No Urbanizable Protegido-Parque Regional D-Explotación Recursos Naturales", "_raw_DS_DOCU": "PLAN GENERAL", "_raw_DS_LEY": "CM Ley 9/2001, E Ley 6/1998", "_raw_FC_AC": "2008-07-03", "_raw_NM_AREA_M2": 7361482.5446185898, "_cam_code": "040" }, "geometry": { "type": "Polygon", "coordinates": [ [ [ -3.5838, 40.132 ], [ -3.5883, 40.1333 ], [ -3.5921, 40.1339 ], [ -3.5927, 40.1339 ], [ -3.6006, 40.1354 ], [ -3.6057, 40.1362 ], [ -3.6118, 40.1374 ], [ -3.6129, 40.1379 ], [ -3.6135, 40.138 ], [ -3.6173, 40.1374 ], [ -3.6186, 40.1369 ], [ -3.6193, 40.1356 ], [ -3.6202, 40.1352 ], [ -3.621, 40.1337 ], [ -3.6222, 40.1321 ], [ -3.6227, 40.1309 ], [ -3.624, 40.13 ], [ -3.625, 40.1295 ], [ -3.6259, 40.1283 ], [ -3.6263, 40.1263 ], [ -3.6275, 40.1251 ], [ -3.6285, 40.1243 ], [ -3.6295, 40.1238 ], [ -3.6298, 40.1235 ], [ -3.6298, 40.1227 ], [ -3.6296, 40.1216 ], [ -3.6283, 40.1208 ], [ -3.6279, 40.1201 ], [ -3.6278, 40.1196 ], [ -3.6252, 40.1177 ], [ -3.6229, 40.1166 ], [ -3.6212, 40.1155 ], [ -3.619, 40.1138 ], [ -3.6179, 40.1133 ], [ -3.6151, 40.1121 ], [ -3.6124, 40.1114 ], [ -3.6091, 40.1101 ], [ -3.608, 40.1098 ], [ -3.6068, 40.1092 ], [ -3.606, 40.1094 ], [ -3.6049, 40.1092 ], [ -3.6041, 40.1092 ], [ -3.6026, 40.1087 ], [ -3.6006, 40.109 ], [ -3.5997, 40.1095 ], [ -3.598, 40.111 ], [ -3.5971, 40.1128 ], [ -3.597, 40.1134 ], [ -3.5972, 40.1146 ], [ -3.5975, 40.1151 ], [ -3.5984, 40.1159 ], [ -3.6006, 40.1185 ], [ -3.6007, 40.1205 ], [ -3.6005, 40.1211 ], [ -3.5993, 40.122 ], [ -3.5983, 40.1223 ], [ -3.5954, 40.1222 ], [ -3.5944, 40.1225 ], [ -3.5933, 40.1234 ], [ -3.5929, 40.124 ], [ -3.5929, 40.1251 ], [ -3.5927, 40.126 ], [ -3.5922, 40.1266 ], [ -3.591, 40.1274 ], [ -3.5901, 40.1277 ], [ -3.5883, 40.1279 ], [ -3.5868, 40.1279 ], [ -3.5862, 40.1277 ], [ -3.5855, 40.1277 ], [ -3.5837, 40.1285 ], [ -3.5834, 40.1291 ], [ -3.5833, 40.1301 ], [ -3.583, 40.1306 ], [ -3.583, 40.131 ], [ -3.5838, 40.1318 ], [ -3.5838, 40.132 ] ] ] } },
{ "type": "Feature", "properties": { "municipio": "Ciempozuelos", "clasificacion": "no-urbanizable-protegido", "calificacion": "sin-asignar", "version": "vigente", "fuente": "SIT-CAM WFS — UsoDelSuelo:VPLA_V_CLASIFICACION (https://idem.comunidad.madrid/geosrvg/ows)", "fecha_dato": "2026-05-12", "ambito": "71823", "_raw_CD_SIGLAS": "SNUP", "_raw_DS_CLASIF_GEN": "Suelo No Urbanizable Protegido", "_raw_DS_CLASIF_DET": "Suelo No Urbanizable Protegido-Vías Pecuarias", "_raw_DS_DOCU": "PLAN GENERAL", "_raw_DS_LEY": "CM Ley 9/2001, E Ley 6/1998", "_raw_FC_AC": "2008-07-03", "_raw_NM_AREA_M2": 517368.80233289301, "_cam_code": "040" }, "geometry": { "type": "Polygon", "coordinates": [ [ [ -3.6212, 40.151 ], [ -3.6208, 40.1515 ], [ -3.6211, 40.1515 ], [ -3.6215, 40.1513 ], [ -3.6228, 40.1501 ], [ -3.6236, 40.1485 ], [ -3.6247, 40.1455 ], [ -3.6272, 40.1432 ], [ -3.6274, 40.1435 ], [ -3.6283, 40.1436 ], [ -3.6295, 40.143 ], [ -3.6296, 40.1422 ], [ -3.6298, 40.1417 ], [ -3.629, 40.1415 ], [ -3.6288, 40.1412 ], [ -3.6284, 40.1411 ], [ -3.6279, 40.1413 ], [ -3.6274, 40.1412 ], [ -3.6251, 40.1396 ], [ -3.622, 40.1369 ], [ -3.6219, 40.1366 ], [ -3.6223, 40.1362 ], [ -3.6223, 40.1359 ], [ -3.6216, 40.1354 ], [ -3.6216, 40.1352 ], [ -3.6214, 40.135 ], [ -3.6214, 40.1338 ], [ -3.6225, 40.1324 ], [ -3.6231, 40.1311 ], [ -3.6241, 40.1303 ], [ -3.6252, 40.1298 ], [ -3.6262, 40.1286 ], [ -3.6267, 40.1265 ], [ -3.6281, 40.1251 ], [ -3.6299, 40.1241 ], [ -3.6302, 40.1236 ], [ -3.6303, 40.1226 ], [ -3.63, 40.1215 ], [ -3.6288, 40.1207 ], [ -3.6283, 40.12 ], [ -3.6283, 40.1198 ], [ -3.6311, 40.1207 ], [ -3.6335, 40.1212 ], [ -3.6348, 40.1213 ], [ -3.6361, 40.1211 ], [ -3.637, 40.1207 ], [ -3.6388, 40.1211 ], [ -3.6406, 40.1216 ], [ -3.6438, 40.1229 ], [ -3.6467, 40.1239 ], [ -3.6489, 40.1251 ], [ -3.6511, 40.1251 ], [ -3.6518, 40.1253 ], [ -3.6536, 40.1262 ], [ -3.656, 40.1257 ], [ -3.656, 40.1256 ], [ -3.6564, 40.1256 ], [ -3.6563, 40.1253 ], [ -3.6536, 40.1258 ], [ -3.6523, 40.1251 ], [ -3.6521, 40.1251 ], [ -3.6521, 40.125 ], [ -3.6515, 40.1249 ], [ -3.6515, 40.1248 ], [ -3.6508, 40.1247 ], [ -3.649, 40.1248 ], [ -3.6484, 40.1244 ], [ -3.6481, 40.1244 ], [ -3.6471, 40.1236 ], [ -3.6471, 40.1237 ], [ -3.6471, 40.1236 ], [ -3.6458, 40.1231 ], [ -3.644, 40.1226 ], [ -3.6408, 40.1212 ], [ -3.6371, 40.1203 ], [ -3.6349, 40.121 ], [ -3.6337, 40.1209 ], [ -3.6296, 40.1199 ], [ -3.6281, 40.1193 ], [ -3.6262, 40.1179 ], [ -3.6263, 40.1174 ], [ -3.6267, 40.1167 ], [ -3.6262, 40.1166 ], [ -3.6258, 40.1173 ], [ -3.6258, 40.1178 ], [ -3.6219, 40.1157 ], [ -3.6212, 40.1151 ], [ -3.6212, 40.1152 ], [ -3.6187, 40.1136 ], [ -3.6178, 40.1133 ], [ -3.619, 40.1138 ], [ -3.6212, 40.1155 ], [ -3.6229, 40.1166 ], [ -3.6252, 40.1177 ], [ -3.6278, 40.1196 ], [ -3.6279, 40.1201 ], [ -3.6283, 40.1208 ], [ -3.6296, 40.1216 ], [ -3.6298, 40.1227 ], [ -3.6298, 40.1235 ], [ -3.6295, 40.1238 ], [ -3.6285, 40.1243 ], [ -3.6275, 40.1251 ], [ -3.6263, 40.1263 ], [ -3.6259, 40.1283 ], [ -3.625, 40.1295 ], [ -3.624, 40.13 ], [ -3.6227, 40.1309 ], [ -3.6222, 40.1321 ], [ -3.621, 40.1337 ], [ -3.6202, 40.1352 ], [ -3.6193, 40.1356 ], [ -3.6186, 40.1369 ], [ -3.6173, 40.1374 ], [ -3.6135, 40.138 ], [ -3.6129, 40.1379 ], [ -3.6118, 40.1374 ], [ -3.6057, 40.1362 ], [ -3.6006, 40.1354 ], [ -3.5927, 40.1339 ], [ -3.5921, 40.1339 ], [ -3.5883, 40.1333 ], [ -3.5838, 40.132 ], [ -3.5839, 40.1324 ], [ -3.5855, 40.1328 ], [ -3.5881, 40.1337 ], [ -3.5965, 40.1348 ], [ -3.5989, 40.1354 ], [ -3.6102, 40.1374 ], [ -3.6113, 40.1377 ], [ -3.6113, 40.1378 ], [ -3.6114, 40.1377 ], [ -3.6118, 40.1381 ], [ -3.6117, 40.1382 ], [ -3.6128, 40.1387 ], [ -3.6139, 40.139 ], [ -3.6156, 40.1386 ], [ -3.6168, 40.138 ], [ -3.6187, 40.1378 ], [ -3.619, 40.137 ], [ -3.6194, 40.1364 ], [ -3.62, 40.1363 ], [ -3.6204, 40.136 ], [ -3.6207, 40.1351 ], [ -3.6209, 40.135 ], [ -3.6213, 40.1367 ], [ -3.6219, 40.1374 ], [ -3.6237, 40.1388 ], [ -3.6252, 40.1403 ], [ -3.6271, 40.1415 ], [ -3.6282, 40.1417 ], [ -3.6276, 40.1424 ], [ -3.626, 40.1436 ], [ -3.6241, 40.1455 ], [ -3.623, 40.149 ], [ -3.6225, 40.1499 ], [ -3.6212, 40.151 ] ] ] } },
{ "type": "Feature", "properties": { "municipio": "Ciempozuelos", "clasificacion": "no-urbanizable-protegido", "calificacion": "sin-asignar", "version": "vigente", "fuente": "SIT-CAM WFS — UsoDelSuelo:VPLA_V_CLASIFICACION (https://idem.comunidad.madrid/geosrvg/ows)", "fecha_dato": "2026-05-12", "ambito": "71823", "_raw_CD_SIGLAS": "SNUP", "_raw_DS_CLASIF_GEN": "Suelo No Urbanizable Protegido", "_raw_DS_CLASIF_DET": "Suelo No Urbanizable Protegido Zepa", "_raw_DS_DOCU": "PLAN GENERAL", "_raw_DS_LEY": "CM Ley 9/2001, E Ley 6/1998", "_raw_FC_AC": "2008-07-03", "_raw_NM_AREA_M2": 210754.40764649899, "_cam_code": "040" }, "geometry": { "type": "Polygon", "coordinates": [ [ [ -3.6134, 40.1489 ], [ -3.6138, 40.1486 ], [ -3.6167, 40.1474 ], [ -3.6179, 40.1491 ], [ -3.618, 40.1496 ], [ -3.6184, 40.1504 ], [ -3.6191, 40.1505 ], [ -3.6194, 40.1499 ], [ -3.6211, 40.1475 ], [ -3.6227, 40.1476 ], [ -3.6232, 40.1481 ], [ -3.6234, 40.1475 ], [ -3.6228, 40.1469 ], [ -3.6218, 40.1463 ], [ -3.6207, 40.1462 ], [ -3.6201, 40.1457 ], [ -3.6192, 40.1452 ], [ -3.6187, 40.145 ], [ -3.6182, 40.145 ], [ -3.6176, 40.1454 ], [ -3.6162, 40.1468 ], [ -3.6159, 40.1468 ], [ -3.615, 40.1463 ], [ -3.6146, 40.1463 ], [ -3.6141, 40.1465 ], [ -3.6144, 40.1472 ], [ -3.6137, 40.1475 ], [ -3.6132, 40.1486 ], [ -3.6134, 40.1489 ] ] ] } },
{ "type": "Feature", "properties": { "municipio": "Ciempozuelos", "clasificacion": "no-urbanizable-protegido", "calificacion": "sin-asignar", "version": "vigente", "fuente": "SIT-CAM WFS — UsoDelSuelo:VPLA_V_CLASIFICACION (https://idem.comunidad.madrid/geosrvg/ows)", "fecha_dato": "2026-05-12", "ambito": "71823", "_raw_CD_SIGLAS": "SNUP", "_raw_DS_CLASIF_GEN": "Suelo No Urbanizable Protegido", "_raw_DS_CLASIF_DET": "Suelo No Urbanizable Protegido-Parque Regional D-Explotación Recursos Naturales", "_raw_DS_DOCU": "PLAN GENERAL", "_raw_DS_LEY": "CM Ley 9/2001, E Ley 6/1998", "_raw_FC_AC": "2008-07-03", "_raw_NM_AREA_M2": 9937.5668857747696, "_cam_code": "040" }, "geometry": { "type": "Polygon", "coordinates": [ [ [ -3.5948, 40.1867 ], [ -3.5947, 40.1867 ], [ -3.5945, 40.1873 ], [ -3.5944, 40.1874 ], [ -3.5942, 40.1876 ], [ -3.594, 40.188 ], [ -3.594, 40.1884 ], [ -3.5939, 40.1884 ], [ -3.594, 40.1889 ], [ -3.5939, 40.1892 ], [ -3.5934, 40.1898 ], [ -3.5932, 40.1906 ], [ -3.5932, 40.1915 ], [ -3.5931, 40.1915 ], [ -3.5926, 40.1928 ], [ -3.5922, 40.1934 ], [ -3.5922, 40.1937 ], [ -3.5919, 40.1944 ], [ -3.592, 40.1949 ], [ -3.5915, 40.1957 ], [ -3.5915, 40.1963 ], [ -3.5916, 40.1963 ], [ -3.5916, 40.1956 ], [ -3.5921, 40.1951 ], [ -3.5921, 40.1942 ], [ -3.5924, 40.1932 ], [ -3.5929, 40.1925 ], [ -3.5933, 40.1916 ], [ -3.5934, 40.1902 ], [ -3.5936, 40.1896 ], [ -3.5941, 40.1891 ], [ -3.5941, 40.1883 ], [ -3.5943, 40.1875 ], [ -3.5946, 40.1873 ], [ -3.5948, 40.1867 ] ] ] } },
{ "type": "Feature", "properties": { "municipio": "Ciempozuelos", "clasificacion": "no-urbanizable-protegido", "calificacion": "sin-asignar", "version": "vigente", "fuente": "SIT-CAM WFS — UsoDelSuelo:VPLA_V_CLASIFICACION (https://idem.comunidad.madrid/geosrvg/ows)", "fecha_dato": "2026-05-12", "ambito": "71823", "_raw_CD_SIGLAS": "SNUP", "_raw_DS_CLASIF_GEN": "Suelo No Urbanizable Protegido", "_raw_DS_CLASIF_DET": "Suelo No Urbanizable Protegido-Parque Regional C-Degradada Regenerar", "_raw_DS_DOCU": "PLAN GENERAL", "_raw_DS_LEY": "CM Ley 9/2001, E Ley 6/1998", "_raw_FC_AC": "2008-07-03", "_raw_NM_AREA_M2": 3347673.5020703301, "_cam_code": "040" }, "geometry": { "type": "Polygon", "coordinates": [ [ [ -3.6524, 40.1256 ], [ -3.6511, 40.1251 ], [ -3.6489, 40.1251 ], [ -3.6472, 40.1241 ], [ -3.6438, 40.1229 ], [ -3.6406, 40.1216 ], [ -3.6372, 40.1207 ], [ -3.6361, 40.1211 ], [ -3.6348, 40.1213 ], [ -3.6335, 40.1212 ], [ -3.6311, 40.1207 ], [ -3.6283, 40.1198 ], [ -3.6283, 40.12 ], [ -3.6288, 40.1207 ], [ -3.63, 40.1215 ], [ -3.6303, 40.1226 ], [ -3.6302, 40.1236 ], [ -3.6299, 40.1241 ], [ -3.6281, 40.1251 ], [ -3.6267, 40.1265 ], [ -3.6262, 40.1286 ], [ -3.6252, 40.1298 ], [ -3.6241, 40.1303 ], [ -3.6231, 40.1311 ], [ -3.6225, 40.1324 ], [ -3.6214, 40.1338 ], [ -3.6214, 40.135 ], [ -3.6216, 40.1352 ], [ -3.6216, 40.1354 ], [ -3.6223, 40.1359 ], [ -3.6223, 40.1362 ], [ -3.6219, 40.1366 ], [ -3.622, 40.1369 ], [ -3.6251, 40.1396 ], [ -3.6274, 40.1412 ], [ -3.6279, 40.1413 ], [ -3.6284, 40.1411 ], [ -3.6288, 40.1412 ], [ -3.629, 40.1415 ], [ -3.6298, 40.1417 ], [ -3.6296, 40.1422 ], [ -3.6295, 40.143 ], [ -3.6283, 40.1436 ], [ -3.6274, 40.1435 ], [ -3.6272, 40.1432 ], [ -3.6247, 40.1455 ], [ -3.6239, 40.1475 ], [ -3.6242, 40.1474 ], [ -3.6249, 40.1455 ], [ -3.6253, 40.1451 ], [ -3.6299, 40.1451 ], [ -3.6299, 40.1447 ], [ -3.6303, 40.1437 ], [ -3.6304, 40.1431 ], [ -3.6311, 40.1418 ], [ -3.6313, 40.1411 ], [ -3.6316, 40.1407 ], [ -3.6315, 40.1399 ], [ -3.6317, 40.1397 ], [ -3.6329, 40.1393 ], [ -3.6336, 40.1392 ], [ -3.6359, 40.138 ], [ -3.6366, 40.1373 ], [ -3.6369, 40.1368 ], [ -3.6392, 40.1346 ], [ -3.6411, 40.134 ], [ -3.6422, 40.1327 ], [ -3.6446, 40.1309 ], [ -3.6454, 40.1307 ], [ -3.6461, 40.1303 ], [ -3.6468, 40.1295 ], [ -3.6473, 40.1281 ], [ -3.6476, 40.1278 ], [ -3.6478, 40.1277 ], [ -3.65, 40.1276 ], [ -3.6512, 40.128 ], [ -3.6514, 40.1282 ], [ -3.6519, 40.1276 ], [ -3.652, 40.1271 ], [ -3.651, 40.1266 ], [ -3.6508, 40.1263 ], [ -3.6508, 40.1259 ], [ -3.6514, 40.1257 ], [ -3.6524, 40.1256 ] ] ] } },
{ "type": "Feature", "properties": { "municipio": "Ciempozuelos", "clasificacion": "no-urbanizable-protegido", "calificacion": "sin-asignar", "version": "vigente", "fuente": "SIT-CAM WFS — UsoDelSuelo:VPLA_V_CLASIFICACION (https://idem.comunidad.madrid/geosrvg/ows)", "fecha_dato": "2026-05-12", "ambito": "71823", "_raw_CD_SIGLAS": "SNUP", "_raw_DS_CLASIF_GEN": "Suelo No Urbanizable Protegido", "_raw_DS_CLASIF_DET": "Suelo No Urbanizable Protegido-Parque Regional C-Degradada Regenerar", "_raw_DS_DOCU": "PLAN GENERAL", "_raw_DS_LEY": "CM Ley 9/2001, E Ley 6/1998", "_raw_FC_AC": "2008-07-03", "_raw_NM_AREA_M2": 2127358.2430449799, "_cam_code": "040" }, "geometry": { "type": "Polygon", "coordinates": [ [ [ -3.6062, 40.1367 ], [ -3.6058, 40.1388 ], [ -3.6052, 40.146 ], [ -3.6055, 40.147 ], [ -3.6061, 40.1507 ], [ -3.6066, 40.1589 ], [ -3.6074, 40.1586 ], [ -3.6075, 40.1584 ], [ -3.6092, 40.1576 ], [ -3.6078, 40.1535 ], [ -3.6077, 40.1525 ], [ -3.6082, 40.1524 ], [ -3.6091, 40.1534 ], [ -3.6093, 40.1528 ], [ -3.6101, 40.1522 ], [ -3.6106, 40.1514 ], [ -3.6112, 40.151 ], [ -3.6142, 40.1497 ], [ -3.6132, 40.1486 ], [ -3.6137, 40.1475 ], [ -3.6144, 40.1472 ], [ -3.6141, 40.1465 ], [ -3.6146, 40.1463 ], [ -3.615, 40.1463 ], [ -3.6159, 40.1468 ], [ -3.6162, 40.1468 ], [ -3.6176, 40.1454 ], [ -3.6182, 40.145 ], [ -3.6187, 40.145 ], [ -3.6201, 40.1457 ], [ -3.6207, 40.1462 ], [ -3.6218, 40.1463 ], [ -3.6222, 40.1465 ], [ -3.6234, 40.1475 ], [ -3.6241, 40.1455 ], [ -3.626, 40.1436 ], [ -3.6276, 40.1424 ], [ -3.6282, 40.1417 ], [ -3.6271, 40.1415 ], [ -3.6252, 40.1403 ], [ -3.6237, 40.1388 ], [ -3.6219, 40.1374 ], [ -3.6213, 40.1367 ], [ -3.6209, 40.135 ], [ -3.6207, 40.1351 ], [ -3.6204, 40.136 ], [ -3.62, 40.1363 ], [ -3.6194, 40.1364 ], [ -3.619, 40.137 ], [ -3.6187, 40.1378 ], [ -3.6168, 40.138 ], [ -3.6156, 40.1386 ], [ -3.6142, 40.1389 ], [ -3.6142, 40.139 ], [ -3.6128, 40.1387 ], [ -3.6117, 40.1382 ], [ -3.6118, 40.1381 ], [ -3.6114, 40.1377 ], [ -3.6113, 40.1378 ], [ -3.6113, 40.1377 ], [ -3.6102, 40.1374 ], [ -3.6062, 40.1367 ] ] ] } },
{ "type": "Feature", "properties": { "municipio": "Ciempozuelos", "clasificacion": "no-urbanizable-protegido", "calificacion": "sin-asignar", "version": "vigente", "fuente": "SIT-CAM WFS — UsoDelSuelo:VPLA_V_CLASIFICACION (https://idem.comunidad.madrid/geosrvg/ows)", "fecha_dato": "2026-05-12", "ambito": "71823", "_raw_CD_SIGLAS": "SNUP", "_raw_DS_CLASIF_GEN": "Suelo No Urbanizable Protegido", "_raw_DS_CLASIF_DET": "Suelo No Urbanizable Protegido-Parque Regional D-Explotación Recursos Naturales", "_raw_DS_DOCU": "PLAN GENERAL", "_raw_DS_LEY": "CM Ley 9/2001, E Ley 6/1998", "_raw_FC_AC": "2008-07-03", "_raw_NM_AREA_M2": 101105.140331452, "_cam_code": "040" }, "geometry": { "type": "Polygon", "coordinates": [ [ [ -3.6212, 40.1151 ], [ -3.6219, 40.1157 ], [ -3.6258, 40.1178 ], [ -3.6258, 40.1173 ], [ -3.6262, 40.1166 ], [ -3.6267, 40.1167 ], [ -3.625, 40.1151 ], [ -3.6249, 40.1147 ], [ -3.6246, 40.1144 ], [ -3.6227, 40.1137 ], [ -3.6224, 40.1137 ], [ -3.6219, 40.1133 ], [ -3.6212, 40.1151 ] ] ] } },
{ "type": "Feature", "properties": { "municipio": "Ciempozuelos", "clasificacion": "no-urbanizable-protegido", "calificacion": "sin-asignar", "version": "vigente", "fuente": "SIT-CAM WFS — UsoDelSuelo:VPLA_V_CLASIFICACION (https://idem.comunidad.madrid/geosrvg/ows)", "fecha_dato": "2026-05-12", "ambito": "71823", "_raw_CD_SIGLAS": "SNUP", "_raw_DS_CLASIF_GEN": "Suelo No Urbanizable Protegido", "_raw_DS_CLASIF_DET": "Suelo No Urbanizable Protegido-Corredor Verde", "_raw_DS_DOCU": "PLAN GENERAL", "_raw_DS_LEY": "CM Ley 9/2001, E Ley 6/1998", "_raw_FC_AC": "2008-07-03", "_raw_NM_AREA_M2": 311287.48076651798, "_cam_code": "040" }, "geometry": { "type": "Polygon", "coordinates": [ [ [ -3.6307, 40.1425 ], [ -3.6319, 40.1427 ], [ -3.6337, 40.1401 ], [ -3.6341, 40.1401 ], [ -3.6346, 40.1397 ], [ -3.636, 40.1391 ], [ -3.6371, 40.1383 ], [ -3.6377, 40.1375 ], [ -3.6397, 40.1355 ], [ -3.64, 40.1353 ], [ -3.6406, 40.1352 ], [ -3.6418, 40.1347 ], [ -3.6422, 40.1344 ], [ -3.6433, 40.1331 ], [ -3.6444, 40.1324 ], [ -3.645, 40.1318 ], [ -3.6461, 40.1315 ], [ -3.647, 40.1308 ], [ -3.6478, 40.13 ], [ -3.6484, 40.1286 ], [ -3.6498, 40.1285 ], [ -3.6506, 40.1288 ], [ -3.6507, 40.129 ], [ -3.6509, 40.129 ], [ -3.6509, 40.1289 ], [ -3.6521, 40.1289 ], [ -3.6524, 40.1287 ], [ -3.653, 40.1279 ], [ -3.6532, 40.1273 ], [ -3.6532, 40.127 ], [ -3.6529, 40.1265 ], [ -3.6536, 40.1262 ], [ -3.6524, 40.1256 ], [ -3.6514, 40.1257 ], [ -3.6508, 40.1259 ], [ -3.6508, 40.1263 ], [ -3.651, 40.1266 ], [ -3.652, 40.1271 ], [ -3.6519, 40.1276 ], [ -3.6514, 40.1282 ], [ -3.6512, 40.128 ], [ -3.65, 40.1276 ], [ -3.6478, 40.1277 ], [ -3.6476, 40.1278 ], [ -3.6473, 40.1281 ], [ -3.6468, 40.1295 ], [ -3.6461, 40.1303 ], [ -3.6454, 40.1307 ], [ -3.6446, 40.1309 ], [ -3.6422, 40.1327 ], [ -3.6411, 40.134 ], [ -3.6392, 40.1346 ], [ -3.6369, 40.1368 ], [ -3.6366, 40.1373 ], [ -3.6359, 40.138 ], [ -3.6336, 40.1392 ], [ -3.6329, 40.1393 ], [ -3.6317, 40.1397 ], [ -3.6315, 40.1399 ], [ -3.6316, 40.1407 ], [ -3.6313, 40.1411 ], [ -3.6311, 40.1418 ], [ -3.6307, 40.1425 ] ] ] } },
{ "type": "Feature", "properties": { "municipio": "Ciempozuelos", "clasificacion": "no-urbanizable-protegido", "calificacion": "sin-asignar", "version": "vigente", "fuente": "SIT-CAM WFS — UsoDelSuelo:VPLA_V_CLASIFICACION (https://idem.comunidad.madrid/geosrvg/ows)", "fecha_dato": "2026-05-12", "ambito": "71823", "_raw_CD_SIGLAS": "SNUP", "_raw_DS_CLASIF_GEN": "Suelo No Urbanizable Protegido", "_raw_DS_CLASIF_DET": "Suelo No Urbanizable Protegido-Parque Regional A-Reserva Integral", "_raw_DS_DOCU": "PLAN GENERAL", "_raw_DS_LEY": "CM Ley 9/2001, E Ley 6/1998", "_raw_FC_AC": "2008-07-03", "_raw_NM_AREA_M2": 489620.62139875902, "_cam_code": "040" }, "geometry": { "type": "Polygon", "coordinates": [ [ [ -3.5658, 40.1546 ], [ -3.5701, 40.1563 ], [ -3.5756, 40.1508 ], [ -3.5748, 40.1505 ], [ -3.5738, 40.1499 ], [ -3.5728, 40.1491 ], [ -3.572, 40.1482 ], [ -3.5702, 40.1485 ], [ -3.5676, 40.1484 ], [ -3.5669, 40.1486 ], [ -3.566, 40.1498 ], [ -3.5657, 40.1505 ], [ -3.5658, 40.1513 ], [ -3.5662, 40.1522 ], [ -3.5661, 40.1534 ], [ -3.5658, 40.1546 ] ] ] } },
{ "type": "Feature", "properties": { "municipio": "Ciempozuelos", "clasificacion": "no-urbanizable-protegido", "calificacion": "sin-asignar", "version": "vigente", "fuente": "SIT-CAM WFS — UsoDelSuelo:VPLA_V_CLASIFICACION (https://idem.comunidad.madrid/geosrvg/ows)", "fecha_dato": "2026-05-12", "ambito": "71823", "_raw_CD_SIGLAS": "SNUP", "_raw_DS_CLASIF_GEN": "Suelo No Urbanizable Protegido", "_raw_DS_CLASIF_DET": "Suelo No Urbanizable Protegido-Corredor Verde", "_raw_DS_DOCU": "PLAN GENERAL", "_raw_DS_LEY": "CM Ley 9/2001, E Ley 6/1998", "_raw_FC_AC": "2008-07-03", "_raw_NM_AREA_M2": 14770.968067375699, "_cam_code": "040" }, "geometry": { "type": "Polygon", "coordinates": [ [ [ -3.653, 40.1255 ], [ -3.6536, 40.1258 ], [ -3.656, 40.1253 ], [ -3.6559, 40.1251 ], [ -3.6553, 40.1248 ], [ -3.6534, 40.1252 ], [ -3.6534, 40.1254 ], [ -3.653, 40.1255 ] ] ] } },
{ "type": "Feature", "properties": { "municipio": "Ciempozuelos", "clasificacion": "urbanizable-no-sectorizado", "calificacion": "sin-asignar", "version": "vigente", "fuente": "SIT-CAM WFS — UsoDelSuelo:VPLA_V_CLASIFICACION (https://idem.comunidad.madrid/geosrvg/ows)", "fecha_dato": "2026-05-12", "ambito": "71823", "_raw_CD_SIGLAS": "SUBNS", "_raw_DS_CLASIF_GEN": "Suelo Urbanizable No Sectorizado", "_raw_DS_CLASIF_DET": "Suelo Urbanizable No Sectorizado", "_raw_DS_DOCU": "PLAN GENERAL", "_raw_DS_LEY": "CM Ley 9/2001, E Ley 6/1998", "_raw_FC_AC": "2008-07-03", "_raw_NM_AREA_M2": 425109.23821511603, "_cam_code": "040" }, "geometry": { "type": "Polygon", "coordinates": [ [ [ -3.6481, 40.1499 ], [ -3.6536, 40.1549 ], [ -3.6538, 40.1545 ], [ -3.654, 40.1544 ], [ -3.6546, 40.1523 ], [ -3.6548, 40.1511 ], [ -3.6553, 40.1501 ], [ -3.6554, 40.1501 ], [ -3.6579, 40.1461 ], [ -3.6584, 40.1456 ], [ -3.6583, 40.1442 ], [ -3.6556, 40.145 ], [ -3.6481, 40.1499 ] ] ] } },
{ "type": "Feature", "properties": { "municipio": "Ciempozuelos", "clasificacion": "urbanizable-no-sectorizado", "calificacion": "sin-asignar", "version": "vigente", "fuente": "SIT-CAM WFS — UsoDelSuelo:VPLA_V_CLASIFICACION (https://idem.comunidad.madrid/geosrvg/ows)", "fecha_dato": "2026-05-12", "ambito": "71823", "_raw_CD_SIGLAS": "SUBNS", "_raw_DS_CLASIF_GEN": "Suelo Urbanizable No Sectorizado", "_raw_DS_CLASIF_DET": "Suelo Urbanizable No Sectorizado", "_raw_DS_DOCU": "PLAN GENERAL", "_raw_DS_LEY": "CM Ley 9/2001, E Ley 6/1998", "_raw_FC_AC": "2008-07-03", "_raw_NM_AREA_M2": 83538.715650764396, "_cam_code": "040" }, "geometry": { "type": "Polygon", "coordinates": [ [ [ -3.6536, 40.1262 ], [ -3.6529, 40.1265 ], [ -3.6532, 40.127 ], [ -3.6532, 40.1273 ], [ -3.6527, 40.1284 ], [ -3.6524, 40.1287 ], [ -3.6521, 40.1289 ], [ -3.6522, 40.1288 ], [ -3.6523, 40.1288 ], [ -3.6534, 40.1288 ], [ -3.6536, 40.1287 ], [ -3.6549, 40.1287 ], [ -3.6565, 40.1285 ], [ -3.6564, 40.1284 ], [ -3.656, 40.1256 ], [ -3.656, 40.1257 ], [ -3.6536, 40.1262 ] ] ] } },
{ "type": "Feature", "properties": { "municipio": "Ciempozuelos", "clasificacion": "urbanizable-no-sectorizado", "calificacion": "sin-asignar", "version": "vigente", "fuente": "SIT-CAM WFS — UsoDelSuelo:VPLA_V_CLASIFICACION (https://idem.comunidad.madrid/geosrvg/ows)", "fecha_dato": "2026-05-12", "ambito": "71823", "_raw_CD_SIGLAS": "SUBNS", "_raw_DS_CLASIF_GEN": "Suelo Urbanizable No Sectorizado", "_raw_DS_CLASIF_DET": "Suelo Urbanizable No Sectorizado", "_raw_DS_DOCU": "PLAN GENERAL", "_raw_DS_LEY": "CM Ley 9/2001, E Ley 6/1998", "_raw_FC_AC": "2008-07-03", "_raw_NM_AREA_M2": 1140374.3929386099, "_cam_code": "040" }, "geometry": { "type": "Polygon", "coordinates": [ [ [ -3.636, 40.1391 ], [ -3.6447, 40.1469 ], [ -3.6475, 40.1451 ], [ -3.6476, 40.145 ], [ -3.6467, 40.1377 ], [ -3.6465, 40.1377 ], [ -3.6464, 40.1374 ], [ -3.6466, 40.1372 ], [ -3.647, 40.1372 ], [ -3.6472, 40.1374 ], [ -3.6501, 40.1372 ], [ -3.6491, 40.1291 ], [ -3.6507, 40.129 ], [ -3.6506, 40.1288 ], [ -3.6498, 40.1285 ], [ -3.6484, 40.1286 ], [ -3.6478, 40.13 ], [ -3.647, 40.1308 ], [ -3.6461, 40.1315 ], [ -3.645, 40.1318 ], [ -3.6444, 40.1324 ], [ -3.6433, 40.1331 ], [ -3.6422, 40.1344 ], [ -3.6418, 40.1347 ], [ -3.6406, 40.1352 ], [ -3.64, 40.1353 ], [ -3.6397, 40.1355 ], [ -3.6377, 40.1375 ], [ -3.6371, 40.1383 ], [ -3.636, 40.1391 ] ] ] } },
{ "type": "Feature", "properties": { "municipio": "Ciempozuelos", "clasificacion": "urbanizable-sectorizado", "calificacion": "sin-asignar", "version": "vigente", "fuente": "SIT-CAM WFS — UsoDelSuelo:VPLA_V_CLASIFICACION (https://idem.comunidad.madrid/geosrvg/ows)", "fecha_dato": "2026-05-12", "ambito": "71823", "_raw_CD_SIGLAS": "SUBS", "_raw_DS_CLASIF_GEN": "Suelo Urbanizable Sectorizado", "_raw_DS_CLASIF_DET": "Suelo Urbanizable Sectorizado", "_raw_DS_DOCU": "PLAN GENERAL", "_raw_DS_LEY": "CM Ley 9/2001, E Ley 6/1998", "_raw_FC_AC": "2008-07-03", "_raw_NM_AREA_M2": 22746.496240811801, "_cam_code": "040" }, "geometry": { "type": "Polygon", "coordinates": [ [ [ -3.6342, 40.1706 ], [ -3.6347, 40.1709 ], [ -3.6342, 40.1713 ], [ -3.6342, 40.1716 ], [ -3.6348, 40.1719 ], [ -3.6353, 40.1718 ], [ -3.6355, 40.1708 ], [ -3.6357, 40.1705 ], [ -3.6365, 40.1705 ], [ -3.6382, 40.1699 ], [ -3.6367, 40.1701 ], [ -3.6354, 40.1701 ], [ -3.6354, 40.1702 ], [ -3.6354, 40.1701 ], [ -3.6346, 40.1706 ], [ -3.6342, 40.1706 ] ] ] } },
{ "type": "Feature", "properties": { "municipio": "Ciempozuelos", "clasificacion": "urbanizable-sectorizado", "calificacion": "sin-asignar", "version": "vigente", "fuente": "SIT-CAM WFS — UsoDelSuelo:VPLA_V_CLASIFICACION (https://idem.comunidad.madrid/geosrvg/ows)", "fecha_dato": "2026-05-12", "ambito": "71823", "_raw_CD_SIGLAS": "SUBS", "_raw_DS_CLASIF_GEN": "Suelo Urbanizable Sectorizado (INCORPORADO)", "_raw_DS_CLASIF_DET": "Suelo Urbanizable Transitorio", "_raw_DS_DOCU": "PLAN GENERAL", "_raw_DS_LEY": "CM Ley 9/2001, E Ley 6/1998", "_raw_FC_AC": "2008-07-03", "_raw_NM_AREA_M2": 88236.450114850595, "_cam_code": "040" }, "geometry": { "type": "Polygon", "coordinates": [ [ [ -3.6095, 40.1577 ], [ -3.6098, 40.1578 ], [ -3.6103, 40.1587 ], [ -3.6133, 40.1584 ], [ -3.6144, 40.1584 ], [ -3.6148, 40.1583 ], [ -3.6146, 40.1579 ], [ -3.615, 40.1578 ], [ -3.6143, 40.1561 ], [ -3.6131, 40.1563 ], [ -3.6129, 40.1558 ], [ -3.6119, 40.1564 ], [ -3.6118, 40.1568 ], [ -3.6095, 40.1577 ] ] ] } },
{ "type": "Feature", "properties": { "municipio": "Ciempozuelos", "clasificacion": "urbanizable-sectorizado", "calificacion": "sin-asignar", "version": "vigente", "fuente": "SIT-CAM WFS — UsoDelSuelo:VPLA_V_CLASIFICACION (https://idem.comunidad.madrid/geosrvg/ows)", "fecha_dato": "2026-05-12", "ambito": "71823", "_raw_CD_SIGLAS": "SUBS", "_raw_DS_CLASIF_GEN": "Suelo Urbanizable Sectorizado (INCORPORADO)", "_raw_DS_CLASIF_DET": "Suelo Urbanizable Transitorio", "_raw_DS_DOCU": "PLAN GENERAL", "_raw_DS_LEY": "CM Ley 9/2001, E Ley 6/1998", "_raw_FC_AC": "2008-07-03", "_raw_NM_AREA_M2": 127576.195254399, "_cam_code": "040" }, "geometry": { "type": "Polygon", "coordinates": [ [ [ -3.6183, 40.1505 ], [ -3.6198, 40.153 ], [ -3.6202, 40.1526 ], [ -3.6221, 40.1528 ], [ -3.6221, 40.153 ], [ -3.6222, 40.1529 ], [ -3.6228, 40.153 ], [ -3.6261, 40.153 ], [ -3.6263, 40.1523 ], [ -3.6268, 40.1513 ], [ -3.6266, 40.1511 ], [ -3.6208, 40.1515 ], [ -3.6212, 40.151 ], [ -3.6211, 40.1506 ], [ -3.6183, 40.1505 ] ] ] } },
{ "type": "Feature", "properties": { "municipio": "Ciempozuelos", "clasificacion": "urbanizable-sectorizado", "calificacion": "sin-asignar", "version": "vigente", "fuente": "SIT-CAM WFS — UsoDelSuelo:VPLA_V_CLASIFICACION (https://idem.comunidad.madrid/geosrvg/ows)", "fecha_dato": "2026-05-12", "ambito": "71823", "_raw_CD_SIGLAS": "SUBS", "_raw_DS_CLASIF_GEN": "Suelo Urbanizable Sectorizado (INCORPORADO)", "_raw_DS_CLASIF_DET": "Suelo Urbanizable Transitorio", "_raw_DS_DOCU": "PLAN GENERAL", "_raw_DS_LEY": "CM Ley 9/2001, E Ley 6/1998", "_raw_FC_AC": "2008-07-03", "_raw_NM_AREA_M2": 145091.686416618, "_cam_code": "040" }, "geometry": { "type": "Polygon", "coordinates": [ [ [ -3.6153, 40.1669 ], [ -3.6158, 40.1671 ], [ -3.6166, 40.1669 ], [ -3.6186, 40.1667 ], [ -3.6186, 40.1654 ], [ -3.6189, 40.1651 ], [ -3.6188, 40.1649 ], [ -3.6179, 40.164 ], [ -3.6179, 40.1638 ], [ -3.6177, 40.1636 ], [ -3.6171, 40.1636 ], [ -3.617, 40.1633 ], [ -3.6169, 40.1633 ], [ -3.6169, 40.1637 ], [ -3.6169, 40.164 ], [ -3.6173, 40.1641 ], [ -3.6175, 40.1644 ], [ -3.6175, 40.1647 ], [ -3.6173, 40.1649 ], [ -3.6165, 40.1648 ], [ -3.6164, 40.1643 ], [ -3.6168, 40.164 ], [ -3.6169, 40.1637 ], [ -3.6125, 40.1637 ], [ -3.6116, 40.1622 ], [ -3.6114, 40.1622 ], [ -3.6117, 40.1629 ], [ -3.6126, 40.1643 ], [ -3.6143, 40.1661 ], [ -3.6153, 40.1669 ] ] ] } },
{ "type": "Feature", "properties": { "municipio": "Ciempozuelos", "clasificacion": "urbanizable-sectorizado", "calificacion": "sin-asignar", "version": "vigente", "fuente": "SIT-CAM WFS — UsoDelSuelo:VPLA_V_CLASIFICACION (https://idem.comunidad.madrid/geosrvg/ows)", "fecha_dato": "2026-05-12", "ambito": "71823", "_raw_CD_SIGLAS": "SUBS", "_raw_DS_CLASIF_GEN": "Suelo Urbanizable Sectorizado", "_raw_DS_CLASIF_DET": "Suelo Urbanizable Sectorizado", "_raw_DS_DOCU": "PLAN GENERAL", "_raw_DS_LEY": "CM Ley 9/2001, E Ley 6/1998", "_raw_FC_AC": "2008-07-03", "_raw_NM_AREA_M2": 458561.60255956103, "_cam_code": "040" }, "geometry": { "type": "Polygon", "coordinates": [ [ [ -3.6355, 40.172 ], [ -3.6364, 40.1735 ], [ -3.6372, 40.1741 ], [ -3.6379, 40.1749 ], [ -3.6392, 40.1772 ], [ -3.6401, 40.1769 ], [ -3.6425, 40.177 ], [ -3.6451, 40.1764 ], [ -3.6465, 40.1759 ], [ -3.6465, 40.1747 ], [ -3.6464, 40.1746 ], [ -3.6447, 40.1735 ], [ -3.6443, 40.1734 ], [ -3.6431, 40.1722 ], [ -3.6417, 40.1714 ], [ -3.641, 40.1707 ], [ -3.6405, 40.1705 ], [ -3.6403, 40.1702 ], [ -3.6397, 40.1698 ], [ -3.6382, 40.17 ], [ -3.6368, 40.1706 ], [ -3.6359, 40.1707 ], [ -3.6355, 40.172 ] ] ] } },
{ "type": "Feature", "properties": { "municipio": "Ciempozuelos", "clasificacion": "urbanizable-sectorizado", "calificacion": "sin-asignar", "version": "vigente", "fuente": "SIT-CAM WFS — UsoDelSuelo:VPLA_V_CLASIFICACION (https://idem.comunidad.madrid/geosrvg/ows)", "fecha_dato": "2026-05-12", "ambito": "71823", "_raw_CD_SIGLAS": "SUBS", "_raw_DS_CLASIF_GEN": "Suelo Urbanizable Sectorizado (INCORPORADO)", "_raw_DS_CLASIF_DET": "Suelo Urbanizable Transitorio", "_raw_DS_DOCU": "PLAN GENERAL", "_raw_DS_LEY": "CM Ley 9/2001, E Ley 6/1998", "_raw_FC_AC": "2008-07-03", "_raw_NM_AREA_M2": 33361.7874152761, "_cam_code": "040" }, "geometry": { "type": "Polygon", "coordinates": [ [ [ -3.6261, 40.1612 ], [ -3.6246, 40.1613 ], [ -3.625, 40.1625 ], [ -3.6246, 40.1626 ], [ -3.6246, 40.1627 ], [ -3.6251, 40.1636 ], [ -3.6254, 40.1636 ], [ -3.6254, 40.1637 ], [ -3.6261, 40.164 ], [ -3.6265, 40.1635 ], [ -3.6263, 40.1634 ], [ -3.6262, 40.1629 ], [ -3.6261, 40.1612 ] ] ] } },
{ "type": "Feature", "properties": { "municipio": "Ciempozuelos", "clasificacion": "urbanizable-sectorizado", "calificacion": "sin-asignar", "version": "vigente", "fuente": "SIT-CAM WFS — UsoDelSuelo:VPLA_V_CLASIFICACION (https://idem.comunidad.madrid/geosrvg/ows)", "fecha_dato": "2026-05-12", "ambito": "71823", "_raw_CD_SIGLAS": "SUBS", "_raw_DS_CLASIF_GEN": "Suelo Urbanizable Sectorizado (INCORPORADO)", "_raw_DS_CLASIF_DET": "Suelo Urbanizable Transitorio", "_raw_DS_DOCU": "PLAN GENERAL", "_raw_DS_LEY": "CM Ley 9/2001, E Ley 6/1998", "_raw_FC_AC": "2008-07-03", "_raw_NM_AREA_M2": 60580.0781116656, "_cam_code": "040" }, "geometry": { "type": "Polygon", "coordinates": [ [ [ -3.6373, 40.1632 ], [ -3.6374, 40.1635 ], [ -3.6367, 40.1639 ], [ -3.637, 40.165 ], [ -3.6384, 40.165 ], [ -3.6414, 40.1637 ], [ -3.6414, 40.1636 ], [ -3.6421, 40.1634 ], [ -3.6388, 40.163 ], [ -3.6374, 40.1631 ], [ -3.6373, 40.1632 ] ] ] } },
{ "type": "Feature", "properties": { "municipio": "Ciempozuelos", "clasificacion": "urbanizable-sectorizado", "calificacion": "sin-asignar", "version": "vigente", "fuente": "SIT-CAM WFS — UsoDelSuelo:VPLA_V_CLASIFICACION (https://idem.comunidad.madrid/geosrvg/ows)", "fecha_dato": "2026-05-12", "ambito": "71823", "_raw_CD_SIGLAS": "SUBS", "_raw_DS_CLASIF_GEN": "Suelo Urbanizable Sectorizado", "_raw_DS_CLASIF_DET": "Suelo Urbanizable Sectorizado", "_raw_DS_DOCU": "PLAN GENERAL", "_raw_DS_LEY": "CM Ley 9/2001, E Ley 6/1998", "_raw_FC_AC": "2008-07-03", "_raw_NM_AREA_M2": 1890581.37795168, "_cam_code": "040" }, "geometry": { "type": "Polygon", "coordinates": [ [ [ -3.6447, 40.1469 ], [ -3.6481, 40.1499 ], [ -3.6556, 40.145 ], [ -3.6583, 40.1442 ], [ -3.6584, 40.1455 ], [ -3.6598, 40.1439 ], [ -3.6611, 40.1435 ], [ -3.666, 40.1437 ], [ -3.6661, 40.1436 ], [ -3.6667, 40.1436 ], [ -3.6673, 40.1433 ], [ -3.6661, 40.1401 ], [ -3.6663, 40.1376 ], [ -3.6658, 40.1353 ], [ -3.6638, 40.1328 ], [ -3.6631, 40.1315 ], [ -3.6613, 40.1295 ], [ -3.6606, 40.1284 ], [ -3.6568, 40.128 ], [ -3.6567, 40.1279 ], [ -3.6564, 40.1256 ], [ -3.656, 40.1256 ], [ -3.6564, 40.1284 ], [ -3.6565, 40.1285 ], [ -3.6579, 40.141 ], [ -3.6506, 40.1415 ], [ -3.6501, 40.1372 ], [ -3.6473, 40.1374 ], [ -3.647, 40.1372 ], [ -3.6466, 40.1372 ], [ -3.6464, 40.1374 ], [ -3.6464, 40.1376 ], [ -3.6467, 40.1377 ], [ -3.6476, 40.145 ], [ -3.6447, 40.1469 ] ] ] } },
{ "type": "Feature", "properties": { "municipio": "Ciempozuelos", "clasificacion": "urbanizable-sectorizado", "calificacion": "sin-asignar", "version": "vigente", "fuente": "SIT-CAM WFS — UsoDelSuelo:VPLA_V_CLASIFICACION (https://idem.comunidad.madrid/geosrvg/ows)", "fecha_dato": "2026-05-12", "ambito": "71823", "_raw_CD_SIGLAS": "SUBS", "_raw_DS_CLASIF_GEN": "Suelo Urbanizable Sectorizado (INCORPORADO)", "_raw_DS_CLASIF_DET": "Suelo Urbanizable Transitorio", "_raw_DS_DOCU": "PLAN GENERAL", "_raw_DS_LEY": "CM Ley 9/2001, E Ley 6/1998", "_raw_FC_AC": "2008-07-03", "_raw_NM_AREA_M2": 57713.408042298899, "_cam_code": "040" }, "geometry": { "type": "Polygon", "coordinates": [ [ [ -3.617, 40.1675 ], [ -3.6188, 40.1681 ], [ -3.6196, 40.1681 ], [ -3.6202, 40.1683 ], [ -3.6209, 40.1688 ], [ -3.621, 40.1686 ], [ -3.6216, 40.1682 ], [ -3.6221, 40.1681 ], [ -3.622, 40.1686 ], [ -3.6222, 40.1687 ], [ -3.6222, 40.1688 ], [ -3.6225, 40.1692 ], [ -3.6235, 40.1701 ], [ -3.6261, 40.1682 ], [ -3.6235, 40.17 ], [ -3.6221, 40.1686 ], [ -3.6222, 40.1678 ], [ -3.6219, 40.1671 ], [ -3.6219, 40.1667 ], [ -3.6217, 40.1667 ], [ -3.6217, 40.1665 ], [ -3.62, 40.1668 ], [ -3.6196, 40.167 ], [ -3.6179, 40.1673 ], [ -3.6179, 40.1674 ], [ -3.617, 40.1675 ] ] ] } },
{ "type": "Feature", "properties": { "municipio": "Ciempozuelos", "clasificacion": "urbanizable-sectorizado", "calificacion": "sin-asignar", "version": "vigente", "fuente": "SIT-CAM WFS — UsoDelSuelo:VPLA_V_CLASIFICACION (https://idem.comunidad.madrid/geosrvg/ows)", "fecha_dato": "2026-05-12", "ambito": "71823", "_raw_CD_SIGLAS": "SUBS", "_raw_DS_CLASIF_GEN": "Suelo Urbanizable Sectorizado (INCORPORADO)", "_raw_DS_CLASIF_DET": "Suelo Urbanizable Transitorio", "_raw_DS_DOCU": "PLAN GENERAL", "_raw_DS_LEY": "CM Ley 9/2001, E Ley 6/1998", "_raw_FC_AC": "2008-07-03", "_raw_NM_AREA_M2": 50221.151893329399, "_cam_code": "040" }, "geometry": { "type": "Polygon", "coordinates": [ [ [ -3.635, 40.1674 ], [ -3.6351, 40.1651 ], [ -3.6303, 40.1651 ], [ -3.631, 40.1654 ], [ -3.6312, 40.1657 ], [ -3.6333, 40.1663 ], [ -3.6334, 40.1666 ], [ -3.6339, 40.1667 ], [ -3.635, 40.1674 ] ] ] } },
{ "type": "Feature", "properties": { "municipio": "Ciempozuelos", "clasificacion": "urbanizable-sectorizado", "calificacion": "sin-asignar", "version": "vigente", "fuente": "SIT-CAM WFS — UsoDelSuelo:VPLA_V_CLASIFICACION (https://idem.comunidad.madrid/geosrvg/ows)", "fecha_dato": "2026-05-12", "ambito": "71823", "_raw_CD_SIGLAS": "SUBS_A", "_raw_DS_CLASIF_GEN": "Suelo Urbanizable Sectorizado (APLAZADO)", "_raw_DS_CLASIF_DET": "Suelo Urbanizable Sectorizado", "_raw_DS_DOCU": "PLAN GENERAL", "_raw_DS_LEY": "CM Ley 9/2001, E Ley 6/1998", "_raw_FC_AC": "2008-07-03", "_raw_NM_AREA_M2": 3530415.89068363, "_cam_code": "040" }, "geometry": { "type": "Polygon", "coordinates": [ [ [ -3.6373, 40.1632 ], [ -3.6374, 40.1631 ], [ -3.6388, 40.163 ], [ -3.6421, 40.1634 ], [ -3.6436, 40.1624 ], [ -3.6434, 40.1617 ], [ -3.646, 40.1607 ], [ -3.6461, 40.1601 ], [ -3.648, 40.1589 ], [ -3.6501, 40.158 ], [ -3.6518, 40.157 ], [ -3.6532, 40.1558 ], [ -3.6534, 40.155 ], [ -3.6536, 40.1549 ], [ -3.636, 40.1391 ], [ -3.6346, 40.1397 ], [ -3.6341, 40.1401 ], [ -3.6337, 40.1401 ], [ -3.6321, 40.1423 ], [ -3.632, 40.1426 ], [ -3.6313, 40.1434 ], [ -3.6306, 40.1446 ], [ -3.6304, 40.1455 ], [ -3.6301, 40.1455 ], [ -3.6299, 40.1457 ], [ -3.6281, 40.1478 ], [ -3.6261, 40.1492 ], [ -3.6244, 40.1479 ], [ -3.6235, 40.1486 ], [ -3.6228, 40.1501 ], [ -3.6213, 40.1514 ], [ -3.6271, 40.151 ], [ -3.6271, 40.1511 ], [ -3.628, 40.1512 ], [ -3.6314, 40.1514 ], [ -3.6327, 40.1518 ], [ -3.6337, 40.1524 ], [ -3.6352, 40.1542 ], [ -3.6355, 40.155 ], [ -3.6351, 40.1552 ], [ -3.6351, 40.1554 ], [ -3.635, 40.1554 ], [ -3.6351, 40.1557 ], [ -3.635, 40.1558 ], [ -3.6338, 40.1557 ], [ -3.6338, 40.156 ], [ -3.6339, 40.156 ], [ -3.6335, 40.1565 ], [ -3.633, 40.1565 ], [ -3.6329, 40.1564 ], [ -3.6328, 40.1566 ], [ -3.6317, 40.1569 ], [ -3.6315, 40.1571 ], [ -3.6301, 40.1576 ], [ -3.6298, 40.1579 ], [ -3.6296, 40.1579 ], [ -3.6296, 40.158 ], [ -3.6291, 40.1582 ], [ -3.6286, 40.1586 ], [ -3.6284, 40.1586 ], [ -3.6284, 40.1587 ], [ -3.6273, 40.1588 ], [ -3.6261, 40.1594 ], [ -3.6257, 40.1594 ], [ -3.6259, 40.1609 ], [ -3.626, 40.1611 ], [ -3.6263, 40.1611 ], [ -3.6268, 40.1609 ], [ -3.6283, 40.161 ], [ -3.6292, 40.1608 ], [ -3.6306, 40.1608 ], [ -3.6306, 40.1609 ], [ -3.631, 40.1609 ], [ -3.631, 40.1611 ], [ -3.6308, 40.1613 ], [ -3.6304, 40.1613 ], [ -3.6305, 40.162 ], [ -3.6312, 40.1621 ], [ -3.631, 40.1626 ], [ -3.6353, 40.1623 ], [ -3.6352, 40.1633 ], [ -3.6373, 40.1632 ] ] ] } },
{ "type": "Feature", "properties": { "municipio": "Ciempozuelos", "clasificacion": "urbanizable-sectorizado", "calificacion": "sin-asignar", "version": "vigente", "fuente": "SIT-CAM WFS — UsoDelSuelo:VPLA_V_CLASIFICACION (https://idem.comunidad.madrid/geosrvg/ows)", "fecha_dato": "2026-05-12", "ambito": "71823", "_raw_CD_SIGLAS": "SUBS_A", "_raw_DS_CLASIF_GEN": "Suelo Urbanizable Sectorizado (APLAZADO)", "_raw_DS_CLASIF_DET": "Suelo Urbanizable Transitorio Incorporado", "_raw_DS_DOCU": "PLAN GENERAL", "_raw_DS_LEY": "CM Ley 9/2001, E Ley 6/1998", "_raw_FC_AC": "2008-07-03", "_raw_NM_AREA_M2": 61817.642679797696, "_cam_code": "040" }, "geometry": { "type": "Polygon", "coordinates": [ [ [ -3.6271, 40.1609 ], [ -3.6272, 40.1626 ], [ -3.6275, 40.1627 ], [ -3.6275, 40.1628 ], [ -3.631, 40.1626 ], [ -3.6312, 40.1621 ], [ -3.6305, 40.162 ], [ -3.6304, 40.1616 ], [ -3.6304, 40.1613 ], [ -3.6308, 40.1613 ], [ -3.631, 40.1611 ], [ -3.631, 40.1609 ], [ -3.6292, 40.1608 ], [ -3.6283, 40.161 ], [ -3.6271, 40.1609 ] ] ] } },
{ "type": "Feature", "properties": { "municipio": "Ciempozuelos", "clasificacion": "urbanizable-sectorizado", "calificacion": "sin-asignar", "version": "vigente", "fuente": "SIT-CAM WFS — UsoDelSuelo:VPLA_V_CLASIFICACION (https://idem.comunidad.madrid/geosrvg/ows)", "fecha_dato": "2026-05-12", "ambito": "71823", "_raw_CD_SIGLAS": "SUBS_A", "_raw_DS_CLASIF_GEN": "Suelo Urbanizable Sectorizado (APLAZADO)", "_raw_DS_CLASIF_DET": "Suelo Urbanizable Transitorio Incorporado", "_raw_DS_DOCU": "PLAN GENERAL", "_raw_DS_LEY": "CM Ley 9/2001, E Ley 6/1998", "_raw_FC_AC": "2008-07-03", "_raw_NM_AREA_M2": 230683.42530157499, "_cam_code": "040" }, "geometry": { "type": "Polygon", "coordinates": [ [ [ -3.6238, 40.167 ], [ -3.6266, 40.1685 ], [ -3.6289, 40.1691 ], [ -3.6294, 40.1692 ], [ -3.6299, 40.1691 ], [ -3.6301, 40.1692 ], [ -3.6301, 40.1694 ], [ -3.6313, 40.1697 ], [ -3.633, 40.1699 ], [ -3.633, 40.17 ], [ -3.6333, 40.17 ], [ -3.6333, 40.1701 ], [ -3.6339, 40.1703 ], [ -3.6342, 40.1706 ], [ -3.6346, 40.1706 ], [ -3.6354, 40.1701 ], [ -3.6354, 40.1702 ], [ -3.6366, 40.1675 ], [ -3.6367, 40.1668 ], [ -3.6378, 40.1653 ], [ -3.6382, 40.1651 ], [ -3.6362, 40.1651 ], [ -3.6361, 40.1653 ], [ -3.6356, 40.1653 ], [ -3.6354, 40.1651 ], [ -3.6351, 40.1651 ], [ -3.6351, 40.1665 ], [ -3.635, 40.1666 ], [ -3.6351, 40.1668 ], [ -3.635, 40.1669 ], [ -3.635, 40.1677 ], [ -3.6348, 40.1686 ], [ -3.6339, 40.1682 ], [ -3.6302, 40.1682 ], [ -3.6294, 40.1677 ], [ -3.6278, 40.1677 ], [ -3.6273, 40.1671 ], [ -3.6263, 40.1663 ], [ -3.6252, 40.1664 ], [ -3.6257, 40.1669 ], [ -3.6255, 40.167 ], [ -3.6249, 40.1664 ], [ -3.6237, 40.1664 ], [ -3.6235, 40.1665 ], [ -3.6237, 40.1666 ], [ -3.6238, 40.167 ] ] ] } },
{ "type": "Feature", "properties": { "municipio": "Ciempozuelos", "clasificacion": "urbanizable-sectorizado", "calificacion": "sin-asignar", "version": "vigente", "fuente": "SIT-CAM WFS — UsoDelSuelo:VPLA_V_CLASIFICACION (https://idem.comunidad.madrid/geosrvg/ows)", "fecha_dato": "2026-05-12", "ambito": "71823", "_raw_CD_SIGLAS": "SUBS_A", "_raw_DS_CLASIF_GEN": "Suelo Urbanizable Sectorizado (APLAZADO)", "_raw_DS_CLASIF_DET": "Suelo Urbanizable Sectorizado", "_raw_DS_DOCU": "PLAN GENERAL", "_raw_DS_LEY": "CM Ley 9/2001, E Ley 6/1998", "_raw_FC_AC": "2008-07-03", "_raw_NM_AREA_M2": 234.570736195118, "_cam_code": "040" }, "geometry": { "type": "Polygon", "coordinates": [ [ [ -3.656, 40.1253 ], [ -3.6562, 40.1253 ], [ -3.6559, 40.1251 ], [ -3.656, 40.1253 ] ] ] } },
{ "type": "Feature", "properties": { "municipio": "Ciempozuelos", "clasificacion": "urbanizable-sectorizado", "calificacion": "sin-asignar", "version": "vigente", "fuente": "SIT-CAM WFS — UsoDelSuelo:VPLA_V_CLASIFICACION (https://idem.comunidad.madrid/geosrvg/ows)", "fecha_dato": "2026-05-12", "ambito": "71823", "_raw_CD_SIGLAS": "SUBS_A", "_raw_DS_CLASIF_GEN": "Suelo Urbanizable Sectorizado (APLAZADO)", "_raw_DS_CLASIF_DET": "Suelo Urbanizable Sectorizado", "_raw_DS_DOCU": "PLAN GENERAL", "_raw_DS_LEY": "CM Ley 9/2001, E Ley 6/1998", "_raw_FC_AC": "2008-07-03", "_raw_NM_AREA_M2": 80427.168362546407, "_cam_code": "040" }, "geometry": { "type": "Polygon", "coordinates": [ [ [ -3.619, 40.1505 ], [ -3.6211, 40.1506 ], [ -3.6212, 40.151 ], [ -3.6225, 40.1499 ], [ -3.6233, 40.1482 ], [ -3.6227, 40.1476 ], [ -3.6211, 40.1475 ], [ -3.6194, 40.1499 ], [ -3.6191, 40.1505 ], [ -3.619, 40.1505 ] ] ] } },
{ "type": "Feature", "properties": { "municipio": "Ciempozuelos", "clasificacion": "urbano-consolidado", "calificacion": "sin-asignar", "version": "vigente", "fuente": "SIT-CAM WFS — UsoDelSuelo:VPLA_V_CLASIFICACION (https://idem.comunidad.madrid/geosrvg/ows)", "fecha_dato": "2026-05-12", "ambito": "71823", "_raw_CD_SIGLAS": "SUC", "_raw_DS_CLASIF_GEN": "Suelo Urbano Consolidado", "_raw_DS_CLASIF_DET": "Suelo Urbano Consolidado", "_raw_DS_DOCU": "PLAN GENERAL", "_raw_DS_LEY": "CM Ley 9/2001, E Ley 6/1998", "_raw_FC_AC": "2008-07-03", "_raw_NM_AREA_M2": 2037068.4018663301, "_cam_code": "040" }, "geometry": { "type": "Polygon", "coordinates": [ [ [ -3.6237, 40.1667 ], [ -3.6235, 40.1665 ], [ -3.6237, 40.1664 ], [ -3.6249, 40.1664 ], [ -3.6255, 40.167 ], [ -3.6257, 40.1669 ], [ -3.6252, 40.1664 ], [ -3.6263, 40.1663 ], [ -3.6273, 40.1671 ], [ -3.6278, 40.1677 ], [ -3.6294, 40.1677 ], [ -3.6302, 40.1682 ], [ -3.6339, 40.1682 ], [ -3.6348, 40.1686 ], [ -3.635, 40.1674 ], [ -3.6339, 40.1667 ], [ -3.6334, 40.1666 ], [ -3.6333, 40.1663 ], [ -3.6312, 40.1657 ], [ -3.631, 40.1654 ], [ -3.6303, 40.1651 ], [ -3.6354, 40.1651 ], [ -3.6356, 40.1653 ], [ -3.6361, 40.1653 ], [ -3.6362, 40.1651 ], [ -3.6382, 40.1651 ], [ -3.6384, 40.165 ], [ -3.637, 40.165 ], [ -3.6367, 40.1639 ], [ -3.6374, 40.1635 ], [ -3.6373, 40.1632 ], [ -3.6352, 40.1633 ], [ -3.6353, 40.1623 ], [ -3.6348, 40.1623 ], [ -3.6347, 40.1624 ], [ -3.6347, 40.1649 ], [ -3.6339, 40.165 ], [ -3.6297, 40.165 ], [ -3.6278, 40.1647 ], [ -3.6254, 40.1637 ], [ -3.6254, 40.1636 ], [ -3.6251, 40.1636 ], [ -3.6246, 40.1627 ], [ -3.6246, 40.1626 ], [ -3.625, 40.1625 ], [ -3.6246, 40.1613 ], [ -3.626, 40.1611 ], [ -3.6257, 40.1594 ], [ -3.6261, 40.1594 ], [ -3.6273, 40.1588 ], [ -3.6284, 40.1587 ], [ -3.6284, 40.1586 ], [ -3.6288, 40.1585 ], [ -3.6291, 40.1582 ], [ -3.6296, 40.158 ], [ -3.6296, 40.1579 ], [ -3.6298, 40.1579 ], [ -3.6301, 40.1576 ], [ -3.6315, 40.1571 ], [ -3.6317, 40.1569 ], [ -3.6328, 40.1566 ], [ -3.6329, 40.1564 ], [ -3.633, 40.1565 ], [ -3.6335, 40.1565 ], [ -3.6339, 40.156 ], [ -3.6338, 40.156 ], [ -3.6338, 40.1557 ], [ -3.635, 40.1558 ], [ -3.6351, 40.1557 ], [ -3.6351, 40.1555 ], [ -3.635, 40.1555 ], [ -3.6351, 40.1552 ], [ -3.6355, 40.155 ], [ -3.6351, 40.154 ], [ -3.6324, 40.1543 ], [ -3.632, 40.1545 ], [ -3.6314, 40.1545 ], [ -3.6306, 40.1548 ], [ -3.6297, 40.1548 ], [ -3.6297, 40.1549 ], [ -3.6293, 40.1549 ], [ -3.6293, 40.155 ], [ -3.6288, 40.1551 ], [ -3.6286, 40.1541 ], [ -3.6283, 40.1541 ], [ -3.6283, 40.1538 ], [ -3.6276, 40.1538 ], [ -3.6277, 40.1537 ], [ -3.6269, 40.1536 ], [ -3.6269, 40.1537 ], [ -3.6261, 40.1537 ], [ -3.6255, 40.1539 ], [ -3.6261, 40.1533 ], [ -3.6261, 40.153 ], [ -3.6228, 40.153 ], [ -3.6222, 40.1529 ], [ -3.6221, 40.153 ], [ -3.6221, 40.1528 ], [ -3.6202, 40.1526 ], [ -3.6198, 40.153 ], [ -3.619, 40.1516 ], [ -3.6187, 40.1514 ], [ -3.6186, 40.1517 ], [ -3.6182, 40.1519 ], [ -3.6167, 40.1523 ], [ -3.617, 40.1529 ], [ -3.6171, 40.1529 ], [ -3.6171, 40.1534 ], [ -3.6169, 40.1536 ], [ -3.6164, 40.1535 ], [ -3.6161, 40.1532 ], [ -3.6155, 40.1534 ], [ -3.6158, 40.1537 ], [ -3.6156, 40.1537 ], [ -3.6152, 40.1541 ], [ -3.6135, 40.1542 ], [ -3.6132, 40.1545 ], [ -3.6123, 40.1544 ], [ -3.6122, 40.1548 ], [ -3.6122, 40.1548 ], [ -3.6122, 40.1548 ], [ -3.6122, 40.1551 ], [ -3.6122, 40.155 ], [ -3.6123, 40.155 ], [ -3.613, 40.1548 ], [ -3.6135, 40.1553 ], [ -3.6127, 40.1558 ], [ -3.6128, 40.1559 ], [ -3.6129, 40.1558 ], [ -3.6131, 40.1563 ], [ -3.6143, 40.1561 ], [ -3.615, 40.1578 ], [ -3.6146, 40.1579 ], [ -3.6148, 40.1583 ], [ -3.6103, 40.1587 ], [ -3.6098, 40.1578 ], [ -3.6096, 40.1577 ], [ -3.6102, 40.159 ], [ -3.6102, 40.1592 ], [ -3.6101, 40.1592 ], [ -3.6103, 40.1596 ], [ -3.6102, 40.1596 ], [ -3.6112, 40.1623 ], [ -3.6113, 40.1624 ], [ -3.6114, 40.1622 ], [ -3.6116, 40.1622 ], [ -3.6125, 40.1637 ], [ -3.6169, 40.1637 ], [ -3.6168, 40.164 ], [ -3.6164, 40.1643 ], [ -3.6165, 40.1648 ], [ -3.6173, 40.1649 ], [ -3.6175, 40.1647 ], [ -3.6175, 40.1644 ], [ -3.6173, 40.1641 ], [ -3.6169, 40.164 ], [ -3.6169, 40.164 ], [ -3.6169, 40.164 ], [ -3.6169, 40.164 ], [ -3.6169, 40.164 ], [ -3.6169, 40.164 ], [ -3.6169, 40.164 ], [ -3.6169, 40.164 ], [ -3.6169, 40.164 ], [ -3.6169, 40.164 ], [ -3.6169, 40.1638 ], [ -3.6169, 40.1637 ], [ -3.6169, 40.1633 ], [ -3.617, 40.1633 ], [ -3.6171, 40.1636 ], [ -3.6177, 40.1636 ], [ -3.6179, 40.1638 ], [ -3.6179, 40.164 ], [ -3.6188, 40.1649 ], [ -3.6189, 40.1651 ], [ -3.6186, 40.1654 ], [ -3.6186, 40.1659 ], [ -3.619, 40.1662 ], [ -3.6201, 40.1651 ], [ -3.6203, 40.1651 ], [ -3.6211, 40.1657 ], [ -3.6216, 40.1657 ], [ -3.6217, 40.1665 ], [ -3.6218, 40.1665 ], [ -3.6217, 40.1665 ], [ -3.6217, 40.1667 ], [ -3.6224, 40.1665 ], [ -3.6237, 40.1667 ] ], [ [ -3.6267, 40.1649 ], [ -3.6271, 40.1645 ], [ -3.6274, 40.1647 ], [ -3.6289, 40.1649 ], [ -3.629, 40.1652 ], [ -3.6288, 40.1654 ], [ -3.6281, 40.1656 ], [ -3.6268, 40.165 ], [ -3.6267, 40.1649 ] ], [ [ -3.6167, 40.1614 ], [ -3.6166, 40.1614 ], [ -3.6167, 40.1614 ], [ -3.6174, 40.1614 ], [ -3.6176, 40.162 ], [ -3.6175, 40.1621 ], [ -3.6177, 40.1624 ], [ -3.6167, 40.1616 ], [ -3.6167, 40.1614 ] ], [ [ -3.6216, 40.1617 ], [ -3.6213, 40.1611 ], [ -3.6223, 40.1608 ], [ -3.6223, 40.1612 ], [ -3.6225, 40.1615 ], [ -3.6224, 40.1616 ], [ -3.6224, 40.1614 ], [ -3.6216, 40.1617 ] ], [ [ -3.6102, 40.1587 ], [ -3.6107, 40.1593 ], [ -3.6107, 40.1595 ], [ -3.6104, 40.1594 ], [ -3.6102, 40.1587 ] ], [ [ -3.6221, 40.1587 ], [ -3.6226, 40.1585 ], [ -3.6227, 40.1589 ], [ -3.6223, 40.159 ], [ -3.6221, 40.1587 ] ], [ [ -3.6253, 40.1556 ], [ -3.6258, 40.1554 ], [ -3.6261, 40.1557 ], [ -3.6259, 40.1558 ], [ -3.626, 40.156 ], [ -3.6258, 40.1561 ], [ -3.6256, 40.1558 ], [ -3.6253, 40.1557 ], [ -3.6253, 40.1556 ] ] ] } },
{ "type": "Feature", "properties": { "municipio": "Ciempozuelos", "clasificacion": "urbano-consolidado", "calificacion": "sin-asignar", "version": "vigente", "fuente": "SIT-CAM WFS — UsoDelSuelo:VPLA_V_CLASIFICACION (https://idem.comunidad.madrid/geosrvg/ows)", "fecha_dato": "2026-05-12", "ambito": "71823", "_raw_CD_SIGLAS": "SUC", "_raw_DS_CLASIF_GEN": "Suelo Urbano Consolidado (INCORPORADO)", "_raw_DS_CLASIF_DET": "Suelo Urbano Consolidado Incorporado", "_raw_DS_DOCU": "PLAN GENERAL", "_raw_DS_LEY": "CM Ley 9/2001, E Ley 6/1998", "_raw_FC_AC": "2008-07-03", "_raw_NM_AREA_M2": 871513.33966248098, "_cam_code": "040" }, "geometry": { "type": "Polygon", "coordinates": [ [ [ -3.6491, 40.1291 ], [ -3.6506, 40.1415 ], [ -3.6579, 40.141 ], [ -3.6565, 40.1285 ], [ -3.6491, 40.1291 ] ] ] } },
{ "type": "Feature", "properties": { "municipio": "Ciempozuelos", "clasificacion": "urbano-consolidado", "calificacion": "sin-asignar", "version": "vigente", "fuente": "SIT-CAM WFS — UsoDelSuelo:VPLA_V_CLASIFICACION (https://idem.comunidad.madrid/geosrvg/ows)", "fecha_dato": "2026-05-12", "ambito": "71823", "_raw_CD_SIGLAS": "SUC", "_raw_DS_CLASIF_GEN": "Suelo Urbano Consolidado (INCORPORADO)", "_raw_DS_CLASIF_DET": "Suelo Urbano Consolidado Incorporado", "_raw_DS_DOCU": "PLAN GENERAL", "_raw_DS_LEY": "CM Ley 9/2001, E Ley 6/1998", "_raw_FC_AC": "2008-07-03", "_raw_NM_AREA_M2": 92892.456041961996, "_cam_code": "040" }, "geometry": { "type": "Polygon", "coordinates": [ [ [ -3.6261, 40.164 ], [ -3.6274, 40.1645 ], [ -3.6274, 40.1646 ], [ -3.6297, 40.165 ], [ -3.631, 40.1626 ], [ -3.6275, 40.1628 ], [ -3.6275, 40.1627 ], [ -3.6272, 40.1626 ], [ -3.6271, 40.1609 ], [ -3.6263, 40.1611 ], [ -3.6256, 40.1611 ], [ -3.6256, 40.1612 ], [ -3.6261, 40.1612 ], [ -3.6262, 40.1629 ], [ -3.6263, 40.1634 ], [ -3.6265, 40.1635 ], [ -3.6261, 40.164 ] ] ] } },
{ "type": "Feature", "properties": { "municipio": "Ciempozuelos", "clasificacion": "urbano-consolidado", "calificacion": "sin-asignar", "version": "vigente", "fuente": "SIT-CAM WFS — UsoDelSuelo:VPLA_V_CLASIFICACION (https://idem.comunidad.madrid/geosrvg/ows)", "fecha_dato": "2026-05-12", "ambito": "71823", "_raw_CD_SIGLAS": "SUC", "_raw_DS_CLASIF_GEN": "Suelo Urbano Consolidado (INCORPORADO)", "_raw_DS_CLASIF_DET": "Suelo Urbano Consolidado Incorporado", "_raw_DS_DOCU": "PLAN GENERAL", "_raw_DS_LEY": "CM Ley 9/2001, E Ley 6/1998", "_raw_FC_AC": "2008-07-03", "_raw_NM_AREA_M2": 648102.20330752304, "_cam_code": "040" }, "geometry": { "type": "Polygon", "coordinates": [ [ [ -3.6297, 40.1758 ], [ -3.6309, 40.1759 ], [ -3.6318, 40.1752 ], [ -3.6336, 40.1741 ], [ -3.6337, 40.1737 ], [ -3.6341, 40.1734 ], [ -3.6346, 40.1724 ], [ -3.6347, 40.1724 ], [ -3.6352, 40.1719 ], [ -3.6353, 40.1717 ], [ -3.6353, 40.1718 ], [ -3.6351, 40.1718 ], [ -3.635, 40.1718 ], [ -3.6347, 40.1719 ], [ -3.6342, 40.1716 ], [ -3.6342, 40.1713 ], [ -3.6347, 40.1709 ], [ -3.6339, 40.1703 ], [ -3.6333, 40.1701 ], [ -3.6333, 40.17 ], [ -3.633, 40.17 ], [ -3.633, 40.1699 ], [ -3.6313, 40.1697 ], [ -3.6301, 40.1694 ], [ -3.6301, 40.1692 ], [ -3.6299, 40.1691 ], [ -3.6296, 40.1692 ], [ -3.6289, 40.1691 ], [ -3.6266, 40.1685 ], [ -3.6261, 40.1682 ], [ -3.6235, 40.1701 ], [ -3.622, 40.1686 ], [ -3.6221, 40.1681 ], [ -3.6216, 40.1682 ], [ -3.621, 40.1686 ], [ -3.6209, 40.1688 ], [ -3.6202, 40.1683 ], [ -3.6196, 40.1681 ], [ -3.6188, 40.1681 ], [ -3.617, 40.1675 ], [ -3.6158, 40.1675 ], [ -3.618, 40.1692 ], [ -3.6218, 40.1711 ], [ -3.626, 40.1738 ], [ -3.6267, 40.1737 ], [ -3.6284, 40.1752 ], [ -3.6297, 40.1758 ] ] ] } },
{ "type": "Feature", "properties": { "municipio": "Ciempozuelos", "clasificacion": "urbano-consolidado", "calificacion": "sin-asignar", "version": "vigente", "fuente": "SIT-CAM WFS — UsoDelSuelo:VPLA_V_CLASIFICACION (https://idem.comunidad.madrid/geosrvg/ows)", "fecha_dato": "2026-05-12", "ambito": "71823", "_raw_CD_SIGLAS": "SUC", "_raw_DS_CLASIF_GEN": "Suelo Urbano Consolidado", "_raw_DS_CLASIF_DET": "Suelo Urbano Consolidado", "_raw_DS_DOCU": "PLAN GENERAL", "_raw_DS_LEY": "CM Ley 9/2001, E Ley 6/1998", "_raw_FC_AC": "2008-07-03", "_raw_NM_AREA_M2": 16578.152448609999, "_cam_code": "040" }, "geometry": { "type": "Polygon", "coordinates": [ [ [ -3.6158, 40.1675 ], [ -3.6174, 40.1675 ], [ -3.6179, 40.1674 ], [ -3.6179, 40.1673 ], [ -3.6196, 40.167 ], [ -3.6196, 40.1669 ], [ -3.6185, 40.1671 ], [ -3.6186, 40.1667 ], [ -3.6166, 40.1669 ], [ -3.6158, 40.1671 ], [ -3.6153, 40.1669 ], [ -3.6158, 40.1675 ] ] ] } },
{ "type": "Feature", "properties": { "municipio": "Ciempozuelos", "clasificacion": "urbano-consolidado", "calificacion": "sin-asignar", "version": "vigente", "fuente": "SIT-CAM WFS — UsoDelSuelo:VPLA_V_CLASIFICACION (https://idem.comunidad.madrid/geosrvg/ows)", "fecha_dato": "2026-05-12", "ambito": "71823", "_raw_CD_SIGLAS": "SUC", "_raw_DS_CLASIF_GEN": "Suelo Urbano Consolidado (INCORPORADO)", "_raw_DS_CLASIF_DET": "Suelo Urbano Consolidado Incorporado", "_raw_DS_DOCU": "PLAN GENERAL", "_raw_DS_LEY": "CM Ley 9/2001, E Ley 6/1998", "_raw_FC_AC": "2008-07-03", "_raw_NM_AREA_M2": 34705.811738650402, "_cam_code": "040" }, "geometry": { "type": "Polygon", "coordinates": [ [ [ -3.6186, 40.1659 ], [ -3.6185, 40.1671 ], [ -3.6192, 40.1669 ], [ -3.6196, 40.1669 ], [ -3.6196, 40.167 ], [ -3.62, 40.1668 ], [ -3.6218, 40.1665 ], [ -3.6217, 40.1665 ], [ -3.6216, 40.1657 ], [ -3.6211, 40.1657 ], [ -3.6203, 40.1651 ], [ -3.6201, 40.1651 ], [ -3.619, 40.1662 ], [ -3.6186, 40.1659 ] ] ] } },
{ "type": "Feature", "properties": { "municipio": "Ciempozuelos", "clasificacion": "urbano-consolidado", "calificacion": "sin-asignar", "version": "vigente", "fuente": "SIT-CAM WFS — UsoDelSuelo:VPLA_V_CLASIFICACION (https://idem.comunidad.madrid/geosrvg/ows)", "fecha_dato": "2026-05-12", "ambito": "71823", "_raw_CD_SIGLAS": "SUC", "_raw_DS_CLASIF_GEN": "Suelo Urbano Consolidado (INCORPORADO)", "_raw_DS_CLASIF_DET": "Suelo Urbano Consolidado Incorporado", "_raw_DS_DOCU": "PLAN GENERAL", "_raw_DS_LEY": "CM Ley 9/2001, E Ley 6/1998", "_raw_FC_AC": "2008-07-03", "_raw_NM_AREA_M2": 34886.3270112604, "_cam_code": "040" }, "geometry": { "type": "Polygon", "coordinates": [ [ [ -3.6085, 40.1604 ], [ -3.6096, 40.1613 ], [ -3.6108, 40.1621 ], [ -3.6104, 40.161 ], [ -3.6103, 40.161 ], [ -3.61, 40.1596 ], [ -3.607, 40.1593 ], [ -3.607, 40.1595 ], [ -3.6076, 40.16 ], [ -3.6082, 40.1599 ], [ -3.6085, 40.1604 ] ] ] } },
{ "type": "Feature", "properties": { "municipio": "Ciempozuelos", "clasificacion": "urbano-consolidado", "calificacion": "sin-asignar", "version": "vigente", "fuente": "SIT-CAM WFS — UsoDelSuelo:VPLA_V_CLASIFICACION (https://idem.comunidad.madrid/geosrvg/ows)", "fecha_dato": "2026-05-12", "ambito": "71823", "_raw_CD_SIGLAS": "SUC", "_raw_DS_CLASIF_GEN": "Suelo Urbano Consolidado (INCORPORADO)", "_raw_DS_CLASIF_DET": "Suelo Urbano Consolidado Incorporado", "_raw_DS_DOCU": "PLAN GENERAL", "_raw_DS_LEY": "CM Ley 9/2001, E Ley 6/1998", "_raw_FC_AC": "2008-07-03", "_raw_NM_AREA_M2": 212329.532603361, "_cam_code": "040" }, "geometry": { "type": "Polygon", "coordinates": [ [ [ -3.6312, 40.1759 ], [ -3.6354, 40.1773 ], [ -3.6366, 40.1782 ], [ -3.6392, 40.1772 ], [ -3.6379, 40.1749 ], [ -3.6372, 40.1741 ], [ -3.6364, 40.1735 ], [ -3.6355, 40.172 ], [ -3.6347, 40.1726 ], [ -3.6345, 40.1732 ], [ -3.6341, 40.1738 ], [ -3.6338, 40.174 ], [ -3.6338, 40.1742 ], [ -3.6312, 40.1759 ] ] ] } },
{ "type": "Feature", "properties": { "municipio": "Ciempozuelos", "clasificacion": "urbano-consolidado", "calificacion": "sin-asignar", "version": "vigente", "fuente": "SIT-CAM WFS — UsoDelSuelo:VPLA_V_CLASIFICACION (https://idem.comunidad.madrid/geosrvg/ows)", "fecha_dato": "2026-05-12", "ambito": "71823", "_raw_CD_SIGLAS": "SUC", "_raw_DS_CLASIF_GEN": "Suelo Urbano Consolidado", "_raw_DS_CLASIF_DET": "Suelo Urbano Consolidado", "_raw_DS_DOCU": "PLAN GENERAL", "_raw_DS_LEY": "CM Ley 9/2001, E Ley 6/1998", "_raw_FC_AC": "2008-07-03", "_raw_NM_AREA_M2": 32146.520775000099, "_cam_code": "040" }, "geometry": { "type": "Polygon", "coordinates": [ [ [ -3.607, 40.1593 ], [ -3.6086, 40.1594 ], [ -3.6086, 40.1595 ], [ -3.6097, 40.1595 ], [ -3.6099, 40.1596 ], [ -3.6092, 40.1576 ], [ -3.6075, 40.1584 ], [ -3.6074, 40.1586 ], [ -3.6066, 40.1589 ], [ -3.6069, 40.1592 ], [ -3.6069, 40.1594 ], [ -3.607, 40.1593 ] ] ] } },
{ "type": "Feature", "properties": { "municipio": "Ciempozuelos", "clasificacion": "urbano-consolidado", "calificacion": "sin-asignar", "version": "vigente", "fuente": "SIT-CAM WFS — UsoDelSuelo:VPLA_V_CLASIFICACION (https://idem.comunidad.madrid/geosrvg/ows)", "fecha_dato": "2026-05-12", "ambito": "71823", "_raw_CD_SIGLAS": "SUC", "_raw_DS_CLASIF_GEN": "Suelo Urbano Consolidado (INCORPORADO)", "_raw_DS_CLASIF_DET": "Suelo Urbano Consolidado Incorporado", "_raw_DS_DOCU": "PLAN GENERAL", "_raw_DS_LEY": "CM Ley 9/2001, E Ley 6/1998", "_raw_FC_AC": "2008-07-03", "_raw_NM_AREA_M2": 217957.459480297, "_cam_code": "040" }, "geometry": { "type": "Polygon", "coordinates": [ [ [ -3.6263, 40.1523 ], [ -3.6261, 40.1533 ], [ -3.6255, 40.1539 ], [ -3.6261, 40.1537 ], [ -3.6269, 40.1537 ], [ -3.6269, 40.1536 ], [ -3.6277, 40.1537 ], [ -3.6276, 40.1538 ], [ -3.6283, 40.1538 ], [ -3.6283, 40.1541 ], [ -3.6286, 40.1541 ], [ -3.6288, 40.1551 ], [ -3.6293, 40.155 ], [ -3.6293, 40.1549 ], [ -3.6297, 40.1549 ], [ -3.6297, 40.1548 ], [ -3.6306, 40.1548 ], [ -3.6314, 40.1545 ], [ -3.632, 40.1545 ], [ -3.6324, 40.1543 ], [ -3.6351, 40.154 ], [ -3.6337, 40.1524 ], [ -3.6322, 40.1516 ], [ -3.6308, 40.1513 ], [ -3.628, 40.1512 ], [ -3.6267, 40.151 ], [ -3.6266, 40.1511 ], [ -3.6268, 40.1513 ], [ -3.6263, 40.1523 ] ] ] } },
{ "type": "Feature", "properties": { "municipio": "Ciempozuelos", "clasificacion": "urbano-consolidado", "calificacion": "sin-asignar", "version": "vigente", "fuente": "SIT-CAM WFS — UsoDelSuelo:VPLA_V_CLASIFICACION (https://idem.comunidad.madrid/geosrvg/ows)", "fecha_dato": "2026-05-12", "ambito": "71823", "_raw_CD_SIGLAS": "SUC", "_raw_DS_CLASIF_GEN": "Suelo Urbano Consolidado (INCORPORADO)", "_raw_DS_CLASIF_DET": "Suelo Urbano Consolidado Incorporado", "_raw_DS_DOCU": "PLAN GENERAL", "_raw_DS_LEY": "CM Ley 9/2001, E Ley 6/1998", "_raw_FC_AC": "2008-07-03", "_raw_NM_AREA_M2": 81281.021226332101, "_cam_code": "040" }, "geometry": { "type": "Polygon", "coordinates": [ [ [ -3.6121, 40.1544 ], [ -3.6132, 40.1545 ], [ -3.6135, 40.1542 ], [ -3.6152, 40.1541 ], [ -3.6156, 40.1537 ], [ -3.6158, 40.1537 ], [ -3.6155, 40.1534 ], [ -3.6161, 40.1532 ], [ -3.6164, 40.1535 ], [ -3.6169, 40.1536 ], [ -3.6171, 40.1534 ], [ -3.6171, 40.1529 ], [ -3.617, 40.1529 ], [ -3.6167, 40.1523 ], [ -3.6131, 40.1534 ], [ -3.6129, 40.1529 ], [ -3.6122, 40.1525 ], [ -3.6122, 40.1524 ], [ -3.6113, 40.1522 ], [ -3.6103, 40.154 ], [ -3.6121, 40.1545 ], [ -3.6121, 40.1544 ] ] ] } },
{ "type": "Feature", "properties": { "municipio": "Ciempozuelos", "clasificacion": "urbano-no-consolidado", "calificacion": "sin-asignar", "version": "vigente", "fuente": "SIT-CAM WFS — UsoDelSuelo:VPLA_V_CLASIFICACION (https://idem.comunidad.madrid/geosrvg/ows)", "fecha_dato": "2026-05-12", "ambito": "71823", "_raw_CD_SIGLAS": "SUNC", "_raw_DS_CLASIF_GEN": "Suelo Urbano No Consolidado", "_raw_DS_CLASIF_DET": "Suelo Urbano No Consolidado", "_raw_DS_DOCU": "PLAN GENERAL", "_raw_DS_LEY": "CM Ley 9/2001, E Ley 6/1998", "_raw_FC_AC": "2008-07-03", "_raw_NM_AREA_M2": 3713.74320995379, "_cam_code": "040" }, "geometry": { "type": "Polygon", "coordinates": [ [ [ -3.6166, 40.1614 ], [ -3.6167, 40.1614 ], [ -3.6167, 40.1616 ], [ -3.6177, 40.1624 ], [ -3.6175, 40.1621 ], [ -3.6176, 40.162 ], [ -3.6174, 40.1614 ], [ -3.6174, 40.1614 ], [ -3.6174, 40.1614 ], [ -3.6174, 40.1614 ], [ -3.6174, 40.1614 ], [ -3.6174, 40.1614 ], [ -3.6174, 40.1614 ], [ -3.6174, 40.1614 ], [ -3.6172, 40.1614 ], [ -3.6172, 40.1614 ], [ -3.6172, 40.1614 ], [ -3.617, 40.1614 ], [ -3.6168, 40.1614 ], [ -3.6168, 40.1614 ], [ -3.6167, 40.1614 ], [ -3.6166, 40.1614 ] ] ] } },
{ "type": "Feature", "properties": { "municipio": "Ciempozuelos", "clasificacion": "urbano-no-consolidado", "calificacion": "sin-asignar", "version": "vigente", "fuente": "SIT-CAM WFS — UsoDelSuelo:VPLA_V_CLASIFICACION (https://idem.comunidad.madrid/geosrvg/ows)", "fecha_dato": "2026-05-12", "ambito": "71823", "_raw_CD_SIGLAS": "SUNC", "_raw_DS_CLASIF_GEN": "Suelo Urbano No Consolidado", "_raw_DS_CLASIF_DET": "Suelo Urbano No Consolidado", "_raw_DS_DOCU": "PLAN GENERAL", "_raw_DS_LEY": "CM Ley 9/2001, E Ley 6/1998", "_raw_FC_AC": "2008-07-03", "_raw_NM_AREA_M2": 2175.9212275052901, "_cam_code": "040" }, "geometry": { "type": "Polygon", "coordinates": [ [ [ -3.6258, 40.1554 ], [ -3.6253, 40.1556 ], [ -3.6253, 40.1557 ], [ -3.6256, 40.1558 ], [ -3.6258, 40.1561 ], [ -3.626, 40.156 ], [ -3.6259, 40.1558 ], [ -3.6261, 40.1557 ], [ -3.6258, 40.1554 ] ] ] } },
{ "type": "Feature", "properties": { "municipio": "Ciempozuelos", "clasificacion": "urbano-no-consolidado", "calificacion": "sin-asignar", "version": "vigente", "fuente": "SIT-CAM WFS — UsoDelSuelo:VPLA_V_CLASIFICACION (https://idem.comunidad.madrid/geosrvg/ows)", "fecha_dato": "2026-05-12", "ambito": "71823", "_raw_CD_SIGLAS": "SUNC", "_raw_DS_CLASIF_GEN": "Suelo Urbano No Consolidado", "_raw_DS_CLASIF_DET": "Suelo Urbano No Consolidado", "_raw_DS_DOCU": "PLAN GENERAL", "_raw_DS_LEY": "CM Ley 9/2001, E Ley 6/1998", "_raw_FC_AC": "2008-07-03", "_raw_NM_AREA_M2": 1866.21609789486, "_cam_code": "040" }, "geometry": { "type": "Polygon", "coordinates": [ [ [ -3.6226, 40.1585 ], [ -3.6221, 40.1587 ], [ -3.6223, 40.159 ], [ -3.6227, 40.1589 ], [ -3.6226, 40.1585 ] ] ] } },
{ "type": "Feature", "properties": { "municipio": "Ciempozuelos", "clasificacion": "urbano-no-consolidado", "calificacion": "sin-asignar", "version": "vigente", "fuente": "SIT-CAM WFS — UsoDelSuelo:VPLA_V_CLASIFICACION (https://idem.comunidad.madrid/geosrvg/ows)", "fecha_dato": "2026-05-12", "ambito": "71823", "_raw_CD_SIGLAS": "SUNC", "_raw_DS_CLASIF_GEN": "Suelo Urbano No Consolidado", "_raw_DS_CLASIF_DET": "Suelo Urbano No Consolidado", "_raw_DS_DOCU": "PLAN GENERAL", "_raw_DS_LEY": "CM Ley 9/2001, E Ley 6/1998", "_raw_FC_AC": "2008-07-03", "_raw_NM_AREA_M2": 1220.56695083509, "_cam_code": "040" }, "geometry": { "type": "Polygon", "coordinates": [ [ [ -3.6102, 40.1587 ], [ -3.6104, 40.1594 ], [ -3.6107, 40.1595 ], [ -3.6107, 40.1593 ], [ -3.6102, 40.1587 ] ] ] } },
{ "type": "Feature", "properties": { "municipio": "Ciempozuelos", "clasificacion": "urbano-no-consolidado", "calificacion": "sin-asignar", "version": "vigente", "fuente": "SIT-CAM WFS — UsoDelSuelo:VPLA_V_CLASIFICACION (https://idem.comunidad.madrid/geosrvg/ows)", "fecha_dato": "2026-05-12", "ambito": "71823", "_raw_CD_SIGLAS": "SUNC", "_raw_DS_CLASIF_GEN": "Suelo Urbano No Consolidado", "_raw_DS_CLASIF_DET": "Suelo Urbano No Consolidado", "_raw_DS_DOCU": "PLAN GENERAL", "_raw_DS_LEY": "CM Ley 9/2001, E Ley 6/1998", "_raw_FC_AC": "2008-07-03", "_raw_NM_AREA_M2": 119961.982953011, "_cam_code": "040" }, "geometry": { "type": "Polygon", "coordinates": [ [ [ -3.6104, 40.161 ], [ -3.6109, 40.1624 ], [ -3.6111, 40.1625 ], [ -3.6113, 40.1624 ], [ -3.6102, 40.1596 ], [ -3.6103, 40.1596 ], [ -3.6101, 40.1592 ], [ -3.6102, 40.1592 ], [ -3.6102, 40.159 ], [ -3.6096, 40.1577 ], [ -3.6095, 40.1577 ], [ -3.6118, 40.1568 ], [ -3.6119, 40.1564 ], [ -3.6128, 40.1559 ], [ -3.6127, 40.1558 ], [ -3.6135, 40.1553 ], [ -3.613, 40.1548 ], [ -3.6123, 40.155 ], [ -3.6122, 40.155 ], [ -3.6122, 40.1551 ], [ -3.6122, 40.1548 ], [ -3.6123, 40.1544 ], [ -3.6121, 40.1544 ], [ -3.6121, 40.1545 ], [ -3.6103, 40.154 ], [ -3.6101, 40.1544 ], [ -3.6083, 40.155 ], [ -3.6088, 40.1562 ], [ -3.6088, 40.1565 ], [ -3.6098, 40.1595 ], [ -3.61, 40.1596 ], [ -3.6103, 40.161 ], [ -3.6104, 40.161 ] ] ] } },
{ "type": "Feature", "properties": { "municipio": "Ciempozuelos", "clasificacion": "urbano-no-consolidado", "calificacion": "sin-asignar", "version": "vigente", "fuente": "SIT-CAM WFS — UsoDelSuelo:VPLA_V_CLASIFICACION (https://idem.comunidad.madrid/geosrvg/ows)", "fecha_dato": "2026-05-12", "ambito": "71823", "_raw_CD_SIGLAS": "SUNC", "_raw_DS_CLASIF_GEN": "Suelo Urbano No Consolidado", "_raw_DS_CLASIF_DET": "Suelo Urbano No Consolidado", "_raw_DS_DOCU": "PLAN GENERAL", "_raw_DS_LEY": "CM Ley 9/2001, E Ley 6/1998", "_raw_FC_AC": "2008-07-03", "_raw_NM_AREA_M2": 137599.18220077801, "_cam_code": "040" }, "geometry": { "type": "Polygon", "coordinates": [ [ [ -3.6142, 40.1497 ], [ -3.6146, 40.1503 ], [ -3.6166, 40.1524 ], [ -3.6186, 40.1517 ], [ -3.6186, 40.1515 ], [ -3.6188, 40.1513 ], [ -3.6183, 40.1505 ], [ -3.6191, 40.1505 ], [ -3.6184, 40.1504 ], [ -3.618, 40.1496 ], [ -3.6179, 40.1491 ], [ -3.6167, 40.1474 ], [ -3.6135, 40.1488 ], [ -3.6134, 40.1489 ], [ -3.6142, 40.1497 ] ] ] } },
{ "type": "Feature", "properties": { "municipio": "Ciempozuelos", "clasificacion": "urbano-no-consolidado", "calificacion": "sin-asignar", "version": "vigente", "fuente": "SIT-CAM WFS — UsoDelSuelo:VPLA_V_CLASIFICACION (https://idem.comunidad.madrid/geosrvg/ows)", "fecha_dato": "2026-05-12", "ambito": "71823", "_raw_CD_SIGLAS": "SUNC", "_raw_DS_CLASIF_GEN": "Suelo Urbano No Consolidado", "_raw_DS_CLASIF_DET": "Suelo Urbano No Consolidado", "_raw_DS_DOCU": "PLAN GENERAL", "_raw_DS_LEY": "CM Ley 9/2001, E Ley 6/1998", "_raw_FC_AC": "2008-07-03", "_raw_NM_AREA_M2": 101808.676356647, "_cam_code": "040" }, "geometry": { "type": "Polygon", "coordinates": [ [ [ -3.6297, 40.165 ], [ -3.6339, 40.165 ], [ -3.6347, 40.1649 ], [ -3.6347, 40.1624 ], [ -3.631, 40.1626 ], [ -3.6297, 40.165 ] ] ] } },
{ "type": "Feature", "properties": { "municipio": "Ciempozuelos", "clasificacion": "urbano-no-consolidado", "calificacion": "sin-asignar", "version": "vigente", "fuente": "SIT-CAM WFS — UsoDelSuelo:VPLA_V_CLASIFICACION (https://idem.comunidad.madrid/geosrvg/ows)", "fecha_dato": "2026-05-12", "ambito": "71823", "_raw_CD_SIGLAS": "SUNC", "_raw_DS_CLASIF_GEN": "Suelo Urbano No Consolidado", "_raw_DS_CLASIF_DET": "Suelo Urbano No Consolidado", "_raw_DS_DOCU": "PLAN GENERAL", "_raw_DS_LEY": "CM Ley 9/2001, E Ley 6/1998", "_raw_FC_AC": "2008-07-03", "_raw_NM_AREA_M2": 75543.328247655707, "_cam_code": "040" }, "geometry": { "type": "Polygon", "coordinates": [ [ [ -3.6218, 40.1666 ], [ -3.6219, 40.1667 ], [ -3.6219, 40.1671 ], [ -3.6222, 40.1678 ], [ -3.6221, 40.1686 ], [ -3.6235, 40.17 ], [ -3.626, 40.1682 ], [ -3.6238, 40.167 ], [ -3.6237, 40.1667 ], [ -3.6227, 40.1666 ], [ -3.6227, 40.1665 ], [ -3.6218, 40.1666 ] ] ] } },
{ "type": "Feature", "properties": { "municipio": "Ciempozuelos", "clasificacion": "urbano-no-consolidado", "calificacion": "sin-asignar", "version": "vigente", "fuente": "SIT-CAM WFS — UsoDelSuelo:VPLA_V_CLASIFICACION (https://idem.comunidad.madrid/geosrvg/ows)", "fecha_dato": "2026-05-12", "ambito": "71823", "_raw_CD_SIGLAS": "SUNC", "_raw_DS_CLASIF_GEN": "Suelo Urbano No Consolidado", "_raw_DS_CLASIF_DET": "Suelo Urbano No Consolidado", "_raw_DS_DOCU": "PLAN GENERAL", "_raw_DS_LEY": "CM Ley 9/2001, E Ley 6/1998", "_raw_FC_AC": "2008-07-03", "_raw_NM_AREA_M2": 12250.2004324466, "_cam_code": "040" }, "geometry": { "type": "Polygon", "coordinates": [ [ [ -3.6271, 40.1645 ], [ -3.6267, 40.1649 ], [ -3.6268, 40.165 ], [ -3.6281, 40.1656 ], [ -3.6288, 40.1654 ], [ -3.629, 40.1652 ], [ -3.6289, 40.1649 ], [ -3.6274, 40.1647 ], [ -3.6271, 40.1645 ] ] ] } },
{ "type": "Feature", "properties": { "municipio": "Ciempozuelos", "clasificacion": "urbano-no-consolidado", "calificacion": "sin-asignar", "version": "vigente", "fuente": "SIT-CAM WFS — UsoDelSuelo:VPLA_V_CLASIFICACION (https://idem.comunidad.madrid/geosrvg/ows)", "fecha_dato": "2026-05-12", "ambito": "71823", "_raw_CD_SIGLAS": "SUNC", "_raw_DS_CLASIF_GEN": "Suelo Urbano No Consolidado", "_raw_DS_CLASIF_DET": "Suelo Urbano No Consolidado", "_raw_DS_DOCU": "PLAN GENERAL", "_raw_DS_LEY": "CM Ley 9/2001, E Ley 6/1998", "_raw_FC_AC": "2008-07-03", "_raw_NM_AREA_M2": 5708.24496243249, "_cam_code": "040" }, "geometry": { "type": "Polygon", "coordinates": [ [ [ -3.6216, 40.1617 ], [ -3.6224, 40.1614 ], [ -3.6224, 40.1615 ], [ -3.6224, 40.1616 ], [ -3.6225, 40.1615 ], [ -3.6223, 40.1612 ], [ -3.6223, 40.1608 ], [ -3.6213, 40.1611 ], [ -3.6216, 40.1617 ] ] ] } }
]
}
