{
"type": "FeatureCollection",
"name": "vigente.full",
"features": [
{ "type": "Feature", "properties": { "municipio": "Braojos", "clasificacion": "no-urbanizable-protegido", "calificacion": "sin-asignar", "version": "vigente", "fuente": "SIT-CAM WFS — UsoDelSuelo:VPLA_V_CLASIFICACION (https://idem.comunidad.madrid/geosrvg/ows)", "fecha_dato": "2026-05-12", "ambito": "19037", "_raw_CD_SIGLAS": "SNUP", "_raw_DS_CLASIF_GEN": "Suelo No Urbanizable Protegido", "_raw_DS_CLASIF_DET": "Suelo No Urbanizable Protegido por cauces", "_raw_DS_DOCU": "NORMAS SUBSIDIARIAS", "_raw_DS_LEY": "CM Ley 4/1984, E RD 1346/1976", "_raw_FC_AC": "1992-07-23", "_raw_NM_AREA_M2": 121401.29591676001, "_cam_code": "024" }, "geometry": { "type": "Polygon", "coordinates": [ [ [ -3.6438, 41.0441 ], [ -3.6447, 41.044 ], [ -3.6447, 41.0433 ], [ -3.6451, 41.0429 ], [ -3.6456, 41.0427 ], [ -3.6458, 41.0424 ], [ -3.6461, 41.0412 ], [ -3.6459, 41.0408 ], [ -3.6461, 41.0406 ], [ -3.6458, 41.0402 ], [ -3.6458, 41.0388 ], [ -3.6461, 41.0381 ], [ -3.6462, 41.0374 ], [ -3.646, 41.0367 ], [ -3.6453, 41.036 ], [ -3.6453, 41.0356 ], [ -3.6446, 41.0354 ], [ -3.6448, 41.0348 ], [ -3.6444, 41.0341 ], [ -3.6442, 41.0339 ], [ -3.6436, 41.0338 ], [ -3.6432, 41.0334 ], [ -3.6434, 41.0331 ], [ -3.6432, 41.0325 ], [ -3.642, 41.032 ], [ -3.6423, 41.0325 ], [ -3.6424, 41.0333 ], [ -3.642, 41.0335 ], [ -3.6422, 41.0339 ], [ -3.6424, 41.0341 ], [ -3.6431, 41.0342 ], [ -3.6433, 41.034 ], [ -3.6444, 41.0348 ], [ -3.6445, 41.0358 ], [ -3.6444, 41.0359 ], [ -3.6447, 41.0362 ], [ -3.645, 41.0372 ], [ -3.6449, 41.0374 ], [ -3.645, 41.0377 ], [ -3.6448, 41.0383 ], [ -3.6445, 41.0386 ], [ -3.6445, 41.0387 ], [ -3.6445, 41.0387 ], [ -3.6445, 41.0387 ], [ -3.6445, 41.0387 ], [ -3.6446, 41.0387 ], [ -3.6446, 41.0387 ], [ -3.6447, 41.0387 ], [ -3.6448, 41.0387 ], [ -3.6449, 41.0387 ], [ -3.6449, 41.0387 ], [ -3.6449, 41.0387 ], [ -3.645, 41.0387 ], [ -3.6451, 41.0387 ], [ -3.645, 41.0387 ], [ -3.645, 41.0394 ], [ -3.6448, 41.0395 ], [ -3.6449, 41.04 ], [ -3.645, 41.04 ], [ -3.6447, 41.0402 ], [ -3.6449, 41.0405 ], [ -3.6444, 41.0405 ], [ -3.6445, 41.0419 ], [ -3.6444, 41.0424 ], [ -3.6442, 41.0424 ], [ -3.6441, 41.0428 ], [ -3.6442, 41.0428 ], [ -3.6444, 41.0435 ], [ -3.6445, 41.0435 ], [ -3.643, 41.0438 ], [ -3.6424, 41.0438 ], [ -3.6422, 41.0437 ], [ -3.6422, 41.0433 ], [ -3.642, 41.0431 ], [ -3.6419, 41.044 ], [ -3.6438, 41.0441 ] ] ] } },
{ "type": "Feature", "properties": { "municipio": "Braojos", "clasificacion": "no-urbanizable-protegido", "calificacion": "sin-asignar", "version": "vigente", "fuente": "SIT-CAM WFS — UsoDelSuelo:VPLA_V_CLASIFICACION (https://idem.comunidad.madrid/geosrvg/ows)", "fecha_dato": "2026-05-12", "ambito": "19037", "_raw_CD_SIGLAS": "SNUP", "_raw_DS_CLASIF_GEN": "Suelo No Urbanizable Protegido", "_raw_DS_CLASIF_DET": "Suelo No Urbanizable Protegido agropecuario", "_raw_DS_DOCU": "NORMAS SUBSIDIARIAS", "_raw_DS_LEY": "CM Ley 4/1984, E RD 1346/1976", "_raw_FC_AC": "1992-07-23", "_raw_NM_AREA_M2": 436209.17312020098, "_cam_code": "024" }, "geometry": { "type": "Polygon", "coordinates": [ [ [ -3.6552, 41.0381 ], [ -3.6563, 41.0395 ], [ -3.6566, 41.0394 ], [ -3.6569, 41.0387 ], [ -3.6575, 41.0382 ], [ -3.6579, 41.0381 ], [ -3.6581, 41.0385 ], [ -3.6584, 41.0387 ], [ -3.6587, 41.0383 ], [ -3.6591, 41.0373 ], [ -3.6593, 41.0366 ], [ -3.6593, 41.036 ], [ -3.6595, 41.0358 ], [ -3.6561, 41.0335 ], [ -3.6522, 41.0318 ], [ -3.6506, 41.0334 ], [ -3.6505, 41.0338 ], [ -3.6506, 41.0345 ], [ -3.6504, 41.0349 ], [ -3.6497, 41.0352 ], [ -3.6485, 41.0354 ], [ -3.6492, 41.0352 ], [ -3.6494, 41.035 ], [ -3.6494, 41.0348 ], [ -3.6491, 41.0345 ], [ -3.6475, 41.0345 ], [ -3.6471, 41.0347 ], [ -3.6473, 41.0354 ], [ -3.6471, 41.0356 ], [ -3.6471, 41.0365 ], [ -3.6472, 41.0366 ], [ -3.6476, 41.0365 ], [ -3.6479, 41.0365 ], [ -3.6483, 41.0367 ], [ -3.6487, 41.0366 ], [ -3.6497, 41.037 ], [ -3.6509, 41.0371 ], [ -3.6518, 41.0373 ], [ -3.6518, 41.0374 ], [ -3.6527, 41.0372 ], [ -3.6536, 41.0373 ], [ -3.6545, 41.0376 ], [ -3.6552, 41.0381 ] ] ] } },
{ "type": "Feature", "properties": { "municipio": "Braojos", "clasificacion": "no-urbanizable-protegido", "calificacion": "sin-asignar", "version": "vigente", "fuente": "SIT-CAM WFS — UsoDelSuelo:VPLA_V_CLASIFICACION (https://idem.comunidad.madrid/geosrvg/ows)", "fecha_dato": "2026-05-12", "ambito": "19037", "_raw_CD_SIGLAS": "SNUP", "_raw_DS_CLASIF_GEN": "Suelo No Urbanizable Protegido", "_raw_DS_CLASIF_DET": "Suelo No Urbanizable Protegido agropecuario", "_raw_DS_DOCU": "NORMAS SUBSIDIARIAS", "_raw_DS_LEY": "CM Ley 4/1984, E RD 1346/1976", "_raw_FC_AC": "1992-07-23", "_raw_NM_AREA_M2": 171291.397738409, "_cam_code": "024" }, "geometry": { "type": "Polygon", "coordinates": [ [ [ -3.6691, 41.0443 ], [ -3.6711, 41.0457 ], [ -3.6736, 41.0446 ], [ -3.6721, 41.042 ], [ -3.6683, 41.0403 ], [ -3.6676, 41.0422 ], [ -3.6677, 41.0428 ], [ -3.6681, 41.0437 ], [ -3.669, 41.0445 ], [ -3.6691, 41.0443 ] ] ] } },
{ "type": "Feature", "properties": { "municipio": "Braojos", "clasificacion": "no-urbanizable-protegido", "calificacion": "sin-asignar", "version": "vigente", "fuente": "SIT-CAM WFS — UsoDelSuelo:VPLA_V_CLASIFICACION (https://idem.comunidad.madrid/geosrvg/ows)", "fecha_dato": "2026-05-12", "ambito": "19037", "_raw_CD_SIGLAS": "SNUP", "_raw_DS_CLASIF_GEN": "Suelo No Urbanizable Protegido", "_raw_DS_CLASIF_DET": "Suelo No Urbanizable Protegido agropecuario", "_raw_DS_DOCU": "NORMAS SUBSIDIARIAS", "_raw_DS_LEY": "CM Ley 4/1984, E RD 1346/1976", "_raw_FC_AC": "1992-07-23", "_raw_NM_AREA_M2": 1488468.4376164901, "_cam_code": "024" }, "geometry": { "type": "Polygon", "coordinates": [ [ [ -3.6345, 41.0485 ], [ -3.6356, 41.0481 ], [ -3.6364, 41.0475 ], [ -3.6366, 41.0483 ], [ -3.6383, 41.0475 ], [ -3.6388, 41.0475 ], [ -3.6391, 41.0467 ], [ -3.6388, 41.0457 ], [ -3.6393, 41.0455 ], [ -3.6394, 41.0458 ], [ -3.64, 41.0457 ], [ -3.6403, 41.046 ], [ -3.6407, 41.0456 ], [ -3.6409, 41.0451 ], [ -3.6408, 41.0445 ], [ -3.6407, 41.0444 ], [ -3.64, 41.0445 ], [ -3.6397, 41.0443 ], [ -3.6408, 41.0438 ], [ -3.6404, 41.0435 ], [ -3.64, 41.0423 ], [ -3.6403, 41.0421 ], [ -3.6402, 41.042 ], [ -3.6404, 41.042 ], [ -3.6405, 41.042 ], [ -3.6402, 41.0416 ], [ -3.6409, 41.0414 ], [ -3.6409, 41.0409 ], [ -3.6408, 41.0409 ], [ -3.6409, 41.0406 ], [ -3.6405, 41.0404 ], [ -3.6402, 41.0405 ], [ -3.64, 41.0399 ], [ -3.6407, 41.0396 ], [ -3.6405, 41.0394 ], [ -3.6405, 41.0389 ], [ -3.6406, 41.0389 ], [ -3.6405, 41.0387 ], [ -3.641, 41.0386 ], [ -3.6409, 41.0382 ], [ -3.6419, 41.038 ], [ -3.6428, 41.038 ], [ -3.6434, 41.0382 ], [ -3.6439, 41.0386 ], [ -3.6445, 41.0386 ], [ -3.6448, 41.0383 ], [ -3.645, 41.0377 ], [ -3.6449, 41.0374 ], [ -3.645, 41.0372 ], [ -3.6447, 41.0362 ], [ -3.6444, 41.0359 ], [ -3.6445, 41.0358 ], [ -3.6444, 41.0348 ], [ -3.6433, 41.034 ], [ -3.6431, 41.0342 ], [ -3.6424, 41.0341 ], [ -3.6422, 41.0339 ], [ -3.642, 41.0335 ], [ -3.6424, 41.0333 ], [ -3.6423, 41.0325 ], [ -3.642, 41.032 ], [ -3.6412, 41.0319 ], [ -3.6407, 41.0322 ], [ -3.6405, 41.0321 ], [ -3.6399, 41.0312 ], [ -3.6393, 41.0306 ], [ -3.6404, 41.0299 ], [ -3.6398, 41.0296 ], [ -3.6379, 41.0295 ], [ -3.6369, 41.0292 ], [ -3.6369, 41.0293 ], [ -3.6359, 41.0298 ], [ -3.6355, 41.0298 ], [ -3.6349, 41.0301 ], [ -3.6343, 41.0307 ], [ -3.6342, 41.031 ], [ -3.6343, 41.0314 ], [ -3.6339, 41.0323 ], [ -3.6338, 41.0331 ], [ -3.6336, 41.0331 ], [ -3.6336, 41.0332 ], [ -3.632, 41.0339 ], [ -3.63, 41.0379 ], [ -3.6308, 41.0385 ], [ -3.632, 41.0386 ], [ -3.6323, 41.039 ], [ -3.633, 41.0393 ], [ -3.6331, 41.0395 ], [ -3.6335, 41.0396 ], [ -3.6335, 41.0397 ], [ -3.6329, 41.0396 ], [ -3.6325, 41.0398 ], [ -3.632, 41.0397 ], [ -3.6316, 41.0403 ], [ -3.6318, 41.0406 ], [ -3.6329, 41.0405 ], [ -3.6341, 41.0406 ], [ -3.635, 41.0405 ], [ -3.6354, 41.0406 ], [ -3.6331, 41.0411 ], [ -3.6331, 41.0417 ], [ -3.6315, 41.0427 ], [ -3.6307, 41.0428 ], [ -3.6315, 41.0434 ], [ -3.6315, 41.0439 ], [ -3.6318, 41.0441 ], [ -3.6318, 41.0445 ], [ -3.6321, 41.0451 ], [ -3.6334, 41.0464 ], [ -3.6342, 41.0459 ], [ -3.6362, 41.0451 ], [ -3.6368, 41.0461 ], [ -3.6347, 41.0467 ], [ -3.6343, 41.0471 ], [ -3.6337, 41.0473 ], [ -3.6345, 41.0485 ] ] ] } },
{ "type": "Feature", "properties": { "municipio": "Braojos", "clasificacion": "no-urbanizable-protegido", "calificacion": "sin-asignar", "version": "vigente", "fuente": "SIT-CAM WFS — UsoDelSuelo:VPLA_V_CLASIFICACION (https://idem.comunidad.madrid/geosrvg/ows)", "fecha_dato": "2026-05-12", "ambito": "19037", "_raw_CD_SIGLAS": "SNUP", "_raw_DS_CLASIF_GEN": "Suelo No Urbanizable Protegido", "_raw_DS_CLASIF_DET": "Suelo No Urbanizable Protegido agropecuario", "_raw_DS_DOCU": "NORMAS SUBSIDIARIAS", "_raw_DS_LEY": "CM Ley 4/1984, E RD 1346/1976", "_raw_FC_AC": "1992-07-23", "_raw_NM_AREA_M2": 1276778.9851893301, "_cam_code": "024" }, "geometry": { "type": "Polygon", "coordinates": [ [ [ -3.6711, 41.0593 ], [ -3.6734, 41.0584 ], [ -3.6774, 41.0582 ], [ -3.6787, 41.0565 ], [ -3.6787, 41.0562 ], [ -3.6768, 41.0561 ], [ -3.6764, 41.0558 ], [ -3.6762, 41.0549 ], [ -3.675, 41.0543 ], [ -3.6747, 41.0544 ], [ -3.6749, 41.0532 ], [ -3.6748, 41.0519 ], [ -3.6754, 41.0511 ], [ -3.6758, 41.051 ], [ -3.6761, 41.0497 ], [ -3.6759, 41.0493 ], [ -3.6762, 41.0489 ], [ -3.6737, 41.0447 ], [ -3.6711, 41.0459 ], [ -3.6705, 41.0455 ], [ -3.6692, 41.0443 ], [ -3.6691, 41.0446 ], [ -3.669, 41.0446 ], [ -3.6681, 41.0437 ], [ -3.6676, 41.0426 ], [ -3.6675, 41.0411 ], [ -3.6677, 41.0406 ], [ -3.6677, 41.04 ], [ -3.6623, 41.0377 ], [ -3.6599, 41.0361 ], [ -3.6595, 41.0366 ], [ -3.6597, 41.0367 ], [ -3.6594, 41.0369 ], [ -3.6588, 41.0385 ], [ -3.6582, 41.0393 ], [ -3.6585, 41.0402 ], [ -3.6592, 41.0413 ], [ -3.6593, 41.0417 ], [ -3.6592, 41.0418 ], [ -3.6594, 41.0419 ], [ -3.6593, 41.042 ], [ -3.6594, 41.0426 ], [ -3.6597, 41.0429 ], [ -3.6604, 41.0428 ], [ -3.6608, 41.0433 ], [ -3.6615, 41.0434 ], [ -3.6617, 41.0436 ], [ -3.6628, 41.0434 ], [ -3.6645, 41.0434 ], [ -3.6646, 41.0442 ], [ -3.664, 41.0443 ], [ -3.6642, 41.0446 ], [ -3.6639, 41.0446 ], [ -3.6639, 41.0448 ], [ -3.6641, 41.0461 ], [ -3.6646, 41.0463 ], [ -3.6645, 41.0464 ], [ -3.6646, 41.0469 ], [ -3.6655, 41.0474 ], [ -3.6658, 41.0474 ], [ -3.6659, 41.0476 ], [ -3.6664, 41.0478 ], [ -3.6669, 41.0473 ], [ -3.6675, 41.0478 ], [ -3.6675, 41.0481 ], [ -3.6673, 41.0485 ], [ -3.6674, 41.0492 ], [ -3.6671, 41.0497 ], [ -3.667, 41.0506 ], [ -3.668, 41.051 ], [ -3.6678, 41.0518 ], [ -3.6679, 41.0521 ], [ -3.6678, 41.0522 ], [ -3.6683, 41.0529 ], [ -3.6683, 41.0531 ], [ -3.6687, 41.0538 ], [ -3.6688, 41.0546 ], [ -3.6693, 41.055 ], [ -3.6694, 41.0556 ], [ -3.6696, 41.0558 ], [ -3.6697, 41.0572 ], [ -3.6704, 41.0574 ], [ -3.6703, 41.0576 ], [ -3.6704, 41.0577 ], [ -3.6704, 41.0582 ], [ -3.6693, 41.059 ], [ -3.6696, 41.0592 ], [ -3.6701, 41.0593 ], [ -3.6704, 41.0592 ], [ -3.6711, 41.0593 ] ], [ [ -3.6726, 41.0541 ], [ -3.6716, 41.0551 ], [ -3.6712, 41.0551 ], [ -3.6707, 41.0549 ], [ -3.6705, 41.0546 ], [ -3.67, 41.0526 ], [ -3.67, 41.0519 ], [ -3.6697, 41.0514 ], [ -3.6694, 41.0512 ], [ -3.6686, 41.0497 ], [ -3.6686, 41.0479 ], [ -3.6704, 41.0461 ], [ -3.6708, 41.046 ], [ -3.6717, 41.0468 ], [ -3.6727, 41.05 ], [ -3.6729, 41.0522 ], [ -3.6724, 41.0532 ], [ -3.6724, 41.0537 ], [ -3.6726, 41.0541 ] ] ] } },
{ "type": "Feature", "properties": { "municipio": "Braojos", "clasificacion": "no-urbanizable-protegido", "calificacion": "sin-asignar", "version": "vigente", "fuente": "SIT-CAM WFS — UsoDelSuelo:VPLA_V_CLASIFICACION (https://idem.comunidad.madrid/geosrvg/ows)", "fecha_dato": "2026-05-12", "ambito": "19037", "_raw_CD_SIGLAS": "SNUP", "_raw_DS_CLASIF_GEN": "Suelo No Urbanizable Protegido", "_raw_DS_CLASIF_DET": "Suelo No Urbanizable Protegido agropecuario", "_raw_DS_DOCU": "NORMAS SUBSIDIARIAS", "_raw_DS_LEY": "CM Ley 4/1984, E RD 1346/1976", "_raw_FC_AC": "1992-07-23", "_raw_NM_AREA_M2": 3492288.71752202, "_cam_code": "024" }, "geometry": { "type": "Polygon", "coordinates": [ [ [ -3.6555, 41.0592 ], [ -3.6563, 41.0605 ], [ -3.6569, 41.0609 ], [ -3.6577, 41.0617 ], [ -3.6595, 41.0618 ], [ -3.6607, 41.0605 ], [ -3.6607, 41.06 ], [ -3.6619, 41.0591 ], [ -3.6619, 41.0583 ], [ -3.6622, 41.0569 ], [ -3.6617, 41.0565 ], [ -3.6628, 41.0563 ], [ -3.6636, 41.0567 ], [ -3.6645, 41.0569 ], [ -3.6648, 41.0573 ], [ -3.6645, 41.0576 ], [ -3.6653, 41.058 ], [ -3.6653, 41.0572 ], [ -3.6659, 41.0568 ], [ -3.6657, 41.0563 ], [ -3.6666, 41.0564 ], [ -3.6666, 41.056 ], [ -3.6663, 41.0557 ], [ -3.6662, 41.0554 ], [ -3.666, 41.0555 ], [ -3.6657, 41.055 ], [ -3.6657, 41.0546 ], [ -3.6654, 41.0542 ], [ -3.6658, 41.0539 ], [ -3.6659, 41.0536 ], [ -3.6665, 41.0536 ], [ -3.667, 41.0532 ], [ -3.6671, 41.0521 ], [ -3.6667, 41.0518 ], [ -3.6664, 41.0522 ], [ -3.6661, 41.0517 ], [ -3.6646, 41.0519 ], [ -3.6644, 41.0517 ], [ -3.6645, 41.0514 ], [ -3.6651, 41.0514 ], [ -3.6657, 41.0511 ], [ -3.6654, 41.0504 ], [ -3.6659, 41.05 ], [ -3.6655, 41.0495 ], [ -3.6648, 41.0492 ], [ -3.6645, 41.0497 ], [ -3.6632, 41.0495 ], [ -3.6632, 41.0493 ], [ -3.6629, 41.0489 ], [ -3.6631, 41.0487 ], [ -3.6621, 41.0482 ], [ -3.6619, 41.048 ], [ -3.6618, 41.0476 ], [ -3.6614, 41.0475 ], [ -3.6608, 41.0477 ], [ -3.6606, 41.0474 ], [ -3.6609, 41.0475 ], [ -3.6616, 41.0468 ], [ -3.6613, 41.0464 ], [ -3.6604, 41.046 ], [ -3.6601, 41.0457 ], [ -3.6595, 41.0455 ], [ -3.6586, 41.0456 ], [ -3.6581, 41.046 ], [ -3.6576, 41.0456 ], [ -3.6572, 41.0456 ], [ -3.657, 41.0452 ], [ -3.6566, 41.0451 ], [ -3.6571, 41.045 ], [ -3.6572, 41.0448 ], [ -3.6567, 41.0441 ], [ -3.6568, 41.0438 ], [ -3.6565, 41.0433 ], [ -3.6562, 41.0422 ], [ -3.6558, 41.0416 ], [ -3.6555, 41.0406 ], [ -3.6563, 41.0405 ], [ -3.6566, 41.0409 ], [ -3.6574, 41.0406 ], [ -3.6569, 41.04 ], [ -3.6577, 41.0395 ], [ -3.6584, 41.0387 ], [ -3.6581, 41.0387 ], [ -3.6579, 41.0382 ], [ -3.6573, 41.0384 ], [ -3.657, 41.0387 ], [ -3.6569, 41.0391 ], [ -3.6565, 41.0395 ], [ -3.6567, 41.0397 ], [ -3.6566, 41.0398 ], [ -3.655, 41.038 ], [ -3.6544, 41.0376 ], [ -3.6536, 41.0373 ], [ -3.6527, 41.0373 ], [ -3.6514, 41.0375 ], [ -3.6513, 41.0373 ], [ -3.65, 41.0371 ], [ -3.6495, 41.0369 ], [ -3.6487, 41.037 ], [ -3.6487, 41.0369 ], [ -3.6478, 41.0366 ], [ -3.6474, 41.0366 ], [ -3.6469, 41.0368 ], [ -3.647, 41.036 ], [ -3.6469, 41.0357 ], [ -3.6466, 41.0355 ], [ -3.6464, 41.0351 ], [ -3.6468, 41.0342 ], [ -3.6469, 41.0331 ], [ -3.6465, 41.0333 ], [ -3.6455, 41.0333 ], [ -3.6444, 41.033 ], [ -3.6439, 41.0331 ], [ -3.6437, 41.0328 ], [ -3.6432, 41.0325 ], [ -3.6434, 41.0331 ], [ -3.6432, 41.0334 ], [ -3.6436, 41.0338 ], [ -3.6442, 41.0339 ], [ -3.6444, 41.0341 ], [ -3.6448, 41.0348 ], [ -3.6446, 41.0354 ], [ -3.6453, 41.0356 ], [ -3.6453, 41.036 ], [ -3.646, 41.0367 ], [ -3.6462, 41.0374 ], [ -3.6461, 41.0381 ], [ -3.6458, 41.0388 ], [ -3.6458, 41.0402 ], [ -3.6461, 41.0406 ], [ -3.6459, 41.0408 ], [ -3.6461, 41.0412 ], [ -3.6458, 41.0424 ], [ -3.6456, 41.0427 ], [ -3.6451, 41.0429 ], [ -3.6447, 41.0433 ], [ -3.6447, 41.044 ], [ -3.6461, 41.0443 ], [ -3.6467, 41.0447 ], [ -3.6469, 41.0454 ], [ -3.6458, 41.0472 ], [ -3.6429, 41.0484 ], [ -3.6424, 41.0493 ], [ -3.6425, 41.0503 ], [ -3.643, 41.0503 ], [ -3.6433, 41.0508 ], [ -3.6433, 41.0515 ], [ -3.643, 41.0519 ], [ -3.6419, 41.0522 ], [ -3.6417, 41.0525 ], [ -3.6421, 41.0528 ], [ -3.6423, 41.0537 ], [ -3.6426, 41.0543 ], [ -3.644, 41.0547 ], [ -3.6461, 41.0556 ], [ -3.6464, 41.0561 ], [ -3.647, 41.0566 ], [ -3.6483, 41.0583 ], [ -3.6485, 41.0588 ], [ -3.6492, 41.0593 ], [ -3.6494, 41.06 ], [ -3.6499, 41.0608 ], [ -3.6504, 41.0602 ], [ -3.6513, 41.0598 ], [ -3.6547, 41.0592 ], [ -3.655, 41.0588 ], [ -3.6555, 41.0592 ] ] ] } },
{ "type": "Feature", "properties": { "municipio": "Braojos", "clasificacion": "no-urbanizable-protegido", "calificacion": "sin-asignar", "version": "vigente", "fuente": "SIT-CAM WFS — UsoDelSuelo:VPLA_V_CLASIFICACION (https://idem.comunidad.madrid/geosrvg/ows)", "fecha_dato": "2026-05-12", "ambito": "19037", "_raw_CD_SIGLAS": "SNUP", "_raw_DS_CLASIF_GEN": "Suelo No Urbanizable Protegido", "_raw_DS_CLASIF_DET": "Suelo No Urbanizable Protegido cultural", "_raw_DS_DOCU": "NORMAS SUBSIDIARIAS", "_raw_DS_LEY": "CM Ley 4/1984, E RD 1346/1976", "_raw_FC_AC": "1992-07-23", "_raw_NM_AREA_M2": 69787.629086118701, "_cam_code": "024" }, "geometry": { "type": "Polygon", "coordinates": [ [ [ -3.6303, 41.0421 ], [ -3.6284, 41.043 ], [ -3.6273, 41.0433 ], [ -3.6268, 41.0445 ], [ -3.6273, 41.0439 ], [ -3.6295, 41.0428 ], [ -3.6294, 41.0426 ], [ -3.6297, 41.0424 ], [ -3.6307, 41.0424 ], [ -3.6309, 41.0426 ], [ -3.6307, 41.0428 ], [ -3.6315, 41.0427 ], [ -3.6331, 41.0417 ], [ -3.6331, 41.0411 ], [ -3.6354, 41.0406 ], [ -3.635, 41.0405 ], [ -3.6318, 41.0406 ], [ -3.6316, 41.0403 ], [ -3.632, 41.0397 ], [ -3.6325, 41.0398 ], [ -3.6329, 41.0396 ], [ -3.6335, 41.0397 ], [ -3.6335, 41.0396 ], [ -3.6331, 41.0395 ], [ -3.633, 41.0393 ], [ -3.6323, 41.039 ], [ -3.632, 41.0386 ], [ -3.6308, 41.0385 ], [ -3.63, 41.0379 ], [ -3.6297, 41.0384 ], [ -3.6303, 41.0387 ], [ -3.6306, 41.039 ], [ -3.6308, 41.0396 ], [ -3.632, 41.0419 ], [ -3.6313, 41.0426 ], [ -3.6303, 41.0421 ] ] ] } },
{ "type": "Feature", "properties": { "municipio": "Braojos", "clasificacion": "no-urbanizable-protegido", "calificacion": "sin-asignar", "version": "vigente", "fuente": "SIT-CAM WFS — UsoDelSuelo:VPLA_V_CLASIFICACION (https://idem.comunidad.madrid/geosrvg/ows)", "fecha_dato": "2026-05-12", "ambito": "19037", "_raw_CD_SIGLAS": "SNUP", "_raw_DS_CLASIF_GEN": "Suelo No Urbanizable Protegido", "_raw_DS_CLASIF_DET": "Suelo No Urbanizable Protegido cultural", "_raw_DS_DOCU": "NORMAS SUBSIDIARIAS", "_raw_DS_LEY": "CM Ley 4/1984, E RD 1346/1976", "_raw_FC_AC": "1992-07-23", "_raw_NM_AREA_M2": 14012.690548596, "_cam_code": "024" }, "geometry": { "type": "Polygon", "coordinates": [ [ [ -3.6711, 41.0459 ], [ -3.6737, 41.0447 ], [ -3.6736, 41.0445 ], [ -3.6736, 41.0446 ], [ -3.6711, 41.0457 ], [ -3.6702, 41.0451 ], [ -3.6695, 41.0445 ], [ -3.6692, 41.0443 ], [ -3.669, 41.0445 ], [ -3.6689, 41.0444 ], [ -3.6687, 41.0442 ], [ -3.6684, 41.0439 ], [ -3.6681, 41.0437 ], [ -3.6677, 41.0428 ], [ -3.6677, 41.0424 ], [ -3.6676, 41.0422 ], [ -3.6677, 41.042 ], [ -3.6678, 41.0418 ], [ -3.668, 41.0409 ], [ -3.6683, 41.0403 ], [ -3.6677, 41.04 ], [ -3.6677, 41.0406 ], [ -3.6675, 41.0411 ], [ -3.6676, 41.0426 ], [ -3.6679, 41.0434 ], [ -3.6681, 41.0437 ], [ -3.669, 41.0446 ], [ -3.6691, 41.0446 ], [ -3.6692, 41.0443 ], [ -3.6705, 41.0455 ], [ -3.6711, 41.0459 ] ] ] } },
{ "type": "Feature", "properties": { "municipio": "Braojos", "clasificacion": "no-urbanizable-protegido", "calificacion": "sin-asignar", "version": "vigente", "fuente": "SIT-CAM WFS — UsoDelSuelo:VPLA_V_CLASIFICACION (https://idem.comunidad.madrid/geosrvg/ows)", "fecha_dato": "2026-05-12", "ambito": "19037", "_raw_CD_SIGLAS": "SNUP", "_raw_DS_CLASIF_GEN": "Suelo No Urbanizable Protegido", "_raw_DS_CLASIF_DET": "Suelo No Urbanizable Protegido cultural", "_raw_DS_DOCU": "NORMAS SUBSIDIARIAS", "_raw_DS_LEY": "CM Ley 4/1984, E RD 1346/1976", "_raw_FC_AC": "1992-07-23", "_raw_NM_AREA_M2": 1027827.93192236, "_cam_code": "024" }, "geometry": { "type": "Polygon", "coordinates": [ [ [ -3.6459, 41.0701 ], [ -3.6469, 41.0703 ], [ -3.6473, 41.0697 ], [ -3.6481, 41.0696 ], [ -3.6489, 41.0688 ], [ -3.6495, 41.0684 ], [ -3.6497, 41.068 ], [ -3.6497, 41.0674 ], [ -3.65, 41.0658 ], [ -3.6506, 41.0651 ], [ -3.6508, 41.0644 ], [ -3.6518, 41.064 ], [ -3.6539, 41.0645 ], [ -3.6557, 41.0645 ], [ -3.6588, 41.0653 ], [ -3.6588, 41.0643 ], [ -3.6592, 41.0638 ], [ -3.6592, 41.0635 ], [ -3.6595, 41.0632 ], [ -3.6617, 41.0631 ], [ -3.6628, 41.0634 ], [ -3.6633, 41.0634 ], [ -3.6645, 41.0631 ], [ -3.6673, 41.0627 ], [ -3.6691, 41.0615 ], [ -3.6678, 41.0605 ], [ -3.6672, 41.0594 ], [ -3.6679, 41.0588 ], [ -3.6688, 41.0584 ], [ -3.6692, 41.0583 ], [ -3.6695, 41.0584 ], [ -3.6697, 41.0587 ], [ -3.6702, 41.0584 ], [ -3.6704, 41.0582 ], [ -3.6704, 41.0577 ], [ -3.6703, 41.0577 ], [ -3.6704, 41.0574 ], [ -3.6697, 41.0572 ], [ -3.6696, 41.0558 ], [ -3.6694, 41.0556 ], [ -3.6693, 41.055 ], [ -3.6688, 41.0546 ], [ -3.6687, 41.0538 ], [ -3.6683, 41.0531 ], [ -3.6683, 41.0529 ], [ -3.6678, 41.0522 ], [ -3.6679, 41.0521 ], [ -3.6678, 41.0518 ], [ -3.668, 41.051 ], [ -3.667, 41.0506 ], [ -3.6671, 41.0497 ], [ -3.6674, 41.0492 ], [ -3.6673, 41.0485 ], [ -3.6675, 41.0481 ], [ -3.6675, 41.0478 ], [ -3.6669, 41.0473 ], [ -3.6664, 41.0478 ], [ -3.6659, 41.0476 ], [ -3.6658, 41.0474 ], [ -3.6655, 41.0474 ], [ -3.6646, 41.0469 ], [ -3.6645, 41.0467 ], [ -3.6646, 41.0463 ], [ -3.6641, 41.0461 ], [ -3.6639, 41.0446 ], [ -3.6642, 41.0446 ], [ -3.664, 41.0443 ], [ -3.6646, 41.0442 ], [ -3.6645, 41.0434 ], [ -3.6628, 41.0434 ], [ -3.6617, 41.0436 ], [ -3.6615, 41.0434 ], [ -3.6608, 41.0433 ], [ -3.6604, 41.0428 ], [ -3.6597, 41.0429 ], [ -3.6594, 41.0426 ], [ -3.6593, 41.0422 ], [ -3.6594, 41.0419 ], [ -3.6592, 41.0418 ], [ -3.6593, 41.0417 ], [ -3.6592, 41.0413 ], [ -3.6585, 41.0402 ], [ -3.6582, 41.0393 ], [ -3.6588, 41.0385 ], [ -3.6594, 41.0369 ], [ -3.6597, 41.0367 ], [ -3.6595, 41.0366 ], [ -3.6599, 41.0361 ], [ -3.6595, 41.0358 ], [ -3.6593, 41.036 ], [ -3.6593, 41.0366 ], [ -3.6591, 41.0373 ], [ -3.6587, 41.0383 ], [ -3.6584, 41.0387 ], [ -3.6581, 41.0385 ], [ -3.6579, 41.0381 ], [ -3.6575, 41.0382 ], [ -3.6569, 41.0387 ], [ -3.6566, 41.0394 ], [ -3.6563, 41.0395 ], [ -3.6552, 41.0381 ], [ -3.6545, 41.0376 ], [ -3.6536, 41.0373 ], [ -3.6527, 41.0372 ], [ -3.6518, 41.0374 ], [ -3.6518, 41.0373 ], [ -3.6509, 41.0371 ], [ -3.6503, 41.037 ], [ -3.65, 41.037 ], [ -3.6497, 41.037 ], [ -3.6496, 41.0369 ], [ -3.6487, 41.0366 ], [ -3.6483, 41.0367 ], [ -3.6479, 41.0365 ], [ -3.6473, 41.0366 ], [ -3.6471, 41.0365 ], [ -3.6471, 41.0356 ], [ -3.6473, 41.0355 ], [ -3.6471, 41.0348 ], [ -3.6472, 41.0346 ], [ -3.6475, 41.0345 ], [ -3.6491, 41.0345 ], [ -3.6494, 41.0348 ], [ -3.6494, 41.035 ], [ -3.6492, 41.0352 ], [ -3.6485, 41.0354 ], [ -3.6497, 41.0352 ], [ -3.6504, 41.0349 ], [ -3.6506, 41.0345 ], [ -3.6505, 41.0343 ], [ -3.6506, 41.0334 ], [ -3.6522, 41.0318 ], [ -3.6521, 41.0317 ], [ -3.6506, 41.0332 ], [ -3.6488, 41.0332 ], [ -3.6483, 41.0329 ], [ -3.6471, 41.0326 ], [ -3.6466, 41.0327 ], [ -3.6465, 41.0329 ], [ -3.6454, 41.0329 ], [ -3.645, 41.0326 ], [ -3.6443, 41.0326 ], [ -3.6442, 41.0324 ], [ -3.6436, 41.032 ], [ -3.6424, 41.0319 ], [ -3.6421, 41.0312 ], [ -3.6414, 41.0309 ], [ -3.6415, 41.0308 ], [ -3.6414, 41.0301 ], [ -3.6401, 41.0293 ], [ -3.6393, 41.0293 ], [ -3.639, 41.0291 ], [ -3.6384, 41.0291 ], [ -3.6384, 41.0292 ], [ -3.6376, 41.0293 ], [ -3.6372, 41.0291 ], [ -3.6369, 41.0292 ], [ -3.6379, 41.0295 ], [ -3.6398, 41.0296 ], [ -3.6404, 41.0299 ], [ -3.6401, 41.03 ], [ -3.6406, 41.0303 ], [ -3.6407, 41.0305 ], [ -3.6406, 41.0312 ], [ -3.6414, 41.0316 ], [ -3.6417, 41.032 ], [ -3.642, 41.032 ], [ -3.6432, 41.0325 ], [ -3.6437, 41.0328 ], [ -3.6439, 41.0331 ], [ -3.6444, 41.033 ], [ -3.6455, 41.0333 ], [ -3.6465, 41.0333 ], [ -3.6469, 41.0331 ], [ -3.6468, 41.0342 ], [ -3.6464, 41.0351 ], [ -3.6466, 41.0355 ], [ -3.6469, 41.0357 ], [ -3.647, 41.036 ], [ -3.6469, 41.0368 ], [ -3.6474, 41.0366 ], [ -3.6478, 41.0366 ], [ -3.6487, 41.0369 ], [ -3.6487, 41.037 ], [ -3.6495, 41.0369 ], [ -3.6498, 41.037 ], [ -3.65, 41.0371 ], [ -3.6513, 41.0373 ], [ -3.6514, 41.0375 ], [ -3.6527, 41.0373 ], [ -3.6536, 41.0373 ], [ -3.6544, 41.0376 ], [ -3.655, 41.038 ], [ -3.6563, 41.0395 ], [ -3.6564, 41.0395 ], [ -3.6566, 41.0398 ], [ -3.6567, 41.0397 ], [ -3.6565, 41.0395 ], [ -3.6567, 41.0394 ], [ -3.6569, 41.0391 ], [ -3.657, 41.0387 ], [ -3.6573, 41.0384 ], [ -3.6579, 41.0382 ], [ -3.6581, 41.0387 ], [ -3.6584, 41.0387 ], [ -3.6577, 41.0395 ], [ -3.6569, 41.04 ], [ -3.6574, 41.0406 ], [ -3.6566, 41.0409 ], [ -3.6563, 41.0405 ], [ -3.6555, 41.0406 ], [ -3.6558, 41.0416 ], [ -3.6562, 41.0422 ], [ -3.6565, 41.0433 ], [ -3.6568, 41.0438 ], [ -3.6567, 41.0441 ], [ -3.6572, 41.0448 ], [ -3.6571, 41.045 ], [ -3.6566, 41.0451 ], [ -3.657, 41.0452 ], [ -3.6572, 41.0456 ], [ -3.6576, 41.0456 ], [ -3.6581, 41.046 ], [ -3.6586, 41.0456 ], [ -3.6595, 41.0455 ], [ -3.6601, 41.0457 ], [ -3.6604, 41.046 ], [ -3.6613, 41.0464 ], [ -3.6616, 41.0468 ], [ -3.6609, 41.0475 ], [ -3.6606, 41.0474 ], [ -3.6608, 41.0477 ], [ -3.6614, 41.0475 ], [ -3.6618, 41.0476 ], [ -3.6619, 41.048 ], [ -3.6621, 41.0482 ], [ -3.6631, 41.0487 ], [ -3.6629, 41.0489 ], [ -3.6632, 41.0493 ], [ -3.6632, 41.0495 ], [ -3.6645, 41.0497 ], [ -3.6648, 41.0492 ], [ -3.6655, 41.0495 ], [ -3.6659, 41.05 ], [ -3.6654, 41.0504 ], [ -3.6657, 41.0511 ], [ -3.6651, 41.0514 ], [ -3.6645, 41.0514 ], [ -3.6644, 41.0517 ], [ -3.6646, 41.0519 ], [ -3.6661, 41.0517 ], [ -3.6664, 41.0522 ], [ -3.6667, 41.0518 ], [ -3.6671, 41.0521 ], [ -3.667, 41.0532 ], [ -3.6665, 41.0536 ], [ -3.6659, 41.0536 ], [ -3.6658, 41.0539 ], [ -3.6654, 41.0542 ], [ -3.6657, 41.0546 ], [ -3.6657, 41.055 ], [ -3.666, 41.0555 ], [ -3.6662, 41.0554 ], [ -3.6663, 41.0557 ], [ -3.6666, 41.056 ], [ -3.6666, 41.0564 ], [ -3.6671, 41.0562 ], [ -3.6675, 41.0568 ], [ -3.6674, 41.0572 ], [ -3.6679, 41.0571 ], [ -3.668, 41.0577 ], [ -3.6679, 41.058 ], [ -3.6675, 41.0583 ], [ -3.6661, 41.0582 ], [ -3.6658, 41.0585 ], [ -3.6663, 41.0588 ], [ -3.6664, 41.0591 ], [ -3.6669, 41.0596 ], [ -3.6671, 41.0594 ], [ -3.6672, 41.0596 ], [ -3.668, 41.0608 ], [ -3.6688, 41.0615 ], [ -3.6678, 41.0621 ], [ -3.6659, 41.0628 ], [ -3.6646, 41.0628 ], [ -3.6634, 41.0632 ], [ -3.6629, 41.0632 ], [ -3.6617, 41.0629 ], [ -3.6592, 41.0631 ], [ -3.659, 41.0637 ], [ -3.6586, 41.0641 ], [ -3.6585, 41.065 ], [ -3.6556, 41.0643 ], [ -3.6539, 41.0643 ], [ -3.6521, 41.0638 ], [ -3.6508, 41.0642 ], [ -3.6505, 41.0645 ], [ -3.6502, 41.0653 ], [ -3.6497, 41.066 ], [ -3.6493, 41.0682 ], [ -3.6479, 41.0694 ], [ -3.6475, 41.0694 ], [ -3.647, 41.0697 ], [ -3.647, 41.0699 ], [ -3.6468, 41.07 ], [ -3.6459, 41.0699 ], [ -3.6444, 41.0692 ], [ -3.6444, 41.0696 ], [ -3.6439, 41.0699 ], [ -3.6417, 41.0695 ], [ -3.6414, 41.0694 ], [ -3.641, 41.069 ], [ -3.6411, 41.0681 ], [ -3.6413, 41.0679 ], [ -3.641, 41.0674 ], [ -3.641, 41.067 ], [ -3.6423, 41.0666 ], [ -3.6419, 41.0665 ], [ -3.638, 41.0642 ], [ -3.6366, 41.0625 ], [ -3.6346, 41.0614 ], [ -3.6343, 41.0611 ], [ -3.634, 41.0605 ], [ -3.6325, 41.0607 ], [ -3.6327, 41.0597 ], [ -3.6329, 41.0593 ], [ -3.6328, 41.0592 ], [ -3.6329, 41.0588 ], [ -3.6322, 41.0581 ], [ -3.6325, 41.0574 ], [ -3.6331, 41.0568 ], [ -3.6334, 41.0557 ], [ -3.6335, 41.0556 ], [ -3.6341, 41.0556 ], [ -3.6344, 41.0546 ], [ -3.6349, 41.0536 ], [ -3.6361, 41.0526 ], [ -3.6365, 41.052 ], [ -3.638, 41.0505 ], [ -3.6382, 41.0507 ], [ -3.6387, 41.0507 ], [ -3.6391, 41.0505 ], [ -3.6398, 41.0497 ], [ -3.6398, 41.0493 ], [ -3.6402, 41.0486 ], [ -3.6405, 41.0484 ], [ -3.6406, 41.0477 ], [ -3.6415, 41.0457 ], [ -3.642, 41.0431 ], [ -3.6422, 41.0427 ], [ -3.6418, 41.0428 ], [ -3.6417, 41.0432 ], [ -3.641, 41.0438 ], [ -3.6397, 41.0443 ], [ -3.64, 41.0445 ], [ -3.6407, 41.0444 ], [ -3.6409, 41.0447 ], [ -3.6409, 41.0451 ], [ -3.6407, 41.0456 ], [ -3.6403, 41.046 ], [ -3.64, 41.0457 ], [ -3.6394, 41.0458 ], [ -3.6393, 41.0455 ], [ -3.6388, 41.0457 ], [ -3.6392, 41.0473 ], [ -3.6392, 41.0482 ], [ -3.6388, 41.0495 ], [ -3.6375, 41.0506 ], [ -3.6362, 41.052 ], [ -3.6361, 41.0523 ], [ -3.6356, 41.0529 ], [ -3.6349, 41.0532 ], [ -3.6344, 41.0539 ], [ -3.633, 41.0553 ], [ -3.6313, 41.0578 ], [ -3.6308, 41.0588 ], [ -3.631, 41.0588 ], [ -3.6311, 41.0589 ], [ -3.631, 41.059 ], [ -3.6316, 41.0591 ], [ -3.6318, 41.0593 ], [ -3.6316, 41.0599 ], [ -3.632, 41.0608 ], [ -3.6339, 41.0609 ], [ -3.6345, 41.0616 ], [ -3.6365, 41.0628 ], [ -3.6378, 41.0643 ], [ -3.6385, 41.0648 ], [ -3.6391, 41.065 ], [ -3.6416, 41.0665 ], [ -3.6415, 41.0667 ], [ -3.6411, 41.0667 ], [ -3.6407, 41.067 ], [ -3.6407, 41.0673 ], [ -3.6409, 41.0676 ], [ -3.6408, 41.0691 ], [ -3.6411, 41.0695 ], [ -3.6415, 41.0697 ], [ -3.6425, 41.0698 ], [ -3.6435, 41.0701 ], [ -3.6442, 41.07 ], [ -3.6446, 41.0697 ], [ -3.645, 41.0697 ], [ -3.6459, 41.0701 ] ] ] } },
{ "type": "Feature", "properties": { "municipio": "Braojos", "clasificacion": "no-urbanizable-protegido", "calificacion": "sin-asignar", "version": "vigente", "fuente": "SIT-CAM WFS — UsoDelSuelo:VPLA_V_CLASIFICACION (https://idem.comunidad.madrid/geosrvg/ows)", "fecha_dato": "2026-05-12", "ambito": "19037", "_raw_CD_SIGLAS": "SNUP", "_raw_DS_CLASIF_GEN": "Suelo No Urbanizable Protegido", "_raw_DS_CLASIF_DET": "Suelo No Urbanizable Protegido cultural", "_raw_DS_DOCU": "NORMAS SUBSIDIARIAS", "_raw_DS_LEY": "CM Ley 4/1984, E RD 1346/1976", "_raw_FC_AC": "1992-07-23", "_raw_NM_AREA_M2": 110788.097079944, "_cam_code": "024" }, "geometry": { "type": "Polygon", "coordinates": [ [ [ -3.6772, 41.0837 ], [ -3.6755, 41.0858 ], [ -3.6753, 41.0858 ], [ -3.6759, 41.0865 ], [ -3.6776, 41.0845 ], [ -3.6779, 41.0843 ], [ -3.6793, 41.0845 ], [ -3.6795, 41.0842 ], [ -3.6841, 41.085 ], [ -3.6876, 41.0849 ], [ -3.6899, 41.0845 ], [ -3.6977, 41.0819 ], [ -3.701, 41.0801 ], [ -3.7062, 41.0769 ], [ -3.706, 41.0766 ], [ -3.7045, 41.0777 ], [ -3.7031, 41.0783 ], [ -3.702, 41.0794 ], [ -3.6961, 41.0824 ], [ -3.6879, 41.0846 ], [ -3.6849, 41.0846 ], [ -3.6774, 41.0836 ], [ -3.6772, 41.0837 ] ] ] } },
{ "type": "Feature", "properties": { "municipio": "Braojos", "clasificacion": "no-urbanizable-protegido", "calificacion": "sin-asignar", "version": "vigente", "fuente": "SIT-CAM WFS — UsoDelSuelo:VPLA_V_CLASIFICACION (https://idem.comunidad.madrid/geosrvg/ows)", "fecha_dato": "2026-05-12", "ambito": "19037", "_raw_CD_SIGLAS": "SNUP", "_raw_DS_CLASIF_GEN": "Suelo No Urbanizable Protegido", "_raw_DS_CLASIF_DET": "Suelo No Urbanizable Protegido forestal", "_raw_DS_DOCU": "NORMAS SUBSIDIARIAS", "_raw_DS_LEY": "CM Ley 4/1984, E RD 1346/1976", "_raw_FC_AC": "1992-07-23", "_raw_NM_AREA_M2": 97588.229296511403, "_cam_code": "024" }, "geometry": { "type": "Polygon", "coordinates": [ [ [ -3.6273, 41.0433 ], [ -3.6284, 41.043 ], [ -3.6299, 41.0422 ], [ -3.6303, 41.0421 ], [ -3.6313, 41.0426 ], [ -3.6319, 41.0421 ], [ -3.632, 41.0419 ], [ -3.6308, 41.0396 ], [ -3.6306, 41.039 ], [ -3.6303, 41.0387 ], [ -3.6297, 41.0384 ], [ -3.6273, 41.0433 ] ] ] } },
{ "type": "Feature", "properties": { "municipio": "Braojos", "clasificacion": "no-urbanizable-protegido", "calificacion": "sin-asignar", "version": "vigente", "fuente": "SIT-CAM WFS — UsoDelSuelo:VPLA_V_CLASIFICACION (https://idem.comunidad.madrid/geosrvg/ows)", "fecha_dato": "2026-05-12", "ambito": "19037", "_raw_CD_SIGLAS": "SNUP", "_raw_DS_CLASIF_GEN": "Suelo No Urbanizable Protegido", "_raw_DS_CLASIF_DET": "Suelo No Urbanizable Protegido forestal", "_raw_DS_DOCU": "NORMAS SUBSIDIARIAS", "_raw_DS_LEY": "CM Ley 4/1984, E RD 1346/1976", "_raw_FC_AC": "1992-07-23", "_raw_NM_AREA_M2": 234986.563258543, "_cam_code": "024" }, "geometry": { "type": "Polygon", "coordinates": [ [ [ -3.6704, 41.0461 ], [ -3.6686, 41.0479 ], [ -3.6686, 41.0497 ], [ -3.6694, 41.0512 ], [ -3.6697, 41.0514 ], [ -3.67, 41.0519 ], [ -3.67, 41.0526 ], [ -3.6705, 41.0546 ], [ -3.6709, 41.055 ], [ -3.6716, 41.0551 ], [ -3.6726, 41.0541 ], [ -3.6724, 41.0537 ], [ -3.6724, 41.0532 ], [ -3.6729, 41.0522 ], [ -3.6727, 41.05 ], [ -3.6717, 41.0468 ], [ -3.6708, 41.046 ], [ -3.6704, 41.0461 ] ] ] } },
{ "type": "Feature", "properties": { "municipio": "Braojos", "clasificacion": "no-urbanizable-protegido", "calificacion": "sin-asignar", "version": "vigente", "fuente": "SIT-CAM WFS — UsoDelSuelo:VPLA_V_CLASIFICACION (https://idem.comunidad.madrid/geosrvg/ows)", "fecha_dato": "2026-05-12", "ambito": "19037", "_raw_CD_SIGLAS": "SNUP", "_raw_DS_CLASIF_GEN": "Suelo No Urbanizable Protegido", "_raw_DS_CLASIF_DET": "Suelo No Urbanizable Protegido forestal", "_raw_DS_DOCU": "NORMAS SUBSIDIARIAS", "_raw_DS_LEY": "CM Ley 4/1984, E RD 1346/1976", "_raw_FC_AC": "1992-07-23", "_raw_NM_AREA_M2": 2954498.8903190601, "_cam_code": "024" }, "geometry": { "type": "Polygon", "coordinates": [ [ [ -3.6444, 41.0692 ], [ -3.6459, 41.0699 ], [ -3.6468, 41.07 ], [ -3.6473, 41.0695 ], [ -3.6479, 41.0694 ], [ -3.6482, 41.0692 ], [ -3.6493, 41.0682 ], [ -3.6497, 41.066 ], [ -3.6502, 41.0653 ], [ -3.6505, 41.0645 ], [ -3.6508, 41.0642 ], [ -3.6521, 41.0638 ], [ -3.6539, 41.0643 ], [ -3.6556, 41.0643 ], [ -3.6585, 41.065 ], [ -3.6586, 41.0641 ], [ -3.659, 41.0637 ], [ -3.6592, 41.0631 ], [ -3.6617, 41.0629 ], [ -3.6629, 41.0632 ], [ -3.6634, 41.0632 ], [ -3.6646, 41.0628 ], [ -3.6664, 41.0627 ], [ -3.6678, 41.0621 ], [ -3.6688, 41.0615 ], [ -3.6688, 41.0614 ], [ -3.668, 41.0608 ], [ -3.6671, 41.0594 ], [ -3.6669, 41.0596 ], [ -3.6664, 41.0591 ], [ -3.6663, 41.0588 ], [ -3.6658, 41.0585 ], [ -3.6661, 41.0582 ], [ -3.6666, 41.0583 ], [ -3.6675, 41.0583 ], [ -3.6677, 41.0582 ], [ -3.668, 41.0577 ], [ -3.6679, 41.0571 ], [ -3.6674, 41.0572 ], [ -3.6675, 41.0568 ], [ -3.6671, 41.0562 ], [ -3.6666, 41.0564 ], [ -3.6657, 41.0563 ], [ -3.6659, 41.0568 ], [ -3.6653, 41.0572 ], [ -3.6653, 41.058 ], [ -3.6645, 41.0576 ], [ -3.6648, 41.0573 ], [ -3.6645, 41.0569 ], [ -3.6636, 41.0567 ], [ -3.6628, 41.0563 ], [ -3.6617, 41.0565 ], [ -3.6622, 41.0569 ], [ -3.6619, 41.0583 ], [ -3.6619, 41.0591 ], [ -3.6607, 41.06 ], [ -3.6607, 41.0605 ], [ -3.6595, 41.0618 ], [ -3.6577, 41.0617 ], [ -3.6569, 41.0609 ], [ -3.6563, 41.0605 ], [ -3.6555, 41.0592 ], [ -3.655, 41.0588 ], [ -3.6547, 41.0592 ], [ -3.6513, 41.0598 ], [ -3.6504, 41.0602 ], [ -3.6499, 41.0608 ], [ -3.6494, 41.06 ], [ -3.6492, 41.0593 ], [ -3.6485, 41.0588 ], [ -3.6483, 41.0583 ], [ -3.647, 41.0566 ], [ -3.6464, 41.0561 ], [ -3.6461, 41.0556 ], [ -3.644, 41.0547 ], [ -3.6426, 41.0543 ], [ -3.6423, 41.0537 ], [ -3.6421, 41.0528 ], [ -3.6417, 41.0525 ], [ -3.6419, 41.0522 ], [ -3.643, 41.0519 ], [ -3.6433, 41.0515 ], [ -3.6433, 41.0508 ], [ -3.643, 41.0503 ], [ -3.6425, 41.0503 ], [ -3.6424, 41.0493 ], [ -3.6429, 41.0484 ], [ -3.6458, 41.0472 ], [ -3.6469, 41.0454 ], [ -3.6467, 41.0447 ], [ -3.6461, 41.0443 ], [ -3.6447, 41.044 ], [ -3.6438, 41.0441 ], [ -3.6419, 41.044 ], [ -3.6415, 41.0457 ], [ -3.6406, 41.0477 ], [ -3.6405, 41.0484 ], [ -3.6402, 41.0486 ], [ -3.6398, 41.0493 ], [ -3.6398, 41.0497 ], [ -3.6391, 41.0505 ], [ -3.6387, 41.0507 ], [ -3.6382, 41.0507 ], [ -3.638, 41.0505 ], [ -3.6365, 41.052 ], [ -3.6361, 41.0526 ], [ -3.6349, 41.0536 ], [ -3.6344, 41.0546 ], [ -3.6341, 41.0556 ], [ -3.6335, 41.0556 ], [ -3.6334, 41.0557 ], [ -3.6331, 41.0568 ], [ -3.6325, 41.0574 ], [ -3.6322, 41.0581 ], [ -3.6329, 41.0588 ], [ -3.6328, 41.0592 ], [ -3.6329, 41.0593 ], [ -3.6327, 41.0597 ], [ -3.6325, 41.0607 ], [ -3.634, 41.0605 ], [ -3.6343, 41.0611 ], [ -3.6346, 41.0614 ], [ -3.6366, 41.0625 ], [ -3.638, 41.0642 ], [ -3.6419, 41.0665 ], [ -3.6423, 41.0666 ], [ -3.641, 41.067 ], [ -3.641, 41.0674 ], [ -3.6413, 41.0679 ], [ -3.6411, 41.0681 ], [ -3.641, 41.069 ], [ -3.6414, 41.0694 ], [ -3.6439, 41.0699 ], [ -3.6444, 41.0696 ], [ -3.6444, 41.0692 ] ] ] } },
{ "type": "Feature", "properties": { "municipio": "Braojos", "clasificacion": "no-urbanizable-protegido", "calificacion": "sin-asignar", "version": "vigente", "fuente": "SIT-CAM WFS — UsoDelSuelo:VPLA_V_CLASIFICACION (https://idem.comunidad.madrid/geosrvg/ows)", "fecha_dato": "2026-05-12", "ambito": "19037", "_raw_CD_SIGLAS": "SNUP", "_raw_DS_CLASIF_GEN": "Suelo No Urbanizable Protegido", "_raw_DS_CLASIF_DET": "Suelo No Urbanizable Protegido forestal", "_raw_DS_DOCU": "NORMAS SUBSIDIARIAS", "_raw_DS_LEY": "CM Ley 4/1984, E RD 1346/1976", "_raw_FC_AC": "1992-07-23", "_raw_NM_AREA_M2": 13182543.015401799, "_cam_code": "024" }, "geometry": { "type": "Polygon", "coordinates": [ [ [ -3.706, 41.0766 ], [ -3.6923, 41.061 ], [ -3.6796, 41.0545 ], [ -3.6762, 41.0489 ], [ -3.6759, 41.0493 ], [ -3.6761, 41.0497 ], [ -3.6758, 41.051 ], [ -3.6754, 41.0511 ], [ -3.6748, 41.0519 ], [ -3.6749, 41.0532 ], [ -3.6747, 41.0544 ], [ -3.675, 41.0543 ], [ -3.6762, 41.0549 ], [ -3.6764, 41.0558 ], [ -3.6768, 41.0561 ], [ -3.6787, 41.0562 ], [ -3.6787, 41.0565 ], [ -3.6774, 41.0582 ], [ -3.6734, 41.0584 ], [ -3.6711, 41.0593 ], [ -3.6696, 41.0592 ], [ -3.6693, 41.059 ], [ -3.6697, 41.0587 ], [ -3.6695, 41.0584 ], [ -3.6692, 41.0583 ], [ -3.6688, 41.0584 ], [ -3.6679, 41.0588 ], [ -3.6672, 41.0594 ], [ -3.6678, 41.0605 ], [ -3.6691, 41.0615 ], [ -3.6673, 41.0627 ], [ -3.6664, 41.0629 ], [ -3.6651, 41.063 ], [ -3.6633, 41.0634 ], [ -3.6628, 41.0634 ], [ -3.6617, 41.0631 ], [ -3.6595, 41.0632 ], [ -3.6592, 41.0635 ], [ -3.6592, 41.0638 ], [ -3.6588, 41.0643 ], [ -3.6588, 41.0653 ], [ -3.6557, 41.0645 ], [ -3.6539, 41.0645 ], [ -3.6518, 41.064 ], [ -3.6508, 41.0644 ], [ -3.6506, 41.0651 ], [ -3.65, 41.0658 ], [ -3.6497, 41.0674 ], [ -3.6497, 41.068 ], [ -3.6495, 41.0684 ], [ -3.6489, 41.0688 ], [ -3.6481, 41.0696 ], [ -3.6473, 41.0697 ], [ -3.6469, 41.0703 ], [ -3.6459, 41.0701 ], [ -3.645, 41.0697 ], [ -3.6446, 41.0697 ], [ -3.6442, 41.07 ], [ -3.6435, 41.0701 ], [ -3.6425, 41.0698 ], [ -3.6415, 41.0697 ], [ -3.6411, 41.0695 ], [ -3.6408, 41.0691 ], [ -3.6409, 41.0676 ], [ -3.6407, 41.0673 ], [ -3.6407, 41.067 ], [ -3.6411, 41.0667 ], [ -3.6415, 41.0667 ], [ -3.6416, 41.0665 ], [ -3.6391, 41.065 ], [ -3.6385, 41.0648 ], [ -3.6378, 41.0643 ], [ -3.6365, 41.0628 ], [ -3.6345, 41.0616 ], [ -3.6339, 41.0609 ], [ -3.632, 41.0608 ], [ -3.6316, 41.0599 ], [ -3.6318, 41.0593 ], [ -3.6316, 41.0591 ], [ -3.631, 41.059 ], [ -3.6311, 41.0589 ], [ -3.631, 41.0588 ], [ -3.6308, 41.0588 ], [ -3.6313, 41.0578 ], [ -3.633, 41.0553 ], [ -3.6344, 41.0539 ], [ -3.6349, 41.0532 ], [ -3.6356, 41.0529 ], [ -3.6361, 41.0523 ], [ -3.6362, 41.052 ], [ -3.6375, 41.0506 ], [ -3.6388, 41.0495 ], [ -3.6392, 41.0482 ], [ -3.6391, 41.0467 ], [ -3.6388, 41.0475 ], [ -3.6383, 41.0475 ], [ -3.6366, 41.0483 ], [ -3.6364, 41.0475 ], [ -3.6356, 41.0481 ], [ -3.6345, 41.0485 ], [ -3.6337, 41.0473 ], [ -3.6343, 41.0471 ], [ -3.6347, 41.0467 ], [ -3.6368, 41.0461 ], [ -3.6362, 41.0451 ], [ -3.6342, 41.0459 ], [ -3.6334, 41.0464 ], [ -3.6321, 41.0451 ], [ -3.6318, 41.0445 ], [ -3.6318, 41.0441 ], [ -3.6315, 41.0439 ], [ -3.6315, 41.0434 ], [ -3.6307, 41.0428 ], [ -3.6309, 41.0426 ], [ -3.6307, 41.0424 ], [ -3.6297, 41.0424 ], [ -3.6294, 41.0426 ], [ -3.6295, 41.0428 ], [ -3.628, 41.0435 ], [ -3.6271, 41.0441 ], [ -3.6266, 41.0447 ], [ -3.623, 41.0504 ], [ -3.6239, 41.055 ], [ -3.625, 41.0617 ], [ -3.6246, 41.0641 ], [ -3.6247, 41.065 ], [ -3.6266, 41.0678 ], [ -3.6273, 41.0684 ], [ -3.6281, 41.0689 ], [ -3.6343, 41.0705 ], [ -3.6432, 41.0739 ], [ -3.6482, 41.0741 ], [ -3.6528, 41.0754 ], [ -3.6567, 41.0777 ], [ -3.6595, 41.0784 ], [ -3.6639, 41.0803 ], [ -3.6673, 41.0814 ], [ -3.6699, 41.0826 ], [ -3.6746, 41.085 ], [ -3.6753, 41.0858 ], [ -3.6755, 41.0858 ], [ -3.6772, 41.0837 ], [ -3.6774, 41.0836 ], [ -3.6849, 41.0846 ], [ -3.6879, 41.0846 ], [ -3.6961, 41.0824 ], [ -3.702, 41.0794 ], [ -3.7031, 41.0783 ], [ -3.7045, 41.0777 ], [ -3.706, 41.0766 ] ] ] } },
{ "type": "Feature", "properties": { "municipio": "Braojos", "clasificacion": "no-urbanizable-protegido", "calificacion": "sin-asignar", "version": "vigente", "fuente": "SIT-CAM WFS — UsoDelSuelo:VPLA_V_CLASIFICACION (https://idem.comunidad.madrid/geosrvg/ows)", "fecha_dato": "2026-05-12", "ambito": "19037", "_raw_CD_SIGLAS": "SNUP", "_raw_DS_CLASIF_GEN": "Suelo No Urbanizable Protegido", "_raw_DS_CLASIF_DET": "Suelo No Urbanizable Protegido forestal", "_raw_DS_DOCU": "NORMAS SUBSIDIARIAS", "_raw_DS_LEY": "CM Ley 4/1984, E RD 1346/1976", "_raw_FC_AC": "1992-07-23", "_raw_NM_AREA_M2": 23960.293305329102, "_cam_code": "024" }, "geometry": { "type": "Polygon", "coordinates": [ [ [ -3.6759, 41.0865 ], [ -3.6761, 41.0867 ], [ -3.6779, 41.0856 ], [ -3.6793, 41.0845 ], [ -3.6779, 41.0843 ], [ -3.6776, 41.0845 ], [ -3.6759, 41.0865 ], [ -3.6758, 41.0864 ], [ -3.6759, 41.0865 ] ] ] } },
{ "type": "Feature", "properties": { "municipio": "Braojos", "clasificacion": "urbano-consolidado", "calificacion": "sin-asignar", "version": "vigente", "fuente": "SIT-CAM WFS — UsoDelSuelo:VPLA_V_CLASIFICACION (https://idem.comunidad.madrid/geosrvg/ows)", "fecha_dato": "2026-05-12", "ambito": "19037", "_raw_CD_SIGLAS": "SU", "_raw_DS_CLASIF_GEN": "Suelo Urbano", "_raw_DS_CLASIF_DET": "Suelo Urbano", "_raw_DS_DOCU": "NORMAS SUBSIDIARIAS", "_raw_DS_LEY": "CM Ley 4/1984, E RD 1346/1976", "_raw_FC_AC": "1992-07-23", "_raw_NM_AREA_M2": 201828.113141193, "_cam_code": "024" }, "geometry": { "type": "Polygon", "coordinates": [ [ [ -3.6402, 41.0416 ], [ -3.6405, 41.042 ], [ -3.6402, 41.042 ], [ -3.6403, 41.0421 ], [ -3.64, 41.0423 ], [ -3.64, 41.0425 ], [ -3.6404, 41.0435 ], [ -3.6407, 41.0438 ], [ -3.641, 41.0438 ], [ -3.641, 41.0437 ], [ -3.6413, 41.0436 ], [ -3.6417, 41.0432 ], [ -3.6418, 41.0428 ], [ -3.6422, 41.0427 ], [ -3.6422, 41.0423 ], [ -3.642, 41.0422 ], [ -3.642, 41.0419 ], [ -3.6428, 41.0419 ], [ -3.6433, 41.0423 ], [ -3.6437, 41.0422 ], [ -3.6438, 41.042 ], [ -3.644, 41.0421 ], [ -3.6437, 41.0423 ], [ -3.6437, 41.0425 ], [ -3.6435, 41.0427 ], [ -3.6433, 41.0426 ], [ -3.6433, 41.0424 ], [ -3.643, 41.0421 ], [ -3.6423, 41.042 ], [ -3.6424, 41.0426 ], [ -3.6422, 41.0428 ], [ -3.6422, 41.043 ], [ -3.642, 41.0431 ], [ -3.6422, 41.0433 ], [ -3.6422, 41.0437 ], [ -3.643, 41.0438 ], [ -3.6438, 41.0436 ], [ -3.6444, 41.0436 ], [ -3.6445, 41.0435 ], [ -3.6444, 41.0435 ], [ -3.6442, 41.0428 ], [ -3.6441, 41.0428 ], [ -3.6442, 41.0424 ], [ -3.6444, 41.0424 ], [ -3.6445, 41.0419 ], [ -3.6444, 41.0405 ], [ -3.6449, 41.0405 ], [ -3.6447, 41.0402 ], [ -3.645, 41.04 ], [ -3.6449, 41.04 ], [ -3.6448, 41.0395 ], [ -3.645, 41.0394 ], [ -3.645, 41.0387 ], [ -3.6451, 41.0387 ], [ -3.6439, 41.0386 ], [ -3.6434, 41.0382 ], [ -3.6428, 41.038 ], [ -3.641, 41.0381 ], [ -3.6409, 41.0382 ], [ -3.641, 41.0386 ], [ -3.6405, 41.0387 ], [ -3.6406, 41.0388 ], [ -3.6405, 41.0389 ], [ -3.6405, 41.0394 ], [ -3.6407, 41.0396 ], [ -3.64, 41.0399 ], [ -3.6402, 41.0405 ], [ -3.6405, 41.0404 ], [ -3.6409, 41.0406 ], [ -3.6408, 41.0409 ], [ -3.6409, 41.0409 ], [ -3.6409, 41.0414 ], [ -3.6402, 41.0416 ] ] ] } },
{ "type": "Feature", "properties": { "municipio": "Braojos", "clasificacion": "urbano-consolidado", "calificacion": "sin-asignar", "version": "vigente", "fuente": "SIT-CAM WFS — UsoDelSuelo:VPLA_V_CLASIFICACION (https://idem.comunidad.madrid/geosrvg/ows)", "fecha_dato": "2026-05-12", "ambito": "19037", "_raw_CD_SIGLAS": "SU", "_raw_DS_CLASIF_GEN": "Suelo Urbano", "_raw_DS_CLASIF_DET": "Suelo Urbano", "_raw_DS_DOCU": "NORMAS SUBSIDIARIAS", "_raw_DS_LEY": "CM Ley 4/1984, E RD 1346/1976", "_raw_FC_AC": "1992-07-23", "_raw_NM_AREA_M2": 4572.4126501303099, "_cam_code": "024" }, "geometry": { "type": "Polygon", "coordinates": [ [ [ -3.642, 41.042 ], [ -3.642, 41.0422 ], [ -3.6422, 41.0423 ], [ -3.6422, 41.0427 ], [ -3.6421, 41.0427 ], [ -3.6422, 41.0427 ], [ -3.642, 41.0431 ], [ -3.6422, 41.043 ], [ -3.6422, 41.0428 ], [ -3.6424, 41.0426 ], [ -3.6423, 41.042 ], [ -3.643, 41.0421 ], [ -3.6433, 41.0424 ], [ -3.6433, 41.0426 ], [ -3.6435, 41.0427 ], [ -3.6437, 41.0425 ], [ -3.6437, 41.0423 ], [ -3.644, 41.0421 ], [ -3.6438, 41.042 ], [ -3.6437, 41.0422 ], [ -3.6433, 41.0423 ], [ -3.6428, 41.0419 ], [ -3.642, 41.0419 ], [ -3.642, 41.042 ] ] ] } },
{ "type": "Feature", "properties": { "municipio": "Braojos", "clasificacion": "urbanizable-no-sectorizado", "calificacion": "sin-asignar", "version": "vigente", "fuente": "SIT-CAM WFS — UsoDelSuelo:VPLA_V_CLASIFICACION (https://idem.comunidad.madrid/geosrvg/ows)", "fecha_dato": "2026-05-12", "ambito": "19037", "_raw_CD_SIGLAS": "SUBNS", "_raw_DS_CLASIF_GEN": "Suelo No Urbanizable Común", "_raw_DS_CLASIF_DET": "Suelo No Urbanizable Común", "_raw_DS_DOCU": "NORMAS SUBSIDIARIAS", "_raw_DS_LEY": "CM Ley 4/1984, E RD 1346/1976", "_raw_FC_AC": "1992-07-23", "_raw_NM_AREA_M2": 19213.985067652098, "_cam_code": "024" }, "geometry": { "type": "Polygon", "coordinates": [ [ [ -3.6401, 41.03 ], [ -3.6393, 41.0306 ], [ -3.6394, 41.0308 ], [ -3.6399, 41.0312 ], [ -3.6406, 41.0322 ], [ -3.6412, 41.0319 ], [ -3.6417, 41.0319 ], [ -3.6417, 41.032 ], [ -3.6417, 41.0319 ], [ -3.6414, 41.0316 ], [ -3.6406, 41.0312 ], [ -3.6407, 41.0305 ], [ -3.6406, 41.0303 ], [ -3.6401, 41.03 ] ] ] } }
]
}
