{
"type": "FeatureCollection",
"name": "vigente.full",
"features": [
{ "type": "Feature", "properties": { "municipio": "Ambite", "clasificacion": "no-urbanizable-protegido", "calificacion": "sin-asignar", "version": "vigente", "fuente": "SIT-CAM WFS — UsoDelSuelo:VPLA_V_CLASIFICACION (https://idem.comunidad.madrid/geosrvg/ows)", "fecha_dato": "2026-05-12", "ambito": "27512", "_raw_CD_SIGLAS": "SNUP", "_raw_DS_CLASIF_GEN": "Suelo No Urbanizable Protegido", "_raw_DS_CLASIF_DET": "Zona de protección de cañada", "_raw_DS_DOCU": "NORMAS SUBSIDIARIAS", "_raw_DS_LEY": "CM Ley 9/1995, E RDL 1/1992", "_raw_FC_AC": "1995-06-01", "_raw_NM_AREA_M2": 4007.05387819513, "_cam_code": "011" }, "geometry": { "type": "Polygon", "coordinates": [ [ [ -3.1779, 40.3265 ], [ -3.1771, 40.3271 ], [ -3.1771, 40.3273 ], [ -3.1774, 40.3273 ], [ -3.178, 40.3268 ], [ -3.1783, 40.3267 ], [ -3.1779, 40.3265 ] ] ] } },
{ "type": "Feature", "properties": { "municipio": "Ambite", "clasificacion": "no-urbanizable-protegido", "calificacion": "sin-asignar", "version": "vigente", "fuente": "SIT-CAM WFS — UsoDelSuelo:VPLA_V_CLASIFICACION (https://idem.comunidad.madrid/geosrvg/ows)", "fecha_dato": "2026-05-12", "ambito": "27512", "_raw_CD_SIGLAS": "SNUP", "_raw_DS_CLASIF_GEN": "Suelo No Urbanizable Protegido", "_raw_DS_CLASIF_DET": "Suelo No Urbanizable Protegido de Interés Agrario de Vega", "_raw_DS_DOCU": "NORMAS SUBSIDIARIAS", "_raw_DS_LEY": "CM Ley 9/1995, E RDL 1/1992", "_raw_FC_AC": "1995-06-01", "_raw_NM_AREA_M2": 2359424.2481722301, "_cam_code": "011" }, "geometry": { "type": "Polygon", "coordinates": [ [ [ -3.1431, 40.3523 ], [ -3.1436, 40.3528 ], [ -3.1439, 40.3529 ], [ -3.144, 40.3534 ], [ -3.1439, 40.3539 ], [ -3.1441, 40.3543 ], [ -3.144, 40.3547 ], [ -3.1436, 40.3549 ], [ -3.1434, 40.3552 ], [ -3.1438, 40.3557 ], [ -3.1438, 40.3559 ], [ -3.1429, 40.3559 ], [ -3.143, 40.3562 ], [ -3.1433, 40.3563 ], [ -3.1433, 40.3564 ], [ -3.1438, 40.3565 ], [ -3.1437, 40.3569 ], [ -3.1436, 40.3569 ], [ -3.1437, 40.3577 ], [ -3.1434, 40.3581 ], [ -3.1459, 40.359 ], [ -3.147, 40.3585 ], [ -3.1475, 40.358 ], [ -3.1473, 40.3572 ], [ -3.1458, 40.3561 ], [ -3.1446, 40.3534 ], [ -3.1443, 40.3529 ], [ -3.1437, 40.3524 ], [ -3.1437, 40.3515 ], [ -3.1442, 40.3509 ], [ -3.1448, 40.3506 ], [ -3.1462, 40.3507 ], [ -3.1475, 40.3503 ], [ -3.1492, 40.3501 ], [ -3.1501, 40.3495 ], [ -3.1507, 40.349 ], [ -3.151, 40.3484 ], [ -3.1508, 40.3478 ], [ -3.1508, 40.3473 ], [ -3.1514, 40.3463 ], [ -3.152, 40.3458 ], [ -3.1526, 40.3454 ], [ -3.153, 40.3453 ], [ -3.1538, 40.3447 ], [ -3.1551, 40.3445 ], [ -3.1557, 40.3442 ], [ -3.1565, 40.344 ], [ -3.1569, 40.3436 ], [ -3.1575, 40.3433 ], [ -3.1584, 40.3431 ], [ -3.1596, 40.3418 ], [ -3.1604, 40.3407 ], [ -3.1616, 40.34 ], [ -3.1634, 40.3384 ], [ -3.1645, 40.337 ], [ -3.1646, 40.3365 ], [ -3.1656, 40.3359 ], [ -3.166, 40.3355 ], [ -3.1663, 40.3354 ], [ -3.169, 40.3355 ], [ -3.1699, 40.3359 ], [ -3.1703, 40.3359 ], [ -3.1705, 40.3361 ], [ -3.1718, 40.3361 ], [ -3.1728, 40.3357 ], [ -3.1734, 40.3353 ], [ -3.1738, 40.3346 ], [ -3.1743, 40.3343 ], [ -3.1749, 40.3343 ], [ -3.1761, 40.3337 ], [ -3.1771, 40.3336 ], [ -3.1773, 40.3331 ], [ -3.177, 40.3322 ], [ -3.177, 40.3315 ], [ -3.178, 40.3304 ], [ -3.1786, 40.3301 ], [ -3.1785, 40.3297 ], [ -3.1789, 40.3294 ], [ -3.1793, 40.3288 ], [ -3.1793, 40.3282 ], [ -3.1784, 40.3277 ], [ -3.1794, 40.3271 ], [ -3.1796, 40.3271 ], [ -3.1797, 40.3267 ], [ -3.1802, 40.326 ], [ -3.1803, 40.3254 ], [ -3.1807, 40.3251 ], [ -3.1808, 40.3244 ], [ -3.181, 40.3241 ], [ -3.1812, 40.324 ], [ -3.1815, 40.3243 ], [ -3.1814, 40.3243 ], [ -3.1815, 40.3245 ], [ -3.1836, 40.326 ], [ -3.1841, 40.3255 ], [ -3.1843, 40.3256 ], [ -3.1878, 40.322 ], [ -3.1916, 40.3196 ], [ -3.1927, 40.3193 ], [ -3.1937, 40.3192 ], [ -3.1956, 40.3193 ], [ -3.1957, 40.3192 ], [ -3.1984, 40.32 ], [ -3.199, 40.32 ], [ -3.1997, 40.3202 ], [ -3.2003, 40.3207 ], [ -3.2011, 40.321 ], [ -3.2011, 40.3211 ], [ -3.2021, 40.321 ], [ -3.2021, 40.3213 ], [ -3.2025, 40.3213 ], [ -3.2033, 40.3218 ], [ -3.2037, 40.3218 ], [ -3.2043, 40.3215 ], [ -3.2043, 40.321 ], [ -3.2031, 40.3209 ], [ -3.2022, 40.3206 ], [ -3.1996, 40.3193 ], [ -3.1982, 40.3188 ], [ -3.1969, 40.318 ], [ -3.1952, 40.3111 ], [ -3.1955, 40.3088 ], [ -3.1954, 40.308 ], [ -3.1949, 40.3063 ], [ -3.1951, 40.3051 ], [ -3.1929, 40.3048 ], [ -3.1916, 40.3048 ], [ -3.1921, 40.306 ], [ -3.1923, 40.3074 ], [ -3.1922, 40.3086 ], [ -3.1918, 40.3097 ], [ -3.1917, 40.3105 ], [ -3.1902, 40.3134 ], [ -3.1895, 40.3143 ], [ -3.189, 40.3153 ], [ -3.1886, 40.3166 ], [ -3.1885, 40.3175 ], [ -3.187, 40.3192 ], [ -3.1853, 40.3201 ], [ -3.1844, 40.3211 ], [ -3.1823, 40.3219 ], [ -3.1811, 40.3231 ], [ -3.1802, 40.3237 ], [ -3.1799, 40.3242 ], [ -3.1794, 40.3244 ], [ -3.1795, 40.3245 ], [ -3.1788, 40.3256 ], [ -3.1786, 40.3257 ], [ -3.179, 40.3259 ], [ -3.1783, 40.3267 ], [ -3.178, 40.3268 ], [ -3.1772, 40.3275 ], [ -3.1768, 40.3271 ], [ -3.1756, 40.3277 ], [ -3.1741, 40.3278 ], [ -3.1717, 40.3306 ], [ -3.169, 40.3331 ], [ -3.1673, 40.3331 ], [ -3.1649, 40.334 ], [ -3.1646, 40.3344 ], [ -3.1629, 40.3358 ], [ -3.1618, 40.3362 ], [ -3.1611, 40.3366 ], [ -3.1608, 40.3374 ], [ -3.1602, 40.3382 ], [ -3.1589, 40.3393 ], [ -3.1583, 40.3402 ], [ -3.1573, 40.3407 ], [ -3.1557, 40.341 ], [ -3.1548, 40.341 ], [ -3.1552, 40.342 ], [ -3.1556, 40.3425 ], [ -3.1554, 40.3427 ], [ -3.1548, 40.3429 ], [ -3.1548, 40.343 ], [ -3.1542, 40.3431 ], [ -3.1538, 40.3435 ], [ -3.1535, 40.3435 ], [ -3.1533, 40.3433 ], [ -3.1528, 40.3433 ], [ -3.1525, 40.3435 ], [ -3.1523, 40.3437 ], [ -3.1523, 40.3443 ], [ -3.1518, 40.3448 ], [ -3.1517, 40.3451 ], [ -3.1512, 40.3452 ], [ -3.1512, 40.3453 ], [ -3.1507, 40.3455 ], [ -3.1506, 40.346 ], [ -3.1504, 40.3462 ], [ -3.1498, 40.3462 ], [ -3.1498, 40.3458 ], [ -3.1487, 40.3459 ], [ -3.1485, 40.3461 ], [ -3.1485, 40.3463 ], [ -3.1492, 40.3462 ], [ -3.1494, 40.3465 ], [ -3.1493, 40.3468 ], [ -3.1491, 40.3469 ], [ -3.1478, 40.3469 ], [ -3.1473, 40.3471 ], [ -3.1471, 40.3474 ], [ -3.1471, 40.3477 ], [ -3.1464, 40.3482 ], [ -3.1464, 40.3484 ], [ -3.1469, 40.3491 ], [ -3.1469, 40.3495 ], [ -3.1468, 40.3495 ], [ -3.1467, 40.3498 ], [ -3.1459, 40.3501 ], [ -3.1452, 40.3501 ], [ -3.145, 40.3498 ], [ -3.1441, 40.3498 ], [ -3.1431, 40.3502 ], [ -3.1427, 40.3502 ], [ -3.1427, 40.3503 ], [ -3.1424, 40.3504 ], [ -3.1414, 40.3504 ], [ -3.1412, 40.3505 ], [ -3.1409, 40.3512 ], [ -3.141, 40.3515 ], [ -3.1421, 40.3524 ], [ -3.1424, 40.3525 ], [ -3.1427, 40.3523 ], [ -3.1431, 40.3523 ] ] ] } },
{ "type": "Feature", "properties": { "municipio": "Ambite", "clasificacion": "no-urbanizable-protegido", "calificacion": "sin-asignar", "version": "vigente", "fuente": "SIT-CAM WFS — UsoDelSuelo:VPLA_V_CLASIFICACION (https://idem.comunidad.madrid/geosrvg/ows)", "fecha_dato": "2026-05-12", "ambito": "27512", "_raw_CD_SIGLAS": "SNUP", "_raw_DS_CLASIF_GEN": "Suelo No Urbanizable Protegido", "_raw_DS_CLASIF_DET": "Suelo No Urbanizable Protegido de Interés Paisajístico", "_raw_DS_DOCU": "NORMAS SUBSIDIARIAS", "_raw_DS_LEY": "CM Ley 9/1995, E RDL 1/1992", "_raw_FC_AC": "1995-06-01", "_raw_NM_AREA_M2": 1099633.51333462, "_cam_code": "011" }, "geometry": { "type": "Polygon", "coordinates": [ [ [ -3.1827, 40.3212 ], [ -3.1827, 40.3214 ], [ -3.1823, 40.3219 ], [ -3.1844, 40.3211 ], [ -3.1853, 40.3201 ], [ -3.187, 40.3192 ], [ -3.1885, 40.3175 ], [ -3.1886, 40.3166 ], [ -3.189, 40.3153 ], [ -3.1914, 40.3112 ], [ -3.1917, 40.3105 ], [ -3.1918, 40.3097 ], [ -3.1922, 40.3086 ], [ -3.1923, 40.3074 ], [ -3.1922, 40.3066 ], [ -3.1921, 40.306 ], [ -3.1916, 40.3048 ], [ -3.1832, 40.3046 ], [ -3.1834, 40.3058 ], [ -3.1838, 40.3063 ], [ -3.1838, 40.3068 ], [ -3.184, 40.3073 ], [ -3.1839, 40.3089 ], [ -3.1838, 40.3094 ], [ -3.1833, 40.3099 ], [ -3.1828, 40.31 ], [ -3.1823, 40.3104 ], [ -3.1816, 40.3113 ], [ -3.1817, 40.3116 ], [ -3.1815, 40.3119 ], [ -3.1816, 40.3132 ], [ -3.1814, 40.3136 ], [ -3.1813, 40.3136 ], [ -3.1813, 40.3138 ], [ -3.1817, 40.3141 ], [ -3.1814, 40.3153 ], [ -3.1812, 40.3154 ], [ -3.1819, 40.3165 ], [ -3.1821, 40.3165 ], [ -3.1828, 40.317 ], [ -3.1833, 40.3177 ], [ -3.1839, 40.318 ], [ -3.1841, 40.3184 ], [ -3.1838, 40.3192 ], [ -3.1838, 40.3198 ], [ -3.1836, 40.3203 ], [ -3.1827, 40.3212 ] ] ] } },
{ "type": "Feature", "properties": { "municipio": "Ambite", "clasificacion": "no-urbanizable-protegido", "calificacion": "sin-asignar", "version": "vigente", "fuente": "SIT-CAM WFS — UsoDelSuelo:VPLA_V_CLASIFICACION (https://idem.comunidad.madrid/geosrvg/ows)", "fecha_dato": "2026-05-12", "ambito": "27512", "_raw_CD_SIGLAS": "SNUP", "_raw_DS_CLASIF_GEN": "Suelo No Urbanizable Protegido", "_raw_DS_CLASIF_DET": "Suelo No Urbanizable Protegido de Interés Paisajístico", "_raw_DS_DOCU": "NORMAS SUBSIDIARIAS", "_raw_DS_LEY": "CM Ley 9/1995, E RDL 1/1992", "_raw_FC_AC": "1995-06-01", "_raw_NM_AREA_M2": 1688217.37300805, "_cam_code": "011" }, "geometry": { "type": "Polygon", "coordinates": [ [ [ -3.1524, 40.3328 ], [ -3.1519, 40.3341 ], [ -3.1519, 40.3347 ], [ -3.1514, 40.3352 ], [ -3.1515, 40.3367 ], [ -3.1513, 40.3371 ], [ -3.1514, 40.3373 ], [ -3.1514, 40.3378 ], [ -3.1513, 40.3379 ], [ -3.1514, 40.3386 ], [ -3.1515, 40.3386 ], [ -3.1516, 40.3389 ], [ -3.152, 40.3391 ], [ -3.1521, 40.3398 ], [ -3.1548, 40.341 ], [ -3.1557, 40.341 ], [ -3.1573, 40.3407 ], [ -3.1583, 40.3402 ], [ -3.1589, 40.3393 ], [ -3.1602, 40.3382 ], [ -3.1608, 40.3374 ], [ -3.1611, 40.3366 ], [ -3.1618, 40.3362 ], [ -3.1629, 40.3358 ], [ -3.1646, 40.3344 ], [ -3.1649, 40.334 ], [ -3.1673, 40.3331 ], [ -3.169, 40.3331 ], [ -3.1717, 40.3306 ], [ -3.1741, 40.3278 ], [ -3.1756, 40.3277 ], [ -3.1768, 40.3271 ], [ -3.177, 40.3264 ], [ -3.176, 40.3266 ], [ -3.1759, 40.3268 ], [ -3.175, 40.3272 ], [ -3.1695, 40.3226 ], [ -3.1687, 40.3234 ], [ -3.1684, 40.3235 ], [ -3.168, 40.3243 ], [ -3.1665, 40.3249 ], [ -3.164, 40.3262 ], [ -3.164, 40.3272 ], [ -3.1637, 40.3276 ], [ -3.1638, 40.3279 ], [ -3.1637, 40.328 ], [ -3.1638, 40.3282 ], [ -3.1644, 40.3282 ], [ -3.1644, 40.3284 ], [ -3.1622, 40.329 ], [ -3.1612, 40.329 ], [ -3.1608, 40.3293 ], [ -3.1605, 40.3293 ], [ -3.1598, 40.3299 ], [ -3.1589, 40.3303 ], [ -3.1581, 40.331 ], [ -3.1572, 40.3313 ], [ -3.1564, 40.3319 ], [ -3.154, 40.3321 ], [ -3.1528, 40.3328 ], [ -3.1524, 40.3328 ] ] ] } },
{ "type": "Feature", "properties": { "municipio": "Ambite", "clasificacion": "no-urbanizable-protegido", "calificacion": "sin-asignar", "version": "vigente", "fuente": "SIT-CAM WFS — UsoDelSuelo:VPLA_V_CLASIFICACION (https://idem.comunidad.madrid/geosrvg/ows)", "fecha_dato": "2026-05-12", "ambito": "27512", "_raw_CD_SIGLAS": "SNUP", "_raw_DS_CLASIF_GEN": "Suelo No Urbanizable Protegido", "_raw_DS_CLASIF_DET": "Suelo No Urbanizable Protegido de Interés Paisajístico", "_raw_DS_DOCU": "NORMAS SUBSIDIARIAS", "_raw_DS_LEY": "CM Ley 9/1995, E RDL 1/1992", "_raw_FC_AC": "1995-06-01", "_raw_NM_AREA_M2": 3164109.03911774, "_cam_code": "011" }, "geometry": { "type": "Polygon", "coordinates": [ [ [ -3.1591, 40.343 ], [ -3.1626, 40.3448 ], [ -3.1631, 40.3452 ], [ -3.1641, 40.3456 ], [ -3.1666, 40.3472 ], [ -3.1669, 40.3467 ], [ -3.1677, 40.3462 ], [ -3.1691, 40.346 ], [ -3.1708, 40.3452 ], [ -3.1712, 40.3446 ], [ -3.1713, 40.3441 ], [ -3.1723, 40.3433 ], [ -3.1728, 40.3433 ], [ -3.1727, 40.3428 ], [ -3.1738, 40.342 ], [ -3.1739, 40.3416 ], [ -3.1745, 40.3411 ], [ -3.1752, 40.3402 ], [ -3.1757, 40.3399 ], [ -3.1766, 40.3398 ], [ -3.1772, 40.3399 ], [ -3.1779, 40.3406 ], [ -3.1787, 40.34 ], [ -3.1811, 40.3391 ], [ -3.1824, 40.3392 ], [ -3.1836, 40.3391 ], [ -3.1841, 40.3387 ], [ -3.1864, 40.3386 ], [ -3.1871, 40.3384 ], [ -3.1871, 40.3381 ], [ -3.1866, 40.3382 ], [ -3.186, 40.3371 ], [ -3.1855, 40.3368 ], [ -3.1853, 40.3364 ], [ -3.1853, 40.3363 ], [ -3.1859, 40.3364 ], [ -3.1859, 40.3362 ], [ -3.1851, 40.3349 ], [ -3.1852, 40.3344 ], [ -3.1858, 40.3335 ], [ -3.1857, 40.333 ], [ -3.1858, 40.3327 ], [ -3.1862, 40.3323 ], [ -3.187, 40.3322 ], [ -3.1878, 40.3316 ], [ -3.1883, 40.3316 ], [ -3.189, 40.3309 ], [ -3.1892, 40.3305 ], [ -3.1895, 40.3304 ], [ -3.1896, 40.3301 ], [ -3.1892, 40.33 ], [ -3.1903, 40.3296 ], [ -3.1905, 40.3298 ], [ -3.1909, 40.3299 ], [ -3.1926, 40.3288 ], [ -3.1945, 40.3268 ], [ -3.1946, 40.3265 ], [ -3.1944, 40.3261 ], [ -3.1949, 40.3247 ], [ -3.1958, 40.3246 ], [ -3.1966, 40.3247 ], [ -3.1975, 40.3251 ], [ -3.1978, 40.3256 ], [ -3.1976, 40.326 ], [ -3.1977, 40.3266 ], [ -3.198, 40.3271 ], [ -3.1977, 40.3284 ], [ -3.1974, 40.3288 ], [ -3.198, 40.3294 ], [ -3.198, 40.3299 ], [ -3.1978, 40.3302 ], [ -3.1979, 40.3306 ], [ -3.1981, 40.3306 ], [ -3.1989, 40.3296 ], [ -3.1991, 40.3291 ], [ -3.199, 40.3283 ], [ -3.1992, 40.3281 ], [ -3.2004, 40.3278 ], [ -3.2007, 40.3274 ], [ -3.2007, 40.3271 ], [ -3.2009, 40.3267 ], [ -3.2013, 40.3268 ], [ -3.2018, 40.3264 ], [ -3.2029, 40.3262 ], [ -3.2031, 40.3255 ], [ -3.2033, 40.3253 ], [ -3.2033, 40.3249 ], [ -3.2036, 40.3242 ], [ -3.2036, 40.3237 ], [ -3.2038, 40.3234 ], [ -3.2039, 40.3226 ], [ -3.2042, 40.322 ], [ -3.2042, 40.3215 ], [ -3.2037, 40.3218 ], [ -3.2033, 40.3218 ], [ -3.2025, 40.3213 ], [ -3.202, 40.3213 ], [ -3.2014, 40.3223 ], [ -3.1964, 40.3205 ], [ -3.1964, 40.3204 ], [ -3.1963, 40.3205 ], [ -3.1958, 40.3203 ], [ -3.195, 40.3193 ], [ -3.1937, 40.3192 ], [ -3.1927, 40.3193 ], [ -3.1916, 40.3196 ], [ -3.1878, 40.322 ], [ -3.1843, 40.3256 ], [ -3.1861, 40.3266 ], [ -3.1861, 40.3268 ], [ -3.1864, 40.327 ], [ -3.1866, 40.327 ], [ -3.1867, 40.3266 ], [ -3.1869, 40.3264 ], [ -3.1875, 40.3262 ], [ -3.1879, 40.3265 ], [ -3.1882, 40.3272 ], [ -3.1873, 40.3279 ], [ -3.1874, 40.3282 ], [ -3.1869, 40.3287 ], [ -3.1862, 40.3288 ], [ -3.1857, 40.3287 ], [ -3.1851, 40.329 ], [ -3.1836, 40.3293 ], [ -3.1828, 40.3316 ], [ -3.1827, 40.3316 ], [ -3.1826, 40.3329 ], [ -3.1831, 40.3334 ], [ -3.183, 40.3335 ], [ -3.1827, 40.3337 ], [ -3.1818, 40.3328 ], [ -3.1807, 40.3325 ], [ -3.18, 40.3321 ], [ -3.1797, 40.3322 ], [ -3.1798, 40.3316 ], [ -3.179, 40.331 ], [ -3.1786, 40.3309 ], [ -3.1788, 40.3305 ], [ -3.1788, 40.3303 ], [ -3.1786, 40.3301 ], [ -3.178, 40.3304 ], [ -3.177, 40.3315 ], [ -3.177, 40.3322 ], [ -3.1773, 40.3331 ], [ -3.1771, 40.3336 ], [ -3.1761, 40.3337 ], [ -3.1749, 40.3343 ], [ -3.1743, 40.3343 ], [ -3.1739, 40.3345 ], [ -3.1734, 40.3353 ], [ -3.1728, 40.3357 ], [ -3.1718, 40.3361 ], [ -3.1705, 40.3361 ], [ -3.1703, 40.3359 ], [ -3.1699, 40.3359 ], [ -3.169, 40.3355 ], [ -3.1663, 40.3354 ], [ -3.166, 40.3355 ], [ -3.1656, 40.3359 ], [ -3.1646, 40.3365 ], [ -3.1645, 40.337 ], [ -3.1638, 40.338 ], [ -3.1616, 40.34 ], [ -3.1604, 40.3407 ], [ -3.1596, 40.3418 ], [ -3.1589, 40.3425 ], [ -3.1591, 40.343 ] ] ] } },
{ "type": "Feature", "properties": { "municipio": "Ambite", "clasificacion": "no-urbanizable-protegido", "calificacion": "sin-asignar", "version": "vigente", "fuente": "SIT-CAM WFS — UsoDelSuelo:VPLA_V_CLASIFICACION (https://idem.comunidad.madrid/geosrvg/ows)", "fecha_dato": "2026-05-12", "ambito": "27512", "_raw_CD_SIGLAS": "SNUP", "_raw_DS_CLASIF_GEN": "Suelo No Urbanizable Protegido", "_raw_DS_CLASIF_DET": "Suelo No Urbanizable Protegido de Interés Paisajístico y Ecológico", "_raw_DS_DOCU": "NORMAS SUBSIDIARIAS", "_raw_DS_LEY": "CM Ley 9/1995, E RDL 1/1992", "_raw_FC_AC": "1995-06-01", "_raw_NM_AREA_M2": 107814.304366856, "_cam_code": "011" }, "geometry": { "type": "Polygon", "coordinates": [ [ [ -3.1797, 40.3139 ], [ -3.1809, 40.3152 ], [ -3.1812, 40.3154 ], [ -3.1814, 40.3153 ], [ -3.1817, 40.3141 ], [ -3.1813, 40.3138 ], [ -3.1813, 40.3136 ], [ -3.1814, 40.3136 ], [ -3.1816, 40.3132 ], [ -3.1815, 40.3119 ], [ -3.1817, 40.3116 ], [ -3.1816, 40.3113 ], [ -3.1823, 40.3104 ], [ -3.1828, 40.31 ], [ -3.1833, 40.3099 ], [ -3.1838, 40.3094 ], [ -3.184, 40.3083 ], [ -3.184, 40.3073 ], [ -3.1838, 40.3068 ], [ -3.1838, 40.3063 ], [ -3.1834, 40.3058 ], [ -3.1832, 40.3046 ], [ -3.1821, 40.3046 ], [ -3.1823, 40.3048 ], [ -3.1824, 40.3053 ], [ -3.1825, 40.3053 ], [ -3.1825, 40.3059 ], [ -3.1829, 40.3075 ], [ -3.1829, 40.3083 ], [ -3.1824, 40.3088 ], [ -3.1823, 40.3091 ], [ -3.1819, 40.3094 ], [ -3.1818, 40.3098 ], [ -3.1815, 40.31 ], [ -3.1814, 40.3109 ], [ -3.181, 40.3114 ], [ -3.1809, 40.312 ], [ -3.1807, 40.3121 ], [ -3.1806, 40.3125 ], [ -3.1807, 40.3133 ], [ -3.1806, 40.3133 ], [ -3.1806, 40.3135 ], [ -3.1804, 40.3135 ], [ -3.1802, 40.3137 ], [ -3.1799, 40.3137 ], [ -3.1797, 40.3139 ] ] ] } },
{ "type": "Feature", "properties": { "municipio": "Ambite", "clasificacion": "no-urbanizable-protegido", "calificacion": "sin-asignar", "version": "vigente", "fuente": "SIT-CAM WFS — UsoDelSuelo:VPLA_V_CLASIFICACION (https://idem.comunidad.madrid/geosrvg/ows)", "fecha_dato": "2026-05-12", "ambito": "27512", "_raw_CD_SIGLAS": "SNUP", "_raw_DS_CLASIF_GEN": "Suelo No Urbanizable Protegido", "_raw_DS_CLASIF_DET": "Suelo No Urbanizable Protegido de Interés Paisajístico y Ecológico", "_raw_DS_DOCU": "NORMAS SUBSIDIARIAS", "_raw_DS_LEY": "CM Ley 9/1995, E RDL 1/1992", "_raw_FC_AC": "1995-06-01", "_raw_NM_AREA_M2": 1869104.2724941301, "_cam_code": "011" }, "geometry": { "type": "Polygon", "coordinates": [ [ [ -3.1954, 40.308 ], [ -3.1955, 40.3088 ], [ -3.1952, 40.3111 ], [ -3.1969, 40.318 ], [ -3.1982, 40.3188 ], [ -3.1996, 40.3193 ], [ -3.2022, 40.3206 ], [ -3.2031, 40.3209 ], [ -3.2043, 40.321 ], [ -3.2066, 40.3179 ], [ -3.2074, 40.3173 ], [ -3.2088, 40.3169 ], [ -3.2105, 40.3141 ], [ -3.2123, 40.314 ], [ -3.2137, 40.3131 ], [ -3.2163, 40.3129 ], [ -3.212, 40.3103 ], [ -3.2111, 40.3092 ], [ -3.2077, 40.3062 ], [ -3.2067, 40.3064 ], [ -3.2057, 40.3062 ], [ -3.2019, 40.3063 ], [ -3.1951, 40.3051 ], [ -3.1949, 40.3063 ], [ -3.1954, 40.308 ] ] ] } },
{ "type": "Feature", "properties": { "municipio": "Ambite", "clasificacion": "no-urbanizable-protegido", "calificacion": "sin-asignar", "version": "vigente", "fuente": "SIT-CAM WFS — UsoDelSuelo:VPLA_V_CLASIFICACION (https://idem.comunidad.madrid/geosrvg/ows)", "fecha_dato": "2026-05-12", "ambito": "27512", "_raw_CD_SIGLAS": "SNUP", "_raw_DS_CLASIF_GEN": "Suelo No Urbanizable Protegido", "_raw_DS_CLASIF_DET": "Suelo No Urbanizable Protegido de Interés Paisajístico y Ecológico", "_raw_DS_DOCU": "NORMAS SUBSIDIARIAS", "_raw_DS_LEY": "CM Ley 9/1995, E RDL 1/1992", "_raw_FC_AC": "1995-06-01", "_raw_NM_AREA_M2": 179631.16023022399, "_cam_code": "011" }, "geometry": { "type": "Polygon", "coordinates": [ [ [ -3.1524, 40.3328 ], [ -3.1528, 40.3328 ], [ -3.154, 40.3321 ], [ -3.1564, 40.3319 ], [ -3.1572, 40.3313 ], [ -3.1581, 40.331 ], [ -3.1589, 40.3303 ], [ -3.1598, 40.3299 ], [ -3.1605, 40.3293 ], [ -3.1608, 40.3293 ], [ -3.1612, 40.329 ], [ -3.1622, 40.329 ], [ -3.1644, 40.3284 ], [ -3.1644, 40.3282 ], [ -3.1638, 40.3282 ], [ -3.1637, 40.328 ], [ -3.1638, 40.3279 ], [ -3.1637, 40.3276 ], [ -3.164, 40.3272 ], [ -3.164, 40.3262 ], [ -3.1665, 40.3249 ], [ -3.168, 40.3243 ], [ -3.1684, 40.3235 ], [ -3.1687, 40.3234 ], [ -3.1695, 40.3226 ], [ -3.169, 40.3222 ], [ -3.1676, 40.3235 ], [ -3.1657, 40.3246 ], [ -3.1644, 40.3253 ], [ -3.1621, 40.3261 ], [ -3.1623, 40.3274 ], [ -3.159, 40.3294 ], [ -3.1545, 40.3315 ], [ -3.1529, 40.3316 ], [ -3.1524, 40.3328 ] ] ] } },
{ "type": "Feature", "properties": { "municipio": "Ambite", "clasificacion": "no-urbanizable-protegido", "calificacion": "sin-asignar", "version": "vigente", "fuente": "SIT-CAM WFS — UsoDelSuelo:VPLA_V_CLASIFICACION (https://idem.comunidad.madrid/geosrvg/ows)", "fecha_dato": "2026-05-12", "ambito": "27512", "_raw_CD_SIGLAS": "SNUP", "_raw_DS_CLASIF_GEN": "Suelo No Urbanizable Protegido", "_raw_DS_CLASIF_DET": "Suelo No Urbanizable Protegido de Interés Paisajístico y Ecológico", "_raw_DS_DOCU": "NORMAS SUBSIDIARIAS", "_raw_DS_LEY": "CM Ley 9/1995, E RDL 1/1992", "_raw_FC_AC": "1995-06-01", "_raw_NM_AREA_M2": 9985114.7062882502, "_cam_code": "011" }, "geometry": { "type": "Polygon", "coordinates": [ [ [ -3.1501, 40.3731 ], [ -3.1508, 40.3763 ], [ -3.1527, 40.3767 ], [ -3.155, 40.3777 ], [ -3.1605, 40.3787 ], [ -3.1667, 40.3781 ], [ -3.1685, 40.3777 ], [ -3.1738, 40.3761 ], [ -3.1768, 40.3742 ], [ -3.1774, 40.3735 ], [ -3.1766, 40.3704 ], [ -3.1761, 40.369 ], [ -3.1759, 40.3679 ], [ -3.1756, 40.3672 ], [ -3.1761, 40.3643 ], [ -3.1765, 40.3639 ], [ -3.1767, 40.3631 ], [ -3.1762, 40.3626 ], [ -3.1744, 40.3619 ], [ -3.1733, 40.3612 ], [ -3.1729, 40.3607 ], [ -3.173, 40.3604 ], [ -3.1726, 40.36 ], [ -3.1723, 40.3594 ], [ -3.1723, 40.3583 ], [ -3.1744, 40.3563 ], [ -3.1755, 40.356 ], [ -3.1757, 40.3541 ], [ -3.1751, 40.3539 ], [ -3.1743, 40.3534 ], [ -3.1725, 40.3542 ], [ -3.171, 40.3528 ], [ -3.1711, 40.3524 ], [ -3.1717, 40.3518 ], [ -3.1739, 40.3505 ], [ -3.1737, 40.3499 ], [ -3.1744, 40.3478 ], [ -3.1747, 40.3475 ], [ -3.1762, 40.347 ], [ -3.1759, 40.3456 ], [ -3.1759, 40.3449 ], [ -3.177, 40.3444 ], [ -3.1786, 40.3444 ], [ -3.1801, 40.3442 ], [ -3.181, 40.3433 ], [ -3.1814, 40.3431 ], [ -3.1821, 40.3431 ], [ -3.1834, 40.3435 ], [ -3.1836, 40.3443 ], [ -3.1835, 40.3448 ], [ -3.1828, 40.3454 ], [ -3.182, 40.3455 ], [ -3.1796, 40.3451 ], [ -3.1781, 40.3452 ], [ -3.1776, 40.3455 ], [ -3.178, 40.3458 ], [ -3.178, 40.3464 ], [ -3.1782, 40.3471 ], [ -3.1785, 40.3476 ], [ -3.1788, 40.3478 ], [ -3.1809, 40.3478 ], [ -3.1835, 40.3484 ], [ -3.1856, 40.3481 ], [ -3.1868, 40.3475 ], [ -3.187, 40.3479 ], [ -3.1871, 40.3489 ], [ -3.188, 40.3497 ], [ -3.1885, 40.3497 ], [ -3.1909, 40.349 ], [ -3.1928, 40.3482 ], [ -3.1934, 40.3483 ], [ -3.1935, 40.3471 ], [ -3.1938, 40.3468 ], [ -3.1938, 40.3463 ], [ -3.1941, 40.346 ], [ -3.1949, 40.3462 ], [ -3.1958, 40.3462 ], [ -3.1966, 40.346 ], [ -3.1967, 40.3461 ], [ -3.1979, 40.346 ], [ -3.199, 40.3448 ], [ -3.1993, 40.3447 ], [ -3.1993, 40.3448 ], [ -3.1993, 40.3446 ], [ -3.2003, 40.3443 ], [ -3.2006, 40.3438 ], [ -3.201, 40.3435 ], [ -3.2008, 40.3434 ], [ -3.2016, 40.343 ], [ -3.2017, 40.3427 ], [ -3.2025, 40.3425 ], [ -3.2032, 40.3425 ], [ -3.2037, 40.3427 ], [ -3.2023, 40.3408 ], [ -3.2014, 40.3403 ], [ -3.2011, 40.3403 ], [ -3.2007, 40.3401 ], [ -3.2006, 40.3399 ], [ -3.2007, 40.3394 ], [ -3.2003, 40.339 ], [ -3.2001, 40.3384 ], [ -3.1992, 40.3375 ], [ -3.1993, 40.3371 ], [ -3.1996, 40.337 ], [ -3.1997, 40.3366 ], [ -3.1998, 40.3366 ], [ -3.1999, 40.3362 ], [ -3.1996, 40.3358 ], [ -3.2001, 40.335 ], [ -3.2, 40.3347 ], [ -3.1996, 40.3344 ], [ -3.1997, 40.3343 ], [ -3.1996, 40.334 ], [ -3.1994, 40.3339 ], [ -3.1994, 40.3334 ], [ -3.1999, 40.3332 ], [ -3.1998, 40.3328 ], [ -3.1999, 40.3321 ], [ -3.2003, 40.3318 ], [ -3.2003, 40.3316 ], [ -3.2, 40.3315 ], [ -3.1998, 40.3312 ], [ -3.1999, 40.3312 ], [ -3.1999, 40.331 ], [ -3.2005, 40.3306 ], [ -3.2005, 40.3304 ], [ -3.2007, 40.3302 ], [ -3.2012, 40.3299 ], [ -3.2012, 40.3294 ], [ -3.2015, 40.3291 ], [ -3.2018, 40.329 ], [ -3.2018, 40.3276 ], [ -3.2019, 40.3276 ], [ -3.2021, 40.3271 ], [ -3.2028, 40.3262 ], [ -3.2018, 40.3264 ], [ -3.2013, 40.3268 ], [ -3.2009, 40.3267 ], [ -3.2007, 40.3271 ], [ -3.2007, 40.3274 ], [ -3.2004, 40.3278 ], [ -3.1992, 40.3281 ], [ -3.199, 40.3283 ], [ -3.1991, 40.3291 ], [ -3.1989, 40.3296 ], [ -3.1981, 40.3306 ], [ -3.1979, 40.3306 ], [ -3.1978, 40.3302 ], [ -3.198, 40.3299 ], [ -3.198, 40.3294 ], [ -3.1974, 40.3288 ], [ -3.1977, 40.3284 ], [ -3.198, 40.3271 ], [ -3.1977, 40.3266 ], [ -3.1976, 40.326 ], [ -3.1978, 40.3256 ], [ -3.1975, 40.3251 ], [ -3.1966, 40.3247 ], [ -3.1958, 40.3246 ], [ -3.1949, 40.3247 ], [ -3.1944, 40.3261 ], [ -3.1946, 40.3265 ], [ -3.1945, 40.3268 ], [ -3.1926, 40.3288 ], [ -3.1909, 40.3299 ], [ -3.1905, 40.3298 ], [ -3.1903, 40.3296 ], [ -3.1892, 40.33 ], [ -3.1896, 40.3301 ], [ -3.1895, 40.3304 ], [ -3.1892, 40.3305 ], [ -3.189, 40.3309 ], [ -3.1883, 40.3316 ], [ -3.1878, 40.3316 ], [ -3.187, 40.3322 ], [ -3.1862, 40.3323 ], [ -3.1858, 40.3327 ], [ -3.1857, 40.333 ], [ -3.1858, 40.3335 ], [ -3.1852, 40.3344 ], [ -3.1851, 40.3349 ], [ -3.1859, 40.3362 ], [ -3.1859, 40.3364 ], [ -3.1856, 40.3363 ], [ -3.1853, 40.3363 ], [ -3.1853, 40.3364 ], [ -3.1855, 40.3368 ], [ -3.186, 40.3371 ], [ -3.1866, 40.3382 ], [ -3.1871, 40.3381 ], [ -3.1871, 40.3384 ], [ -3.1864, 40.3386 ], [ -3.1841, 40.3387 ], [ -3.1836, 40.3391 ], [ -3.1824, 40.3392 ], [ -3.1811, 40.3391 ], [ -3.1787, 40.34 ], [ -3.1779, 40.3406 ], [ -3.1772, 40.3399 ], [ -3.1766, 40.3398 ], [ -3.1757, 40.3399 ], [ -3.1752, 40.3402 ], [ -3.1745, 40.3411 ], [ -3.1739, 40.3416 ], [ -3.1738, 40.342 ], [ -3.1727, 40.3428 ], [ -3.1728, 40.3433 ], [ -3.1723, 40.3433 ], [ -3.1713, 40.3441 ], [ -3.1712, 40.3446 ], [ -3.1708, 40.3452 ], [ -3.1691, 40.346 ], [ -3.1677, 40.3462 ], [ -3.1669, 40.3467 ], [ -3.1666, 40.3472 ], [ -3.1641, 40.3456 ], [ -3.1631, 40.3452 ], [ -3.1626, 40.3448 ], [ -3.1608, 40.3438 ], [ -3.1591, 40.343 ], [ -3.1589, 40.3425 ], [ -3.1584, 40.3431 ], [ -3.1575, 40.3433 ], [ -3.1569, 40.3436 ], [ -3.1565, 40.344 ], [ -3.1557, 40.3442 ], [ -3.1551, 40.3445 ], [ -3.1538, 40.3447 ], [ -3.153, 40.3453 ], [ -3.1526, 40.3454 ], [ -3.152, 40.3458 ], [ -3.1514, 40.3463 ], [ -3.1508, 40.3473 ], [ -3.1508, 40.3478 ], [ -3.151, 40.3484 ], [ -3.1507, 40.349 ], [ -3.1492, 40.3501 ], [ -3.1475, 40.3503 ], [ -3.1462, 40.3507 ], [ -3.1448, 40.3506 ], [ -3.1442, 40.3509 ], [ -3.1437, 40.3515 ], [ -3.1437, 40.3524 ], [ -3.1443, 40.3529 ], [ -3.1446, 40.3534 ], [ -3.1458, 40.3561 ], [ -3.1473, 40.3572 ], [ -3.1475, 40.358 ], [ -3.147, 40.3585 ], [ -3.1459, 40.359 ], [ -3.149, 40.3601 ], [ -3.1496, 40.3609 ], [ -3.1498, 40.3614 ], [ -3.1502, 40.3641 ], [ -3.1508, 40.3653 ], [ -3.1534, 40.3677 ], [ -3.1519, 40.3685 ], [ -3.1504, 40.3712 ], [ -3.1494, 40.3716 ], [ -3.1501, 40.3731 ] ], [ [ -3.162, 40.3619 ], [ -3.1601, 40.3627 ], [ -3.1601, 40.362 ], [ -3.1605, 40.3612 ], [ -3.1604, 40.361 ], [ -3.1607, 40.3607 ], [ -3.1602, 40.3599 ], [ -3.1602, 40.3594 ], [ -3.1593, 40.3588 ], [ -3.1597, 40.3581 ], [ -3.1606, 40.3577 ], [ -3.1644, 40.3571 ], [ -3.1647, 40.3574 ], [ -3.1648, 40.3578 ], [ -3.1659, 40.3581 ], [ -3.1664, 40.3585 ], [ -3.167, 40.3579 ], [ -3.1671, 40.3576 ], [ -3.1697, 40.3574 ], [ -3.1699, 40.3577 ], [ -3.1697, 40.3581 ], [ -3.1698, 40.3584 ], [ -3.1719, 40.3584 ], [ -3.1716, 40.3584 ], [ -3.171, 40.3588 ], [ -3.1701, 40.3594 ], [ -3.1646, 40.3608 ], [ -3.1645, 40.3619 ], [ -3.1644, 40.3622 ], [ -3.1642, 40.3623 ], [ -3.1639, 40.3623 ], [ -3.1629, 40.3619 ], [ -3.162, 40.3619 ] ], [ [ -3.191, 40.3434 ], [ -3.1904, 40.3425 ], [ -3.1905, 40.3422 ], [ -3.1913, 40.3416 ], [ -3.1904, 40.341 ], [ -3.1889, 40.3405 ], [ -3.1888, 40.3403 ], [ -3.1894, 40.3401 ], [ -3.189, 40.3395 ], [ -3.1891, 40.3393 ], [ -3.1889, 40.3389 ], [ -3.1888, 40.3382 ], [ -3.1886, 40.338 ], [ -3.1882, 40.3366 ], [ -3.1883, 40.3363 ], [ -3.189, 40.3354 ], [ -3.1889, 40.3348 ], [ -3.1895, 40.334 ], [ -3.1899, 40.3341 ], [ -3.1903, 40.3335 ], [ -3.1909, 40.3331 ], [ -3.1933, 40.3324 ], [ -3.1933, 40.332 ], [ -3.1928, 40.332 ], [ -3.1922, 40.3318 ], [ -3.192, 40.3319 ], [ -3.1914, 40.3318 ], [ -3.1921, 40.3311 ], [ -3.1924, 40.331 ], [ -3.1927, 40.3307 ], [ -3.1929, 40.3302 ], [ -3.1948, 40.3294 ], [ -3.1951, 40.329 ], [ -3.1951, 40.3283 ], [ -3.1953, 40.3282 ], [ -3.1962, 40.3283 ], [ -3.1963, 40.3285 ], [ -3.1962, 40.3287 ], [ -3.1961, 40.3288 ], [ -3.1958, 40.3287 ], [ -3.1957, 40.3289 ], [ -3.1964, 40.329 ], [ -3.1964, 40.3293 ], [ -3.1966, 40.3296 ], [ -3.1973, 40.3302 ], [ -3.1968, 40.3303 ], [ -3.1967, 40.3307 ], [ -3.1968, 40.3312 ], [ -3.1975, 40.3315 ], [ -3.1975, 40.3318 ], [ -3.197, 40.3325 ], [ -3.1963, 40.3329 ], [ -3.1965, 40.3335 ], [ -3.1964, 40.3338 ], [ -3.196, 40.3339 ], [ -3.1957, 40.3342 ], [ -3.1962, 40.3345 ], [ -3.1973, 40.3342 ], [ -3.1977, 40.3343 ], [ -3.1981, 40.3346 ], [ -3.1986, 40.3356 ], [ -3.1978, 40.3373 ], [ -3.1977, 40.3377 ], [ -3.1981, 40.3382 ], [ -3.1976, 40.3387 ], [ -3.1975, 40.3395 ], [ -3.1976, 40.3396 ], [ -3.1988, 40.3391 ], [ -3.1992, 40.3394 ], [ -3.2001, 40.3404 ], [ -3.2006, 40.3415 ], [ -3.2005, 40.3418 ], [ -3.2003, 40.3423 ], [ -3.1999, 40.342 ], [ -3.1996, 40.342 ], [ -3.1995, 40.3423 ], [ -3.1996, 40.3426 ], [ -3.1989, 40.3429 ], [ -3.1979, 40.3429 ], [ -3.1968, 40.3431 ], [ -3.1954, 40.3427 ], [ -3.194, 40.3428 ], [ -3.1926, 40.3427 ], [ -3.1917, 40.343 ], [ -3.1913, 40.3434 ], [ -3.191, 40.3434 ] ] ] } },
{ "type": "Feature", "properties": { "municipio": "Ambite", "clasificacion": "no-urbanizable-protegido", "calificacion": "sin-asignar", "version": "vigente", "fuente": "SIT-CAM WFS — UsoDelSuelo:VPLA_V_CLASIFICACION (https://idem.comunidad.madrid/geosrvg/ows)", "fecha_dato": "2026-05-12", "ambito": "27512", "_raw_CD_SIGLAS": "SNUP", "_raw_DS_CLASIF_GEN": "Suelo No Urbanizable Protegido", "_raw_DS_CLASIF_DET": "Zona de protección de cañada", "_raw_DS_DOCU": "NORMAS SUBSIDIARIAS", "_raw_DS_LEY": "CM Ley 9/1995, E RDL 1/1992", "_raw_FC_AC": "1995-06-01", "_raw_NM_AREA_M2": 27583.361588880602, "_cam_code": "011" }, "geometry": { "type": "Polygon", "coordinates": [ [ [ -3.1746, 40.3195 ], [ -3.1746, 40.3199 ], [ -3.1749, 40.3197 ], [ -3.1754, 40.3196 ], [ -3.1754, 40.3195 ], [ -3.1758, 40.3196 ], [ -3.1761, 40.3194 ], [ -3.1757, 40.319 ], [ -3.176, 40.3183 ], [ -3.1761, 40.3175 ], [ -3.1765, 40.3168 ], [ -3.1763, 40.3164 ], [ -3.1769, 40.3158 ], [ -3.1763, 40.3159 ], [ -3.1755, 40.3165 ], [ -3.1755, 40.3168 ], [ -3.1757, 40.317 ], [ -3.1754, 40.3175 ], [ -3.1753, 40.3185 ], [ -3.1751, 40.3187 ], [ -3.175, 40.3192 ], [ -3.1747, 40.3193 ], [ -3.1747, 40.3195 ], [ -3.1746, 40.3195 ] ] ] } },
{ "type": "Feature", "properties": { "municipio": "Ambite", "clasificacion": "no-urbanizable-protegido", "calificacion": "sin-asignar", "version": "vigente", "fuente": "SIT-CAM WFS — UsoDelSuelo:VPLA_V_CLASIFICACION (https://idem.comunidad.madrid/geosrvg/ows)", "fecha_dato": "2026-05-12", "ambito": "27512", "_raw_CD_SIGLAS": "SNUP", "_raw_DS_CLASIF_GEN": "Suelo No Urbanizable Protegido", "_raw_DS_CLASIF_DET": "Zona de protección de cañada", "_raw_DS_DOCU": "NORMAS SUBSIDIARIAS", "_raw_DS_LEY": "CM Ley 9/1995, E RDL 1/1992", "_raw_FC_AC": "1995-06-01", "_raw_NM_AREA_M2": 364.45972351520197, "_cam_code": "011" }, "geometry": { "type": "Polygon", "coordinates": [ [ [ -3.1756, 40.3197 ], [ -3.1756, 40.3199 ], [ -3.1758, 40.3199 ], [ -3.1757, 40.3197 ], [ -3.1755, 40.3196 ], [ -3.1754, 40.3197 ], [ -3.1756, 40.3197 ] ] ] } },
{ "type": "Feature", "properties": { "municipio": "Ambite", "clasificacion": "no-urbanizable-protegido", "calificacion": "sin-asignar", "version": "vigente", "fuente": "SIT-CAM WFS — UsoDelSuelo:VPLA_V_CLASIFICACION (https://idem.comunidad.madrid/geosrvg/ows)", "fecha_dato": "2026-05-12", "ambito": "27512", "_raw_CD_SIGLAS": "SNUP", "_raw_DS_CLASIF_GEN": "Suelo No Urbanizable Protegido", "_raw_DS_CLASIF_DET": "Zona de protección de cañada", "_raw_DS_DOCU": "NORMAS SUBSIDIARIAS", "_raw_DS_LEY": "CM Ley 9/1995, E RDL 1/1992", "_raw_FC_AC": "1995-06-01", "_raw_NM_AREA_M2": 3033.0263054106099, "_cam_code": "011" }, "geometry": { "type": "Polygon", "coordinates": [ [ [ -3.1759, 40.3197 ], [ -3.1761, 40.3205 ], [ -3.1763, 40.3205 ], [ -3.1762, 40.3194 ], [ -3.1758, 40.3197 ], [ -3.1759, 40.3197 ] ] ] } },
{ "type": "Feature", "properties": { "municipio": "Ambite", "clasificacion": "no-urbanizable-protegido", "calificacion": "sin-asignar", "version": "vigente", "fuente": "SIT-CAM WFS — UsoDelSuelo:VPLA_V_CLASIFICACION (https://idem.comunidad.madrid/geosrvg/ows)", "fecha_dato": "2026-05-12", "ambito": "27512", "_raw_CD_SIGLAS": "SNUP", "_raw_DS_CLASIF_GEN": "Suelo No Urbanizable Protegido", "_raw_DS_CLASIF_DET": "Zona de protección de cañada", "_raw_DS_DOCU": "NORMAS SUBSIDIARIAS", "_raw_DS_LEY": "CM Ley 9/1995, E RDL 1/1992", "_raw_FC_AC": "1995-06-01", "_raw_NM_AREA_M2": 684.09468025611704, "_cam_code": "011" }, "geometry": { "type": "Polygon", "coordinates": [ [ [ -3.1762, 40.3206 ], [ -3.1764, 40.3214 ], [ -3.1765, 40.3213 ], [ -3.1763, 40.3206 ], [ -3.1762, 40.3206 ] ] ] } },
{ "type": "Feature", "properties": { "municipio": "Ambite", "clasificacion": "no-urbanizable-protegido", "calificacion": "sin-asignar", "version": "vigente", "fuente": "SIT-CAM WFS — UsoDelSuelo:VPLA_V_CLASIFICACION (https://idem.comunidad.madrid/geosrvg/ows)", "fecha_dato": "2026-05-12", "ambito": "27512", "_raw_CD_SIGLAS": "SNUP", "_raw_DS_CLASIF_GEN": "Suelo No Urbanizable Protegido", "_raw_DS_CLASIF_DET": "Zona de protección de cañada", "_raw_DS_DOCU": "NORMAS SUBSIDIARIAS", "_raw_DS_LEY": "CM Ley 9/1995, E RDL 1/1992", "_raw_FC_AC": "1995-06-01", "_raw_NM_AREA_M2": 7040.3739940628402, "_cam_code": "011" }, "geometry": { "type": "Polygon", "coordinates": [ [ [ -3.1758, 40.32 ], [ -3.1756, 40.32 ], [ -3.1755, 40.3206 ], [ -3.1755, 40.3209 ], [ -3.1757, 40.321 ], [ -3.1758, 40.3213 ], [ -3.1757, 40.3217 ], [ -3.1763, 40.3215 ], [ -3.1758, 40.32 ] ] ] } },
{ "type": "Feature", "properties": { "municipio": "Ambite", "clasificacion": "no-urbanizable-protegido", "calificacion": "sin-asignar", "version": "vigente", "fuente": "SIT-CAM WFS — UsoDelSuelo:VPLA_V_CLASIFICACION (https://idem.comunidad.madrid/geosrvg/ows)", "fecha_dato": "2026-05-12", "ambito": "27512", "_raw_CD_SIGLAS": "SNUP", "_raw_DS_CLASIF_GEN": "Suelo No Urbanizable Protegido", "_raw_DS_CLASIF_DET": "Zona de protección de cañada", "_raw_DS_DOCU": "NORMAS SUBSIDIARIAS", "_raw_DS_LEY": "CM Ley 9/1995, E RDL 1/1992", "_raw_FC_AC": "1995-06-01", "_raw_NM_AREA_M2": 1963.23924624437, "_cam_code": "011" }, "geometry": { "type": "Polygon", "coordinates": [ [ [ -3.1762, 40.3221 ], [ -3.1763, 40.3221 ], [ -3.1769, 40.3221 ], [ -3.1764, 40.3217 ], [ -3.1764, 40.3215 ], [ -3.1761, 40.3217 ], [ -3.1762, 40.3221 ] ] ] } },
{ "type": "Feature", "properties": { "municipio": "Ambite", "clasificacion": "no-urbanizable-protegido", "calificacion": "sin-asignar", "version": "vigente", "fuente": "SIT-CAM WFS — UsoDelSuelo:VPLA_V_CLASIFICACION (https://idem.comunidad.madrid/geosrvg/ows)", "fecha_dato": "2026-05-12", "ambito": "27512", "_raw_CD_SIGLAS": "SNUP", "_raw_DS_CLASIF_GEN": "Suelo No Urbanizable Protegido", "_raw_DS_CLASIF_DET": "Zona de protección de cañada", "_raw_DS_DOCU": "NORMAS SUBSIDIARIAS", "_raw_DS_LEY": "CM Ley 9/1995, E RDL 1/1992", "_raw_FC_AC": "1995-06-01", "_raw_NM_AREA_M2": 1612.500041689, "_cam_code": "011" }, "geometry": { "type": "Polygon", "coordinates": [ [ [ -3.1759, 40.3218 ], [ -3.1757, 40.3219 ], [ -3.1765, 40.3226 ], [ -3.1764, 40.323 ], [ -3.1766, 40.3229 ], [ -3.1766, 40.3226 ], [ -3.1759, 40.3218 ] ] ] } },
{ "type": "Feature", "properties": { "municipio": "Ambite", "clasificacion": "no-urbanizable-protegido", "calificacion": "sin-asignar", "version": "vigente", "fuente": "SIT-CAM WFS — UsoDelSuelo:VPLA_V_CLASIFICACION (https://idem.comunidad.madrid/geosrvg/ows)", "fecha_dato": "2026-05-12", "ambito": "27512", "_raw_CD_SIGLAS": "SNUP", "_raw_DS_CLASIF_GEN": "Suelo No Urbanizable Protegido", "_raw_DS_CLASIF_DET": "Zona de protección de cañada", "_raw_DS_DOCU": "NORMAS SUBSIDIARIAS", "_raw_DS_LEY": "CM Ley 9/1995, E RDL 1/1992", "_raw_FC_AC": "1995-06-01", "_raw_NM_AREA_M2": 3482.5614594476101, "_cam_code": "011" }, "geometry": { "type": "Polygon", "coordinates": [ [ [ -3.1767, 40.3231 ], [ -3.1773, 40.3225 ], [ -3.177, 40.3222 ], [ -3.1764, 40.3221 ], [ -3.1767, 40.3225 ], [ -3.1767, 40.3231 ] ] ] } },
{ "type": "Feature", "properties": { "municipio": "Ambite", "clasificacion": "no-urbanizable-protegido", "calificacion": "sin-asignar", "version": "vigente", "fuente": "SIT-CAM WFS — UsoDelSuelo:VPLA_V_CLASIFICACION (https://idem.comunidad.madrid/geosrvg/ows)", "fecha_dato": "2026-05-12", "ambito": "27512", "_raw_CD_SIGLAS": "SNUP", "_raw_DS_CLASIF_GEN": "Suelo No Urbanizable Protegido", "_raw_DS_CLASIF_DET": "Zona de protección de cañada", "_raw_DS_DOCU": "NORMAS SUBSIDIARIAS", "_raw_DS_LEY": "CM Ley 9/1995, E RDL 1/1992", "_raw_FC_AC": "1995-06-01", "_raw_NM_AREA_M2": 133.25084966638801, "_cam_code": "011" }, "geometry": { "type": "Polygon", "coordinates": [ [ [ -3.1768, 40.3244 ], [ -3.1769, 40.3245 ], [ -3.1769, 40.3242 ], [ -3.1768, 40.3244 ] ] ] } },
{ "type": "Feature", "properties": { "municipio": "Ambite", "clasificacion": "no-urbanizable-protegido", "calificacion": "sin-asignar", "version": "vigente", "fuente": "SIT-CAM WFS — UsoDelSuelo:VPLA_V_CLASIFICACION (https://idem.comunidad.madrid/geosrvg/ows)", "fecha_dato": "2026-05-12", "ambito": "27512", "_raw_CD_SIGLAS": "SNUP", "_raw_DS_CLASIF_GEN": "Suelo No Urbanizable Protegido", "_raw_DS_CLASIF_DET": "Zona de protección de cañada", "_raw_DS_DOCU": "NORMAS SUBSIDIARIAS", "_raw_DS_LEY": "CM Ley 9/1995, E RDL 1/1992", "_raw_FC_AC": "1995-06-01", "_raw_NM_AREA_M2": 7180.3329370728798, "_cam_code": "011" }, "geometry": { "type": "Polygon", "coordinates": [ [ [ -3.177, 40.323 ], [ -3.1766, 40.3233 ], [ -3.1765, 40.3236 ], [ -3.1764, 40.3243 ], [ -3.1765, 40.3248 ], [ -3.1771, 40.3237 ], [ -3.1772, 40.3227 ], [ -3.1773, 40.3226 ], [ -3.177, 40.3228 ], [ -3.177, 40.323 ] ] ] } },
{ "type": "Feature", "properties": { "municipio": "Ambite", "clasificacion": "no-urbanizable-protegido", "calificacion": "sin-asignar", "version": "vigente", "fuente": "SIT-CAM WFS — UsoDelSuelo:VPLA_V_CLASIFICACION (https://idem.comunidad.madrid/geosrvg/ows)", "fecha_dato": "2026-05-12", "ambito": "27512", "_raw_CD_SIGLAS": "SNUP", "_raw_DS_CLASIF_GEN": "Suelo No Urbanizable Protegido", "_raw_DS_CLASIF_DET": "Zona de protección de cañada", "_raw_DS_DOCU": "NORMAS SUBSIDIARIAS", "_raw_DS_LEY": "CM Ley 9/1995, E RDL 1/1992", "_raw_FC_AC": "1995-06-01", "_raw_NM_AREA_M2": 2942.1416469973701, "_cam_code": "011" }, "geometry": { "type": "Polygon", "coordinates": [ [ [ -3.1772, 40.3254 ], [ -3.1774, 40.3254 ], [ -3.1774, 40.3252 ], [ -3.1768, 40.3246 ], [ -3.1767, 40.325 ], [ -3.1772, 40.3254 ] ] ] } },
{ "type": "Feature", "properties": { "municipio": "Ambite", "clasificacion": "no-urbanizable-protegido", "calificacion": "sin-asignar", "version": "vigente", "fuente": "SIT-CAM WFS — UsoDelSuelo:VPLA_V_CLASIFICACION (https://idem.comunidad.madrid/geosrvg/ows)", "fecha_dato": "2026-05-12", "ambito": "27512", "_raw_CD_SIGLAS": "SNUP", "_raw_DS_CLASIF_GEN": "Suelo No Urbanizable Protegido", "_raw_DS_CLASIF_DET": "Zona de protección de cañada", "_raw_DS_DOCU": "NORMAS SUBSIDIARIAS", "_raw_DS_LEY": "CM Ley 9/1995, E RDL 1/1992", "_raw_FC_AC": "1995-06-01", "_raw_NM_AREA_M2": 1191.41318043091, "_cam_code": "011" }, "geometry": { "type": "Polygon", "coordinates": [ [ [ -3.1767, 40.3253 ], [ -3.1771, 40.3261 ], [ -3.1771, 40.3256 ], [ -3.1767, 40.3253 ] ] ] } },
{ "type": "Feature", "properties": { "municipio": "Ambite", "clasificacion": "no-urbanizable-protegido", "calificacion": "sin-asignar", "version": "vigente", "fuente": "SIT-CAM WFS — UsoDelSuelo:VPLA_V_CLASIFICACION (https://idem.comunidad.madrid/geosrvg/ows)", "fecha_dato": "2026-05-12", "ambito": "27512", "_raw_CD_SIGLAS": "SNUP", "_raw_DS_CLASIF_GEN": "Suelo No Urbanizable Protegido", "_raw_DS_CLASIF_DET": "Zona de protección de cañada", "_raw_DS_DOCU": "NORMAS SUBSIDIARIAS", "_raw_DS_LEY": "CM Ley 9/1995, E RDL 1/1992", "_raw_FC_AC": "1995-06-01", "_raw_NM_AREA_M2": 4801.1502607981402, "_cam_code": "011" }, "geometry": { "type": "Polygon", "coordinates": [ [ [ -3.1775, 40.3255 ], [ -3.1773, 40.3255 ], [ -3.1773, 40.3263 ], [ -3.1769, 40.3269 ], [ -3.1769, 40.3271 ], [ -3.1776, 40.3266 ], [ -3.1776, 40.3264 ], [ -3.1777, 40.3264 ], [ -3.1775, 40.3255 ] ] ] } },
{ "type": "Feature", "properties": { "municipio": "Ambite", "clasificacion": "urbano-consolidado", "calificacion": "sin-asignar", "version": "vigente", "fuente": "SIT-CAM WFS — UsoDelSuelo:VPLA_V_CLASIFICACION (https://idem.comunidad.madrid/geosrvg/ows)", "fecha_dato": "2026-05-12", "ambito": "27512", "_raw_CD_SIGLAS": "SU", "_raw_DS_CLASIF_GEN": "Suelo Urbano", "_raw_DS_CLASIF_DET": "Suelo Urbano", "_raw_DS_DOCU": "NORMAS SUBSIDIARIAS", "_raw_DS_LEY": "CM Ley 9/1995, E RDL 1/1992", "_raw_FC_AC": "1995-06-01", "_raw_NM_AREA_M2": 393487.86033661402, "_cam_code": "011" }, "geometry": { "type": "Polygon", "coordinates": [ [ [ -3.1827, 40.3337 ], [ -3.1831, 40.3334 ], [ -3.1826, 40.3329 ], [ -3.1827, 40.3316 ], [ -3.1828, 40.3316 ], [ -3.1836, 40.3293 ], [ -3.1851, 40.329 ], [ -3.1857, 40.3287 ], [ -3.1862, 40.3288 ], [ -3.1869, 40.3287 ], [ -3.1874, 40.3282 ], [ -3.1873, 40.3279 ], [ -3.1882, 40.3272 ], [ -3.1879, 40.3265 ], [ -3.1875, 40.3262 ], [ -3.1869, 40.3264 ], [ -3.1867, 40.3266 ], [ -3.1866, 40.327 ], [ -3.1864, 40.327 ], [ -3.1861, 40.3268 ], [ -3.1861, 40.3266 ], [ -3.1841, 40.3255 ], [ -3.1836, 40.326 ], [ -3.1815, 40.3245 ], [ -3.1814, 40.3244 ], [ -3.1815, 40.3243 ], [ -3.1812, 40.324 ], [ -3.1809, 40.3242 ], [ -3.1807, 40.3251 ], [ -3.1803, 40.3254 ], [ -3.1802, 40.326 ], [ -3.1797, 40.3267 ], [ -3.1796, 40.3271 ], [ -3.1794, 40.3271 ], [ -3.1784, 40.3277 ], [ -3.1793, 40.3282 ], [ -3.1792, 40.329 ], [ -3.1785, 40.3297 ], [ -3.1786, 40.3302 ], [ -3.1788, 40.3303 ], [ -3.1786, 40.3309 ], [ -3.179, 40.331 ], [ -3.1798, 40.3316 ], [ -3.1797, 40.3322 ], [ -3.18, 40.3321 ], [ -3.1807, 40.3325 ], [ -3.1818, 40.3328 ], [ -3.1827, 40.3337 ] ] ] } },
{ "type": "Feature", "properties": { "municipio": "Ambite", "clasificacion": "urbano-consolidado", "calificacion": "sin-asignar", "version": "vigente", "fuente": "SIT-CAM WFS — UsoDelSuelo:VPLA_V_CLASIFICACION (https://idem.comunidad.madrid/geosrvg/ows)", "fecha_dato": "2026-05-12", "ambito": "27512", "_raw_CD_SIGLAS": "SU", "_raw_DS_CLASIF_GEN": "Suelo Urbano", "_raw_DS_CLASIF_DET": "Suelo Urbano", "_raw_DS_DOCU": "NORMAS SUBSIDIARIAS", "_raw_DS_LEY": "CM Ley 9/1995, E RDL 1/1992", "_raw_FC_AC": "1995-06-01", "_raw_NM_AREA_M2": 951947.57583344996, "_cam_code": "011" }, "geometry": { "type": "Polygon", "coordinates": [ [ [ -3.1768, 40.3271 ], [ -3.1772, 40.3275 ], [ -3.1774, 40.3273 ], [ -3.1771, 40.3273 ], [ -3.1771, 40.3271 ], [ -3.1779, 40.3265 ], [ -3.1783, 40.3267 ], [ -3.1785, 40.3265 ], [ -3.179, 40.3259 ], [ -3.1786, 40.3257 ], [ -3.1788, 40.3256 ], [ -3.1795, 40.3245 ], [ -3.1794, 40.3244 ], [ -3.1799, 40.3242 ], [ -3.1802, 40.3237 ], [ -3.1811, 40.3231 ], [ -3.1822, 40.3221 ], [ -3.1827, 40.3214 ], [ -3.1827, 40.3212 ], [ -3.1836, 40.3203 ], [ -3.1838, 40.3198 ], [ -3.1838, 40.3192 ], [ -3.1841, 40.3186 ], [ -3.1839, 40.318 ], [ -3.1833, 40.3177 ], [ -3.1828, 40.317 ], [ -3.1824, 40.3167 ], [ -3.1819, 40.3165 ], [ -3.1814, 40.3156 ], [ -3.1797, 40.3139 ], [ -3.1797, 40.3142 ], [ -3.1784, 40.3154 ], [ -3.1769, 40.3158 ], [ -3.1763, 40.3164 ], [ -3.1765, 40.3168 ], [ -3.1761, 40.3175 ], [ -3.176, 40.3183 ], [ -3.1757, 40.319 ], [ -3.1761, 40.3194 ], [ -3.1758, 40.3196 ], [ -3.1754, 40.3195 ], [ -3.1754, 40.3196 ], [ -3.1749, 40.3197 ], [ -3.1746, 40.3199 ], [ -3.1746, 40.3195 ], [ -3.1747, 40.3195 ], [ -3.1747, 40.3193 ], [ -3.175, 40.3192 ], [ -3.1751, 40.3187 ], [ -3.1753, 40.3185 ], [ -3.1754, 40.3175 ], [ -3.1757, 40.317 ], [ -3.1755, 40.3168 ], [ -3.1755, 40.3168 ], [ -3.1755, 40.3167 ], [ -3.1755, 40.3166 ], [ -3.1755, 40.3165 ], [ -3.1756, 40.3165 ], [ -3.1747, 40.3171 ], [ -3.169, 40.3222 ], [ -3.175, 40.3272 ], [ -3.1759, 40.3268 ], [ -3.176, 40.3266 ], [ -3.177, 40.3264 ], [ -3.1768, 40.3271 ] ], [ [ -3.1769, 40.3245 ], [ -3.1768, 40.3244 ], [ -3.1769, 40.3242 ], [ -3.1769, 40.3245 ] ], [ [ -3.1755, 40.3196 ], [ -3.1757, 40.3197 ], [ -3.1758, 40.3199 ], [ -3.1756, 40.3199 ], [ -3.1756, 40.3197 ], [ -3.1754, 40.3197 ], [ -3.1755, 40.3196 ] ], [ [ -3.1764, 40.3214 ], [ -3.1762, 40.3208 ], [ -3.1762, 40.3206 ], [ -3.1763, 40.3206 ], [ -3.1765, 40.3213 ], [ -3.1764, 40.3214 ] ], [ [ -3.1767, 40.3253 ], [ -3.1771, 40.3256 ], [ -3.1771, 40.3256 ], [ -3.1771, 40.3257 ], [ -3.1771, 40.3257 ], [ -3.1771, 40.3257 ], [ -3.1771, 40.3258 ], [ -3.1771, 40.3258 ], [ -3.1771, 40.3258 ], [ -3.1771, 40.3259 ], [ -3.1771, 40.3259 ], [ -3.1771, 40.3259 ], [ -3.1771, 40.326 ], [ -3.1771, 40.3261 ], [ -3.1767, 40.3253 ] ], [ [ -3.1761, 40.3221 ], [ -3.1766, 40.3226 ], [ -3.1766, 40.3229 ], [ -3.1764, 40.323 ], [ -3.1765, 40.3226 ], [ -3.1757, 40.3219 ], [ -3.176, 40.3218 ], [ -3.1761, 40.3221 ] ], [ [ -3.1761, 40.3217 ], [ -3.1764, 40.3215 ], [ -3.1764, 40.3217 ], [ -3.1769, 40.3221 ], [ -3.1769, 40.3221 ], [ -3.1769, 40.3221 ], [ -3.1768, 40.3221 ], [ -3.1768, 40.3221 ], [ -3.1767, 40.3221 ], [ -3.1766, 40.3221 ], [ -3.1766, 40.3221 ], [ -3.1765, 40.3221 ], [ -3.1764, 40.3221 ], [ -3.1762, 40.3221 ], [ -3.1761, 40.3217 ] ], [ [ -3.1772, 40.3254 ], [ -3.1767, 40.325 ], [ -3.1768, 40.3246 ], [ -3.1774, 40.3252 ], [ -3.1774, 40.3254 ], [ -3.1772, 40.3254 ] ], [ [ -3.1761, 40.3205 ], [ -3.1759, 40.3197 ], [ -3.1758, 40.3197 ], [ -3.1762, 40.3194 ], [ -3.1763, 40.3205 ], [ -3.1761, 40.3205 ] ], [ [ -3.1767, 40.3231 ], [ -3.1767, 40.3225 ], [ -3.1764, 40.3221 ], [ -3.177, 40.3222 ], [ -3.1773, 40.3225 ], [ -3.177, 40.3227 ], [ -3.1768, 40.3231 ], [ -3.1768, 40.323 ], [ -3.1767, 40.3231 ] ], [ [ -3.1776, 40.3266 ], [ -3.1769, 40.3271 ], [ -3.1769, 40.3269 ], [ -3.1773, 40.3263 ], [ -3.1773, 40.3255 ], [ -3.1775, 40.3255 ], [ -3.1777, 40.3264 ], [ -3.1776, 40.3264 ], [ -3.1776, 40.3266 ] ], [ [ -3.1763, 40.3214 ], [ -3.1757, 40.3217 ], [ -3.1758, 40.3213 ], [ -3.1757, 40.321 ], [ -3.1755, 40.3209 ], [ -3.1756, 40.32 ], [ -3.1758, 40.32 ], [ -3.1761, 40.321 ], [ -3.1762, 40.321 ], [ -3.1763, 40.3214 ] ], [ [ -3.1765, 40.3248 ], [ -3.1764, 40.3243 ], [ -3.1766, 40.3233 ], [ -3.177, 40.323 ], [ -3.1771, 40.3227 ], [ -3.1773, 40.3226 ], [ -3.1772, 40.3227 ], [ -3.1771, 40.3237 ], [ -3.1765, 40.3248 ] ] ] } },
{ "type": "Feature", "properties": { "municipio": "Ambite", "clasificacion": "urbanizable-no-sectorizado", "calificacion": "sin-asignar", "version": "vigente", "fuente": "SIT-CAM WFS — UsoDelSuelo:VPLA_V_CLASIFICACION (https://idem.comunidad.madrid/geosrvg/ows)", "fecha_dato": "2026-05-12", "ambito": "27512", "_raw_CD_SIGLAS": "SUBNS", "_raw_DS_CLASIF_GEN": "Suelo No Urbanizable Común", "_raw_DS_CLASIF_DET": "Suelo No Urbanizable Común", "_raw_DS_DOCU": "NORMAS SUBSIDIARIAS", "_raw_DS_LEY": "CM Ley 9/1995, E RDL 1/1992", "_raw_FC_AC": "1995-06-01", "_raw_NM_AREA_M2": 2524796.1132285199, "_cam_code": "011" }, "geometry": { "type": "Polygon", "coordinates": [ [ [ -3.1743, 40.3534 ], [ -3.1751, 40.3539 ], [ -3.1757, 40.3541 ], [ -3.1755, 40.356 ], [ -3.1744, 40.3563 ], [ -3.1723, 40.3583 ], [ -3.1723, 40.3594 ], [ -3.1726, 40.36 ], [ -3.173, 40.3604 ], [ -3.1729, 40.3607 ], [ -3.1733, 40.3612 ], [ -3.1744, 40.3619 ], [ -3.1762, 40.3626 ], [ -3.1767, 40.3631 ], [ -3.1769, 40.3623 ], [ -3.1767, 40.3615 ], [ -3.1772, 40.3601 ], [ -3.1781, 40.3594 ], [ -3.1841, 40.3582 ], [ -3.1879, 40.3565 ], [ -3.19, 40.355 ], [ -3.192, 40.354 ], [ -3.1966, 40.3524 ], [ -3.1987, 40.3506 ], [ -3.2004, 40.3488 ], [ -3.2045, 40.344 ], [ -3.2037, 40.3427 ], [ -3.2032, 40.3425 ], [ -3.2025, 40.3425 ], [ -3.2017, 40.3427 ], [ -3.2016, 40.343 ], [ -3.2008, 40.3434 ], [ -3.201, 40.3435 ], [ -3.2006, 40.3438 ], [ -3.2003, 40.3443 ], [ -3.1993, 40.3446 ], [ -3.1993, 40.3448 ], [ -3.1993, 40.3447 ], [ -3.199, 40.3448 ], [ -3.1981, 40.3459 ], [ -3.1975, 40.3461 ], [ -3.1967, 40.3461 ], [ -3.1966, 40.346 ], [ -3.1958, 40.3462 ], [ -3.1949, 40.3462 ], [ -3.1941, 40.346 ], [ -3.1938, 40.3463 ], [ -3.1938, 40.3468 ], [ -3.1935, 40.3471 ], [ -3.1934, 40.3483 ], [ -3.1928, 40.3482 ], [ -3.1909, 40.349 ], [ -3.1885, 40.3497 ], [ -3.188, 40.3497 ], [ -3.1871, 40.3489 ], [ -3.187, 40.3479 ], [ -3.1868, 40.3475 ], [ -3.1856, 40.3481 ], [ -3.1835, 40.3484 ], [ -3.1809, 40.3478 ], [ -3.1788, 40.3478 ], [ -3.1785, 40.3476 ], [ -3.1782, 40.3471 ], [ -3.178, 40.3464 ], [ -3.178, 40.3458 ], [ -3.1776, 40.3455 ], [ -3.1781, 40.3452 ], [ -3.1796, 40.3451 ], [ -3.182, 40.3455 ], [ -3.1828, 40.3454 ], [ -3.1835, 40.3448 ], [ -3.1836, 40.3443 ], [ -3.1834, 40.3435 ], [ -3.1821, 40.3431 ], [ -3.1814, 40.3431 ], [ -3.181, 40.3433 ], [ -3.1801, 40.3442 ], [ -3.1786, 40.3444 ], [ -3.177, 40.3444 ], [ -3.1759, 40.3449 ], [ -3.1759, 40.3456 ], [ -3.1762, 40.347 ], [ -3.1747, 40.3475 ], [ -3.1744, 40.3478 ], [ -3.1737, 40.3499 ], [ -3.1739, 40.3505 ], [ -3.1717, 40.3518 ], [ -3.1711, 40.3524 ], [ -3.171, 40.3528 ], [ -3.1725, 40.3542 ], [ -3.1743, 40.3534 ] ] ] } },
{ "type": "Feature", "properties": { "municipio": "Ambite", "clasificacion": "urbanizable-no-sectorizado", "calificacion": "sin-asignar", "version": "vigente", "fuente": "SIT-CAM WFS — UsoDelSuelo:VPLA_V_CLASIFICACION (https://idem.comunidad.madrid/geosrvg/ows)", "fecha_dato": "2026-05-12", "ambito": "27512", "_raw_CD_SIGLAS": "SUBNS", "_raw_DS_CLASIF_GEN": "Suelo No Urbanizable Común", "_raw_DS_CLASIF_DET": "Suelo No Urbanizable Común", "_raw_DS_DOCU": "NORMAS SUBSIDIARIAS", "_raw_DS_LEY": "CM Ley 9/1995, E RDL 1/1992", "_raw_FC_AC": "1995-06-01", "_raw_NM_AREA_M2": 1004299.27949484, "_cam_code": "011" }, "geometry": { "type": "Polygon", "coordinates": [ [ [ -3.1904, 40.3425 ], [ -3.191, 40.3434 ], [ -3.1913, 40.3434 ], [ -3.1917, 40.343 ], [ -3.1926, 40.3427 ], [ -3.194, 40.3428 ], [ -3.1954, 40.3427 ], [ -3.1968, 40.3431 ], [ -3.1979, 40.3429 ], [ -3.1989, 40.3429 ], [ -3.1996, 40.3426 ], [ -3.1995, 40.3423 ], [ -3.1996, 40.342 ], [ -3.1999, 40.342 ], [ -3.2003, 40.3423 ], [ -3.2005, 40.3418 ], [ -3.2006, 40.3415 ], [ -3.2001, 40.3404 ], [ -3.1992, 40.3394 ], [ -3.1988, 40.3391 ], [ -3.1976, 40.3396 ], [ -3.1975, 40.3395 ], [ -3.1976, 40.3387 ], [ -3.1981, 40.3382 ], [ -3.1977, 40.3377 ], [ -3.1978, 40.3373 ], [ -3.1986, 40.3356 ], [ -3.1981, 40.3346 ], [ -3.1977, 40.3343 ], [ -3.1973, 40.3342 ], [ -3.1962, 40.3345 ], [ -3.1957, 40.3342 ], [ -3.196, 40.3339 ], [ -3.1964, 40.3338 ], [ -3.1965, 40.3335 ], [ -3.1963, 40.3329 ], [ -3.197, 40.3325 ], [ -3.1975, 40.3318 ], [ -3.1975, 40.3315 ], [ -3.1968, 40.3312 ], [ -3.1967, 40.3307 ], [ -3.1968, 40.3303 ], [ -3.1973, 40.3302 ], [ -3.1966, 40.3296 ], [ -3.1964, 40.3293 ], [ -3.1964, 40.329 ], [ -3.1957, 40.3289 ], [ -3.1958, 40.3287 ], [ -3.1961, 40.3288 ], [ -3.1962, 40.3287 ], [ -3.1963, 40.3285 ], [ -3.1962, 40.3283 ], [ -3.1953, 40.3282 ], [ -3.1951, 40.3283 ], [ -3.1951, 40.329 ], [ -3.1948, 40.3294 ], [ -3.1929, 40.3302 ], [ -3.1927, 40.3307 ], [ -3.1924, 40.331 ], [ -3.1921, 40.3311 ], [ -3.1914, 40.3318 ], [ -3.192, 40.3319 ], [ -3.1922, 40.3318 ], [ -3.1928, 40.332 ], [ -3.1933, 40.332 ], [ -3.1933, 40.3324 ], [ -3.1909, 40.3331 ], [ -3.1903, 40.3335 ], [ -3.1899, 40.3341 ], [ -3.1895, 40.334 ], [ -3.1889, 40.3348 ], [ -3.189, 40.3354 ], [ -3.1883, 40.3363 ], [ -3.1882, 40.3366 ], [ -3.1886, 40.338 ], [ -3.1888, 40.3382 ], [ -3.1889, 40.3389 ], [ -3.1891, 40.3393 ], [ -3.189, 40.3395 ], [ -3.1894, 40.3401 ], [ -3.1888, 40.3403 ], [ -3.1889, 40.3405 ], [ -3.1904, 40.341 ], [ -3.1913, 40.3416 ], [ -3.1905, 40.3422 ], [ -3.1904, 40.3425 ] ] ] } },
{ "type": "Feature", "properties": { "municipio": "Ambite", "clasificacion": "urbanizable-no-sectorizado", "calificacion": "sin-asignar", "version": "vigente", "fuente": "SIT-CAM WFS — UsoDelSuelo:VPLA_V_CLASIFICACION (https://idem.comunidad.madrid/geosrvg/ows)", "fecha_dato": "2026-05-12", "ambito": "27512", "_raw_CD_SIGLAS": "SUBNS", "_raw_DS_CLASIF_GEN": "Suelo No Urbanizable Común", "_raw_DS_CLASIF_DET": "Suelo No Urbanizable Común", "_raw_DS_DOCU": "NORMAS SUBSIDIARIAS", "_raw_DS_LEY": "CM Ley 9/1995, E RDL 1/1992", "_raw_FC_AC": "1995-06-01", "_raw_NM_AREA_M2": 325526.050175727, "_cam_code": "011" }, "geometry": { "type": "Polygon", "coordinates": [ [ [ -3.1601, 40.362 ], [ -3.1601, 40.3627 ], [ -3.162, 40.3619 ], [ -3.1629, 40.3619 ], [ -3.1639, 40.3623 ], [ -3.1642, 40.3623 ], [ -3.1644, 40.3622 ], [ -3.1645, 40.3619 ], [ -3.1646, 40.3608 ], [ -3.1701, 40.3594 ], [ -3.171, 40.3588 ], [ -3.1716, 40.3584 ], [ -3.1719, 40.3584 ], [ -3.1698, 40.3584 ], [ -3.1697, 40.3581 ], [ -3.1699, 40.3577 ], [ -3.1697, 40.3574 ], [ -3.1671, 40.3576 ], [ -3.167, 40.3579 ], [ -3.1664, 40.3585 ], [ -3.1659, 40.3581 ], [ -3.1648, 40.3578 ], [ -3.1647, 40.3574 ], [ -3.1644, 40.3571 ], [ -3.1606, 40.3577 ], [ -3.1597, 40.3581 ], [ -3.1593, 40.3588 ], [ -3.1602, 40.3594 ], [ -3.1602, 40.3599 ], [ -3.1607, 40.3607 ], [ -3.1604, 40.361 ], [ -3.1605, 40.3612 ], [ -3.1601, 40.362 ] ] ] } },
{ "type": "Feature", "properties": { "municipio": "Ambite", "clasificacion": "urbanizable-sectorizado", "calificacion": "sin-asignar", "version": "vigente", "fuente": "SIT-CAM WFS — UsoDelSuelo:VPLA_V_CLASIFICACION (https://idem.comunidad.madrid/geosrvg/ows)", "fecha_dato": "2026-05-12", "ambito": "27512", "_raw_CD_SIGLAS": "SUBS", "_raw_DS_CLASIF_GEN": "Suelo Apto Para Urbanizar", "_raw_DS_CLASIF_DET": "Suelo Apto para Urbanizar", "_raw_DS_DOCU": "NORMAS SUBSIDIARIAS", "_raw_DS_LEY": "CM Ley 9/1995, E RDL 1/1992", "_raw_FC_AC": "1995-06-01", "_raw_NM_AREA_M2": 75805.455960337102, "_cam_code": "011" }, "geometry": { "type": "Polygon", "coordinates": [ [ [ -3.2014, 40.3223 ], [ -3.202, 40.3213 ], [ -3.2021, 40.3213 ], [ -3.2021, 40.321 ], [ -3.2011, 40.3211 ], [ -3.2011, 40.321 ], [ -3.2007, 40.3208 ], [ -3.2003, 40.3207 ], [ -3.1997, 40.3202 ], [ -3.199, 40.32 ], [ -3.1984, 40.32 ], [ -3.1957, 40.3192 ], [ -3.1956, 40.3193 ], [ -3.195, 40.3193 ], [ -3.1958, 40.3203 ], [ -3.1963, 40.3205 ], [ -3.1964, 40.3204 ], [ -3.1964, 40.3205 ], [ -3.2014, 40.3223 ] ] ] } }
]
}
