{
"type": "FeatureCollection",
"name": "vigente.full",
"features": [
{ "type": "Feature", "properties": { "municipio": "Berzosa del Lozoya", "clasificacion": "no-urbanizable-protegido", "calificacion": "sin-asignar", "version": "vigente", "fuente": "SIT-CAM WFS — UsoDelSuelo:VPLA_V_CLASIFICACION (https://idem.comunidad.madrid/geosrvg/ows)", "fecha_dato": "2026-05-12", "ambito": "19038", "_raw_CD_SIGLAS": "SNUP", "_raw_DS_CLASIF_GEN": "Suelo No Urbanizable Protegido", "_raw_DS_CLASIF_DET": "Suelo No Urbanizable Especialmente Protegido Paisajístico", "_raw_DS_DOCU": "NORMAS SUBSIDIARIAS", "_raw_DS_LEY": "CM Ley 4/1984, E RD 1346/1976", "_raw_FC_AC": "1992-07-23", "_raw_NM_AREA_M2": 3776738.1766285002, "_cam_code": "020" }, "geometry": { "type": "Polygon", "coordinates": [ [ [ -3.5044, 40.9879 ], [ -3.5052, 40.988 ], [ -3.5051, 40.9883 ], [ -3.505, 40.9883 ], [ -3.5051, 40.9885 ], [ -3.5056, 40.9885 ], [ -3.506, 40.9888 ], [ -3.5067, 40.9886 ], [ -3.5072, 40.9882 ], [ -3.5088, 40.9875 ], [ -3.5097, 40.9876 ], [ -3.5101, 40.9878 ], [ -3.512, 40.988 ], [ -3.513, 40.9884 ], [ -3.5154, 40.9884 ], [ -3.5157, 40.9881 ], [ -3.516, 40.9869 ], [ -3.5152, 40.9853 ], [ -3.5152, 40.9845 ], [ -3.5162, 40.9832 ], [ -3.5167, 40.9819 ], [ -3.5177, 40.9814 ], [ -3.518, 40.9811 ], [ -3.5196, 40.9811 ], [ -3.5202, 40.9814 ], [ -3.5209, 40.9815 ], [ -3.5229, 40.9825 ], [ -3.5232, 40.9828 ], [ -3.5233, 40.9831 ], [ -3.5234, 40.9827 ], [ -3.5232, 40.9826 ], [ -3.5232, 40.9822 ], [ -3.5237, 40.9816 ], [ -3.5237, 40.9812 ], [ -3.5236, 40.9807 ], [ -3.5231, 40.9799 ], [ -3.5231, 40.9789 ], [ -3.5233, 40.9785 ], [ -3.5232, 40.978 ], [ -3.5231, 40.978 ], [ -3.5232, 40.9773 ], [ -3.5228, 40.9771 ], [ -3.5228, 40.9768 ], [ -3.5226, 40.9767 ], [ -3.5227, 40.9765 ], [ -3.5227, 40.9764 ], [ -3.5226, 40.9765 ], [ -3.5226, 40.976 ], [ -3.5223, 40.976 ], [ -3.5221, 40.9762 ], [ -3.5219, 40.9762 ], [ -3.5219, 40.9761 ], [ -3.5213, 40.976 ], [ -3.521, 40.9757 ], [ -3.5204, 40.9763 ], [ -3.5201, 40.9764 ], [ -3.5201, 40.9766 ], [ -3.5196, 40.9766 ], [ -3.5195, 40.9768 ], [ -3.5193, 40.9768 ], [ -3.519, 40.9759 ], [ -3.519, 40.9757 ], [ -3.5192, 40.9756 ], [ -3.5187, 40.9756 ], [ -3.5186, 40.9752 ], [ -3.5194, 40.975 ], [ -3.5194, 40.9747 ], [ -3.5192, 40.9743 ], [ -3.5188, 40.9741 ], [ -3.5188, 40.9739 ], [ -3.5199, 40.9735 ], [ -3.5203, 40.9735 ], [ -3.5211, 40.9742 ], [ -3.5212, 40.9742 ], [ -3.5212, 40.9739 ], [ -3.5219, 40.9739 ], [ -3.5219, 40.973 ], [ -3.522, 40.973 ], [ -3.5221, 40.9726 ], [ -3.5232, 40.9717 ], [ -3.5235, 40.9713 ], [ -3.5235, 40.9707 ], [ -3.5232, 40.9703 ], [ -3.5231, 40.9695 ], [ -3.5243, 40.9696 ], [ -3.5245, 40.9693 ], [ -3.5257, 40.9688 ], [ -3.5262, 40.9683 ], [ -3.5271, 40.968 ], [ -3.5275, 40.968 ], [ -3.5285, 40.9676 ], [ -3.5287, 40.9674 ], [ -3.5291, 40.9674 ], [ -3.5291, 40.9677 ], [ -3.5288, 40.9684 ], [ -3.5285, 40.9685 ], [ -3.5282, 40.9689 ], [ -3.5283, 40.9695 ], [ -3.5283, 40.9694 ], [ -3.5286, 40.9693 ], [ -3.5289, 40.9693 ], [ -3.53, 40.9697 ], [ -3.5306, 40.9696 ], [ -3.5311, 40.9683 ], [ -3.5317, 40.9679 ], [ -3.5325, 40.9671 ], [ -3.5332, 40.9659 ], [ -3.534, 40.9653 ], [ -3.5361, 40.9632 ], [ -3.5377, 40.9619 ], [ -3.5378, 40.9617 ], [ -3.5368, 40.9596 ], [ -3.5357, 40.9597 ], [ -3.5309, 40.9627 ], [ -3.5262, 40.9647 ], [ -3.5245, 40.9641 ], [ -3.512, 40.9651 ], [ -3.5095, 40.9646 ], [ -3.5014, 40.9737 ], [ -3.5018, 40.9743 ], [ -3.5027, 40.9741 ], [ -3.5035, 40.9741 ], [ -3.5039, 40.9742 ], [ -3.5043, 40.9746 ], [ -3.5051, 40.975 ], [ -3.506, 40.9762 ], [ -3.5066, 40.9767 ], [ -3.5068, 40.9771 ], [ -3.5073, 40.9776 ], [ -3.5074, 40.9779 ], [ -3.5073, 40.9789 ], [ -3.5074, 40.9791 ], [ -3.5083, 40.9796 ], [ -3.5083, 40.9804 ], [ -3.5078, 40.9811 ], [ -3.5078, 40.9815 ], [ -3.5081, 40.9825 ], [ -3.5075, 40.9829 ], [ -3.507, 40.9837 ], [ -3.5075, 40.9845 ], [ -3.5078, 40.9847 ], [ -3.5077, 40.9853 ], [ -3.5079, 40.986 ], [ -3.5067, 40.9867 ], [ -3.5059, 40.9868 ], [ -3.505, 40.9873 ], [ -3.5044, 40.9878 ], [ -3.5044, 40.9879 ] ] ] } },
{ "type": "Feature", "properties": { "municipio": "Berzosa del Lozoya", "clasificacion": "no-urbanizable-protegido", "calificacion": "sin-asignar", "version": "vigente", "fuente": "SIT-CAM WFS — UsoDelSuelo:VPLA_V_CLASIFICACION (https://idem.comunidad.madrid/geosrvg/ows)", "fecha_dato": "2026-05-12", "ambito": "19038", "_raw_CD_SIGLAS": "SNUP", "_raw_DS_CLASIF_GEN": "Suelo No Urbanizable Protegido", "_raw_DS_CLASIF_DET": "Suelo No Urbanizable Especialmente Protegido Cultural", "_raw_DS_DOCU": "NORMAS SUBSIDIARIAS", "_raw_DS_LEY": "CM Ley 4/1984, E RD 1346/1976", "_raw_FC_AC": "1992-07-23", "_raw_NM_AREA_M2": 40945.835236503102, "_cam_code": "020" }, "geometry": { "type": "Polygon", "coordinates": [ [ [ -3.5461, 40.9752 ], [ -3.5457, 40.9769 ], [ -3.5453, 40.9777 ], [ -3.5439, 40.9795 ], [ -3.5442, 40.9794 ], [ -3.5448, 40.9788 ], [ -3.5458, 40.9774 ], [ -3.546, 40.9766 ], [ -3.5462, 40.9772 ], [ -3.5454, 40.9789 ], [ -3.5456, 40.9789 ], [ -3.5464, 40.9773 ], [ -3.5464, 40.9768 ], [ -3.5461, 40.9762 ], [ -3.5462, 40.9755 ], [ -3.5467, 40.9747 ], [ -3.5476, 40.9741 ], [ -3.5479, 40.9732 ], [ -3.5486, 40.9727 ], [ -3.5488, 40.9719 ], [ -3.5494, 40.9707 ], [ -3.5502, 40.9707 ], [ -3.5507, 40.9705 ], [ -3.551, 40.9702 ], [ -3.5511, 40.9697 ], [ -3.552, 40.9692 ], [ -3.553, 40.969 ], [ -3.5536, 40.9683 ], [ -3.5541, 40.9681 ], [ -3.5542, 40.9678 ], [ -3.5545, 40.9675 ], [ -3.5549, 40.9674 ], [ -3.555, 40.9672 ], [ -3.5544, 40.9673 ], [ -3.5528, 40.9689 ], [ -3.5519, 40.969 ], [ -3.551, 40.9695 ], [ -3.5509, 40.9698 ], [ -3.5508, 40.9698 ], [ -3.5508, 40.9701 ], [ -3.5505, 40.9704 ], [ -3.5493, 40.9706 ], [ -3.549, 40.9709 ], [ -3.5484, 40.9726 ], [ -3.5477, 40.9731 ], [ -3.5474, 40.9739 ], [ -3.5468, 40.9745 ], [ -3.5465, 40.9746 ], [ -3.5461, 40.9752 ] ] ] } },
{ "type": "Feature", "properties": { "municipio": "Berzosa del Lozoya", "clasificacion": "no-urbanizable-protegido", "calificacion": "sin-asignar", "version": "vigente", "fuente": "SIT-CAM WFS — UsoDelSuelo:VPLA_V_CLASIFICACION (https://idem.comunidad.madrid/geosrvg/ows)", "fecha_dato": "2026-05-12", "ambito": "19038", "_raw_CD_SIGLAS": "SNUP", "_raw_DS_CLASIF_GEN": "Suelo No Urbanizable Protegido", "_raw_DS_CLASIF_DET": "Suelo No Urbanizable Especialmente Protegido Cultural", "_raw_DS_DOCU": "NORMAS SUBSIDIARIAS", "_raw_DS_LEY": "CM Ley 4/1984, E RD 1346/1976", "_raw_FC_AC": "1992-07-23", "_raw_NM_AREA_M2": 98194.3201298559, "_cam_code": "020" }, "geometry": { "type": "Polygon", "coordinates": [ [ [ -3.5247, 40.9867 ], [ -3.5248, 40.9868 ], [ -3.5262, 40.9864 ], [ -3.5305, 40.9847 ], [ -3.5322, 40.9836 ], [ -3.5332, 40.9828 ], [ -3.5346, 40.9814 ], [ -3.5372, 40.9783 ], [ -3.5377, 40.9773 ], [ -3.5379, 40.9764 ], [ -3.538, 40.9748 ], [ -3.5382, 40.9743 ], [ -3.5383, 40.9722 ], [ -3.5393, 40.967 ], [ -3.54, 40.9623 ], [ -3.5404, 40.9611 ], [ -3.5412, 40.9598 ], [ -3.5418, 40.9592 ], [ -3.5431, 40.9583 ], [ -3.5449, 40.9577 ], [ -3.5457, 40.9573 ], [ -3.5471, 40.956 ], [ -3.5489, 40.9554 ], [ -3.5492, 40.9554 ], [ -3.55, 40.9546 ], [ -3.5501, 40.9543 ], [ -3.55, 40.9531 ], [ -3.5495, 40.9525 ], [ -3.55, 40.9518 ], [ -3.5499, 40.9517 ], [ -3.5485, 40.9535 ], [ -3.5487, 40.9536 ], [ -3.5494, 40.9527 ], [ -3.5498, 40.9533 ], [ -3.5498, 40.9544 ], [ -3.5493, 40.955 ], [ -3.5467, 40.956 ], [ -3.545, 40.9575 ], [ -3.544, 40.9577 ], [ -3.5426, 40.9584 ], [ -3.5413, 40.9593 ], [ -3.5402, 40.961 ], [ -3.5398, 40.9623 ], [ -3.5381, 40.9722 ], [ -3.538, 40.9739 ], [ -3.5378, 40.9747 ], [ -3.5376, 40.9769 ], [ -3.537, 40.9782 ], [ -3.5365, 40.9789 ], [ -3.5344, 40.9813 ], [ -3.533, 40.9827 ], [ -3.5305, 40.9845 ], [ -3.5255, 40.9865 ], [ -3.5247, 40.9867 ] ] ] } },
{ "type": "Feature", "properties": { "municipio": "Berzosa del Lozoya", "clasificacion": "no-urbanizable-protegido", "calificacion": "sin-asignar", "version": "vigente", "fuente": "SIT-CAM WFS — UsoDelSuelo:VPLA_V_CLASIFICACION (https://idem.comunidad.madrid/geosrvg/ows)", "fecha_dato": "2026-05-12", "ambito": "19038", "_raw_CD_SIGLAS": "SNUP", "_raw_DS_CLASIF_GEN": "Suelo No Urbanizable Protegido", "_raw_DS_CLASIF_DET": "Suelo No Urbanizable Especialmente Protegido Ecológico", "_raw_DS_DOCU": "NORMAS SUBSIDIARIAS", "_raw_DS_LEY": "CM Ley 4/1984, E RD 1346/1976", "_raw_FC_AC": "1992-07-23", "_raw_NM_AREA_M2": 252565.65403105001, "_cam_code": "020" }, "geometry": { "type": "Polygon", "coordinates": [ [ [ -3.552, 40.9642 ], [ -3.5539, 40.9644 ], [ -3.5544, 40.9646 ], [ -3.5554, 40.9646 ], [ -3.5562, 40.9644 ], [ -3.5568, 40.9639 ], [ -3.5569, 40.9635 ], [ -3.5569, 40.9622 ], [ -3.5564, 40.9607 ], [ -3.5553, 40.961 ], [ -3.5526, 40.9613 ], [ -3.5519, 40.9616 ], [ -3.5524, 40.9612 ], [ -3.5525, 40.9608 ], [ -3.5526, 40.9608 ], [ -3.5526, 40.9603 ], [ -3.5523, 40.9598 ], [ -3.5513, 40.9597 ], [ -3.5513, 40.9596 ], [ -3.5512, 40.9597 ], [ -3.5501, 40.9596 ], [ -3.5492, 40.9599 ], [ -3.5485, 40.9597 ], [ -3.5478, 40.9598 ], [ -3.5474, 40.9596 ], [ -3.547, 40.9596 ], [ -3.5477, 40.9599 ], [ -3.5477, 40.96 ], [ -3.5482, 40.96 ], [ -3.5492, 40.9603 ], [ -3.5501, 40.9603 ], [ -3.5501, 40.9604 ], [ -3.5507, 40.9605 ], [ -3.551, 40.9608 ], [ -3.551, 40.9611 ], [ -3.5501, 40.9618 ], [ -3.55, 40.9628 ], [ -3.5494, 40.9629 ], [ -3.5494, 40.963 ], [ -3.5483, 40.963 ], [ -3.5482, 40.9632 ], [ -3.5485, 40.9636 ], [ -3.5492, 40.9639 ], [ -3.5492, 40.964 ], [ -3.55, 40.9642 ], [ -3.552, 40.9642 ] ] ] } },
{ "type": "Feature", "properties": { "municipio": "Berzosa del Lozoya", "clasificacion": "no-urbanizable-protegido", "calificacion": "sin-asignar", "version": "vigente", "fuente": "SIT-CAM WFS — UsoDelSuelo:VPLA_V_CLASIFICACION (https://idem.comunidad.madrid/geosrvg/ows)", "fecha_dato": "2026-05-12", "ambito": "19038", "_raw_CD_SIGLAS": "SNUP", "_raw_DS_CLASIF_GEN": "Suelo No Urbanizable Protegido", "_raw_DS_CLASIF_DET": "Suelo No Urbanizable Especialmente Protegido Ecológico", "_raw_DS_DOCU": "NORMAS SUBSIDIARIAS", "_raw_DS_LEY": "CM Ley 4/1984, E RD 1346/1976", "_raw_FC_AC": "1992-07-23", "_raw_NM_AREA_M2": 622632.977130446, "_cam_code": "020" }, "geometry": { "type": "Polygon", "coordinates": [ [ [ -3.518, 40.9811 ], [ -3.5177, 40.9814 ], [ -3.5167, 40.9819 ], [ -3.5162, 40.9832 ], [ -3.5152, 40.9845 ], [ -3.5152, 40.9853 ], [ -3.516, 40.9869 ], [ -3.5159, 40.9875 ], [ -3.5156, 40.9882 ], [ -3.5159, 40.989 ], [ -3.5162, 40.9894 ], [ -3.5168, 40.9897 ], [ -3.5245, 40.9894 ], [ -3.5248, 40.9883 ], [ -3.5248, 40.9868 ], [ -3.5246, 40.9864 ], [ -3.5247, 40.9857 ], [ -3.5246, 40.9853 ], [ -3.5232, 40.9828 ], [ -3.5229, 40.9825 ], [ -3.5222, 40.9822 ], [ -3.5222, 40.9821 ], [ -3.5209, 40.9815 ], [ -3.5202, 40.9814 ], [ -3.5196, 40.9811 ], [ -3.518, 40.9811 ] ] ] } },
{ "type": "Feature", "properties": { "municipio": "Berzosa del Lozoya", "clasificacion": "no-urbanizable-protegido", "calificacion": "sin-asignar", "version": "vigente", "fuente": "SIT-CAM WFS — UsoDelSuelo:VPLA_V_CLASIFICACION (https://idem.comunidad.madrid/geosrvg/ows)", "fecha_dato": "2026-05-12", "ambito": "19038", "_raw_CD_SIGLAS": "SNUP", "_raw_DS_CLASIF_GEN": "Suelo No Urbanizable Protegido", "_raw_DS_CLASIF_DET": "Suelo No Urbanizable Especialmente Protegido Forestal", "_raw_DS_DOCU": "NORMAS SUBSIDIARIAS", "_raw_DS_LEY": "CM Ley 4/1984, E RD 1346/1976", "_raw_FC_AC": "1992-07-23", "_raw_NM_AREA_M2": 5476.0645634963903, "_cam_code": "020" }, "geometry": { "type": "Polygon", "coordinates": [ [ [ -3.5498, 40.954 ], [ -3.5498, 40.9541 ], [ -3.5492, 40.9544 ], [ -3.5485, 40.9553 ], [ -3.549, 40.9552 ], [ -3.5496, 40.9547 ], [ -3.5498, 40.9544 ], [ -3.5498, 40.9543 ], [ -3.5498, 40.9543 ], [ -3.5498, 40.9542 ], [ -3.5498, 40.9541 ], [ -3.5498, 40.954 ] ] ] } },
{ "type": "Feature", "properties": { "municipio": "Berzosa del Lozoya", "clasificacion": "no-urbanizable-protegido", "calificacion": "sin-asignar", "version": "vigente", "fuente": "SIT-CAM WFS — UsoDelSuelo:VPLA_V_CLASIFICACION (https://idem.comunidad.madrid/geosrvg/ows)", "fecha_dato": "2026-05-12", "ambito": "19038", "_raw_CD_SIGLAS": "SNUP", "_raw_DS_CLASIF_GEN": "Suelo No Urbanizable Protegido", "_raw_DS_CLASIF_DET": "Suelo No Urbanizable Especialmente Protegido Forestal", "_raw_DS_DOCU": "NORMAS SUBSIDIARIAS", "_raw_DS_LEY": "CM Ley 4/1984, E RD 1346/1976", "_raw_FC_AC": "1992-07-23", "_raw_NM_AREA_M2": 2408126.3701504199, "_cam_code": "020" }, "geometry": { "type": "Polygon", "coordinates": [ [ [ -3.5471, 40.9594 ], [ -3.547, 40.9596 ], [ -3.5469, 40.9598 ], [ -3.5474, 40.9605 ], [ -3.5481, 40.9611 ], [ -3.5479, 40.9631 ], [ -3.548, 40.9643 ], [ -3.5479, 40.9655 ], [ -3.5485, 40.9665 ], [ -3.5493, 40.9672 ], [ -3.5505, 40.9678 ], [ -3.5509, 40.9685 ], [ -3.5503, 40.9699 ], [ -3.5497, 40.9706 ], [ -3.5505, 40.9704 ], [ -3.5508, 40.9701 ], [ -3.5509, 40.9696 ], [ -3.5515, 40.9693 ], [ -3.5515, 40.9692 ], [ -3.5517, 40.9692 ], [ -3.5519, 40.969 ], [ -3.5528, 40.9689 ], [ -3.5544, 40.9673 ], [ -3.555, 40.9672 ], [ -3.555, 40.9673 ], [ -3.5545, 40.9675 ], [ -3.5541, 40.9679 ], [ -3.5541, 40.9681 ], [ -3.5536, 40.9683 ], [ -3.553, 40.969 ], [ -3.552, 40.9692 ], [ -3.5511, 40.9697 ], [ -3.551, 40.9702 ], [ -3.5507, 40.9705 ], [ -3.5502, 40.9707 ], [ -3.5494, 40.9707 ], [ -3.5488, 40.9719 ], [ -3.5486, 40.9727 ], [ -3.5479, 40.9732 ], [ -3.5476, 40.9741 ], [ -3.5467, 40.9747 ], [ -3.5462, 40.9755 ], [ -3.5461, 40.9762 ], [ -3.5464, 40.9768 ], [ -3.5464, 40.9773 ], [ -3.5459, 40.9784 ], [ -3.5451, 40.9796 ], [ -3.5455, 40.9797 ], [ -3.5504, 40.9778 ], [ -3.5508, 40.9773 ], [ -3.5512, 40.9772 ], [ -3.5516, 40.9767 ], [ -3.5525, 40.9764 ], [ -3.5529, 40.976 ], [ -3.5539, 40.9754 ], [ -3.5541, 40.9754 ], [ -3.5547, 40.9744 ], [ -3.5558, 40.9743 ], [ -3.5563, 40.9736 ], [ -3.5574, 40.9733 ], [ -3.5582, 40.9726 ], [ -3.5588, 40.9724 ], [ -3.5602, 40.9724 ], [ -3.5608, 40.9725 ], [ -3.5614, 40.9728 ], [ -3.5623, 40.9729 ], [ -3.5637, 40.9715 ], [ -3.5641, 40.9709 ], [ -3.5643, 40.9685 ], [ -3.5626, 40.9654 ], [ -3.5613, 40.9637 ], [ -3.5573, 40.9593 ], [ -3.5568, 40.9585 ], [ -3.5569, 40.958 ], [ -3.5573, 40.9576 ], [ -3.5591, 40.9564 ], [ -3.5601, 40.9561 ], [ -3.561, 40.956 ], [ -3.5624, 40.9562 ], [ -3.5624, 40.9561 ], [ -3.5606, 40.9548 ], [ -3.5588, 40.9545 ], [ -3.5583, 40.9539 ], [ -3.5581, 40.9533 ], [ -3.5578, 40.9531 ], [ -3.5565, 40.9526 ], [ -3.5563, 40.9526 ], [ -3.5561, 40.9528 ], [ -3.5557, 40.9528 ], [ -3.5548, 40.9521 ], [ -3.5542, 40.9523 ], [ -3.5536, 40.9522 ], [ -3.5531, 40.9526 ], [ -3.5517, 40.9523 ], [ -3.5504, 40.9523 ], [ -3.5503, 40.9522 ], [ -3.5503, 40.9525 ], [ -3.5505, 40.9525 ], [ -3.5505, 40.9526 ], [ -3.5512, 40.9529 ], [ -3.5512, 40.9532 ], [ -3.5502, 40.9537 ], [ -3.55, 40.9539 ], [ -3.5501, 40.9541 ], [ -3.55, 40.9546 ], [ -3.5492, 40.9554 ], [ -3.5483, 40.9556 ], [ -3.548, 40.9561 ], [ -3.5477, 40.9568 ], [ -3.5471, 40.959 ], [ -3.5471, 40.9594 ] ], [ [ -3.5477, 40.9599 ], [ -3.547, 40.9596 ], [ -3.5474, 40.9596 ], [ -3.5478, 40.9598 ], [ -3.5485, 40.9597 ], [ -3.5492, 40.9599 ], [ -3.5501, 40.9596 ], [ -3.5505, 40.9597 ], [ -3.5512, 40.9597 ], [ -3.5513, 40.9596 ], [ -3.5513, 40.9597 ], [ -3.5523, 40.9598 ], [ -3.5526, 40.9603 ], [ -3.5526, 40.9608 ], [ -3.5525, 40.9608 ], [ -3.5524, 40.9612 ], [ -3.5519, 40.9615 ], [ -3.5519, 40.9616 ], [ -3.5526, 40.9613 ], [ -3.5553, 40.961 ], [ -3.5562, 40.9607 ], [ -3.5564, 40.9607 ], [ -3.5569, 40.9622 ], [ -3.5569, 40.9635 ], [ -3.5568, 40.9639 ], [ -3.5562, 40.9644 ], [ -3.5554, 40.9646 ], [ -3.5544, 40.9646 ], [ -3.5539, 40.9644 ], [ -3.5525, 40.9642 ], [ -3.55, 40.9642 ], [ -3.5488, 40.9638 ], [ -3.5482, 40.9632 ], [ -3.5483, 40.963 ], [ -3.5494, 40.963 ], [ -3.5494, 40.9629 ], [ -3.55, 40.9628 ], [ -3.5501, 40.9618 ], [ -3.551, 40.9611 ], [ -3.551, 40.9608 ], [ -3.5507, 40.9605 ], [ -3.5501, 40.9604 ], [ -3.5501, 40.9603 ], [ -3.5492, 40.9603 ], [ -3.5482, 40.96 ], [ -3.5477, 40.96 ], [ -3.5477, 40.9599 ] ] ] } },
{ "type": "Feature", "properties": { "municipio": "Berzosa del Lozoya", "clasificacion": "no-urbanizable-protegido", "calificacion": "sin-asignar", "version": "vigente", "fuente": "SIT-CAM WFS — UsoDelSuelo:VPLA_V_CLASIFICACION (https://idem.comunidad.madrid/geosrvg/ows)", "fecha_dato": "2026-05-12", "ambito": "19038", "_raw_CD_SIGLAS": "SNUP", "_raw_DS_CLASIF_GEN": "Suelo No Urbanizable Protegido", "_raw_DS_CLASIF_DET": "Suelo No Urbanizable Especialmente Protegido Forestal", "_raw_DS_DOCU": "NORMAS SUBSIDIARIAS", "_raw_DS_LEY": "CM Ley 4/1984, E RD 1346/1976", "_raw_FC_AC": "1992-07-23", "_raw_NM_AREA_M2": 2497681.6684354902, "_cam_code": "020" }, "geometry": { "type": "Polygon", "coordinates": [ [ [ -3.5111, 40.994 ], [ -3.5126, 40.9938 ], [ -3.5139, 40.9939 ], [ -3.514, 40.994 ], [ -3.5142, 40.9939 ], [ -3.5147, 40.994 ], [ -3.5153, 40.9939 ], [ -3.5153, 40.9934 ], [ -3.5156, 40.9925 ], [ -3.5166, 40.9908 ], [ -3.5168, 40.9897 ], [ -3.5162, 40.9894 ], [ -3.5159, 40.989 ], [ -3.5156, 40.9882 ], [ -3.5154, 40.9884 ], [ -3.513, 40.9884 ], [ -3.512, 40.988 ], [ -3.5101, 40.9878 ], [ -3.5097, 40.9876 ], [ -3.5088, 40.9875 ], [ -3.5072, 40.9882 ], [ -3.5067, 40.9886 ], [ -3.506, 40.9888 ], [ -3.5056, 40.9885 ], [ -3.5051, 40.9885 ], [ -3.505, 40.9884 ], [ -3.5052, 40.9881 ], [ -3.5051, 40.9879 ], [ -3.5044, 40.9879 ], [ -3.505, 40.9873 ], [ -3.5059, 40.9868 ], [ -3.5067, 40.9867 ], [ -3.5079, 40.986 ], [ -3.5077, 40.9853 ], [ -3.5078, 40.9847 ], [ -3.5075, 40.9845 ], [ -3.507, 40.9837 ], [ -3.5075, 40.9829 ], [ -3.5081, 40.9825 ], [ -3.5078, 40.9815 ], [ -3.5078, 40.9811 ], [ -3.5083, 40.9804 ], [ -3.5083, 40.9796 ], [ -3.5076, 40.9793 ], [ -3.5073, 40.9789 ], [ -3.5074, 40.9781 ], [ -3.5073, 40.9776 ], [ -3.5068, 40.9771 ], [ -3.5066, 40.9767 ], [ -3.506, 40.9762 ], [ -3.5051, 40.975 ], [ -3.5043, 40.9746 ], [ -3.5039, 40.9742 ], [ -3.5027, 40.9741 ], [ -3.5018, 40.9743 ], [ -3.5014, 40.9738 ], [ -3.4998, 40.9755 ], [ -3.4929, 40.9785 ], [ -3.4928, 40.9789 ], [ -3.4929, 40.9794 ], [ -3.4935, 40.9794 ], [ -3.4939, 40.9798 ], [ -3.4939, 40.98 ], [ -3.4937, 40.9802 ], [ -3.4935, 40.9802 ], [ -3.4935, 40.9808 ], [ -3.4937, 40.9811 ], [ -3.4937, 40.9815 ], [ -3.4936, 40.9815 ], [ -3.4939, 40.9822 ], [ -3.4937, 40.9826 ], [ -3.4932, 40.9828 ], [ -3.4932, 40.9829 ], [ -3.4929, 40.9829 ], [ -3.4929, 40.9833 ], [ -3.4931, 40.9836 ], [ -3.4934, 40.9836 ], [ -3.4937, 40.9838 ], [ -3.4938, 40.9841 ], [ -3.4935, 40.9844 ], [ -3.4937, 40.9845 ], [ -3.4939, 40.9843 ], [ -3.4941, 40.9843 ], [ -3.4947, 40.9852 ], [ -3.4951, 40.9855 ], [ -3.4953, 40.9863 ], [ -3.4954, 40.9863 ], [ -3.4954, 40.9869 ], [ -3.4951, 40.9873 ], [ -3.4951, 40.9878 ], [ -3.4955, 40.9885 ], [ -3.4958, 40.9887 ], [ -3.4961, 40.9891 ], [ -3.4961, 40.9893 ], [ -3.4963, 40.9894 ], [ -3.4957, 40.9909 ], [ -3.4958, 40.994 ], [ -3.5066, 40.9924 ], [ -3.5105, 40.9923 ], [ -3.5109, 40.9923 ], [ -3.5111, 40.994 ] ] ] } },
{ "type": "Feature", "properties": { "municipio": "Berzosa del Lozoya", "clasificacion": "no-urbanizable-protegido", "calificacion": "sin-asignar", "version": "vigente", "fuente": "SIT-CAM WFS — UsoDelSuelo:VPLA_V_CLASIFICACION (https://idem.comunidad.madrid/geosrvg/ows)", "fecha_dato": "2026-05-12", "ambito": "19038", "_raw_CD_SIGLAS": "SNUP", "_raw_DS_CLASIF_GEN": "Suelo No Urbanizable Protegido", "_raw_DS_CLASIF_DET": "Suelo No Urbanizable Especialmente Protegido Ganadero", "_raw_DS_DOCU": "NORMAS SUBSIDIARIAS", "_raw_DS_LEY": "CM Ley 4/1984, E RD 1346/1976", "_raw_FC_AC": "1992-07-23", "_raw_NM_AREA_M2": 14249.5710503595, "_cam_code": "020" }, "geometry": { "type": "Polygon", "coordinates": [ [ [ -3.55, 40.9533 ], [ -3.55, 40.9539 ], [ -3.5501, 40.9539 ], [ -3.5502, 40.9537 ], [ -3.5512, 40.9532 ], [ -3.5511, 40.9528 ], [ -3.5503, 40.9525 ], [ -3.5503, 40.9522 ], [ -3.5502, 40.9522 ], [ -3.55, 40.9518 ], [ -3.5495, 40.9525 ], [ -3.55, 40.9531 ], [ -3.55, 40.9533 ] ] ] } },
{ "type": "Feature", "properties": { "municipio": "Berzosa del Lozoya", "clasificacion": "no-urbanizable-protegido", "calificacion": "sin-asignar", "version": "vigente", "fuente": "SIT-CAM WFS — UsoDelSuelo:VPLA_V_CLASIFICACION (https://idem.comunidad.madrid/geosrvg/ows)", "fecha_dato": "2026-05-12", "ambito": "19038", "_raw_CD_SIGLAS": "SNUP", "_raw_DS_CLASIF_GEN": "Suelo No Urbanizable Protegido", "_raw_DS_CLASIF_DET": "Suelo No Urbanizable Especialmente Protegido Ganadero", "_raw_DS_DOCU": "NORMAS SUBSIDIARIAS", "_raw_DS_LEY": "CM Ley 4/1984, E RD 1346/1976", "_raw_FC_AC": "1992-07-23", "_raw_NM_AREA_M2": 362122.19603231002, "_cam_code": "020" }, "geometry": { "type": "Polygon", "coordinates": [ [ [ -3.5407, 40.9584 ], [ -3.541, 40.9588 ], [ -3.5416, 40.9591 ], [ -3.5426, 40.9584 ], [ -3.544, 40.9577 ], [ -3.545, 40.9575 ], [ -3.5467, 40.956 ], [ -3.5486, 40.9553 ], [ -3.5487, 40.955 ], [ -3.5492, 40.9544 ], [ -3.5498, 40.9541 ], [ -3.5498, 40.9533 ], [ -3.5494, 40.9527 ], [ -3.5487, 40.9536 ], [ -3.5485, 40.9535 ], [ -3.5498, 40.9517 ], [ -3.5493, 40.9519 ], [ -3.5486, 40.9518 ], [ -3.5479, 40.9515 ], [ -3.5473, 40.9514 ], [ -3.5461, 40.9507 ], [ -3.5451, 40.9505 ], [ -3.5442, 40.9506 ], [ -3.5435, 40.9509 ], [ -3.5426, 40.9508 ], [ -3.5425, 40.9518 ], [ -3.5437, 40.9548 ], [ -3.5407, 40.9584 ] ] ] } },
{ "type": "Feature", "properties": { "municipio": "Berzosa del Lozoya", "clasificacion": "no-urbanizable-protegido", "calificacion": "sin-asignar", "version": "vigente", "fuente": "SIT-CAM WFS — UsoDelSuelo:VPLA_V_CLASIFICACION (https://idem.comunidad.madrid/geosrvg/ows)", "fecha_dato": "2026-05-12", "ambito": "19038", "_raw_CD_SIGLAS": "SNUP", "_raw_DS_CLASIF_GEN": "Suelo No Urbanizable Protegido", "_raw_DS_CLASIF_DET": "Suelo No Urbanizable Especialmente Protegido Ganadero", "_raw_DS_DOCU": "NORMAS SUBSIDIARIAS", "_raw_DS_LEY": "CM Ley 4/1984, E RD 1346/1976", "_raw_FC_AC": "1992-07-23", "_raw_NM_AREA_M2": 248896.723211067, "_cam_code": "020" }, "geometry": { "type": "Polygon", "coordinates": [ [ [ -3.5447, 40.9657 ], [ -3.5449, 40.9658 ], [ -3.546, 40.9649 ], [ -3.5473, 40.9647 ], [ -3.548, 40.9644 ], [ -3.5479, 40.9631 ], [ -3.5481, 40.9611 ], [ -3.5474, 40.9605 ], [ -3.5469, 40.9597 ], [ -3.5471, 40.9594 ], [ -3.5471, 40.959 ], [ -3.5477, 40.9568 ], [ -3.5483, 40.9556 ], [ -3.5469, 40.9561 ], [ -3.5457, 40.9573 ], [ -3.5449, 40.9577 ], [ -3.5431, 40.9583 ], [ -3.5418, 40.9592 ], [ -3.5445, 40.9601 ], [ -3.5455, 40.9602 ], [ -3.5454, 40.9606 ], [ -3.5452, 40.9608 ], [ -3.5449, 40.9607 ], [ -3.5447, 40.9608 ], [ -3.5443, 40.9613 ], [ -3.544, 40.9614 ], [ -3.5441, 40.9617 ], [ -3.545, 40.9624 ], [ -3.5454, 40.9634 ], [ -3.5452, 40.9649 ], [ -3.5447, 40.9657 ] ] ] } },
{ "type": "Feature", "properties": { "municipio": "Berzosa del Lozoya", "clasificacion": "no-urbanizable-protegido", "calificacion": "sin-asignar", "version": "vigente", "fuente": "SIT-CAM WFS — UsoDelSuelo:VPLA_V_CLASIFICACION (https://idem.comunidad.madrid/geosrvg/ows)", "fecha_dato": "2026-05-12", "ambito": "19038", "_raw_CD_SIGLAS": "SNUP", "_raw_DS_CLASIF_GEN": "Suelo No Urbanizable Protegido", "_raw_DS_CLASIF_DET": "Suelo No Urbanizable Especialmente Protegido Ganadero", "_raw_DS_DOCU": "NORMAS SUBSIDIARIAS", "_raw_DS_LEY": "CM Ley 4/1984, E RD 1346/1976", "_raw_FC_AC": "1992-07-23", "_raw_NM_AREA_M2": 184738.29021093599, "_cam_code": "020" }, "geometry": { "type": "Polygon", "coordinates": [ [ [ -3.5337, 40.9823 ], [ -3.5322, 40.9836 ], [ -3.5305, 40.9847 ], [ -3.5262, 40.9864 ], [ -3.5297, 40.9855 ], [ -3.5343, 40.9838 ], [ -3.5372, 40.9821 ], [ -3.5379, 40.9824 ], [ -3.5386, 40.9823 ], [ -3.5387, 40.9821 ], [ -3.5392, 40.982 ], [ -3.5392, 40.9819 ], [ -3.5407, 40.9809 ], [ -3.5407, 40.9809 ], [ -3.5409, 40.9809 ], [ -3.5412, 40.9809 ], [ -3.5414, 40.9809 ], [ -3.5417, 40.9809 ], [ -3.5407, 40.9808 ], [ -3.5395, 40.9801 ], [ -3.5362, 40.9795 ], [ -3.5337, 40.9823 ] ] ] } },
{ "type": "Feature", "properties": { "municipio": "Berzosa del Lozoya", "clasificacion": "no-urbanizable-protegido", "calificacion": "sin-asignar", "version": "vigente", "fuente": "SIT-CAM WFS — UsoDelSuelo:VPLA_V_CLASIFICACION (https://idem.comunidad.madrid/geosrvg/ows)", "fecha_dato": "2026-05-12", "ambito": "19038", "_raw_CD_SIGLAS": "SNUP", "_raw_DS_CLASIF_GEN": "Suelo No Urbanizable Protegido", "_raw_DS_CLASIF_DET": "Suelo No Urbanizable Especialmente Protegido Ganadero", "_raw_DS_DOCU": "NORMAS SUBSIDIARIAS", "_raw_DS_LEY": "CM Ley 4/1984, E RD 1346/1976", "_raw_FC_AC": "1992-07-23", "_raw_NM_AREA_M2": 1192430.9278478101, "_cam_code": "020" }, "geometry": { "type": "Polygon", "coordinates": [ [ [ -3.5227, 40.9764 ], [ -3.5226, 40.9767 ], [ -3.5228, 40.9768 ], [ -3.5228, 40.9771 ], [ -3.5232, 40.9773 ], [ -3.5231, 40.978 ], [ -3.5232, 40.978 ], [ -3.5233, 40.9785 ], [ -3.5231, 40.9789 ], [ -3.5231, 40.9799 ], [ -3.5236, 40.9807 ], [ -3.5237, 40.9812 ], [ -3.5237, 40.9816 ], [ -3.5233, 40.982 ], [ -3.5232, 40.9826 ], [ -3.5234, 40.9827 ], [ -3.5233, 40.9831 ], [ -3.5246, 40.9853 ], [ -3.5247, 40.9867 ], [ -3.5255, 40.9865 ], [ -3.5305, 40.9845 ], [ -3.533, 40.9827 ], [ -3.536, 40.9795 ], [ -3.5343, 40.979 ], [ -3.5324, 40.9787 ], [ -3.5301, 40.978 ], [ -3.5285, 40.9771 ], [ -3.5277, 40.9764 ], [ -3.527, 40.9763 ], [ -3.5273, 40.976 ], [ -3.5289, 40.9756 ], [ -3.5295, 40.9752 ], [ -3.5305, 40.974 ], [ -3.5311, 40.9737 ], [ -3.5315, 40.9728 ], [ -3.5308, 40.973 ], [ -3.5307, 40.9729 ], [ -3.5308, 40.9726 ], [ -3.5315, 40.9723 ], [ -3.5308, 40.9723 ], [ -3.5303, 40.9721 ], [ -3.5299, 40.9717 ], [ -3.5293, 40.9714 ], [ -3.5277, 40.9715 ], [ -3.5283, 40.9696 ], [ -3.5282, 40.9689 ], [ -3.5285, 40.9685 ], [ -3.5288, 40.9684 ], [ -3.5291, 40.9677 ], [ -3.5291, 40.9674 ], [ -3.5287, 40.9674 ], [ -3.5285, 40.9676 ], [ -3.5275, 40.968 ], [ -3.5271, 40.968 ], [ -3.5262, 40.9683 ], [ -3.5257, 40.9688 ], [ -3.5245, 40.9693 ], [ -3.5243, 40.9696 ], [ -3.5231, 40.9695 ], [ -3.5232, 40.9703 ], [ -3.5235, 40.9707 ], [ -3.5235, 40.9713 ], [ -3.5232, 40.9717 ], [ -3.5221, 40.9726 ], [ -3.522, 40.973 ], [ -3.5219, 40.973 ], [ -3.5219, 40.9742 ], [ -3.5229, 40.9748 ], [ -3.5239, 40.9746 ], [ -3.5245, 40.9747 ], [ -3.5245, 40.9748 ], [ -3.525, 40.9746 ], [ -3.5252, 40.9746 ], [ -3.5252, 40.9747 ], [ -3.5254, 40.9746 ], [ -3.5256, 40.9746 ], [ -3.5257, 40.9747 ], [ -3.5257, 40.9747 ], [ -3.5257, 40.9747 ], [ -3.5258, 40.9747 ], [ -3.5258, 40.9746 ], [ -3.5259, 40.9758 ], [ -3.5258, 40.976 ], [ -3.525, 40.9759 ], [ -3.5247, 40.9762 ], [ -3.5244, 40.9761 ], [ -3.5244, 40.9762 ], [ -3.5239, 40.9764 ], [ -3.5231, 40.9764 ], [ -3.5232, 40.9763 ], [ -3.5231, 40.9762 ], [ -3.523, 40.9764 ], [ -3.5227, 40.9764 ] ] ] } },
{ "type": "Feature", "properties": { "municipio": "Berzosa del Lozoya", "clasificacion": "urbano-consolidado", "calificacion": "sin-asignar", "version": "vigente", "fuente": "SIT-CAM WFS — UsoDelSuelo:VPLA_V_CLASIFICACION (https://idem.comunidad.madrid/geosrvg/ows)", "fecha_dato": "2026-05-12", "ambito": "19038", "_raw_CD_SIGLAS": "SU", "_raw_DS_CLASIF_GEN": "Suelo Urbano", "_raw_DS_CLASIF_DET": "Suelo Urbano", "_raw_DS_DOCU": "NORMAS SUBSIDIARIAS", "_raw_DS_LEY": "CM Ley 4/1984, E RD 1346/1976", "_raw_FC_AC": "1992-07-23", "_raw_NM_AREA_M2": 123456.472282314, "_cam_code": "020" }, "geometry": { "type": "Polygon", "coordinates": [ [ [ -3.519, 40.9759 ], [ -3.5193, 40.9768 ], [ -3.5194, 40.9768 ], [ -3.5196, 40.9766 ], [ -3.5201, 40.9766 ], [ -3.5201, 40.9764 ], [ -3.5204, 40.9763 ], [ -3.521, 40.9757 ], [ -3.5213, 40.976 ], [ -3.5219, 40.9761 ], [ -3.5219, 40.9762 ], [ -3.5221, 40.9762 ], [ -3.5223, 40.976 ], [ -3.5226, 40.976 ], [ -3.5226, 40.9765 ], [ -3.523, 40.9764 ], [ -3.5231, 40.9762 ], [ -3.5232, 40.9762 ], [ -3.5231, 40.9764 ], [ -3.5239, 40.9764 ], [ -3.5244, 40.9762 ], [ -3.5244, 40.9761 ], [ -3.5247, 40.9762 ], [ -3.525, 40.9759 ], [ -3.5258, 40.976 ], [ -3.5259, 40.9758 ], [ -3.5258, 40.9746 ], [ -3.5258, 40.9747 ], [ -3.525, 40.9746 ], [ -3.5245, 40.9748 ], [ -3.5245, 40.9747 ], [ -3.5239, 40.9746 ], [ -3.5229, 40.9748 ], [ -3.522, 40.9743 ], [ -3.5219, 40.9739 ], [ -3.5212, 40.9739 ], [ -3.5212, 40.9742 ], [ -3.5211, 40.9742 ], [ -3.5203, 40.9735 ], [ -3.5199, 40.9735 ], [ -3.5188, 40.9739 ], [ -3.5188, 40.9741 ], [ -3.5192, 40.9743 ], [ -3.5194, 40.9747 ], [ -3.5194, 40.975 ], [ -3.5186, 40.9752 ], [ -3.5187, 40.9756 ], [ -3.519, 40.9756 ], [ -3.5191, 40.9756 ], [ -3.5192, 40.9756 ], [ -3.519, 40.9757 ], [ -3.519, 40.9759 ] ] ] } },
{ "type": "Feature", "properties": { "municipio": "Berzosa del Lozoya", "clasificacion": "urbanizable-no-sectorizado", "calificacion": "sin-asignar", "version": "vigente", "fuente": "SIT-CAM WFS — UsoDelSuelo:VPLA_V_CLASIFICACION (https://idem.comunidad.madrid/geosrvg/ows)", "fecha_dato": "2026-05-12", "ambito": "19038", "_raw_CD_SIGLAS": "SUBNS", "_raw_DS_CLASIF_GEN": "Suelo No Urbanizable Común", "_raw_DS_CLASIF_DET": "Suelo No Urbanizable Común", "_raw_DS_DOCU": "NORMAS SUBSIDIARIAS", "_raw_DS_LEY": "CM Ley 4/1984, E RD 1346/1976", "_raw_FC_AC": "1992-07-23", "_raw_NM_AREA_M2": 1205116.0864679001, "_cam_code": "020" }, "geometry": { "type": "Polygon", "coordinates": [ [ [ -3.5315, 40.9728 ], [ -3.5311, 40.9737 ], [ -3.5305, 40.974 ], [ -3.5295, 40.9752 ], [ -3.5289, 40.9756 ], [ -3.5273, 40.976 ], [ -3.527, 40.9763 ], [ -3.5277, 40.9764 ], [ -3.5285, 40.9771 ], [ -3.5301, 40.978 ], [ -3.5324, 40.9787 ], [ -3.5343, 40.979 ], [ -3.536, 40.9795 ], [ -3.537, 40.9782 ], [ -3.5376, 40.9769 ], [ -3.5378, 40.9747 ], [ -3.538, 40.9739 ], [ -3.5381, 40.9722 ], [ -3.5399, 40.9619 ], [ -3.5402, 40.961 ], [ -3.5407, 40.9601 ], [ -3.5413, 40.9593 ], [ -3.5416, 40.9591 ], [ -3.541, 40.9588 ], [ -3.5407, 40.9584 ], [ -3.5398, 40.9595 ], [ -3.5368, 40.9596 ], [ -3.5378, 40.9617 ], [ -3.5377, 40.9619 ], [ -3.5361, 40.9632 ], [ -3.534, 40.9653 ], [ -3.5332, 40.9659 ], [ -3.5325, 40.9671 ], [ -3.5317, 40.9679 ], [ -3.5311, 40.9683 ], [ -3.5306, 40.9696 ], [ -3.53, 40.9697 ], [ -3.5289, 40.9693 ], [ -3.5283, 40.9694 ], [ -3.5277, 40.9715 ], [ -3.5293, 40.9714 ], [ -3.5299, 40.9717 ], [ -3.5303, 40.9721 ], [ -3.5308, 40.9723 ], [ -3.5315, 40.9723 ], [ -3.5308, 40.9726 ], [ -3.5307, 40.9727 ], [ -3.5308, 40.973 ], [ -3.5315, 40.9728 ] ] ] } },
{ "type": "Feature", "properties": { "municipio": "Berzosa del Lozoya", "clasificacion": "urbanizable-no-sectorizado", "calificacion": "sin-asignar", "version": "vigente", "fuente": "SIT-CAM WFS — UsoDelSuelo:VPLA_V_CLASIFICACION (https://idem.comunidad.madrid/geosrvg/ows)", "fecha_dato": "2026-05-12", "ambito": "19038", "_raw_CD_SIGLAS": "SUBNS", "_raw_DS_CLASIF_GEN": "Suelo No Urbanizable Común", "_raw_DS_CLASIF_DET": "Suelo No Urbanizable Común", "_raw_DS_DOCU": "NORMAS SUBSIDIARIAS", "_raw_DS_LEY": "CM Ley 4/1984, E RD 1346/1976", "_raw_FC_AC": "1992-07-23", "_raw_NM_AREA_M2": 1567926.48676751, "_cam_code": "020" }, "geometry": { "type": "Polygon", "coordinates": [ [ [ -3.5393, 40.967 ], [ -3.5383, 40.9722 ], [ -3.5382, 40.9743 ], [ -3.538, 40.9748 ], [ -3.5378, 40.9769 ], [ -3.5372, 40.9783 ], [ -3.5362, 40.9795 ], [ -3.5395, 40.9801 ], [ -3.5407, 40.9808 ], [ -3.5411, 40.9809 ], [ -3.5427, 40.9808 ], [ -3.5427, 40.9807 ], [ -3.5432, 40.9805 ], [ -3.5436, 40.9797 ], [ -3.5446, 40.9787 ], [ -3.5453, 40.9777 ], [ -3.5457, 40.9769 ], [ -3.5461, 40.9752 ], [ -3.5465, 40.9746 ], [ -3.5468, 40.9745 ], [ -3.5474, 40.9739 ], [ -3.5477, 40.9731 ], [ -3.5484, 40.9726 ], [ -3.549, 40.9709 ], [ -3.5493, 40.9706 ], [ -3.5497, 40.9706 ], [ -3.5503, 40.9699 ], [ -3.5509, 40.9685 ], [ -3.5505, 40.9678 ], [ -3.5493, 40.9672 ], [ -3.5485, 40.9665 ], [ -3.5479, 40.9655 ], [ -3.548, 40.9644 ], [ -3.5473, 40.9647 ], [ -3.546, 40.9649 ], [ -3.5449, 40.9658 ], [ -3.5447, 40.9657 ], [ -3.5452, 40.9649 ], [ -3.5454, 40.9634 ], [ -3.545, 40.9624 ], [ -3.5441, 40.9617 ], [ -3.544, 40.9614 ], [ -3.5443, 40.9613 ], [ -3.5447, 40.9608 ], [ -3.5449, 40.9607 ], [ -3.5452, 40.9608 ], [ -3.5454, 40.9606 ], [ -3.5455, 40.9602 ], [ -3.5445, 40.9601 ], [ -3.5418, 40.9592 ], [ -3.5409, 40.9602 ], [ -3.5401, 40.9619 ], [ -3.5393, 40.967 ] ] ] } },
{ "type": "Feature", "properties": { "municipio": "Berzosa del Lozoya", "clasificacion": "urbanizable-no-sectorizado", "calificacion": "sin-asignar", "version": "vigente", "fuente": "SIT-CAM WFS — UsoDelSuelo:VPLA_V_CLASIFICACION (https://idem.comunidad.madrid/geosrvg/ows)", "fecha_dato": "2026-05-12", "ambito": "19038", "_raw_CD_SIGLAS": "SUBNS", "_raw_DS_CLASIF_GEN": "Suelo No Urbanizable Común", "_raw_DS_CLASIF_DET": "Suelo No Urbanizable Común", "_raw_DS_DOCU": "NORMAS SUBSIDIARIAS", "_raw_DS_LEY": "CM Ley 4/1984, E RD 1346/1976", "_raw_FC_AC": "1992-07-23", "_raw_NM_AREA_M2": 14565.615809544701, "_cam_code": "020" }, "geometry": { "type": "Polygon", "coordinates": [ [ [ -3.5442, 40.9794 ], [ -3.5451, 40.9796 ], [ -3.5456, 40.9789 ], [ -3.5454, 40.9789 ], [ -3.5462, 40.9772 ], [ -3.546, 40.9766 ], [ -3.5458, 40.9774 ], [ -3.5448, 40.9788 ], [ -3.5442, 40.9794 ] ] ] } }
]
}
