{"type": "FeatureCollection", "features": [{"type": "Feature", "properties": {"municipio": "Alcalá De Henares", "clasificacion": "urbanizable-sectorizado", "calificacion": "sin-asignar", "version": "vigente", "fuente": "SIT-CAM WFS — UsoDelSuelo:VPLA_V_CLASIFICACION (https://idem.comunidad.madrid/geosrvg/ows)", "fecha_dato": "2026-05-12", "ambito": "15740", "_raw_CD_SIGLAS": "SUBS", "_raw_DS_CLASIF_GEN": "Suelo Urbanizable Programado (INCORPORADO)", "_raw_DS_CLASIF_DET": "Suelo Urbanizable Programado desarrollado por PP aprobado", "_raw_DS_DOCU": "PLAN GENERAL", "_raw_DS_LEY": "CM Ley 4/1984, E Ley 8/1990", "_raw_FC_AC": "1991-07-05", "_raw_NM_AREA_M2": 460351.976896618, "_cam_code": "005", "derivado": "sectores-dormidos", "verificacion_gestion": "pendiente"}, "geometry": {"type": "Polygon", "coordinates": [[[-3.3839, 40.4902], [-3.3827, 40.4902], [-3.3826, 40.4901], [-3.381, 40.49], [-3.3812, 40.4895], [-3.3813, 40.4895], [-3.3817, 40.4887], [-3.382, 40.4884], [-3.3822, 40.4878], [-3.3825, 40.4879], [-3.3835, 40.4874], [-3.3832, 40.4865], [-3.3835, 40.4863], [-3.3832, 40.4855], [-3.3819, 40.486], [-3.3802, 40.4862], [-3.3801, 40.4863], [-3.38, 40.4862], [-3.381, 40.4848], [-3.3813, 40.4846], [-3.3813, 40.4844], [-3.3812, 40.4844], [-3.3833, 40.4836], [-3.3836, 40.4836], [-3.3838, 40.4835], [-3.3838, 40.4835], [-3.3837, 40.4835], [-3.3838, 40.4837], [-3.3838, 40.4837], [-3.3842, 40.4865], [-3.3843, 40.4866], [-3.3843, 40.487], [-3.3853, 40.4866], [-3.3864, 40.4855], [-3.3871, 40.4855], [-3.3875, 40.4859], [-3.3886, 40.4866], [-3.3908, 40.4869], [-3.3908, 40.487], [-3.3943, 40.4879], [-3.3911, 40.4903], [-3.3885, 40.4917], [-3.3839, 40.4902]], [[-3.3871, 40.489], [-3.3879, 40.4896], [-3.3863, 40.4907], [-3.3853, 40.4902], [-3.3871, 40.489]]]}}, {"type": "Feature", "properties": {"municipio": "Alcalá De Henares", "clasificacion": "urbanizable-sectorizado", "calificacion": "sin-asignar", "version": "vigente", "fuente": "SIT-CAM WFS — UsoDelSuelo:VPLA_V_CLASIFICACION (https://idem.comunidad.madrid/geosrvg/ows)", "fecha_dato": "2026-05-12", "ambito": "15740", "_raw_CD_SIGLAS": "SUBS", "_raw_DS_CLASIF_GEN": "Suelo Urbanizable Programado", "_raw_DS_CLASIF_DET": "Suelo Urbanizable Programado Etapa 1 sin tramitación", "_raw_DS_DOCU": "PLAN GENERAL", "_raw_DS_LEY": "CM Ley 4/1984, E Ley 8/1990", "_raw_FC_AC": "1991-07-05", "_raw_NM_AREA_M2": 104706.591766745, "_cam_code": "005", "derivado": "sectores-dormidos", "verificacion_gestion": "pendiente"}, "geometry": {"type": "Polygon", "coordinates": [[[-3.397, 40.4881], [-3.3986, 40.489], [-3.3981, 40.4918], [-3.3981, 40.4924], [-3.3982, 40.4928], [-3.3983, 40.4928], [-3.3982, 40.4928], [-3.3981, 40.4939], [-3.3992, 40.494], [-3.3993, 40.4911], [-3.3991, 40.4902], [-3.3991, 40.4888], [-3.399, 40.4885], [-3.3992, 40.4876], [-3.3992, 40.486], [-3.399, 40.4852], [-3.3959, 40.4879], [-3.3955, 40.4881], [-3.3958, 40.4881], [-3.3958, 40.4882], [-3.397, 40.4881]]]}}, {"type": "Feature", "properties": {"municipio": "Alcalá De Henares", "clasificacion": "urbanizable-sectorizado", "calificacion": "sin-asignar", "version": "vigente", "fuente": "SIT-CAM WFS — UsoDelSuelo:VPLA_V_CLASIFICACION (https://idem.comunidad.madrid/geosrvg/ows)", "fecha_dato": "2026-05-12", "ambito": "15740", "_raw_CD_SIGLAS": "SUBS", "_raw_DS_CLASIF_GEN": "Suelo Urbanizable Programado", "_raw_DS_CLASIF_DET": "Suelo Urbanizable Programado Etapa 1 sin tramitación", "_raw_DS_DOCU": "PLAN GENERAL", "_raw_DS_LEY": "CM Ley 4/1984, E Ley 8/1990", "_raw_FC_AC": "1991-07-05", "_raw_NM_AREA_M2": 110139.960457197, "_cam_code": "005", "derivado": "sectores-dormidos", "verificacion_gestion": "pendiente"}, "geometry": {"type": "Polygon", "coordinates": [[[-3.3175, 40.507], [-3.3211, 40.5105], [-3.3237, 40.5089], [-3.3219, 40.5073], [-3.3213, 40.5066], [-3.3197, 40.5074], [-3.3197, 40.5075], [-3.3185, 40.5064], [-3.3175, 40.507]]]}}, {"type": "Feature", "properties": {"municipio": "Alcalá De Henares", "clasificacion": "urbanizable-sectorizado", "calificacion": "sin-asignar", "version": "vigente", "fuente": "SIT-CAM WFS — UsoDelSuelo:VPLA_V_CLASIFICACION (https://idem.comunidad.madrid/geosrvg/ows)", "fecha_dato": "2026-05-12", "ambito": "15740", "_raw_CD_SIGLAS": "SUBS", "_raw_DS_CLASIF_GEN": "Suelo Urbanizable Programado (INCORPORADO)", "_raw_DS_CLASIF_DET": "Suelo Urbanizable Programado desarrollado por PP aprobado", "_raw_DS_DOCU": "PLAN GENERAL", "_raw_DS_LEY": "CM Ley 4/1984, E Ley 8/1990", "_raw_FC_AC": "1991-07-05", "_raw_NM_AREA_M2": 487080.83667607, "_cam_code": "005", "derivado": "sectores-dormidos", "verificacion_gestion": "pendiente"}, "geometry": {"type": "Polygon", "coordinates": [[[-3.3593, 40.4917], [-3.3598, 40.4929], [-3.3599, 40.4937], [-3.36, 40.4937], [-3.3603, 40.4944], [-3.3607, 40.4958], [-3.3613, 40.4971], [-3.3614, 40.4984], [-3.3611, 40.4994], [-3.3692, 40.4963], [-3.3691, 40.4963], [-3.368, 40.4946], [-3.3671, 40.4935], [-3.3672, 40.4926], [-3.3671, 40.4926], [-3.3669, 40.4921], [-3.367, 40.4916], [-3.3668, 40.4915], [-3.3666, 40.4917], [-3.3664, 40.4917], [-3.3656, 40.4905], [-3.3634, 40.4912], [-3.3632, 40.4912], [-3.3629, 40.4905], [-3.3595, 40.4916], [-3.3593, 40.4917]]]}}, {"type": "Feature", "properties": {"municipio": "Alcalá De Henares", "clasificacion": "urbanizable-sectorizado", "calificacion": "sin-asignar", "version": "vigente", "fuente": "SIT-CAM WFS — UsoDelSuelo:VPLA_V_CLASIFICACION (https://idem.comunidad.madrid/geosrvg/ows)", "fecha_dato": "2026-05-12", "ambito": "15740", "_raw_CD_SIGLAS": "SUBS", "_raw_DS_CLASIF_GEN": "Suelo Urbanizable Programado", "_raw_DS_CLASIF_DET": "Suelo Urbanizable Programado Etapa 2", "_raw_DS_DOCU": "PLAN GENERAL", "_raw_DS_LEY": "CM Ley 4/1984, E Ley 8/1990", "_raw_FC_AC": "1991-07-05", "_raw_NM_AREA_M2": 74657.1586675253, "_cam_code": "005", "derivado": "sectores-dormidos", "verificacion_gestion": "pendiente"}, "geometry": {"type": "Polygon", "coordinates": [[[-3.4075, 40.5157], [-3.4091, 40.5177], [-3.4129, 40.5163], [-3.4122, 40.5156], [-3.4109, 40.5161], [-3.4097, 40.5146], [-3.4078, 40.5156], [-3.4076, 40.5156], [-3.4075, 40.5157]]]}}, {"type": "Feature", "properties": {"municipio": "Alcalá De Henares", "clasificacion": "urbanizable-sectorizado", "calificacion": "sin-asignar", "version": "vigente", "fuente": "SIT-CAM WFS — UsoDelSuelo:VPLA_V_CLASIFICACION (https://idem.comunidad.madrid/geosrvg/ows)", "fecha_dato": "2026-05-12", "ambito": "15740", "_raw_CD_SIGLAS": "SUBS", "_raw_DS_CLASIF_GEN": "Suelo Urbanizable Programado", "_raw_DS_CLASIF_DET": "Suelo Urbanizable Programado Etapa 2", "_raw_DS_DOCU": "PLAN GENERAL", "_raw_DS_LEY": "CM Ley 4/1984, E Ley 8/1990", "_raw_FC_AC": "1991-07-05", "_raw_NM_AREA_M2": 17502.924783273, "_cam_code": "005", "derivado": "sectores-dormidos", "verificacion_gestion": "pendiente"}, "geometry": {"type": "Polygon", "coordinates": [[[-3.3979, 40.4941], [-3.3981, 40.4943], [-3.3979, 40.4944], [-3.3982, 40.4958], [-3.3981, 40.4968], [-3.3986, 40.4961], [-3.3991, 40.4946], [-3.399, 40.4946], [-3.399, 40.4942], [-3.3979, 40.4941]]]}}, {"type": "Feature", "properties": {"municipio": "Alcalá De Henares", "clasificacion": "urbanizable-sectorizado", "calificacion": "sin-asignar", "version": "vigente", "fuente": "SIT-CAM WFS — UsoDelSuelo:VPLA_V_CLASIFICACION (https://idem.comunidad.madrid/geosrvg/ows)", "fecha_dato": "2026-05-12", "ambito": "15740", "_raw_CD_SIGLAS": "SUBS", "_raw_DS_CLASIF_GEN": "Suelo Urbanizable Programado", "_raw_DS_CLASIF_DET": "Sistemas Generales adscritos a Etapa 1de SUP", "_raw_DS_DOCU": "PLAN GENERAL", "_raw_DS_LEY": "CM Ley 4/1984, E Ley 8/1990", "_raw_FC_AC": "1991-07-05", "_raw_NM_AREA_M2": 113269.218769464, "_cam_code": "005", "derivado": "sectores-dormidos", "verificacion_gestion": "pendiente"}, "geometry": {"type": "Polygon", "coordinates": [[[-3.3837, 40.4922], [-3.3838, 40.4923], [-3.3835, 40.4925], [-3.3855, 40.4937], [-3.3843, 40.4949], [-3.3844, 40.495], [-3.3843, 40.4951], [-3.3883, 40.4925], [-3.3871, 40.4915], [-3.3861, 40.4911], [-3.3859, 40.4909], [-3.3835, 40.4903], [-3.3825, 40.4903], [-3.3832, 40.4923], [-3.3837, 40.4923], [-3.3837, 40.4922]]]}}, {"type": "Feature", "properties": {"municipio": "Alcalá De Henares", "clasificacion": "urbanizable-sectorizado", "calificacion": "sin-asignar", "version": "vigente", "fuente": "SIT-CAM WFS — UsoDelSuelo:VPLA_V_CLASIFICACION (https://idem.comunidad.madrid/geosrvg/ows)", "fecha_dato": "2026-05-12", "ambito": "15740", "_raw_CD_SIGLAS": "SUBS", "_raw_DS_CLASIF_GEN": "Suelo Urbanizable Programado", "_raw_DS_CLASIF_DET": "Sistemas Generales adscritos a Etapa 1de SUP", "_raw_DS_DOCU": "PLAN GENERAL", "_raw_DS_LEY": "CM Ley 4/1984, E Ley 8/1990", "_raw_FC_AC": "1991-07-05", "_raw_NM_AREA_M2": 105007.833547902, "_cam_code": "005", "derivado": "sectores-dormidos", "verificacion_gestion": "pendiente"}, "geometry": {"type": "Polygon", "coordinates": [[[-3.3891, 40.4947], [-3.3913, 40.4969], [-3.3916, 40.4961], [-3.3919, 40.4935], [-3.3917, 40.4933], [-3.3904, 40.4937], [-3.3898, 40.4937], [-3.3887, 40.4929], [-3.3859, 40.4948], [-3.3873, 40.4958], [-3.388, 40.4955], [-3.3886, 40.495], [-3.3891, 40.4948], [-3.3891, 40.4947]]]}}, {"type": "Feature", "properties": {"municipio": "Alcalá De Henares", "clasificacion": "urbanizable-sectorizado", "calificacion": "sin-asignar", "version": "vigente", "fuente": "SIT-CAM WFS — UsoDelSuelo:VPLA_V_CLASIFICACION (https://idem.comunidad.madrid/geosrvg/ows)", "fecha_dato": "2026-05-12", "ambito": "15740", "_raw_CD_SIGLAS": "SUBS", "_raw_DS_CLASIF_GEN": "Suelo Urbanizable Programado", "_raw_DS_CLASIF_DET": "Suelo Urbanizable Programado Etapa 2", "_raw_DS_DOCU": "PLAN GENERAL", "_raw_DS_LEY": "CM Ley 4/1984, E Ley 8/1990", "_raw_FC_AC": "1991-07-05", "_raw_NM_AREA_M2": 84038.2795771369, "_cam_code": "005", "derivado": "sectores-dormidos", "verificacion_gestion": "pendiente"}, "geometry": {"type": "Polygon", "coordinates": [[[-3.3919, 40.4937], [-3.3916, 40.4961], [-3.3913, 40.4969], [-3.3922, 40.4975], [-3.3924, 40.4978], [-3.3929, 40.498], [-3.3943, 40.4972], [-3.3933, 40.4954], [-3.3937, 40.4951], [-3.3933, 40.4948], [-3.3933, 40.4945], [-3.3939, 40.4941], [-3.3943, 40.4941], [-3.3949, 40.4938], [-3.3929, 40.4934], [-3.3921, 40.4938], [-3.3919, 40.4938], [-3.3919, 40.4937]]]}}, {"type": "Feature", "properties": {"municipio": "Alcalá De Henares", "clasificacion": "urbanizable-sectorizado", "calificacion": "sin-asignar", "version": "vigente", "fuente": "SIT-CAM WFS — UsoDelSuelo:VPLA_V_CLASIFICACION (https://idem.comunidad.madrid/geosrvg/ows)", "fecha_dato": "2026-05-12", "ambito": "15740", "_raw_CD_SIGLAS": "SUBS", "_raw_DS_CLASIF_GEN": "Suelo Urbanizable Programado (INCORPORADO)", "_raw_DS_CLASIF_DET": "Suelo Urbanizable Programado desarrollado por PP aprobado", "_raw_DS_DOCU": "PLAN GENERAL", "_raw_DS_LEY": "CM Ley 4/1984, E Ley 8/1990", "_raw_FC_AC": "1991-07-05", "_raw_NM_AREA_M2": 10616.3634065739, "_cam_code": "005", "derivado": "sectores-dormidos", "verificacion_gestion": "pendiente"}, "geometry": {"type": "Polygon", "coordinates": [[[-3.4141, 40.4964], [-3.4154, 40.4966], [-3.4163, 40.4966], [-3.4163, 40.4961], [-3.4162, 40.496], [-3.4142, 40.496], [-3.4141, 40.4964]]]}}, {"type": "Feature", "properties": {"municipio": "Alcalá De Henares", "clasificacion": "urbanizable-sectorizado", "calificacion": "sin-asignar", "version": "vigente", "fuente": "SIT-CAM WFS — UsoDelSuelo:VPLA_V_CLASIFICACION (https://idem.comunidad.madrid/geosrvg/ows)", "fecha_dato": "2026-05-12", "ambito": "15740", "_raw_CD_SIGLAS": "SUBS", "_raw_DS_CLASIF_GEN": "Suelo Urbanizable Programado", "_raw_DS_CLASIF_DET": "Suelo Urbanizable Programado Etapa 1 sin tramitación", "_raw_DS_DOCU": "PLAN GENERAL", "_raw_DS_LEY": "CM Ley 4/1984, E Ley 8/1990", "_raw_FC_AC": "1991-07-05", "_raw_NM_AREA_M2": 270604.11730678, "_cam_code": "005", "derivado": "sectores-dormidos", "verificacion_gestion": "pendiente"}, "geometry": {"type": "Polygon", "coordinates": [[[-3.3975, 40.4826], [-3.3902, 40.4849], [-3.3875, 40.4858], [-3.3875, 40.4859], [-3.3886, 40.4866], [-3.3908, 40.4869], [-3.3908, 40.487], [-3.3933, 40.4876], [-3.394, 40.4879], [-3.3944, 40.4879], [-3.3969, 40.486], [-3.3979, 40.485], [-3.3982, 40.4843], [-3.3982, 40.4837], [-3.3979, 40.4831], [-3.3979, 40.4828], [-3.3975, 40.4826]]]}}, {"type": "Feature", "properties": {"municipio": "Alcalá De Henares", "clasificacion": "urbanizable-sectorizado", "calificacion": "sin-asignar", "version": "vigente", "fuente": "SIT-CAM WFS — UsoDelSuelo:VPLA_V_CLASIFICACION (https://idem.comunidad.madrid/geosrvg/ows)", "fecha_dato": "2026-05-12", "ambito": "15740", "_raw_CD_SIGLAS": "SUBS", "_raw_DS_CLASIF_GEN": "Suelo Urbanizable Programado (INCORPORADO)", "_raw_DS_CLASIF_DET": "Suelo Urbanizable Programado desarrollado por PP aprobado", "_raw_DS_DOCU": "PLAN GENERAL", "_raw_DS_LEY": "CM Ley 4/1984, E Ley 8/1990", "_raw_FC_AC": "1991-07-05", "_raw_NM_AREA_M2": 579467.426433096, "_cam_code": "005", "derivado": "sectores-dormidos", "verificacion_gestion": "pendiente"}, "geometry": {"type": "Polygon", "coordinates": [[[-3.4122, 40.5156], [-3.4129, 40.5163], [-3.4165, 40.5149], [-3.418, 40.5145], [-3.4184, 40.5145], [-3.4177, 40.5142], [-3.4171, 40.5141], [-3.4162, 40.5136], [-3.4147, 40.5131], [-3.4149, 40.5128], [-3.4149, 40.5122], [-3.4148, 40.5122], [-3.4147, 40.5118], [-3.4142, 40.5111], [-3.4155, 40.5108], [-3.4155, 40.5092], [-3.4156, 40.5089], [-3.416, 40.5086], [-3.4158, 40.508], [-3.4158, 40.5075], [-3.4139, 40.5072], [-3.4124, 40.5068], [-3.4123, 40.5072], [-3.4127, 40.5074], [-3.4135, 40.5082], [-3.4134, 40.5087], [-3.4132, 40.5089], [-3.4128, 40.5091], [-3.4114, 40.5094], [-3.4109, 40.5087], [-3.4107, 40.5086], [-3.4101, 40.51], [-3.4099, 40.5099], [-3.4087, 40.5101], [-3.4082, 40.5106], [-3.4076, 40.5109], [-3.4068, 40.5107], [-3.4063, 40.5111], [-3.4046, 40.5117], [-3.4075, 40.5157], [-3.4097, 40.5146], [-3.4109, 40.5161], [-3.4122, 40.5156]]]}}, {"type": "Feature", "properties": {"municipio": "Alcalá De Henares", "clasificacion": "urbanizable-sectorizado", "calificacion": "sin-asignar", "version": "vigente", "fuente": "SIT-CAM WFS — UsoDelSuelo:VPLA_V_CLASIFICACION (https://idem.comunidad.madrid/geosrvg/ows)", "fecha_dato": "2026-05-12", "ambito": "15740", "_raw_CD_SIGLAS": "SUBS", "_raw_DS_CLASIF_GEN": "Suelo Urbanizable Programado", "_raw_DS_CLASIF_DET": "Suelo Urbanizable Programado Etapa 2", "_raw_DS_DOCU": "PLAN GENERAL", "_raw_DS_LEY": "CM Ley 4/1984, E Ley 8/1990", "_raw_FC_AC": "1991-07-05", "_raw_NM_AREA_M2": 136112.293272904, "_cam_code": "005", "derivado": "sectores-dormidos", "verificacion_gestion": "pendiente"}, "geometry": {"type": "Polygon", "coordinates": [[[-3.4046, 40.5117], [-3.4063, 40.5111], [-3.4068, 40.5107], [-3.4076, 40.5109], [-3.4082, 40.5106], [-3.4087, 40.5101], [-3.4099, 40.5099], [-3.4101, 40.51], [-3.4106, 40.5087], [-3.4108, 40.5086], [-3.41, 40.5075], [-3.4095, 40.5073], [-3.4091, 40.5078], [-3.4083, 40.5068], [-3.4078, 40.5069], [-3.4076, 40.5075], [-3.4076, 40.5082], [-3.4079, 40.5085], [-3.4082, 40.5094], [-3.4049, 40.5095], [-3.4031, 40.5098], [-3.4046, 40.5117]]]}}, {"type": "Feature", "properties": {"municipio": "Alcalá De Henares", "clasificacion": "urbanizable-sectorizado", "calificacion": "sin-asignar", "version": "vigente", "fuente": "SIT-CAM WFS — UsoDelSuelo:VPLA_V_CLASIFICACION (https://idem.comunidad.madrid/geosrvg/ows)", "fecha_dato": "2026-05-12", "ambito": "15740", "_raw_CD_SIGLAS": "SUBS", "_raw_DS_CLASIF_GEN": "Suelo Urbanizable Programado (INCORPORADO)", "_raw_DS_CLASIF_DET": "Suelo Urbanizable Programado desarrollado por PP aprobado", "_raw_DS_DOCU": "PLAN GENERAL", "_raw_DS_LEY": "CM Ley 4/1984, E Ley 8/1990", "_raw_FC_AC": "1991-07-05", "_raw_NM_AREA_M2": 150715.554018439, "_cam_code": "005", "derivado": "sectores-dormidos", "verificacion_gestion": "pendiente"}, "geometry": {"type": "Polygon", "coordinates": [[[-3.4165, 40.4966], [-3.4171, 40.4966], [-3.4173, 40.4927], [-3.4111, 40.4925], [-3.4111, 40.4926], [-3.4111, 40.493], [-3.4111, 40.493], [-3.4111, 40.4931], [-3.4111, 40.4932], [-3.4111, 40.4932], [-3.4111, 40.4932], [-3.4111, 40.4933], [-3.4111, 40.4934], [-3.4111, 40.4933], [-3.4111, 40.4932], [-3.4125, 40.4931], [-3.4135, 40.4942], [-3.4133, 40.4954], [-3.413, 40.4954], [-3.4129, 40.4963], [-3.4134, 40.4964], [-3.4136, 40.4964], [-3.4137, 40.4964], [-3.4139, 40.4964], [-3.4139, 40.4964], [-3.4139, 40.4964], [-3.4139, 40.4964], [-3.414, 40.4964], [-3.4142, 40.4964], [-3.4141, 40.4964], [-3.4142, 40.4961], [-3.4142, 40.496], [-3.4162, 40.496], [-3.4163, 40.4961], [-3.4163, 40.4961], [-3.4163, 40.4961], [-3.4163, 40.4966], [-3.4162, 40.4966], [-3.4162, 40.4966], [-3.4162, 40.4966], [-3.4162, 40.4966], [-3.4162, 40.4966], [-3.4165, 40.4966]]]}}, {"type": "Feature", "properties": {"municipio": "Alcalá De Henares", "clasificacion": "urbanizable-sectorizado", "calificacion": "sin-asignar", "version": "vigente", "fuente": "SIT-CAM WFS — UsoDelSuelo:VPLA_V_CLASIFICACION (https://idem.comunidad.madrid/geosrvg/ows)", "fecha_dato": "2026-05-12", "ambito": "15740", "_raw_CD_SIGLAS": "SUBS", "_raw_DS_CLASIF_GEN": "Suelo Urbanizable Programado", "_raw_DS_CLASIF_DET": "Suelo Urbanizable Programado Etapa 2", "_raw_DS_DOCU": "PLAN GENERAL", "_raw_DS_LEY": "CM Ley 4/1984, E Ley 8/1990", "_raw_FC_AC": "1991-07-05", "_raw_NM_AREA_M2": 214518.647281711, "_cam_code": "005", "derivado": "sectores-dormidos", "verificacion_gestion": "pendiente"}, "geometry": {"type": "Polygon", "coordinates": [[[-3.3985, 40.5016], [-3.3986, 40.5029], [-3.4006, 40.5022], [-3.4005, 40.5015], [-3.4004, 40.5015], [-3.4004, 40.5015], [-3.4004, 40.5015], [-3.4005, 40.5015], [-3.4007, 40.5015], [-3.4009, 40.5016], [-3.4024, 40.5017], [-3.4026, 40.4999], [-3.4023, 40.4998], [-3.402, 40.4995], [-3.4017, 40.4989], [-3.4023, 40.4987], [-3.4023, 40.4979], [-3.4024, 40.4978], [-3.402, 40.4973], [-3.4018, 40.4968], [-3.4017, 40.4956], [-3.4014, 40.4953], [-3.4016, 40.4951], [-3.4007, 40.495], [-3.4, 40.4947], [-3.3999, 40.4948], [-3.3995, 40.4977], [-3.3992, 40.4982], [-3.3988, 40.4985], [-3.3982, 40.4996], [-3.398, 40.5003], [-3.398, 40.5011], [-3.3985, 40.5016]]]}}, {"type": "Feature", "properties": {"municipio": "Alcalá De Henares", "clasificacion": "urbanizable-sectorizado", "calificacion": "sin-asignar", "version": "vigente", "fuente": "SIT-CAM WFS — UsoDelSuelo:VPLA_V_CLASIFICACION (https://idem.comunidad.madrid/geosrvg/ows)", "fecha_dato": "2026-05-12", "ambito": "15740", "_raw_CD_SIGLAS": "SUBS", "_raw_DS_CLASIF_GEN": "Suelo Urbanizable Programado (INCORPORADO)", "_raw_DS_CLASIF_DET": "Suelo Urbanizable Programado desarrollado por PP aprobado", "_raw_DS_DOCU": "PLAN GENERAL", "_raw_DS_LEY": "CM Ley 4/1984, E Ley 8/1990", "_raw_FC_AC": "1991-07-05", "_raw_NM_AREA_M2": 174226.388756527, "_cam_code": "005", "derivado": "sectores-dormidos", "verificacion_gestion": "pendiente"}, "geometry": {"type": "Polygon", "coordinates": [[[-3.3923, 40.4985], [-3.3966, 40.5006], [-3.3979, 40.4982], [-3.3981, 40.4973], [-3.3981, 40.4966], [-3.3982, 40.4965], [-3.3982, 40.4958], [-3.3979, 40.4946], [-3.3979, 40.4944], [-3.3981, 40.4943], [-3.398, 40.4941], [-3.396, 40.4939], [-3.395, 40.4945], [-3.3945, 40.4951], [-3.3949, 40.4955], [-3.3954, 40.4964], [-3.3963, 40.4972], [-3.3939, 40.4987], [-3.393, 40.4981], [-3.3923, 40.4985]]]}}, {"type": "Feature", "properties": {"municipio": "Alcalá De Henares", "clasificacion": "urbanizable-sectorizado", "calificacion": "sin-asignar", "version": "vigente", "fuente": "SIT-CAM WFS — UsoDelSuelo:VPLA_V_CLASIFICACION (https://idem.comunidad.madrid/geosrvg/ows)", "fecha_dato": "2026-05-12", "ambito": "15740", "_raw_CD_SIGLAS": "SUBS", "_raw_DS_CLASIF_GEN": "Suelo Urbanizable Programado", "_raw_DS_CLASIF_DET": "Suelo Urbanizable Programado Etapa 2", "_raw_DS_DOCU": "PLAN GENERAL", "_raw_DS_LEY": "CM Ley 4/1984, E Ley 8/1990", "_raw_FC_AC": "1991-07-05", "_raw_NM_AREA_M2": 91259.0905025249, "_cam_code": "005", "derivado": "sectores-dormidos", "verificacion_gestion": "pendiente"}, "geometry": {"type": "Polygon", "coordinates": [[[-3.4011, 40.5062], [-3.4014, 40.5062], [-3.4021, 40.5068], [-3.4024, 40.5068], [-3.4028, 40.5065], [-3.4029, 40.506], [-3.4034, 40.5055], [-3.4034, 40.5053], [-3.403, 40.5049], [-3.4024, 40.5037], [-3.4024, 40.5038], [-3.402, 40.5038], [-3.4017, 40.5041], [-3.4014, 40.5041], [-3.4009, 40.5016], [-3.4007, 40.5015], [-3.4006, 40.5015], [-3.4005, 40.5015], [-3.4004, 40.5015], [-3.4005, 40.5015], [-3.4006, 40.5022], [-3.3999, 40.5024], [-3.4002, 40.5039], [-3.3994, 40.5042], [-3.4008, 40.5065], [-3.4011, 40.5061], [-3.4011, 40.5062]]]}}, {"type": "Feature", "properties": {"municipio": "Alcalá De Henares", "clasificacion": "urbanizable-sectorizado", "calificacion": "sin-asignar", "version": "vigente", "fuente": "SIT-CAM WFS — UsoDelSuelo:VPLA_V_CLASIFICACION (https://idem.comunidad.madrid/geosrvg/ows)", "fecha_dato": "2026-05-12", "ambito": "15740", "_raw_CD_SIGLAS": "SUBS", "_raw_DS_CLASIF_GEN": "Suelo Urbanizable Programado", "_raw_DS_CLASIF_DET": "Suelo Urbanizable Programado Etapa 2", "_raw_DS_DOCU": "PLAN GENERAL", "_raw_DS_LEY": "CM Ley 4/1984, E Ley 8/1990", "_raw_FC_AC": "1991-07-05", "_raw_NM_AREA_M2": 21674.9538431273, "_cam_code": "005", "derivado": "sectores-dormidos", "verificacion_gestion": "pendiente"}, "geometry": {"type": "Polygon", "coordinates": [[[-3.3935, 40.5075], [-3.3933, 40.5079], [-3.3936, 40.5082], [-3.3936, 40.5085], [-3.3933, 40.5089], [-3.3931, 40.5089], [-3.3934, 40.5094], [-3.394, 40.5099], [-3.3951, 40.5089], [-3.3948, 40.5088], [-3.3944, 40.5084], [-3.3944, 40.508], [-3.3938, 40.5077], [-3.3938, 40.5076], [-3.3935, 40.5075]]]}}, {"type": "Feature", "properties": {"municipio": "Alcalá De Henares", "clasificacion": "urbanizable-sectorizado", "calificacion": "sin-asignar", "version": "vigente", "fuente": "SIT-CAM WFS — UsoDelSuelo:VPLA_V_CLASIFICACION (https://idem.comunidad.madrid/geosrvg/ows)", "fecha_dato": "2026-05-12", "ambito": "15740", "_raw_CD_SIGLAS": "SUBS", "_raw_DS_CLASIF_GEN": "Suelo Urbanizable Programado", "_raw_DS_CLASIF_DET": "Suelo Urbanizable Programado Etapa 1 en tramitación", "_raw_DS_DOCU": "PLAN GENERAL", "_raw_DS_LEY": "CM Ley 4/1984, E Ley 8/1990", "_raw_FC_AC": "1991-07-05", "_raw_NM_AREA_M2": 2517639.22068379, "_cam_code": "005", "derivado": "sectores-dormidos", "verificacion_gestion": "pendiente"}, "geometry": {"type": "Polygon", "coordinates": [[[-3.3354, 40.5154], [-3.3436, 40.5237], [-3.3436, 40.5234], [-3.344, 40.5226], [-3.3455, 40.5212], [-3.3467, 40.5203], [-3.348, 40.5185], [-3.3508, 40.5151], [-3.3513, 40.5143], [-3.3514, 40.5144], [-3.3523, 40.5081], [-3.3523, 40.5078], [-3.3522, 40.5078], [-3.3523, 40.5068], [-3.3522, 40.5059], [-3.352, 40.5056], [-3.3515, 40.5054], [-3.3492, 40.5049], [-3.3463, 40.504], [-3.3445, 40.5031], [-3.3405, 40.5014], [-3.3306, 40.5093], [-3.3309, 40.5095], [-3.3321, 40.5109], [-3.3327, 40.5106], [-3.3349, 40.5102], [-3.3349, 40.5104], [-3.3344, 40.5112], [-3.3343, 40.5117], [-3.3348, 40.5115], [-3.3348, 40.5114], [-3.3355, 40.5112], [-3.3358, 40.5114], [-3.3356, 40.5118], [-3.3372, 40.5118], [-3.3371, 40.5128], [-3.336, 40.5137], [-3.3354, 40.5154]]]}}, {"type": "Feature", "properties": {"municipio": "Alcalá De Henares", "clasificacion": "urbanizable-sectorizado", "calificacion": "sin-asignar", "version": "vigente", "fuente": "SIT-CAM WFS — UsoDelSuelo:VPLA_V_CLASIFICACION (https://idem.comunidad.madrid/geosrvg/ows)", "fecha_dato": "2026-05-12", "ambito": "15740", "_raw_CD_SIGLAS": "SUBS", "_raw_DS_CLASIF_GEN": "Suelo Urbanizable Programado", "_raw_DS_CLASIF_DET": "Suelo Urbanizable Programado Etapa 1 sin tramitación", "_raw_DS_DOCU": "PLAN GENERAL", "_raw_DS_LEY": "CM Ley 4/1984, E Ley 8/1990", "_raw_FC_AC": "1991-07-05", "_raw_NM_AREA_M2": 23699.6330686703, "_cam_code": "005", "derivado": "sectores-dormidos", "verificacion_gestion": "pendiente"}, "geometry": {"type": "Polygon", "coordinates": [[[-3.3338, 40.5033], [-3.3333, 40.5036], [-3.3331, 40.5039], [-3.3349, 40.5055], [-3.3358, 40.5048], [-3.3338, 40.5033]]]}}, {"type": "Feature", "properties": {"municipio": "Alcalá De Henares", "clasificacion": "urbanizable-sectorizado", "calificacion": "sin-asignar", "version": "vigente", "fuente": "SIT-CAM WFS — UsoDelSuelo:VPLA_V_CLASIFICACION (https://idem.comunidad.madrid/geosrvg/ows)", "fecha_dato": "2026-05-12", "ambito": "15740", "_raw_CD_SIGLAS": "SUBS", "_raw_DS_CLASIF_GEN": "Suelo Urbanizable Programado", "_raw_DS_CLASIF_DET": "Suelo Urbanizable Programado Etapa 1 sin tramitación", "_raw_DS_DOCU": "PLAN GENERAL", "_raw_DS_LEY": "CM Ley 4/1984, E Ley 8/1990", "_raw_FC_AC": "1991-07-05", "_raw_NM_AREA_M2": 1847701.17263179, "_cam_code": "005", "derivado": "sectores-dormidos", "verificacion_gestion": "pendiente"}, "geometry": {"type": "Polygon", "coordinates": [[[-3.4006, 40.4874], [-3.4, 40.4882], [-3.3998, 40.4895], [-3.4, 40.4915], [-3.3999, 40.492], [-3.4, 40.492], [-3.4, 40.4941], [-3.4002, 40.4946], [-3.4011, 40.4949], [-3.4014, 40.4949], [-3.4018, 40.4928], [-3.4019, 40.4925], [-3.402, 40.4925], [-3.4028, 40.4901], [-3.4032, 40.4895], [-3.4035, 40.4887], [-3.4046, 40.4876], [-3.4061, 40.4885], [-3.4055, 40.489], [-3.4045, 40.4891], [-3.4048, 40.4895], [-3.4055, 40.4894], [-3.4065, 40.4901], [-3.4067, 40.4893], [-3.4071, 40.4892], [-3.4076, 40.4894], [-3.4076, 40.4895], [-3.4085, 40.4893], [-3.4093, 40.4889], [-3.4098, 40.4888], [-3.4112, 40.4904], [-3.4112, 40.4788], [-3.4282, 40.479], [-3.428, 40.4781], [-3.428, 40.477], [-3.4268, 40.475], [-3.4266, 40.4744], [-3.4266, 40.4742], [-3.4267, 40.4742], [-3.4266, 40.4735], [-3.4259, 40.4725], [-3.4259, 40.4721], [-3.426, 40.4721], [-3.4258, 40.4716], [-3.4258, 40.471], [-3.4183, 40.4732], [-3.417, 40.4742], [-3.415, 40.4754], [-3.4078, 40.4781], [-3.4065, 40.4788], [-3.4041, 40.4809], [-3.4016, 40.4836], [-3.4007, 40.4853], [-3.4006, 40.4859], [-3.4005, 40.4859], [-3.4006, 40.4874]]]}}, {"type": "Feature", "properties": {"municipio": "Alcalá De Henares", "clasificacion": "urbanizable-sectorizado", "calificacion": "sin-asignar", "version": "vigente", "fuente": "SIT-CAM WFS — UsoDelSuelo:VPLA_V_CLASIFICACION (https://idem.comunidad.madrid/geosrvg/ows)", "fecha_dato": "2026-05-12", "ambito": "15740", "_raw_CD_SIGLAS": "SUBS", "_raw_DS_CLASIF_GEN": "Suelo Urbanizable Programado", "_raw_DS_CLASIF_DET": "Suelo Urbanizable Programado Etapa 1 sin tramitación", "_raw_DS_DOCU": "PLAN GENERAL", "_raw_DS_LEY": "CM Ley 4/1984, E Ley 8/1990", "_raw_FC_AC": "1991-07-05", "_raw_NM_AREA_M2": 351837.191539823, "_cam_code": "005", "derivado": "sectores-dormidos", "verificacion_gestion": "pendiente"}, "geometry": {"type": "Polygon", "coordinates": [[[-3.3837, 40.4835], [-3.3843, 40.487], [-3.3844, 40.487], [-3.3853, 40.4866], [-3.3864, 40.4855], [-3.3874, 40.4856], [-3.3884, 40.4853], [-3.3949, 40.4831], [-3.3952, 40.4831], [-3.3974, 40.4824], [-3.3973, 40.4823], [-3.3974, 40.482], [-3.3973, 40.482], [-3.3964, 40.4797], [-3.3961, 40.4794], [-3.393, 40.4804], [-3.3929, 40.4805], [-3.3931, 40.4806], [-3.3933, 40.481], [-3.3917, 40.4815], [-3.3917, 40.4814], [-3.3915, 40.4814], [-3.3903, 40.4819], [-3.3888, 40.4823], [-3.3887, 40.4825], [-3.389, 40.4829], [-3.3888, 40.4829], [-3.3885, 40.4825], [-3.3845, 40.4839], [-3.3842, 40.4834], [-3.3837, 40.4835]]]}}, {"type": "Feature", "properties": {"municipio": "Alcalá De Henares", "clasificacion": "urbanizable-sectorizado", "calificacion": "sin-asignar", "version": "vigente", "fuente": "SIT-CAM WFS — UsoDelSuelo:VPLA_V_CLASIFICACION (https://idem.comunidad.madrid/geosrvg/ows)", "fecha_dato": "2026-05-12", "ambito": "15740", "_raw_CD_SIGLAS": "SUBS", "_raw_DS_CLASIF_GEN": "Suelo Urbanizable Programado", "_raw_DS_CLASIF_DET": "Suelo Urbanizable Programado Etapa 2", "_raw_DS_DOCU": "PLAN GENERAL", "_raw_DS_LEY": "CM Ley 4/1984, E Ley 8/1990", "_raw_FC_AC": "1991-07-05", "_raw_NM_AREA_M2": 121562.32776045, "_cam_code": "005", "derivado": "sectores-dormidos", "verificacion_gestion": "pendiente"}, "geometry": {"type": "Polygon", "coordinates": [[[-3.4182, 40.4695], [-3.4185, 40.4704], [-3.4184, 40.4709], [-3.4184, 40.4716], [-3.4185, 40.4716], [-3.426, 40.4691], [-3.4254, 40.4689], [-3.425, 40.4685], [-3.4244, 40.4683], [-3.4223, 40.4683], [-3.4182, 40.4695]]]}}, {"type": "Feature", "properties": {"municipio": "Alcalá De Henares", "clasificacion": "urbanizable-sectorizado", "calificacion": "sin-asignar", "version": "vigente", "fuente": "SIT-CAM WFS — UsoDelSuelo:VPLA_V_CLASIFICACION (https://idem.comunidad.madrid/geosrvg/ows)", "fecha_dato": "2026-05-12", "ambito": "15740", "_raw_CD_SIGLAS": "SUBS", "_raw_DS_CLASIF_GEN": "Suelo Urbanizable Programado", "_raw_DS_CLASIF_DET": "Suelo Urbanizable Programado Etapa 1 sin tramitación", "_raw_DS_DOCU": "PLAN GENERAL", "_raw_DS_LEY": "CM Ley 4/1984, E Ley 8/1990", "_raw_FC_AC": "1991-07-05", "_raw_NM_AREA_M2": 435344.331847823, "_cam_code": "005", "derivado": "sectores-dormidos", "verificacion_gestion": "pendiente"}, "geometry": {"type": "Polygon", "coordinates": [[[-3.37, 40.5077], [-3.3689, 40.51], [-3.3693, 40.5106], [-3.3721, 40.5113], [-3.3752, 40.5117], [-3.3746, 40.511], [-3.3746, 40.5108], [-3.3744, 40.5107], [-3.3742, 40.51], [-3.3742, 40.5097], [-3.3745, 40.5096], [-3.3747, 40.5092], [-3.3748, 40.5092], [-3.3748, 40.5084], [-3.3743, 40.5079], [-3.3739, 40.5078], [-3.3741, 40.5072], [-3.374, 40.5071], [-3.3741, 40.5065], [-3.3745, 40.5061], [-3.3745, 40.5058], [-3.3746, 40.5058], [-3.3746, 40.5051], [-3.3747, 40.5051], [-3.3748, 40.5047], [-3.3746, 40.504], [-3.3748, 40.504], [-3.3749, 40.5038], [-3.3747, 40.5031], [-3.3743, 40.5036], [-3.3739, 40.5032], [-3.3737, 40.5024], [-3.3738, 40.5021], [-3.3745, 40.5014], [-3.3758, 40.5014], [-3.3763, 40.5011], [-3.3758, 40.5001], [-3.3684, 40.5038], [-3.3685, 40.5038], [-3.3699, 40.506], [-3.37, 40.506], [-3.3701, 40.5064], [-3.3708, 40.5065], [-3.3708, 40.5066], [-3.3711, 40.5067], [-3.371, 40.5067], [-3.371, 40.5071], [-3.3709, 40.5071], [-3.3709, 40.5073], [-3.3707, 40.5075], [-3.37, 40.5075], [-3.37, 40.5077]]]}}, {"type": "Feature", "properties": {"municipio": "Alcalá De Henares", "clasificacion": "urbanizable-sectorizado", "calificacion": "sin-asignar", "version": "vigente", "fuente": "SIT-CAM WFS — UsoDelSuelo:VPLA_V_CLASIFICACION (https://idem.comunidad.madrid/geosrvg/ows)", "fecha_dato": "2026-05-12", "ambito": "15740", "_raw_CD_SIGLAS": "SUBS", "_raw_DS_CLASIF_GEN": "Suelo Urbanizable Programado (INCORPORADO)", "_raw_DS_CLASIF_DET": "Suelo Urbanizable Programado desarrollado por PP aprobado", "_raw_DS_DOCU": "PLAN GENERAL", "_raw_DS_LEY": "CM Ley 4/1984, E Ley 8/1990", "_raw_FC_AC": "1991-07-05", "_raw_NM_AREA_M2": 220841.55436645, "_cam_code": "005", "derivado": "sectores-dormidos", "verificacion_gestion": "pendiente"}, "geometry": {"type": "Polygon", "coordinates": [[[-3.4028, 40.4901], [-3.4018, 40.4928], [-3.4014, 40.4949], [-3.4053, 40.4953], [-3.4054, 40.4946], [-3.4057, 40.4942], [-3.4059, 40.4932], [-3.4057, 40.4932], [-3.4058, 40.4929], [-3.4056, 40.4929], [-3.4051, 40.4921], [-3.4051, 40.4909], [-3.4054, 40.4909], [-3.4055, 40.4906], [-3.4057, 40.4906], [-3.4057, 40.4904], [-3.4074, 40.4905], [-3.4076, 40.4894], [-3.4071, 40.4892], [-3.4067, 40.4893], [-3.4065, 40.4901], [-3.4055, 40.4894], [-3.4048, 40.4895], [-3.4045, 40.4891], [-3.4055, 40.489], [-3.4061, 40.4885], [-3.4046, 40.4876], [-3.4035, 40.4887], [-3.4032, 40.4895], [-3.4028, 40.4901]]]}}, {"type": "Feature", "properties": {"municipio": "Alcalá De Henares", "clasificacion": "urbanizable-sectorizado", "calificacion": "sin-asignar", "version": "vigente", "fuente": "SIT-CAM WFS — UsoDelSuelo:VPLA_V_CLASIFICACION (https://idem.comunidad.madrid/geosrvg/ows)", "fecha_dato": "2026-05-12", "ambito": "15740", "_raw_CD_SIGLAS": "SUBS", "_raw_DS_CLASIF_GEN": "Suelo Urbanizable Programado (INCORPORADO)", "_raw_DS_CLASIF_DET": "Suelo Urbanizable Programado desarrollado por PP aprobado", "_raw_DS_DOCU": "PLAN GENERAL", "_raw_DS_LEY": "CM Ley 4/1984, E Ley 8/1990", "_raw_FC_AC": "1991-07-05", "_raw_NM_AREA_M2": 251711.561592484, "_cam_code": "005", "derivado": "sectores-dormidos", "verificacion_gestion": "pendiente"}, "geometry": {"type": "Polygon", "coordinates": [[[-3.3898, 40.4922], [-3.3936, 40.4933], [-3.3943, 40.4924], [-3.3951, 40.4924], [-3.3952, 40.4923], [-3.3968, 40.4923], [-3.3976, 40.4927], [-3.3982, 40.4928], [-3.3981, 40.4918], [-3.3986, 40.489], [-3.397, 40.4881], [-3.3963, 40.4882], [-3.3954, 40.4881], [-3.3911, 40.4911], [-3.3898, 40.4922]]]}}, {"type": "Feature", "properties": {"municipio": "Alcalá De Henares", "clasificacion": "urbanizable-sectorizado", "calificacion": "sin-asignar", "version": "vigente", "fuente": "SIT-CAM WFS — UsoDelSuelo:VPLA_V_CLASIFICACION (https://idem.comunidad.madrid/geosrvg/ows)", "fecha_dato": "2026-05-12", "ambito": "15740", "_raw_CD_SIGLAS": "SUBS", "_raw_DS_CLASIF_GEN": "Suelo Urbanizable Programado", "_raw_DS_CLASIF_DET": "Suelo Urbanizable Programado Etapa 1 sin tramitación", "_raw_DS_DOCU": "PLAN GENERAL", "_raw_DS_LEY": "CM Ley 4/1984, E Ley 8/1990", "_raw_FC_AC": "1991-07-05", "_raw_NM_AREA_M2": 287922.715277712, "_cam_code": "005", "derivado": "sectores-dormidos", "verificacion_gestion": "pendiente"}, "geometry": {"type": "Polygon", "coordinates": [[[-3.4124, 40.474], [-3.4026, 40.4773], [-3.402, 40.4774], [-3.3966, 40.4793], [-3.3977, 40.4812], [-3.3981, 40.4816], [-3.3981, 40.4818], [-3.3984, 40.4819], [-3.3986, 40.4822], [-3.3985, 40.4826], [-3.3991, 40.4831], [-3.3998, 40.4831], [-3.4048, 40.4782], [-3.4058, 40.4774], [-3.4092, 40.4754], [-3.4109, 40.4746], [-3.4122, 40.4742], [-3.4124, 40.474]]]}}, {"type": "Feature", "properties": {"municipio": "Alcalá De Henares", "clasificacion": "urbanizable-sectorizado", "calificacion": "sin-asignar", "version": "vigente", "fuente": "SIT-CAM WFS — UsoDelSuelo:VPLA_V_CLASIFICACION (https://idem.comunidad.madrid/geosrvg/ows)", "fecha_dato": "2026-05-12", "ambito": "15740", "_raw_CD_SIGLAS": "SUBS", "_raw_DS_CLASIF_GEN": "Suelo Urbanizable Programado (INCORPORADO)", "_raw_DS_CLASIF_DET": "Suelo Urbanizable Programado desarrollado por PP aprobado", "_raw_DS_DOCU": "PLAN GENERAL", "_raw_DS_LEY": "CM Ley 4/1984, E Ley 8/1990", "_raw_FC_AC": "1991-07-05", "_raw_NM_AREA_M2": 534820.843895646, "_cam_code": "005", "derivado": "sectores-dormidos", "verificacion_gestion": "pendiente"}, "geometry": {"type": "Polygon", "coordinates": [[[-3.3864, 40.4742], [-3.3882, 40.4762], [-3.3873, 40.4768], [-3.3873, 40.477], [-3.3871, 40.477], [-3.3869, 40.4779], [-3.3867, 40.4782], [-3.3871, 40.4782], [-3.3927, 40.4765], [-3.3936, 40.4762], [-3.3936, 40.4761], [-3.3951, 40.4757], [-3.3955, 40.4757], [-3.4068, 40.4724], [-3.4063, 40.4723], [-3.4061, 40.472], [-3.4052, 40.4718], [-3.4049, 40.4719], [-3.4018, 40.4718], [-3.3975, 40.4722], [-3.3939, 40.473], [-3.3934, 40.4733], [-3.3925, 40.4733], [-3.3923, 40.4732], [-3.3917, 40.4734], [-3.3904, 40.4734], [-3.3898, 40.4731], [-3.3863, 40.4722], [-3.3851, 40.4721], [-3.3864, 40.4742]]]}}, {"type": "Feature", "properties": {"municipio": "Alcalá De Henares", "clasificacion": "urbanizable-sectorizado", "calificacion": "sin-asignar", "version": "vigente", "fuente": "SIT-CAM WFS — UsoDelSuelo:VPLA_V_CLASIFICACION (https://idem.comunidad.madrid/geosrvg/ows)", "fecha_dato": "2026-05-12", "ambito": "15740", "_raw_CD_SIGLAS": "SUBS", "_raw_DS_CLASIF_GEN": "Suelo Urbanizable Programado", "_raw_DS_CLASIF_DET": "Suelo Urbanizable Programado Etapa 2", "_raw_DS_DOCU": "PLAN GENERAL", "_raw_DS_LEY": "CM Ley 4/1984, E Ley 8/1990", "_raw_FC_AC": "1991-07-05", "_raw_NM_AREA_M2": 14131.7743943645, "_cam_code": "005", "derivado": "sectores-dormidos", "verificacion_gestion": "pendiente"}, "geometry": {"type": "Polygon", "coordinates": [[[-3.4177, 40.4678], [-3.4177, 40.4679], [-3.4172, 40.468], [-3.4169, 40.4682], [-3.4174, 40.4684], [-3.4178, 40.4691], [-3.418, 40.4692], [-3.4191, 40.4689], [-3.419, 40.4686], [-3.4182, 40.468], [-3.418, 40.4677], [-3.4177, 40.4678]]]}}, {"type": "Feature", "properties": {"municipio": "Alcalá De Henares", "clasificacion": "urbanizable-sectorizado", "calificacion": "sin-asignar", "version": "vigente", "fuente": "SIT-CAM WFS — UsoDelSuelo:VPLA_V_CLASIFICACION (https://idem.comunidad.madrid/geosrvg/ows)", "fecha_dato": "2026-05-12", "ambito": "15740", "_raw_CD_SIGLAS": "SUBS", "_raw_DS_CLASIF_GEN": "Suelo Urbanizable Programado (INCORPORADO)", "_raw_DS_CLASIF_DET": "Suelo Urbanizable Programado desarrollado por PP aprobado", "_raw_DS_DOCU": "PLAN GENERAL", "_raw_DS_LEY": "CM Ley 4/1984, E Ley 8/1990", "_raw_FC_AC": "1991-07-05", "_raw_NM_AREA_M2": 418997.559655281, "_cam_code": "005", "derivado": "sectores-dormidos", "verificacion_gestion": "pendiente"}, "geometry": {"type": "Polygon", "coordinates": [[[-3.3755, 40.4996], [-3.3763, 40.501], [-3.3765, 40.5008], [-3.3768, 40.5], [-3.3771, 40.4987], [-3.3774, 40.4983], [-3.3776, 40.4936], [-3.3774, 40.4931], [-3.3773, 40.4931], [-3.3772, 40.4926], [-3.3766, 40.4929], [-3.3758, 40.4916], [-3.3733, 40.4917], [-3.3726, 40.4924], [-3.372, 40.4926], [-3.3722, 40.4929], [-3.3693, 40.4944], [-3.37, 40.4951], [-3.3688, 40.4958], [-3.3691, 40.4963], [-3.3693, 40.4962], [-3.3696, 40.4967], [-3.3696, 40.4966], [-3.3711, 40.4961], [-3.3732, 40.498], [-3.3735, 40.4984], [-3.3746, 40.4989], [-3.3755, 40.4996]]]}}, {"type": "Feature", "properties": {"municipio": "Alcalá De Henares", "clasificacion": "urbanizable-sectorizado", "calificacion": "sin-asignar", "version": "vigente", "fuente": "SIT-CAM WFS — UsoDelSuelo:VPLA_V_CLASIFICACION (https://idem.comunidad.madrid/geosrvg/ows)", "fecha_dato": "2026-05-12", "ambito": "15740", "_raw_CD_SIGLAS": "SUBS", "_raw_DS_CLASIF_GEN": "Suelo Urbanizable Programado", "_raw_DS_CLASIF_DET": "Suelo Urbanizable Programado Etapa 2", "_raw_DS_DOCU": "PLAN GENERAL", "_raw_DS_LEY": "CM Ley 4/1984, E Ley 8/1990", "_raw_FC_AC": "1991-07-05", "_raw_NM_AREA_M2": 547005.889590628, "_cam_code": "005", "derivado": "sectores-dormidos", "verificacion_gestion": "pendiente"}, "geometry": {"type": "Polygon", "coordinates": [[[-3.3869, 40.5111], [-3.3902, 40.5099], [-3.3911, 40.5094], [-3.392, 40.5086], [-3.3919, 40.5085], [-3.392, 40.5081], [-3.3921, 40.5079], [-3.3924, 40.5078], [-3.3916, 40.5064], [-3.3916, 40.5062], [-3.3915, 40.5062], [-3.3914, 40.5058], [-3.3904, 40.5045], [-3.3892, 40.5033], [-3.389, 40.5027], [-3.3892, 40.501], [-3.3852, 40.5019], [-3.3849, 40.5015], [-3.3849, 40.5012], [-3.3847, 40.5013], [-3.3845, 40.5009], [-3.384, 40.5008], [-3.384, 40.5005], [-3.3842, 40.5003], [-3.3841, 40.4999], [-3.3836, 40.4987], [-3.3833, 40.4987], [-3.3833, 40.4988], [-3.3817, 40.4993], [-3.3812, 40.4999], [-3.3812, 40.5004], [-3.3813, 40.5004], [-3.3812, 40.5004], [-3.3816, 40.5011], [-3.3816, 40.5013], [-3.3817, 40.5013], [-3.382, 40.5027], [-3.3831, 40.5046], [-3.3832, 40.5046], [-3.3842, 40.5069], [-3.3843, 40.5069], [-3.3844, 40.5072], [-3.3845, 40.5071], [-3.3845, 40.5073], [-3.3852, 40.5085], [-3.3853, 40.5086], [-3.3853, 40.5085], [-3.3855, 40.5085], [-3.3869, 40.5077], [-3.387, 40.5075], [-3.388, 40.5072], [-3.3896, 40.5063], [-3.3908, 40.5067], [-3.391, 40.5077], [-3.3894, 40.5085], [-3.3885, 40.5091], [-3.3863, 40.5101], [-3.3869, 40.5111]]]}}, {"type": "Feature", "properties": {"municipio": "Alcalá De Henares", "clasificacion": "urbanizable-sectorizado", "calificacion": "sin-asignar", "version": "vigente", "fuente": "SIT-CAM WFS — UsoDelSuelo:VPLA_V_CLASIFICACION (https://idem.comunidad.madrid/geosrvg/ows)", "fecha_dato": "2026-05-12", "ambito": "15740", "_raw_CD_SIGLAS": "SUBS", "_raw_DS_CLASIF_GEN": "Suelo Urbanizable Programado", "_raw_DS_CLASIF_DET": "Suelo Urbanizable Programado Etapa 1 en tramitación", "_raw_DS_DOCU": "PLAN GENERAL", "_raw_DS_LEY": "CM Ley 4/1984, E Ley 8/1990", "_raw_FC_AC": "1991-07-05", "_raw_NM_AREA_M2": 736377.78321304, "_cam_code": "005", "derivado": "sectores-dormidos", "verificacion_gestion": "pendiente"}, "geometry": {"type": "Polygon", "coordinates": [[[-3.3595, 40.5051], [-3.3593, 40.5056], [-3.3595, 40.5056], [-3.3595, 40.5055], [-3.3616, 40.5054], [-3.3642, 40.5047], [-3.3642, 40.5046], [-3.3647, 40.5045], [-3.3649, 40.5043], [-3.3654, 40.5042], [-3.3659, 40.5038], [-3.3667, 40.5035], [-3.3667, 40.5034], [-3.3677, 40.503], [-3.3677, 40.5029], [-3.3679, 40.5029], [-3.3681, 40.5027], [-3.3709, 40.5017], [-3.3709, 40.5016], [-3.3755, 40.4996], [-3.3746, 40.4989], [-3.3735, 40.4984], [-3.3732, 40.498], [-3.3711, 40.4961], [-3.3696, 40.4966], [-3.3696, 40.4967], [-3.3693, 40.4962], [-3.3611, 40.4994], [-3.361, 40.4998], [-3.3605, 40.5006], [-3.3605, 40.5019], [-3.3602, 40.5029], [-3.3599, 40.5034], [-3.3596, 40.5043], [-3.3595, 40.5051]]]}}, {"type": "Feature", "properties": {"municipio": "Alcalá De Henares", "clasificacion": "urbanizable-sectorizado", "calificacion": "sin-asignar", "version": "vigente", "fuente": "SIT-CAM WFS — UsoDelSuelo:VPLA_V_CLASIFICACION (https://idem.comunidad.madrid/geosrvg/ows)", "fecha_dato": "2026-05-12", "ambito": "15740", "_raw_CD_SIGLAS": "SUBS", "_raw_DS_CLASIF_GEN": "Suelo Urbanizable Programado", "_raw_DS_CLASIF_DET": "Suelo Urbanizable Programado Etapa 2", "_raw_DS_DOCU": "PLAN GENERAL", "_raw_DS_LEY": "CM Ley 4/1984, E Ley 8/1990", "_raw_FC_AC": "1991-07-05", "_raw_NM_AREA_M2": 337455.323582883, "_cam_code": "005", "derivado": "sectores-dormidos", "verificacion_gestion": "pendiente"}, "geometry": {"type": "Polygon", "coordinates": [[[-3.4079, 40.4988], [-3.4092, 40.4989], [-3.4106, 40.4995], [-3.4139, 40.5004], [-3.4144, 40.5008], [-3.4147, 40.5013], [-3.4153, 40.5014], [-3.4155, 40.5016], [-3.4159, 40.5017], [-3.4166, 40.5021], [-3.4171, 40.5026], [-3.4172, 40.5024], [-3.418, 40.5019], [-3.418, 40.4997], [-3.4183, 40.4992], [-3.4182, 40.4987], [-3.4185, 40.4983], [-3.4184, 40.4969], [-3.4134, 40.4966], [-3.4126, 40.4976], [-3.4124, 40.4977], [-3.4125, 40.4979], [-3.4121, 40.4983], [-3.4114, 40.4987], [-3.4107, 40.4984], [-3.4107, 40.4977], [-3.411, 40.4964], [-3.4099, 40.4963], [-3.4098, 40.4962], [-3.4092, 40.4974], [-3.4068, 40.4974], [-3.4064, 40.4975], [-3.4064, 40.4981], [-3.4079, 40.4988]]]}}, {"type": "Feature", "properties": {"municipio": "Alcalá De Henares", "clasificacion": "urbanizable-sectorizado", "calificacion": "sin-asignar", "version": "vigente", "fuente": "SIT-CAM WFS — UsoDelSuelo:VPLA_V_CLASIFICACION (https://idem.comunidad.madrid/geosrvg/ows)", "fecha_dato": "2026-05-12", "ambito": "15740", "_raw_CD_SIGLAS": "SUBS", "_raw_DS_CLASIF_GEN": "Suelo Urbanizable Programado", "_raw_DS_CLASIF_DET": "Suelo Urbanizable Programado Etapa 1 sin tramitación", "_raw_DS_DOCU": "PLAN GENERAL", "_raw_DS_LEY": "CM Ley 4/1984, E Ley 8/1990", "_raw_FC_AC": "1991-07-05", "_raw_NM_AREA_M2": 244452.814586827, "_cam_code": "005", "derivado": "sectores-dormidos", "verificacion_gestion": "pendiente"}, "geometry": {"type": "Polygon", "coordinates": [[[-3.3646, 40.5076], [-3.3641, 40.5084], [-3.3638, 40.5092], [-3.3667, 40.51], [-3.368, 40.5102], [-3.3682, 40.51], [-3.3685, 40.51], [-3.3697, 40.5073], [-3.3698, 40.5073], [-3.3696, 40.5071], [-3.3697, 40.5071], [-3.3697, 40.5068], [-3.3699, 40.5066], [-3.3681, 40.5039], [-3.3681, 40.504], [-3.3664, 40.5047], [-3.3664, 40.5048], [-3.3653, 40.5053], [-3.3636, 40.5058], [-3.3636, 40.5061], [-3.3646, 40.5076]]]}}, {"type": "Feature", "properties": {"municipio": "Alcalá De Henares", "clasificacion": "urbanizable-sectorizado", "calificacion": "sin-asignar", "version": "vigente", "fuente": "SIT-CAM WFS — UsoDelSuelo:VPLA_V_CLASIFICACION (https://idem.comunidad.madrid/geosrvg/ows)", "fecha_dato": "2026-05-12", "ambito": "15740", "_raw_CD_SIGLAS": "SUBS", "_raw_DS_CLASIF_GEN": "Suelo Urbanizable Programado (INCORPORADO)", "_raw_DS_CLASIF_DET": "Suelo Urbanizable Programado desarrollado por PP aprobado", "_raw_DS_DOCU": "PLAN GENERAL", "_raw_DS_LEY": "CM Ley 4/1984, E Ley 8/1990", "_raw_FC_AC": "1991-07-05", "_raw_NM_AREA_M2": 490332.277756751, "_cam_code": "005", "derivado": "sectores-dormidos", "verificacion_gestion": "pendiente"}, "geometry": {"type": "Polygon", "coordinates": [[[-3.3924, 40.5078], [-3.3934, 40.5077], [-3.3935, 40.5075], [-3.3939, 40.5073], [-3.3945, 40.5059], [-3.3945, 40.5055], [-3.3947, 40.5052], [-3.396, 40.5036], [-3.3971, 40.5031], [-3.3972, 40.5024], [-3.3973, 40.5024], [-3.3971, 40.5021], [-3.397, 40.5014], [-3.3965, 40.5023], [-3.3961, 40.5024], [-3.3957, 40.502], [-3.3965, 40.5009], [-3.3962, 40.5007], [-3.3939, 40.4995], [-3.3939, 40.4995], [-3.3939, 40.4995], [-3.3939, 40.4995], [-3.3938, 40.4995], [-3.3938, 40.4995], [-3.3938, 40.4995], [-3.3938, 40.4995], [-3.3938, 40.4995], [-3.3938, 40.4995], [-3.3937, 40.4995], [-3.3936, 40.4995], [-3.3936, 40.4996], [-3.3937, 40.4995], [-3.3939, 40.4994], [-3.3924, 40.4988], [-3.3924, 40.4987], [-3.391, 40.4983], [-3.3888, 40.4974], [-3.3882, 40.4973], [-3.3882, 40.4972], [-3.3874, 40.4978], [-3.387, 40.4976], [-3.3866, 40.4976], [-3.3854, 40.4981], [-3.3837, 40.4986], [-3.3836, 40.4988], [-3.3842, 40.5003], [-3.384, 40.5005], [-3.384, 40.5008], [-3.3845, 40.5009], [-3.3847, 40.5013], [-3.3849, 40.5012], [-3.3849, 40.5009], [-3.3854, 40.5004], [-3.3877, 40.4999], [-3.3877, 40.4998], [-3.3879, 40.4998], [-3.3883, 40.4991], [-3.3884, 40.4991], [-3.389, 40.5007], [-3.3892, 40.5009], [-3.3891, 40.5021], [-3.389, 40.5021], [-3.389, 40.5027], [-3.3892, 40.5033], [-3.3895, 40.5036], [-3.3897, 40.5036], [-3.3903, 40.5035], [-3.3903, 40.5034], [-3.3909, 40.5034], [-3.3919, 40.503], [-3.3922, 40.5032], [-3.3931, 40.5043], [-3.3931, 40.5045], [-3.3928, 40.5049], [-3.3935, 40.5056], [-3.3916, 40.5064], [-3.3924, 40.5078]], [[-3.3913, 40.5023], [-3.3894, 40.5031], [-3.3892, 40.5026], [-3.3893, 40.502], [-3.3907, 40.5015], [-3.3908, 40.5015], [-3.3913, 40.5023]]]}}, {"type": "Feature", "properties": {"municipio": "Alcalá De Henares", "clasificacion": "urbanizable-sectorizado", "calificacion": "sin-asignar", "version": "vigente", "fuente": "SIT-CAM WFS — UsoDelSuelo:VPLA_V_CLASIFICACION (https://idem.comunidad.madrid/geosrvg/ows)", "fecha_dato": "2026-05-12", "ambito": "15740", "_raw_CD_SIGLAS": "SUBS", "_raw_DS_CLASIF_GEN": "Suelo Urbanizable Programado", "_raw_DS_CLASIF_DET": "Suelo Urbanizable Programado Etapa 1 sin tramitación", "_raw_DS_DOCU": "PLAN GENERAL", "_raw_DS_LEY": "CM Ley 4/1984, E Ley 8/1990", "_raw_FC_AC": "1991-07-05", "_raw_NM_AREA_M2": 75405.8562890077, "_cam_code": "005", "derivado": "sectores-dormidos", "verificacion_gestion": "pendiente"}, "geometry": {"type": "Polygon", "coordinates": [[[-3.3295, 40.5061], [-3.3318, 40.508], [-3.3339, 40.5063], [-3.3325, 40.5051], [-3.333, 40.5048], [-3.3327, 40.5045], [-3.3324, 40.5044], [-3.3321, 40.5044], [-3.3321, 40.5045], [-3.3316, 40.5047], [-3.3295, 40.5061]]]}}, {"type": "Feature", "properties": {"municipio": "Alcalá De Henares", "clasificacion": "urbanizable-sectorizado", "calificacion": "sin-asignar", "version": "vigente", "fuente": "SIT-CAM WFS — UsoDelSuelo:VPLA_V_CLASIFICACION (https://idem.comunidad.madrid/geosrvg/ows)", "fecha_dato": "2026-05-12", "ambito": "15740", "_raw_CD_SIGLAS": "SUBS", "_raw_DS_CLASIF_GEN": "Suelo Urbanizable Programado", "_raw_DS_CLASIF_DET": "Suelo Urbanizable Programado Etapa 1 sin tramitación", "_raw_DS_DOCU": "PLAN GENERAL", "_raw_DS_LEY": "CM Ley 4/1984, E Ley 8/1990", "_raw_FC_AC": "1991-07-05", "_raw_NM_AREA_M2": 188250.383488598, "_cam_code": "005", "derivado": "sectores-dormidos", "verificacion_gestion": "pendiente"}, "geometry": {"type": "Polygon", "coordinates": [[[-3.3591, 40.5074], [-3.3593, 40.5077], [-3.3602, 40.5081], [-3.3638, 40.5092], [-3.3644, 40.5078], [-3.3646, 40.5077], [-3.3644, 40.5072], [-3.3636, 40.5061], [-3.3636, 40.5058], [-3.3637, 40.5058], [-3.3637, 40.5058], [-3.3637, 40.5058], [-3.3637, 40.5058], [-3.3637, 40.5058], [-3.3637, 40.5058], [-3.3637, 40.5058], [-3.3637, 40.5058], [-3.3637, 40.5058], [-3.3637, 40.5058], [-3.3637, 40.5058], [-3.3637, 40.5058], [-3.3637, 40.5058], [-3.3637, 40.5058], [-3.3637, 40.5058], [-3.3637, 40.5058], [-3.3637, 40.5058], [-3.3637, 40.5058], [-3.3637, 40.5058], [-3.3637, 40.5058], [-3.3636, 40.5058], [-3.3635, 40.5058], [-3.3628, 40.506], [-3.3614, 40.5062], [-3.359, 40.5062], [-3.3562, 40.5059], [-3.3544, 40.5059], [-3.3533, 40.5062], [-3.3528, 40.5067], [-3.3528, 40.5072], [-3.3563, 40.5073], [-3.3581, 40.5075], [-3.3585, 40.5075], [-3.3588, 40.5074], [-3.3588, 40.5073], [-3.3591, 40.5074]]]}}, {"type": "Feature", "properties": {"municipio": "Alcalá De Henares", "clasificacion": "urbanizable-sectorizado", "calificacion": "sin-asignar", "version": "vigente", "fuente": "SIT-CAM WFS — UsoDelSuelo:VPLA_V_CLASIFICACION (https://idem.comunidad.madrid/geosrvg/ows)", "fecha_dato": "2026-05-12", "ambito": "15740", "_raw_CD_SIGLAS": "SUBS", "_raw_DS_CLASIF_GEN": "Suelo Urbanizable Programado (INCORPORADO)", "_raw_DS_CLASIF_DET": "Suelo Urbanizable Programado desarrollado por PP aprobado", "_raw_DS_DOCU": "PLAN GENERAL", "_raw_DS_LEY": "CM Ley 4/1984, E Ley 8/1990", "_raw_FC_AC": "1991-07-05", "_raw_NM_AREA_M2": 366958.381610088, "_cam_code": "005", "derivado": "sectores-dormidos", "verificacion_gestion": "pendiente"}, "geometry": {"type": "Polygon", "coordinates": [[[-3.3281, 40.5049], [-3.329, 40.5056], [-3.3322, 40.5035], [-3.3374, 40.5004], [-3.3359, 40.4991], [-3.3353, 40.4984], [-3.3348, 40.4984], [-3.3321, 40.4996], [-3.33, 40.5002], [-3.3276, 40.5011], [-3.3276, 40.5012], [-3.3262, 40.5018], [-3.3251, 40.5021], [-3.3267, 40.5037], [-3.3274, 40.5043], [-3.3275, 40.5042], [-3.3281, 40.5049]]]}}, {"type": "Feature", "properties": {"municipio": "Alcalá De Henares", "clasificacion": "urbanizable-sectorizado", "calificacion": "sin-asignar", "version": "vigente", "fuente": "SIT-CAM WFS — UsoDelSuelo:VPLA_V_CLASIFICACION (https://idem.comunidad.madrid/geosrvg/ows)", "fecha_dato": "2026-05-12", "ambito": "15740", "_raw_CD_SIGLAS": "SUBS", "_raw_DS_CLASIF_GEN": "Suelo Urbanizable Programado (INCORPORADO)", "_raw_DS_CLASIF_DET": "Suelo Urbano desarrollado por E.D., PERI o PP aprobado", "_raw_DS_DOCU": "PLAN GENERAL", "_raw_DS_LEY": "CM Ley 4/1984, E Ley 8/1990", "_raw_FC_AC": "1991-07-05", "_raw_NM_AREA_M2": 131299.381561815, "_cam_code": "005", "derivado": "sectores-dormidos", "verificacion_gestion": "pendiente"}, "geometry": {"type": "Polygon", "coordinates": [[[-3.3471, 40.4997], [-3.3484, 40.5012], [-3.3487, 40.5014], [-3.3491, 40.5004], [-3.3482, 40.4991], [-3.3476, 40.4993], [-3.3469, 40.4983], [-3.3492, 40.4979], [-3.3505, 40.4975], [-3.3514, 40.4974], [-3.3514, 40.4973], [-3.3519, 40.4973], [-3.3527, 40.4969], [-3.3519, 40.4967], [-3.3519, 40.4966], [-3.3512, 40.4963], [-3.3509, 40.4959], [-3.3506, 40.4958], [-3.3506, 40.4956], [-3.3501, 40.495], [-3.3492, 40.4954], [-3.3457, 40.4975], [-3.3471, 40.4997]]]}}, {"type": "Feature", "properties": {"municipio": "Alcalá De Henares", "clasificacion": "urbanizable-sectorizado", "calificacion": "sin-asignar", "version": "vigente", "fuente": "SIT-CAM WFS — UsoDelSuelo:VPLA_V_CLASIFICACION (https://idem.comunidad.madrid/geosrvg/ows)", "fecha_dato": "2026-05-12", "ambito": "15740", "_raw_CD_SIGLAS": "SUBS", "_raw_DS_CLASIF_GEN": "Suelo Urbanizable Programado (INCORPORADO)", "_raw_DS_CLASIF_DET": "Suelo Urbano desarrollado por E.D., PERI o PP aprobado", "_raw_DS_DOCU": "PLAN GENERAL", "_raw_DS_LEY": "CM Ley 4/1984, E Ley 8/1990", "_raw_FC_AC": "1991-07-05", "_raw_NM_AREA_M2": 112151.806142604, "_cam_code": "005", "derivado": "sectores-dormidos", "verificacion_gestion": "pendiente"}, "geometry": {"type": "Polygon", "coordinates": [[[-3.3523, 40.495], [-3.3538, 40.4958], [-3.3527, 40.4967], [-3.3542, 40.497], [-3.3545, 40.4959], [-3.3552, 40.4948], [-3.3581, 40.492], [-3.3528, 40.4938], [-3.3517, 40.4943], [-3.3518, 40.4944], [-3.3515, 40.4945], [-3.3514, 40.4944], [-3.3502, 40.4949], [-3.3515, 40.4962], [-3.352, 40.4965], [-3.3521, 40.4965], [-3.3523, 40.4966], [-3.3524, 40.4966], [-3.3513, 40.4956], [-3.3523, 40.495]]]}}]}