{
"type": "FeatureCollection",
"name": "vigente.full",
"features": [
{ "type": "Feature", "properties": { "municipio": "San Lorenzo de El Escorial", "clasificacion": "no-urbanizable-protegido", "calificacion": "sin-asignar", "version": "vigente", "fuente": "SIT-CAM WFS — UsoDelSuelo:VPLA_V_CLASIFICACION (https://idem.comunidad.madrid/geosrvg/ows)", "fecha_dato": "2026-05-12", "ambito": "38609", "_raw_CD_SIGLAS": "SNUP", "_raw_DS_CLASIF_GEN": "Suelo No Urbanizable Protegido", "_raw_DS_CLASIF_DET": "Suelo No Urbanizable Especialmente Protegido por su Valor Forestal", "_raw_DS_DOCU": "NORMAS SUBSIDIARIAS", "_raw_DS_LEY": "CM Ley 9/1995, E RDL 1/1992", "_raw_FC_AC": "1999-02-25", "_raw_NM_AREA_M2": 97180.779316161002, "_cam_code": "131" }, "geometry": { "type": "Polygon", "coordinates": [ [ [ -4.1311, 40.6067 ], [ -4.1303, 40.6068 ], [ -4.1302, 40.6069 ], [ -4.1307, 40.6071 ], [ -4.1304, 40.6075 ], [ -4.1284, 40.6081 ], [ -4.1266, 40.6089 ], [ -4.1261, 40.6105 ], [ -4.1258, 40.6107 ], [ -4.1262, 40.6111 ], [ -4.1264, 40.6111 ], [ -4.1277, 40.6105 ], [ -4.1298, 40.6092 ], [ -4.1307, 40.6084 ], [ -4.1311, 40.6082 ], [ -4.1317, 40.6073 ], [ -4.1322, 40.6068 ], [ -4.1321, 40.6068 ], [ -4.1324, 40.6062 ], [ -4.1325, 40.6062 ], [ -4.1325, 40.6059 ], [ -4.1329, 40.6056 ], [ -4.1329, 40.6054 ], [ -4.1313, 40.6064 ], [ -4.1311, 40.6067 ] ] ] } },
{ "type": "Feature", "properties": { "municipio": "San Lorenzo de El Escorial", "clasificacion": "no-urbanizable-protegido", "calificacion": "sin-asignar", "version": "vigente", "fuente": "SIT-CAM WFS — UsoDelSuelo:VPLA_V_CLASIFICACION (https://idem.comunidad.madrid/geosrvg/ows)", "fecha_dato": "2026-05-12", "ambito": "38609", "_raw_CD_SIGLAS": "SNUP", "_raw_DS_CLASIF_GEN": "Suelo No Urbanizable Protegido", "_raw_DS_CLASIF_DET": "Suelo No Urbanizable Especialmente Protegido. Reserva Ganadera", "_raw_DS_DOCU": "NORMAS SUBSIDIARIAS", "_raw_DS_LEY": "CM Ley 9/1995, E RDL 1/1992", "_raw_FC_AC": "1999-02-25", "_raw_NM_AREA_M2": 175488.333851523, "_cam_code": "131" }, "geometry": { "type": "Polygon", "coordinates": [ [ [ -4.1322, 40.6068 ], [ -4.1311, 40.6082 ], [ -4.1336, 40.6062 ], [ -4.1343, 40.6058 ], [ -4.1354, 40.6048 ], [ -4.1368, 40.6041 ], [ -4.1373, 40.6034 ], [ -4.138, 40.6028 ], [ -4.1374, 40.6026 ], [ -4.1373, 40.6024 ], [ -4.1369, 40.6023 ], [ -4.1366, 40.6019 ], [ -4.1361, 40.6017 ], [ -4.1343, 40.6017 ], [ -4.1343, 40.6016 ], [ -4.1341, 40.6017 ], [ -4.1331, 40.6014 ], [ -4.133, 40.6011 ], [ -4.1328, 40.6016 ], [ -4.1328, 40.602 ], [ -4.1326, 40.6023 ], [ -4.1324, 40.6024 ], [ -4.1316, 40.6034 ], [ -4.131, 40.6036 ], [ -4.131, 40.6038 ], [ -4.1318, 40.604 ], [ -4.132, 40.6042 ], [ -4.1326, 40.6043 ], [ -4.1328, 40.6046 ], [ -4.1327, 40.6051 ], [ -4.1329, 40.6053 ], [ -4.1329, 40.6056 ], [ -4.1325, 40.6059 ], [ -4.1325, 40.6062 ], [ -4.1324, 40.6062 ], [ -4.1321, 40.6068 ], [ -4.1322, 40.6068 ] ] ] } },
{ "type": "Feature", "properties": { "municipio": "San Lorenzo de El Escorial", "clasificacion": "no-urbanizable-protegido", "calificacion": "sin-asignar", "version": "vigente", "fuente": "SIT-CAM WFS — UsoDelSuelo:VPLA_V_CLASIFICACION (https://idem.comunidad.madrid/geosrvg/ows)", "fecha_dato": "2026-05-12", "ambito": "38609", "_raw_CD_SIGLAS": "SNUP", "_raw_DS_CLASIF_GEN": "Suelo No Urbanizable Protegido", "_raw_DS_CLASIF_DET": "Suelo No Urbanizable Especialmente Protegido. Valor Ecológico y Paisajístico", "_raw_DS_DOCU": "NORMAS SUBSIDIARIAS", "_raw_DS_LEY": "CM Ley 9/1995, E RDL 1/1992", "_raw_FC_AC": "1999-02-25", "_raw_NM_AREA_M2": 849383.47898073297, "_cam_code": "131" }, "geometry": { "type": "Polygon", "coordinates": [ [ [ -4.151, 40.5831 ], [ -4.1539, 40.5851 ], [ -4.1523, 40.5857 ], [ -4.1523, 40.586 ], [ -4.152, 40.5867 ], [ -4.152, 40.587 ], [ -4.1519, 40.587 ], [ -4.1519, 40.5872 ], [ -4.1518, 40.5875 ], [ -4.1518, 40.5875 ], [ -4.1518, 40.5877 ], [ -4.1517, 40.5877 ], [ -4.1542, 40.5871 ], [ -4.1543, 40.5871 ], [ -4.1564, 40.5863 ], [ -4.1549, 40.5849 ], [ -4.155, 40.5849 ], [ -4.1549, 40.5847 ], [ -4.1572, 40.5829 ], [ -4.1584, 40.5828 ], [ -4.1587, 40.5832 ], [ -4.1582, 40.5837 ], [ -4.1597, 40.585 ], [ -4.1645, 40.5824 ], [ -4.1636, 40.5816 ], [ -4.1631, 40.5815 ], [ -4.162, 40.5806 ], [ -4.1608, 40.5791 ], [ -4.1602, 40.5788 ], [ -4.1597, 40.5779 ], [ -4.1574, 40.5771 ], [ -4.1573, 40.5767 ], [ -4.1563, 40.5763 ], [ -4.156, 40.5763 ], [ -4.1555, 40.576 ], [ -4.1548, 40.576 ], [ -4.1535, 40.5756 ], [ -4.1516, 40.5759 ], [ -4.1507, 40.578 ], [ -4.1506, 40.5822 ], [ -4.151, 40.5831 ] ] ] } },
{ "type": "Feature", "properties": { "municipio": "San Lorenzo de El Escorial", "clasificacion": "no-urbanizable-protegido", "calificacion": "sin-asignar", "version": "vigente", "fuente": "SIT-CAM WFS — UsoDelSuelo:VPLA_V_CLASIFICACION (https://idem.comunidad.madrid/geosrvg/ows)", "fecha_dato": "2026-05-12", "ambito": "38609", "_raw_CD_SIGLAS": "SNUP", "_raw_DS_CLASIF_GEN": "Suelo No Urbanizable Protegido", "_raw_DS_CLASIF_DET": "Suelo No Urbanizable Especialmente Protegido. Cañadas y Vías Pecuarias", "_raw_DS_DOCU": "NORMAS SUBSIDIARIAS", "_raw_DS_LEY": "CM Ley 9/1995, E RDL 1/1992", "_raw_FC_AC": "1999-02-25", "_raw_NM_AREA_M2": 465150.22832318302, "_cam_code": "131" }, "geometry": { "type": "Polygon", "coordinates": [ [ [ -4.1156, 40.6127 ], [ -4.1146, 40.6131 ], [ -4.1146, 40.6132 ], [ -4.1151, 40.6131 ], [ -4.1151, 40.613 ], [ -4.1156, 40.6128 ], [ -4.1176, 40.6128 ], [ -4.1177, 40.6127 ], [ -4.1194, 40.6125 ], [ -4.1206, 40.612 ], [ -4.1231, 40.6114 ], [ -4.1254, 40.6118 ], [ -4.1259, 40.6118 ], [ -4.1264, 40.6116 ], [ -4.1291, 40.6101 ], [ -4.1328, 40.6074 ], [ -4.1347, 40.6059 ], [ -4.1354, 40.6052 ], [ -4.1368, 40.6045 ], [ -4.1373, 40.6041 ], [ -4.1386, 40.6026 ], [ -4.1392, 40.6023 ], [ -4.1397, 40.6016 ], [ -4.14, 40.6014 ], [ -4.1424, 40.6011 ], [ -4.1437, 40.6011 ], [ -4.1446, 40.6015 ], [ -4.1448, 40.6014 ], [ -4.1452, 40.6006 ], [ -4.1469, 40.599 ], [ -4.1499, 40.5973 ], [ -4.152, 40.5975 ], [ -4.152, 40.5973 ], [ -4.1523, 40.5971 ], [ -4.1541, 40.5972 ], [ -4.1544, 40.5978 ], [ -4.1546, 40.5977 ], [ -4.1554, 40.5979 ], [ -4.1566, 40.5985 ], [ -4.1577, 40.5986 ], [ -4.1595, 40.5992 ], [ -4.1603, 40.5991 ], [ -4.1608, 40.5988 ], [ -4.1608, 40.5982 ], [ -4.1597, 40.5962 ], [ -4.1597, 40.5958 ], [ -4.16, 40.5949 ], [ -4.1606, 40.5938 ], [ -4.1618, 40.5929 ], [ -4.1622, 40.5931 ], [ -4.1625, 40.5942 ], [ -4.1628, 40.5948 ], [ -4.164, 40.5963 ], [ -4.1667, 40.5983 ], [ -4.1683, 40.5993 ], [ -4.1695, 40.5997 ], [ -4.1708, 40.6006 ], [ -4.1711, 40.6041 ], [ -4.171, 40.6043 ], [ -4.1721, 40.6056 ], [ -4.1718, 40.6062 ], [ -4.1737, 40.6041 ], [ -4.1717, 40.6003 ], [ -4.1705, 40.5994 ], [ -4.1692, 40.599 ], [ -4.1684, 40.5985 ], [ -4.1642, 40.5955 ], [ -4.1636, 40.5947 ], [ -4.1632, 40.5938 ], [ -4.163, 40.5929 ], [ -4.1625, 40.5923 ], [ -4.1627, 40.5921 ], [ -4.1656, 40.5908 ], [ -4.167, 40.59 ], [ -4.1702, 40.588 ], [ -4.1709, 40.5872 ], [ -4.171, 40.5873 ], [ -4.175, 40.5849 ], [ -4.1755, 40.5841 ], [ -4.1755, 40.5836 ], [ -4.1754, 40.5835 ], [ -4.1759, 40.583 ], [ -4.1761, 40.5826 ], [ -4.1758, 40.5823 ], [ -4.1754, 40.5832 ], [ -4.1749, 40.5836 ], [ -4.175, 40.5843 ], [ -4.1747, 40.5849 ], [ -4.1745, 40.585 ], [ -4.1743, 40.5849 ], [ -4.1651, 40.5907 ], [ -4.1618, 40.592 ], [ -4.1608, 40.5926 ], [ -4.1599, 40.5936 ], [ -4.1587, 40.5959 ], [ -4.1587, 40.5961 ], [ -4.16, 40.5983 ], [ -4.1598, 40.5985 ], [ -4.1582, 40.598 ], [ -4.1568, 40.5978 ], [ -4.1555, 40.5972 ], [ -4.1549, 40.5971 ], [ -4.1549, 40.597 ], [ -4.1532, 40.5969 ], [ -4.1532, 40.597 ], [ -4.1523, 40.597 ], [ -4.152, 40.5969 ], [ -4.152, 40.5967 ], [ -4.1519, 40.5967 ], [ -4.1517, 40.5969 ], [ -4.15, 40.5971 ], [ -4.1464, 40.599 ], [ -4.1454, 40.6002 ], [ -4.145, 40.6005 ], [ -4.1446, 40.6013 ], [ -4.1439, 40.6009 ], [ -4.1416, 40.6011 ], [ -4.1401, 40.6011 ], [ -4.1401, 40.601 ], [ -4.1398, 40.6011 ], [ -4.1376, 40.6031 ], [ -4.1368, 40.6041 ], [ -4.1354, 40.6048 ], [ -4.1343, 40.6058 ], [ -4.1336, 40.6062 ], [ -4.1295, 40.6094 ], [ -4.1277, 40.6105 ], [ -4.1264, 40.6111 ], [ -4.1264, 40.6112 ], [ -4.1257, 40.6114 ], [ -4.1251, 40.6114 ], [ -4.1237, 40.6111 ], [ -4.1223, 40.6112 ], [ -4.1189, 40.6119 ], [ -4.1184, 40.6121 ], [ -4.1178, 40.6126 ], [ -4.1156, 40.6127 ] ] ] } },
{ "type": "Feature", "properties": { "municipio": "San Lorenzo de El Escorial", "clasificacion": "no-urbanizable-protegido", "calificacion": "sin-asignar", "version": "vigente", "fuente": "SIT-CAM WFS — UsoDelSuelo:VPLA_V_CLASIFICACION (https://idem.comunidad.madrid/geosrvg/ows)", "fecha_dato": "2026-05-12", "ambito": "38609", "_raw_CD_SIGLAS": "SNUP", "_raw_DS_CLASIF_GEN": "Suelo No Urbanizable Protegido", "_raw_DS_CLASIF_DET": "Suelo No Urbanizable Especialmente Protegido por su Valor Forestal", "_raw_DS_DOCU": "NORMAS SUBSIDIARIAS", "_raw_DS_LEY": "CM Ley 9/1995, E RDL 1/1992", "_raw_FC_AC": "1999-02-25", "_raw_NM_AREA_M2": 18110.050508524801, "_cam_code": "131" }, "geometry": { "type": "Polygon", "coordinates": [ [ [ -4.1514, 40.5969 ], [ -4.15, 40.5967 ], [ -4.1489, 40.5972 ], [ -4.1489, 40.5974 ], [ -4.1486, 40.5974 ], [ -4.1476, 40.5979 ], [ -4.1455, 40.5992 ], [ -4.1457, 40.5992 ], [ -4.146, 40.5995 ], [ -4.1464, 40.599 ], [ -4.1491, 40.5975 ], [ -4.15, 40.5971 ], [ -4.1514, 40.5969 ] ] ] } },
{ "type": "Feature", "properties": { "municipio": "San Lorenzo de El Escorial", "clasificacion": "no-urbanizable-protegido", "calificacion": "sin-asignar", "version": "vigente", "fuente": "SIT-CAM WFS — UsoDelSuelo:VPLA_V_CLASIFICACION (https://idem.comunidad.madrid/geosrvg/ows)", "fecha_dato": "2026-05-12", "ambito": "38609", "_raw_CD_SIGLAS": "SNUP", "_raw_DS_CLASIF_GEN": "Suelo No Urbanizable Protegido", "_raw_DS_CLASIF_DET": "Suelo No Urbanizable Especialmente Protegido por su Valor Forestal", "_raw_DS_DOCU": "NORMAS SUBSIDIARIAS", "_raw_DS_LEY": "CM Ley 9/1995, E RDL 1/1992", "_raw_FC_AC": "1999-02-25", "_raw_NM_AREA_M2": 24757419.159210801, "_cam_code": "131" }, "geometry": { "type": "Polygon", "coordinates": [ [ [ -4.1245, 40.6538 ], [ -4.1313, 40.6552 ], [ -4.134, 40.6546 ], [ -4.1355, 40.6544 ], [ -4.1417, 40.653 ], [ -4.1429, 40.6526 ], [ -4.1434, 40.6527 ], [ -4.1471, 40.6521 ], [ -4.1537, 40.6507 ], [ -4.1611, 40.6494 ], [ -4.1617, 40.6491 ], [ -4.1679, 40.6479 ], [ -4.1676, 40.6468 ], [ -4.1679, 40.6438 ], [ -4.1681, 40.6434 ], [ -4.1691, 40.6425 ], [ -4.1702, 40.6421 ], [ -4.1706, 40.6407 ], [ -4.1718, 40.6384 ], [ -4.171, 40.6369 ], [ -4.1707, 40.636 ], [ -4.1707, 40.6346 ], [ -4.1708, 40.6339 ], [ -4.1722, 40.6323 ], [ -4.1728, 40.6314 ], [ -4.1729, 40.6304 ], [ -4.1722, 40.6291 ], [ -4.1696, 40.6272 ], [ -4.1689, 40.6261 ], [ -4.1671, 40.6259 ], [ -4.1646, 40.626 ], [ -4.1628, 40.6257 ], [ -4.1601, 40.622 ], [ -4.1593, 40.6202 ], [ -4.1562, 40.6189 ], [ -4.1521, 40.6177 ], [ -4.1529, 40.6172 ], [ -4.154, 40.6168 ], [ -4.1559, 40.6158 ], [ -4.1574, 40.6149 ], [ -4.1628, 40.6138 ], [ -4.1635, 40.6139 ], [ -4.166, 40.6117 ], [ -4.1687, 40.6096 ], [ -4.1702, 40.6081 ], [ -4.1718, 40.6062 ], [ -4.1721, 40.6056 ], [ -4.171, 40.6043 ], [ -4.1711, 40.6041 ], [ -4.1708, 40.6006 ], [ -4.1695, 40.5997 ], [ -4.1683, 40.5993 ], [ -4.1667, 40.5983 ], [ -4.164, 40.5963 ], [ -4.1631, 40.5953 ], [ -4.1625, 40.5942 ], [ -4.1622, 40.5931 ], [ -4.1619, 40.5929 ], [ -4.1613, 40.5932 ], [ -4.1606, 40.5938 ], [ -4.16, 40.5949 ], [ -4.1597, 40.5958 ], [ -4.1597, 40.5962 ], [ -4.1608, 40.5982 ], [ -4.1608, 40.5988 ], [ -4.1603, 40.5991 ], [ -4.1595, 40.5992 ], [ -4.1577, 40.5986 ], [ -4.1566, 40.5985 ], [ -4.1554, 40.5979 ], [ -4.1546, 40.5977 ], [ -4.1544, 40.5978 ], [ -4.1541, 40.5972 ], [ -4.1523, 40.5971 ], [ -4.152, 40.5973 ], [ -4.152, 40.5975 ], [ -4.1499, 40.5973 ], [ -4.1469, 40.599 ], [ -4.1452, 40.6006 ], [ -4.1448, 40.6014 ], [ -4.1446, 40.6015 ], [ -4.1437, 40.6011 ], [ -4.1424, 40.6011 ], [ -4.14, 40.6014 ], [ -4.1397, 40.6016 ], [ -4.1392, 40.6023 ], [ -4.1386, 40.6026 ], [ -4.1373, 40.6041 ], [ -4.1368, 40.6045 ], [ -4.1354, 40.6052 ], [ -4.1347, 40.6059 ], [ -4.1328, 40.6074 ], [ -4.1291, 40.6101 ], [ -4.1268, 40.6114 ], [ -4.1259, 40.6118 ], [ -4.1254, 40.6118 ], [ -4.1235, 40.6114 ], [ -4.1229, 40.6115 ], [ -4.1268, 40.6132 ], [ -4.1269, 40.6154 ], [ -4.1267, 40.616 ], [ -4.1268, 40.6164 ], [ -4.1267, 40.6171 ], [ -4.1273, 40.6174 ], [ -4.1276, 40.6177 ], [ -4.1276, 40.6179 ], [ -4.1282, 40.6179 ], [ -4.1286, 40.6175 ], [ -4.129, 40.6175 ], [ -4.1293, 40.6178 ], [ -4.1298, 40.6179 ], [ -4.1298, 40.6183 ], [ -4.129, 40.6192 ], [ -4.1293, 40.6194 ], [ -4.1294, 40.6196 ], [ -4.1293, 40.6197 ], [ -4.128, 40.6194 ], [ -4.1273, 40.6195 ], [ -4.1273, 40.6191 ], [ -4.1265, 40.6189 ], [ -4.1263, 40.6195 ], [ -4.1264, 40.6209 ], [ -4.1262, 40.6223 ], [ -4.1264, 40.6226 ], [ -4.1265, 40.6231 ], [ -4.1268, 40.6234 ], [ -4.1268, 40.6237 ], [ -4.125, 40.6254 ], [ -4.124, 40.6257 ], [ -4.1233, 40.6264 ], [ -4.1232, 40.6268 ], [ -4.1235, 40.6285 ], [ -4.1232, 40.6291 ], [ -4.123, 40.6301 ], [ -4.1226, 40.6306 ], [ -4.1169, 40.6292 ], [ -4.1176, 40.6277 ], [ -4.1178, 40.6269 ], [ -4.1175, 40.6256 ], [ -4.1176, 40.6252 ], [ -4.1182, 40.6243 ], [ -4.1122, 40.6225 ], [ -4.1097, 40.6286 ], [ -4.1095, 40.6288 ], [ -4.1094, 40.6291 ], [ -4.1095, 40.6292 ], [ -4.1094, 40.6292 ], [ -4.1094, 40.6294 ], [ -4.109, 40.63 ], [ -4.1081, 40.6324 ], [ -4.1034, 40.6432 ], [ -4.103, 40.6452 ], [ -4.103, 40.6462 ], [ -4.1033, 40.6482 ], [ -4.1028, 40.6489 ], [ -4.1017, 40.65 ], [ -4.1014, 40.6505 ], [ -4.1004, 40.6515 ], [ -4.1031, 40.6521 ], [ -4.1072, 40.6533 ], [ -4.1112, 40.6542 ], [ -4.1156, 40.6531 ], [ -4.1171, 40.653 ], [ -4.1193, 40.653 ], [ -4.1245, 40.6538 ] ] ] } },
{ "type": "Feature", "properties": { "municipio": "San Lorenzo de El Escorial", "clasificacion": "no-urbanizable-protegido", "calificacion": "sin-asignar", "version": "vigente", "fuente": "SIT-CAM WFS — UsoDelSuelo:VPLA_V_CLASIFICACION (https://idem.comunidad.madrid/geosrvg/ows)", "fecha_dato": "2026-05-12", "ambito": "38609", "_raw_CD_SIGLAS": "SNUP", "_raw_DS_CLASIF_GEN": "Suelo No Urbanizable Protegido", "_raw_DS_CLASIF_DET": "Suelo No Urbanizable Especialmente Protegido. Reserva Ganadera", "_raw_DS_DOCU": "NORMAS SUBSIDIARIAS", "_raw_DS_LEY": "CM Ley 9/1995, E RDL 1/1992", "_raw_FC_AC": "1999-02-25", "_raw_NM_AREA_M2": 1804728.33262931, "_cam_code": "131" }, "geometry": { "type": "Polygon", "coordinates": [ [ [ -4.0538, 40.6421 ], [ -4.054, 40.6429 ], [ -4.0534, 40.6443 ], [ -4.0536, 40.6446 ], [ -4.0545, 40.6449 ], [ -4.0548, 40.6455 ], [ -4.0548, 40.6461 ], [ -4.0556, 40.6471 ], [ -4.0557, 40.6474 ], [ -4.0601, 40.6481 ], [ -4.059, 40.6456 ], [ -4.0591, 40.6446 ], [ -4.059, 40.6437 ], [ -4.0584, 40.6419 ], [ -4.0581, 40.6416 ], [ -4.0572, 40.6411 ], [ -4.0562, 40.6409 ], [ -4.0553, 40.6413 ], [ -4.055, 40.6418 ], [ -4.0547, 40.642 ], [ -4.0548, 40.6409 ], [ -4.0538, 40.64 ], [ -4.0528, 40.6397 ], [ -4.052, 40.6392 ], [ -4.0503, 40.6387 ], [ -4.0497, 40.6384 ], [ -4.0495, 40.6385 ], [ -4.0461, 40.6371 ], [ -4.0448, 40.6364 ], [ -4.041, 40.635 ], [ -4.0349, 40.6321 ], [ -4.0328, 40.6309 ], [ -4.0315, 40.6353 ], [ -4.0315, 40.6367 ], [ -4.0317, 40.6382 ], [ -4.0316, 40.6383 ], [ -4.0318, 40.6389 ], [ -4.0326, 40.64 ], [ -4.0352, 40.6424 ], [ -4.0361, 40.6423 ], [ -4.0375, 40.6424 ], [ -4.0415, 40.6429 ], [ -4.0441, 40.6436 ], [ -4.0519, 40.6463 ], [ -4.0522, 40.6456 ], [ -4.0513, 40.6444 ], [ -4.0511, 40.6439 ], [ -4.0508, 40.643 ], [ -4.0504, 40.6409 ], [ -4.0519, 40.6406 ], [ -4.0525, 40.6408 ], [ -4.0531, 40.6412 ], [ -4.0538, 40.6421 ] ] ] } },
{ "type": "Feature", "properties": { "municipio": "San Lorenzo de El Escorial", "clasificacion": "no-urbanizable-protegido", "calificacion": "sin-asignar", "version": "vigente", "fuente": "SIT-CAM WFS — UsoDelSuelo:VPLA_V_CLASIFICACION (https://idem.comunidad.madrid/geosrvg/ows)", "fecha_dato": "2026-05-12", "ambito": "38609", "_raw_CD_SIGLAS": "SNUP", "_raw_DS_CLASIF_GEN": "Suelo No Urbanizable Protegido", "_raw_DS_CLASIF_DET": "Suelo No Urbanizable Especialmente Protegido. Cauces y Vaguadas", "_raw_DS_DOCU": "NORMAS SUBSIDIARIAS", "_raw_DS_LEY": "CM Ley 9/1995, E RDL 1/1992", "_raw_FC_AC": "1999-02-25", "_raw_NM_AREA_M2": 360995.98385763698, "_cam_code": "131" }, "geometry": { "type": "Polygon", "coordinates": [ [ [ -4.0601, 40.6481 ], [ -4.0625, 40.6483 ], [ -4.0624, 40.6468 ], [ -4.0629, 40.6472 ], [ -4.0635, 40.6473 ], [ -4.0635, 40.6455 ], [ -4.0639, 40.643 ], [ -4.0619, 40.6414 ], [ -4.0609, 40.6404 ], [ -4.0598, 40.6398 ], [ -4.0592, 40.6392 ], [ -4.058, 40.6372 ], [ -4.0562, 40.6375 ], [ -4.0567, 40.6387 ], [ -4.0578, 40.6398 ], [ -4.0582, 40.6414 ], [ -4.0581, 40.6416 ], [ -4.0584, 40.6419 ], [ -4.059, 40.6437 ], [ -4.0591, 40.6446 ], [ -4.059, 40.6456 ], [ -4.0601, 40.6481 ] ] ] } },
{ "type": "Feature", "properties": { "municipio": "San Lorenzo de El Escorial", "clasificacion": "no-urbanizable-protegido", "calificacion": "sin-asignar", "version": "vigente", "fuente": "SIT-CAM WFS — UsoDelSuelo:VPLA_V_CLASIFICACION (https://idem.comunidad.madrid/geosrvg/ows)", "fecha_dato": "2026-05-12", "ambito": "38609", "_raw_CD_SIGLAS": "SNUP", "_raw_DS_CLASIF_GEN": "Suelo No Urbanizable Protegido", "_raw_DS_CLASIF_DET": "Suelo No Urbanizable Especialmente Protegido. Valor Ecológico y Paisajístico", "_raw_DS_DOCU": "NORMAS SUBSIDIARIAS", "_raw_DS_LEY": "CM Ley 9/1995, E RDL 1/1992", "_raw_FC_AC": "1999-02-25", "_raw_NM_AREA_M2": 8386250.1417383803, "_cam_code": "131" }, "geometry": { "type": "Polygon", "coordinates": [ [ [ -4.0703, 40.6487 ], [ -4.0738, 40.649 ], [ -4.0748, 40.6493 ], [ -4.0748, 40.6494 ], [ -4.0755, 40.6495 ], [ -4.0763, 40.6498 ], [ -4.0763, 40.6499 ], [ -4.0948, 40.6502 ], [ -4.1002, 40.6514 ], [ -4.103, 40.6484 ], [ -4.1031, 40.6475 ], [ -4.103, 40.6474 ], [ -4.1028, 40.6458 ], [ -4.1029, 40.6457 ], [ -4.1032, 40.6434 ], [ -4.1057, 40.6376 ], [ -4.1063, 40.6359 ], [ -4.1064, 40.6359 ], [ -4.1094, 40.6287 ], [ -4.1096, 40.6285 ], [ -4.1103, 40.6266 ], [ -4.1117, 40.6236 ], [ -4.1117, 40.6233 ], [ -4.1119, 40.6231 ], [ -4.1123, 40.6219 ], [ -4.1125, 40.6217 ], [ -4.1127, 40.6209 ], [ -4.1128, 40.6209 ], [ -4.1131, 40.6202 ], [ -4.1131, 40.6199 ], [ -4.1139, 40.6183 ], [ -4.1142, 40.6163 ], [ -4.1142, 40.6148 ], [ -4.1144, 40.6136 ], [ -4.1127, 40.6135 ], [ -4.111, 40.6136 ], [ -4.1094, 40.6131 ], [ -4.1089, 40.6124 ], [ -4.1086, 40.6126 ], [ -4.1083, 40.613 ], [ -4.1083, 40.6134 ], [ -4.1081, 40.6138 ], [ -4.1075, 40.6144 ], [ -4.1055, 40.6158 ], [ -4.1053, 40.6163 ], [ -4.1045, 40.6174 ], [ -4.1037, 40.6177 ], [ -4.1028, 40.6187 ], [ -4.1018, 40.6216 ], [ -4.0997, 40.6251 ], [ -4.0995, 40.6272 ], [ -4.099, 40.6273 ], [ -4.0968, 40.6289 ], [ -4.0947, 40.6296 ], [ -4.0942, 40.63 ], [ -4.0928, 40.6307 ], [ -4.0898, 40.6311 ], [ -4.0838, 40.6325 ], [ -4.0739, 40.6342 ], [ -4.0657, 40.6358 ], [ -4.0631, 40.6362 ], [ -4.0627, 40.6363 ], [ -4.0626, 40.6364 ], [ -4.058, 40.6372 ], [ -4.0535, 40.6379 ], [ -4.0528, 40.6381 ], [ -4.0497, 40.6383 ], [ -4.0496, 40.6384 ], [ -4.0464, 40.6371 ], [ -4.0452, 40.6364 ], [ -4.0426, 40.6355 ], [ -4.04, 40.6344 ], [ -4.0368, 40.6329 ], [ -4.0351, 40.6319 ], [ -4.0329, 40.6309 ], [ -4.0329, 40.6308 ], [ -4.0328, 40.6309 ], [ -4.0349, 40.6321 ], [ -4.041, 40.635 ], [ -4.0448, 40.6364 ], [ -4.0461, 40.6371 ], [ -4.0495, 40.6385 ], [ -4.0497, 40.6384 ], [ -4.0518, 40.6383 ], [ -4.0544, 40.6379 ], [ -4.0555, 40.6376 ], [ -4.0614, 40.6367 ], [ -4.0625, 40.6365 ], [ -4.0627, 40.6363 ], [ -4.0631, 40.6363 ], [ -4.0634, 40.6375 ], [ -4.0644, 40.6392 ], [ -4.0646, 40.6398 ], [ -4.0646, 40.6403 ], [ -4.0639, 40.643 ], [ -4.0635, 40.6455 ], [ -4.0635, 40.6473 ], [ -4.0629, 40.6472 ], [ -4.0624, 40.6468 ], [ -4.0625, 40.6483 ], [ -4.0691, 40.6487 ], [ -4.069, 40.6486 ], [ -4.0692, 40.6486 ], [ -4.0692, 40.6487 ], [ -4.0703, 40.6486 ], [ -4.0703, 40.6487 ] ] ] } },
{ "type": "Feature", "properties": { "municipio": "San Lorenzo de El Escorial", "clasificacion": "no-urbanizable-protegido", "calificacion": "sin-asignar", "version": "vigente", "fuente": "SIT-CAM WFS — UsoDelSuelo:VPLA_V_CLASIFICACION (https://idem.comunidad.madrid/geosrvg/ows)", "fecha_dato": "2026-05-12", "ambito": "38609", "_raw_CD_SIGLAS": "SNUP", "_raw_DS_CLASIF_GEN": "Suelo No Urbanizable Protegido", "_raw_DS_CLASIF_DET": "Suelo No Urbanizable Especialmente Protegido. Cañadas y Vías Pecuarias. Reserva de Infraestructuras", "_raw_DS_DOCU": "NORMAS SUBSIDIARIAS", "_raw_DS_LEY": "CM Ley 9/1995, E RDL 1/1992", "_raw_FC_AC": "1999-02-25", "_raw_NM_AREA_M2": 60470.649767567498, "_cam_code": "131" }, "geometry": { "type": "Polygon", "coordinates": [ [ [ -4.1002, 40.6514 ], [ -4.1004, 40.6515 ], [ -4.1014, 40.6505 ], [ -4.1017, 40.65 ], [ -4.1028, 40.6489 ], [ -4.1033, 40.6482 ], [ -4.103, 40.6462 ], [ -4.103, 40.6452 ], [ -4.1034, 40.6432 ], [ -4.1081, 40.6324 ], [ -4.109, 40.63 ], [ -4.1094, 40.6294 ], [ -4.1094, 40.6292 ], [ -4.1095, 40.6292 ], [ -4.1094, 40.6292 ], [ -4.1095, 40.6288 ], [ -4.1097, 40.6286 ], [ -4.1105, 40.6265 ], [ -4.1106, 40.6265 ], [ -4.1126, 40.6215 ], [ -4.113, 40.621 ], [ -4.1133, 40.62 ], [ -4.1141, 40.6182 ], [ -4.1145, 40.6136 ], [ -4.1143, 40.6138 ], [ -4.1142, 40.6163 ], [ -4.1139, 40.6183 ], [ -4.1131, 40.6199 ], [ -4.1131, 40.6202 ], [ -4.1128, 40.6209 ], [ -4.1127, 40.6209 ], [ -4.1125, 40.6217 ], [ -4.1123, 40.6219 ], [ -4.1119, 40.6231 ], [ -4.1117, 40.6233 ], [ -4.1117, 40.6236 ], [ -4.1103, 40.6266 ], [ -4.1096, 40.6285 ], [ -4.1094, 40.6287 ], [ -4.1064, 40.6359 ], [ -4.1063, 40.6359 ], [ -4.1057, 40.6376 ], [ -4.1032, 40.6434 ], [ -4.1029, 40.6457 ], [ -4.1028, 40.6458 ], [ -4.103, 40.6474 ], [ -4.1031, 40.6475 ], [ -4.103, 40.6484 ], [ -4.1002, 40.6514 ] ] ] } },
{ "type": "Feature", "properties": { "municipio": "San Lorenzo de El Escorial", "clasificacion": "no-urbanizable-protegido", "calificacion": "sin-asignar", "version": "vigente", "fuente": "SIT-CAM WFS — UsoDelSuelo:VPLA_V_CLASIFICACION (https://idem.comunidad.madrid/geosrvg/ows)", "fecha_dato": "2026-05-12", "ambito": "38609", "_raw_CD_SIGLAS": "SNUP", "_raw_DS_CLASIF_GEN": "Suelo No Urbanizable Protegido", "_raw_DS_CLASIF_DET": "Suelo No Urbanizable Especialmente Protegido. Valor Ecológico y Paisajístico", "_raw_DS_DOCU": "NORMAS SUBSIDIARIAS", "_raw_DS_LEY": "CM Ley 9/1995, E RDL 1/1992", "_raw_FC_AC": "1999-02-25", "_raw_NM_AREA_M2": 159474.07641342099, "_cam_code": "131" }, "geometry": { "type": "Polygon", "coordinates": [ [ [ -4.0519, 40.6463 ], [ -4.0557, 40.6474 ], [ -4.0556, 40.6471 ], [ -4.0548, 40.6461 ], [ -4.0548, 40.6455 ], [ -4.0545, 40.6449 ], [ -4.0536, 40.6446 ], [ -4.0534, 40.6443 ], [ -4.054, 40.6429 ], [ -4.0538, 40.6421 ], [ -4.0531, 40.6412 ], [ -4.0525, 40.6408 ], [ -4.0519, 40.6406 ], [ -4.0504, 40.6409 ], [ -4.0508, 40.643 ], [ -4.0511, 40.6439 ], [ -4.0513, 40.6444 ], [ -4.0522, 40.6456 ], [ -4.0519, 40.6463 ] ] ] } },
{ "type": "Feature", "properties": { "municipio": "San Lorenzo de El Escorial", "clasificacion": "no-urbanizable-protegido", "calificacion": "sin-asignar", "version": "vigente", "fuente": "SIT-CAM WFS — UsoDelSuelo:VPLA_V_CLASIFICACION (https://idem.comunidad.madrid/geosrvg/ows)", "fecha_dato": "2026-05-12", "ambito": "38609", "_raw_CD_SIGLAS": "SNUP", "_raw_DS_CLASIF_GEN": "Suelo No Urbanizable Protegido", "_raw_DS_CLASIF_DET": "Suelo No Urbanizable Especialmente Protegido. Cauces y Vaguadas", "_raw_DS_DOCU": "NORMAS SUBSIDIARIAS", "_raw_DS_LEY": "CM Ley 9/1995, E RDL 1/1992", "_raw_FC_AC": "1999-02-25", "_raw_NM_AREA_M2": 203202.069632325, "_cam_code": "131" }, "geometry": { "type": "Polygon", "coordinates": [ [ [ -4.0329, 40.6309 ], [ -4.0348, 40.6308 ], [ -4.0367, 40.6312 ], [ -4.0409, 40.6311 ], [ -4.0416, 40.6308 ], [ -4.0445, 40.6303 ], [ -4.0456, 40.6305 ], [ -4.0474, 40.6302 ], [ -4.0479, 40.6303 ], [ -4.0483, 40.6306 ], [ -4.0483, 40.6309 ], [ -4.0481, 40.6311 ], [ -4.0481, 40.6317 ], [ -4.0483, 40.6323 ], [ -4.0488, 40.6329 ], [ -4.0494, 40.6331 ], [ -4.0504, 40.6346 ], [ -4.0511, 40.635 ], [ -4.052, 40.6359 ], [ -4.0522, 40.6357 ], [ -4.0524, 40.6351 ], [ -4.0524, 40.6347 ], [ -4.0517, 40.6345 ], [ -4.0512, 40.6341 ], [ -4.0506, 40.6326 ], [ -4.0503, 40.6324 ], [ -4.0499, 40.6325 ], [ -4.0497, 40.6324 ], [ -4.0495, 40.632 ], [ -4.0495, 40.6315 ], [ -4.0499, 40.6308 ], [ -4.0498, 40.6302 ], [ -4.0486, 40.6296 ], [ -4.048, 40.629 ], [ -4.0475, 40.629 ], [ -4.0468, 40.6294 ], [ -4.0468, 40.6295 ], [ -4.0462, 40.6297 ], [ -4.0445, 40.6296 ], [ -4.0435, 40.6298 ], [ -4.0429, 40.6296 ], [ -4.0424, 40.6296 ], [ -4.0414, 40.6301 ], [ -4.0393, 40.6304 ], [ -4.0378, 40.6304 ], [ -4.0373, 40.6303 ], [ -4.037, 40.6301 ], [ -4.0359, 40.63 ], [ -4.0358, 40.6299 ], [ -4.0346, 40.6299 ], [ -4.0344, 40.6301 ], [ -4.034, 40.6302 ], [ -4.0328, 40.6301 ], [ -4.033, 40.6303 ], [ -4.0329, 40.6309 ] ] ] } },
{ "type": "Feature", "properties": { "municipio": "San Lorenzo de El Escorial", "clasificacion": "no-urbanizable-protegido", "calificacion": "sin-asignar", "version": "vigente", "fuente": "SIT-CAM WFS — UsoDelSuelo:VPLA_V_CLASIFICACION (https://idem.comunidad.madrid/geosrvg/ows)", "fecha_dato": "2026-05-12", "ambito": "38609", "_raw_CD_SIGLAS": "SNUP", "_raw_DS_CLASIF_GEN": "Suelo No Urbanizable Protegido", "_raw_DS_CLASIF_DET": "Suelo No Urbanizable Especialmente Protegido. Valor Ecológico y Paisajístico", "_raw_DS_DOCU": "NORMAS SUBSIDIARIAS", "_raw_DS_LEY": "CM Ley 9/1995, E RDL 1/1992", "_raw_FC_AC": "1999-02-25", "_raw_NM_AREA_M2": 167062.929453947, "_cam_code": "131" }, "geometry": { "type": "Polygon", "coordinates": [ [ [ -4.0629, 40.6526 ], [ -4.0631, 40.6526 ], [ -4.0612, 40.6516 ], [ -4.0601, 40.6515 ], [ -4.0581, 40.6503 ], [ -4.0578, 40.6492 ], [ -4.0596, 40.65 ], [ -4.0608, 40.6502 ], [ -4.0604, 40.6488 ], [ -4.0596, 40.6488 ], [ -4.0595, 40.6487 ], [ -4.0561, 40.6482 ], [ -4.054, 40.6477 ], [ -4.0519, 40.647 ], [ -4.0519, 40.6476 ], [ -4.0522, 40.6479 ], [ -4.0522, 40.6481 ], [ -4.0554, 40.649 ], [ -4.0558, 40.6499 ], [ -4.0565, 40.6499 ], [ -4.056, 40.6514 ], [ -4.0596, 40.6523 ], [ -4.062, 40.6526 ], [ -4.0629, 40.6526 ] ] ] } },
{ "type": "Feature", "properties": { "municipio": "San Lorenzo de El Escorial", "clasificacion": "no-urbanizable-protegido", "calificacion": "sin-asignar", "version": "vigente", "fuente": "SIT-CAM WFS — UsoDelSuelo:VPLA_V_CLASIFICACION (https://idem.comunidad.madrid/geosrvg/ows)", "fecha_dato": "2026-05-12", "ambito": "38609", "_raw_CD_SIGLAS": "SNUP", "_raw_DS_CLASIF_GEN": "Suelo No Urbanizable Protegido", "_raw_DS_CLASIF_DET": "Suelo No Urbanizable Especialmente Protegido. Reserva de Infraestructuras", "_raw_DS_DOCU": "NORMAS SUBSIDIARIAS", "_raw_DS_LEY": "CM Ley 9/1995, E RDL 1/1992", "_raw_FC_AC": "1999-02-25", "_raw_NM_AREA_M2": 291743.81976771198, "_cam_code": "131" }, "geometry": { "type": "Polygon", "coordinates": [ [ [ -4.0668, 40.6492 ], [ -4.0717, 40.6495 ], [ -4.0736, 40.6499 ], [ -4.0736, 40.6499 ], [ -4.0763, 40.6499 ], [ -4.0764, 40.6499 ], [ -4.0755, 40.6495 ], [ -4.0748, 40.6494 ], [ -4.0748, 40.6493 ], [ -4.0733, 40.6489 ], [ -4.0713, 40.6488 ], [ -4.0703, 40.6487 ], [ -4.0703, 40.6486 ], [ -4.0697, 40.6486 ], [ -4.0696, 40.6487 ], [ -4.069, 40.6486 ], [ -4.0691, 40.6487 ], [ -4.0605, 40.6482 ], [ -4.0567, 40.6476 ], [ -4.0531, 40.6467 ], [ -4.0441, 40.6436 ], [ -4.0415, 40.6429 ], [ -4.0375, 40.6424 ], [ -4.0361, 40.6423 ], [ -4.0352, 40.6424 ], [ -4.036, 40.6432 ], [ -4.0372, 40.6432 ], [ -4.0397, 40.6435 ], [ -4.0432, 40.6442 ], [ -4.0523, 40.6472 ], [ -4.0561, 40.6482 ], [ -4.0621, 40.6491 ], [ -4.0668, 40.6492 ] ] ] } },
{ "type": "Feature", "properties": { "municipio": "San Lorenzo de El Escorial", "clasificacion": "no-urbanizable-protegido", "calificacion": "sin-asignar", "version": "vigente", "fuente": "SIT-CAM WFS — UsoDelSuelo:VPLA_V_CLASIFICACION (https://idem.comunidad.madrid/geosrvg/ows)", "fecha_dato": "2026-05-12", "ambito": "38609", "_raw_CD_SIGLAS": "SNUP", "_raw_DS_CLASIF_GEN": "Suelo No Urbanizable Protegido", "_raw_DS_CLASIF_DET": "Suelo No Urbanizable Protegido", "_raw_DS_DOCU": "NORMAS SUBSIDIARIAS", "_raw_DS_LEY": "CM Ley 9/1995, E RDL 1/1992", "_raw_FC_AC": "1999-02-25", "_raw_NM_AREA_M2": 32812.348407288198, "_cam_code": "131" }, "geometry": { "type": "Polygon", "coordinates": [ [ [ -4.1573, 40.5953 ], [ -4.1581, 40.5956 ], [ -4.1596, 40.5937 ], [ -4.1596, 40.5934 ], [ -4.1586, 40.5933 ], [ -4.1587, 40.5926 ], [ -4.1582, 40.5924 ], [ -4.1582, 40.5928 ], [ -4.1584, 40.5933 ], [ -4.1576, 40.5933 ], [ -4.158, 40.594 ], [ -4.1577, 40.5942 ], [ -4.1575, 40.594 ], [ -4.1571, 40.5943 ], [ -4.1578, 40.5947 ], [ -4.1573, 40.5953 ] ] ] } },
{ "type": "Feature", "properties": { "municipio": "San Lorenzo de El Escorial", "clasificacion": "no-urbanizable-protegido", "calificacion": "sin-asignar", "version": "vigente", "fuente": "SIT-CAM WFS — UsoDelSuelo:VPLA_V_CLASIFICACION (https://idem.comunidad.madrid/geosrvg/ows)", "fecha_dato": "2026-05-12", "ambito": "38609", "_raw_CD_SIGLAS": "SNUP", "_raw_DS_CLASIF_GEN": "Suelo No Urbanizable Protegido", "_raw_DS_CLASIF_DET": "Suelo No Urbanizable Especialmente Protegido. Valor Ecológico y Paisajístico", "_raw_DS_DOCU": "NORMAS SUBSIDIARIAS", "_raw_DS_LEY": "CM Ley 9/1995, E RDL 1/1992", "_raw_FC_AC": "1999-02-25", "_raw_NM_AREA_M2": 104671.88820220099, "_cam_code": "131" }, "geometry": { "type": "Polygon", "coordinates": [ [ [ -4.0631, 40.6491 ], [ -4.0638, 40.6506 ], [ -4.0651, 40.6517 ], [ -4.07, 40.6498 ], [ -4.0736, 40.6499 ], [ -4.0717, 40.6495 ], [ -4.0631, 40.6491 ] ] ] } },
{ "type": "Feature", "properties": { "municipio": "San Lorenzo de El Escorial", "clasificacion": "no-urbanizable-protegido", "calificacion": "sin-asignar", "version": "vigente", "fuente": "SIT-CAM WFS — UsoDelSuelo:VPLA_V_CLASIFICACION (https://idem.comunidad.madrid/geosrvg/ows)", "fecha_dato": "2026-05-12", "ambito": "38609", "_raw_CD_SIGLAS": "SNUP", "_raw_DS_CLASIF_GEN": "Suelo No Urbanizable Protegido", "_raw_DS_CLASIF_DET": "Suelo No Urbanizable Especialmente Protegido. Cauces y Vaguadas", "_raw_DS_DOCU": "NORMAS SUBSIDIARIAS", "_raw_DS_LEY": "CM Ley 9/1995, E RDL 1/1992", "_raw_FC_AC": "1999-02-25", "_raw_NM_AREA_M2": 127217.554852727, "_cam_code": "131" }, "geometry": { "type": "Polygon", "coordinates": [ [ [ -4.0604, 40.6488 ], [ -4.0608, 40.6502 ], [ -4.0596, 40.65 ], [ -4.0578, 40.6492 ], [ -4.0581, 40.6503 ], [ -4.0601, 40.6515 ], [ -4.0612, 40.6516 ], [ -4.0631, 40.6526 ], [ -4.0651, 40.6517 ], [ -4.0638, 40.6506 ], [ -4.0631, 40.6491 ], [ -4.0621, 40.6491 ], [ -4.0605, 40.6489 ], [ -4.0604, 40.6488 ] ] ] } },
{ "type": "Feature", "properties": { "municipio": "San Lorenzo de El Escorial", "clasificacion": "no-urbanizable-protegido", "calificacion": "sin-asignar", "version": "vigente", "fuente": "SIT-CAM WFS — UsoDelSuelo:VPLA_V_CLASIFICACION (https://idem.comunidad.madrid/geosrvg/ows)", "fecha_dato": "2026-05-12", "ambito": "38609", "_raw_CD_SIGLAS": "SNUP", "_raw_DS_CLASIF_GEN": "Suelo No Urbanizable Protegido", "_raw_DS_CLASIF_DET": "Suelo No Urbanizable Especialmente Protegido. Valor Ecológico y Paisajístico", "_raw_DS_DOCU": "NORMAS SUBSIDIARIAS", "_raw_DS_LEY": "CM Ley 9/1995, E RDL 1/1992", "_raw_FC_AC": "1999-02-25", "_raw_NM_AREA_M2": 143685.41476590201, "_cam_code": "131" }, "geometry": { "type": "Polygon", "coordinates": [ [ [ -4.0497, 40.6384 ], [ -4.0503, 40.6387 ], [ -4.052, 40.6392 ], [ -4.0528, 40.6397 ], [ -4.0538, 40.64 ], [ -4.0548, 40.6409 ], [ -4.0547, 40.642 ], [ -4.055, 40.6418 ], [ -4.0553, 40.6413 ], [ -4.0562, 40.6409 ], [ -4.0572, 40.6411 ], [ -4.058, 40.6416 ], [ -4.0582, 40.6414 ], [ -4.0578, 40.6398 ], [ -4.0567, 40.6387 ], [ -4.0562, 40.6375 ], [ -4.0518, 40.6383 ], [ -4.0497, 40.6384 ] ] ] } },
{ "type": "Feature", "properties": { "municipio": "San Lorenzo de El Escorial", "clasificacion": "no-urbanizable-protegido", "calificacion": "sin-asignar", "version": "vigente", "fuente": "SIT-CAM WFS — UsoDelSuelo:VPLA_V_CLASIFICACION (https://idem.comunidad.madrid/geosrvg/ows)", "fecha_dato": "2026-05-12", "ambito": "38609", "_raw_CD_SIGLAS": "SNUP", "_raw_DS_CLASIF_GEN": "Suelo No Urbanizable Protegido", "_raw_DS_CLASIF_DET": "Suelo No Urbanizable Especialmente Protegido por su Valor Forestal", "_raw_DS_DOCU": "NORMAS SUBSIDIARIAS", "_raw_DS_LEY": "CM Ley 9/1995, E RDL 1/1992", "_raw_FC_AC": "1999-02-25", "_raw_NM_AREA_M2": 10427191.655048, "_cam_code": "131" }, "geometry": { "type": "Polygon", "coordinates": [ [ [ -4.1709, 40.5872 ], [ -4.1702, 40.588 ], [ -4.167, 40.59 ], [ -4.1656, 40.5908 ], [ -4.1627, 40.5921 ], [ -4.1625, 40.5924 ], [ -4.163, 40.5929 ], [ -4.1632, 40.5938 ], [ -4.1636, 40.5947 ], [ -4.1642, 40.5955 ], [ -4.1684, 40.5985 ], [ -4.1692, 40.599 ], [ -4.1705, 40.5994 ], [ -4.1717, 40.6003 ], [ -4.1737, 40.6041 ], [ -4.175, 40.6022 ], [ -4.1799, 40.5972 ], [ -4.1839, 40.5941 ], [ -4.1871, 40.5898 ], [ -4.1879, 40.589 ], [ -4.1881, 40.5882 ], [ -4.1903, 40.5871 ], [ -4.1933, 40.5848 ], [ -4.1941, 40.5835 ], [ -4.1942, 40.5796 ], [ -4.1939, 40.5764 ], [ -4.1966, 40.5743 ], [ -4.1977, 40.5739 ], [ -4.1983, 40.5735 ], [ -4.1986, 40.5722 ], [ -4.1985, 40.5683 ], [ -4.1988, 40.5677 ], [ -4.1983, 40.5674 ], [ -4.1979, 40.5668 ], [ -4.1971, 40.5663 ], [ -4.1969, 40.5663 ], [ -4.1969, 40.5662 ], [ -4.1958, 40.5659 ], [ -4.1945, 40.566 ], [ -4.1945, 40.5659 ], [ -4.1941, 40.5659 ], [ -4.1941, 40.5658 ], [ -4.1938, 40.5658 ], [ -4.1938, 40.5657 ], [ -4.1928, 40.5655 ], [ -4.1928, 40.5654 ], [ -4.1917, 40.5651 ], [ -4.1914, 40.5649 ], [ -4.191, 40.5649 ], [ -4.191, 40.565 ], [ -4.1907, 40.565 ], [ -4.1907, 40.5651 ], [ -4.1897, 40.5655 ], [ -4.1897, 40.5656 ], [ -4.1885, 40.566 ], [ -4.188, 40.5665 ], [ -4.1877, 40.5665 ], [ -4.1875, 40.5667 ], [ -4.1873, 40.5667 ], [ -4.1869, 40.5672 ], [ -4.1866, 40.5672 ], [ -4.1864, 40.5674 ], [ -4.1864, 40.5676 ], [ -4.1862, 40.5678 ], [ -4.1859, 40.5678 ], [ -4.1856, 40.5682 ], [ -4.1852, 40.5682 ], [ -4.1851, 40.5686 ], [ -4.1847, 40.569 ], [ -4.1842, 40.5691 ], [ -4.1841, 40.5693 ], [ -4.1836, 40.5693 ], [ -4.1835, 40.5699 ], [ -4.1833, 40.5699 ], [ -4.1833, 40.5702 ], [ -4.1831, 40.5704 ], [ -4.1829, 40.5704 ], [ -4.1831, 40.5706 ], [ -4.1831, 40.5708 ], [ -4.1826, 40.571 ], [ -4.1826, 40.5709 ], [ -4.1821, 40.5709 ], [ -4.1817, 40.5712 ], [ -4.1814, 40.5712 ], [ -4.1814, 40.5716 ], [ -4.1811, 40.5717 ], [ -4.1808, 40.572 ], [ -4.1808, 40.5722 ], [ -4.1805, 40.5725 ], [ -4.1803, 40.5731 ], [ -4.18, 40.5732 ], [ -4.1799, 40.5735 ], [ -4.1795, 40.5737 ], [ -4.1794, 40.574 ], [ -4.1791, 40.574 ], [ -4.1789, 40.5742 ], [ -4.1789, 40.5744 ], [ -4.1781, 40.5744 ], [ -4.1779, 40.5745 ], [ -4.1779, 40.5747 ], [ -4.1773, 40.5748 ], [ -4.1773, 40.5749 ], [ -4.1755, 40.575 ], [ -4.1755, 40.5751 ], [ -4.175, 40.5752 ], [ -4.1747, 40.5755 ], [ -4.1743, 40.5754 ], [ -4.1741, 40.5756 ], [ -4.1737, 40.5757 ], [ -4.1727, 40.5757 ], [ -4.1727, 40.5756 ], [ -4.172, 40.5755 ], [ -4.172, 40.5756 ], [ -4.1712, 40.5757 ], [ -4.1712, 40.5758 ], [ -4.1707, 40.576 ], [ -4.1698, 40.5746 ], [ -4.1683, 40.5731 ], [ -4.1673, 40.5712 ], [ -4.1662, 40.5708 ], [ -4.1646, 40.569 ], [ -4.1642, 40.5683 ], [ -4.1634, 40.5664 ], [ -4.1637, 40.5661 ], [ -4.1639, 40.5656 ], [ -4.1639, 40.5649 ], [ -4.1641, 40.5639 ], [ -4.164, 40.563 ], [ -4.1627, 40.5625 ], [ -4.1614, 40.5625 ], [ -4.16, 40.5627 ], [ -4.1588, 40.5633 ], [ -4.1567, 40.5636 ], [ -4.1543, 40.5649 ], [ -4.1531, 40.5659 ], [ -4.152, 40.5664 ], [ -4.1505, 40.567 ], [ -4.1491, 40.5671 ], [ -4.1469, 40.5677 ], [ -4.1456, 40.5682 ], [ -4.1444, 40.5691 ], [ -4.143, 40.5707 ], [ -4.142, 40.5715 ], [ -4.1419, 40.5717 ], [ -4.1408, 40.5723 ], [ -4.1409, 40.5729 ], [ -4.1404, 40.5749 ], [ -4.141, 40.5753 ], [ -4.1419, 40.5756 ], [ -4.1423, 40.576 ], [ -4.1431, 40.5764 ], [ -4.1431, 40.5769 ], [ -4.1432, 40.5769 ], [ -4.1433, 40.5776 ], [ -4.1445, 40.579 ], [ -4.145, 40.58 ], [ -4.1443, 40.5813 ], [ -4.1436, 40.5843 ], [ -4.1521, 40.5857 ], [ -4.1539, 40.5851 ], [ -4.151, 40.5831 ], [ -4.1506, 40.5822 ], [ -4.1507, 40.578 ], [ -4.1516, 40.5759 ], [ -4.1535, 40.5756 ], [ -4.1548, 40.576 ], [ -4.1555, 40.576 ], [ -4.156, 40.5763 ], [ -4.1563, 40.5763 ], [ -4.1573, 40.5767 ], [ -4.1574, 40.5771 ], [ -4.1597, 40.5779 ], [ -4.1602, 40.5788 ], [ -4.1608, 40.5791 ], [ -4.162, 40.5806 ], [ -4.1631, 40.5815 ], [ -4.1636, 40.5816 ], [ -4.1652, 40.5831 ], [ -4.166, 40.5841 ], [ -4.165, 40.5846 ], [ -4.1656, 40.5852 ], [ -4.1652, 40.5855 ], [ -4.1621, 40.5872 ], [ -4.1616, 40.5868 ], [ -4.1612, 40.587 ], [ -4.1621, 40.588 ], [ -4.1609, 40.5886 ], [ -4.1599, 40.5894 ], [ -4.1594, 40.5901 ], [ -4.1594, 40.5904 ], [ -4.1589, 40.5906 ], [ -4.1593, 40.5915 ], [ -4.1588, 40.5922 ], [ -4.1596, 40.5925 ], [ -4.1594, 40.5934 ], [ -4.1596, 40.5934 ], [ -4.1596, 40.5937 ], [ -4.1581, 40.5956 ], [ -4.1573, 40.5953 ], [ -4.1567, 40.5948 ], [ -4.1558, 40.5946 ], [ -4.1554, 40.5951 ], [ -4.1541, 40.5956 ], [ -4.1544, 40.5958 ], [ -4.154, 40.5963 ], [ -4.1545, 40.5965 ], [ -4.1545, 40.5966 ], [ -4.1572, 40.5976 ], [ -4.1572, 40.5978 ], [ -4.1598, 40.5985 ], [ -4.16, 40.5983 ], [ -4.1587, 40.5961 ], [ -4.1587, 40.5959 ], [ -4.1599, 40.5936 ], [ -4.1608, 40.5926 ], [ -4.1618, 40.592 ], [ -4.1651, 40.5907 ], [ -4.1743, 40.5849 ], [ -4.1744, 40.585 ], [ -4.1747, 40.5849 ], [ -4.175, 40.5843 ], [ -4.1749, 40.5836 ], [ -4.1754, 40.5832 ], [ -4.1758, 40.5823 ], [ -4.1761, 40.5826 ], [ -4.1759, 40.583 ], [ -4.1754, 40.5835 ], [ -4.1755, 40.5836 ], [ -4.1755, 40.5841 ], [ -4.175, 40.5849 ], [ -4.171, 40.5873 ], [ -4.1709, 40.5872 ] ] ] } },
{ "type": "Feature", "properties": { "municipio": "San Lorenzo de El Escorial", "clasificacion": "no-urbanizable-protegido", "calificacion": "sin-asignar", "version": "vigente", "fuente": "SIT-CAM WFS — UsoDelSuelo:VPLA_V_CLASIFICACION (https://idem.comunidad.madrid/geosrvg/ows)", "fecha_dato": "2026-05-12", "ambito": "38609", "_raw_CD_SIGLAS": "SNUP", "_raw_DS_CLASIF_GEN": "Suelo No Urbanizable Protegido", "_raw_DS_CLASIF_DET": "Suelo No Urbanizable Especialmente Protegido por su Valor Forestal", "_raw_DS_DOCU": "NORMAS SUBSIDIARIAS", "_raw_DS_LEY": "CM Ley 9/1995, E RDL 1/1992", "_raw_FC_AC": "1999-02-25", "_raw_NM_AREA_M2": 205366.69626021601, "_cam_code": "131" }, "geometry": { "type": "Polygon", "coordinates": [ [ [ -4.1186, 40.6106 ], [ -4.1179, 40.6125 ], [ -4.1184, 40.6121 ], [ -4.1189, 40.6119 ], [ -4.1223, 40.6112 ], [ -4.1237, 40.6111 ], [ -4.1251, 40.6114 ], [ -4.1257, 40.6114 ], [ -4.1264, 40.6112 ], [ -4.1264, 40.6111 ], [ -4.1262, 40.6111 ], [ -4.1258, 40.6107 ], [ -4.1258, 40.6108 ], [ -4.1255, 40.6101 ], [ -4.1242, 40.6102 ], [ -4.1239, 40.6103 ], [ -4.1235, 40.6107 ], [ -4.1206, 40.6092 ], [ -4.1178, 40.6083 ], [ -4.118, 40.6071 ], [ -4.1189, 40.6064 ], [ -4.1173, 40.6054 ], [ -4.1168, 40.6061 ], [ -4.1156, 40.6099 ], [ -4.1181, 40.6101 ], [ -4.1186, 40.6106 ] ] ] } },
{ "type": "Feature", "properties": { "municipio": "San Lorenzo de El Escorial", "clasificacion": "no-urbanizable-protegido", "calificacion": "sin-asignar", "version": "vigente", "fuente": "SIT-CAM WFS — UsoDelSuelo:VPLA_V_CLASIFICACION (https://idem.comunidad.madrid/geosrvg/ows)", "fecha_dato": "2026-05-12", "ambito": "38609", "_raw_CD_SIGLAS": "SNUP", "_raw_DS_CLASIF_GEN": "Suelo No Urbanizable Protegido", "_raw_DS_CLASIF_DET": "Suelo No Urbanizable Especialmente Protegido por su Valor Forestal", "_raw_DS_DOCU": "NORMAS SUBSIDIARIAS", "_raw_DS_LEY": "CM Ley 9/1995, E RDL 1/1992", "_raw_FC_AC": "1999-02-25", "_raw_NM_AREA_M2": 18306.805397409498, "_cam_code": "131" }, "geometry": { "type": "Polygon", "coordinates": [ [ [ -4.1366, 40.6019 ], [ -4.1369, 40.6023 ], [ -4.138, 40.6028 ], [ -4.1395, 40.6013 ], [ -4.1401, 40.601 ], [ -4.14, 40.6009 ], [ -4.139, 40.6012 ], [ -4.1377, 40.6019 ], [ -4.1366, 40.6019 ] ] ] } },
{ "type": "Feature", "properties": { "municipio": "San Lorenzo de El Escorial", "clasificacion": "no-urbanizable-protegido", "calificacion": "sin-asignar", "version": "vigente", "fuente": "SIT-CAM WFS — UsoDelSuelo:VPLA_V_CLASIFICACION (https://idem.comunidad.madrid/geosrvg/ows)", "fecha_dato": "2026-05-12", "ambito": "38609", "_raw_CD_SIGLAS": "SNUP", "_raw_DS_CLASIF_GEN": "Suelo No Urbanizable Protegido", "_raw_DS_CLASIF_DET": "Suelo No Urbanizable Especialmente Protegido. Reserva Ganadera", "_raw_DS_DOCU": "NORMAS SUBSIDIARIAS", "_raw_DS_LEY": "CM Ley 9/1995, E RDL 1/1992", "_raw_FC_AC": "1999-02-25", "_raw_NM_AREA_M2": 215979.59747646301, "_cam_code": "131" }, "geometry": { "type": "Polygon", "coordinates": [ [ [ -4.058, 40.6372 ], [ -4.0592, 40.6392 ], [ -4.0598, 40.6398 ], [ -4.0609, 40.6404 ], [ -4.0619, 40.6414 ], [ -4.0639, 40.643 ], [ -4.0645, 40.6408 ], [ -4.0646, 40.6398 ], [ -4.0644, 40.6392 ], [ -4.0634, 40.6375 ], [ -4.0631, 40.6363 ], [ -4.0627, 40.6363 ], [ -4.0625, 40.6365 ], [ -4.0614, 40.6367 ], [ -4.058, 40.6372 ] ] ] } },
{ "type": "Feature", "properties": { "municipio": "San Lorenzo de El Escorial", "clasificacion": "no-urbanizable-protegido", "calificacion": "sin-asignar", "version": "vigente", "fuente": "SIT-CAM WFS — UsoDelSuelo:VPLA_V_CLASIFICACION (https://idem.comunidad.madrid/geosrvg/ows)", "fecha_dato": "2026-05-12", "ambito": "38609", "_raw_CD_SIGLAS": "SNUP", "_raw_DS_CLASIF_GEN": "Suelo No Urbanizable Protegido", "_raw_DS_CLASIF_DET": "Suelo No Urbanizable Especialmente Protegido. Valor Ecológico y Paisajístico", "_raw_DS_DOCU": "NORMAS SUBSIDIARIAS", "_raw_DS_LEY": "CM Ley 9/1995, E RDL 1/1992", "_raw_FC_AC": "1999-02-25", "_raw_NM_AREA_M2": 141485.89843820201, "_cam_code": "131" }, "geometry": { "type": "Polygon", "coordinates": [ [ [ -4.0522, 40.6357 ], [ -4.0517, 40.6364 ], [ -4.0499, 40.6377 ], [ -4.0496, 40.6382 ], [ -4.0497, 40.6383 ], [ -4.0528, 40.6381 ], [ -4.0564, 40.6374 ], [ -4.0564, 40.6362 ], [ -4.0562, 40.6358 ], [ -4.0558, 40.6355 ], [ -4.0556, 40.6355 ], [ -4.0555, 40.6352 ], [ -4.0547, 40.6346 ], [ -4.0542, 40.6346 ], [ -4.0537, 40.6349 ], [ -4.0524, 40.6347 ], [ -4.0522, 40.6357 ] ] ] } },
{ "type": "Feature", "properties": { "municipio": "San Lorenzo de El Escorial", "clasificacion": "no-urbanizable-protegido", "calificacion": "sin-asignar", "version": "vigente", "fuente": "SIT-CAM WFS — UsoDelSuelo:VPLA_V_CLASIFICACION (https://idem.comunidad.madrid/geosrvg/ows)", "fecha_dato": "2026-05-12", "ambito": "38609", "_raw_CD_SIGLAS": "SNUP", "_raw_DS_CLASIF_GEN": "Suelo No Urbanizable Protegido", "_raw_DS_CLASIF_DET": "Suelo No Urbanizable Especialmente Protegido. Valor Ecológico y Paisajístico", "_raw_DS_DOCU": "NORMAS SUBSIDIARIAS", "_raw_DS_LEY": "CM Ley 9/1995, E RDL 1/1992", "_raw_FC_AC": "1999-02-25", "_raw_NM_AREA_M2": 882432.33771850099, "_cam_code": "131" }, "geometry": { "type": "Polygon", "coordinates": [ [ [ -4.1231, 40.6194 ], [ -4.1226, 40.6194 ], [ -4.122, 40.6198 ], [ -4.1218, 40.6205 ], [ -4.1212, 40.6209 ], [ -4.1203, 40.6218 ], [ -4.1201, 40.6222 ], [ -4.1197, 40.6225 ], [ -4.1182, 40.6243 ], [ -4.1176, 40.6252 ], [ -4.1175, 40.6256 ], [ -4.1178, 40.6269 ], [ -4.1176, 40.6277 ], [ -4.1169, 40.6292 ], [ -4.1226, 40.6306 ], [ -4.123, 40.6301 ], [ -4.1232, 40.6291 ], [ -4.1235, 40.6285 ], [ -4.1232, 40.6268 ], [ -4.1233, 40.6264 ], [ -4.124, 40.6257 ], [ -4.125, 40.6254 ], [ -4.1268, 40.6237 ], [ -4.1268, 40.6234 ], [ -4.1265, 40.6231 ], [ -4.1264, 40.6226 ], [ -4.1262, 40.6223 ], [ -4.1264, 40.6209 ], [ -4.1263, 40.6195 ], [ -4.1265, 40.6189 ], [ -4.1273, 40.6191 ], [ -4.1273, 40.6195 ], [ -4.128, 40.6194 ], [ -4.1287, 40.6195 ], [ -4.1291, 40.6197 ], [ -4.1294, 40.6196 ], [ -4.129, 40.6192 ], [ -4.1297, 40.6185 ], [ -4.1298, 40.6179 ], [ -4.1293, 40.6178 ], [ -4.129, 40.6175 ], [ -4.1286, 40.6175 ], [ -4.1282, 40.6179 ], [ -4.1276, 40.6179 ], [ -4.1276, 40.6177 ], [ -4.1273, 40.6174 ], [ -4.1267, 40.6171 ], [ -4.1268, 40.6167 ], [ -4.1267, 40.616 ], [ -4.1269, 40.6154 ], [ -4.1268, 40.6132 ], [ -4.124, 40.6119 ], [ -4.1238, 40.6121 ], [ -4.1235, 40.6133 ], [ -4.1235, 40.6145 ], [ -4.1238, 40.6159 ], [ -4.1228, 40.6175 ], [ -4.1231, 40.6194 ] ] ] } },
{ "type": "Feature", "properties": { "municipio": "San Lorenzo de El Escorial", "clasificacion": "no-urbanizable-protegido", "calificacion": "sin-asignar", "version": "vigente", "fuente": "SIT-CAM WFS — UsoDelSuelo:VPLA_V_CLASIFICACION (https://idem.comunidad.madrid/geosrvg/ows)", "fecha_dato": "2026-05-12", "ambito": "38609", "_raw_CD_SIGLAS": "SNUP", "_raw_DS_CLASIF_GEN": "Suelo No Urbanizable Protegido", "_raw_DS_CLASIF_DET": "Suelo No Urbanizable Especialmente Protegido. Reserva Ganadera", "_raw_DS_DOCU": "NORMAS SUBSIDIARIAS", "_raw_DS_LEY": "CM Ley 9/1995, E RDL 1/1992", "_raw_FC_AC": "1999-02-25", "_raw_NM_AREA_M2": 654299.62534779101, "_cam_code": "131" }, "geometry": { "type": "Polygon", "coordinates": [ [ [ -4.0329, 40.6309 ], [ -4.04, 40.6344 ], [ -4.0426, 40.6355 ], [ -4.0452, 40.6364 ], [ -4.0464, 40.6371 ], [ -4.0496, 40.6384 ], [ -4.0499, 40.6377 ], [ -4.0517, 40.6364 ], [ -4.052, 40.6359 ], [ -4.0511, 40.635 ], [ -4.0504, 40.6346 ], [ -4.0494, 40.6331 ], [ -4.0488, 40.6329 ], [ -4.0483, 40.6323 ], [ -4.0481, 40.6317 ], [ -4.0481, 40.6311 ], [ -4.0483, 40.6309 ], [ -4.0483, 40.6306 ], [ -4.0479, 40.6303 ], [ -4.0474, 40.6302 ], [ -4.046, 40.6305 ], [ -4.0445, 40.6303 ], [ -4.0416, 40.6308 ], [ -4.0409, 40.6311 ], [ -4.0367, 40.6312 ], [ -4.0348, 40.6308 ], [ -4.0329, 40.6309 ] ] ] } },
{ "type": "Feature", "properties": { "municipio": "San Lorenzo de El Escorial", "clasificacion": "urbano-consolidado", "calificacion": "sin-asignar", "version": "vigente", "fuente": "SIT-CAM WFS — UsoDelSuelo:VPLA_V_CLASIFICACION (https://idem.comunidad.madrid/geosrvg/ows)", "fecha_dato": "2026-05-12", "ambito": "38609", "_raw_CD_SIGLAS": "SU", "_raw_DS_CLASIF_GEN": "Suelo Urbano", "_raw_DS_CLASIF_DET": "Suelo Urbano", "_raw_DS_DOCU": "NORMAS SUBSIDIARIAS", "_raw_DS_LEY": "CM Ley 9/1995, E RDL 1/1992", "_raw_FC_AC": "1999-02-25", "_raw_NM_AREA_M2": 79293.592619587798, "_cam_code": "131" }, "geometry": { "type": "Polygon", "coordinates": [ [ [ -4.1156, 40.6099 ], [ -4.1146, 40.6131 ], [ -4.1156, 40.6127 ], [ -4.1178, 40.6126 ], [ -4.118, 40.6124 ], [ -4.1186, 40.6106 ], [ -4.1181, 40.6101 ], [ -4.1156, 40.6099 ] ] ] } },
{ "type": "Feature", "properties": { "municipio": "San Lorenzo de El Escorial", "clasificacion": "urbano-consolidado", "calificacion": "sin-asignar", "version": "vigente", "fuente": "SIT-CAM WFS — UsoDelSuelo:VPLA_V_CLASIFICACION (https://idem.comunidad.madrid/geosrvg/ows)", "fecha_dato": "2026-05-12", "ambito": "38609", "_raw_CD_SIGLAS": "SU", "_raw_DS_CLASIF_GEN": "Suelo Urbano", "_raw_DS_CLASIF_DET": "Suelo Urbano", "_raw_DS_DOCU": "NORMAS SUBSIDIARIAS", "_raw_DS_LEY": "CM Ley 9/1995, E RDL 1/1992", "_raw_FC_AC": "1999-02-25", "_raw_NM_AREA_M2": 5144.00289716102, "_cam_code": "131" }, "geometry": { "type": "Polygon", "coordinates": [ [ [ -4.1567, 40.5948 ], [ -4.1573, 40.5953 ], [ -4.1578, 40.5947 ], [ -4.1571, 40.5943 ], [ -4.1567, 40.5948 ] ] ] } },
{ "type": "Feature", "properties": { "municipio": "San Lorenzo de El Escorial", "clasificacion": "urbano-consolidado", "calificacion": "sin-asignar", "version": "vigente", "fuente": "SIT-CAM WFS — UsoDelSuelo:VPLA_V_CLASIFICACION (https://idem.comunidad.madrid/geosrvg/ows)", "fecha_dato": "2026-05-12", "ambito": "38609", "_raw_CD_SIGLAS": "SU", "_raw_DS_CLASIF_GEN": "Suelo Urbano", "_raw_DS_CLASIF_DET": "Suelo Urbano", "_raw_DS_DOCU": "NORMAS SUBSIDIARIAS", "_raw_DS_LEY": "CM Ley 9/1995, E RDL 1/1992", "_raw_FC_AC": "1999-02-25", "_raw_NM_AREA_M2": 46181.711236529904, "_cam_code": "131" }, "geometry": { "type": "Polygon", "coordinates": [ [ [ -4.0371, 40.6441 ], [ -4.0387, 40.6451 ], [ -4.0413, 40.6438 ], [ -4.0382, 40.6433 ], [ -4.036, 40.6432 ], [ -4.0371, 40.6441 ] ] ] } },
{ "type": "Feature", "properties": { "municipio": "San Lorenzo de El Escorial", "clasificacion": "urbano-consolidado", "calificacion": "sin-asignar", "version": "vigente", "fuente": "SIT-CAM WFS — UsoDelSuelo:VPLA_V_CLASIFICACION (https://idem.comunidad.madrid/geosrvg/ows)", "fecha_dato": "2026-05-12", "ambito": "38609", "_raw_CD_SIGLAS": "SU", "_raw_DS_CLASIF_GEN": "Suelo Urbano", "_raw_DS_CLASIF_DET": "Suelo Urbano", "_raw_DS_DOCU": "NORMAS SUBSIDIARIAS", "_raw_DS_LEY": "CM Ley 9/1995, E RDL 1/1992", "_raw_FC_AC": "1999-02-25", "_raw_NM_AREA_M2": 3613643.59254032, "_cam_code": "131" }, "geometry": { "type": "Polygon", "coordinates": [ [ [ -4.1268, 40.6077 ], [ -4.1276, 40.6085 ], [ -4.1284, 40.6081 ], [ -4.13, 40.6077 ], [ -4.1304, 40.6075 ], [ -4.1307, 40.6071 ], [ -4.1302, 40.6069 ], [ -4.1303, 40.6068 ], [ -4.1311, 40.6067 ], [ -4.1313, 40.6064 ], [ -4.1329, 40.6054 ], [ -4.1327, 40.6051 ], [ -4.1328, 40.6046 ], [ -4.1326, 40.6043 ], [ -4.1312, 40.6039 ], [ -4.1312, 40.6038 ], [ -4.131, 40.6038 ], [ -4.131, 40.6036 ], [ -4.1316, 40.6034 ], [ -4.1324, 40.6024 ], [ -4.1326, 40.6023 ], [ -4.1328, 40.602 ], [ -4.1328, 40.6016 ], [ -4.133, 40.6011 ], [ -4.1331, 40.6014 ], [ -4.1341, 40.6017 ], [ -4.1343, 40.6016 ], [ -4.1343, 40.6017 ], [ -4.1361, 40.6017 ], [ -4.1364, 40.6019 ], [ -4.1377, 40.6019 ], [ -4.139, 40.6012 ], [ -4.14, 40.6009 ], [ -4.1401, 40.6011 ], [ -4.1439, 40.6009 ], [ -4.1446, 40.6013 ], [ -4.145, 40.6005 ], [ -4.146, 40.5995 ], [ -4.1457, 40.5992 ], [ -4.1455, 40.5992 ], [ -4.1454, 40.5989 ], [ -4.1456, 40.5989 ], [ -4.1456, 40.5988 ], [ -4.1458, 40.5988 ], [ -4.1458, 40.5987 ], [ -4.15, 40.5967 ], [ -4.1509, 40.5969 ], [ -4.1517, 40.5969 ], [ -4.1517, 40.5968 ], [ -4.152, 40.5967 ], [ -4.152, 40.5969 ], [ -4.1523, 40.597 ], [ -4.1532, 40.597 ], [ -4.1532, 40.5969 ], [ -4.1549, 40.597 ], [ -4.1549, 40.5971 ], [ -4.1555, 40.5972 ], [ -4.1562, 40.5976 ], [ -4.1572, 40.5978 ], [ -4.1572, 40.5976 ], [ -4.1552, 40.5968 ], [ -4.1549, 40.5968 ], [ -4.154, 40.5963 ], [ -4.1544, 40.5958 ], [ -4.1541, 40.5956 ], [ -4.1554, 40.5951 ], [ -4.1557, 40.5948 ], [ -4.1556, 40.5945 ], [ -4.1555, 40.5945 ], [ -4.1557, 40.5944 ], [ -4.1563, 40.5943 ], [ -4.1566, 40.5941 ], [ -4.1572, 40.5941 ], [ -4.1571, 40.5943 ], [ -4.1575, 40.594 ], [ -4.1577, 40.5942 ], [ -4.158, 40.594 ], [ -4.1576, 40.5933 ], [ -4.1584, 40.5933 ], [ -4.1582, 40.5928 ], [ -4.1582, 40.5924 ], [ -4.1587, 40.5926 ], [ -4.1586, 40.5933 ], [ -4.1594, 40.5934 ], [ -4.1596, 40.5925 ], [ -4.1588, 40.5922 ], [ -4.1593, 40.5915 ], [ -4.1589, 40.5906 ], [ -4.1594, 40.5904 ], [ -4.1594, 40.5901 ], [ -4.1599, 40.5894 ], [ -4.1609, 40.5886 ], [ -4.1621, 40.588 ], [ -4.1612, 40.587 ], [ -4.1616, 40.5868 ], [ -4.1621, 40.5872 ], [ -4.1652, 40.5855 ], [ -4.1656, 40.5852 ], [ -4.165, 40.5846 ], [ -4.166, 40.5841 ], [ -4.1645, 40.5824 ], [ -4.1597, 40.585 ], [ -4.1582, 40.5837 ], [ -4.1587, 40.5832 ], [ -4.1584, 40.5828 ], [ -4.1572, 40.5829 ], [ -4.1549, 40.5847 ], [ -4.155, 40.5848 ], [ -4.1549, 40.5849 ], [ -4.1564, 40.5863 ], [ -4.1543, 40.5871 ], [ -4.1542, 40.5871 ], [ -4.1517, 40.5877 ], [ -4.1518, 40.5877 ], [ -4.1518, 40.5877 ], [ -4.1518, 40.5875 ], [ -4.1519, 40.587 ], [ -4.152, 40.587 ], [ -4.152, 40.5867 ], [ -4.1523, 40.586 ], [ -4.1523, 40.5857 ], [ -4.1436, 40.5843 ], [ -4.1407, 40.5886 ], [ -4.1398, 40.5895 ], [ -4.1408, 40.5898 ], [ -4.1376, 40.5914 ], [ -4.1371, 40.5922 ], [ -4.1366, 40.5927 ], [ -4.1353, 40.5948 ], [ -4.1346, 40.5951 ], [ -4.1346, 40.5952 ], [ -4.1344, 40.5952 ], [ -4.1344, 40.5953 ], [ -4.1333, 40.5959 ], [ -4.1321, 40.5962 ], [ -4.1307, 40.5969 ], [ -4.132, 40.5985 ], [ -4.1319, 40.5986 ], [ -4.122, 40.6031 ], [ -4.1221, 40.6033 ], [ -4.122, 40.6037 ], [ -4.1228, 40.605 ], [ -4.1227, 40.6053 ], [ -4.1247, 40.6063 ], [ -4.1255, 40.6063 ], [ -4.1256, 40.6068 ], [ -4.1258, 40.6069 ], [ -4.1259, 40.6072 ], [ -4.126, 40.6078 ], [ -4.1263, 40.6079 ], [ -4.1268, 40.6077 ] ], [ [ -4.1457, 40.5965 ], [ -4.1453, 40.597 ], [ -4.1451, 40.5969 ], [ -4.145, 40.597 ], [ -4.1447, 40.5968 ], [ -4.1453, 40.5963 ], [ -4.1457, 40.5965 ] ], [ [ -4.147, 40.5946 ], [ -4.147, 40.595 ], [ -4.1471, 40.595 ], [ -4.147, 40.595 ], [ -4.1461, 40.595 ], [ -4.146, 40.5949 ], [ -4.1466, 40.5944 ], [ -4.147, 40.5946 ] ], [ [ -4.1477, 40.5936 ], [ -4.1475, 40.5939 ], [ -4.1474, 40.5938 ], [ -4.1475, 40.5937 ], [ -4.1472, 40.5936 ], [ -4.1474, 40.5934 ], [ -4.1477, 40.5936 ] ] ] } },
{ "type": "Feature", "properties": { "municipio": "San Lorenzo de El Escorial", "clasificacion": "urbano-consolidado", "calificacion": "sin-asignar", "version": "vigente", "fuente": "SIT-CAM WFS — UsoDelSuelo:VPLA_V_CLASIFICACION (https://idem.comunidad.madrid/geosrvg/ows)", "fecha_dato": "2026-05-12", "ambito": "38609", "_raw_CD_SIGLAS": "SU", "_raw_DS_CLASIF_GEN": "Suelo Urbano", "_raw_DS_CLASIF_DET": "Suelo Urbano", "_raw_DS_DOCU": "NORMAS SUBSIDIARIAS", "_raw_DS_LEY": "CM Ley 9/1995, E RDL 1/1992", "_raw_FC_AC": "1999-02-25", "_raw_NM_AREA_M2": 6237.4298413223896, "_cam_code": "131" }, "geometry": { "type": "Polygon", "coordinates": [ [ [ -4.1557, 40.5948 ], [ -4.1558, 40.5946 ], [ -4.1567, 40.5948 ], [ -4.1572, 40.5941 ], [ -4.1566, 40.5941 ], [ -4.1563, 40.5943 ], [ -4.1557, 40.5944 ], [ -4.1555, 40.5945 ], [ -4.1556, 40.5945 ], [ -4.1557, 40.5948 ] ] ] } },
{ "type": "Feature", "properties": { "municipio": "San Lorenzo de El Escorial", "clasificacion": "urbano-consolidado", "calificacion": "sin-asignar", "version": "vigente", "fuente": "SIT-CAM WFS — UsoDelSuelo:VPLA_V_CLASIFICACION (https://idem.comunidad.madrid/geosrvg/ows)", "fecha_dato": "2026-05-12", "ambito": "38609", "_raw_CD_SIGLAS": "SU", "_raw_DS_CLASIF_GEN": "Suelo Urbano", "_raw_DS_CLASIF_DET": "Suelo Urbano", "_raw_DS_DOCU": "NORMAS SUBSIDIARIAS", "_raw_DS_LEY": "CM Ley 9/1995, E RDL 1/1992", "_raw_FC_AC": "1999-02-25", "_raw_NM_AREA_M2": 1125.7548421388201, "_cam_code": "131" }, "geometry": { "type": "Polygon", "coordinates": [ [ [ -4.1475, 40.5937 ], [ -4.1474, 40.5938 ], [ -4.1475, 40.5939 ], [ -4.1477, 40.5936 ], [ -4.1474, 40.5934 ], [ -4.1472, 40.5936 ], [ -4.1475, 40.5937 ] ] ] } },
{ "type": "Feature", "properties": { "municipio": "San Lorenzo de El Escorial", "clasificacion": "urbano-consolidado", "calificacion": "sin-asignar", "version": "vigente", "fuente": "SIT-CAM WFS — UsoDelSuelo:VPLA_V_CLASIFICACION (https://idem.comunidad.madrid/geosrvg/ows)", "fecha_dato": "2026-05-12", "ambito": "38609", "_raw_CD_SIGLAS": "SU", "_raw_DS_CLASIF_GEN": "Suelo Urbano", "_raw_DS_CLASIF_DET": "Suelo Urbano", "_raw_DS_DOCU": "NORMAS SUBSIDIARIAS", "_raw_DS_LEY": "CM Ley 9/1995, E RDL 1/1992", "_raw_FC_AC": "1999-02-25", "_raw_NM_AREA_M2": 904698.81641780899, "_cam_code": "131" }, "geometry": { "type": "Polygon", "coordinates": [ [ [ -4.1145, 40.6136 ], [ -4.1141, 40.6182 ], [ -4.1136, 40.6192 ], [ -4.113, 40.621 ], [ -4.1126, 40.6215 ], [ -4.1122, 40.6225 ], [ -4.1182, 40.6243 ], [ -4.1197, 40.6225 ], [ -4.1201, 40.6222 ], [ -4.1203, 40.6218 ], [ -4.1212, 40.6209 ], [ -4.1218, 40.6205 ], [ -4.122, 40.6198 ], [ -4.1226, 40.6194 ], [ -4.1231, 40.6194 ], [ -4.1228, 40.6175 ], [ -4.1238, 40.6159 ], [ -4.1235, 40.6145 ], [ -4.1235, 40.6133 ], [ -4.1238, 40.6121 ], [ -4.124, 40.6119 ], [ -4.1229, 40.6115 ], [ -4.1206, 40.612 ], [ -4.1194, 40.6125 ], [ -4.1183, 40.6126 ], [ -4.1183, 40.6127 ], [ -4.1156, 40.6128 ], [ -4.1151, 40.613 ], [ -4.1151, 40.6131 ], [ -4.1146, 40.6132 ], [ -4.1144, 40.6136 ], [ -4.1145, 40.6136 ] ] ] } },
{ "type": "Feature", "properties": { "municipio": "San Lorenzo de El Escorial", "clasificacion": "urbano-consolidado", "calificacion": "sin-asignar", "version": "vigente", "fuente": "SIT-CAM WFS — UsoDelSuelo:VPLA_V_CLASIFICACION (https://idem.comunidad.madrid/geosrvg/ows)", "fecha_dato": "2026-05-12", "ambito": "38609", "_raw_CD_SIGLAS": "SU", "_raw_DS_CLASIF_GEN": "Suelo Urbano", "_raw_DS_CLASIF_DET": "Suelo Urbano", "_raw_DS_DOCU": "NORMAS SUBSIDIARIAS", "_raw_DS_LEY": "CM Ley 9/1995, E RDL 1/1992", "_raw_FC_AC": "1999-02-25", "_raw_NM_AREA_M2": 3865.0530322065301, "_cam_code": "131" }, "geometry": { "type": "Polygon", "coordinates": [ [ [ -4.1466, 40.5944 ], [ -4.146, 40.5949 ], [ -4.1461, 40.595 ], [ -4.1461, 40.595 ], [ -4.1463, 40.595 ], [ -4.1463, 40.595 ], [ -4.1464, 40.595 ], [ -4.1464, 40.595 ], [ -4.1464, 40.595 ], [ -4.1465, 40.595 ], [ -4.1465, 40.595 ], [ -4.1465, 40.595 ], [ -4.1467, 40.595 ], [ -4.1467, 40.595 ], [ -4.1468, 40.595 ], [ -4.147, 40.595 ], [ -4.1471, 40.595 ], [ -4.147, 40.595 ], [ -4.147, 40.5946 ], [ -4.1466, 40.5944 ] ] ] } },
{ "type": "Feature", "properties": { "municipio": "San Lorenzo de El Escorial", "clasificacion": "urbano-consolidado", "calificacion": "sin-asignar", "version": "vigente", "fuente": "SIT-CAM WFS — UsoDelSuelo:VPLA_V_CLASIFICACION (https://idem.comunidad.madrid/geosrvg/ows)", "fecha_dato": "2026-05-12", "ambito": "38609", "_raw_CD_SIGLAS": "SU_A", "_raw_DS_CLASIF_GEN": "Suelo Urbano (APLAZADO)", "_raw_DS_CLASIF_DET": "Suelo Urbano", "_raw_DS_DOCU": "NORMAS SUBSIDIARIAS", "_raw_DS_LEY": "CM Ley 9/1995, E RDL 1/1992", "_raw_FC_AC": "1999-02-25", "_raw_NM_AREA_M2": 95425.104669378998, "_cam_code": "131" }, "geometry": { "type": "Polygon", "coordinates": [ [ [ -4.1194, 40.6061 ], [ -4.118, 40.6071 ], [ -4.1178, 40.6083 ], [ -4.1206, 40.6092 ], [ -4.1235, 40.6107 ], [ -4.1238, 40.6105 ], [ -4.1239, 40.6103 ], [ -4.1225, 40.6097 ], [ -4.1219, 40.609 ], [ -4.1216, 40.608 ], [ -4.1211, 40.6072 ], [ -4.1209, 40.6066 ], [ -4.1204, 40.6061 ], [ -4.1194, 40.6061 ] ] ] } },
{ "type": "Feature", "properties": { "municipio": "San Lorenzo de El Escorial", "clasificacion": "urbano-consolidado", "calificacion": "sin-asignar", "version": "vigente", "fuente": "SIT-CAM WFS — UsoDelSuelo:VPLA_V_CLASIFICACION (https://idem.comunidad.madrid/geosrvg/ows)", "fecha_dato": "2026-05-12", "ambito": "38609", "_raw_CD_SIGLAS": "SU_A", "_raw_DS_CLASIF_GEN": "Suelo Urbano (APLAZADO)", "_raw_DS_CLASIF_DET": "Suelo Urbano", "_raw_DS_DOCU": "NORMAS SUBSIDIARIAS", "_raw_DS_LEY": "CM Ley 9/1995, E RDL 1/1992", "_raw_FC_AC": "1999-02-25", "_raw_NM_AREA_M2": 318.20115663653399, "_cam_code": "131" }, "geometry": { "type": "Polygon", "coordinates": [ [ [ -4.1486, 40.5974 ], [ -4.1489, 40.5974 ], [ -4.1489, 40.5972 ], [ -4.1486, 40.5974 ] ] ] } },
{ "type": "Feature", "properties": { "municipio": "San Lorenzo de El Escorial", "clasificacion": "urbano-consolidado", "calificacion": "sin-asignar", "version": "vigente", "fuente": "SIT-CAM WFS — UsoDelSuelo:VPLA_V_CLASIFICACION (https://idem.comunidad.madrid/geosrvg/ows)", "fecha_dato": "2026-05-12", "ambito": "38609", "_raw_CD_SIGLAS": "SU_A", "_raw_DS_CLASIF_GEN": "Suelo Urbano (APLAZADO)", "_raw_DS_CLASIF_DET": "Suelo Urbano", "_raw_DS_DOCU": "NORMAS SUBSIDIARIAS", "_raw_DS_LEY": "CM Ley 9/1995, E RDL 1/1992", "_raw_FC_AC": "1999-02-25", "_raw_NM_AREA_M2": 3381.1138019780601, "_cam_code": "131" }, "geometry": { "type": "Polygon", "coordinates": [ [ [ -4.1458, 40.5987 ], [ -4.1456, 40.5989 ], [ -4.1454, 40.5989 ], [ -4.1455, 40.5992 ], [ -4.1476, 40.5979 ], [ -4.1458, 40.5987 ] ] ] } },
{ "type": "Feature", "properties": { "municipio": "San Lorenzo de El Escorial", "clasificacion": "urbano-consolidado", "calificacion": "sin-asignar", "version": "vigente", "fuente": "SIT-CAM WFS — UsoDelSuelo:VPLA_V_CLASIFICACION (https://idem.comunidad.madrid/geosrvg/ows)", "fecha_dato": "2026-05-12", "ambito": "38609", "_raw_CD_SIGLAS": "SU_A", "_raw_DS_CLASIF_GEN": "Suelo Urbano (APLAZADO)", "_raw_DS_CLASIF_DET": "Suelo Urbano", "_raw_DS_DOCU": "NORMAS SUBSIDIARIAS", "_raw_DS_LEY": "CM Ley 9/1995, E RDL 1/1992", "_raw_FC_AC": "1999-02-25", "_raw_NM_AREA_M2": 3513.6547424714199, "_cam_code": "131" }, "geometry": { "type": "Polygon", "coordinates": [ [ [ -4.1452, 40.597 ], [ -4.1457, 40.5965 ], [ -4.1453, 40.5963 ], [ -4.1447, 40.5968 ], [ -4.1452, 40.597 ] ] ] } },
{ "type": "Feature", "properties": { "municipio": "San Lorenzo de El Escorial", "clasificacion": "urbanizable-no-sectorizado", "calificacion": "sin-asignar", "version": "vigente", "fuente": "SIT-CAM WFS — UsoDelSuelo:VPLA_V_CLASIFICACION (https://idem.comunidad.madrid/geosrvg/ows)", "fecha_dato": "2026-05-12", "ambito": "38609", "_raw_CD_SIGLAS": "SUBNS_A", "_raw_DS_CLASIF_GEN": "Suelo No Urbanizable Común (APLAZADO)", "_raw_DS_CLASIF_DET": "Suelo No Urbanizable Común", "_raw_DS_DOCU": "NORMAS SUBSIDIARIAS", "_raw_DS_LEY": "CM Ley 9/1995, E RDL 1/1992", "_raw_FC_AC": "1999-02-25", "_raw_NM_AREA_M2": 200507.81075122699, "_cam_code": "131" }, "geometry": { "type": "Polygon", "coordinates": [ [ [ -4.0522, 40.6521 ], [ -4.0531, 40.6529 ], [ -4.0542, 40.6531 ], [ -4.0556, 40.6539 ], [ -4.0566, 40.6542 ], [ -4.0575, 40.6539 ], [ -4.0604, 40.6537 ], [ -4.0629, 40.6526 ], [ -4.0602, 40.6524 ], [ -4.0569, 40.6517 ], [ -4.052, 40.6499 ], [ -4.0497, 40.6494 ], [ -4.0514, 40.6506 ], [ -4.0522, 40.6519 ], [ -4.0522, 40.6521 ] ] ] } },
{ "type": "Feature", "properties": { "municipio": "San Lorenzo de El Escorial", "clasificacion": "urbanizable-sectorizado", "calificacion": "sin-asignar", "version": "vigente", "fuente": "SIT-CAM WFS — UsoDelSuelo:VPLA_V_CLASIFICACION (https://idem.comunidad.madrid/geosrvg/ows)", "fecha_dato": "2026-05-12", "ambito": "38609", "_raw_CD_SIGLAS": "SUBS_A", "_raw_DS_CLASIF_GEN": "Suelo Apto Para Urbanizar (APLAZADO)", "_raw_DS_CLASIF_DET": "Suelo Apto para Urbanizar", "_raw_DS_DOCU": "NORMAS SUBSIDIARIAS", "_raw_DS_LEY": "CM Ley 9/1995, E RDL 1/1992", "_raw_FC_AC": "1999-02-25", "_raw_NM_AREA_M2": 278062.355767334, "_cam_code": "131" }, "geometry": { "type": "Polygon", "coordinates": [ [ [ -4.1239, 40.6103 ], [ -4.1255, 40.6101 ], [ -4.1258, 40.6108 ], [ -4.1261, 40.6105 ], [ -4.1264, 40.6098 ], [ -4.1266, 40.6089 ], [ -4.1276, 40.6085 ], [ -4.1269, 40.6077 ], [ -4.1266, 40.6077 ], [ -4.1263, 40.6079 ], [ -4.126, 40.6078 ], [ -4.1259, 40.6072 ], [ -4.1258, 40.6069 ], [ -4.1256, 40.6068 ], [ -4.1255, 40.6063 ], [ -4.1247, 40.6063 ], [ -4.1227, 40.6053 ], [ -4.1228, 40.605 ], [ -4.122, 40.6037 ], [ -4.1221, 40.6034 ], [ -4.122, 40.6031 ], [ -4.1194, 40.6044 ], [ -4.1177, 40.6051 ], [ -4.1173, 40.6054 ], [ -4.1189, 40.6064 ], [ -4.1194, 40.6061 ], [ -4.1204, 40.6061 ], [ -4.1209, 40.6066 ], [ -4.1211, 40.6072 ], [ -4.1216, 40.608 ], [ -4.1219, 40.609 ], [ -4.1225, 40.6097 ], [ -4.1239, 40.6103 ] ] ] } },
{ "type": "Feature", "properties": { "municipio": "San Lorenzo de El Escorial", "clasificacion": "urbanizable-sectorizado", "calificacion": "sin-asignar", "version": "vigente", "fuente": "SIT-CAM WFS — UsoDelSuelo:VPLA_V_CLASIFICACION (https://idem.comunidad.madrid/geosrvg/ows)", "fecha_dato": "2026-05-12", "ambito": "38609", "_raw_CD_SIGLAS": "SUBS_A", "_raw_DS_CLASIF_GEN": "Suelo Apto Para Urbanizar (APLAZADO)", "_raw_DS_CLASIF_DET": "Suelo Apto para Urbanizar", "_raw_DS_DOCU": "NORMAS SUBSIDIARIAS", "_raw_DS_LEY": "CM Ley 9/1995, E RDL 1/1992", "_raw_FC_AC": "1999-02-25", "_raw_NM_AREA_M2": 386962.50065889402, "_cam_code": "131" }, "geometry": { "type": "Polygon", "coordinates": [ [ [ -4.0414, 40.6438 ], [ -4.0387, 40.6451 ], [ -4.0402, 40.6458 ], [ -4.044, 40.6471 ], [ -4.0497, 40.6494 ], [ -4.052, 40.6499 ], [ -4.056, 40.6514 ], [ -4.0565, 40.6499 ], [ -4.0558, 40.6499 ], [ -4.0554, 40.649 ], [ -4.0522, 40.6481 ], [ -4.0522, 40.6479 ], [ -4.0519, 40.6476 ], [ -4.0519, 40.647 ], [ -4.0432, 40.6442 ], [ -4.0414, 40.6438 ] ] ] } }
]
}
