{
"type": "FeatureCollection",
"name": "vigente.full",
"features": [
{ "type": "Feature", "properties": { "municipio": "Fresnedillas de la Oliva", "clasificacion": "no-urbanizable-protegido", "calificacion": "sin-asignar", "version": "vigente", "fuente": "SIT-CAM WFS — UsoDelSuelo:VPLA_V_CLASIFICACION (https://idem.comunidad.madrid/geosrvg/ows)", "fecha_dato": "2026-05-12", "ambito": "14022", "_raw_CD_SIGLAS": "SNUP", "_raw_DS_CLASIF_GEN": "Suelo No Urbanizable Protegido", "_raw_DS_CLASIF_DET": "Suelo No Urbanizable Especialmene Protegido por su Interés Ganadero", "_raw_DS_DOCU": "NORMAS SUBSIDIARIAS", "_raw_DS_LEY": "CM Ley 4/1984, E RD 1346/1976", "_raw_FC_AC": "1991-01-24", "_raw_NM_AREA_M2": 6107427.9377284804, "_cam_code": "056" }, "geometry": { "type": "Polygon", "coordinates": [ [ [ -4.1453, 40.5092 ], [ -4.1462, 40.5096 ], [ -4.1502, 40.5099 ], [ -4.1612, 40.5101 ], [ -4.1676, 40.5087 ], [ -4.1726, 40.5082 ], [ -4.1777, 40.5084 ], [ -4.1804, 40.5063 ], [ -4.1864, 40.5024 ], [ -4.1884, 40.5013 ], [ -4.1954, 40.4988 ], [ -4.1976, 40.4987 ], [ -4.1996, 40.5 ], [ -4.2026, 40.4991 ], [ -4.2012, 40.4975 ], [ -4.205, 40.498 ], [ -4.2051, 40.497 ], [ -4.2054, 40.4965 ], [ -4.2054, 40.4954 ], [ -4.205, 40.495 ], [ -4.205, 40.4947 ], [ -4.2045, 40.4945 ], [ -4.2042, 40.4942 ], [ -4.2026, 40.4941 ], [ -4.2022, 40.4943 ], [ -4.2012, 40.4944 ], [ -4.2003, 40.4949 ], [ -4.1993, 40.4951 ], [ -4.1992, 40.4948 ], [ -4.1987, 40.4952 ], [ -4.1963, 40.4964 ], [ -4.1924, 40.4964 ], [ -4.1909, 40.4961 ], [ -4.1894, 40.4955 ], [ -4.1868, 40.4955 ], [ -4.1865, 40.4956 ], [ -4.1851, 40.4949 ], [ -4.1832, 40.4949 ], [ -4.1821, 40.4946 ], [ -4.1809, 40.494 ], [ -4.1799, 40.493 ], [ -4.1793, 40.4926 ], [ -4.1787, 40.4924 ], [ -4.1778, 40.4915 ], [ -4.1772, 40.4913 ], [ -4.1769, 40.4905 ], [ -4.1767, 40.4905 ], [ -4.1765, 40.4903 ], [ -4.1767, 40.4902 ], [ -4.1767, 40.4899 ], [ -4.1754, 40.4901 ], [ -4.1748, 40.4908 ], [ -4.1743, 40.491 ], [ -4.1735, 40.4918 ], [ -4.1731, 40.492 ], [ -4.1714, 40.492 ], [ -4.1714, 40.4924 ], [ -4.172, 40.4926 ], [ -4.1715, 40.4931 ], [ -4.171, 40.493 ], [ -4.1711, 40.4928 ], [ -4.1703, 40.4922 ], [ -4.1692, 40.4923 ], [ -4.1688, 40.4928 ], [ -4.1684, 40.4929 ], [ -4.1673, 40.4928 ], [ -4.1667, 40.4929 ], [ -4.1659, 40.4927 ], [ -4.1654, 40.4924 ], [ -4.165, 40.4924 ], [ -4.1649, 40.4926 ], [ -4.1636, 40.4923 ], [ -4.1632, 40.492 ], [ -4.1635, 40.4917 ], [ -4.1631, 40.4916 ], [ -4.1629, 40.4918 ], [ -4.1624, 40.4917 ], [ -4.1626, 40.4915 ], [ -4.162, 40.4918 ], [ -4.1616, 40.4926 ], [ -4.1609, 40.4932 ], [ -4.1606, 40.4937 ], [ -4.1606, 40.4936 ], [ -4.1602, 40.4935 ], [ -4.1595, 40.4942 ], [ -4.1593, 40.4938 ], [ -4.1584, 40.4943 ], [ -4.1583, 40.4946 ], [ -4.1586, 40.495 ], [ -4.158, 40.4956 ], [ -4.1579, 40.4963 ], [ -4.157, 40.4969 ], [ -4.1561, 40.4972 ], [ -4.1558, 40.4978 ], [ -4.1546, 40.4993 ], [ -4.153, 40.4992 ], [ -4.1511, 40.4995 ], [ -4.1504, 40.4998 ], [ -4.1494, 40.4997 ], [ -4.1492, 40.5002 ], [ -4.148, 40.5011 ], [ -4.1473, 40.5014 ], [ -4.1472, 40.5017 ], [ -4.1469, 40.5018 ], [ -4.1464, 40.5023 ], [ -4.1459, 40.5025 ], [ -4.1437, 40.504 ], [ -4.1427, 40.505 ], [ -4.1422, 40.5053 ], [ -4.1414, 40.5062 ], [ -4.1412, 40.5062 ], [ -4.1421, 40.5066 ], [ -4.1421, 40.5071 ], [ -4.1422, 40.5071 ], [ -4.1423, 40.5074 ], [ -4.1425, 40.5076 ], [ -4.1428, 40.5076 ], [ -4.1428, 40.5078 ], [ -4.1436, 40.5085 ], [ -4.1447, 40.5091 ], [ -4.1453, 40.5092 ] ] ] } },
{ "type": "Feature", "properties": { "municipio": "Fresnedillas de la Oliva", "clasificacion": "no-urbanizable-protegido", "calificacion": "sin-asignar", "version": "vigente", "fuente": "SIT-CAM WFS — UsoDelSuelo:VPLA_V_CLASIFICACION (https://idem.comunidad.madrid/geosrvg/ows)", "fecha_dato": "2026-05-12", "ambito": "14022", "_raw_CD_SIGLAS": "SNUP", "_raw_DS_CLASIF_GEN": "Suelo No Urbanizable Protegido", "_raw_DS_CLASIF_DET": "Suelo No Urbanizable Especialmente Protegido por su Interés Natural", "_raw_DS_DOCU": "NORMAS SUBSIDIARIAS", "_raw_DS_LEY": "CM Ley 4/1984, E RD 1346/1976", "_raw_FC_AC": "1991-01-24", "_raw_NM_AREA_M2": 413369.04964132799, "_cam_code": "056" }, "geometry": { "type": "Polygon", "coordinates": [ [ [ -4.148, 40.4995 ], [ -4.149, 40.4998 ], [ -4.1491, 40.4994 ], [ -4.1499, 40.4988 ], [ -4.151, 40.4977 ], [ -4.1518, 40.4965 ], [ -4.1536, 40.4948 ], [ -4.1536, 40.4946 ], [ -4.1539, 40.4945 ], [ -4.1539, 40.4943 ], [ -4.1544, 40.4941 ], [ -4.1549, 40.4936 ], [ -4.1553, 40.4923 ], [ -4.1559, 40.4912 ], [ -4.1572, 40.4898 ], [ -4.1575, 40.489 ], [ -4.1562, 40.4856 ], [ -4.1561, 40.4847 ], [ -4.1556, 40.483 ], [ -4.1557, 40.4825 ], [ -4.1552, 40.4831 ], [ -4.1548, 40.4833 ], [ -4.1535, 40.4848 ], [ -4.1534, 40.4851 ], [ -4.1529, 40.4855 ], [ -4.1528, 40.4858 ], [ -4.1532, 40.4862 ], [ -4.1533, 40.4866 ], [ -4.1537, 40.4871 ], [ -4.1533, 40.4898 ], [ -4.1527, 40.4904 ], [ -4.1523, 40.4914 ], [ -4.1521, 40.4915 ], [ -4.152, 40.4918 ], [ -4.152, 40.492 ], [ -4.1522, 40.4922 ], [ -4.1521, 40.4928 ], [ -4.1524, 40.4932 ], [ -4.148, 40.4995 ] ] ] } },
{ "type": "Feature", "properties": { "municipio": "Fresnedillas de la Oliva", "clasificacion": "no-urbanizable-protegido", "calificacion": "sin-asignar", "version": "vigente", "fuente": "SIT-CAM WFS — UsoDelSuelo:VPLA_V_CLASIFICACION (https://idem.comunidad.madrid/geosrvg/ows)", "fecha_dato": "2026-05-12", "ambito": "14022", "_raw_CD_SIGLAS": "SNUP", "_raw_DS_CLASIF_GEN": "Suelo No Urbanizable Protegido", "_raw_DS_CLASIF_DET": "Suelo No Urbanizable Especialmente Protegido por su Interés Natural", "_raw_DS_DOCU": "NORMAS SUBSIDIARIAS", "_raw_DS_LEY": "CM Ley 4/1984, E RD 1346/1976", "_raw_FC_AC": "1991-01-24", "_raw_NM_AREA_M2": 17547171.526209801, "_cam_code": "056" }, "geometry": { "type": "Polygon", "coordinates": [ [ [ -4.1511, 40.4981 ], [ -4.1494, 40.4997 ], [ -4.1504, 40.4998 ], [ -4.1511, 40.4995 ], [ -4.153, 40.4992 ], [ -4.1546, 40.4993 ], [ -4.1558, 40.4978 ], [ -4.1561, 40.4972 ], [ -4.157, 40.4969 ], [ -4.1579, 40.4963 ], [ -4.158, 40.4956 ], [ -4.1586, 40.495 ], [ -4.1583, 40.4946 ], [ -4.1584, 40.4943 ], [ -4.1593, 40.4938 ], [ -4.1595, 40.4942 ], [ -4.1602, 40.4935 ], [ -4.1606, 40.4936 ], [ -4.1606, 40.4937 ], [ -4.1609, 40.4932 ], [ -4.1616, 40.4926 ], [ -4.162, 40.4918 ], [ -4.1626, 40.4915 ], [ -4.1631, 40.4909 ], [ -4.1626, 40.4908 ], [ -4.1628, 40.4906 ], [ -4.163, 40.4906 ], [ -4.1629, 40.4903 ], [ -4.1631, 40.4904 ], [ -4.1634, 40.4903 ], [ -4.1634, 40.4898 ], [ -4.1627, 40.4894 ], [ -4.1651, 40.489 ], [ -4.1646, 40.4888 ], [ -4.1646, 40.4886 ], [ -4.1645, 40.4886 ], [ -4.1647, 40.4881 ], [ -4.1641, 40.4874 ], [ -4.16, 40.4868 ], [ -4.1595, 40.4855 ], [ -4.159, 40.4851 ], [ -4.1594, 40.4848 ], [ -4.1594, 40.4843 ], [ -4.1586, 40.4836 ], [ -4.1582, 40.483 ], [ -4.1582, 40.482 ], [ -4.1593, 40.481 ], [ -4.1609, 40.4803 ], [ -4.1614, 40.4799 ], [ -4.1621, 40.4781 ], [ -4.1626, 40.4775 ], [ -4.1635, 40.4756 ], [ -4.1633, 40.4748 ], [ -4.1636, 40.4746 ], [ -4.1636, 40.4741 ], [ -4.1643, 40.4737 ], [ -4.1644, 40.4729 ], [ -4.1654, 40.4723 ], [ -4.166, 40.4722 ], [ -4.1673, 40.4715 ], [ -4.1679, 40.4706 ], [ -4.1693, 40.4703 ], [ -4.1702, 40.4692 ], [ -4.1711, 40.4694 ], [ -4.1722, 40.4699 ], [ -4.1729, 40.4696 ], [ -4.1729, 40.4684 ], [ -4.1731, 40.4669 ], [ -4.1728, 40.4663 ], [ -4.1726, 40.465 ], [ -4.1735, 40.4653 ], [ -4.1737, 40.4655 ], [ -4.1748, 40.4656 ], [ -4.175, 40.4658 ], [ -4.1755, 40.4657 ], [ -4.176, 40.4654 ], [ -4.1763, 40.4657 ], [ -4.1776, 40.4658 ], [ -4.1792, 40.4655 ], [ -4.1796, 40.466 ], [ -4.1795, 40.4664 ], [ -4.1792, 40.4668 ], [ -4.1804, 40.4672 ], [ -4.1813, 40.4677 ], [ -4.1819, 40.4677 ], [ -4.1818, 40.4687 ], [ -4.1825, 40.4689 ], [ -4.1824, 40.47 ], [ -4.1817, 40.4707 ], [ -4.1819, 40.4714 ], [ -4.1814, 40.4717 ], [ -4.1812, 40.4721 ], [ -4.1847, 40.4745 ], [ -4.1843, 40.4747 ], [ -4.1837, 40.4762 ], [ -4.183, 40.477 ], [ -4.1828, 40.4776 ], [ -4.1816, 40.478 ], [ -4.181, 40.4822 ], [ -4.1807, 40.4824 ], [ -4.1811, 40.4829 ], [ -4.18, 40.4831 ], [ -4.1801, 40.4834 ], [ -4.18, 40.4837 ], [ -4.1797, 40.4837 ], [ -4.1793, 40.4841 ], [ -4.1795, 40.4846 ], [ -4.1794, 40.485 ], [ -4.1788, 40.4852 ], [ -4.1781, 40.4849 ], [ -4.178, 40.4851 ], [ -4.1782, 40.4854 ], [ -4.1781, 40.4858 ], [ -4.1785, 40.4859 ], [ -4.1786, 40.4862 ], [ -4.1788, 40.4863 ], [ -4.1777, 40.4889 ], [ -4.1768, 40.489 ], [ -4.177, 40.4895 ], [ -4.1775, 40.4894 ], [ -4.1777, 40.4896 ], [ -4.178, 40.4897 ], [ -4.178, 40.4896 ], [ -4.1782, 40.4897 ], [ -4.1783, 40.4896 ], [ -4.1787, 40.4898 ], [ -4.1783, 40.4902 ], [ -4.1788, 40.4904 ], [ -4.1787, 40.4907 ], [ -4.1784, 40.491 ], [ -4.1785, 40.4914 ], [ -4.1779, 40.4917 ], [ -4.1787, 40.4924 ], [ -4.1793, 40.4926 ], [ -4.1799, 40.493 ], [ -4.1809, 40.494 ], [ -4.1821, 40.4946 ], [ -4.1832, 40.4949 ], [ -4.1851, 40.4949 ], [ -4.1865, 40.4956 ], [ -4.1868, 40.4955 ], [ -4.1894, 40.4955 ], [ -4.1909, 40.4961 ], [ -4.1924, 40.4964 ], [ -4.1963, 40.4964 ], [ -4.1987, 40.4952 ], [ -4.1992, 40.4948 ], [ -4.1993, 40.4951 ], [ -4.2003, 40.4949 ], [ -4.2012, 40.4944 ], [ -4.2022, 40.4943 ], [ -4.2026, 40.4941 ], [ -4.2042, 40.4942 ], [ -4.2045, 40.4945 ], [ -4.205, 40.4947 ], [ -4.205, 40.495 ], [ -4.2054, 40.4954 ], [ -4.2054, 40.4965 ], [ -4.2051, 40.497 ], [ -4.205, 40.498 ], [ -4.2079, 40.4985 ], [ -4.2081, 40.4982 ], [ -4.2082, 40.4976 ], [ -4.2086, 40.4969 ], [ -4.2086, 40.4965 ], [ -4.2088, 40.496 ], [ -4.2088, 40.494 ], [ -4.2085, 40.4929 ], [ -4.2084, 40.4914 ], [ -4.2087, 40.4909 ], [ -4.2087, 40.4904 ], [ -4.2091, 40.4901 ], [ -4.2092, 40.4898 ], [ -4.209, 40.4892 ], [ -4.2092, 40.489 ], [ -4.2097, 40.489 ], [ -4.2098, 40.4889 ], [ -4.2098, 40.4884 ], [ -4.2097, 40.4883 ], [ -4.2098, 40.4874 ], [ -4.2106, 40.4869 ], [ -4.2108, 40.4865 ], [ -4.2111, 40.4863 ], [ -4.2116, 40.4862 ], [ -4.2123, 40.4853 ], [ -4.2125, 40.4843 ], [ -4.2131, 40.4837 ], [ -4.2131, 40.4833 ], [ -4.2127, 40.4827 ], [ -4.2127, 40.4825 ], [ -4.213, 40.4823 ], [ -4.213, 40.4814 ], [ -4.2133, 40.4811 ], [ -4.2135, 40.4811 ], [ -4.2138, 40.4805 ], [ -4.2138, 40.48 ], [ -4.2134, 40.4795 ], [ -4.2136, 40.4793 ], [ -4.2135, 40.4786 ], [ -4.214, 40.4785 ], [ -4.2142, 40.4783 ], [ -4.2141, 40.4782 ], [ -4.2142, 40.4779 ], [ -4.214, 40.4776 ], [ -4.2142, 40.4769 ], [ -4.214, 40.4761 ], [ -4.2137, 40.4757 ], [ -4.2135, 40.4757 ], [ -4.2136, 40.4752 ], [ -4.2133, 40.4749 ], [ -4.2133, 40.4738 ], [ -4.2131, 40.4735 ], [ -4.2133, 40.4734 ], [ -4.2132, 40.473 ], [ -4.2143, 40.4719 ], [ -4.2142, 40.4715 ], [ -4.214, 40.4713 ], [ -4.214, 40.471 ], [ -4.2142, 40.4706 ], [ -4.2149, 40.4702 ], [ -4.2153, 40.4696 ], [ -4.2157, 40.4696 ], [ -4.216, 40.4693 ], [ -4.2157, 40.4677 ], [ -4.2153, 40.4672 ], [ -4.2153, 40.4669 ], [ -4.2155, 40.4667 ], [ -4.2155, 40.4663 ], [ -4.2152, 40.4661 ], [ -4.2151, 40.4654 ], [ -4.2144, 40.4651 ], [ -4.2143, 40.4649 ], [ -4.2144, 40.4649 ], [ -4.2149, 40.4641 ], [ -4.2149, 40.4637 ], [ -4.2147, 40.4635 ], [ -4.2145, 40.4628 ], [ -4.2147, 40.4625 ], [ -4.2151, 40.4624 ], [ -4.2153, 40.4622 ], [ -4.2155, 40.4616 ], [ -4.2153, 40.461 ], [ -4.2151, 40.4608 ], [ -4.2147, 40.4607 ], [ -4.2146, 40.4604 ], [ -4.2149, 40.46 ], [ -4.2153, 40.4601 ], [ -4.2163, 40.4597 ], [ -4.2164, 40.4595 ], [ -4.2167, 40.4594 ], [ -4.2169, 40.4588 ], [ -4.2172, 40.4588 ], [ -4.2179, 40.4579 ], [ -4.2183, 40.4577 ], [ -4.2182, 40.4575 ], [ -4.2179, 40.4574 ], [ -4.2178, 40.4569 ], [ -4.2176, 40.4568 ], [ -4.2181, 40.455 ], [ -4.217, 40.4523 ], [ -4.2148, 40.4482 ], [ -4.2144, 40.4478 ], [ -4.2085, 40.4515 ], [ -4.207, 40.4531 ], [ -4.2072, 40.454 ], [ -4.2059, 40.455 ], [ -4.2006, 40.4552 ], [ -4.1973, 40.4533 ], [ -4.1936, 40.4509 ], [ -4.1897, 40.4476 ], [ -4.185, 40.4449 ], [ -4.1818, 40.4433 ], [ -4.1804, 40.4416 ], [ -4.1759, 40.4388 ], [ -4.1751, 40.4386 ], [ -4.1748, 40.4382 ], [ -4.1737, 40.438 ], [ -4.1732, 40.4373 ], [ -4.1729, 40.4373 ], [ -4.1725, 40.4371 ], [ -4.1714, 40.4373 ], [ -4.1706, 40.437 ], [ -4.1698, 40.4369 ], [ -4.1697, 40.4377 ], [ -4.17, 40.4386 ], [ -4.1699, 40.4389 ], [ -4.1698, 40.4389 ], [ -4.1698, 40.4393 ], [ -4.1696, 40.4398 ], [ -4.1699, 40.4405 ], [ -4.1701, 40.4406 ], [ -4.1718, 40.4435 ], [ -4.1729, 40.4466 ], [ -4.1773, 40.4489 ], [ -4.1769, 40.4497 ], [ -4.1761, 40.452 ], [ -4.1758, 40.4534 ], [ -4.1742, 40.4547 ], [ -4.1741, 40.4549 ], [ -4.1743, 40.4554 ], [ -4.1749, 40.4557 ], [ -4.1755, 40.4557 ], [ -4.1756, 40.4558 ], [ -4.1753, 40.4569 ], [ -4.1754, 40.4577 ], [ -4.1752, 40.4593 ], [ -4.175, 40.4596 ], [ -4.1745, 40.4599 ], [ -4.1746, 40.4606 ], [ -4.1736, 40.4614 ], [ -4.1735, 40.4619 ], [ -4.1728, 40.462 ], [ -4.1724, 40.4622 ], [ -4.1724, 40.4627 ], [ -4.1719, 40.4636 ], [ -4.1714, 40.4638 ], [ -4.171, 40.4642 ], [ -4.17, 40.4646 ], [ -4.1691, 40.4646 ], [ -4.1689, 40.4644 ], [ -4.1685, 40.4644 ], [ -4.1684, 40.4646 ], [ -4.1679, 40.4647 ], [ -4.1673, 40.4646 ], [ -4.167, 40.4649 ], [ -4.1667, 40.465 ], [ -4.1658, 40.4651 ], [ -4.1653, 40.4657 ], [ -4.1648, 40.466 ], [ -4.164, 40.4661 ], [ -4.1638, 40.4662 ], [ -4.1636, 40.4667 ], [ -4.1625, 40.4671 ], [ -4.1628, 40.4683 ], [ -4.1628, 40.4692 ], [ -4.1621, 40.4716 ], [ -4.1615, 40.4727 ], [ -4.1614, 40.4737 ], [ -4.161, 40.4743 ], [ -4.1607, 40.4743 ], [ -4.1607, 40.4748 ], [ -4.16, 40.4758 ], [ -4.1594, 40.4777 ], [ -4.1583, 40.4784 ], [ -4.1573, 40.4793 ], [ -4.1567, 40.4802 ], [ -4.1564, 40.4813 ], [ -4.1562, 40.4816 ], [ -4.1563, 40.4823 ], [ -4.1561, 40.4825 ], [ -4.1561, 40.4829 ], [ -4.1564, 40.4844 ], [ -4.1566, 40.4848 ], [ -4.1566, 40.4853 ], [ -4.1571, 40.4868 ], [ -4.1575, 40.4877 ], [ -4.1574, 40.488 ], [ -4.1575, 40.4884 ], [ -4.1577, 40.4886 ], [ -4.1579, 40.4894 ], [ -4.1561, 40.4915 ], [ -4.155, 40.4942 ], [ -4.1541, 40.4948 ], [ -4.1537, 40.4953 ], [ -4.1531, 40.4957 ], [ -4.1517, 40.4972 ], [ -4.1511, 40.4981 ] ] ] } },
{ "type": "Feature", "properties": { "municipio": "Fresnedillas de la Oliva", "clasificacion": "no-urbanizable-protegido", "calificacion": "sin-asignar", "version": "vigente", "fuente": "SIT-CAM WFS — UsoDelSuelo:VPLA_V_CLASIFICACION (https://idem.comunidad.madrid/geosrvg/ows)", "fecha_dato": "2026-05-12", "ambito": "14022", "_raw_CD_SIGLAS": "SNUP", "_raw_DS_CLASIF_GEN": "Suelo No Urbanizable Protegido", "_raw_DS_CLASIF_DET": "Vía Pecuaria", "_raw_DS_DOCU": "NORMAS SUBSIDIARIAS", "_raw_DS_LEY": "CM Ley 4/1984, E RD 1346/1976", "_raw_FC_AC": "1991-01-24", "_raw_NM_AREA_M2": 129143.55554681399, "_cam_code": "056" }, "geometry": { "type": "Polygon", "coordinates": [ [ [ -4.1459, 40.5025 ], [ -4.1464, 40.5023 ], [ -4.1469, 40.5018 ], [ -4.1472, 40.5017 ], [ -4.1473, 40.5014 ], [ -4.148, 40.5011 ], [ -4.1492, 40.5002 ], [ -4.1494, 40.4996 ], [ -4.1511, 40.4981 ], [ -4.1517, 40.4972 ], [ -4.1526, 40.4962 ], [ -4.1537, 40.4953 ], [ -4.1541, 40.4948 ], [ -4.155, 40.4942 ], [ -4.1561, 40.4915 ], [ -4.1579, 40.4894 ], [ -4.1577, 40.4886 ], [ -4.1575, 40.4884 ], [ -4.1574, 40.488 ], [ -4.1575, 40.4877 ], [ -4.1571, 40.4868 ], [ -4.1566, 40.4853 ], [ -4.1566, 40.4848 ], [ -4.1564, 40.4844 ], [ -4.1561, 40.4829 ], [ -4.1561, 40.4825 ], [ -4.1563, 40.4823 ], [ -4.1562, 40.4816 ], [ -4.1564, 40.4813 ], [ -4.1567, 40.4802 ], [ -4.1573, 40.4793 ], [ -4.1583, 40.4784 ], [ -4.1594, 40.4777 ], [ -4.16, 40.4758 ], [ -4.1607, 40.4748 ], [ -4.1607, 40.4743 ], [ -4.161, 40.4743 ], [ -4.1614, 40.4737 ], [ -4.1615, 40.4727 ], [ -4.1621, 40.4716 ], [ -4.1628, 40.4692 ], [ -4.1628, 40.4683 ], [ -4.1625, 40.4671 ], [ -4.162, 40.467 ], [ -4.1624, 40.468 ], [ -4.1625, 40.4692 ], [ -4.162, 40.4712 ], [ -4.1614, 40.4725 ], [ -4.1611, 40.4737 ], [ -4.161, 40.4739 ], [ -4.1604, 40.4743 ], [ -4.1603, 40.4748 ], [ -4.1595, 40.4766 ], [ -4.1593, 40.4775 ], [ -4.1582, 40.4784 ], [ -4.1576, 40.4787 ], [ -4.1568, 40.4796 ], [ -4.1562, 40.4808 ], [ -4.1559, 40.4821 ], [ -4.156, 40.4825 ], [ -4.1557, 40.4825 ], [ -4.1556, 40.483 ], [ -4.1561, 40.4847 ], [ -4.1562, 40.4856 ], [ -4.1575, 40.489 ], [ -4.1572, 40.4898 ], [ -4.1559, 40.4912 ], [ -4.1553, 40.4923 ], [ -4.1549, 40.4936 ], [ -4.1544, 40.4941 ], [ -4.1539, 40.4943 ], [ -4.1539, 40.4945 ], [ -4.1536, 40.4946 ], [ -4.1536, 40.4948 ], [ -4.1518, 40.4965 ], [ -4.151, 40.4977 ], [ -4.1499, 40.4988 ], [ -4.1491, 40.4994 ], [ -4.149, 40.4998 ], [ -4.1481, 40.5007 ], [ -4.1475, 40.5009 ], [ -4.1462, 40.502 ], [ -4.1459, 40.5021 ], [ -4.1457, 40.5023 ], [ -4.1459, 40.5025 ] ] ] } },
{ "type": "Feature", "properties": { "municipio": "Fresnedillas de la Oliva", "clasificacion": "no-urbanizable-protegido", "calificacion": "sin-asignar", "version": "vigente", "fuente": "SIT-CAM WFS — UsoDelSuelo:VPLA_V_CLASIFICACION (https://idem.comunidad.madrid/geosrvg/ows)", "fecha_dato": "2026-05-12", "ambito": "14022", "_raw_CD_SIGLAS": "SNUP", "_raw_DS_CLASIF_GEN": "Suelo No Urbanizable Protegido", "_raw_DS_CLASIF_DET": "Suelo No Urbanizable Especialmene Protegido por su Interés Ganadero", "_raw_DS_DOCU": "NORMAS SUBSIDIARIAS", "_raw_DS_LEY": "CM Ley 4/1984, E RD 1346/1976", "_raw_FC_AC": "1991-01-24", "_raw_NM_AREA_M2": 18193.528789957101, "_cam_code": "056" }, "geometry": { "type": "Polygon", "coordinates": [ [ [ -4.148, 40.4995 ], [ -4.1472, 40.5005 ], [ -4.1457, 40.5023 ], [ -4.147, 40.5014 ], [ -4.1475, 40.5009 ], [ -4.1481, 40.5007 ], [ -4.149, 40.4998 ], [ -4.148, 40.4995 ] ] ] } },
{ "type": "Feature", "properties": { "municipio": "Fresnedillas de la Oliva", "clasificacion": "no-urbanizable-protegido", "calificacion": "sin-asignar", "version": "vigente", "fuente": "SIT-CAM WFS — UsoDelSuelo:VPLA_V_CLASIFICACION (https://idem.comunidad.madrid/geosrvg/ows)", "fecha_dato": "2026-05-12", "ambito": "14022", "_raw_CD_SIGLAS": "SNUP", "_raw_DS_CLASIF_GEN": "Suelo No Urbanizable Protegido", "_raw_DS_CLASIF_DET": "Suelo No Urbanizable Especialmene Protegido por su Interés Ganadero", "_raw_DS_DOCU": "NORMAS SUBSIDIARIAS", "_raw_DS_LEY": "CM Ley 4/1984, E RD 1346/1976", "_raw_FC_AC": "1991-01-24", "_raw_NM_AREA_M2": 2671815.9416487901, "_cam_code": "056" }, "geometry": { "type": "Polygon", "coordinates": [ [ [ -4.181, 40.4822 ], [ -4.1816, 40.478 ], [ -4.1828, 40.4776 ], [ -4.183, 40.477 ], [ -4.1837, 40.4762 ], [ -4.1843, 40.4747 ], [ -4.1847, 40.4745 ], [ -4.1812, 40.4721 ], [ -4.1814, 40.4717 ], [ -4.1819, 40.4714 ], [ -4.1817, 40.4707 ], [ -4.1824, 40.47 ], [ -4.1825, 40.4689 ], [ -4.1818, 40.4687 ], [ -4.1819, 40.4677 ], [ -4.1813, 40.4677 ], [ -4.1804, 40.4672 ], [ -4.1792, 40.4668 ], [ -4.1795, 40.4664 ], [ -4.1796, 40.466 ], [ -4.1792, 40.4655 ], [ -4.1776, 40.4658 ], [ -4.1763, 40.4657 ], [ -4.176, 40.4654 ], [ -4.1755, 40.4657 ], [ -4.175, 40.4658 ], [ -4.1748, 40.4656 ], [ -4.1737, 40.4655 ], [ -4.1735, 40.4653 ], [ -4.1726, 40.465 ], [ -4.1728, 40.4663 ], [ -4.1731, 40.4669 ], [ -4.1729, 40.4684 ], [ -4.1729, 40.4696 ], [ -4.1722, 40.4699 ], [ -4.1711, 40.4694 ], [ -4.1702, 40.4692 ], [ -4.1693, 40.4703 ], [ -4.1679, 40.4706 ], [ -4.1673, 40.4715 ], [ -4.166, 40.4722 ], [ -4.1654, 40.4723 ], [ -4.1644, 40.4729 ], [ -4.1643, 40.4737 ], [ -4.1636, 40.4741 ], [ -4.1636, 40.4746 ], [ -4.1633, 40.4748 ], [ -4.1635, 40.4756 ], [ -4.1626, 40.4775 ], [ -4.1621, 40.4781 ], [ -4.1614, 40.4799 ], [ -4.1609, 40.4803 ], [ -4.1593, 40.481 ], [ -4.1582, 40.482 ], [ -4.1582, 40.483 ], [ -4.1586, 40.4836 ], [ -4.1594, 40.4843 ], [ -4.1594, 40.4848 ], [ -4.159, 40.4851 ], [ -4.1595, 40.4855 ], [ -4.16, 40.4868 ], [ -4.1641, 40.4874 ], [ -4.1647, 40.4881 ], [ -4.1656, 40.487 ], [ -4.1668, 40.4865 ], [ -4.167, 40.486 ], [ -4.1676, 40.4857 ], [ -4.1679, 40.4857 ], [ -4.168, 40.4851 ], [ -4.1683, 40.4849 ], [ -4.1681, 40.4843 ], [ -4.1684, 40.484 ], [ -4.1683, 40.4838 ], [ -4.1691, 40.483 ], [ -4.1685, 40.4827 ], [ -4.1686, 40.4824 ], [ -4.1696, 40.4822 ], [ -4.1696, 40.4819 ], [ -4.1692, 40.4814 ], [ -4.1693, 40.4813 ], [ -4.1684, 40.4805 ], [ -4.1683, 40.48 ], [ -4.1699, 40.4798 ], [ -4.17, 40.4796 ], [ -4.1704, 40.4798 ], [ -4.1705, 40.4795 ], [ -4.1704, 40.4793 ], [ -4.1706, 40.479 ], [ -4.1705, 40.4788 ], [ -4.1708, 40.4786 ], [ -4.1717, 40.4787 ], [ -4.1727, 40.4791 ], [ -4.1736, 40.4791 ], [ -4.174, 40.4787 ], [ -4.1745, 40.4799 ], [ -4.1748, 40.4793 ], [ -4.1755, 40.4792 ], [ -4.1762, 40.4799 ], [ -4.1775, 40.4803 ], [ -4.1777, 40.4806 ], [ -4.1784, 40.4805 ], [ -4.1795, 40.4808 ], [ -4.1796, 40.4813 ], [ -4.18, 40.4814 ], [ -4.1801, 40.4817 ], [ -4.1801, 40.4819 ], [ -4.1799, 40.482 ], [ -4.181, 40.4822 ] ], [ [ -4.1672, 40.4811 ], [ -4.1679, 40.4813 ], [ -4.168, 40.4814 ], [ -4.1678, 40.4816 ], [ -4.1682, 40.482 ], [ -4.1676, 40.4826 ], [ -4.167, 40.4828 ], [ -4.1668, 40.482 ], [ -4.167, 40.4814 ], [ -4.1672, 40.4814 ], [ -4.1672, 40.4811 ] ] ] } },
{ "type": "Feature", "properties": { "municipio": "Fresnedillas de la Oliva", "clasificacion": "urbano-consolidado", "calificacion": "sin-asignar", "version": "vigente", "fuente": "SIT-CAM WFS — UsoDelSuelo:VPLA_V_CLASIFICACION (https://idem.comunidad.madrid/geosrvg/ows)", "fecha_dato": "2026-05-12", "ambito": "14022", "_raw_CD_SIGLAS": "SU", "_raw_DS_CLASIF_GEN": "Suelo Urbano", "_raw_DS_CLASIF_DET": "Suelo Urbano", "_raw_DS_DOCU": "NORMAS SUBSIDIARIAS", "_raw_DS_LEY": "CM Ley 4/1984, E RD 1346/1976", "_raw_FC_AC": "1991-01-24", "_raw_NM_AREA_M2": 164032.73284132799, "_cam_code": "056" }, "geometry": { "type": "Polygon", "coordinates": [ [ [ -4.1691, 40.483 ], [ -4.1683, 40.4838 ], [ -4.1684, 40.484 ], [ -4.1681, 40.4843 ], [ -4.1683, 40.4849 ], [ -4.168, 40.4851 ], [ -4.1679, 40.4857 ], [ -4.1676, 40.4857 ], [ -4.167, 40.486 ], [ -4.1668, 40.4865 ], [ -4.1656, 40.487 ], [ -4.1647, 40.4881 ], [ -4.1645, 40.4886 ], [ -4.1646, 40.4886 ], [ -4.1646, 40.4888 ], [ -4.1651, 40.489 ], [ -4.1652, 40.4889 ], [ -4.1648, 40.4888 ], [ -4.1649, 40.4885 ], [ -4.1654, 40.4886 ], [ -4.1653, 40.4887 ], [ -4.1657, 40.4886 ], [ -4.1663, 40.4887 ], [ -4.1669, 40.4883 ], [ -4.1676, 40.4883 ], [ -4.1677, 40.4878 ], [ -4.1681, 40.4873 ], [ -4.1683, 40.4866 ], [ -4.1686, 40.4861 ], [ -4.1693, 40.4856 ], [ -4.1694, 40.4854 ], [ -4.1693, 40.4851 ], [ -4.1696, 40.485 ], [ -4.1696, 40.4851 ], [ -4.1701, 40.4847 ], [ -4.17, 40.4836 ], [ -4.1704, 40.4835 ], [ -4.1705, 40.4838 ], [ -4.171, 40.4838 ], [ -4.171, 40.4837 ], [ -4.1713, 40.4841 ], [ -4.1717, 40.4837 ], [ -4.1723, 40.4837 ], [ -4.1733, 40.4827 ], [ -4.1714, 40.482 ], [ -4.1713, 40.4815 ], [ -4.1705, 40.4815 ], [ -4.1703, 40.4817 ], [ -4.1699, 40.4809 ], [ -4.1692, 40.4814 ], [ -4.1696, 40.4819 ], [ -4.1696, 40.4822 ], [ -4.1695, 40.4822 ], [ -4.1691, 40.483 ] ] ] } },
{ "type": "Feature", "properties": { "municipio": "Fresnedillas de la Oliva", "clasificacion": "urbano-consolidado", "calificacion": "sin-asignar", "version": "vigente", "fuente": "SIT-CAM WFS — UsoDelSuelo:VPLA_V_CLASIFICACION (https://idem.comunidad.madrid/geosrvg/ows)", "fecha_dato": "2026-05-12", "ambito": "14022", "_raw_CD_SIGLAS": "SU", "_raw_DS_CLASIF_GEN": "Suelo Urbano", "_raw_DS_CLASIF_DET": "Suelo Urbano", "_raw_DS_DOCU": "NORMAS SUBSIDIARIAS", "_raw_DS_LEY": "CM Ley 4/1984, E RD 1346/1976", "_raw_FC_AC": "1991-01-24", "_raw_NM_AREA_M2": 4426.91823409678, "_cam_code": "056" }, "geometry": { "type": "Polygon", "coordinates": [ [ [ -4.1695, 40.4822 ], [ -4.1686, 40.4824 ], [ -4.1685, 40.4827 ], [ -4.1691, 40.483 ], [ -4.1695, 40.4822 ] ] ] } },
{ "type": "Feature", "properties": { "municipio": "Fresnedillas de la Oliva", "clasificacion": "urbano-consolidado", "calificacion": "sin-asignar", "version": "vigente", "fuente": "SIT-CAM WFS — UsoDelSuelo:VPLA_V_CLASIFICACION (https://idem.comunidad.madrid/geosrvg/ows)", "fecha_dato": "2026-05-12", "ambito": "14022", "_raw_CD_SIGLAS": "SU", "_raw_DS_CLASIF_GEN": "Suelo Urbano", "_raw_DS_CLASIF_DET": "Suelo Urbano", "_raw_DS_DOCU": "NORMAS SUBSIDIARIAS", "_raw_DS_LEY": "CM Ley 4/1984, E RD 1346/1976", "_raw_FC_AC": "1991-01-24", "_raw_NM_AREA_M2": 635809.58715441404, "_cam_code": "056" }, "geometry": { "type": "Polygon", "coordinates": [ [ [ -4.1624, 40.4917 ], [ -4.1629, 40.4918 ], [ -4.1631, 40.4916 ], [ -4.1635, 40.4917 ], [ -4.1632, 40.492 ], [ -4.1636, 40.4923 ], [ -4.1649, 40.4926 ], [ -4.165, 40.4924 ], [ -4.1654, 40.4924 ], [ -4.1659, 40.4927 ], [ -4.1667, 40.4929 ], [ -4.1673, 40.4928 ], [ -4.1684, 40.4929 ], [ -4.1688, 40.4928 ], [ -4.1692, 40.4923 ], [ -4.1703, 40.4922 ], [ -4.1711, 40.4928 ], [ -4.171, 40.493 ], [ -4.1715, 40.4931 ], [ -4.172, 40.4926 ], [ -4.1714, 40.4924 ], [ -4.1714, 40.4919 ], [ -4.1715, 40.4919 ], [ -4.1719, 40.4908 ], [ -4.1724, 40.4908 ], [ -4.1725, 40.4899 ], [ -4.1727, 40.4896 ], [ -4.1723, 40.4896 ], [ -4.1723, 40.4894 ], [ -4.1727, 40.4893 ], [ -4.1732, 40.4889 ], [ -4.1731, 40.4887 ], [ -4.1734, 40.4886 ], [ -4.1734, 40.4885 ], [ -4.1761, 40.4888 ], [ -4.1766, 40.4891 ], [ -4.1767, 40.4902 ], [ -4.1765, 40.4903 ], [ -4.1767, 40.4905 ], [ -4.1769, 40.4905 ], [ -4.1772, 40.4913 ], [ -4.1778, 40.4915 ], [ -4.1779, 40.4917 ], [ -4.1785, 40.4914 ], [ -4.1784, 40.491 ], [ -4.1787, 40.4907 ], [ -4.1788, 40.4904 ], [ -4.1783, 40.4902 ], [ -4.1787, 40.4898 ], [ -4.1783, 40.4896 ], [ -4.1782, 40.4897 ], [ -4.1777, 40.4896 ], [ -4.1775, 40.4894 ], [ -4.177, 40.4895 ], [ -4.1768, 40.4891 ], [ -4.1771, 40.4887 ], [ -4.1773, 40.4881 ], [ -4.1774, 40.4881 ], [ -4.1775, 40.4874 ], [ -4.1761, 40.4872 ], [ -4.1759, 40.4887 ], [ -4.1747, 40.4885 ], [ -4.1746, 40.4879 ], [ -4.1742, 40.4878 ], [ -4.1742, 40.4875 ], [ -4.1743, 40.4875 ], [ -4.1742, 40.4873 ], [ -4.1743, 40.4873 ], [ -4.1743, 40.487 ], [ -4.1745, 40.487 ], [ -4.1747, 40.4872 ], [ -4.1751, 40.4872 ], [ -4.1754, 40.4874 ], [ -4.1753, 40.4856 ], [ -4.175, 40.4856 ], [ -4.1747, 40.4857 ], [ -4.1747, 40.4858 ], [ -4.1742, 40.4858 ], [ -4.1741, 40.4856 ], [ -4.1743, 40.4847 ], [ -4.1738, 40.4846 ], [ -4.1727, 40.4847 ], [ -4.173, 40.4835 ], [ -4.174, 40.4825 ], [ -4.1744, 40.4815 ], [ -4.1728, 40.4815 ], [ -4.1724, 40.4812 ], [ -4.1717, 40.4811 ], [ -4.1717, 40.4813 ], [ -4.1714, 40.4813 ], [ -4.1713, 40.4815 ], [ -4.1714, 40.482 ], [ -4.1733, 40.4827 ], [ -4.1723, 40.4837 ], [ -4.1717, 40.4837 ], [ -4.1713, 40.4841 ], [ -4.171, 40.4837 ], [ -4.171, 40.4838 ], [ -4.1705, 40.4838 ], [ -4.1704, 40.4835 ], [ -4.17, 40.4836 ], [ -4.1701, 40.4847 ], [ -4.1696, 40.4851 ], [ -4.1696, 40.485 ], [ -4.1693, 40.4851 ], [ -4.1694, 40.4854 ], [ -4.1693, 40.4856 ], [ -4.1686, 40.4861 ], [ -4.1683, 40.4866 ], [ -4.1681, 40.4873 ], [ -4.1677, 40.4878 ], [ -4.1676, 40.4883 ], [ -4.1669, 40.4883 ], [ -4.1663, 40.4887 ], [ -4.1657, 40.4886 ], [ -4.1653, 40.4887 ], [ -4.1654, 40.4886 ], [ -4.1649, 40.4885 ], [ -4.1648, 40.4888 ], [ -4.1652, 40.4889 ], [ -4.1651, 40.489 ], [ -4.1627, 40.4894 ], [ -4.1634, 40.4898 ], [ -4.1634, 40.4903 ], [ -4.1631, 40.4904 ], [ -4.1629, 40.4903 ], [ -4.163, 40.4906 ], [ -4.1628, 40.4906 ], [ -4.1626, 40.4908 ], [ -4.1631, 40.4909 ], [ -4.1627, 40.4913 ], [ -4.1626, 40.4916 ], [ -4.1624, 40.4917 ] ], [ [ -4.167, 40.4907 ], [ -4.166, 40.4906 ], [ -4.1659, 40.4905 ], [ -4.1659, 40.4899 ], [ -4.1663, 40.49 ], [ -4.1663, 40.4896 ], [ -4.1669, 40.4895 ], [ -4.1671, 40.4895 ], [ -4.1672, 40.4895 ], [ -4.1673, 40.4895 ], [ -4.1671, 40.4896 ], [ -4.1668, 40.4901 ], [ -4.1672, 40.4902 ], [ -4.167, 40.4907 ] ], [ [ -4.1675, 40.4895 ], [ -4.1673, 40.4891 ], [ -4.1675, 40.4889 ], [ -4.1676, 40.4885 ], [ -4.1685, 40.4888 ], [ -4.1684, 40.4894 ], [ -4.1685, 40.4895 ], [ -4.1687, 40.4894 ], [ -4.1685, 40.4897 ], [ -4.1673, 40.4902 ], [ -4.1672, 40.4899 ], [ -4.1675, 40.4895 ] ], [ [ -4.1672, 40.4907 ], [ -4.1674, 40.4903 ], [ -4.1678, 40.4902 ], [ -4.1684, 40.4898 ], [ -4.169, 40.4901 ], [ -4.1692, 40.4905 ], [ -4.1683, 40.4905 ], [ -4.1686, 40.491 ], [ -4.1684, 40.4912 ], [ -4.1682, 40.4912 ], [ -4.1682, 40.4914 ], [ -4.1676, 40.4911 ], [ -4.1672, 40.4907 ] ] ] } },
{ "type": "Feature", "properties": { "municipio": "Fresnedillas de la Oliva", "clasificacion": "urbano-consolidado", "calificacion": "sin-asignar", "version": "vigente", "fuente": "SIT-CAM WFS — UsoDelSuelo:VPLA_V_CLASIFICACION (https://idem.comunidad.madrid/geosrvg/ows)", "fecha_dato": "2026-05-12", "ambito": "14022", "_raw_CD_SIGLAS": "SU", "_raw_DS_CLASIF_GEN": "Suelo Urbano", "_raw_DS_CLASIF_DET": "Suelo Urbano", "_raw_DS_DOCU": "NORMAS SUBSIDIARIAS", "_raw_DS_LEY": "CM Ley 4/1984, E RD 1346/1976", "_raw_FC_AC": "1991-01-24", "_raw_NM_AREA_M2": 18091.0286341633, "_cam_code": "056" }, "geometry": { "type": "Polygon", "coordinates": [ [ [ -4.176, 40.4876 ], [ -4.1751, 40.4872 ], [ -4.1747, 40.4872 ], [ -4.1745, 40.487 ], [ -4.1743, 40.487 ], [ -4.1742, 40.4878 ], [ -4.1746, 40.4879 ], [ -4.1747, 40.4885 ], [ -4.1759, 40.4887 ], [ -4.176, 40.4876 ] ] ] } },
{ "type": "Feature", "properties": { "municipio": "Fresnedillas de la Oliva", "clasificacion": "urbano-consolidado", "calificacion": "sin-asignar", "version": "vigente", "fuente": "SIT-CAM WFS — UsoDelSuelo:VPLA_V_CLASIFICACION (https://idem.comunidad.madrid/geosrvg/ows)", "fecha_dato": "2026-05-12", "ambito": "14022", "_raw_CD_SIGLAS": "SU", "_raw_DS_CLASIF_GEN": "Suelo Urbano", "_raw_DS_CLASIF_DET": "Suelo Urbano", "_raw_DS_DOCU": "NORMAS SUBSIDIARIAS", "_raw_DS_LEY": "CM Ley 4/1984, E RD 1346/1976", "_raw_FC_AC": "1991-01-24", "_raw_NM_AREA_M2": 45108.072596846898, "_cam_code": "056" }, "geometry": { "type": "Polygon", "coordinates": [ [ [ -4.174, 40.4825 ], [ -4.173, 40.4835 ], [ -4.1727, 40.4847 ], [ -4.1734, 40.4846 ], [ -4.1743, 40.4847 ], [ -4.1741, 40.4857 ], [ -4.1742, 40.4858 ], [ -4.1747, 40.4858 ], [ -4.1747, 40.4857 ], [ -4.175, 40.4856 ], [ -4.1753, 40.4856 ], [ -4.1752, 40.484 ], [ -4.1751, 40.4836 ], [ -4.1748, 40.4833 ], [ -4.1747, 40.483 ], [ -4.174, 40.4825 ] ] ] } },
{ "type": "Feature", "properties": { "municipio": "Fresnedillas de la Oliva", "clasificacion": "urbano-consolidado", "calificacion": "sin-asignar", "version": "vigente", "fuente": "SIT-CAM WFS — UsoDelSuelo:VPLA_V_CLASIFICACION (https://idem.comunidad.madrid/geosrvg/ows)", "fecha_dato": "2026-05-12", "ambito": "14022", "_raw_CD_SIGLAS": "SU", "_raw_DS_CLASIF_GEN": "Suelo Urbano", "_raw_DS_CLASIF_DET": "Suelo Urbano", "_raw_DS_DOCU": "NORMAS SUBSIDIARIAS", "_raw_DS_LEY": "CM Ley 4/1984, E RD 1346/1976", "_raw_FC_AC": "1991-01-24", "_raw_NM_AREA_M2": 14590.6148491608, "_cam_code": "056" }, "geometry": { "type": "Polygon", "coordinates": [ [ [ -4.1672, 40.4907 ], [ -4.1676, 40.4911 ], [ -4.1682, 40.4914 ], [ -4.1682, 40.4912 ], [ -4.1684, 40.4912 ], [ -4.1686, 40.491 ], [ -4.1683, 40.4905 ], [ -4.1692, 40.4905 ], [ -4.169, 40.4901 ], [ -4.1684, 40.4898 ], [ -4.1678, 40.4902 ], [ -4.1674, 40.4903 ], [ -4.1672, 40.4907 ] ] ] } },
{ "type": "Feature", "properties": { "municipio": "Fresnedillas de la Oliva", "clasificacion": "urbano-consolidado", "calificacion": "sin-asignar", "version": "vigente", "fuente": "SIT-CAM WFS — UsoDelSuelo:VPLA_V_CLASIFICACION (https://idem.comunidad.madrid/geosrvg/ows)", "fecha_dato": "2026-05-12", "ambito": "14022", "_raw_CD_SIGLAS": "SU", "_raw_DS_CLASIF_GEN": "Suelo Urbano", "_raw_DS_CLASIF_DET": "Suelo Urbano", "_raw_DS_DOCU": "NORMAS SUBSIDIARIAS", "_raw_DS_LEY": "CM Ley 4/1984, E RD 1346/1976", "_raw_FC_AC": "1991-01-24", "_raw_NM_AREA_M2": 14293.953927857799, "_cam_code": "056" }, "geometry": { "type": "Polygon", "coordinates": [ [ [ -4.1672, 40.4811 ], [ -4.1672, 40.4814 ], [ -4.167, 40.4814 ], [ -4.1668, 40.482 ], [ -4.167, 40.4828 ], [ -4.1676, 40.4826 ], [ -4.1682, 40.482 ], [ -4.1678, 40.4816 ], [ -4.168, 40.4814 ], [ -4.1679, 40.4813 ], [ -4.1672, 40.4811 ] ] ] } },
{ "type": "Feature", "properties": { "municipio": "Fresnedillas de la Oliva", "clasificacion": "urbano-consolidado", "calificacion": "sin-asignar", "version": "vigente", "fuente": "SIT-CAM WFS — UsoDelSuelo:VPLA_V_CLASIFICACION (https://idem.comunidad.madrid/geosrvg/ows)", "fecha_dato": "2026-05-12", "ambito": "14022", "_raw_CD_SIGLAS": "SU", "_raw_DS_CLASIF_GEN": "Suelo Urbano", "_raw_DS_CLASIF_DET": "Suelo Urbano", "_raw_DS_DOCU": "NORMAS SUBSIDIARIAS", "_raw_DS_LEY": "CM Ley 4/1984, E RD 1346/1976", "_raw_FC_AC": "1991-01-24", "_raw_NM_AREA_M2": 13961.497627757401, "_cam_code": "056" }, "geometry": { "type": "Polygon", "coordinates": [ [ [ -4.1675, 40.4895 ], [ -4.1672, 40.4899 ], [ -4.1673, 40.4902 ], [ -4.1685, 40.4897 ], [ -4.1687, 40.4895 ], [ -4.1687, 40.4894 ], [ -4.1685, 40.4895 ], [ -4.1684, 40.4894 ], [ -4.1685, 40.4888 ], [ -4.1676, 40.4885 ], [ -4.1675, 40.4889 ], [ -4.1673, 40.4891 ], [ -4.1675, 40.4895 ] ] ] } },
{ "type": "Feature", "properties": { "municipio": "Fresnedillas de la Oliva", "clasificacion": "urbano-consolidado", "calificacion": "sin-asignar", "version": "vigente", "fuente": "SIT-CAM WFS — UsoDelSuelo:VPLA_V_CLASIFICACION (https://idem.comunidad.madrid/geosrvg/ows)", "fecha_dato": "2026-05-12", "ambito": "14022", "_raw_CD_SIGLAS": "SU", "_raw_DS_CLASIF_GEN": "Suelo Urbano", "_raw_DS_CLASIF_DET": "Suelo Urbano", "_raw_DS_DOCU": "NORMAS SUBSIDIARIAS", "_raw_DS_LEY": "CM Ley 4/1984, E RD 1346/1976", "_raw_FC_AC": "1991-01-24", "_raw_NM_AREA_M2": 10382.3327598089, "_cam_code": "056" }, "geometry": { "type": "Polygon", "coordinates": [ [ [ -4.166, 40.4906 ], [ -4.167, 40.4907 ], [ -4.1672, 40.4902 ], [ -4.1668, 40.4901 ], [ -4.1671, 40.4896 ], [ -4.1673, 40.4895 ], [ -4.1663, 40.4896 ], [ -4.1663, 40.49 ], [ -4.1659, 40.4899 ], [ -4.1659, 40.4905 ], [ -4.166, 40.4906 ] ] ] } },
{ "type": "Feature", "properties": { "municipio": "Fresnedillas de la Oliva", "clasificacion": "urbanizable-no-sectorizado", "calificacion": "sin-asignar", "version": "vigente", "fuente": "SIT-CAM WFS — UsoDelSuelo:VPLA_V_CLASIFICACION (https://idem.comunidad.madrid/geosrvg/ows)", "fecha_dato": "2026-05-12", "ambito": "14022", "_raw_CD_SIGLAS": "SUBNS", "_raw_DS_CLASIF_GEN": "Suelo No Urbanizable Común", "_raw_DS_CLASIF_DET": "Suelo No Urbanizable Común", "_raw_DS_DOCU": "NORMAS SUBSIDIARIAS", "_raw_DS_LEY": "CM Ley 4/1984, E RD 1346/1976", "_raw_FC_AC": "1991-01-24", "_raw_NM_AREA_M2": 440167.74156240601, "_cam_code": "056" }, "geometry": { "type": "Polygon", "coordinates": [ [ [ -4.1754, 40.4874 ], [ -4.1761, 40.4876 ], [ -4.1761, 40.4872 ], [ -4.1775, 40.4874 ], [ -4.1774, 40.4881 ], [ -4.1773, 40.4881 ], [ -4.1771, 40.4887 ], [ -4.1768, 40.489 ], [ -4.1777, 40.4889 ], [ -4.1788, 40.4863 ], [ -4.1786, 40.4862 ], [ -4.1785, 40.4859 ], [ -4.1781, 40.4858 ], [ -4.1782, 40.4854 ], [ -4.178, 40.4851 ], [ -4.1781, 40.4849 ], [ -4.1788, 40.4852 ], [ -4.1794, 40.485 ], [ -4.1795, 40.4846 ], [ -4.1793, 40.4841 ], [ -4.1797, 40.4837 ], [ -4.18, 40.4837 ], [ -4.1801, 40.4834 ], [ -4.18, 40.4831 ], [ -4.1811, 40.4829 ], [ -4.1807, 40.4824 ], [ -4.181, 40.4822 ], [ -4.1799, 40.482 ], [ -4.1801, 40.4819 ], [ -4.1801, 40.4817 ], [ -4.18, 40.4814 ], [ -4.1796, 40.4813 ], [ -4.1795, 40.4808 ], [ -4.1784, 40.4805 ], [ -4.1777, 40.4806 ], [ -4.1775, 40.4803 ], [ -4.1762, 40.4799 ], [ -4.1755, 40.4792 ], [ -4.1748, 40.4793 ], [ -4.1745, 40.4799 ], [ -4.174, 40.4787 ], [ -4.1736, 40.4791 ], [ -4.1727, 40.4791 ], [ -4.1717, 40.4787 ], [ -4.1708, 40.4786 ], [ -4.1705, 40.4788 ], [ -4.1706, 40.479 ], [ -4.1704, 40.4793 ], [ -4.1705, 40.4795 ], [ -4.1704, 40.4798 ], [ -4.17, 40.4796 ], [ -4.1699, 40.4798 ], [ -4.1683, 40.48 ], [ -4.1684, 40.4805 ], [ -4.1693, 40.4813 ], [ -4.1699, 40.4809 ], [ -4.1703, 40.4817 ], [ -4.1705, 40.4815 ], [ -4.1713, 40.4815 ], [ -4.1714, 40.4813 ], [ -4.1717, 40.4813 ], [ -4.1717, 40.4811 ], [ -4.1724, 40.4812 ], [ -4.1728, 40.4815 ], [ -4.1744, 40.4815 ], [ -4.174, 40.4825 ], [ -4.1747, 40.483 ], [ -4.1748, 40.4833 ], [ -4.1751, 40.4836 ], [ -4.1754, 40.4861 ], [ -4.1754, 40.4874 ] ] ] } },
{ "type": "Feature", "properties": { "municipio": "Fresnedillas de la Oliva", "clasificacion": "urbanizable-sectorizado", "calificacion": "sin-asignar", "version": "vigente", "fuente": "SIT-CAM WFS — UsoDelSuelo:VPLA_V_CLASIFICACION (https://idem.comunidad.madrid/geosrvg/ows)", "fecha_dato": "2026-05-12", "ambito": "14022", "_raw_CD_SIGLAS": "SUBS", "_raw_DS_CLASIF_GEN": "Suelo Apto Para Urbanizar", "_raw_DS_CLASIF_DET": "Suelo Urbanizable", "_raw_DS_DOCU": "NORMAS SUBSIDIARIAS", "_raw_DS_LEY": "CM Ley 4/1984, E RD 1346/1976", "_raw_FC_AC": "1991-01-24", "_raw_NM_AREA_M2": 94645.057315881306, "_cam_code": "056" }, "geometry": { "type": "Polygon", "coordinates": [ [ [ -4.1714, 40.492 ], [ -4.1731, 40.492 ], [ -4.1735, 40.4918 ], [ -4.1743, 40.491 ], [ -4.1748, 40.4908 ], [ -4.1754, 40.4901 ], [ -4.1767, 40.4899 ], [ -4.1766, 40.4891 ], [ -4.1761, 40.4888 ], [ -4.1734, 40.4885 ], [ -4.1734, 40.4886 ], [ -4.1731, 40.4887 ], [ -4.1732, 40.4889 ], [ -4.1727, 40.4893 ], [ -4.1723, 40.4894 ], [ -4.1723, 40.4896 ], [ -4.1727, 40.4896 ], [ -4.1725, 40.4899 ], [ -4.1724, 40.4908 ], [ -4.1719, 40.4908 ], [ -4.1714, 40.492 ] ] ] } }
]
}
