{
"type": "FeatureCollection",
"name": "vigente.full",
"features": [
{ "type": "Feature", "properties": { "municipio": "Santa María de la Alameda", "clasificacion": "urbano-consolidado", "calificacion": "sin-asignar", "version": "vigente", "fuente": "SIT-CAM WFS — UsoDelSuelo:VPLA_V_CLASIFICACION (https://idem.comunidad.madrid/geosrvg/ows)", "fecha_dato": "2026-05-12", "ambito": "17290", "_raw_CD_SIGLAS": "SU", "_raw_DS_CLASIF_GEN": "Suelo Urbano (INCORPORADO)", "_raw_DS_CLASIF_DET": "Suelo Urbano Ordenación Aprobada", "_raw_DS_DOCU": "PLAN PARCIAL", "_raw_DS_LEY": null, "_raw_FC_AC": "1968-10-28", "_raw_NM_AREA_M2": 280751.58239069098, "_cam_code": "135" }, "geometry": { "type": "Polygon", "coordinates": [ [ [ -4.2552, 40.5301 ], [ -4.2557, 40.5306 ], [ -4.256, 40.5312 ], [ -4.2567, 40.5317 ], [ -4.257, 40.5322 ], [ -4.2576, 40.5328 ], [ -4.2577, 40.5333 ], [ -4.258, 40.5338 ], [ -4.2581, 40.5344 ], [ -4.2581, 40.5358 ], [ -4.258, 40.5361 ], [ -4.2623, 40.536 ], [ -4.2636, 40.5368 ], [ -4.2639, 40.5368 ], [ -4.2642, 40.5362 ], [ -4.2638, 40.536 ], [ -4.2638, 40.5358 ], [ -4.2635, 40.5356 ], [ -4.2629, 40.5346 ], [ -4.2619, 40.5337 ], [ -4.2617, 40.5333 ], [ -4.2615, 40.5321 ], [ -4.2618, 40.5311 ], [ -4.2572, 40.5296 ], [ -4.2552, 40.5301 ] ] ] } },
{ "type": "Feature", "properties": { "municipio": "Santa María de la Alameda", "clasificacion": "urbano-consolidado", "calificacion": "sin-asignar", "version": "vigente", "fuente": "SIT-CAM WFS — UsoDelSuelo:VPLA_V_CLASIFICACION (https://idem.comunidad.madrid/geosrvg/ows)", "fecha_dato": "2026-05-12", "ambito": "133", "_raw_CD_SIGLAS": "SU", "_raw_DS_CLASIF_GEN": "Suelo Urbano", "_raw_DS_CLASIF_DET": "Suelo Urbano Casco Antiguo", "_raw_DS_DOCU": "NORMAS SUBSIDIARIAS", "_raw_DS_LEY": "CM Ley 4/1984, E RD 1346/1976", "_raw_FC_AC": "1977-05-09", "_raw_NM_AREA_M2": 16895.562809288, "_cam_code": "135" }, "geometry": { "type": "Polygon", "coordinates": [ [ [ -4.276, 40.6185 ], [ -4.2754, 40.6187 ], [ -4.275, 40.6191 ], [ -4.2759, 40.6196 ], [ -4.2765, 40.6194 ], [ -4.2771, 40.6194 ], [ -4.2775, 40.6191 ], [ -4.2772, 40.6188 ], [ -4.2766, 40.6185 ], [ -4.276, 40.6185 ] ] ] } },
{ "type": "Feature", "properties": { "municipio": "Santa María de la Alameda", "clasificacion": "urbano-consolidado", "calificacion": "sin-asignar", "version": "vigente", "fuente": "SIT-CAM WFS — UsoDelSuelo:VPLA_V_CLASIFICACION (https://idem.comunidad.madrid/geosrvg/ows)", "fecha_dato": "2026-05-12", "ambito": "133", "_raw_CD_SIGLAS": "SU", "_raw_DS_CLASIF_GEN": "Suelo Urbano", "_raw_DS_CLASIF_DET": "Suelo Urbano Ensanche", "_raw_DS_DOCU": "NORMAS SUBSIDIARIAS", "_raw_DS_LEY": "CM Ley 4/1984, E RD 1346/1976", "_raw_FC_AC": "1977-05-09", "_raw_NM_AREA_M2": 347627.11223034398, "_cam_code": "135" }, "geometry": { "type": "Polygon", "coordinates": [ [ [ -4.281, 40.5634 ], [ -4.28, 40.5633 ], [ -4.2797, 40.5636 ], [ -4.2795, 40.5641 ], [ -4.2795, 40.5645 ], [ -4.2802, 40.5645 ], [ -4.28, 40.5648 ], [ -4.28, 40.5652 ], [ -4.2805, 40.5658 ], [ -4.2808, 40.5665 ], [ -4.2817, 40.5671 ], [ -4.2839, 40.5675 ], [ -4.2845, 40.5678 ], [ -4.286, 40.5691 ], [ -4.2862, 40.5695 ], [ -4.2865, 40.5695 ], [ -4.2876, 40.5704 ], [ -4.2887, 40.5708 ], [ -4.289, 40.5708 ], [ -4.2885, 40.5703 ], [ -4.2884, 40.57 ], [ -4.2889, 40.5692 ], [ -4.2889, 40.5684 ], [ -4.2887, 40.5679 ], [ -4.2887, 40.5673 ], [ -4.289, 40.5672 ], [ -4.2893, 40.5666 ], [ -4.2895, 40.5665 ], [ -4.2895, 40.566 ], [ -4.2893, 40.5655 ], [ -4.2893, 40.5642 ], [ -4.2892, 40.5641 ], [ -4.2883, 40.5641 ], [ -4.2864, 40.5652 ], [ -4.2859, 40.5653 ], [ -4.2852, 40.565 ], [ -4.2848, 40.5646 ], [ -4.2842, 40.5645 ], [ -4.2838, 40.5638 ], [ -4.2833, 40.5638 ], [ -4.2828, 40.5636 ], [ -4.2828, 40.5637 ], [ -4.2818, 40.5639 ], [ -4.2818, 40.564 ], [ -4.2814, 40.564 ], [ -4.2812, 40.5639 ], [ -4.281, 40.5634 ] ] ] } },
{ "type": "Feature", "properties": { "municipio": "Santa María de la Alameda", "clasificacion": "urbano-consolidado", "calificacion": "sin-asignar", "version": "vigente", "fuente": "SIT-CAM WFS — UsoDelSuelo:VPLA_V_CLASIFICACION (https://idem.comunidad.madrid/geosrvg/ows)", "fecha_dato": "2026-05-12", "ambito": "133", "_raw_CD_SIGLAS": "SU", "_raw_DS_CLASIF_GEN": "Suelo Urbano", "_raw_DS_CLASIF_DET": "Suelo Urbano Casco Antiguo", "_raw_DS_DOCU": "NORMAS SUBSIDIARIAS", "_raw_DS_LEY": "CM Ley 4/1984, E RD 1346/1976", "_raw_FC_AC": "1977-05-09", "_raw_NM_AREA_M2": 38941.884136674104, "_cam_code": "135" }, "geometry": { "type": "Polygon", "coordinates": [ [ [ -4.2426, 40.5604 ], [ -4.2446, 40.5605 ], [ -4.2448, 40.5603 ], [ -4.2442, 40.5594 ], [ -4.2438, 40.5593 ], [ -4.2435, 40.559 ], [ -4.2435, 40.5586 ], [ -4.2418, 40.5588 ], [ -4.2417, 40.5598 ], [ -4.2419, 40.5602 ], [ -4.2418, 40.5605 ], [ -4.2426, 40.5604 ] ] ] } },
{ "type": "Feature", "properties": { "municipio": "Santa María de la Alameda", "clasificacion": "urbano-consolidado", "calificacion": "sin-asignar", "version": "vigente", "fuente": "SIT-CAM WFS — UsoDelSuelo:VPLA_V_CLASIFICACION (https://idem.comunidad.madrid/geosrvg/ows)", "fecha_dato": "2026-05-12", "ambito": "133", "_raw_CD_SIGLAS": "SU", "_raw_DS_CLASIF_GEN": "Suelo Urbano", "_raw_DS_CLASIF_DET": "Suelo Urbano Ensanche", "_raw_DS_DOCU": "NORMAS SUBSIDIARIAS", "_raw_DS_LEY": "CM Ley 4/1984, E RD 1346/1976", "_raw_FC_AC": "1977-05-09", "_raw_NM_AREA_M2": 410366.35578905698, "_cam_code": "135" }, "geometry": { "type": "Polygon", "coordinates": [ [ [ -4.2702, 40.5731 ], [ -4.2708, 40.5729 ], [ -4.271, 40.573 ], [ -4.2718, 40.5727 ], [ -4.2719, 40.5725 ], [ -4.2723, 40.5725 ], [ -4.2725, 40.5727 ], [ -4.2727, 40.5726 ], [ -4.2729, 40.572 ], [ -4.2728, 40.5715 ], [ -4.2724, 40.5708 ], [ -4.2717, 40.5701 ], [ -4.2717, 40.5702 ], [ -4.2716, 40.5694 ], [ -4.2683, 40.569 ], [ -4.2666, 40.569 ], [ -4.265, 40.5687 ], [ -4.2635, 40.5682 ], [ -4.2633, 40.568 ], [ -4.2621, 40.5675 ], [ -4.2616, 40.5671 ], [ -4.2613, 40.5671 ], [ -4.2602, 40.5667 ], [ -4.2596, 40.5663 ], [ -4.2594, 40.5658 ], [ -4.2592, 40.5657 ], [ -4.2589, 40.5666 ], [ -4.2587, 40.5668 ], [ -4.2579, 40.5671 ], [ -4.2575, 40.5675 ], [ -4.2574, 40.5678 ], [ -4.2575, 40.5683 ], [ -4.2582, 40.5686 ], [ -4.2584, 40.569 ], [ -4.2594, 40.5689 ], [ -4.262, 40.5698 ], [ -4.2635, 40.5707 ], [ -4.2637, 40.5707 ], [ -4.2655, 40.5722 ], [ -4.2677, 40.5725 ], [ -4.2678, 40.5724 ], [ -4.2678, 40.5725 ], [ -4.2688, 40.5725 ], [ -4.2702, 40.5731 ] ] ] } },
{ "type": "Feature", "properties": { "municipio": "Santa María de la Alameda", "clasificacion": "urbano-consolidado", "calificacion": "sin-asignar", "version": "vigente", "fuente": "SIT-CAM WFS — UsoDelSuelo:VPLA_V_CLASIFICACION (https://idem.comunidad.madrid/geosrvg/ows)", "fecha_dato": "2026-05-12", "ambito": "133", "_raw_CD_SIGLAS": "SU", "_raw_DS_CLASIF_GEN": "Suelo Urbano", "_raw_DS_CLASIF_DET": "Suelo Urbano Ensanche", "_raw_DS_DOCU": "NORMAS SUBSIDIARIAS", "_raw_DS_LEY": "CM Ley 4/1984, E RD 1346/1976", "_raw_FC_AC": "1977-05-09", "_raw_NM_AREA_M2": 118375.55277791301, "_cam_code": "135" }, "geometry": { "type": "Polygon", "coordinates": [ [ [ -4.2584, 40.5998 ], [ -4.2572, 40.6012 ], [ -4.2575, 40.6013 ], [ -4.2574, 40.6015 ], [ -4.2586, 40.6023 ], [ -4.2594, 40.6017 ], [ -4.2593, 40.6012 ], [ -4.2592, 40.6012 ], [ -4.2591, 40.6009 ], [ -4.2594, 40.6002 ], [ -4.2601, 40.5993 ], [ -4.261, 40.5987 ], [ -4.2613, 40.5979 ], [ -4.2615, 40.5954 ], [ -4.261, 40.5947 ], [ -4.2606, 40.595 ], [ -4.2592, 40.5955 ], [ -4.2594, 40.5958 ], [ -4.2592, 40.5965 ], [ -4.2592, 40.597 ], [ -4.2593, 40.5971 ], [ -4.2592, 40.5971 ], [ -4.2592, 40.5973 ], [ -4.2595, 40.5983 ], [ -4.2584, 40.5998 ] ] ] } },
{ "type": "Feature", "properties": { "municipio": "Santa María de la Alameda", "clasificacion": "urbano-consolidado", "calificacion": "sin-asignar", "version": "vigente", "fuente": "SIT-CAM WFS — UsoDelSuelo:VPLA_V_CLASIFICACION (https://idem.comunidad.madrid/geosrvg/ows)", "fecha_dato": "2026-05-12", "ambito": "133", "_raw_CD_SIGLAS": "SU", "_raw_DS_CLASIF_GEN": "Suelo Urbano", "_raw_DS_CLASIF_DET": "Suelo Urbano Casco Antiguo", "_raw_DS_DOCU": "NORMAS SUBSIDIARIAS", "_raw_DS_LEY": "CM Ley 4/1984, E RD 1346/1976", "_raw_FC_AC": "1977-05-09", "_raw_NM_AREA_M2": 107675.05417197201, "_cam_code": "135" }, "geometry": { "type": "Polygon", "coordinates": [ [ [ -4.2053, 40.5779 ], [ -4.2061, 40.578 ], [ -4.2068, 40.5784 ], [ -4.2066, 40.5785 ], [ -4.207, 40.5788 ], [ -4.2071, 40.5793 ], [ -4.2076, 40.5791 ], [ -4.2084, 40.579 ], [ -4.2086, 40.5787 ], [ -4.2091, 40.5785 ], [ -4.2091, 40.5779 ], [ -4.2094, 40.5777 ], [ -4.2095, 40.5766 ], [ -4.2093, 40.5764 ], [ -4.2088, 40.5764 ], [ -4.2086, 40.5767 ], [ -4.2073, 40.576 ], [ -4.2072, 40.5762 ], [ -4.2051, 40.5763 ], [ -4.2047, 40.5767 ], [ -4.2045, 40.5767 ], [ -4.2043, 40.5769 ], [ -4.204, 40.5769 ], [ -4.2037, 40.5772 ], [ -4.2034, 40.5772 ], [ -4.2031, 40.5777 ], [ -4.2031, 40.5778 ], [ -4.2043, 40.5778 ], [ -4.2043, 40.578 ], [ -4.2053, 40.5779 ] ] ] } },
{ "type": "Feature", "properties": { "municipio": "Santa María de la Alameda", "clasificacion": "urbano-consolidado", "calificacion": "sin-asignar", "version": "vigente", "fuente": "SIT-CAM WFS — UsoDelSuelo:VPLA_V_CLASIFICACION (https://idem.comunidad.madrid/geosrvg/ows)", "fecha_dato": "2026-05-12", "ambito": "133", "_raw_CD_SIGLAS": "SU", "_raw_DS_CLASIF_GEN": "Suelo Urbano", "_raw_DS_CLASIF_DET": "Suelo Urbano Casco Antiguo", "_raw_DS_DOCU": "NORMAS SUBSIDIARIAS", "_raw_DS_LEY": "CM Ley 4/1984, E RD 1346/1976", "_raw_FC_AC": "1977-05-09", "_raw_NM_AREA_M2": 49645.751183859298, "_cam_code": "135" }, "geometry": { "type": "Polygon", "coordinates": [ [ [ -4.2653, 40.5887 ], [ -4.2638, 40.5896 ], [ -4.2642, 40.5904 ], [ -4.2656, 40.5908 ], [ -4.2665, 40.5903 ], [ -4.2671, 40.5898 ], [ -4.2673, 40.5886 ], [ -4.2665, 40.5887 ], [ -4.2659, 40.5881 ], [ -4.2655, 40.5889 ], [ -4.2653, 40.5887 ] ] ] } },
{ "type": "Feature", "properties": { "municipio": "Santa María de la Alameda", "clasificacion": "urbano-consolidado", "calificacion": "sin-asignar", "version": "vigente", "fuente": "SIT-CAM WFS — UsoDelSuelo:VPLA_V_CLASIFICACION (https://idem.comunidad.madrid/geosrvg/ows)", "fecha_dato": "2026-05-12", "ambito": "133", "_raw_CD_SIGLAS": "SU", "_raw_DS_CLASIF_GEN": "Suelo Urbano", "_raw_DS_CLASIF_DET": "Suelo Urbano Casco Antiguo", "_raw_DS_DOCU": "NORMAS SUBSIDIARIAS", "_raw_DS_LEY": "CM Ley 4/1984, E RD 1346/1976", "_raw_FC_AC": "1977-05-09", "_raw_NM_AREA_M2": 25991.752403430201, "_cam_code": "135" }, "geometry": { "type": "Polygon", "coordinates": [ [ [ -4.2327, 40.5699 ], [ -4.2324, 40.5705 ], [ -4.2331, 40.5709 ], [ -4.2332, 40.5711 ], [ -4.233, 40.5716 ], [ -4.2339, 40.5717 ], [ -4.2339, 40.5716 ], [ -4.235, 40.571 ], [ -4.234, 40.57 ], [ -4.2327, 40.5699 ] ] ] } },
{ "type": "Feature", "properties": { "municipio": "Santa María de la Alameda", "clasificacion": "urbano-consolidado", "calificacion": "sin-asignar", "version": "vigente", "fuente": "SIT-CAM WFS — UsoDelSuelo:VPLA_V_CLASIFICACION (https://idem.comunidad.madrid/geosrvg/ows)", "fecha_dato": "2026-05-12", "ambito": "133", "_raw_CD_SIGLAS": "SU", "_raw_DS_CLASIF_GEN": "Suelo Urbano", "_raw_DS_CLASIF_DET": "Suelo Urbano Ensanche", "_raw_DS_DOCU": "NORMAS SUBSIDIARIAS", "_raw_DS_LEY": "CM Ley 4/1984, E RD 1346/1976", "_raw_FC_AC": "1977-05-09", "_raw_NM_AREA_M2": 577586.14601690497, "_cam_code": "135" }, "geometry": { "type": "Polygon", "coordinates": [ [ [ -4.2684, 40.5683 ], [ -4.2689, 40.5684 ], [ -4.2692, 40.5686 ], [ -4.2692, 40.568 ], [ -4.2702, 40.567 ], [ -4.2703, 40.5671 ], [ -4.2704, 40.567 ], [ -4.2704, 40.5671 ], [ -4.2707, 40.5668 ], [ -4.2707, 40.5666 ], [ -4.2708, 40.5666 ], [ -4.2709, 40.5662 ], [ -4.271, 40.5662 ], [ -4.271, 40.5657 ], [ -4.2712, 40.5652 ], [ -4.2713, 40.5652 ], [ -4.2718, 40.5641 ], [ -4.272, 40.5639 ], [ -4.2725, 40.5627 ], [ -4.2724, 40.5625 ], [ -4.2722, 40.5625 ], [ -4.2709, 40.5618 ], [ -4.27, 40.5617 ], [ -4.2697, 40.5615 ], [ -4.2694, 40.5612 ], [ -4.2695, 40.5607 ], [ -4.2697, 40.5605 ], [ -4.2694, 40.56 ], [ -4.2686, 40.5592 ], [ -4.2686, 40.5593 ], [ -4.2683, 40.5593 ], [ -4.2672, 40.5583 ], [ -4.266, 40.5582 ], [ -4.2645, 40.5588 ], [ -4.2639, 40.5593 ], [ -4.264, 40.5601 ], [ -4.2639, 40.5608 ], [ -4.2642, 40.5614 ], [ -4.2648, 40.5619 ], [ -4.2652, 40.5626 ], [ -4.2652, 40.5636 ], [ -4.2647, 40.565 ], [ -4.2632, 40.5665 ], [ -4.2626, 40.5673 ], [ -4.264, 40.5678 ], [ -4.2642, 40.568 ], [ -4.2647, 40.5681 ], [ -4.2649, 40.5683 ], [ -4.2657, 40.5684 ], [ -4.2681, 40.5684 ], [ -4.2684, 40.5683 ] ] ] } },
{ "type": "Feature", "properties": { "municipio": "Santa María de la Alameda", "clasificacion": "urbano-consolidado", "calificacion": "sin-asignar", "version": "vigente", "fuente": "SIT-CAM WFS — UsoDelSuelo:VPLA_V_CLASIFICACION (https://idem.comunidad.madrid/geosrvg/ows)", "fecha_dato": "2026-05-12", "ambito": "133", "_raw_CD_SIGLAS": "SU", "_raw_DS_CLASIF_GEN": "Suelo Urbano", "_raw_DS_CLASIF_DET": "Suelo Urbano Casco Antiguo", "_raw_DS_DOCU": "NORMAS SUBSIDIARIAS", "_raw_DS_LEY": "CM Ley 4/1984, E RD 1346/1976", "_raw_FC_AC": "1977-05-09", "_raw_NM_AREA_M2": 66799.606115074101, "_cam_code": "135" }, "geometry": { "type": "Polygon", "coordinates": [ [ [ -4.2604, 40.595 ], [ -4.2596, 40.5948 ], [ -4.2593, 40.5941 ], [ -4.2594, 40.5938 ], [ -4.259, 40.5937 ], [ -4.2589, 40.5937 ], [ -4.2586, 40.5946 ], [ -4.257, 40.5945 ], [ -4.257, 40.5947 ], [ -4.2564, 40.5952 ], [ -4.2564, 40.5953 ], [ -4.2574, 40.5957 ], [ -4.2575, 40.5964 ], [ -4.2574, 40.5964 ], [ -4.257, 40.5971 ], [ -4.257, 40.5973 ], [ -4.2577, 40.5976 ], [ -4.2584, 40.5974 ], [ -4.2585, 40.5972 ], [ -4.2593, 40.5971 ], [ -4.2592, 40.597 ], [ -4.2592, 40.5965 ], [ -4.2594, 40.5958 ], [ -4.2592, 40.5955 ], [ -4.2604, 40.595 ] ] ] } },
{ "type": "Feature", "properties": { "municipio": "Santa María de la Alameda", "clasificacion": "urbanizable-no-sectorizado", "calificacion": "sin-asignar", "version": "vigente", "fuente": "SIT-CAM WFS — UsoDelSuelo:VPLA_V_CLASIFICACION (https://idem.comunidad.madrid/geosrvg/ows)", "fecha_dato": "2026-05-12", "ambito": "133", "_raw_CD_SIGLAS": "SUBNS", "_raw_DS_CLASIF_GEN": "Suelo Rústico", "_raw_DS_CLASIF_DET": "Suelo Rústico", "_raw_DS_DOCU": "NORMAS SUBSIDIARIAS", "_raw_DS_LEY": "CM Ley 4/1984, E RD 1346/1976", "_raw_FC_AC": "1977-05-09", "_raw_NM_AREA_M2": 13543566.238484001, "_cam_code": "135" }, "geometry": { "type": "Polygon", "coordinates": [ [ [ -4.256, 40.6515 ], [ -4.2557, 40.6539 ], [ -4.2549, 40.6567 ], [ -4.2541, 40.6586 ], [ -4.2539, 40.6619 ], [ -4.2546, 40.6626 ], [ -4.2568, 40.6635 ], [ -4.2575, 40.6642 ], [ -4.2595, 40.6656 ], [ -4.2598, 40.6657 ], [ -4.2607, 40.6668 ], [ -4.263, 40.6691 ], [ -4.2645, 40.6702 ], [ -4.266, 40.6717 ], [ -4.2671, 40.6731 ], [ -4.2674, 40.674 ], [ -4.2674, 40.6745 ], [ -4.2718, 40.6762 ], [ -4.2734, 40.6764 ], [ -4.2741, 40.6771 ], [ -4.2775, 40.6779 ], [ -4.2816, 40.6805 ], [ -4.2839, 40.6808 ], [ -4.2848, 40.6812 ], [ -4.29, 40.6806 ], [ -4.2931, 40.6774 ], [ -4.3022, 40.673 ], [ -4.3098, 40.6699 ], [ -4.3162, 40.6667 ], [ -4.318, 40.6628 ], [ -4.3177, 40.6618 ], [ -4.3191, 40.6604 ], [ -4.3241, 40.658 ], [ -4.3239, 40.6559 ], [ -4.3232, 40.6534 ], [ -4.3222, 40.6511 ], [ -4.3195, 40.6477 ], [ -4.317, 40.6479 ], [ -4.3131, 40.6487 ], [ -4.3107, 40.6494 ], [ -4.3053, 40.6503 ], [ -4.3037, 40.6509 ], [ -4.301, 40.6515 ], [ -4.2955, 40.652 ], [ -4.2902, 40.6521 ], [ -4.2879, 40.6529 ], [ -4.284, 40.6529 ], [ -4.2832, 40.653 ], [ -4.2797, 40.6525 ], [ -4.2775, 40.6524 ], [ -4.2755, 40.6526 ], [ -4.2733, 40.653 ], [ -4.2716, 40.653 ], [ -4.2704, 40.6528 ], [ -4.2697, 40.6529 ], [ -4.2697, 40.653 ], [ -4.2693, 40.6531 ], [ -4.2665, 40.6531 ], [ -4.2635, 40.652 ], [ -4.2622, 40.6517 ], [ -4.2582, 40.6518 ], [ -4.256, 40.6515 ] ] ] } },
{ "type": "Feature", "properties": { "municipio": "Santa María de la Alameda", "clasificacion": "urbanizable-no-sectorizado", "calificacion": "sin-asignar", "version": "vigente", "fuente": "SIT-CAM WFS — UsoDelSuelo:VPLA_V_CLASIFICACION (https://idem.comunidad.madrid/geosrvg/ows)", "fecha_dato": "2026-05-12", "ambito": "133", "_raw_CD_SIGLAS": "SUBNS", "_raw_DS_CLASIF_GEN": "Suelo Rústico", "_raw_DS_CLASIF_DET": "Suelo Rústico", "_raw_DS_DOCU": "NORMAS SUBSIDIARIAS", "_raw_DS_LEY": "CM Ley 4/1984, E RD 1346/1976", "_raw_FC_AC": "1977-05-09", "_raw_NM_AREA_M2": 60111130.895821802, "_cam_code": "135" }, "geometry": { "type": "Polygon", "coordinates": [ [ [ -4.2748, 40.6293 ], [ -4.2762, 40.6297 ], [ -4.2775, 40.6303 ], [ -4.2785, 40.6306 ], [ -4.2796, 40.6306 ], [ -4.2817, 40.631 ], [ -4.2838, 40.6311 ], [ -4.2842, 40.6313 ], [ -4.2837, 40.6291 ], [ -4.2875, 40.629 ], [ -4.2907, 40.6278 ], [ -4.2904, 40.6276 ], [ -4.2893, 40.6274 ], [ -4.2891, 40.6272 ], [ -4.289, 40.6269 ], [ -4.2893, 40.6263 ], [ -4.2893, 40.6257 ], [ -4.2885, 40.6248 ], [ -4.2889, 40.6244 ], [ -4.289, 40.6241 ], [ -4.2889, 40.6237 ], [ -4.2887, 40.6236 ], [ -4.2886, 40.6233 ], [ -4.2886, 40.6226 ], [ -4.2889, 40.6223 ], [ -4.2889, 40.6219 ], [ -4.2893, 40.6212 ], [ -4.2889, 40.6203 ], [ -4.2889, 40.62 ], [ -4.2891, 40.6197 ], [ -4.2894, 40.6196 ], [ -4.2895, 40.6193 ], [ -4.2894, 40.6187 ], [ -4.2889, 40.6182 ], [ -4.2885, 40.6172 ], [ -4.2886, 40.6169 ], [ -4.2892, 40.6164 ], [ -4.2893, 40.6161 ], [ -4.289, 40.6151 ], [ -4.2886, 40.6144 ], [ -4.2892, 40.6132 ], [ -4.2892, 40.6125 ], [ -4.289, 40.612 ], [ -4.2892, 40.6114 ], [ -4.2895, 40.6107 ], [ -4.2904, 40.6098 ], [ -4.2905, 40.6095 ], [ -4.2904, 40.6094 ], [ -4.2904, 40.6089 ], [ -4.2903, 40.6089 ], [ -4.2902, 40.6079 ], [ -4.2894, 40.6068 ], [ -4.289, 40.6065 ], [ -4.2885, 40.6065 ], [ -4.2868, 40.6059 ], [ -4.2844, 40.606 ], [ -4.2842, 40.6058 ], [ -4.2833, 40.6056 ], [ -4.2832, 40.6054 ], [ -4.2825, 40.6049 ], [ -4.2812, 40.6049 ], [ -4.2807, 40.6046 ], [ -4.28, 40.6045 ], [ -4.2798, 40.6043 ], [ -4.2788, 40.6042 ], [ -4.2787, 40.6035 ], [ -4.2785, 40.6032 ], [ -4.2788, 40.6025 ], [ -4.2787, 40.6024 ], [ -4.2787, 40.6018 ], [ -4.2788, 40.6017 ], [ -4.2789, 40.6007 ], [ -4.2803, 40.5995 ], [ -4.2808, 40.5984 ], [ -4.2815, 40.5979 ], [ -4.2817, 40.5971 ], [ -4.2824, 40.5966 ], [ -4.2826, 40.5963 ], [ -4.2833, 40.5959 ], [ -4.2835, 40.5956 ], [ -4.2834, 40.5953 ], [ -4.2831, 40.5951 ], [ -4.2831, 40.5948 ], [ -4.2834, 40.5946 ], [ -4.2834, 40.5941 ], [ -4.2828, 40.5936 ], [ -4.2827, 40.5929 ], [ -4.2823, 40.5921 ], [ -4.2824, 40.5918 ], [ -4.2829, 40.5916 ], [ -4.283, 40.5914 ], [ -4.2829, 40.5909 ], [ -4.283, 40.59 ], [ -4.2824, 40.5898 ], [ -4.2818, 40.5898 ], [ -4.2812, 40.5891 ], [ -4.2811, 40.5888 ], [ -4.2825, 40.5878 ], [ -4.2831, 40.5871 ], [ -4.283, 40.5866 ], [ -4.2826, 40.5863 ], [ -4.2824, 40.5859 ], [ -4.2825, 40.5854 ], [ -4.2832, 40.585 ], [ -4.2839, 40.5841 ], [ -4.2852, 40.583 ], [ -4.2854, 40.5826 ], [ -4.2852, 40.5815 ], [ -4.2853, 40.5805 ], [ -4.2857, 40.5795 ], [ -4.2863, 40.5767 ], [ -4.2869, 40.5757 ], [ -4.2868, 40.5746 ], [ -4.2877, 40.5732 ], [ -4.2881, 40.5723 ], [ -4.2889, 40.5715 ], [ -4.289, 40.5708 ], [ -4.2887, 40.5708 ], [ -4.2876, 40.5704 ], [ -4.2865, 40.5695 ], [ -4.2862, 40.5695 ], [ -4.286, 40.5691 ], [ -4.2845, 40.5678 ], [ -4.2839, 40.5675 ], [ -4.2817, 40.5671 ], [ -4.2807, 40.5664 ], [ -4.2805, 40.5658 ], [ -4.28, 40.5652 ], [ -4.28, 40.5648 ], [ -4.2802, 40.5645 ], [ -4.2795, 40.5645 ], [ -4.2795, 40.5641 ], [ -4.2797, 40.5636 ], [ -4.28, 40.5633 ], [ -4.281, 40.5634 ], [ -4.2806, 40.5623 ], [ -4.2788, 40.562 ], [ -4.278, 40.5623 ], [ -4.2775, 40.5628 ], [ -4.2772, 40.5629 ], [ -4.2759, 40.5632 ], [ -4.2741, 40.5634 ], [ -4.2739, 40.5632 ], [ -4.2738, 40.5628 ], [ -4.2736, 40.5614 ], [ -4.2725, 40.5614 ], [ -4.2717, 40.5617 ], [ -4.2707, 40.5617 ], [ -4.2697, 40.5614 ], [ -4.2696, 40.5613 ], [ -4.2697, 40.5606 ], [ -4.2705, 40.5604 ], [ -4.2709, 40.56 ], [ -4.2709, 40.5597 ], [ -4.2707, 40.5595 ], [ -4.2707, 40.5593 ], [ -4.2709, 40.5592 ], [ -4.2709, 40.5582 ], [ -4.2707, 40.5569 ], [ -4.2704, 40.5563 ], [ -4.2695, 40.5553 ], [ -4.269, 40.555 ], [ -4.2681, 40.5548 ], [ -4.2679, 40.5546 ], [ -4.2681, 40.5533 ], [ -4.2684, 40.5528 ], [ -4.2689, 40.5524 ], [ -4.269, 40.5521 ], [ -4.2692, 40.5513 ], [ -4.2692, 40.5507 ], [ -4.2688, 40.5502 ], [ -4.2679, 40.5502 ], [ -4.2675, 40.5504 ], [ -4.2671, 40.5503 ], [ -4.2667, 40.5499 ], [ -4.2662, 40.5484 ], [ -4.2659, 40.5481 ], [ -4.265, 40.5481 ], [ -4.2645, 40.5485 ], [ -4.2626, 40.5484 ], [ -4.2606, 40.5489 ], [ -4.2601, 40.5489 ], [ -4.2599, 40.5487 ], [ -4.2599, 40.5482 ], [ -4.2595, 40.5473 ], [ -4.2588, 40.5467 ], [ -4.2585, 40.5467 ], [ -4.2585, 40.5468 ], [ -4.2582, 40.5469 ], [ -4.2572, 40.5479 ], [ -4.2567, 40.5481 ], [ -4.2562, 40.548 ], [ -4.2563, 40.5477 ], [ -4.2569, 40.5471 ], [ -4.2569, 40.545 ], [ -4.257, 40.5447 ], [ -4.2574, 40.5444 ], [ -4.2587, 40.5442 ], [ -4.259, 40.5439 ], [ -4.259, 40.5434 ], [ -4.2589, 40.5433 ], [ -4.259, 40.5427 ], [ -4.26, 40.5419 ], [ -4.2606, 40.5418 ], [ -4.2616, 40.542 ], [ -4.2651, 40.543 ], [ -4.2683, 40.5431 ], [ -4.2696, 40.5426 ], [ -4.2705, 40.5425 ], [ -4.2714, 40.5416 ], [ -4.2715, 40.541 ], [ -4.2709, 40.5402 ], [ -4.2702, 40.5399 ], [ -4.2692, 40.5399 ], [ -4.2685, 40.5402 ], [ -4.2685, 40.5403 ], [ -4.2678, 40.5401 ], [ -4.2678, 40.5399 ], [ -4.2683, 40.539 ], [ -4.2683, 40.5385 ], [ -4.2677, 40.5381 ], [ -4.2676, 40.5379 ], [ -4.2642, 40.5362 ], [ -4.2639, 40.5368 ], [ -4.2636, 40.5368 ], [ -4.2623, 40.536 ], [ -4.258, 40.5361 ], [ -4.2581, 40.5358 ], [ -4.2581, 40.5344 ], [ -4.258, 40.5338 ], [ -4.2577, 40.5333 ], [ -4.2576, 40.5328 ], [ -4.257, 40.5322 ], [ -4.2567, 40.5317 ], [ -4.256, 40.5312 ], [ -4.2557, 40.5306 ], [ -4.2552, 40.5301 ], [ -4.2488, 40.5322 ], [ -4.2453, 40.5313 ], [ -4.2429, 40.5301 ], [ -4.2398, 40.5302 ], [ -4.2349, 40.5307 ], [ -4.232, 40.5317 ], [ -4.2237, 40.5395 ], [ -4.2189, 40.543 ], [ -4.2136, 40.5551 ], [ -4.1971, 40.5589 ], [ -4.1957, 40.5596 ], [ -4.1941, 40.56 ], [ -4.1929, 40.5608 ], [ -4.1896, 40.5614 ], [ -4.1879, 40.5635 ], [ -4.1853, 40.5651 ], [ -4.1815, 40.5666 ], [ -4.1802, 40.5679 ], [ -4.1768, 40.5702 ], [ -4.1733, 40.571 ], [ -4.1707, 40.5708 ], [ -4.1697, 40.571 ], [ -4.1673, 40.5712 ], [ -4.1683, 40.5731 ], [ -4.1698, 40.5746 ], [ -4.1707, 40.576 ], [ -4.1712, 40.5758 ], [ -4.1712, 40.5757 ], [ -4.172, 40.5756 ], [ -4.172, 40.5755 ], [ -4.1727, 40.5756 ], [ -4.1727, 40.5757 ], [ -4.1737, 40.5757 ], [ -4.1741, 40.5756 ], [ -4.1743, 40.5754 ], [ -4.1747, 40.5755 ], [ -4.175, 40.5752 ], [ -4.1755, 40.5751 ], [ -4.1755, 40.575 ], [ -4.1773, 40.5749 ], [ -4.1773, 40.5748 ], [ -4.1779, 40.5747 ], [ -4.1779, 40.5745 ], [ -4.1781, 40.5744 ], [ -4.1789, 40.5744 ], [ -4.1789, 40.5742 ], [ -4.1791, 40.574 ], [ -4.1794, 40.574 ], [ -4.1795, 40.5737 ], [ -4.1799, 40.5735 ], [ -4.18, 40.5732 ], [ -4.1803, 40.5731 ], [ -4.1803, 40.5729 ], [ -4.1805, 40.5727 ], [ -4.1805, 40.5725 ], [ -4.1807, 40.5724 ], [ -4.1808, 40.572 ], [ -4.1811, 40.5717 ], [ -4.1814, 40.5716 ], [ -4.1814, 40.5712 ], [ -4.1817, 40.5712 ], [ -4.1821, 40.5709 ], [ -4.1826, 40.5709 ], [ -4.1826, 40.571 ], [ -4.1831, 40.5708 ], [ -4.1831, 40.5706 ], [ -4.1829, 40.5704 ], [ -4.1831, 40.5704 ], [ -4.1833, 40.5702 ], [ -4.1833, 40.5699 ], [ -4.1835, 40.5699 ], [ -4.1836, 40.5693 ], [ -4.1841, 40.5693 ], [ -4.1842, 40.5691 ], [ -4.1847, 40.569 ], [ -4.1851, 40.5686 ], [ -4.1852, 40.5682 ], [ -4.1856, 40.5682 ], [ -4.1859, 40.5678 ], [ -4.1862, 40.5678 ], [ -4.1864, 40.5676 ], [ -4.1864, 40.5674 ], [ -4.1866, 40.5672 ], [ -4.1869, 40.5672 ], [ -4.1873, 40.5667 ], [ -4.1875, 40.5667 ], [ -4.1877, 40.5665 ], [ -4.188, 40.5665 ], [ -4.1885, 40.566 ], [ -4.1897, 40.5656 ], [ -4.1897, 40.5655 ], [ -4.1907, 40.5651 ], [ -4.1907, 40.565 ], [ -4.191, 40.565 ], [ -4.191, 40.5649 ], [ -4.1914, 40.5649 ], [ -4.1917, 40.5651 ], [ -4.1928, 40.5654 ], [ -4.1928, 40.5655 ], [ -4.1938, 40.5657 ], [ -4.1938, 40.5658 ], [ -4.1941, 40.5658 ], [ -4.1941, 40.5659 ], [ -4.1945, 40.5659 ], [ -4.1945, 40.566 ], [ -4.1958, 40.5659 ], [ -4.1969, 40.5662 ], [ -4.1969, 40.5663 ], [ -4.1971, 40.5663 ], [ -4.1979, 40.5668 ], [ -4.1983, 40.5674 ], [ -4.1988, 40.5677 ], [ -4.1985, 40.5683 ], [ -4.1986, 40.5722 ], [ -4.1983, 40.5735 ], [ -4.1977, 40.5739 ], [ -4.1966, 40.5743 ], [ -4.1939, 40.5764 ], [ -4.1942, 40.5796 ], [ -4.1941, 40.5835 ], [ -4.1933, 40.5848 ], [ -4.1903, 40.5871 ], [ -4.1881, 40.5882 ], [ -4.1879, 40.589 ], [ -4.1871, 40.5898 ], [ -4.1839, 40.5941 ], [ -4.1799, 40.5972 ], [ -4.175, 40.6022 ], [ -4.1737, 40.6041 ], [ -4.1728, 40.605 ], [ -4.1702, 40.6081 ], [ -4.1687, 40.6096 ], [ -4.166, 40.6117 ], [ -4.1635, 40.6139 ], [ -4.1628, 40.6138 ], [ -4.1574, 40.6149 ], [ -4.1559, 40.6158 ], [ -4.154, 40.6168 ], [ -4.1529, 40.6172 ], [ -4.1521, 40.6177 ], [ -4.1562, 40.6189 ], [ -4.1593, 40.6202 ], [ -4.1601, 40.622 ], [ -4.1612, 40.6235 ], [ -4.1768, 40.6162 ], [ -4.1867, 40.6145 ], [ -4.1963, 40.6119 ], [ -4.207, 40.6081 ], [ -4.2081, 40.6081 ], [ -4.2095, 40.6078 ], [ -4.2103, 40.6075 ], [ -4.2114, 40.6067 ], [ -4.2116, 40.6067 ], [ -4.212, 40.6064 ], [ -4.2143, 40.6054 ], [ -4.2157, 40.6054 ], [ -4.2164, 40.6056 ], [ -4.2184, 40.6056 ], [ -4.2197, 40.6052 ], [ -4.2203, 40.6052 ], [ -4.2216, 40.6044 ], [ -4.2254, 40.6039 ], [ -4.24, 40.6025 ], [ -4.2454, 40.6024 ], [ -4.2574, 40.6039 ], [ -4.2621, 40.6052 ], [ -4.2666, 40.6108 ], [ -4.2672, 40.6145 ], [ -4.2712, 40.6239 ], [ -4.2711, 40.629 ], [ -4.2729, 40.6292 ], [ -4.2732, 40.6294 ], [ -4.2748, 40.6293 ] ], [ [ -4.2764, 40.6185 ], [ -4.2772, 40.6188 ], [ -4.2775, 40.6191 ], [ -4.2771, 40.6194 ], [ -4.2765, 40.6194 ], [ -4.276, 40.6196 ], [ -4.275, 40.6191 ], [ -4.2754, 40.6187 ], [ -4.2764, 40.6185 ] ], [ [ -4.2339, 40.57 ], [ -4.235, 40.571 ], [ -4.2339, 40.5716 ], [ -4.2339, 40.5717 ], [ -4.233, 40.5716 ], [ -4.2332, 40.5713 ], [ -4.2331, 40.5709 ], [ -4.2324, 40.5705 ], [ -4.2327, 40.5699 ], [ -4.2339, 40.57 ] ], [ [ -4.2435, 40.5589 ], [ -4.2438, 40.5593 ], [ -4.2443, 40.5595 ], [ -4.2448, 40.5604 ], [ -4.2446, 40.5605 ], [ -4.2437, 40.5604 ], [ -4.2421, 40.5604 ], [ -4.2418, 40.5605 ], [ -4.2419, 40.5602 ], [ -4.2417, 40.5598 ], [ -4.2418, 40.5588 ], [ -4.2435, 40.5586 ], [ -4.2435, 40.5589 ] ], [ [ -4.2665, 40.5903 ], [ -4.2656, 40.5908 ], [ -4.2648, 40.5905 ], [ -4.2643, 40.5905 ], [ -4.2638, 40.5896 ], [ -4.2653, 40.5887 ], [ -4.2655, 40.5889 ], [ -4.2659, 40.5881 ], [ -4.2665, 40.5887 ], [ -4.2673, 40.5886 ], [ -4.2671, 40.5898 ], [ -4.2665, 40.5903 ] ], [ [ -4.209, 40.5764 ], [ -4.2093, 40.5764 ], [ -4.2095, 40.5766 ], [ -4.2094, 40.5777 ], [ -4.2091, 40.5779 ], [ -4.2091, 40.5785 ], [ -4.2086, 40.5787 ], [ -4.2084, 40.579 ], [ -4.2076, 40.5791 ], [ -4.2073, 40.5793 ], [ -4.207, 40.5792 ], [ -4.207, 40.5788 ], [ -4.2066, 40.5785 ], [ -4.2068, 40.5784 ], [ -4.2061, 40.578 ], [ -4.2057, 40.5779 ], [ -4.2043, 40.578 ], [ -4.2043, 40.5778 ], [ -4.2031, 40.5778 ], [ -4.2032, 40.5774 ], [ -4.2034, 40.5772 ], [ -4.2037, 40.5772 ], [ -4.204, 40.5769 ], [ -4.2043, 40.5769 ], [ -4.2045, 40.5767 ], [ -4.2047, 40.5767 ], [ -4.2051, 40.5763 ], [ -4.2072, 40.5762 ], [ -4.2073, 40.576 ], [ -4.2086, 40.5767 ], [ -4.2088, 40.5764 ], [ -4.209, 40.5764 ] ], [ [ -4.261, 40.5947 ], [ -4.2615, 40.5954 ], [ -4.2614, 40.5972 ], [ -4.2612, 40.5983 ], [ -4.261, 40.5985 ], [ -4.261, 40.5987 ], [ -4.2601, 40.5993 ], [ -4.2594, 40.6002 ], [ -4.2591, 40.6009 ], [ -4.2592, 40.6012 ], [ -4.2593, 40.6012 ], [ -4.2594, 40.6017 ], [ -4.2586, 40.6023 ], [ -4.2574, 40.6015 ], [ -4.2575, 40.6013 ], [ -4.2572, 40.6012 ], [ -4.2592, 40.5988 ], [ -4.2595, 40.5983 ], [ -4.2594, 40.5977 ], [ -4.2593, 40.5977 ], [ -4.2592, 40.5971 ], [ -4.2585, 40.5972 ], [ -4.2584, 40.5974 ], [ -4.2577, 40.5976 ], [ -4.257, 40.5973 ], [ -4.257, 40.5971 ], [ -4.2574, 40.5964 ], [ -4.2575, 40.5964 ], [ -4.2574, 40.5957 ], [ -4.2564, 40.5953 ], [ -4.2564, 40.5952 ], [ -4.257, 40.5947 ], [ -4.257, 40.5945 ], [ -4.2586, 40.5946 ], [ -4.2589, 40.5937 ], [ -4.2594, 40.5938 ], [ -4.2593, 40.5941 ], [ -4.2596, 40.5948 ], [ -4.2606, 40.595 ], [ -4.261, 40.5947 ] ], [ [ -4.2702, 40.5731 ], [ -4.2688, 40.5725 ], [ -4.2678, 40.5725 ], [ -4.2678, 40.5724 ], [ -4.2677, 40.5725 ], [ -4.2655, 40.5722 ], [ -4.2637, 40.5707 ], [ -4.2635, 40.5707 ], [ -4.262, 40.5698 ], [ -4.2594, 40.5689 ], [ -4.2584, 40.569 ], [ -4.2582, 40.5686 ], [ -4.2575, 40.5683 ], [ -4.2574, 40.5681 ], [ -4.2575, 40.5675 ], [ -4.2579, 40.5671 ], [ -4.2587, 40.5668 ], [ -4.2589, 40.5666 ], [ -4.2592, 40.5657 ], [ -4.2594, 40.5658 ], [ -4.2596, 40.5663 ], [ -4.2602, 40.5667 ], [ -4.2613, 40.5671 ], [ -4.2616, 40.5671 ], [ -4.2621, 40.5675 ], [ -4.2633, 40.568 ], [ -4.2635, 40.5682 ], [ -4.265, 40.5687 ], [ -4.2666, 40.569 ], [ -4.2683, 40.569 ], [ -4.2716, 40.5694 ], [ -4.2717, 40.5702 ], [ -4.2717, 40.5701 ], [ -4.2724, 40.5708 ], [ -4.2728, 40.5715 ], [ -4.2729, 40.572 ], [ -4.2727, 40.5726 ], [ -4.2725, 40.5727 ], [ -4.2723, 40.5725 ], [ -4.2719, 40.5725 ], [ -4.2718, 40.5727 ], [ -4.271, 40.573 ], [ -4.2708, 40.5729 ], [ -4.2702, 40.5731 ] ], [ [ -4.2681, 40.5684 ], [ -4.2649, 40.5683 ], [ -4.2647, 40.5681 ], [ -4.2642, 40.568 ], [ -4.264, 40.5678 ], [ -4.2626, 40.5673 ], [ -4.2632, 40.5665 ], [ -4.2647, 40.565 ], [ -4.2652, 40.5636 ], [ -4.2652, 40.5626 ], [ -4.2648, 40.5619 ], [ -4.2642, 40.5614 ], [ -4.2639, 40.5608 ], [ -4.264, 40.5606 ], [ -4.2639, 40.5593 ], [ -4.2642, 40.559 ], [ -4.2651, 40.5585 ], [ -4.266, 40.5582 ], [ -4.2668, 40.5582 ], [ -4.2675, 40.5585 ], [ -4.2683, 40.5593 ], [ -4.2686, 40.5593 ], [ -4.2686, 40.5592 ], [ -4.2694, 40.56 ], [ -4.2697, 40.5605 ], [ -4.2695, 40.5607 ], [ -4.2694, 40.5612 ], [ -4.2697, 40.5615 ], [ -4.27, 40.5617 ], [ -4.2709, 40.5618 ], [ -4.2722, 40.5625 ], [ -4.2724, 40.5625 ], [ -4.2725, 40.5627 ], [ -4.272, 40.5639 ], [ -4.2718, 40.5641 ], [ -4.2713, 40.5652 ], [ -4.2712, 40.5652 ], [ -4.271, 40.5657 ], [ -4.271, 40.5662 ], [ -4.2709, 40.5662 ], [ -4.2708, 40.5666 ], [ -4.2707, 40.5666 ], [ -4.2707, 40.5668 ], [ -4.2704, 40.5671 ], [ -4.2704, 40.567 ], [ -4.2703, 40.5671 ], [ -4.2702, 40.567 ], [ -4.2692, 40.568 ], [ -4.2692, 40.5686 ], [ -4.2686, 40.5683 ], [ -4.2681, 40.5684 ] ] ] } }
]
}
