{
"type": "FeatureCollection",
"name": "vigente.full",
"features": [
{ "type": "Feature", "properties": { "municipio": "Rivas-Vaciamadrid", "clasificacion": "no-urbanizable-protegido", "calificacion": "sin-asignar", "version": "vigente", "fuente": "SIT-CAM WFS — UsoDelSuelo:VPLA_V_CLASIFICACION (https://idem.comunidad.madrid/geosrvg/ows)", "fecha_dato": "2026-05-12", "ambito": "56357", "_raw_CD_SIGLAS": "SNUP", "_raw_DS_CLASIF_GEN": "Suelo No Urbanizable Protegido", "_raw_DS_CLASIF_DET": "Suelo No Urbanizable Protegido Comunicaciones", "_raw_DS_DOCU": "PLAN GENERAL", "_raw_DS_LEY": null, "_raw_FC_AC": "2004-03-18", "_raw_NM_AREA_M2": 407674.25203838199, "_cam_code": "123" }, "geometry": { "type": "Polygon", "coordinates": [ [ [ -3.5189, 40.4093 ], [ -3.5195, 40.4099 ], [ -3.5199, 40.4099 ], [ -3.5192, 40.4088 ], [ -3.5194, 40.4076 ], [ -3.5194, 40.4062 ], [ -3.5191, 40.4046 ], [ -3.519, 40.4046 ], [ -3.519, 40.4044 ], [ -3.5183, 40.4032 ], [ -3.5182, 40.4022 ], [ -3.5185, 40.4006 ], [ -3.5196, 40.398 ], [ -3.5196, 40.3973 ], [ -3.5195, 40.3973 ], [ -3.5197, 40.3972 ], [ -3.5201, 40.3948 ], [ -3.5197, 40.3949 ], [ -3.519, 40.3945 ], [ -3.5181, 40.3942 ], [ -3.5185, 40.393 ], [ -3.5182, 40.3869 ], [ -3.5187, 40.3857 ], [ -3.5187, 40.3836 ], [ -3.5181, 40.3813 ], [ -3.5185, 40.3813 ], [ -3.5192, 40.3816 ], [ -3.5197, 40.3816 ], [ -3.52, 40.3813 ], [ -3.5204, 40.3813 ], [ -3.521, 40.3815 ], [ -3.5221, 40.3815 ], [ -3.5227, 40.3817 ], [ -3.5224, 40.3813 ], [ -3.5209, 40.3812 ], [ -3.5205, 40.381 ], [ -3.52, 40.381 ], [ -3.5194, 40.3814 ], [ -3.5183, 40.381 ], [ -3.5179, 40.3811 ], [ -3.5177, 40.3813 ], [ -3.5177, 40.3817 ], [ -3.518, 40.3822 ], [ -3.5184, 40.3838 ], [ -3.5183, 40.3857 ], [ -3.5179, 40.3867 ], [ -3.5182, 40.393 ], [ -3.5178, 40.3939 ], [ -3.5173, 40.394 ], [ -3.5166, 40.3933 ], [ -3.516, 40.393 ], [ -3.5152, 40.3928 ], [ -3.5064, 40.394 ], [ -3.5069, 40.3943 ], [ -3.5153, 40.3932 ], [ -3.5159, 40.3934 ], [ -3.5172, 40.3944 ], [ -3.5172, 40.3946 ], [ -3.5174, 40.3947 ], [ -3.5175, 40.3951 ], [ -3.5177, 40.3953 ], [ -3.5145, 40.3955 ], [ -3.5122, 40.3954 ], [ -3.5072, 40.3945 ], [ -3.5086, 40.3954 ], [ -3.5091, 40.3954 ], [ -3.5092, 40.3956 ], [ -3.5091, 40.3971 ], [ -3.5087, 40.3979 ], [ -3.518, 40.3973 ], [ -3.5189, 40.3973 ], [ -3.5191, 40.3975 ], [ -3.5191, 40.3981 ], [ -3.5183, 40.4 ], [ -3.5177, 40.4026 ], [ -3.5184, 40.4044 ], [ -3.5188, 40.405 ], [ -3.519, 40.4068 ], [ -3.5189, 40.4079 ], [ -3.5187, 40.4084 ], [ -3.5183, 40.4088 ], [ -3.5183, 40.4093 ], [ -3.5181, 40.4097 ], [ -3.5185, 40.4097 ], [ -3.5186, 40.4094 ], [ -3.5189, 40.4093 ] ], [ [ -3.5184, 40.3947 ], [ -3.5192, 40.395 ], [ -3.5181, 40.3952 ], [ -3.5179, 40.395 ], [ -3.5179, 40.3948 ], [ -3.5184, 40.3947 ] ] ] } },
{ "type": "Feature", "properties": { "municipio": "Rivas-Vaciamadrid", "clasificacion": "no-urbanizable-protegido", "calificacion": "sin-asignar", "version": "vigente", "fuente": "SIT-CAM WFS — UsoDelSuelo:VPLA_V_CLASIFICACION (https://idem.comunidad.madrid/geosrvg/ows)", "fecha_dato": "2026-05-12", "ambito": "56357", "_raw_CD_SIGLAS": "SNUP", "_raw_DS_CLASIF_GEN": "Suelo No Urbanizable Protegido", "_raw_DS_CLASIF_DET": "Suelo No Urbanizable Protegido Comunicaciones", "_raw_DS_DOCU": "PLAN GENERAL", "_raw_DS_LEY": null, "_raw_FC_AC": "2004-03-18", "_raw_NM_AREA_M2": 2606.7067250393002, "_cam_code": "123" }, "geometry": { "type": "Polygon", "coordinates": [ [ [ -3.5488, 40.3517 ], [ -3.5489, 40.3522 ], [ -3.5508, 40.354 ], [ -3.5507, 40.3537 ], [ -3.5491, 40.3523 ], [ -3.5489, 40.352 ], [ -3.5489, 40.3515 ], [ -3.5488, 40.3517 ] ] ] } },
{ "type": "Feature", "properties": { "municipio": "Rivas-Vaciamadrid", "clasificacion": "no-urbanizable-protegido", "calificacion": "sin-asignar", "version": "vigente", "fuente": "SIT-CAM WFS — UsoDelSuelo:VPLA_V_CLASIFICACION (https://idem.comunidad.madrid/geosrvg/ows)", "fecha_dato": "2026-05-12", "ambito": "56357", "_raw_CD_SIGLAS": "SNUP", "_raw_DS_CLASIF_GEN": "Suelo No Urbanizable Protegido", "_raw_DS_CLASIF_DET": "Suelo No Urbanizable Protegido Comunicaciones", "_raw_DS_DOCU": "PLAN GENERAL", "_raw_DS_LEY": null, "_raw_FC_AC": "2004-03-18", "_raw_NM_AREA_M2": 24514.553674939201, "_cam_code": "123" }, "geometry": { "type": "Polygon", "coordinates": [ [ [ -3.5092, 40.3071 ], [ -3.5095, 40.3101 ], [ -3.5097, 40.3101 ], [ -3.5099, 40.3119 ], [ -3.5103, 40.3121 ], [ -3.5098, 40.3069 ], [ -3.5092, 40.3071 ] ] ] } },
{ "type": "Feature", "properties": { "municipio": "Rivas-Vaciamadrid", "clasificacion": "no-urbanizable-protegido", "calificacion": "sin-asignar", "version": "vigente", "fuente": "SIT-CAM WFS — UsoDelSuelo:VPLA_V_CLASIFICACION (https://idem.comunidad.madrid/geosrvg/ows)", "fecha_dato": "2026-05-12", "ambito": "56357", "_raw_CD_SIGLAS": "SNUP", "_raw_DS_CLASIF_GEN": "Suelo No Urbanizable Protegido", "_raw_DS_CLASIF_DET": "Suelo No Urbanizable Protegido Comunicaciones", "_raw_DS_DOCU": "PLAN GENERAL", "_raw_DS_LEY": null, "_raw_FC_AC": "2004-03-18", "_raw_NM_AREA_M2": 531259.30344967905, "_cam_code": "123" }, "geometry": { "type": "GeometryCollection", "geometries": [ { "type": "Polygon", "coordinates": [ [ [ -3.511, 40.3186 ], [ -3.5107, 40.3185 ], [ -3.5109, 40.3204 ], [ -3.5079, 40.3174 ], [ -3.5064, 40.317 ], [ -3.5071, 40.3173 ], [ -3.508, 40.318 ], [ -3.51, 40.3202 ], [ -3.5108, 40.3208 ], [ -3.5117, 40.3213 ], [ -3.5149, 40.3225 ], [ -3.5159, 40.3231 ], [ -3.5164, 40.3237 ], [ -3.5181, 40.3251 ], [ -3.5184, 40.3249 ], [ -3.5186, 40.325 ], [ -3.5295, 40.3338 ], [ -3.5308, 40.3345 ], [ -3.5333, 40.3351 ], [ -3.535, 40.336 ], [ -3.5355, 40.3365 ], [ -3.5359, 40.3376 ], [ -3.5376, 40.34 ], [ -3.5383, 40.342 ], [ -3.5387, 40.3427 ], [ -3.5393, 40.3434 ], [ -3.5414, 40.3455 ], [ -3.5431, 40.3467 ], [ -3.5431, 40.3471 ], [ -3.5436, 40.347 ], [ -3.5456, 40.3485 ], [ -3.5459, 40.3489 ], [ -3.5463, 40.3491 ], [ -3.5489, 40.3515 ], [ -3.5489, 40.352 ], [ -3.5491, 40.3523 ], [ -3.5507, 40.3537 ], [ -3.5508, 40.354 ], [ -3.551, 40.3541 ], [ -3.5514, 40.3539 ], [ -3.5519, 40.3541 ], [ -3.5524, 40.3546 ], [ -3.5532, 40.3561 ], [ -3.5533, 40.3561 ], [ -3.5538, 40.3554 ], [ -3.5524, 40.3532 ], [ -3.5523, 40.3526 ], [ -3.5521, 40.3523 ], [ -3.5516, 40.3518 ], [ -3.5509, 40.3517 ], [ -3.5496, 40.3507 ], [ -3.5474, 40.3487 ], [ -3.5426, 40.3453 ], [ -3.5426, 40.3452 ], [ -3.5423, 40.3451 ], [ -3.5395, 40.3422 ], [ -3.5387, 40.34 ], [ -3.538, 40.3388 ], [ -3.5379, 40.3388 ], [ -3.5379, 40.3382 ], [ -3.5384, 40.3377 ], [ -3.5383, 40.3371 ], [ -3.5377, 40.3369 ], [ -3.5368, 40.3372 ], [ -3.536, 40.3361 ], [ -3.5345, 40.335 ], [ -3.5307, 40.3339 ], [ -3.5307, 40.3338 ], [ -3.5305, 40.3338 ], [ -3.5295, 40.3331 ], [ -3.5272, 40.3312 ], [ -3.5246, 40.3293 ], [ -3.5221, 40.3272 ], [ -3.5218, 40.3268 ], [ -3.5217, 40.3258 ], [ -3.5203, 40.3254 ], [ -3.5197, 40.3254 ], [ -3.519, 40.325 ], [ -3.5175, 40.3238 ], [ -3.5165, 40.3227 ], [ -3.5162, 40.3215 ], [ -3.5152, 40.3196 ], [ -3.514, 40.3183 ], [ -3.5131, 40.3177 ], [ -3.5129, 40.3176 ], [ -3.5116, 40.3184 ], [ -3.5127, 40.3186 ], [ -3.5132, 40.3188 ], [ -3.5135, 40.3191 ], [ -3.5138, 40.3194 ], [ -3.5151, 40.3219 ], [ -3.5116, 40.3205 ], [ -3.5114, 40.3201 ], [ -3.5113, 40.3186 ], [ -3.5112, 40.3185 ], [ -3.511, 40.3186 ] ] ] }, { "type": "LineString", "coordinates": [ [ -3.5109, 40.3204 ], [ -3.511, 40.3205 ] ] } ] } },
{ "type": "Feature", "properties": { "municipio": "Rivas-Vaciamadrid", "clasificacion": "no-urbanizable-protegido", "calificacion": "sin-asignar", "version": "vigente", "fuente": "SIT-CAM WFS — UsoDelSuelo:VPLA_V_CLASIFICACION (https://idem.comunidad.madrid/geosrvg/ows)", "fecha_dato": "2026-05-12", "ambito": "56357", "_raw_CD_SIGLAS": "SNUP", "_raw_DS_CLASIF_GEN": "Suelo No Urbanizable Protegido", "_raw_DS_CLASIF_DET": "Suelo No Urbanizable Protegido Espacios Naturales Protegidos", "_raw_DS_DOCU": "PLAN GENERAL", "_raw_DS_LEY": null, "_raw_FC_AC": "2004-03-18", "_raw_NM_AREA_M2": 22934.215124850001, "_cam_code": "123" }, "geometry": { "type": "Polygon", "coordinates": [ [ [ -3.5079, 40.3174 ], [ -3.5081, 40.3176 ], [ -3.5083, 40.3178 ], [ -3.5086, 40.318 ], [ -3.5103, 40.3199 ], [ -3.511, 40.3205 ], [ -3.5109, 40.3204 ], [ -3.5107, 40.3185 ], [ -3.5079, 40.3174 ] ] ] } },
{ "type": "Feature", "properties": { "municipio": "Rivas-Vaciamadrid", "clasificacion": "no-urbanizable-protegido", "calificacion": "sin-asignar", "version": "vigente", "fuente": "SIT-CAM WFS — UsoDelSuelo:VPLA_V_CLASIFICACION (https://idem.comunidad.madrid/geosrvg/ows)", "fecha_dato": "2026-05-12", "ambito": "56357", "_raw_CD_SIGLAS": "SNUP", "_raw_DS_CLASIF_GEN": "Suelo No Urbanizable Protegido", "_raw_DS_CLASIF_DET": "Suelo No Urbanizable Protegido Espacios Naturales Protegidos", "_raw_DS_DOCU": "PLAN GENERAL", "_raw_DS_LEY": null, "_raw_FC_AC": "2004-03-18", "_raw_NM_AREA_M2": 62290.417537635098, "_cam_code": "123" }, "geometry": { "type": "Polygon", "coordinates": [ [ [ -3.5117, 40.3184 ], [ -3.5112, 40.3185 ], [ -3.5113, 40.3186 ], [ -3.5114, 40.3201 ], [ -3.5116, 40.3205 ], [ -3.5151, 40.3219 ], [ -3.5138, 40.3194 ], [ -3.5132, 40.3188 ], [ -3.5124, 40.3185 ], [ -3.5117, 40.3184 ] ] ] } },
{ "type": "Feature", "properties": { "municipio": "Rivas-Vaciamadrid", "clasificacion": "no-urbanizable-protegido", "calificacion": "sin-asignar", "version": "vigente", "fuente": "SIT-CAM WFS — UsoDelSuelo:VPLA_V_CLASIFICACION (https://idem.comunidad.madrid/geosrvg/ows)", "fecha_dato": "2026-05-12", "ambito": "56357", "_raw_CD_SIGLAS": "SNUP", "_raw_DS_CLASIF_GEN": "Suelo No Urbanizable Protegido", "_raw_DS_CLASIF_DET": "Suelo No Urbanizable Protegido Espacios Naturales Protegidos", "_raw_DS_DOCU": "PLAN GENERAL", "_raw_DS_LEY": null, "_raw_FC_AC": "2004-03-18", "_raw_NM_AREA_M2": 400319.23352471198, "_cam_code": "123" }, "geometry": { "type": "Polygon", "coordinates": [ [ [ -3.5777, 40.3163 ], [ -3.5795, 40.318 ], [ -3.5803, 40.3191 ], [ -3.5812, 40.3199 ], [ -3.5827, 40.3208 ], [ -3.5831, 40.3209 ], [ -3.5844, 40.3218 ], [ -3.5845, 40.3221 ], [ -3.5851, 40.3204 ], [ -3.5851, 40.3184 ], [ -3.5838, 40.3158 ], [ -3.5824, 40.3161 ], [ -3.5819, 40.3159 ], [ -3.5805, 40.3159 ], [ -3.5805, 40.316 ], [ -3.5793, 40.3159 ], [ -3.5778, 40.3146 ], [ -3.5761, 40.3149 ], [ -3.5771, 40.3117 ], [ -3.5758, 40.3079 ], [ -3.575, 40.3087 ], [ -3.5741, 40.3092 ], [ -3.5739, 40.31 ], [ -3.574, 40.311 ], [ -3.5742, 40.3112 ], [ -3.5741, 40.3116 ], [ -3.5744, 40.3127 ], [ -3.5746, 40.313 ], [ -3.5745, 40.3131 ], [ -3.5753, 40.3137 ], [ -3.5753, 40.314 ], [ -3.574, 40.3144 ], [ -3.574, 40.3145 ], [ -3.5743, 40.3149 ], [ -3.5755, 40.3147 ], [ -3.5771, 40.316 ], [ -3.5777, 40.3163 ] ] ] } },
{ "type": "Feature", "properties": { "municipio": "Rivas-Vaciamadrid", "clasificacion": "no-urbanizable-protegido", "calificacion": "sin-asignar", "version": "vigente", "fuente": "SIT-CAM WFS — UsoDelSuelo:VPLA_V_CLASIFICACION (https://idem.comunidad.madrid/geosrvg/ows)", "fecha_dato": "2026-05-12", "ambito": "56357", "_raw_CD_SIGLAS": "SNUP", "_raw_DS_CLASIF_GEN": "Suelo No Urbanizable Protegido", "_raw_DS_CLASIF_DET": "Suelo No Urbanizable Protegido Espacios Naturales Protegidos", "_raw_DS_DOCU": "PLAN GENERAL", "_raw_DS_LEY": null, "_raw_FC_AC": "2004-03-18", "_raw_NM_AREA_M2": 15543255.751687899, "_cam_code": "123" }, "geometry": { "type": "Polygon", "coordinates": [ [ [ -3.5336, 40.3262 ], [ -3.5348, 40.3263 ], [ -3.5352, 40.3261 ], [ -3.5371, 40.326 ], [ -3.5371, 40.3259 ], [ -3.5377, 40.3257 ], [ -3.5401, 40.3258 ], [ -3.5413, 40.3254 ], [ -3.542, 40.325 ], [ -3.5424, 40.325 ], [ -3.5436, 40.3246 ], [ -3.544, 40.3243 ], [ -3.5462, 40.3233 ], [ -3.5487, 40.3218 ], [ -3.5491, 40.3212 ], [ -3.5497, 40.3207 ], [ -3.55, 40.3201 ], [ -3.5505, 40.3195 ], [ -3.551, 40.3191 ], [ -3.5529, 40.3185 ], [ -3.554, 40.3178 ], [ -3.5546, 40.3177 ], [ -3.555, 40.3174 ], [ -3.5554, 40.3173 ], [ -3.5568, 40.3164 ], [ -3.557, 40.316 ], [ -3.5579, 40.3152 ], [ -3.5606, 40.3143 ], [ -3.5639, 40.3137 ], [ -3.5648, 40.3134 ], [ -3.5656, 40.3129 ], [ -3.5667, 40.3125 ], [ -3.5685, 40.3116 ], [ -3.5702, 40.3106 ], [ -3.5739, 40.3091 ], [ -3.5748, 40.3086 ], [ -3.5758, 40.3077 ], [ -3.5759, 40.3047 ], [ -3.5756, 40.3009 ], [ -3.5746, 40.298 ], [ -3.573, 40.2954 ], [ -3.5716, 40.2937 ], [ -3.5701, 40.2922 ], [ -3.57, 40.2919 ], [ -3.57, 40.2917 ], [ -3.5701, 40.2917 ], [ -3.5703, 40.2913 ], [ -3.571, 40.291 ], [ -3.571, 40.2909 ], [ -3.5713, 40.2909 ], [ -3.571, 40.2888 ], [ -3.5711, 40.2881 ], [ -3.5715, 40.2871 ], [ -3.5681, 40.2888 ], [ -3.5647, 40.2919 ], [ -3.5628, 40.2908 ], [ -3.5617, 40.2922 ], [ -3.5583, 40.2936 ], [ -3.5552, 40.2957 ], [ -3.5505, 40.297 ], [ -3.5487, 40.2956 ], [ -3.5441, 40.2938 ], [ -3.5451, 40.2909 ], [ -3.542, 40.2906 ], [ -3.5402, 40.2902 ], [ -3.5382, 40.2913 ], [ -3.535, 40.2928 ], [ -3.5322, 40.2936 ], [ -3.5311, 40.293 ], [ -3.5294, 40.2929 ], [ -3.5265, 40.2932 ], [ -3.5244, 40.2955 ], [ -3.5219, 40.2944 ], [ -3.5198, 40.2943 ], [ -3.5178, 40.2975 ], [ -3.5143, 40.2992 ], [ -3.5143, 40.2993 ], [ -3.5124, 40.2994 ], [ -3.5104, 40.3002 ], [ -3.509, 40.3013 ], [ -3.5092, 40.3022 ], [ -3.5123, 40.3027 ], [ -3.5151, 40.3048 ], [ -3.5133, 40.3063 ], [ -3.5098, 40.3069 ], [ -3.5098, 40.307 ], [ -3.5103, 40.3121 ], [ -3.5109, 40.3125 ], [ -3.5139, 40.3128 ], [ -3.5145, 40.3132 ], [ -3.5146, 40.315 ], [ -3.5138, 40.3172 ], [ -3.5129, 40.3176 ], [ -3.514, 40.3183 ], [ -3.5152, 40.3196 ], [ -3.5162, 40.3215 ], [ -3.5165, 40.3227 ], [ -3.5169, 40.3232 ], [ -3.5186, 40.3247 ], [ -3.5195, 40.3253 ], [ -3.5212, 40.3256 ], [ -3.5217, 40.3258 ], [ -3.5223, 40.3256 ], [ -3.5224, 40.3247 ], [ -3.5228, 40.3241 ], [ -3.5238, 40.3236 ], [ -3.5245, 40.3225 ], [ -3.5253, 40.322 ], [ -3.5257, 40.3219 ], [ -3.5271, 40.3221 ], [ -3.5282, 40.3229 ], [ -3.5288, 40.3237 ], [ -3.5309, 40.3251 ], [ -3.5326, 40.3259 ], [ -3.5336, 40.3262 ] ] ] } },
{ "type": "Feature", "properties": { "municipio": "Rivas-Vaciamadrid", "clasificacion": "no-urbanizable-protegido", "calificacion": "sin-asignar", "version": "vigente", "fuente": "SIT-CAM WFS — UsoDelSuelo:VPLA_V_CLASIFICACION (https://idem.comunidad.madrid/geosrvg/ows)", "fecha_dato": "2026-05-12", "ambito": "56357", "_raw_CD_SIGLAS": "SNUP", "_raw_DS_CLASIF_GEN": "Suelo No Urbanizable Protegido", "_raw_DS_CLASIF_DET": "Suelo No Urbanizable Protegido Espacios Naturales Protegidos", "_raw_DS_DOCU": "PLAN GENERAL", "_raw_DS_LEY": null, "_raw_FC_AC": "2004-03-18", "_raw_NM_AREA_M2": 3428507.1960994299, "_cam_code": "123" }, "geometry": { "type": "Polygon", "coordinates": [ [ [ -3.5232, 40.3257 ], [ -3.5261, 40.3283 ], [ -3.5264, 40.329 ], [ -3.53, 40.3319 ], [ -3.532, 40.3331 ], [ -3.533, 40.3333 ], [ -3.535, 40.3332 ], [ -3.5363, 40.333 ], [ -3.5365, 40.3328 ], [ -3.5369, 40.3327 ], [ -3.5398, 40.3322 ], [ -3.5438, 40.3316 ], [ -3.5462, 40.3314 ], [ -3.5496, 40.3299 ], [ -3.5506, 40.3294 ], [ -3.5515, 40.3287 ], [ -3.5534, 40.3278 ], [ -3.5554, 40.3261 ], [ -3.5576, 40.3245 ], [ -3.5584, 40.3243 ], [ -3.5614, 40.3222 ], [ -3.5625, 40.3219 ], [ -3.5632, 40.3219 ], [ -3.5648, 40.3204 ], [ -3.5656, 40.3199 ], [ -3.5676, 40.3179 ], [ -3.5693, 40.3169 ], [ -3.5696, 40.3166 ], [ -3.5709, 40.3159 ], [ -3.574, 40.3149 ], [ -3.5738, 40.3143 ], [ -3.575, 40.3139 ], [ -3.575, 40.3138 ], [ -3.5742, 40.3131 ], [ -3.5743, 40.313 ], [ -3.5741, 40.3127 ], [ -3.5739, 40.3112 ], [ -3.5737, 40.3111 ], [ -3.5738, 40.3093 ], [ -3.5724, 40.31 ], [ -3.5703, 40.3108 ], [ -3.5691, 40.3115 ], [ -3.5645, 40.3137 ], [ -3.5635, 40.314 ], [ -3.5619, 40.3143 ], [ -3.5613, 40.3143 ], [ -3.5601, 40.3146 ], [ -3.5581, 40.3154 ], [ -3.5572, 40.3161 ], [ -3.557, 40.3165 ], [ -3.555, 40.3177 ], [ -3.5541, 40.318 ], [ -3.5527, 40.3188 ], [ -3.5511, 40.3192 ], [ -3.5502, 40.3202 ], [ -3.5499, 40.3208 ], [ -3.5492, 40.3214 ], [ -3.5489, 40.3219 ], [ -3.5475, 40.3228 ], [ -3.544, 40.3245 ], [ -3.5436, 40.3248 ], [ -3.542, 40.3252 ], [ -3.5414, 40.3256 ], [ -3.5408, 40.3258 ], [ -3.5398, 40.326 ], [ -3.5395, 40.3259 ], [ -3.5377, 40.3259 ], [ -3.5372, 40.3262 ], [ -3.5352, 40.3263 ], [ -3.5347, 40.3265 ], [ -3.5333, 40.3263 ], [ -3.5325, 40.3261 ], [ -3.5303, 40.325 ], [ -3.5284, 40.3237 ], [ -3.528, 40.323 ], [ -3.527, 40.3223 ], [ -3.5264, 40.3221 ], [ -3.5254, 40.3221 ], [ -3.5247, 40.3226 ], [ -3.524, 40.3237 ], [ -3.523, 40.3242 ], [ -3.5226, 40.3248 ], [ -3.5226, 40.3254 ], [ -3.5225, 40.3255 ], [ -3.5232, 40.3257 ] ] ] } },
{ "type": "Feature", "properties": { "municipio": "Rivas-Vaciamadrid", "clasificacion": "no-urbanizable-protegido", "calificacion": "sin-asignar", "version": "vigente", "fuente": "SIT-CAM WFS — UsoDelSuelo:VPLA_V_CLASIFICACION (https://idem.comunidad.madrid/geosrvg/ows)", "fecha_dato": "2026-05-12", "ambito": "56357", "_raw_CD_SIGLAS": "SNUP", "_raw_DS_CLASIF_GEN": "Suelo No Urbanizable Protegido", "_raw_DS_CLASIF_DET": "Suelo No Urbanizable Protegido Espacios Naturales Protegidos", "_raw_DS_DOCU": "PLAN GENERAL", "_raw_DS_LEY": null, "_raw_FC_AC": "2004-03-18", "_raw_NM_AREA_M2": 8316306.4126632297, "_cam_code": "123" }, "geometry": { "type": "Polygon", "coordinates": [ [ [ -3.5377, 40.3369 ], [ -3.5383, 40.3371 ], [ -3.5384, 40.3377 ], [ -3.5379, 40.3382 ], [ -3.5379, 40.3388 ], [ -3.538, 40.3388 ], [ -3.5387, 40.34 ], [ -3.5395, 40.3422 ], [ -3.5423, 40.3451 ], [ -3.5426, 40.3452 ], [ -3.5426, 40.3453 ], [ -3.5474, 40.3487 ], [ -3.5496, 40.3507 ], [ -3.5509, 40.3517 ], [ -3.5516, 40.3518 ], [ -3.5523, 40.3526 ], [ -3.5524, 40.3532 ], [ -3.5538, 40.3554 ], [ -3.5547, 40.3543 ], [ -3.5566, 40.3531 ], [ -3.5577, 40.3527 ], [ -3.5589, 40.3503 ], [ -3.5607, 40.3492 ], [ -3.5622, 40.3471 ], [ -3.5621, 40.347 ], [ -3.5654, 40.3444 ], [ -3.5682, 40.3409 ], [ -3.5699, 40.3376 ], [ -3.5719, 40.3346 ], [ -3.5727, 40.3337 ], [ -3.5753, 40.3319 ], [ -3.5768, 40.3303 ], [ -3.5795, 40.3279 ], [ -3.5825, 40.3263 ], [ -3.5844, 40.3226 ], [ -3.5844, 40.3222 ], [ -3.5838, 40.3216 ], [ -3.5816, 40.3204 ], [ -3.5801, 40.3193 ], [ -3.5797, 40.3186 ], [ -3.5786, 40.3174 ], [ -3.5776, 40.3165 ], [ -3.577, 40.3162 ], [ -3.5765, 40.3157 ], [ -3.5757, 40.3152 ], [ -3.5756, 40.315 ], [ -3.5754, 40.3149 ], [ -3.5738, 40.3152 ], [ -3.5707, 40.3162 ], [ -3.57, 40.3166 ], [ -3.5673, 40.3185 ], [ -3.5659, 40.3199 ], [ -3.5654, 40.3202 ], [ -3.5634, 40.322 ], [ -3.5618, 40.3223 ], [ -3.5607, 40.3229 ], [ -3.5585, 40.3244 ], [ -3.5577, 40.3247 ], [ -3.5568, 40.3253 ], [ -3.5529, 40.3284 ], [ -3.5514, 40.329 ], [ -3.5507, 40.3296 ], [ -3.5487, 40.3306 ], [ -3.5472, 40.3311 ], [ -3.5467, 40.3314 ], [ -3.5459, 40.3316 ], [ -3.5438, 40.3318 ], [ -3.5378, 40.3328 ], [ -3.5371, 40.3328 ], [ -3.5364, 40.3332 ], [ -3.5334, 40.3335 ], [ -3.5316, 40.3332 ], [ -3.5299, 40.3321 ], [ -3.5262, 40.3291 ], [ -3.5259, 40.3285 ], [ -3.5246, 40.3272 ], [ -3.5236, 40.3264 ], [ -3.5233, 40.326 ], [ -3.5225, 40.3257 ], [ -3.5218, 40.326 ], [ -3.5218, 40.3268 ], [ -3.5221, 40.3272 ], [ -3.5246, 40.3293 ], [ -3.5272, 40.3312 ], [ -3.5299, 40.3334 ], [ -3.5305, 40.3338 ], [ -3.5307, 40.3338 ], [ -3.5307, 40.3339 ], [ -3.5345, 40.335 ], [ -3.536, 40.3361 ], [ -3.5368, 40.3372 ], [ -3.5377, 40.3369 ] ] ] } },
{ "type": "Feature", "properties": { "municipio": "Rivas-Vaciamadrid", "clasificacion": "no-urbanizable-protegido", "calificacion": "sin-asignar", "version": "vigente", "fuente": "SIT-CAM WFS — UsoDelSuelo:VPLA_V_CLASIFICACION (https://idem.comunidad.madrid/geosrvg/ows)", "fecha_dato": "2026-05-12", "ambito": "56357", "_raw_CD_SIGLAS": "SNUP", "_raw_DS_CLASIF_GEN": "Suelo No Urbanizable Protegido", "_raw_DS_CLASIF_DET": "Suelo No Urbanizable Protegido Espacios Naturales Protegidos", "_raw_DS_DOCU": "PLAN GENERAL", "_raw_DS_LEY": null, "_raw_FC_AC": "2004-03-18", "_raw_NM_AREA_M2": 16406991.753264699, "_cam_code": "123" }, "geometry": { "type": "Polygon", "coordinates": [ [ [ -3.5173, 40.394 ], [ -3.5179, 40.3938 ], [ -3.5182, 40.393 ], [ -3.5179, 40.3867 ], [ -3.5183, 40.3857 ], [ -3.5184, 40.3851 ], [ -3.5184, 40.3838 ], [ -3.518, 40.3822 ], [ -3.5177, 40.3817 ], [ -3.5177, 40.3813 ], [ -3.5182, 40.381 ], [ -3.5194, 40.3814 ], [ -3.52, 40.381 ], [ -3.5205, 40.381 ], [ -3.5209, 40.3812 ], [ -3.5224, 40.3813 ], [ -3.5226, 40.3782 ], [ -3.522, 40.3789 ], [ -3.5215, 40.3789 ], [ -3.5214, 40.3782 ], [ -3.5206, 40.376 ], [ -3.5207, 40.3747 ], [ -3.5206, 40.3724 ], [ -3.5209, 40.3709 ], [ -3.5207, 40.3696 ], [ -3.5209, 40.3691 ], [ -3.5209, 40.3686 ], [ -3.5179, 40.367 ], [ -3.5158, 40.3664 ], [ -3.515, 40.366 ], [ -3.5136, 40.3657 ], [ -3.5134, 40.3655 ], [ -3.5134, 40.3653 ], [ -3.5133, 40.3653 ], [ -3.5133, 40.3635 ], [ -3.5132, 40.3635 ], [ -3.5132, 40.3632 ], [ -3.5123, 40.3623 ], [ -3.5123, 40.3621 ], [ -3.5122, 40.3621 ], [ -3.5119, 40.3615 ], [ -3.5119, 40.361 ], [ -3.5123, 40.3606 ], [ -3.5122, 40.3602 ], [ -3.512, 40.36 ], [ -3.5113, 40.3599 ], [ -3.511, 40.3596 ], [ -3.511, 40.3586 ], [ -3.5109, 40.3586 ], [ -3.5109, 40.3584 ], [ -3.5107, 40.3582 ], [ -3.5099, 40.358 ], [ -3.5092, 40.3577 ], [ -3.5092, 40.3576 ], [ -3.5078, 40.3573 ], [ -3.5078, 40.357 ], [ -3.5081, 40.3566 ], [ -3.508, 40.3562 ], [ -3.5088, 40.3556 ], [ -3.5088, 40.3552 ], [ -3.5086, 40.355 ], [ -3.5086, 40.3543 ], [ -3.5088, 40.3535 ], [ -3.5089, 40.3535 ], [ -3.5088, 40.3529 ], [ -3.5085, 40.3526 ], [ -3.5086, 40.3524 ], [ -3.508, 40.3517 ], [ -3.5078, 40.3517 ], [ -3.5076, 40.3515 ], [ -3.5073, 40.3515 ], [ -3.5073, 40.3514 ], [ -3.5066, 40.3513 ], [ -3.5065, 40.3502 ], [ -3.5061, 40.3493 ], [ -3.5053, 40.3482 ], [ -3.5048, 40.3478 ], [ -3.5031, 40.3452 ], [ -3.5022, 40.3427 ], [ -3.5019, 40.3411 ], [ -3.5019, 40.3398 ], [ -3.5022, 40.3382 ], [ -3.5034, 40.3352 ], [ -3.5044, 40.334 ], [ -3.5053, 40.3332 ], [ -3.5067, 40.3323 ], [ -3.5068, 40.3304 ], [ -3.5064, 40.329 ], [ -3.5063, 40.328 ], [ -3.5066, 40.3268 ], [ -3.5066, 40.3259 ], [ -3.5067, 40.3256 ], [ -3.5068, 40.3256 ], [ -3.5069, 40.3251 ], [ -3.5111, 40.3237 ], [ -3.5112, 40.3236 ], [ -3.5112, 40.3234 ], [ -3.5111, 40.3234 ], [ -3.5114, 40.3233 ], [ -3.5125, 40.3231 ], [ -3.5125, 40.323 ], [ -3.5128, 40.3231 ], [ -3.5149, 40.3225 ], [ -3.5117, 40.3213 ], [ -3.5108, 40.3208 ], [ -3.51, 40.3202 ], [ -3.508, 40.318 ], [ -3.5071, 40.3173 ], [ -3.5064, 40.317 ], [ -3.5054, 40.3171 ], [ -3.5035, 40.3169 ], [ -3.5025, 40.3167 ], [ -3.4997, 40.3158 ], [ -3.4983, 40.3155 ], [ -3.4971, 40.3154 ], [ -3.4945, 40.3158 ], [ -3.4934, 40.3162 ], [ -3.4855, 40.3243 ], [ -3.4854, 40.3242 ], [ -3.4835, 40.324 ], [ -3.4809, 40.3217 ], [ -3.4784, 40.3201 ], [ -3.4786, 40.3195 ], [ -3.4768, 40.3191 ], [ -3.4746, 40.319 ], [ -3.4707, 40.3195 ], [ -3.4703, 40.322 ], [ -3.47, 40.323 ], [ -3.47, 40.3238 ], [ -3.4705, 40.3244 ], [ -3.4705, 40.326 ], [ -3.4708, 40.3278 ], [ -3.471, 40.3284 ], [ -3.4714, 40.3288 ], [ -3.4717, 40.3301 ], [ -3.4716, 40.331 ], [ -3.4721, 40.3311 ], [ -3.4715, 40.3325 ], [ -3.4705, 40.3343 ], [ -3.4706, 40.3357 ], [ -3.4708, 40.3363 ], [ -3.4718, 40.338 ], [ -3.4716, 40.3381 ], [ -3.4722, 40.3394 ], [ -3.4743, 40.3423 ], [ -3.475, 40.3436 ], [ -3.476, 40.3463 ], [ -3.4767, 40.3487 ], [ -3.4774, 40.35 ], [ -3.4781, 40.3504 ], [ -3.4789, 40.3505 ], [ -3.482, 40.3498 ], [ -3.4827, 40.3498 ], [ -3.4834, 40.35 ], [ -3.4843, 40.3507 ], [ -3.4845, 40.3512 ], [ -3.4844, 40.3539 ], [ -3.4832, 40.3593 ], [ -3.4833, 40.3601 ], [ -3.4838, 40.3609 ], [ -3.4844, 40.3615 ], [ -3.4854, 40.3617 ], [ -3.487, 40.3616 ], [ -3.488, 40.3614 ], [ -3.4905, 40.3615 ], [ -3.4914, 40.3618 ], [ -3.4935, 40.3631 ], [ -3.495, 40.3636 ], [ -3.4969, 40.3636 ], [ -3.4977, 40.3634 ], [ -3.4977, 40.3633 ], [ -3.4982, 40.3631 ], [ -3.4985, 40.3628 ], [ -3.5002, 40.3599 ], [ -3.5019, 40.3586 ], [ -3.5026, 40.3583 ], [ -3.5035, 40.3582 ], [ -3.5041, 40.3582 ], [ -3.5049, 40.3584 ], [ -3.506, 40.3591 ], [ -3.5069, 40.3602 ], [ -3.5076, 40.3617 ], [ -3.5086, 40.3646 ], [ -3.5097, 40.3666 ], [ -3.5098, 40.3666 ], [ -3.5101, 40.3672 ], [ -3.5111, 40.3685 ], [ -3.5119, 40.37 ], [ -3.512, 40.371 ], [ -3.5108, 40.3725 ], [ -3.5095, 40.3727 ], [ -3.5067, 40.3725 ], [ -3.5067, 40.3724 ], [ -3.5067, 40.3725 ], [ -3.5056, 40.3728 ], [ -3.5044, 40.3737 ], [ -3.5039, 40.3748 ], [ -3.5035, 40.3751 ], [ -3.5024, 40.3764 ], [ -3.5002, 40.3771 ], [ -3.5005, 40.3792 ], [ -3.5016, 40.3806 ], [ -3.5035, 40.3818 ], [ -3.5051, 40.382 ], [ -3.506, 40.3826 ], [ -3.5051, 40.3846 ], [ -3.5049, 40.3843 ], [ -3.5005, 40.3852 ], [ -3.5007, 40.3873 ], [ -3.5014, 40.3873 ], [ -3.5026, 40.388 ], [ -3.5028, 40.3883 ], [ -3.5029, 40.3899 ], [ -3.5017, 40.3904 ], [ -3.5024, 40.3929 ], [ -3.5038, 40.3919 ], [ -3.5048, 40.3892 ], [ -3.5067, 40.3886 ], [ -3.5068, 40.3891 ], [ -3.5063, 40.3903 ], [ -3.5053, 40.3921 ], [ -3.5055, 40.3935 ], [ -3.5063, 40.394 ], [ -3.5152, 40.3928 ], [ -3.516, 40.393 ], [ -3.5166, 40.3933 ], [ -3.5173, 40.394 ] ] ] } },
{ "type": "Feature", "properties": { "municipio": "Rivas-Vaciamadrid", "clasificacion": "no-urbanizable-protegido", "calificacion": "sin-asignar", "version": "vigente", "fuente": "SIT-CAM WFS — UsoDelSuelo:VPLA_V_CLASIFICACION (https://idem.comunidad.madrid/geosrvg/ows)", "fecha_dato": "2026-05-12", "ambito": "56357", "_raw_CD_SIGLAS": "SNUP", "_raw_DS_CLASIF_GEN": "Suelo No Urbanizable Protegido", "_raw_DS_CLASIF_DET": "Suelo No Urbanizable Protegido Espacios Naturales Protegidos", "_raw_DS_DOCU": "PLAN GENERAL", "_raw_DS_LEY": null, "_raw_FC_AC": "2004-03-18", "_raw_NM_AREA_M2": 545345.43256253703, "_cam_code": "123" }, "geometry": { "type": "Polygon", "coordinates": [ [ [ -3.5182, 40.3869 ], [ -3.5185, 40.393 ], [ -3.5181, 40.3942 ], [ -3.519, 40.3945 ], [ -3.5197, 40.3949 ], [ -3.5201, 40.3948 ], [ -3.5203, 40.394 ], [ -3.5204, 40.3921 ], [ -3.5226, 40.3919 ], [ -3.5243, 40.3908 ], [ -3.5248, 40.3907 ], [ -3.5259, 40.3902 ], [ -3.5259, 40.3893 ], [ -3.5249, 40.3886 ], [ -3.5243, 40.3887 ], [ -3.5237, 40.3885 ], [ -3.5234, 40.3877 ], [ -3.5227, 40.3865 ], [ -3.5225, 40.3857 ], [ -3.5226, 40.3842 ], [ -3.5228, 40.3827 ], [ -3.523, 40.3822 ], [ -3.5226, 40.3816 ], [ -3.521, 40.3815 ], [ -3.5204, 40.3813 ], [ -3.52, 40.3813 ], [ -3.5197, 40.3816 ], [ -3.5192, 40.3816 ], [ -3.5185, 40.3813 ], [ -3.5181, 40.3813 ], [ -3.5187, 40.3836 ], [ -3.5187, 40.3857 ], [ -3.5182, 40.3869 ] ] ] } },
{ "type": "Feature", "properties": { "municipio": "Rivas-Vaciamadrid", "clasificacion": "no-urbanizable-protegido", "calificacion": "sin-asignar", "version": "vigente", "fuente": "SIT-CAM WFS — UsoDelSuelo:VPLA_V_CLASIFICACION (https://idem.comunidad.madrid/geosrvg/ows)", "fecha_dato": "2026-05-12", "ambito": "56357", "_raw_CD_SIGLAS": "SNUP", "_raw_DS_CLASIF_GEN": "Suelo No Urbanizable Protegido", "_raw_DS_CLASIF_DET": "Suelo No Urbanizable Protegido Espacios Naturales Protegidos", "_raw_DS_DOCU": "PLAN GENERAL", "_raw_DS_LEY": null, "_raw_FC_AC": "2004-03-18", "_raw_NM_AREA_M2": 3920.4270749947, "_cam_code": "123" }, "geometry": { "type": "Polygon", "coordinates": [ [ [ -3.518, 40.3947 ], [ -3.5179, 40.395 ], [ -3.5181, 40.3952 ], [ -3.5192, 40.395 ], [ -3.5188, 40.3948 ], [ -3.518, 40.3947 ] ] ] } },
{ "type": "Feature", "properties": { "municipio": "Rivas-Vaciamadrid", "clasificacion": "no-urbanizable-protegido", "calificacion": "sin-asignar", "version": "vigente", "fuente": "SIT-CAM WFS — UsoDelSuelo:VPLA_V_CLASIFICACION (https://idem.comunidad.madrid/geosrvg/ows)", "fecha_dato": "2026-05-12", "ambito": "56357", "_raw_CD_SIGLAS": "SNUP", "_raw_DS_CLASIF_GEN": "Suelo No Urbanizable Protegido", "_raw_DS_CLASIF_DET": "Suelo No Urbanizable Protegido Espacios Naturales Protegidos", "_raw_DS_DOCU": "PLAN GENERAL", "_raw_DS_LEY": null, "_raw_FC_AC": "2004-03-18", "_raw_NM_AREA_M2": 141169.09798686701, "_cam_code": "123" }, "geometry": { "type": "Polygon", "coordinates": [ [ [ -3.5151, 40.3933 ], [ -3.5141, 40.3933 ], [ -3.5068, 40.3943 ], [ -3.5072, 40.3945 ], [ -3.5122, 40.3954 ], [ -3.5145, 40.3955 ], [ -3.5177, 40.3953 ], [ -3.517, 40.3942 ], [ -3.5157, 40.3933 ], [ -3.5153, 40.3932 ], [ -3.5151, 40.3933 ] ] ] } },
{ "type": "Feature", "properties": { "municipio": "Rivas-Vaciamadrid", "clasificacion": "no-urbanizable-protegido", "calificacion": "sin-asignar", "version": "vigente", "fuente": "SIT-CAM WFS — UsoDelSuelo:VPLA_V_CLASIFICACION (https://idem.comunidad.madrid/geosrvg/ows)", "fecha_dato": "2026-05-12", "ambito": "56357", "_raw_CD_SIGLAS": "SNUP", "_raw_DS_CLASIF_GEN": "Suelo No Urbanizable Protegido", "_raw_DS_CLASIF_DET": "Suelo No Urbanizable Protegido Comunicaciones", "_raw_DS_DOCU": "PLAN GENERAL", "_raw_DS_LEY": null, "_raw_FC_AC": "2004-03-18", "_raw_NM_AREA_M2": 2180.5019375002498, "_cam_code": "123" }, "geometry": { "type": "Polygon", "coordinates": [ [ [ -3.5441, 40.3871 ], [ -3.545, 40.387 ], [ -3.5452, 40.3868 ], [ -3.5444, 40.3867 ], [ -3.5441, 40.3871 ] ] ] } },
{ "type": "Feature", "properties": { "municipio": "Rivas-Vaciamadrid", "clasificacion": "no-urbanizable-protegido", "calificacion": "sin-asignar", "version": "vigente", "fuente": "SIT-CAM WFS — UsoDelSuelo:VPLA_V_CLASIFICACION (https://idem.comunidad.madrid/geosrvg/ows)", "fecha_dato": "2026-05-12", "ambito": "56357", "_raw_CD_SIGLAS": "SNUP", "_raw_DS_CLASIF_GEN": "Suelo No Urbanizable Protegido", "_raw_DS_CLASIF_DET": "Suelo No Urbanizable Protegido Comunicaciones", "_raw_DS_DOCU": "PLAN GENERAL", "_raw_DS_LEY": null, "_raw_FC_AC": "2004-03-18", "_raw_NM_AREA_M2": 396.80961247769102, "_cam_code": "123" }, "geometry": { "type": "Polygon", "coordinates": [ [ [ -3.5195, 40.3973 ], [ -3.5196, 40.3973 ], [ -3.5196, 40.3976 ], [ -3.5196, 40.3978 ], [ -3.5197, 40.3972 ], [ -3.5195, 40.3973 ] ] ] } },
{ "type": "Feature", "properties": { "municipio": "Rivas-Vaciamadrid", "clasificacion": "no-urbanizable-protegido", "calificacion": "sin-asignar", "version": "vigente", "fuente": "SIT-CAM WFS — UsoDelSuelo:VPLA_V_CLASIFICACION (https://idem.comunidad.madrid/geosrvg/ows)", "fecha_dato": "2026-05-12", "ambito": "56357", "_raw_CD_SIGLAS": "SNUP", "_raw_DS_CLASIF_GEN": "Suelo No Urbanizable Protegido", "_raw_DS_CLASIF_DET": "Suelo No Urbanizable Protegido Espacios Naturales Protegidos", "_raw_DS_DOCU": "PLAN GENERAL", "_raw_DS_LEY": null, "_raw_FC_AC": "2004-03-18", "_raw_NM_AREA_M2": 71322.0209001537, "_cam_code": "123" }, "geometry": { "type": "Polygon", "coordinates": [ [ [ -3.5092, 40.3071 ], [ -3.5061, 40.3081 ], [ -3.5052, 40.3092 ], [ -3.5095, 40.3101 ], [ -3.5092, 40.3071 ] ] ] } },
{ "type": "Feature", "properties": { "municipio": "Rivas-Vaciamadrid", "clasificacion": "no-urbanizable-protegido", "calificacion": "sin-asignar", "version": "vigente", "fuente": "SIT-CAM WFS — UsoDelSuelo:VPLA_V_CLASIFICACION (https://idem.comunidad.madrid/geosrvg/ows)", "fecha_dato": "2026-05-12", "ambito": "56357", "_raw_CD_SIGLAS": "SNUP", "_raw_DS_CLASIF_GEN": "Suelo No Urbanizable Protegido", "_raw_DS_CLASIF_DET": "Suelo No Urbanizable Protegido Espacios Naturales Protegidos", "_raw_DS_DOCU": "PLAN GENERAL", "_raw_DS_LEY": null, "_raw_FC_AC": "2004-03-18", "_raw_NM_AREA_M2": 2911.35770004701, "_cam_code": "123" }, "geometry": { "type": "Polygon", "coordinates": [ [ [ -3.5189, 40.4093 ], [ -3.5186, 40.4094 ], [ -3.5185, 40.4097 ], [ -3.5186, 40.4098 ], [ -3.5195, 40.4099 ], [ -3.5191, 40.4094 ], [ -3.5189, 40.4093 ] ] ] } },
{ "type": "Feature", "properties": { "municipio": "Rivas-Vaciamadrid", "clasificacion": "no-urbanizable-protegido", "calificacion": "sin-asignar", "version": "vigente", "fuente": "SIT-CAM WFS — UsoDelSuelo:VPLA_V_CLASIFICACION (https://idem.comunidad.madrid/geosrvg/ows)", "fecha_dato": "2026-05-12", "ambito": "56357", "_raw_CD_SIGLAS": "SNUP", "_raw_DS_CLASIF_GEN": "Suelo No Urbanizable Protegido", "_raw_DS_CLASIF_DET": "Suelo No Urbanizable Protegido Espacios Naturales Protegidos", "_raw_DS_DOCU": "PLAN GENERAL", "_raw_DS_LEY": null, "_raw_FC_AC": "2004-03-18", "_raw_NM_AREA_M2": 1419054.41898745, "_cam_code": "123" }, "geometry": { "type": "Polygon", "coordinates": [ [ [ -3.5117, 40.4089 ], [ -3.5116, 40.411 ], [ -3.5122, 40.4109 ], [ -3.5127, 40.4101 ], [ -3.5135, 40.4096 ], [ -3.515, 40.4105 ], [ -3.5162, 40.4093 ], [ -3.5181, 40.4097 ], [ -3.5183, 40.4093 ], [ -3.5183, 40.4088 ], [ -3.5187, 40.4084 ], [ -3.5189, 40.4079 ], [ -3.519, 40.4068 ], [ -3.5188, 40.405 ], [ -3.5184, 40.4044 ], [ -3.5177, 40.4026 ], [ -3.5183, 40.4 ], [ -3.5191, 40.3981 ], [ -3.5191, 40.3975 ], [ -3.5189, 40.3973 ], [ -3.5087, 40.3979 ], [ -3.5085, 40.3983 ], [ -3.507, 40.4001 ], [ -3.5048, 40.4023 ], [ -3.5013, 40.4052 ], [ -3.5007, 40.4059 ], [ -3.5007, 40.4063 ], [ -3.5013, 40.407 ], [ -3.5028, 40.4073 ], [ -3.5057, 40.4069 ], [ -3.507, 40.4069 ], [ -3.5077, 40.4068 ], [ -3.5084, 40.4065 ], [ -3.5097, 40.4067 ], [ -3.5108, 40.4072 ], [ -3.5112, 40.4076 ], [ -3.5117, 40.4089 ] ] ] } },
{ "type": "Feature", "properties": { "municipio": "Rivas-Vaciamadrid", "clasificacion": "no-urbanizable-protegido", "calificacion": "sin-asignar", "version": "vigente", "fuente": "SIT-CAM WFS — UsoDelSuelo:VPLA_V_CLASIFICACION (https://idem.comunidad.madrid/geosrvg/ows)", "fecha_dato": "2026-05-12", "ambito": "56357", "_raw_CD_SIGLAS": "SNUP", "_raw_DS_CLASIF_GEN": "Suelo No Urbanizable Protegido", "_raw_DS_CLASIF_DET": "Suelo No Urbanizable Protegido Vías Pecuarias", "_raw_DS_DOCU": "PLAN GENERAL", "_raw_DS_LEY": null, "_raw_FC_AC": "2004-03-18", "_raw_NM_AREA_M2": 277013.37728797999, "_cam_code": "123" }, "geometry": { "type": "Polygon", "coordinates": [ [ [ -3.5334, 40.3335 ], [ -3.5364, 40.3332 ], [ -3.5371, 40.3328 ], [ -3.5378, 40.3328 ], [ -3.5438, 40.3318 ], [ -3.5459, 40.3316 ], [ -3.5467, 40.3314 ], [ -3.5472, 40.3311 ], [ -3.5487, 40.3306 ], [ -3.5507, 40.3296 ], [ -3.5514, 40.329 ], [ -3.5529, 40.3284 ], [ -3.5568, 40.3253 ], [ -3.5577, 40.3247 ], [ -3.5585, 40.3244 ], [ -3.5607, 40.3229 ], [ -3.5618, 40.3223 ], [ -3.5634, 40.322 ], [ -3.5654, 40.3202 ], [ -3.5659, 40.3199 ], [ -3.5673, 40.3185 ], [ -3.57, 40.3166 ], [ -3.5707, 40.3162 ], [ -3.5738, 40.3152 ], [ -3.5754, 40.3149 ], [ -3.5756, 40.315 ], [ -3.5757, 40.3152 ], [ -3.5765, 40.3157 ], [ -3.577, 40.3162 ], [ -3.5776, 40.3165 ], [ -3.5786, 40.3174 ], [ -3.5797, 40.3186 ], [ -3.5801, 40.3193 ], [ -3.5806, 40.3197 ], [ -3.5816, 40.3204 ], [ -3.5826, 40.3209 ], [ -3.5826, 40.321 ], [ -3.5838, 40.3216 ], [ -3.5844, 40.3223 ], [ -3.5845, 40.322 ], [ -3.5844, 40.3218 ], [ -3.5831, 40.3209 ], [ -3.5827, 40.3208 ], [ -3.5812, 40.3199 ], [ -3.5803, 40.3191 ], [ -3.5795, 40.318 ], [ -3.5779, 40.3164 ], [ -3.5771, 40.316 ], [ -3.5758, 40.3149 ], [ -3.5755, 40.3147 ], [ -3.5743, 40.3149 ], [ -3.5741, 40.3147 ], [ -3.574, 40.3144 ], [ -3.5753, 40.314 ], [ -3.5753, 40.3137 ], [ -3.5745, 40.3131 ], [ -3.5746, 40.313 ], [ -3.5744, 40.3127 ], [ -3.5741, 40.3116 ], [ -3.5742, 40.3112 ], [ -3.574, 40.311 ], [ -3.5739, 40.31 ], [ -3.5741, 40.3092 ], [ -3.575, 40.3087 ], [ -3.5758, 40.3079 ], [ -3.5758, 40.3077 ], [ -3.5757, 40.3077 ], [ -3.5748, 40.3086 ], [ -3.5739, 40.3091 ], [ -3.5702, 40.3106 ], [ -3.5685, 40.3116 ], [ -3.5667, 40.3125 ], [ -3.5656, 40.3129 ], [ -3.5648, 40.3134 ], [ -3.5639, 40.3137 ], [ -3.5606, 40.3143 ], [ -3.5579, 40.3152 ], [ -3.557, 40.316 ], [ -3.5568, 40.3164 ], [ -3.5554, 40.3173 ], [ -3.555, 40.3174 ], [ -3.5546, 40.3177 ], [ -3.554, 40.3178 ], [ -3.5529, 40.3185 ], [ -3.5517, 40.3188 ], [ -3.5507, 40.3193 ], [ -3.55, 40.3201 ], [ -3.5497, 40.3207 ], [ -3.5491, 40.3212 ], [ -3.5487, 40.3218 ], [ -3.5469, 40.3229 ], [ -3.544, 40.3243 ], [ -3.5436, 40.3246 ], [ -3.5424, 40.325 ], [ -3.542, 40.325 ], [ -3.5413, 40.3254 ], [ -3.5401, 40.3258 ], [ -3.5377, 40.3257 ], [ -3.5371, 40.3259 ], [ -3.5371, 40.326 ], [ -3.5352, 40.3261 ], [ -3.5348, 40.3263 ], [ -3.5336, 40.3262 ], [ -3.5326, 40.3259 ], [ -3.5309, 40.3251 ], [ -3.5288, 40.3237 ], [ -3.5282, 40.3229 ], [ -3.5271, 40.3221 ], [ -3.5257, 40.3219 ], [ -3.5253, 40.322 ], [ -3.5245, 40.3225 ], [ -3.5238, 40.3236 ], [ -3.5228, 40.3241 ], [ -3.5224, 40.3247 ], [ -3.5223, 40.3256 ], [ -3.5217, 40.3258 ], [ -3.5218, 40.326 ], [ -3.5224, 40.3257 ], [ -3.5233, 40.326 ], [ -3.5236, 40.3264 ], [ -3.5246, 40.3272 ], [ -3.5259, 40.3285 ], [ -3.5262, 40.3291 ], [ -3.5299, 40.3321 ], [ -3.5316, 40.3332 ], [ -3.5334, 40.3335 ] ], [ [ -3.574, 40.3149 ], [ -3.5709, 40.3159 ], [ -3.5696, 40.3166 ], [ -3.5693, 40.3169 ], [ -3.5676, 40.3179 ], [ -3.5656, 40.3199 ], [ -3.5648, 40.3204 ], [ -3.5632, 40.3219 ], [ -3.5625, 40.3219 ], [ -3.5614, 40.3222 ], [ -3.5584, 40.3243 ], [ -3.5576, 40.3245 ], [ -3.5554, 40.3261 ], [ -3.5534, 40.3278 ], [ -3.5515, 40.3287 ], [ -3.5506, 40.3294 ], [ -3.5496, 40.3299 ], [ -3.5458, 40.3315 ], [ -3.5438, 40.3316 ], [ -3.5398, 40.3322 ], [ -3.5369, 40.3327 ], [ -3.5365, 40.3328 ], [ -3.5363, 40.333 ], [ -3.535, 40.3332 ], [ -3.533, 40.3333 ], [ -3.532, 40.3331 ], [ -3.5296, 40.3316 ], [ -3.5264, 40.329 ], [ -3.5261, 40.3283 ], [ -3.5238, 40.3262 ], [ -3.5232, 40.3257 ], [ -3.5225, 40.3255 ], [ -3.5226, 40.3254 ], [ -3.5226, 40.3248 ], [ -3.523, 40.3242 ], [ -3.524, 40.3237 ], [ -3.5247, 40.3226 ], [ -3.5254, 40.3221 ], [ -3.5264, 40.3221 ], [ -3.5275, 40.3226 ], [ -3.528, 40.323 ], [ -3.5284, 40.3237 ], [ -3.5303, 40.325 ], [ -3.5325, 40.3261 ], [ -3.5347, 40.3265 ], [ -3.5352, 40.3263 ], [ -3.5372, 40.3262 ], [ -3.5377, 40.3259 ], [ -3.5395, 40.3259 ], [ -3.5398, 40.326 ], [ -3.5408, 40.3258 ], [ -3.5414, 40.3256 ], [ -3.542, 40.3252 ], [ -3.5436, 40.3248 ], [ -3.544, 40.3245 ], [ -3.5475, 40.3228 ], [ -3.5489, 40.3219 ], [ -3.5492, 40.3214 ], [ -3.5499, 40.3208 ], [ -3.5502, 40.3202 ], [ -3.5511, 40.3192 ], [ -3.5527, 40.3188 ], [ -3.5541, 40.318 ], [ -3.555, 40.3177 ], [ -3.557, 40.3165 ], [ -3.5572, 40.3161 ], [ -3.5581, 40.3154 ], [ -3.5601, 40.3146 ], [ -3.5613, 40.3143 ], [ -3.5619, 40.3143 ], [ -3.5635, 40.314 ], [ -3.5645, 40.3137 ], [ -3.5691, 40.3115 ], [ -3.5703, 40.3108 ], [ -3.5724, 40.31 ], [ -3.5738, 40.3093 ], [ -3.5737, 40.3111 ], [ -3.5739, 40.3112 ], [ -3.5741, 40.3127 ], [ -3.5743, 40.313 ], [ -3.5742, 40.3131 ], [ -3.575, 40.3138 ], [ -3.575, 40.3139 ], [ -3.5738, 40.3143 ], [ -3.574, 40.3149 ] ] ] } },
{ "type": "Feature", "properties": { "municipio": "Rivas-Vaciamadrid", "clasificacion": "no-urbanizable-protegido", "calificacion": "sin-asignar", "version": "vigente", "fuente": "SIT-CAM WFS — UsoDelSuelo:VPLA_V_CLASIFICACION (https://idem.comunidad.madrid/geosrvg/ows)", "fecha_dato": "2026-05-12", "ambito": "56357", "_raw_CD_SIGLAS": "SNUP", "_raw_DS_CLASIF_GEN": "Suelo No Urbanizable Protegido", "_raw_DS_CLASIF_DET": "Suelo No Urbanizable Protegido Vías Pecuarias", "_raw_DS_DOCU": "PLAN GENERAL", "_raw_DS_LEY": null, "_raw_FC_AC": "2004-03-18", "_raw_NM_AREA_M2": 140277.890000732, "_cam_code": "123" }, "geometry": { "type": "Polygon", "coordinates": [ [ [ -3.5444, 40.3867 ], [ -3.5452, 40.3868 ], [ -3.5456, 40.3861 ], [ -3.5457, 40.3854 ], [ -3.5461, 40.3846 ], [ -3.5469, 40.3837 ], [ -3.548, 40.382 ], [ -3.5488, 40.3814 ], [ -3.5493, 40.3804 ], [ -3.5491, 40.3783 ], [ -3.5487, 40.3774 ], [ -3.5487, 40.3769 ], [ -3.5488, 40.3769 ], [ -3.5488, 40.3767 ], [ -3.5502, 40.3759 ], [ -3.5506, 40.3754 ], [ -3.5509, 40.3748 ], [ -3.5511, 40.374 ], [ -3.5512, 40.374 ], [ -3.5513, 40.3722 ], [ -3.5512, 40.3718 ], [ -3.5511, 40.3718 ], [ -3.5512, 40.3715 ], [ -3.5512, 40.3702 ], [ -3.5515, 40.3702 ], [ -3.5518, 40.3682 ], [ -3.5522, 40.3676 ], [ -3.5523, 40.3668 ], [ -3.5528, 40.366 ], [ -3.554, 40.3653 ], [ -3.5556, 40.3641 ], [ -3.5555, 40.3639 ], [ -3.5553, 40.3639 ], [ -3.5545, 40.3646 ], [ -3.5541, 40.3646 ], [ -3.5535, 40.3649 ], [ -3.5518, 40.3666 ], [ -3.5515, 40.3678 ], [ -3.5509, 40.369 ], [ -3.5509, 40.3693 ], [ -3.5506, 40.37 ], [ -3.5505, 40.3713 ], [ -3.5507, 40.3714 ], [ -3.5504, 40.3743 ], [ -3.5497, 40.3756 ], [ -3.5487, 40.3764 ], [ -3.5482, 40.3771 ], [ -3.5483, 40.3782 ], [ -3.5486, 40.3794 ], [ -3.5485, 40.3808 ], [ -3.5452, 40.3851 ], [ -3.545, 40.3858 ], [ -3.5444, 40.3867 ] ] ] } },
{ "type": "Feature", "properties": { "municipio": "Rivas-Vaciamadrid", "clasificacion": "no-urbanizable-protegido", "calificacion": "sin-asignar", "version": "vigente", "fuente": "SIT-CAM WFS — UsoDelSuelo:VPLA_V_CLASIFICACION (https://idem.comunidad.madrid/geosrvg/ows)", "fecha_dato": "2026-05-12", "ambito": "56357", "_raw_CD_SIGLAS": "SNUP", "_raw_DS_CLASIF_GEN": "Suelo No Urbanizable Protegido", "_raw_DS_CLASIF_DET": "Suelo No Urbanizable Protegido Vías Pecuarias", "_raw_DS_DOCU": "PLAN GENERAL", "_raw_DS_LEY": null, "_raw_FC_AC": "2004-03-18", "_raw_NM_AREA_M2": 37235.262700090003, "_cam_code": "123" }, "geometry": { "type": "Polygon", "coordinates": [ [ [ -3.5449, 40.387 ], [ -3.5441, 40.3871 ], [ -3.5434, 40.3883 ], [ -3.5422, 40.3916 ], [ -3.5421, 40.393 ], [ -3.5425, 40.3931 ], [ -3.5427, 40.3927 ], [ -3.5429, 40.3915 ], [ -3.5433, 40.3905 ], [ -3.5433, 40.3902 ], [ -3.5438, 40.3892 ], [ -3.5438, 40.3889 ], [ -3.5449, 40.387 ] ] ] } },
{ "type": "Feature", "properties": { "municipio": "Rivas-Vaciamadrid", "clasificacion": "urbanizable-sectorizado", "calificacion": "sin-asignar", "version": "vigente", "fuente": "SIT-CAM WFS — UsoDelSuelo:VPLA_V_CLASIFICACION (https://idem.comunidad.madrid/geosrvg/ows)", "fecha_dato": "2026-05-12", "ambito": "56357", "_raw_CD_SIGLAS": "SUBS", "_raw_DS_CLASIF_GEN": "Suelo Urbanizable Sectorizado", "_raw_DS_CLASIF_DET": "Suelo Urbanizable Sectorizado", "_raw_DS_DOCU": "PLAN GENERAL", "_raw_DS_LEY": null, "_raw_FC_AC": "2004-03-18", "_raw_NM_AREA_M2": 3654132.2407317702, "_cam_code": "123" }, "geometry": { "type": "Polygon", "coordinates": [ [ [ -3.5366, 40.3746 ], [ -3.5348, 40.3755 ], [ -3.5343, 40.3755 ], [ -3.5336, 40.3757 ], [ -3.5233, 40.3765 ], [ -3.5225, 40.3778 ], [ -3.5226, 40.3784 ], [ -3.5224, 40.3814 ], [ -3.523, 40.3822 ], [ -3.5228, 40.3827 ], [ -3.5226, 40.3842 ], [ -3.5225, 40.3857 ], [ -3.5227, 40.3865 ], [ -3.5234, 40.3877 ], [ -3.5237, 40.3885 ], [ -3.5243, 40.3887 ], [ -3.5249, 40.3886 ], [ -3.5259, 40.3893 ], [ -3.5259, 40.3902 ], [ -3.5268, 40.3898 ], [ -3.5292, 40.3894 ], [ -3.5295, 40.3897 ], [ -3.5297, 40.3897 ], [ -3.5298, 40.3899 ], [ -3.5304, 40.3902 ], [ -3.5305, 40.3904 ], [ -3.531, 40.3906 ], [ -3.5315, 40.3911 ], [ -3.5322, 40.3914 ], [ -3.5322, 40.3915 ], [ -3.5329, 40.3917 ], [ -3.5374, 40.3913 ], [ -3.5374, 40.3914 ], [ -3.5377, 40.3914 ], [ -3.5396, 40.3921 ], [ -3.5396, 40.3922 ], [ -3.5399, 40.3922 ], [ -3.5399, 40.3923 ], [ -3.5421, 40.393 ], [ -3.5422, 40.3916 ], [ -3.5434, 40.3883 ], [ -3.5441, 40.3871 ], [ -3.5448, 40.3862 ], [ -3.5454, 40.3848 ], [ -3.5485, 40.3808 ], [ -3.5486, 40.3794 ], [ -3.5483, 40.3782 ], [ -3.5482, 40.3771 ], [ -3.5487, 40.3764 ], [ -3.5497, 40.3756 ], [ -3.5504, 40.3743 ], [ -3.5507, 40.3714 ], [ -3.5495, 40.3718 ], [ -3.5492, 40.3722 ], [ -3.5489, 40.3721 ], [ -3.5482, 40.3715 ], [ -3.5474, 40.3721 ], [ -3.5463, 40.3723 ], [ -3.5439, 40.3739 ], [ -3.5402, 40.373 ], [ -3.5366, 40.3746 ] ], [ [ -3.5368, 40.3746 ], [ -3.5366, 40.3746 ], [ -3.5368, 40.3746 ], [ -3.5368, 40.3746 ] ] ] } },
{ "type": "Feature", "properties": { "municipio": "Rivas-Vaciamadrid", "clasificacion": "urbanizable-sectorizado", "calificacion": "sin-asignar", "version": "vigente", "fuente": "SIT-CAM WFS — UsoDelSuelo:VPLA_V_CLASIFICACION (https://idem.comunidad.madrid/geosrvg/ows)", "fecha_dato": "2026-05-12", "ambito": "56357", "_raw_CD_SIGLAS": "SUBS", "_raw_DS_CLASIF_GEN": "Suelo Urbanizable Sectorizado", "_raw_DS_CLASIF_DET": "Suelo Urbanizable Sectorizado", "_raw_DS_DOCU": "PLAN GENERAL", "_raw_DS_LEY": null, "_raw_FC_AC": "2004-03-18", "_raw_NM_AREA_M2": 2119092.6127139302, "_cam_code": "123" }, "geometry": { "type": "Polygon", "coordinates": [ [ [ -3.5079, 40.3517 ], [ -3.5086, 40.3524 ], [ -3.5085, 40.3526 ], [ -3.509, 40.3527 ], [ -3.5125, 40.3471 ], [ -3.513, 40.3468 ], [ -3.5136, 40.3466 ], [ -3.5144, 40.3466 ], [ -3.5149, 40.3464 ], [ -3.5151, 40.3468 ], [ -3.5257, 40.3432 ], [ -3.5234, 40.3391 ], [ -3.5231, 40.3392 ], [ -3.5231, 40.3391 ], [ -3.5231, 40.3392 ], [ -3.5144, 40.3421 ], [ -3.5134, 40.3403 ], [ -3.5129, 40.3389 ], [ -3.5125, 40.3362 ], [ -3.5122, 40.3354 ], [ -3.5098, 40.3313 ], [ -3.5061, 40.3326 ], [ -3.5044, 40.334 ], [ -3.5034, 40.3352 ], [ -3.5029, 40.3363 ], [ -3.5022, 40.3382 ], [ -3.5019, 40.3398 ], [ -3.5019, 40.341 ], [ -3.5021, 40.3423 ], [ -3.5026, 40.344 ], [ -3.5031, 40.3452 ], [ -3.5048, 40.3478 ], [ -3.5053, 40.3482 ], [ -3.5061, 40.3493 ], [ -3.5065, 40.3502 ], [ -3.5066, 40.3513 ], [ -3.5073, 40.3514 ], [ -3.5073, 40.3515 ], [ -3.5076, 40.3515 ], [ -3.5076, 40.3516 ], [ -3.5079, 40.3517 ] ] ] } },
{ "type": "Feature", "properties": { "municipio": "Rivas-Vaciamadrid", "clasificacion": "urbano-consolidado", "calificacion": "sin-asignar", "version": "vigente", "fuente": "SIT-CAM WFS — UsoDelSuelo:VPLA_V_CLASIFICACION (https://idem.comunidad.madrid/geosrvg/ows)", "fecha_dato": "2026-05-12", "ambito": "56357", "_raw_CD_SIGLAS": "SUC", "_raw_DS_CLASIF_GEN": "Suelo Urbano Consolidado", "_raw_DS_CLASIF_DET": "Suelo Urbano Consolidado", "_raw_DS_DOCU": "PLAN GENERAL", "_raw_DS_LEY": null, "_raw_FC_AC": "2004-03-18", "_raw_NM_AREA_M2": 13229661.8164708, "_cam_code": "123" }, "geometry": { "type": "MultiPolygon", "coordinates": [ [ [ [ -3.5366, 40.3746 ], [ -3.5402, 40.373 ], [ -3.5439, 40.3739 ], [ -3.5463, 40.3723 ], [ -3.5474, 40.3721 ], [ -3.5482, 40.3715 ], [ -3.5489, 40.3721 ], [ -3.5492, 40.3722 ], [ -3.5495, 40.3718 ], [ -3.5506, 40.3714 ], [ -3.5505, 40.3713 ], [ -3.5506, 40.37 ], [ -3.5509, 40.3693 ], [ -3.5509, 40.369 ], [ -3.5515, 40.3678 ], [ -3.5515, 40.3675 ], [ -3.5516, 40.3672 ], [ -3.5517, 40.3672 ], [ -3.5519, 40.3664 ], [ -3.5535, 40.3649 ], [ -3.5541, 40.3646 ], [ -3.5545, 40.3646 ], [ -3.5553, 40.3639 ], [ -3.5556, 40.3638 ], [ -3.5556, 40.3631 ], [ -3.5558, 40.3629 ], [ -3.5561, 40.3621 ], [ -3.5561, 40.3616 ], [ -3.5559, 40.3613 ], [ -3.5559, 40.361 ], [ -3.5558, 40.361 ], [ -3.5558, 40.36 ], [ -3.5555, 40.3594 ], [ -3.5529, 40.3615 ], [ -3.5528, 40.3613 ], [ -3.5529, 40.3577 ], [ -3.5533, 40.3561 ], [ -3.5532, 40.3561 ], [ -3.5524, 40.3546 ], [ -3.5519, 40.3541 ], [ -3.5514, 40.3539 ], [ -3.551, 40.3541 ], [ -3.5507, 40.354 ], [ -3.5489, 40.3522 ], [ -3.5488, 40.352 ], [ -3.5489, 40.3515 ], [ -3.5463, 40.3491 ], [ -3.5459, 40.3489 ], [ -3.5456, 40.3485 ], [ -3.5436, 40.347 ], [ -3.5431, 40.3471 ], [ -3.5431, 40.3467 ], [ -3.5414, 40.3455 ], [ -3.541, 40.345 ], [ -3.5405, 40.3447 ], [ -3.5387, 40.3427 ], [ -3.5383, 40.342 ], [ -3.5376, 40.34 ], [ -3.5359, 40.3376 ], [ -3.5355, 40.3365 ], [ -3.535, 40.336 ], [ -3.5333, 40.3351 ], [ -3.5308, 40.3345 ], [ -3.5295, 40.3338 ], [ -3.5249, 40.33 ], [ -3.5234, 40.3289 ], [ -3.5217, 40.3274 ], [ -3.52, 40.3262 ], [ -3.5186, 40.325 ], [ -3.5184, 40.3249 ], [ -3.5181, 40.3251 ], [ -3.5156, 40.3229 ], [ -3.5149, 40.3225 ], [ -3.5147, 40.3225 ], [ -3.5128, 40.3231 ], [ -3.5125, 40.323 ], [ -3.5125, 40.3231 ], [ -3.5111, 40.3234 ], [ -3.5112, 40.3234 ], [ -3.5111, 40.3237 ], [ -3.5069, 40.3251 ], [ -3.5068, 40.3256 ], [ -3.5067, 40.3256 ], [ -3.5066, 40.3259 ], [ -3.5066, 40.3268 ], [ -3.5063, 40.328 ], [ -3.5064, 40.329 ], [ -3.5068, 40.3304 ], [ -3.5068, 40.3319 ], [ -3.5066, 40.3324 ], [ -3.5098, 40.3313 ], [ -3.5122, 40.3354 ], [ -3.5125, 40.3362 ], [ -3.5129, 40.3389 ], [ -3.5134, 40.3403 ], [ -3.5144, 40.3421 ], [ -3.5231, 40.3392 ], [ -3.5231, 40.3391 ], [ -3.5231, 40.3392 ], [ -3.5234, 40.3391 ], [ -3.5257, 40.3432 ], [ -3.5215, 40.3446 ], [ -3.5221, 40.3456 ], [ -3.5234, 40.347 ], [ -3.5196, 40.3496 ], [ -3.5187, 40.3501 ], [ -3.5182, 40.3502 ], [ -3.5163, 40.3498 ], [ -3.5155, 40.3498 ], [ -3.5147, 40.3501 ], [ -3.5143, 40.3505 ], [ -3.514, 40.3515 ], [ -3.5128, 40.3523 ], [ -3.5126, 40.3527 ], [ -3.5123, 40.3542 ], [ -3.5124, 40.3546 ], [ -3.5128, 40.3551 ], [ -3.5121, 40.3557 ], [ -3.51, 40.358 ], [ -3.5105, 40.3581 ], [ -3.5109, 40.3584 ], [ -3.5109, 40.3586 ], [ -3.511, 40.3586 ], [ -3.511, 40.3596 ], [ -3.5113, 40.3599 ], [ -3.512, 40.36 ], [ -3.5122, 40.3602 ], [ -3.5122, 40.3604 ], [ -3.5123, 40.3604 ], [ -3.5122, 40.3608 ], [ -3.5119, 40.361 ], [ -3.5119, 40.3615 ], [ -3.5122, 40.3621 ], [ -3.5123, 40.3621 ], [ -3.5123, 40.3623 ], [ -3.5132, 40.3632 ], [ -3.5132, 40.3635 ], [ -3.5133, 40.3635 ], [ -3.5133, 40.3653 ], [ -3.5136, 40.3657 ], [ -3.515, 40.366 ], [ -3.5158, 40.3664 ], [ -3.5179, 40.367 ], [ -3.5209, 40.3686 ], [ -3.5209, 40.3691 ], [ -3.5207, 40.3696 ], [ -3.5209, 40.3709 ], [ -3.5206, 40.3724 ], [ -3.5207, 40.3731 ], [ -3.5206, 40.376 ], [ -3.5214, 40.3782 ], [ -3.5215, 40.3789 ], [ -3.522, 40.3789 ], [ -3.5226, 40.3782 ], [ -3.5225, 40.3778 ], [ -3.5233, 40.3765 ], [ -3.529, 40.376 ], [ -3.5329, 40.3758 ], [ -3.5348, 40.3755 ], [ -3.5366, 40.3746 ] ] ], [ [ [ -3.5368, 40.3746 ], [ -3.5368, 40.3746 ], [ -3.5366, 40.3746 ], [ -3.5368, 40.3746 ] ] ] ] } },
{ "type": "Feature", "properties": { "municipio": "Rivas-Vaciamadrid", "clasificacion": "urbano-no-consolidado", "calificacion": "sin-asignar", "version": "vigente", "fuente": "SIT-CAM WFS — UsoDelSuelo:VPLA_V_CLASIFICACION (https://idem.comunidad.madrid/geosrvg/ows)", "fecha_dato": "2026-05-12", "ambito": "56357", "_raw_CD_SIGLAS": "SUNC", "_raw_DS_CLASIF_GEN": "Suelo Urbano No Consolidado", "_raw_DS_CLASIF_DET": "Suelo Urbano No Consolidado", "_raw_DS_DOCU": "PLAN GENERAL", "_raw_DS_LEY": null, "_raw_FC_AC": "2004-03-18", "_raw_NM_AREA_M2": 639826.12957154005, "_cam_code": "123" }, "geometry": { "type": "Polygon", "coordinates": [ [ [ -3.51, 40.358 ], [ -3.5121, 40.3557 ], [ -3.5128, 40.3551 ], [ -3.5124, 40.3546 ], [ -3.5123, 40.3542 ], [ -3.5126, 40.3527 ], [ -3.5128, 40.3523 ], [ -3.514, 40.3515 ], [ -3.5143, 40.3505 ], [ -3.5147, 40.3501 ], [ -3.5155, 40.3498 ], [ -3.5163, 40.3498 ], [ -3.518, 40.3502 ], [ -3.5187, 40.3501 ], [ -3.5234, 40.347 ], [ -3.5221, 40.3456 ], [ -3.5215, 40.3446 ], [ -3.5151, 40.3468 ], [ -3.5149, 40.3464 ], [ -3.5144, 40.3466 ], [ -3.5136, 40.3466 ], [ -3.5125, 40.3471 ], [ -3.509, 40.3527 ], [ -3.5086, 40.3526 ], [ -3.5087, 40.3529 ], [ -3.5088, 40.3529 ], [ -3.5088, 40.3532 ], [ -3.5089, 40.3532 ], [ -3.5086, 40.3543 ], [ -3.5086, 40.355 ], [ -3.5088, 40.3552 ], [ -3.5088, 40.3556 ], [ -3.508, 40.3562 ], [ -3.5081, 40.3566 ], [ -3.5078, 40.357 ], [ -3.5078, 40.3573 ], [ -3.5092, 40.3576 ], [ -3.5092, 40.3577 ], [ -3.51, 40.358 ] ] ] } }
]
}
