{
"type": "FeatureCollection",
"name": "vigente.full",
"features": [
{ "type": "Feature", "properties": { "municipio": "Valdelaguna", "clasificacion": "no-urbanizable-protegido", "calificacion": "sin-asignar", "version": "vigente", "fuente": "SIT-CAM WFS — UsoDelSuelo:VPLA_V_CLASIFICACION (https://idem.comunidad.madrid/geosrvg/ows)", "fecha_dato": "2026-05-12", "ambito": "38428", "_raw_CD_SIGLAS": "SNUP", "_raw_DS_CLASIF_GEN": "Suelo No Urbanizable Protegido", "_raw_DS_CLASIF_DET": "Suelo No Urbanizable Protegido de interés cultural  - Interés Arqueológico Área de Protección C", "_raw_DS_DOCU": "NORMAS SUBSIDIARIAS", "_raw_DS_LEY": null, "_raw_FC_AC": "1999-02-04", "_raw_NM_AREA_M2": 99557.267792829807, "_cam_code": "157" }, "geometry": { "type": "Polygon", "coordinates": [ [ [ -3.3939, 40.219 ], [ -3.3945, 40.219 ], [ -3.395, 40.2181 ], [ -3.3949, 40.2178 ], [ -3.3942, 40.2175 ], [ -3.3934, 40.2166 ], [ -3.3931, 40.2151 ], [ -3.3924, 40.2144 ], [ -3.3922, 40.214 ], [ -3.3919, 40.2123 ], [ -3.3928, 40.2103 ], [ -3.3904, 40.2132 ], [ -3.3909, 40.214 ], [ -3.391, 40.2146 ], [ -3.392, 40.216 ], [ -3.3921, 40.2173 ], [ -3.3929, 40.218 ], [ -3.3937, 40.2183 ], [ -3.3939, 40.2187 ], [ -3.3939, 40.219 ] ] ] } },
{ "type": "Feature", "properties": { "municipio": "Valdelaguna", "clasificacion": "no-urbanizable-protegido", "calificacion": "sin-asignar", "version": "vigente", "fuente": "SIT-CAM WFS — UsoDelSuelo:VPLA_V_CLASIFICACION (https://idem.comunidad.madrid/geosrvg/ows)", "fecha_dato": "2026-05-12", "ambito": "38428", "_raw_CD_SIGLAS": "SNUP", "_raw_DS_CLASIF_GEN": "Suelo No Urbanizable Protegido", "_raw_DS_CLASIF_DET": "Suelo No Urbanizable Protegido Clase III - Espacios de interés forestal y paisajístico", "_raw_DS_DOCU": "NORMAS SUBSIDIARIAS", "_raw_DS_LEY": null, "_raw_FC_AC": "1999-02-04", "_raw_NM_AREA_M2": 1005789.19124348, "_cam_code": "157" }, "geometry": { "type": "Polygon", "coordinates": [ [ [ -3.361, 40.1595 ], [ -3.3611, 40.1597 ], [ -3.3614, 40.1598 ], [ -3.3608, 40.1592 ], [ -3.3609, 40.1591 ], [ -3.3609, 40.1584 ], [ -3.3607, 40.1582 ], [ -3.3601, 40.1582 ], [ -3.3603, 40.1571 ], [ -3.36, 40.1564 ], [ -3.3607, 40.1563 ], [ -3.361, 40.1561 ], [ -3.3623, 40.1559 ], [ -3.3625, 40.1557 ], [ -3.3627, 40.1557 ], [ -3.363, 40.1553 ], [ -3.3649, 40.1551 ], [ -3.3656, 40.1549 ], [ -3.3659, 40.1551 ], [ -3.366, 40.1557 ], [ -3.3644, 40.1571 ], [ -3.3642, 40.1576 ], [ -3.3646, 40.1576 ], [ -3.365, 40.1572 ], [ -3.3653, 40.1573 ], [ -3.3653, 40.1579 ], [ -3.3657, 40.158 ], [ -3.3659, 40.1578 ], [ -3.3661, 40.1578 ], [ -3.3673, 40.1567 ], [ -3.3682, 40.1563 ], [ -3.3683, 40.1558 ], [ -3.3675, 40.1557 ], [ -3.3675, 40.1555 ], [ -3.367, 40.1548 ], [ -3.367, 40.1546 ], [ -3.368, 40.1538 ], [ -3.3684, 40.1533 ], [ -3.3693, 40.1531 ], [ -3.3699, 40.1527 ], [ -3.3693, 40.1524 ], [ -3.3693, 40.1521 ], [ -3.369, 40.1514 ], [ -3.3692, 40.1511 ], [ -3.3701, 40.1511 ], [ -3.3704, 40.1508 ], [ -3.3719, 40.1502 ], [ -3.3728, 40.1494 ], [ -3.3737, 40.1493 ], [ -3.3742, 40.1491 ], [ -3.3742, 40.1489 ], [ -3.3731, 40.1491 ], [ -3.3698, 40.149 ], [ -3.369, 40.1488 ], [ -3.3669, 40.1487 ], [ -3.3662, 40.1485 ], [ -3.3657, 40.1486 ], [ -3.3653, 40.1482 ], [ -3.3642, 40.1492 ], [ -3.3635, 40.1496 ], [ -3.363, 40.1496 ], [ -3.3628, 40.1494 ], [ -3.3629, 40.149 ], [ -3.3631, 40.1487 ], [ -3.3639, 40.1481 ], [ -3.364, 40.1467 ], [ -3.3638, 40.1466 ], [ -3.3625, 40.1469 ], [ -3.3619, 40.1463 ], [ -3.3616, 40.1456 ], [ -3.3606, 40.1455 ], [ -3.3603, 40.1452 ], [ -3.3592, 40.144 ], [ -3.3591, 40.1434 ], [ -3.3589, 40.1433 ], [ -3.3564, 40.1434 ], [ -3.3554, 40.1432 ], [ -3.3551, 40.1433 ], [ -3.3532, 40.1442 ], [ -3.3526, 40.1447 ], [ -3.3536, 40.1457 ], [ -3.3544, 40.1458 ], [ -3.3563, 40.1464 ], [ -3.357, 40.1464 ], [ -3.3572, 40.1466 ], [ -3.3575, 40.1472 ], [ -3.3572, 40.1482 ], [ -3.3575, 40.1486 ], [ -3.3583, 40.149 ], [ -3.359, 40.1496 ], [ -3.3595, 40.1504 ], [ -3.3597, 40.1514 ], [ -3.36, 40.1517 ], [ -3.3602, 40.1517 ], [ -3.3591, 40.1536 ], [ -3.3592, 40.1539 ], [ -3.3595, 40.154 ], [ -3.3615, 40.1534 ], [ -3.3633, 40.1533 ], [ -3.3646, 40.1525 ], [ -3.3657, 40.1512 ], [ -3.3664, 40.151 ], [ -3.3664, 40.1512 ], [ -3.365, 40.153 ], [ -3.3643, 40.1534 ], [ -3.3583, 40.1554 ], [ -3.3582, 40.1559 ], [ -3.3592, 40.1567 ], [ -3.3596, 40.1576 ], [ -3.3592, 40.1586 ], [ -3.3604, 40.1591 ], [ -3.3604, 40.1596 ], [ -3.3606, 40.1594 ], [ -3.361, 40.1595 ] ] ] } },
{ "type": "Feature", "properties": { "municipio": "Valdelaguna", "clasificacion": "no-urbanizable-protegido", "calificacion": "sin-asignar", "version": "vigente", "fuente": "SIT-CAM WFS — UsoDelSuelo:VPLA_V_CLASIFICACION (https://idem.comunidad.madrid/geosrvg/ows)", "fecha_dato": "2026-05-12", "ambito": "38428", "_raw_CD_SIGLAS": "SNUP", "_raw_DS_CLASIF_GEN": "Suelo No Urbanizable Protegido", "_raw_DS_CLASIF_DET": "Suelo No Urbanizable Protegido Clase III - Espacios de interés forestal y paisajístico", "_raw_DS_DOCU": "NORMAS SUBSIDIARIAS", "_raw_DS_LEY": null, "_raw_FC_AC": "1999-02-04", "_raw_NM_AREA_M2": 406916.53812078998, "_cam_code": "157" }, "geometry": { "type": "Polygon", "coordinates": [ [ [ -3.3511, 40.1699 ], [ -3.3508, 40.1704 ], [ -3.3509, 40.1707 ], [ -3.3511, 40.1711 ], [ -3.3519, 40.172 ], [ -3.3522, 40.173 ], [ -3.3521, 40.1735 ], [ -3.3526, 40.1742 ], [ -3.3528, 40.174 ], [ -3.3526, 40.1734 ], [ -3.3528, 40.173 ], [ -3.3523, 40.1727 ], [ -3.3527, 40.1723 ], [ -3.353, 40.1722 ], [ -3.3534, 40.1717 ], [ -3.3537, 40.171 ], [ -3.3539, 40.171 ], [ -3.3539, 40.1707 ], [ -3.3542, 40.1703 ], [ -3.3543, 40.1696 ], [ -3.3547, 40.1699 ], [ -3.3558, 40.1694 ], [ -3.357, 40.1682 ], [ -3.357, 40.168 ], [ -3.3574, 40.1679 ], [ -3.3573, 40.1676 ], [ -3.3577, 40.1672 ], [ -3.3578, 40.1669 ], [ -3.3577, 40.1661 ], [ -3.3572, 40.1658 ], [ -3.3576, 40.1655 ], [ -3.3577, 40.165 ], [ -3.3574, 40.1641 ], [ -3.3576, 40.1626 ], [ -3.3574, 40.1625 ], [ -3.3573, 40.1618 ], [ -3.3569, 40.1617 ], [ -3.3569, 40.1615 ], [ -3.3575, 40.1609 ], [ -3.3575, 40.1605 ], [ -3.3572, 40.1602 ], [ -3.3568, 40.1601 ], [ -3.3569, 40.1599 ], [ -3.3557, 40.1585 ], [ -3.3553, 40.1582 ], [ -3.356, 40.1575 ], [ -3.3556, 40.1576 ], [ -3.3544, 40.1575 ], [ -3.3526, 40.1577 ], [ -3.3518, 40.1574 ], [ -3.3512, 40.1574 ], [ -3.3503, 40.1575 ], [ -3.3502, 40.1577 ], [ -3.3496, 40.1578 ], [ -3.3493, 40.158 ], [ -3.3495, 40.1581 ], [ -3.3502, 40.159 ], [ -3.3503, 40.1594 ], [ -3.3501, 40.16 ], [ -3.3495, 40.1603 ], [ -3.3497, 40.1604 ], [ -3.351, 40.1601 ], [ -3.3543, 40.1603 ], [ -3.3546, 40.161 ], [ -3.3549, 40.1611 ], [ -3.3554, 40.1618 ], [ -3.3554, 40.1623 ], [ -3.3559, 40.1632 ], [ -3.3562, 40.1633 ], [ -3.3563, 40.1635 ], [ -3.3563, 40.1642 ], [ -3.3558, 40.1652 ], [ -3.3557, 40.1667 ], [ -3.355, 40.1675 ], [ -3.355, 40.168 ], [ -3.3547, 40.1685 ], [ -3.3533, 40.1689 ], [ -3.3528, 40.1692 ], [ -3.3523, 40.1699 ], [ -3.3519, 40.17 ], [ -3.3511, 40.1699 ] ] ] } },
{ "type": "Feature", "properties": { "municipio": "Valdelaguna", "clasificacion": "no-urbanizable-protegido", "calificacion": "sin-asignar", "version": "vigente", "fuente": "SIT-CAM WFS — UsoDelSuelo:VPLA_V_CLASIFICACION (https://idem.comunidad.madrid/geosrvg/ows)", "fecha_dato": "2026-05-12", "ambito": "38428", "_raw_CD_SIGLAS": "SNUP", "_raw_DS_CLASIF_GEN": "Suelo No Urbanizable Protegido", "_raw_DS_CLASIF_DET": "Suelo No Urbanizable Protegido Clase III - Espacios de interés forestal y paisajístico", "_raw_DS_DOCU": "NORMAS SUBSIDIARIAS", "_raw_DS_LEY": null, "_raw_FC_AC": "1999-02-04", "_raw_NM_AREA_M2": 3530795.2338982499, "_cam_code": "157" }, "geometry": { "type": "Polygon", "coordinates": [ [ [ -3.3566, 40.1828 ], [ -3.3576, 40.1835 ], [ -3.3576, 40.1838 ], [ -3.3581, 40.1839 ], [ -3.3581, 40.1845 ], [ -3.3582, 40.1846 ], [ -3.3586, 40.1846 ], [ -3.3589, 40.1848 ], [ -3.3612, 40.1849 ], [ -3.3627, 40.1852 ], [ -3.3632, 40.1855 ], [ -3.3647, 40.1857 ], [ -3.3668, 40.1848 ], [ -3.3672, 40.1842 ], [ -3.3683, 40.1816 ], [ -3.369, 40.181 ], [ -3.3695, 40.1797 ], [ -3.3704, 40.1783 ], [ -3.3708, 40.1792 ], [ -3.3712, 40.1797 ], [ -3.3716, 40.1797 ], [ -3.3728, 40.1789 ], [ -3.3745, 40.1783 ], [ -3.3755, 40.1785 ], [ -3.376, 40.1775 ], [ -3.3762, 40.1773 ], [ -3.3766, 40.1773 ], [ -3.3769, 40.1769 ], [ -3.3781, 40.1767 ], [ -3.3794, 40.1761 ], [ -3.3811, 40.1756 ], [ -3.3816, 40.1756 ], [ -3.3835, 40.176 ], [ -3.3843, 40.1766 ], [ -3.3849, 40.1767 ], [ -3.3853, 40.177 ], [ -3.3862, 40.1771 ], [ -3.3864, 40.1767 ], [ -3.3863, 40.1765 ], [ -3.3869, 40.176 ], [ -3.3872, 40.1755 ], [ -3.3862, 40.1757 ], [ -3.3866, 40.1751 ], [ -3.3866, 40.1749 ], [ -3.3863, 40.1748 ], [ -3.3861, 40.1741 ], [ -3.3856, 40.1734 ], [ -3.385, 40.1731 ], [ -3.3844, 40.1723 ], [ -3.3845, 40.1717 ], [ -3.384, 40.1716 ], [ -3.3833, 40.1711 ], [ -3.3822, 40.1707 ], [ -3.3814, 40.1701 ], [ -3.3819, 40.1695 ], [ -3.3818, 40.1686 ], [ -3.3816, 40.1685 ], [ -3.3813, 40.1694 ], [ -3.3805, 40.1696 ], [ -3.3799, 40.1701 ], [ -3.3793, 40.1697 ], [ -3.3794, 40.1695 ], [ -3.3792, 40.169 ], [ -3.3796, 40.1686 ], [ -3.3795, 40.1684 ], [ -3.379, 40.1682 ], [ -3.3786, 40.1682 ], [ -3.3779, 40.1678 ], [ -3.3759, 40.1675 ], [ -3.3752, 40.1681 ], [ -3.374, 40.1682 ], [ -3.374, 40.168 ], [ -3.3742, 40.1678 ], [ -3.3751, 40.1675 ], [ -3.3756, 40.1669 ], [ -3.3755, 40.1666 ], [ -3.3748, 40.1665 ], [ -3.3742, 40.1666 ], [ -3.3726, 40.1662 ], [ -3.372, 40.1658 ], [ -3.3717, 40.1654 ], [ -3.3716, 40.1649 ], [ -3.3714, 40.1648 ], [ -3.3709, 40.1651 ], [ -3.3701, 40.1652 ], [ -3.369, 40.1649 ], [ -3.3684, 40.1649 ], [ -3.3677, 40.1651 ], [ -3.3671, 40.1656 ], [ -3.3654, 40.1661 ], [ -3.3651, 40.1663 ], [ -3.3649, 40.1662 ], [ -3.365, 40.1657 ], [ -3.3649, 40.1655 ], [ -3.3655, 40.1646 ], [ -3.3655, 40.1643 ], [ -3.3658, 40.1638 ], [ -3.3657, 40.1632 ], [ -3.3654, 40.1632 ], [ -3.3652, 40.1634 ], [ -3.365, 40.1631 ], [ -3.3645, 40.1632 ], [ -3.3645, 40.1631 ], [ -3.364, 40.163 ], [ -3.3635, 40.1626 ], [ -3.3631, 40.1625 ], [ -3.363, 40.1626 ], [ -3.3629, 40.1625 ], [ -3.3629, 40.1623 ], [ -3.363, 40.1623 ], [ -3.3625, 40.162 ], [ -3.3624, 40.162 ], [ -3.3624, 40.1622 ], [ -3.362, 40.1617 ], [ -3.3609, 40.1617 ], [ -3.3601, 40.1625 ], [ -3.3601, 40.1627 ], [ -3.3604, 40.163 ], [ -3.3602, 40.1634 ], [ -3.3599, 40.1636 ], [ -3.3599, 40.164 ], [ -3.3601, 40.1643 ], [ -3.3604, 40.1644 ], [ -3.3603, 40.1655 ], [ -3.3604, 40.1658 ], [ -3.3598, 40.1673 ], [ -3.3597, 40.1683 ], [ -3.3591, 40.1694 ], [ -3.3586, 40.1699 ], [ -3.3582, 40.1706 ], [ -3.3579, 40.1708 ], [ -3.3576, 40.1715 ], [ -3.3577, 40.1716 ], [ -3.3586, 40.1716 ], [ -3.3606, 40.1711 ], [ -3.3607, 40.1709 ], [ -3.3611, 40.1707 ], [ -3.3623, 40.1706 ], [ -3.3629, 40.1703 ], [ -3.3637, 40.1704 ], [ -3.3642, 40.1702 ], [ -3.3648, 40.1703 ], [ -3.3651, 40.1706 ], [ -3.365, 40.1707 ], [ -3.3645, 40.1706 ], [ -3.3641, 40.1709 ], [ -3.363, 40.1709 ], [ -3.3629, 40.1711 ], [ -3.3625, 40.1711 ], [ -3.3605, 40.1723 ], [ -3.3602, 40.1723 ], [ -3.3592, 40.1727 ], [ -3.3588, 40.1731 ], [ -3.358, 40.1735 ], [ -3.3578, 40.1738 ], [ -3.3578, 40.1739 ], [ -3.3596, 40.1742 ], [ -3.3609, 40.1742 ], [ -3.3604, 40.1744 ], [ -3.3601, 40.1749 ], [ -3.36, 40.1748 ], [ -3.3601, 40.1744 ], [ -3.36, 40.1744 ], [ -3.3595, 40.1747 ], [ -3.359, 40.1747 ], [ -3.3577, 40.1751 ], [ -3.3564, 40.1752 ], [ -3.3566, 40.1755 ], [ -3.3569, 40.1756 ], [ -3.3568, 40.1761 ], [ -3.3576, 40.1762 ], [ -3.3576, 40.1763 ], [ -3.3571, 40.1764 ], [ -3.3569, 40.1766 ], [ -3.3571, 40.1773 ], [ -3.3562, 40.1774 ], [ -3.3557, 40.1776 ], [ -3.3553, 40.1783 ], [ -3.3555, 40.1787 ], [ -3.3558, 40.1787 ], [ -3.3573, 40.1795 ], [ -3.3585, 40.1797 ], [ -3.3592, 40.1796 ], [ -3.3596, 40.1792 ], [ -3.3606, 40.1789 ], [ -3.36, 40.1793 ], [ -3.3596, 40.1798 ], [ -3.3594, 40.1798 ], [ -3.3593, 40.18 ], [ -3.359, 40.18 ], [ -3.3587, 40.1803 ], [ -3.3589, 40.1806 ], [ -3.3595, 40.1807 ], [ -3.3619, 40.1816 ], [ -3.3608, 40.1819 ], [ -3.361, 40.1824 ], [ -3.3613, 40.1825 ], [ -3.3615, 40.1828 ], [ -3.3615, 40.1831 ], [ -3.3605, 40.1825 ], [ -3.3599, 40.1824 ], [ -3.36, 40.1821 ], [ -3.3588, 40.181 ], [ -3.3585, 40.1813 ], [ -3.3577, 40.1805 ], [ -3.3574, 40.1806 ], [ -3.3559, 40.1804 ], [ -3.3556, 40.1807 ], [ -3.356, 40.1817 ], [ -3.3566, 40.1828 ] ] ] } },
{ "type": "Feature", "properties": { "municipio": "Valdelaguna", "clasificacion": "no-urbanizable-protegido", "calificacion": "sin-asignar", "version": "vigente", "fuente": "SIT-CAM WFS — UsoDelSuelo:VPLA_V_CLASIFICACION (https://idem.comunidad.madrid/geosrvg/ows)", "fecha_dato": "2026-05-12", "ambito": "38428", "_raw_CD_SIGLAS": "SNUP", "_raw_DS_CLASIF_GEN": "Suelo No Urbanizable Protegido", "_raw_DS_CLASIF_DET": "Suelo No Urbanizable Protegido Clase III - Espacios de interés forestal y paisajístico", "_raw_DS_DOCU": "NORMAS SUBSIDIARIAS", "_raw_DS_LEY": null, "_raw_FC_AC": "1999-02-04", "_raw_NM_AREA_M2": 212652.83444663801, "_cam_code": "157" }, "geometry": { "type": "Polygon", "coordinates": [ [ [ -3.3518, 40.1861 ], [ -3.3521, 40.1866 ], [ -3.3581, 40.1864 ], [ -3.3582, 40.1863 ], [ -3.3579, 40.1862 ], [ -3.3578, 40.1858 ], [ -3.3573, 40.186 ], [ -3.3568, 40.1858 ], [ -3.3564, 40.1858 ], [ -3.3561, 40.1856 ], [ -3.3551, 40.1838 ], [ -3.3552, 40.1834 ], [ -3.3553, 40.1833 ], [ -3.356, 40.1834 ], [ -3.3559, 40.1837 ], [ -3.3564, 40.184 ], [ -3.3567, 40.184 ], [ -3.3567, 40.1841 ], [ -3.3569, 40.184 ], [ -3.3576, 40.1841 ], [ -3.3577, 40.184 ], [ -3.3571, 40.1838 ], [ -3.3563, 40.1832 ], [ -3.3543, 40.1806 ], [ -3.3541, 40.1804 ], [ -3.3537, 40.1803 ], [ -3.3521, 40.183 ], [ -3.3519, 40.1836 ], [ -3.3513, 40.1846 ], [ -3.3511, 40.1853 ], [ -3.3512, 40.1856 ], [ -3.3518, 40.1861 ] ] ] } },
{ "type": "Feature", "properties": { "municipio": "Valdelaguna", "clasificacion": "no-urbanizable-protegido", "calificacion": "sin-asignar", "version": "vigente", "fuente": "SIT-CAM WFS — UsoDelSuelo:VPLA_V_CLASIFICACION (https://idem.comunidad.madrid/geosrvg/ows)", "fecha_dato": "2026-05-12", "ambito": "38428", "_raw_CD_SIGLAS": "SNUP", "_raw_DS_CLASIF_GEN": "Suelo No Urbanizable Protegido", "_raw_DS_CLASIF_DET": "Suelo No Urbanizable Protegido Clase III - Espacios de interés forestal y paisajístico", "_raw_DS_DOCU": "NORMAS SUBSIDIARIAS", "_raw_DS_LEY": null, "_raw_FC_AC": "1999-02-04", "_raw_NM_AREA_M2": 412548.69736014301, "_cam_code": "157" }, "geometry": { "type": "Polygon", "coordinates": [ [ [ -3.3441, 40.1859 ], [ -3.3449, 40.1863 ], [ -3.3451, 40.1869 ], [ -3.3488, 40.1868 ], [ -3.3483, 40.1853 ], [ -3.3483, 40.185 ], [ -3.3487, 40.1842 ], [ -3.3502, 40.1827 ], [ -3.3504, 40.182 ], [ -3.3502, 40.1804 ], [ -3.3504, 40.1799 ], [ -3.3509, 40.1794 ], [ -3.3511, 40.179 ], [ -3.3514, 40.1779 ], [ -3.3525, 40.1766 ], [ -3.3519, 40.1768 ], [ -3.3513, 40.1768 ], [ -3.3507, 40.1771 ], [ -3.3499, 40.1772 ], [ -3.3493, 40.1775 ], [ -3.349, 40.178 ], [ -3.3482, 40.1785 ], [ -3.3479, 40.179 ], [ -3.3473, 40.1791 ], [ -3.3472, 40.179 ], [ -3.346, 40.1789 ], [ -3.3453, 40.179 ], [ -3.3455, 40.1793 ], [ -3.3472, 40.1798 ], [ -3.3472, 40.1801 ], [ -3.347, 40.1803 ], [ -3.3475, 40.1804 ], [ -3.3474, 40.1805 ], [ -3.3475, 40.1807 ], [ -3.348, 40.1808 ], [ -3.349, 40.1816 ], [ -3.3483, 40.1819 ], [ -3.3478, 40.1815 ], [ -3.3471, 40.1812 ], [ -3.3455, 40.1811 ], [ -3.3443, 40.182 ], [ -3.3437, 40.1821 ], [ -3.3426, 40.1829 ], [ -3.3426, 40.1831 ], [ -3.3445, 40.1831 ], [ -3.3449, 40.1837 ], [ -3.3449, 40.1839 ], [ -3.344, 40.1849 ], [ -3.3429, 40.1848 ], [ -3.3425, 40.185 ], [ -3.3424, 40.1852 ], [ -3.3418, 40.1854 ], [ -3.341, 40.1853 ], [ -3.3412, 40.186 ], [ -3.3416, 40.1862 ], [ -3.343, 40.1862 ], [ -3.3441, 40.1859 ] ] ] } },
{ "type": "Feature", "properties": { "municipio": "Valdelaguna", "clasificacion": "no-urbanizable-protegido", "calificacion": "sin-asignar", "version": "vigente", "fuente": "SIT-CAM WFS — UsoDelSuelo:VPLA_V_CLASIFICACION (https://idem.comunidad.madrid/geosrvg/ows)", "fecha_dato": "2026-05-12", "ambito": "38428", "_raw_CD_SIGLAS": "SNUP", "_raw_DS_CLASIF_GEN": "Suelo No Urbanizable Protegido", "_raw_DS_CLASIF_DET": "Suelo No Urbanizable Protegido Clase III - Espacios de interés forestal y paisajístico", "_raw_DS_DOCU": "NORMAS SUBSIDIARIAS", "_raw_DS_LEY": null, "_raw_FC_AC": "1999-02-04", "_raw_NM_AREA_M2": 105154.855051045, "_cam_code": "157" }, "geometry": { "type": "Polygon", "coordinates": [ [ [ -3.3423, 40.1607 ], [ -3.3421, 40.162 ], [ -3.3418, 40.1623 ], [ -3.3421, 40.1628 ], [ -3.3421, 40.1633 ], [ -3.343, 40.1637 ], [ -3.3434, 40.1636 ], [ -3.3435, 40.1633 ], [ -3.3438, 40.163 ], [ -3.3455, 40.1627 ], [ -3.3461, 40.1623 ], [ -3.347, 40.162 ], [ -3.348, 40.1619 ], [ -3.3486, 40.1616 ], [ -3.3475, 40.1615 ], [ -3.3463, 40.1609 ], [ -3.3448, 40.1594 ], [ -3.3447, 40.1599 ], [ -3.3449, 40.1608 ], [ -3.3448, 40.1611 ], [ -3.3444, 40.1613 ], [ -3.3436, 40.1611 ], [ -3.3426, 40.1606 ], [ -3.3423, 40.1607 ] ] ] } },
{ "type": "Feature", "properties": { "municipio": "Valdelaguna", "clasificacion": "no-urbanizable-protegido", "calificacion": "sin-asignar", "version": "vigente", "fuente": "SIT-CAM WFS — UsoDelSuelo:VPLA_V_CLASIFICACION (https://idem.comunidad.madrid/geosrvg/ows)", "fecha_dato": "2026-05-12", "ambito": "38428", "_raw_CD_SIGLAS": "SNUP", "_raw_DS_CLASIF_GEN": "Suelo No Urbanizable Protegido", "_raw_DS_CLASIF_DET": "Suelo No Urbanizable Protegido Clase III - Espacios de interés forestal y paisajístico", "_raw_DS_DOCU": "NORMAS SUBSIDIARIAS", "_raw_DS_LEY": null, "_raw_FC_AC": "1999-02-04", "_raw_NM_AREA_M2": 20084.391442228301, "_cam_code": "157" }, "geometry": { "type": "Polygon", "coordinates": [ [ [ -3.3595, 40.1878 ], [ -3.3597, 40.1878 ], [ -3.3605, 40.1883 ], [ -3.361, 40.1882 ], [ -3.3608, 40.188 ], [ -3.3607, 40.1876 ], [ -3.3604, 40.1875 ], [ -3.3603, 40.1872 ], [ -3.3609, 40.1866 ], [ -3.3609, 40.1863 ], [ -3.3603, 40.1864 ], [ -3.3594, 40.1868 ], [ -3.3591, 40.1878 ], [ -3.3595, 40.1878 ] ] ] } },
{ "type": "Feature", "properties": { "municipio": "Valdelaguna", "clasificacion": "no-urbanizable-protegido", "calificacion": "sin-asignar", "version": "vigente", "fuente": "SIT-CAM WFS — UsoDelSuelo:VPLA_V_CLASIFICACION (https://idem.comunidad.madrid/geosrvg/ows)", "fecha_dato": "2026-05-12", "ambito": "38428", "_raw_CD_SIGLAS": "SNUP", "_raw_DS_CLASIF_GEN": "Suelo No Urbanizable Protegido", "_raw_DS_CLASIF_DET": "Suelo No Urbanizable Protegido Clase III - Espacios de interés forestal y paisajístico", "_raw_DS_DOCU": "NORMAS SUBSIDIARIAS", "_raw_DS_LEY": null, "_raw_FC_AC": "1999-02-04", "_raw_NM_AREA_M2": 23468.408033062598, "_cam_code": "157" }, "geometry": { "type": "Polygon", "coordinates": [ [ [ -3.3585, 40.1902 ], [ -3.3592, 40.1903 ], [ -3.3595, 40.1902 ], [ -3.3597, 40.1898 ], [ -3.36, 40.1898 ], [ -3.3607, 40.1892 ], [ -3.3603, 40.1891 ], [ -3.3598, 40.1888 ], [ -3.3596, 40.1885 ], [ -3.359, 40.1882 ], [ -3.3585, 40.1902 ] ] ] } },
{ "type": "Feature", "properties": { "municipio": "Valdelaguna", "clasificacion": "no-urbanizable-protegido", "calificacion": "sin-asignar", "version": "vigente", "fuente": "SIT-CAM WFS — UsoDelSuelo:VPLA_V_CLASIFICACION (https://idem.comunidad.madrid/geosrvg/ows)", "fecha_dato": "2026-05-12", "ambito": "38428", "_raw_CD_SIGLAS": "SNUP", "_raw_DS_CLASIF_GEN": "Suelo No Urbanizable Protegido", "_raw_DS_CLASIF_DET": "Suelo No Urbanizable Protegido Clase III - Espacios de interés forestal y paisajístico", "_raw_DS_DOCU": "NORMAS SUBSIDIARIAS", "_raw_DS_LEY": null, "_raw_FC_AC": "1999-02-04", "_raw_NM_AREA_M2": 100941.28763549399, "_cam_code": "157" }, "geometry": { "type": "Polygon", "coordinates": [ [ [ -3.3562, 40.1988 ], [ -3.3594, 40.1988 ], [ -3.3594, 40.1975 ], [ -3.3601, 40.197 ], [ -3.3601, 40.1966 ], [ -3.3598, 40.1963 ], [ -3.359, 40.1959 ], [ -3.3593, 40.1958 ], [ -3.3596, 40.1955 ], [ -3.3597, 40.1949 ], [ -3.3592, 40.1951 ], [ -3.3578, 40.1953 ], [ -3.3575, 40.195 ], [ -3.3573, 40.1945 ], [ -3.3562, 40.1988 ] ] ] } },
{ "type": "Feature", "properties": { "municipio": "Valdelaguna", "clasificacion": "no-urbanizable-protegido", "calificacion": "sin-asignar", "version": "vigente", "fuente": "SIT-CAM WFS — UsoDelSuelo:VPLA_V_CLASIFICACION (https://idem.comunidad.madrid/geosrvg/ows)", "fecha_dato": "2026-05-12", "ambito": "38428", "_raw_CD_SIGLAS": "SNUP", "_raw_DS_CLASIF_GEN": "Suelo No Urbanizable Protegido", "_raw_DS_CLASIF_DET": "Suelo No Urbanizable Protegido Clase III - Espacios de interés forestal y paisajístico", "_raw_DS_DOCU": "NORMAS SUBSIDIARIAS", "_raw_DS_LEY": null, "_raw_FC_AC": "1999-02-04", "_raw_NM_AREA_M2": 2680881.39951583, "_cam_code": "157" }, "geometry": { "type": "Polygon", "coordinates": [ [ [ -3.3976, 40.1888 ], [ -3.3972, 40.1899 ], [ -3.3972, 40.1902 ], [ -3.3985, 40.1911 ], [ -3.3989, 40.1916 ], [ -3.3992, 40.1924 ], [ -3.3992, 40.1928 ], [ -3.3995, 40.1934 ], [ -3.4008, 40.195 ], [ -3.4012, 40.1969 ], [ -3.4018, 40.1976 ], [ -3.4014, 40.1978 ], [ -3.4009, 40.1984 ], [ -3.4136, 40.2037 ], [ -3.4161, 40.2029 ], [ -3.4195, 40.2013 ], [ -3.4209, 40.2011 ], [ -3.423, 40.1969 ], [ -3.4206, 40.1951 ], [ -3.4193, 40.1939 ], [ -3.4174, 40.19 ], [ -3.4143, 40.1887 ], [ -3.4119, 40.1869 ], [ -3.411, 40.1868 ], [ -3.4081, 40.1861 ], [ -3.4079, 40.1858 ], [ -3.4074, 40.1865 ], [ -3.4068, 40.1868 ], [ -3.4069, 40.1875 ], [ -3.4068, 40.1881 ], [ -3.4065, 40.1884 ], [ -3.4061, 40.1886 ], [ -3.4047, 40.1887 ], [ -3.4039, 40.1886 ], [ -3.4034, 40.1883 ], [ -3.4031, 40.1872 ], [ -3.4004, 40.1864 ], [ -3.3998, 40.1866 ], [ -3.3987, 40.1865 ], [ -3.3982, 40.1863 ], [ -3.3978, 40.1859 ], [ -3.3973, 40.1858 ], [ -3.3967, 40.1864 ], [ -3.3973, 40.1873 ], [ -3.3976, 40.1888 ] ] ] } },
{ "type": "Feature", "properties": { "municipio": "Valdelaguna", "clasificacion": "no-urbanizable-protegido", "calificacion": "sin-asignar", "version": "vigente", "fuente": "SIT-CAM WFS — UsoDelSuelo:VPLA_V_CLASIFICACION (https://idem.comunidad.madrid/geosrvg/ows)", "fecha_dato": "2026-05-12", "ambito": "38428", "_raw_CD_SIGLAS": "SNUP", "_raw_DS_CLASIF_GEN": "Suelo No Urbanizable Protegido", "_raw_DS_CLASIF_DET": "Suelo No Urbanizable Protegido Clase III - Espacios de interés forestal y paisajístico", "_raw_DS_DOCU": "NORMAS SUBSIDIARIAS", "_raw_DS_LEY": null, "_raw_FC_AC": "1999-02-04", "_raw_NM_AREA_M2": 2400452.1445172098, "_cam_code": "157" }, "geometry": { "type": "Polygon", "coordinates": [ [ [ -3.3735, 40.2025 ], [ -3.3747, 40.2044 ], [ -3.3839, 40.2001 ], [ -3.3953, 40.1964 ], [ -3.3987, 40.1977 ], [ -3.3989, 40.1976 ], [ -3.3995, 40.1965 ], [ -3.3994, 40.1953 ], [ -3.3981, 40.1933 ], [ -3.3976, 40.1921 ], [ -3.3972, 40.1918 ], [ -3.3966, 40.1916 ], [ -3.3961, 40.1912 ], [ -3.3956, 40.1905 ], [ -3.3956, 40.1898 ], [ -3.3961, 40.1884 ], [ -3.396, 40.1879 ], [ -3.3955, 40.187 ], [ -3.3947, 40.1872 ], [ -3.391, 40.1875 ], [ -3.3902, 40.1875 ], [ -3.3893, 40.1872 ], [ -3.3887, 40.1873 ], [ -3.3876, 40.187 ], [ -3.3841, 40.1874 ], [ -3.3838, 40.1875 ], [ -3.3831, 40.1887 ], [ -3.3829, 40.1892 ], [ -3.3829, 40.1899 ], [ -3.3823, 40.1907 ], [ -3.3821, 40.1912 ], [ -3.3813, 40.1907 ], [ -3.3795, 40.1908 ], [ -3.3791, 40.191 ], [ -3.3783, 40.1907 ], [ -3.3772, 40.1906 ], [ -3.3769, 40.1905 ], [ -3.3765, 40.19 ], [ -3.374, 40.191 ], [ -3.3736, 40.191 ], [ -3.3737, 40.1914 ], [ -3.3743, 40.192 ], [ -3.3739, 40.193 ], [ -3.374, 40.1933 ], [ -3.3745, 40.1934 ], [ -3.3751, 40.194 ], [ -3.3752, 40.1944 ], [ -3.3751, 40.1951 ], [ -3.3754, 40.1961 ], [ -3.3758, 40.1964 ], [ -3.3756, 40.1966 ], [ -3.3756, 40.197 ], [ -3.3762, 40.1983 ], [ -3.3762, 40.1986 ], [ -3.3757, 40.1995 ], [ -3.3744, 40.1994 ], [ -3.3753, 40.2003 ], [ -3.375, 40.2005 ], [ -3.3749, 40.2009 ], [ -3.3752, 40.2014 ], [ -3.374, 40.2018 ], [ -3.3732, 40.2016 ], [ -3.3723, 40.2017 ], [ -3.3735, 40.2025 ] ] ] } },
{ "type": "Feature", "properties": { "municipio": "Valdelaguna", "clasificacion": "no-urbanizable-protegido", "calificacion": "sin-asignar", "version": "vigente", "fuente": "SIT-CAM WFS — UsoDelSuelo:VPLA_V_CLASIFICACION (https://idem.comunidad.madrid/geosrvg/ows)", "fecha_dato": "2026-05-12", "ambito": "38428", "_raw_CD_SIGLAS": "SNUP", "_raw_DS_CLASIF_GEN": "Suelo No Urbanizable Protegido", "_raw_DS_CLASIF_DET": "Suelo No Urbanizable Protegido Clase III - Espacios de interés forestal y paisajístico - Interés Arqueológico Área de Protección A", "_raw_DS_DOCU": "NORMAS SUBSIDIARIAS", "_raw_DS_LEY": null, "_raw_FC_AC": "1999-02-04", "_raw_NM_AREA_M2": 375199.98481262999, "_cam_code": "157" }, "geometry": { "type": "Polygon", "coordinates": [ [ [ -3.3424, 40.1904 ], [ -3.3425, 40.1912 ], [ -3.3429, 40.1919 ], [ -3.3428, 40.192 ], [ -3.3431, 40.1921 ], [ -3.3432, 40.1925 ], [ -3.3448, 40.1939 ], [ -3.3457, 40.1943 ], [ -3.3457, 40.1944 ], [ -3.3448, 40.1949 ], [ -3.3467, 40.1961 ], [ -3.3471, 40.1948 ], [ -3.3475, 40.1945 ], [ -3.3481, 40.1944 ], [ -3.3484, 40.1941 ], [ -3.3486, 40.1933 ], [ -3.3488, 40.193 ], [ -3.3489, 40.1918 ], [ -3.3491, 40.1915 ], [ -3.3493, 40.1906 ], [ -3.3489, 40.1897 ], [ -3.3491, 40.1887 ], [ -3.3491, 40.188 ], [ -3.3488, 40.1868 ], [ -3.3451, 40.1869 ], [ -3.3454, 40.1873 ], [ -3.3454, 40.1875 ], [ -3.3445, 40.1886 ], [ -3.3446, 40.1891 ], [ -3.3453, 40.1898 ], [ -3.3454, 40.1902 ], [ -3.3453, 40.1907 ], [ -3.3445, 40.1906 ], [ -3.3439, 40.1897 ], [ -3.3433, 40.1892 ], [ -3.3422, 40.1884 ], [ -3.3417, 40.1884 ], [ -3.3416, 40.1886 ], [ -3.342, 40.1888 ], [ -3.3425, 40.1894 ], [ -3.3426, 40.1897 ], [ -3.3426, 40.1901 ], [ -3.3424, 40.1904 ] ] ] } },
{ "type": "Feature", "properties": { "municipio": "Valdelaguna", "clasificacion": "no-urbanizable-protegido", "calificacion": "sin-asignar", "version": "vigente", "fuente": "SIT-CAM WFS — UsoDelSuelo:VPLA_V_CLASIFICACION (https://idem.comunidad.madrid/geosrvg/ows)", "fecha_dato": "2026-05-12", "ambito": "38428", "_raw_CD_SIGLAS": "SNUP", "_raw_DS_CLASIF_GEN": "Suelo No Urbanizable Protegido", "_raw_DS_CLASIF_DET": "Suelo No Urbanizable Protegido Clase III - Espacios de interés forestal y paisajístico - Interés Arqueológico Área de Protección A", "_raw_DS_DOCU": "NORMAS SUBSIDIARIAS", "_raw_DS_LEY": null, "_raw_FC_AC": "1999-02-04", "_raw_NM_AREA_M2": 668570.35059450602, "_cam_code": "157" }, "geometry": { "type": "Polygon", "coordinates": [ [ [ -3.353, 40.1883 ], [ -3.3536, 40.1898 ], [ -3.3532, 40.191 ], [ -3.3533, 40.1922 ], [ -3.3519, 40.1933 ], [ -3.3511, 40.1957 ], [ -3.3493, 40.1977 ], [ -3.3506, 40.1985 ], [ -3.3538, 40.1988 ], [ -3.3562, 40.1988 ], [ -3.3594, 40.1868 ], [ -3.3584, 40.1871 ], [ -3.358, 40.1871 ], [ -3.3578, 40.1868 ], [ -3.3581, 40.1864 ], [ -3.3521, 40.1866 ], [ -3.353, 40.1883 ] ] ] } },
{ "type": "Feature", "properties": { "municipio": "Valdelaguna", "clasificacion": "no-urbanizable-protegido", "calificacion": "sin-asignar", "version": "vigente", "fuente": "SIT-CAM WFS — UsoDelSuelo:VPLA_V_CLASIFICACION (https://idem.comunidad.madrid/geosrvg/ows)", "fecha_dato": "2026-05-12", "ambito": "38428", "_raw_CD_SIGLAS": "SNUP", "_raw_DS_CLASIF_GEN": "Suelo No Urbanizable Protegido", "_raw_DS_CLASIF_DET": "Suelo No Urbanizable Protegido Clase III - Espacios de interés forestal y paisajístico - Interés Arqueológico Área de Protección A", "_raw_DS_DOCU": "NORMAS SUBSIDIARIAS", "_raw_DS_LEY": null, "_raw_FC_AC": "1999-02-04", "_raw_NM_AREA_M2": 452637.05121633701, "_cam_code": "157" }, "geometry": { "type": "Polygon", "coordinates": [ [ [ -3.3839, 40.2001 ], [ -3.3932, 40.2037 ], [ -3.3935, 40.203 ], [ -3.3954, 40.2009 ], [ -3.396, 40.1993 ], [ -3.3987, 40.1977 ], [ -3.3953, 40.1964 ], [ -3.3839, 40.2001 ] ] ] } },
{ "type": "Feature", "properties": { "municipio": "Valdelaguna", "clasificacion": "no-urbanizable-protegido", "calificacion": "sin-asignar", "version": "vigente", "fuente": "SIT-CAM WFS — UsoDelSuelo:VPLA_V_CLASIFICACION (https://idem.comunidad.madrid/geosrvg/ows)", "fecha_dato": "2026-05-12", "ambito": "38428", "_raw_CD_SIGLAS": "SNUP", "_raw_DS_CLASIF_GEN": "Suelo No Urbanizable Protegido", "_raw_DS_CLASIF_DET": "Suelo No Urbanizable Protegido Clase III - Espacios de interés forestal y paisajístico - Interés Arqueológico Área de Protección A", "_raw_DS_DOCU": "NORMAS SUBSIDIARIAS", "_raw_DS_LEY": null, "_raw_FC_AC": "1999-02-04", "_raw_NM_AREA_M2": 222649.53513289301, "_cam_code": "157" }, "geometry": { "type": "Polygon", "coordinates": [ [ [ -3.3996, 40.1986 ], [ -3.3982, 40.1994 ], [ -3.3978, 40.1998 ], [ -3.3963, 40.202 ], [ -3.3956, 40.2026 ], [ -3.395, 40.2037 ], [ -3.3949, 40.2044 ], [ -3.3954, 40.2045 ], [ -3.3972, 40.2053 ], [ -3.3998, 40.2023 ], [ -3.4003, 40.2019 ], [ -3.4002, 40.2019 ], [ -3.4026, 40.1991 ], [ -3.4001, 40.1981 ], [ -3.3996, 40.1986 ] ] ] } },
{ "type": "Feature", "properties": { "municipio": "Valdelaguna", "clasificacion": "no-urbanizable-protegido", "calificacion": "sin-asignar", "version": "vigente", "fuente": "SIT-CAM WFS — UsoDelSuelo:VPLA_V_CLASIFICACION (https://idem.comunidad.madrid/geosrvg/ows)", "fecha_dato": "2026-05-12", "ambito": "38428", "_raw_CD_SIGLAS": "SNUP", "_raw_DS_CLASIF_GEN": "Suelo No Urbanizable Protegido", "_raw_DS_CLASIF_DET": "Suelo No Urbanizable Protegido Clase III - Espacios de interés forestal y paisajístico - Interés Arqueológico Área de Protección B", "_raw_DS_DOCU": "NORMAS SUBSIDIARIAS", "_raw_DS_LEY": null, "_raw_FC_AC": "1999-02-04", "_raw_NM_AREA_M2": 70429.268487010704, "_cam_code": "157" }, "geometry": { "type": "Polygon", "coordinates": [ [ [ -3.3949, 40.2044 ], [ -3.3945, 40.2055 ], [ -3.3939, 40.2065 ], [ -3.3941, 40.2076 ], [ -3.3928, 40.2103 ], [ -3.3972, 40.2053 ], [ -3.3954, 40.2045 ], [ -3.3949, 40.2044 ] ] ] } },
{ "type": "Feature", "properties": { "municipio": "Valdelaguna", "clasificacion": "no-urbanizable-protegido", "calificacion": "sin-asignar", "version": "vigente", "fuente": "SIT-CAM WFS — UsoDelSuelo:VPLA_V_CLASIFICACION (https://idem.comunidad.madrid/geosrvg/ows)", "fecha_dato": "2026-05-12", "ambito": "38428", "_raw_CD_SIGLAS": "SNUP", "_raw_DS_CLASIF_GEN": "Suelo No Urbanizable Protegido", "_raw_DS_CLASIF_DET": "Suelo No Urbanizable Protegido Clase III - Espacios de interés forestal y paisajístico - Interés Arqueológico Área de Protección B", "_raw_DS_DOCU": "NORMAS SUBSIDIARIAS", "_raw_DS_LEY": null, "_raw_FC_AC": "1999-02-04", "_raw_NM_AREA_M2": 1532160.5326666201, "_cam_code": "157" }, "geometry": { "type": "Polygon", "coordinates": [ [ [ -3.3747, 40.2044 ], [ -3.3753, 40.2054 ], [ -3.3779, 40.208 ], [ -3.3817, 40.2108 ], [ -3.3825, 40.2119 ], [ -3.3837, 40.2125 ], [ -3.3858, 40.2149 ], [ -3.3871, 40.2169 ], [ -3.3904, 40.2132 ], [ -3.3897, 40.2124 ], [ -3.3896, 40.2118 ], [ -3.3897, 40.2115 ], [ -3.3904, 40.2108 ], [ -3.3911, 40.2103 ], [ -3.3926, 40.2071 ], [ -3.3924, 40.2061 ], [ -3.3925, 40.2057 ], [ -3.3931, 40.2047 ], [ -3.3932, 40.2037 ], [ -3.3839, 40.2001 ], [ -3.3747, 40.2044 ] ] ] } },
{ "type": "Feature", "properties": { "municipio": "Valdelaguna", "clasificacion": "no-urbanizable-protegido", "calificacion": "sin-asignar", "version": "vigente", "fuente": "SIT-CAM WFS — UsoDelSuelo:VPLA_V_CLASIFICACION (https://idem.comunidad.madrid/geosrvg/ows)", "fecha_dato": "2026-05-12", "ambito": "38428", "_raw_CD_SIGLAS": "SNUP", "_raw_DS_CLASIF_GEN": "Suelo No Urbanizable Protegido", "_raw_DS_CLASIF_DET": "Suelo No Urbanizable Protegido Clase III - Espacios de interés forestal y paisajístico - Interés Arqueológico Área de Protección C", "_raw_DS_DOCU": "NORMAS SUBSIDIARIAS", "_raw_DS_LEY": null, "_raw_FC_AC": "1999-02-04", "_raw_NM_AREA_M2": 1489248.0497700099, "_cam_code": "157" }, "geometry": { "type": "Polygon", "coordinates": [ [ [ -3.4002, 40.2019 ], [ -3.4003, 40.2019 ], [ -3.3998, 40.2023 ], [ -3.3928, 40.2103 ], [ -3.3919, 40.2123 ], [ -3.3922, 40.214 ], [ -3.3924, 40.2144 ], [ -3.3931, 40.2151 ], [ -3.3934, 40.2166 ], [ -3.3942, 40.2175 ], [ -3.3949, 40.2178 ], [ -3.395, 40.2181 ], [ -3.3957, 40.2169 ], [ -3.3986, 40.215 ], [ -3.404, 40.2081 ], [ -3.4046, 40.208 ], [ -3.4082, 40.2066 ], [ -3.4124, 40.2041 ], [ -3.4136, 40.2037 ], [ -3.4026, 40.1991 ], [ -3.4002, 40.2019 ] ] ] } },
{ "type": "Feature", "properties": { "municipio": "Valdelaguna", "clasificacion": "no-urbanizable-protegido", "calificacion": "sin-asignar", "version": "vigente", "fuente": "SIT-CAM WFS — UsoDelSuelo:VPLA_V_CLASIFICACION (https://idem.comunidad.madrid/geosrvg/ows)", "fecha_dato": "2026-05-12", "ambito": "38428", "_raw_CD_SIGLAS": "SNUP", "_raw_DS_CLASIF_GEN": "Suelo No Urbanizable Protegido", "_raw_DS_CLASIF_DET": "Suelo No Urbanizable Protegido Clase III - Espacios de interés forestal y paisajístico - Interés Arqueológico Área de Protección C", "_raw_DS_DOCU": "NORMAS SUBSIDIARIAS", "_raw_DS_LEY": null, "_raw_FC_AC": "1999-02-04", "_raw_NM_AREA_M2": 162250.56482724499, "_cam_code": "157" }, "geometry": { "type": "Polygon", "coordinates": [ [ [ -3.3871, 40.2169 ], [ -3.3874, 40.2172 ], [ -3.3912, 40.2187 ], [ -3.3939, 40.219 ], [ -3.3939, 40.2187 ], [ -3.3937, 40.2183 ], [ -3.3929, 40.218 ], [ -3.3921, 40.2173 ], [ -3.392, 40.216 ], [ -3.391, 40.2146 ], [ -3.3909, 40.214 ], [ -3.3904, 40.2132 ], [ -3.3871, 40.2169 ] ] ] } },
{ "type": "Feature", "properties": { "municipio": "Valdelaguna", "clasificacion": "no-urbanizable-protegido", "calificacion": "sin-asignar", "version": "vigente", "fuente": "SIT-CAM WFS — UsoDelSuelo:VPLA_V_CLASIFICACION (https://idem.comunidad.madrid/geosrvg/ows)", "fecha_dato": "2026-05-12", "ambito": "38428", "_raw_CD_SIGLAS": "SNUP", "_raw_DS_CLASIF_GEN": "Suelo No Urbanizable Protegido", "_raw_DS_CLASIF_DET": "Suelo No Urbanizable Protegido Clase I - Espacios Protegidos cauces y riberas", "_raw_DS_DOCU": "NORMAS SUBSIDIARIAS", "_raw_DS_LEY": null, "_raw_FC_AC": "1999-02-04", "_raw_NM_AREA_M2": 1754471.5583168899, "_cam_code": "157" }, "geometry": { "type": "Polygon", "coordinates": [ [ [ -3.3502, 40.1804 ], [ -3.3504, 40.182 ], [ -3.3502, 40.1827 ], [ -3.3487, 40.1842 ], [ -3.3483, 40.185 ], [ -3.3483, 40.1853 ], [ -3.3488, 40.1868 ], [ -3.3521, 40.1866 ], [ -3.3518, 40.1861 ], [ -3.3512, 40.1856 ], [ -3.3511, 40.1853 ], [ -3.3513, 40.1846 ], [ -3.3519, 40.1836 ], [ -3.3521, 40.183 ], [ -3.3537, 40.1803 ], [ -3.3541, 40.1804 ], [ -3.3543, 40.1806 ], [ -3.3563, 40.1832 ], [ -3.3571, 40.1838 ], [ -3.3577, 40.184 ], [ -3.3576, 40.1835 ], [ -3.3566, 40.1828 ], [ -3.356, 40.1817 ], [ -3.3556, 40.1807 ], [ -3.3559, 40.1804 ], [ -3.3574, 40.1806 ], [ -3.3577, 40.1805 ], [ -3.3585, 40.1813 ], [ -3.3588, 40.181 ], [ -3.36, 40.1821 ], [ -3.3599, 40.1824 ], [ -3.3605, 40.1825 ], [ -3.3615, 40.1831 ], [ -3.3615, 40.1828 ], [ -3.3613, 40.1825 ], [ -3.361, 40.1824 ], [ -3.3608, 40.1819 ], [ -3.3619, 40.1816 ], [ -3.3618, 40.1815 ], [ -3.3601, 40.181 ], [ -3.3595, 40.1807 ], [ -3.3589, 40.1806 ], [ -3.3587, 40.1803 ], [ -3.359, 40.18 ], [ -3.3593, 40.18 ], [ -3.3594, 40.1798 ], [ -3.3596, 40.1798 ], [ -3.36, 40.1793 ], [ -3.3606, 40.1789 ], [ -3.3596, 40.1792 ], [ -3.3592, 40.1796 ], [ -3.3585, 40.1797 ], [ -3.3573, 40.1795 ], [ -3.3558, 40.1787 ], [ -3.3555, 40.1787 ], [ -3.3553, 40.1783 ], [ -3.3558, 40.1775 ], [ -3.3571, 40.1773 ], [ -3.3569, 40.1766 ], [ -3.3571, 40.1764 ], [ -3.3576, 40.1763 ], [ -3.3576, 40.1762 ], [ -3.3568, 40.1761 ], [ -3.3569, 40.1756 ], [ -3.3566, 40.1755 ], [ -3.3564, 40.1752 ], [ -3.3577, 40.1751 ], [ -3.3581, 40.1749 ], [ -3.3595, 40.1747 ], [ -3.36, 40.1744 ], [ -3.3601, 40.1744 ], [ -3.36, 40.1747 ], [ -3.3601, 40.1749 ], [ -3.3604, 40.1744 ], [ -3.3609, 40.1742 ], [ -3.3596, 40.1742 ], [ -3.3578, 40.1739 ], [ -3.358, 40.1735 ], [ -3.3588, 40.1731 ], [ -3.3592, 40.1727 ], [ -3.3602, 40.1723 ], [ -3.3605, 40.1723 ], [ -3.3625, 40.1711 ], [ -3.3629, 40.1711 ], [ -3.363, 40.1709 ], [ -3.3641, 40.1709 ], [ -3.3645, 40.1706 ], [ -3.365, 40.1707 ], [ -3.3651, 40.1706 ], [ -3.3648, 40.1703 ], [ -3.3642, 40.1702 ], [ -3.3637, 40.1704 ], [ -3.3629, 40.1703 ], [ -3.3623, 40.1706 ], [ -3.3611, 40.1707 ], [ -3.3607, 40.1709 ], [ -3.3606, 40.1711 ], [ -3.3586, 40.1716 ], [ -3.3577, 40.1716 ], [ -3.3576, 40.1715 ], [ -3.3579, 40.1708 ], [ -3.3582, 40.1706 ], [ -3.3586, 40.1699 ], [ -3.3595, 40.1688 ], [ -3.3597, 40.1683 ], [ -3.3598, 40.1673 ], [ -3.3604, 40.1658 ], [ -3.3603, 40.1655 ], [ -3.3604, 40.1644 ], [ -3.3601, 40.1643 ], [ -3.3599, 40.164 ], [ -3.3599, 40.1636 ], [ -3.3602, 40.1634 ], [ -3.3604, 40.163 ], [ -3.3601, 40.1627 ], [ -3.3601, 40.1625 ], [ -3.3609, 40.1617 ], [ -3.3621, 40.1617 ], [ -3.3622, 40.1616 ], [ -3.3632, 40.1617 ], [ -3.3632, 40.1615 ], [ -3.3642, 40.1616 ], [ -3.3647, 40.1612 ], [ -3.3638, 40.1608 ], [ -3.3638, 40.1609 ], [ -3.363, 40.1608 ], [ -3.3625, 40.1606 ], [ -3.3621, 40.1606 ], [ -3.3616, 40.1609 ], [ -3.361, 40.1608 ], [ -3.3603, 40.1609 ], [ -3.3606, 40.1605 ], [ -3.3605, 40.1601 ], [ -3.3606, 40.1598 ], [ -3.3604, 40.1596 ], [ -3.3604, 40.1591 ], [ -3.3592, 40.1586 ], [ -3.3596, 40.1576 ], [ -3.3592, 40.1567 ], [ -3.3582, 40.1559 ], [ -3.3583, 40.1554 ], [ -3.3636, 40.1537 ], [ -3.365, 40.153 ], [ -3.3664, 40.1512 ], [ -3.3664, 40.151 ], [ -3.3657, 40.1512 ], [ -3.3646, 40.1525 ], [ -3.3633, 40.1533 ], [ -3.3615, 40.1534 ], [ -3.3595, 40.154 ], [ -3.3592, 40.1539 ], [ -3.3591, 40.1536 ], [ -3.3602, 40.1517 ], [ -3.36, 40.1517 ], [ -3.3597, 40.1514 ], [ -3.3595, 40.1504 ], [ -3.359, 40.1496 ], [ -3.3583, 40.149 ], [ -3.3575, 40.1486 ], [ -3.3572, 40.1482 ], [ -3.3575, 40.1472 ], [ -3.3572, 40.1466 ], [ -3.357, 40.1464 ], [ -3.3563, 40.1464 ], [ -3.3544, 40.1458 ], [ -3.3536, 40.1457 ], [ -3.3526, 40.1447 ], [ -3.3511, 40.1458 ], [ -3.352, 40.1459 ], [ -3.3522, 40.1463 ], [ -3.3522, 40.1468 ], [ -3.3525, 40.1472 ], [ -3.3547, 40.1474 ], [ -3.355, 40.1476 ], [ -3.3553, 40.1483 ], [ -3.3565, 40.1494 ], [ -3.357, 40.1502 ], [ -3.3571, 40.1508 ], [ -3.3572, 40.1523 ], [ -3.357, 40.1527 ], [ -3.3571, 40.153 ], [ -3.357, 40.1536 ], [ -3.3562, 40.1552 ], [ -3.3558, 40.1554 ], [ -3.3551, 40.1555 ], [ -3.3552, 40.1564 ], [ -3.3546, 40.1567 ], [ -3.3536, 40.1568 ], [ -3.3517, 40.1565 ], [ -3.3494, 40.1571 ], [ -3.3491, 40.1576 ], [ -3.3493, 40.158 ], [ -3.3496, 40.1578 ], [ -3.3502, 40.1577 ], [ -3.3503, 40.1575 ], [ -3.3512, 40.1574 ], [ -3.3518, 40.1574 ], [ -3.3526, 40.1577 ], [ -3.3544, 40.1575 ], [ -3.3556, 40.1576 ], [ -3.356, 40.1575 ], [ -3.3553, 40.1582 ], [ -3.3557, 40.1585 ], [ -3.3569, 40.1599 ], [ -3.3568, 40.1601 ], [ -3.3572, 40.1602 ], [ -3.3575, 40.1605 ], [ -3.3575, 40.1609 ], [ -3.3569, 40.1615 ], [ -3.3569, 40.1617 ], [ -3.3573, 40.1618 ], [ -3.3574, 40.1625 ], [ -3.3576, 40.1626 ], [ -3.3574, 40.1641 ], [ -3.3577, 40.165 ], [ -3.3576, 40.1655 ], [ -3.3572, 40.1658 ], [ -3.3577, 40.1661 ], [ -3.3578, 40.1669 ], [ -3.3577, 40.1672 ], [ -3.3573, 40.1676 ], [ -3.3574, 40.1679 ], [ -3.357, 40.168 ], [ -3.357, 40.1682 ], [ -3.3558, 40.1694 ], [ -3.3547, 40.1699 ], [ -3.3543, 40.1696 ], [ -3.3542, 40.1703 ], [ -3.3539, 40.1707 ], [ -3.3539, 40.171 ], [ -3.3537, 40.171 ], [ -3.3534, 40.1717 ], [ -3.353, 40.1722 ], [ -3.3527, 40.1723 ], [ -3.3523, 40.1727 ], [ -3.3528, 40.173 ], [ -3.3526, 40.1734 ], [ -3.3528, 40.174 ], [ -3.3526, 40.1742 ], [ -3.3504, 40.1706 ], [ -3.3503, 40.1701 ], [ -3.3485, 40.1683 ], [ -3.3486, 40.1691 ], [ -3.3489, 40.1696 ], [ -3.3489, 40.1701 ], [ -3.3493, 40.1707 ], [ -3.3495, 40.1716 ], [ -3.3495, 40.1719 ], [ -3.3493, 40.1721 ], [ -3.3486, 40.1719 ], [ -3.349, 40.1723 ], [ -3.3497, 40.1726 ], [ -3.35, 40.1731 ], [ -3.3498, 40.1734 ], [ -3.3494, 40.1736 ], [ -3.3499, 40.1737 ], [ -3.3507, 40.1742 ], [ -3.3507, 40.1746 ], [ -3.3511, 40.1749 ], [ -3.351, 40.1751 ], [ -3.3514, 40.1753 ], [ -3.3515, 40.1757 ], [ -3.3515, 40.1758 ], [ -3.351, 40.176 ], [ -3.3511, 40.1761 ], [ -3.3519, 40.1762 ], [ -3.3524, 40.1761 ], [ -3.3526, 40.1763 ], [ -3.3525, 40.1766 ], [ -3.3514, 40.1779 ], [ -3.3511, 40.179 ], [ -3.3509, 40.1794 ], [ -3.3504, 40.1799 ], [ -3.3502, 40.1804 ] ] ] } },
{ "type": "Feature", "properties": { "municipio": "Valdelaguna", "clasificacion": "no-urbanizable-protegido", "calificacion": "sin-asignar", "version": "vigente", "fuente": "SIT-CAM WFS — UsoDelSuelo:VPLA_V_CLASIFICACION (https://idem.comunidad.madrid/geosrvg/ows)", "fecha_dato": "2026-05-12", "ambito": "38428", "_raw_CD_SIGLAS": "SNUP", "_raw_DS_CLASIF_GEN": "Suelo No Urbanizable Protegido", "_raw_DS_CLASIF_DET": "Suelo No Urbanizable Protegido Clase I - Espacios Protegidos cauces y riberas", "_raw_DS_DOCU": "NORMAS SUBSIDIARIAS", "_raw_DS_LEY": null, "_raw_FC_AC": "1999-02-04", "_raw_NM_AREA_M2": 12396.204220813899, "_cam_code": "157" }, "geometry": { "type": "Polygon", "coordinates": [ [ [ -3.401, 40.1968 ], [ -3.4005, 40.1977 ], [ -3.4001, 40.1981 ], [ -3.4009, 40.1984 ], [ -3.4014, 40.1978 ], [ -3.4018, 40.1976 ], [ -3.4012, 40.1969 ], [ -3.4011, 40.1963 ], [ -3.401, 40.1968 ] ] ] } },
{ "type": "Feature", "properties": { "municipio": "Valdelaguna", "clasificacion": "no-urbanizable-protegido", "calificacion": "sin-asignar", "version": "vigente", "fuente": "SIT-CAM WFS — UsoDelSuelo:VPLA_V_CLASIFICACION (https://idem.comunidad.madrid/geosrvg/ows)", "fecha_dato": "2026-05-12", "ambito": "38428", "_raw_CD_SIGLAS": "SNUP", "_raw_DS_CLASIF_GEN": "Suelo No Urbanizable Protegido", "_raw_DS_CLASIF_DET": "Suelo No Urbanizable Protegido Clase I - Espacios Protegidos cauces y riberas - Interés Arqueológico Área de protección A", "_raw_DS_DOCU": "NORMAS SUBSIDIARIAS", "_raw_DS_LEY": null, "_raw_FC_AC": "1999-02-04", "_raw_NM_AREA_M2": 383632.031198868, "_cam_code": "157" }, "geometry": { "type": "Polygon", "coordinates": [ [ [ -3.3521, 40.1866 ], [ -3.3488, 40.1868 ], [ -3.3491, 40.188 ], [ -3.3491, 40.1887 ], [ -3.3489, 40.1897 ], [ -3.3493, 40.1906 ], [ -3.3491, 40.1915 ], [ -3.3489, 40.1918 ], [ -3.3488, 40.193 ], [ -3.3486, 40.1933 ], [ -3.3484, 40.1941 ], [ -3.3481, 40.1944 ], [ -3.3475, 40.1945 ], [ -3.3471, 40.1948 ], [ -3.3467, 40.1961 ], [ -3.3493, 40.1977 ], [ -3.3511, 40.1957 ], [ -3.3519, 40.1933 ], [ -3.3533, 40.1922 ], [ -3.3532, 40.191 ], [ -3.3536, 40.1898 ], [ -3.3524, 40.187 ], [ -3.3521, 40.1866 ] ] ] } },
{ "type": "Feature", "properties": { "municipio": "Valdelaguna", "clasificacion": "no-urbanizable-protegido", "calificacion": "sin-asignar", "version": "vigente", "fuente": "SIT-CAM WFS — UsoDelSuelo:VPLA_V_CLASIFICACION (https://idem.comunidad.madrid/geosrvg/ows)", "fecha_dato": "2026-05-12", "ambito": "38428", "_raw_CD_SIGLAS": "SNUP", "_raw_DS_CLASIF_GEN": "Suelo No Urbanizable Protegido", "_raw_DS_CLASIF_DET": "Suelo No Urbanizable Protegido Clase II - Espacios forestales en régimen especial", "_raw_DS_DOCU": "NORMAS SUBSIDIARIAS", "_raw_DS_LEY": null, "_raw_FC_AC": "1999-02-04", "_raw_NM_AREA_M2": 528254.638072373, "_cam_code": "157" }, "geometry": { "type": "Polygon", "coordinates": [ [ [ -3.3669, 40.1487 ], [ -3.369, 40.1488 ], [ -3.3698, 40.149 ], [ -3.3731, 40.1491 ], [ -3.3752, 40.1487 ], [ -3.3764, 40.1481 ], [ -3.3768, 40.1476 ], [ -3.377, 40.1471 ], [ -3.377, 40.1467 ], [ -3.3768, 40.1462 ], [ -3.3768, 40.1455 ], [ -3.3759, 40.1438 ], [ -3.3759, 40.1426 ], [ -3.3754, 40.1423 ], [ -3.3752, 40.1419 ], [ -3.3747, 40.1418 ], [ -3.3742, 40.1419 ], [ -3.3732, 40.1426 ], [ -3.3722, 40.1425 ], [ -3.3722, 40.1427 ], [ -3.3719, 40.143 ], [ -3.3712, 40.1434 ], [ -3.3702, 40.1438 ], [ -3.3694, 40.1443 ], [ -3.3679, 40.1448 ], [ -3.3665, 40.1459 ], [ -3.3662, 40.1463 ], [ -3.3659, 40.1473 ], [ -3.3653, 40.1482 ], [ -3.3657, 40.1486 ], [ -3.3662, 40.1485 ], [ -3.3669, 40.1487 ] ] ] } },
{ "type": "Feature", "properties": { "municipio": "Valdelaguna", "clasificacion": "no-urbanizable-protegido", "calificacion": "sin-asignar", "version": "vigente", "fuente": "SIT-CAM WFS — UsoDelSuelo:VPLA_V_CLASIFICACION (https://idem.comunidad.madrid/geosrvg/ows)", "fecha_dato": "2026-05-12", "ambito": "38428", "_raw_CD_SIGLAS": "SNUP", "_raw_DS_CLASIF_GEN": "Suelo No Urbanizable Protegido", "_raw_DS_CLASIF_DET": "Suelo No Urbanizable Protegido Clase IV - Espacios de interés edafológico y agrícola", "_raw_DS_DOCU": "NORMAS SUBSIDIARIAS", "_raw_DS_LEY": null, "_raw_FC_AC": "1999-02-04", "_raw_NM_AREA_M2": 1912569.6419055799, "_cam_code": "157" }, "geometry": { "type": "Polygon", "coordinates": [ [ [ -3.3872, 40.1755 ], [ -3.3863, 40.1765 ], [ -3.3864, 40.1767 ], [ -3.3888, 40.1749 ], [ -3.3899, 40.1743 ], [ -3.3924, 40.1741 ], [ -3.3926, 40.1738 ], [ -3.3931, 40.1736 ], [ -3.3936, 40.173 ], [ -3.3946, 40.1693 ], [ -3.3947, 40.1682 ], [ -3.3957, 40.1678 ], [ -3.3968, 40.1668 ], [ -3.398, 40.1663 ], [ -3.3981, 40.166 ], [ -3.3989, 40.1654 ], [ -3.3986, 40.1646 ], [ -3.3969, 40.1628 ], [ -3.3963, 40.1616 ], [ -3.3914, 40.1618 ], [ -3.3865, 40.1616 ], [ -3.3826, 40.1625 ], [ -3.3779, 40.1629 ], [ -3.3768, 40.1634 ], [ -3.3761, 40.1641 ], [ -3.3754, 40.1644 ], [ -3.3746, 40.165 ], [ -3.3754, 40.1656 ], [ -3.3756, 40.1663 ], [ -3.3756, 40.1669 ], [ -3.3751, 40.1675 ], [ -3.3742, 40.1678 ], [ -3.374, 40.168 ], [ -3.374, 40.1682 ], [ -3.3752, 40.1681 ], [ -3.3759, 40.1675 ], [ -3.3779, 40.1678 ], [ -3.3786, 40.1682 ], [ -3.379, 40.1682 ], [ -3.3795, 40.1684 ], [ -3.3796, 40.1686 ], [ -3.3792, 40.169 ], [ -3.3794, 40.1695 ], [ -3.3793, 40.1697 ], [ -3.3799, 40.1701 ], [ -3.3805, 40.1696 ], [ -3.3813, 40.1694 ], [ -3.3816, 40.1685 ], [ -3.3818, 40.1686 ], [ -3.3819, 40.1695 ], [ -3.3814, 40.1701 ], [ -3.3822, 40.1707 ], [ -3.3833, 40.1711 ], [ -3.384, 40.1716 ], [ -3.3845, 40.1717 ], [ -3.3844, 40.1723 ], [ -3.385, 40.1731 ], [ -3.3856, 40.1734 ], [ -3.3861, 40.1741 ], [ -3.3863, 40.1748 ], [ -3.3866, 40.1749 ], [ -3.3866, 40.1751 ], [ -3.3862, 40.1757 ], [ -3.3872, 40.1755 ] ] ] } },
{ "type": "Feature", "properties": { "municipio": "Valdelaguna", "clasificacion": "no-urbanizable-protegido", "calificacion": "sin-asignar", "version": "vigente", "fuente": "SIT-CAM WFS — UsoDelSuelo:VPLA_V_CLASIFICACION (https://idem.comunidad.madrid/geosrvg/ows)", "fecha_dato": "2026-05-12", "ambito": "38428", "_raw_CD_SIGLAS": "SNUP", "_raw_DS_CLASIF_GEN": "Suelo No Urbanizable Protegido", "_raw_DS_CLASIF_DET": "Suelo No Urbanizable Protegido Clase IV - Espacios de interés edafológico y agrícola", "_raw_DS_DOCU": "NORMAS SUBSIDIARIAS", "_raw_DS_LEY": null, "_raw_FC_AC": "1999-02-04", "_raw_NM_AREA_M2": 1954290.0986074801, "_cam_code": "157" }, "geometry": { "type": "Polygon", "coordinates": [ [ [ -3.4004, 40.1864 ], [ -3.4015, 40.1868 ], [ -3.4031, 40.1872 ], [ -3.4034, 40.1883 ], [ -3.4039, 40.1886 ], [ -3.4055, 40.1887 ], [ -3.4061, 40.1886 ], [ -3.4068, 40.1881 ], [ -3.4069, 40.1875 ], [ -3.4068, 40.1868 ], [ -3.4074, 40.1865 ], [ -3.4079, 40.1858 ], [ -3.4068, 40.1842 ], [ -3.4051, 40.1827 ], [ -3.4032, 40.1788 ], [ -3.4021, 40.1731 ], [ -3.4004, 40.1704 ], [ -3.3999, 40.1676 ], [ -3.3993, 40.1662 ], [ -3.3988, 40.1665 ], [ -3.3985, 40.1671 ], [ -3.3974, 40.1675 ], [ -3.3967, 40.1679 ], [ -3.3962, 40.1685 ], [ -3.3961, 40.1699 ], [ -3.3955, 40.1713 ], [ -3.3954, 40.1725 ], [ -3.3951, 40.1732 ], [ -3.3946, 40.1738 ], [ -3.3938, 40.1744 ], [ -3.3908, 40.1753 ], [ -3.3901, 40.1757 ], [ -3.3892, 40.1765 ], [ -3.3873, 40.1776 ], [ -3.3871, 40.1781 ], [ -3.3872, 40.1795 ], [ -3.3874, 40.1798 ], [ -3.3882, 40.1803 ], [ -3.3908, 40.1804 ], [ -3.3926, 40.1812 ], [ -3.3932, 40.182 ], [ -3.3935, 40.1831 ], [ -3.3936, 40.1841 ], [ -3.3939, 40.1851 ], [ -3.3942, 40.1854 ], [ -3.3958, 40.1859 ], [ -3.3967, 40.1864 ], [ -3.3973, 40.1858 ], [ -3.398, 40.186 ], [ -3.3982, 40.1863 ], [ -3.3992, 40.1866 ], [ -3.3998, 40.1866 ], [ -3.4004, 40.1864 ] ] ] } },
{ "type": "Feature", "properties": { "municipio": "Valdelaguna", "clasificacion": "no-urbanizable-protegido", "calificacion": "sin-asignar", "version": "vigente", "fuente": "SIT-CAM WFS — UsoDelSuelo:VPLA_V_CLASIFICACION (https://idem.comunidad.madrid/geosrvg/ows)", "fecha_dato": "2026-05-12", "ambito": "38428", "_raw_CD_SIGLAS": "SNUP", "_raw_DS_CLASIF_GEN": "Suelo No Urbanizable Protegido", "_raw_DS_CLASIF_DET": "Suelo No Urbanizable Protegido Clase II - Espacios forestales en régimen especial", "_raw_DS_DOCU": "NORMAS SUBSIDIARIAS", "_raw_DS_LEY": null, "_raw_FC_AC": "1999-02-04", "_raw_NM_AREA_M2": 1100579.8546957299, "_cam_code": "157" }, "geometry": { "type": "Polygon", "coordinates": [ [ [ -3.3732, 40.2016 ], [ -3.374, 40.2018 ], [ -3.3752, 40.2014 ], [ -3.3749, 40.2009 ], [ -3.375, 40.2005 ], [ -3.3753, 40.2003 ], [ -3.3744, 40.1994 ], [ -3.3757, 40.1995 ], [ -3.3762, 40.1986 ], [ -3.3762, 40.1983 ], [ -3.3756, 40.197 ], [ -3.3756, 40.1966 ], [ -3.3758, 40.1964 ], [ -3.3754, 40.1961 ], [ -3.3751, 40.1951 ], [ -3.3752, 40.1946 ], [ -3.3751, 40.194 ], [ -3.3745, 40.1934 ], [ -3.374, 40.1933 ], [ -3.3739, 40.193 ], [ -3.3743, 40.192 ], [ -3.3737, 40.1914 ], [ -3.3736, 40.191 ], [ -3.371, 40.1913 ], [ -3.3706, 40.1918 ], [ -3.37, 40.1922 ], [ -3.3684, 40.1927 ], [ -3.3653, 40.1926 ], [ -3.3648, 40.1929 ], [ -3.3622, 40.1934 ], [ -3.3612, 40.1934 ], [ -3.3605, 40.1938 ], [ -3.3597, 40.1949 ], [ -3.3596, 40.1955 ], [ -3.3593, 40.1958 ], [ -3.359, 40.1959 ], [ -3.3598, 40.1963 ], [ -3.3601, 40.1966 ], [ -3.3601, 40.197 ], [ -3.3594, 40.1975 ], [ -3.3594, 40.1988 ], [ -3.3656, 40.199 ], [ -3.371, 40.2009 ], [ -3.3723, 40.2017 ], [ -3.3732, 40.2016 ] ] ] } },
{ "type": "Feature", "properties": { "municipio": "Valdelaguna", "clasificacion": "no-urbanizable-protegido", "calificacion": "sin-asignar", "version": "vigente", "fuente": "SIT-CAM WFS — UsoDelSuelo:VPLA_V_CLASIFICACION (https://idem.comunidad.madrid/geosrvg/ows)", "fecha_dato": "2026-05-12", "ambito": "38428", "_raw_CD_SIGLAS": "SNUP", "_raw_DS_CLASIF_GEN": "Suelo No Urbanizable Protegido", "_raw_DS_CLASIF_DET": "Suelo No Urbanizable Protegido Clase II - Espacios forestales en régimen especial - Interés Arqueológico Área de protección A", "_raw_DS_DOCU": "NORMAS SUBSIDIARIAS", "_raw_DS_LEY": null, "_raw_FC_AC": "1999-02-04", "_raw_NM_AREA_M2": 282860.16635567998, "_cam_code": "157" }, "geometry": { "type": "Polygon", "coordinates": [ [ [ -3.342, 40.1937 ], [ -3.3444, 40.1946 ], [ -3.3448, 40.1949 ], [ -3.3457, 40.1944 ], [ -3.3457, 40.1943 ], [ -3.3448, 40.1939 ], [ -3.3432, 40.1925 ], [ -3.3431, 40.1921 ], [ -3.3428, 40.192 ], [ -3.3429, 40.1919 ], [ -3.3425, 40.1912 ], [ -3.3424, 40.1906 ], [ -3.3426, 40.1901 ], [ -3.3425, 40.1894 ], [ -3.342, 40.1888 ], [ -3.3416, 40.1886 ], [ -3.3417, 40.1884 ], [ -3.3422, 40.1884 ], [ -3.3439, 40.1897 ], [ -3.3445, 40.1906 ], [ -3.3453, 40.1907 ], [ -3.3454, 40.1905 ], [ -3.3453, 40.1898 ], [ -3.3446, 40.1891 ], [ -3.3445, 40.1886 ], [ -3.3454, 40.1875 ], [ -3.3454, 40.1873 ], [ -3.3451, 40.1869 ], [ -3.3364, 40.1873 ], [ -3.3375, 40.1876 ], [ -3.338, 40.1886 ], [ -3.3396, 40.1902 ], [ -3.342, 40.1937 ] ] ] } },
{ "type": "Feature", "properties": { "municipio": "Valdelaguna", "clasificacion": "no-urbanizable-protegido", "calificacion": "sin-asignar", "version": "vigente", "fuente": "SIT-CAM WFS — UsoDelSuelo:VPLA_V_CLASIFICACION (https://idem.comunidad.madrid/geosrvg/ows)", "fecha_dato": "2026-05-12", "ambito": "38428", "_raw_CD_SIGLAS": "SNUP", "_raw_DS_CLASIF_GEN": "Suelo No Urbanizable Protegido", "_raw_DS_CLASIF_DET": "Suelo No Urbanizable Protegido Clase III - Espacios de interés forestal y paisajístico", "_raw_DS_DOCU": "NORMAS SUBSIDIARIAS", "_raw_DS_LEY": null, "_raw_FC_AC": "1999-02-04", "_raw_NM_AREA_M2": 92066.846331434906, "_cam_code": "157" }, "geometry": { "type": "Polygon", "coordinates": [ [ [ -3.3759, 40.1438 ], [ -3.3768, 40.1455 ], [ -3.3781, 40.1453 ], [ -3.3785, 40.145 ], [ -3.3808, 40.1443 ], [ -3.3815, 40.1442 ], [ -3.3829, 40.1443 ], [ -3.3836, 40.1434 ], [ -3.3801, 40.143 ], [ -3.3789, 40.1432 ], [ -3.3777, 40.1437 ], [ -3.3759, 40.1438 ] ] ] } },
{ "type": "Feature", "properties": { "municipio": "Valdelaguna", "clasificacion": "no-urbanizable-protegido", "calificacion": "sin-asignar", "version": "vigente", "fuente": "SIT-CAM WFS — UsoDelSuelo:VPLA_V_CLASIFICACION (https://idem.comunidad.madrid/geosrvg/ows)", "fecha_dato": "2026-05-12", "ambito": "38428", "_raw_CD_SIGLAS": "SNUP", "_raw_DS_CLASIF_GEN": "Suelo No Urbanizable Protegido", "_raw_DS_CLASIF_DET": "Suelo No Urbanizable Protegido Clase II - Espacios forestales en régimen especial", "_raw_DS_DOCU": "NORMAS SUBSIDIARIAS", "_raw_DS_LEY": null, "_raw_FC_AC": "1999-02-04", "_raw_NM_AREA_M2": 5382071.6940877195, "_cam_code": "157" }, "geometry": { "type": "Polygon", "coordinates": [ [ [ -3.3348, 40.1866 ], [ -3.3362, 40.1873 ], [ -3.3451, 40.1869 ], [ -3.3449, 40.1863 ], [ -3.3441, 40.1859 ], [ -3.343, 40.1862 ], [ -3.3416, 40.1862 ], [ -3.3412, 40.186 ], [ -3.341, 40.1853 ], [ -3.3418, 40.1854 ], [ -3.3424, 40.1852 ], [ -3.3425, 40.185 ], [ -3.3429, 40.1848 ], [ -3.344, 40.1849 ], [ -3.3449, 40.1839 ], [ -3.3449, 40.1837 ], [ -3.3445, 40.1831 ], [ -3.3426, 40.1831 ], [ -3.3426, 40.1829 ], [ -3.3437, 40.1821 ], [ -3.3443, 40.182 ], [ -3.3455, 40.1811 ], [ -3.3471, 40.1812 ], [ -3.3478, 40.1815 ], [ -3.3483, 40.1819 ], [ -3.349, 40.1816 ], [ -3.348, 40.1808 ], [ -3.3475, 40.1807 ], [ -3.3474, 40.1805 ], [ -3.3475, 40.1804 ], [ -3.347, 40.1803 ], [ -3.3472, 40.1801 ], [ -3.3472, 40.1798 ], [ -3.3455, 40.1793 ], [ -3.3453, 40.179 ], [ -3.346, 40.1789 ], [ -3.3472, 40.179 ], [ -3.3473, 40.1791 ], [ -3.3479, 40.179 ], [ -3.3482, 40.1785 ], [ -3.349, 40.178 ], [ -3.3493, 40.1775 ], [ -3.3499, 40.1772 ], [ -3.3507, 40.1771 ], [ -3.3513, 40.1768 ], [ -3.3519, 40.1768 ], [ -3.3525, 40.1766 ], [ -3.3526, 40.1763 ], [ -3.3524, 40.1761 ], [ -3.3519, 40.1762 ], [ -3.3511, 40.1761 ], [ -3.351, 40.176 ], [ -3.3515, 40.1758 ], [ -3.3515, 40.1757 ], [ -3.3514, 40.1753 ], [ -3.351, 40.1751 ], [ -3.3511, 40.1749 ], [ -3.3507, 40.1746 ], [ -3.3507, 40.1742 ], [ -3.3499, 40.1737 ], [ -3.3494, 40.1736 ], [ -3.3498, 40.1734 ], [ -3.35, 40.1731 ], [ -3.3497, 40.1726 ], [ -3.349, 40.1723 ], [ -3.3486, 40.1719 ], [ -3.3493, 40.1721 ], [ -3.3495, 40.1719 ], [ -3.3495, 40.1716 ], [ -3.3493, 40.1707 ], [ -3.3489, 40.1701 ], [ -3.3489, 40.1696 ], [ -3.3486, 40.1691 ], [ -3.3485, 40.1683 ], [ -3.3503, 40.1701 ], [ -3.3504, 40.1706 ], [ -3.3519, 40.173 ], [ -3.3521, 40.1735 ], [ -3.3522, 40.173 ], [ -3.3519, 40.172 ], [ -3.3511, 40.1711 ], [ -3.3508, 40.1704 ], [ -3.3509, 40.1701 ], [ -3.3511, 40.1699 ], [ -3.3519, 40.17 ], [ -3.3523, 40.1699 ], [ -3.3528, 40.1692 ], [ -3.3533, 40.1689 ], [ -3.3547, 40.1685 ], [ -3.355, 40.168 ], [ -3.355, 40.1675 ], [ -3.3557, 40.1667 ], [ -3.3558, 40.1652 ], [ -3.3563, 40.1642 ], [ -3.3563, 40.1635 ], [ -3.3562, 40.1633 ], [ -3.3559, 40.1632 ], [ -3.3554, 40.1623 ], [ -3.3554, 40.1618 ], [ -3.3549, 40.1611 ], [ -3.3546, 40.161 ], [ -3.3543, 40.1603 ], [ -3.3515, 40.1601 ], [ -3.351, 40.1601 ], [ -3.3497, 40.1604 ], [ -3.3495, 40.1603 ], [ -3.3501, 40.16 ], [ -3.3503, 40.1594 ], [ -3.3502, 40.159 ], [ -3.3495, 40.1581 ], [ -3.3493, 40.158 ], [ -3.3491, 40.1576 ], [ -3.3494, 40.1571 ], [ -3.3517, 40.1565 ], [ -3.3536, 40.1568 ], [ -3.3546, 40.1567 ], [ -3.3552, 40.1564 ], [ -3.3551, 40.1555 ], [ -3.3558, 40.1554 ], [ -3.3562, 40.1552 ], [ -3.357, 40.1536 ], [ -3.3571, 40.153 ], [ -3.3566, 40.1529 ], [ -3.3562, 40.1526 ], [ -3.3556, 40.1525 ], [ -3.3552, 40.1521 ], [ -3.3548, 40.152 ], [ -3.3546, 40.1517 ], [ -3.3543, 40.1516 ], [ -3.354, 40.1513 ], [ -3.3537, 40.1513 ], [ -3.353, 40.151 ], [ -3.3529, 40.1506 ], [ -3.3523, 40.1504 ], [ -3.3499, 40.1512 ], [ -3.3499, 40.1517 ], [ -3.349, 40.1536 ], [ -3.349, 40.1542 ], [ -3.3496, 40.1547 ], [ -3.3494, 40.1552 ], [ -3.3494, 40.1559 ], [ -3.3488, 40.1563 ], [ -3.3465, 40.1558 ], [ -3.346, 40.1554 ], [ -3.3455, 40.1555 ], [ -3.3448, 40.1559 ], [ -3.3448, 40.1563 ], [ -3.3445, 40.1567 ], [ -3.3437, 40.1573 ], [ -3.3437, 40.1575 ], [ -3.3444, 40.1584 ], [ -3.3448, 40.1594 ], [ -3.3459, 40.1606 ], [ -3.3475, 40.1615 ], [ -3.3486, 40.1616 ], [ -3.3485, 40.1617 ], [ -3.348, 40.1619 ], [ -3.347, 40.162 ], [ -3.3461, 40.1623 ], [ -3.3455, 40.1627 ], [ -3.3438, 40.163 ], [ -3.3435, 40.1633 ], [ -3.3434, 40.1636 ], [ -3.343, 40.1637 ], [ -3.3421, 40.1633 ], [ -3.3421, 40.1628 ], [ -3.3418, 40.1623 ], [ -3.3421, 40.162 ], [ -3.3423, 40.1613 ], [ -3.3423, 40.1607 ], [ -3.3412, 40.1605 ], [ -3.3407, 40.1603 ], [ -3.3404, 40.1599 ], [ -3.3389, 40.1594 ], [ -3.3381, 40.1594 ], [ -3.3375, 40.1599 ], [ -3.3368, 40.1599 ], [ -3.3363, 40.1597 ], [ -3.3359, 40.1598 ], [ -3.3347, 40.1615 ], [ -3.333, 40.1617 ], [ -3.3328, 40.1619 ], [ -3.3328, 40.162 ], [ -3.3341, 40.1627 ], [ -3.3348, 40.1633 ], [ -3.3348, 40.1637 ], [ -3.3352, 40.1643 ], [ -3.3354, 40.165 ], [ -3.335, 40.166 ], [ -3.3356, 40.1665 ], [ -3.3355, 40.1668 ], [ -3.3352, 40.167 ], [ -3.3342, 40.1674 ], [ -3.3341, 40.1677 ], [ -3.3334, 40.1683 ], [ -3.3334, 40.1686 ], [ -3.3329, 40.1686 ], [ -3.3322, 40.1682 ], [ -3.3315, 40.1685 ], [ -3.331, 40.1685 ], [ -3.3305, 40.1684 ], [ -3.3303, 40.1682 ], [ -3.3295, 40.1679 ], [ -3.3294, 40.1684 ], [ -3.3285, 40.1684 ], [ -3.3282, 40.1681 ], [ -3.3283, 40.1679 ], [ -3.3283, 40.1668 ], [ -3.3289, 40.1663 ], [ -3.3281, 40.1661 ], [ -3.3257, 40.171 ], [ -3.3267, 40.1706 ], [ -3.3271, 40.1702 ], [ -3.3282, 40.1703 ], [ -3.3285, 40.1706 ], [ -3.3289, 40.1713 ], [ -3.3289, 40.1717 ], [ -3.3292, 40.1719 ], [ -3.3293, 40.1723 ], [ -3.3291, 40.1739 ], [ -3.3292, 40.1746 ], [ -3.3296, 40.1751 ], [ -3.3302, 40.1751 ], [ -3.3305, 40.1747 ], [ -3.3311, 40.1744 ], [ -3.3313, 40.1741 ], [ -3.3312, 40.1737 ], [ -3.3313, 40.1733 ], [ -3.3317, 40.1729 ], [ -3.3323, 40.1726 ], [ -3.3326, 40.1726 ], [ -3.3333, 40.1729 ], [ -3.3337, 40.1729 ], [ -3.3341, 40.1733 ], [ -3.3348, 40.1737 ], [ -3.3353, 40.1738 ], [ -3.3374, 40.1762 ], [ -3.3375, 40.1768 ], [ -3.3372, 40.1771 ], [ -3.3357, 40.1778 ], [ -3.3348, 40.1787 ], [ -3.3357, 40.1788 ], [ -3.3356, 40.1795 ], [ -3.3358, 40.1806 ], [ -3.335, 40.1807 ], [ -3.3345, 40.1809 ], [ -3.3329, 40.1805 ], [ -3.3327, 40.1806 ], [ -3.3323, 40.1805 ], [ -3.3322, 40.1802 ], [ -3.3327, 40.18 ], [ -3.3322, 40.1797 ], [ -3.3317, 40.179 ], [ -3.3325, 40.1786 ], [ -3.3327, 40.1783 ], [ -3.3323, 40.178 ], [ -3.3316, 40.1785 ], [ -3.3309, 40.1793 ], [ -3.33, 40.1794 ], [ -3.3294, 40.1792 ], [ -3.3292, 40.1787 ], [ -3.3294, 40.1783 ], [ -3.329, 40.1781 ], [ -3.3288, 40.1777 ], [ -3.3285, 40.1765 ], [ -3.3279, 40.1755 ], [ -3.327, 40.175 ], [ -3.3263, 40.1751 ], [ -3.3254, 40.175 ], [ -3.3251, 40.1751 ], [ -3.3249, 40.175 ], [ -3.3236, 40.1752 ], [ -3.3232, 40.1751 ], [ -3.3222, 40.1759 ], [ -3.3204, 40.178 ], [ -3.3219, 40.1804 ], [ -3.3277, 40.1823 ], [ -3.3294, 40.1833 ], [ -3.3314, 40.1842 ], [ -3.3348, 40.1866 ] ] ] } },
{ "type": "Feature", "properties": { "municipio": "Valdelaguna", "clasificacion": "no-urbanizable-protegido", "calificacion": "sin-asignar", "version": "vigente", "fuente": "SIT-CAM WFS — UsoDelSuelo:VPLA_V_CLASIFICACION (https://idem.comunidad.madrid/geosrvg/ows)", "fecha_dato": "2026-05-12", "ambito": "38428", "_raw_CD_SIGLAS": "SNUP", "_raw_DS_CLASIF_GEN": "Suelo No Urbanizable Protegido", "_raw_DS_CLASIF_DET": "Suelo No Urbanizable Protegido Clase IV - Espacios de interés edafológico y agrícola", "_raw_DS_DOCU": "NORMAS SUBSIDIARIAS", "_raw_DS_LEY": null, "_raw_FC_AC": "1999-02-04", "_raw_NM_AREA_M2": 3367709.4454005398, "_cam_code": "157" }, "geometry": { "type": "Polygon", "coordinates": [ [ [ -3.3573, 40.1945 ], [ -3.3575, 40.195 ], [ -3.3578, 40.1953 ], [ -3.3592, 40.1951 ], [ -3.3597, 40.1949 ], [ -3.3605, 40.1938 ], [ -3.3612, 40.1934 ], [ -3.3622, 40.1934 ], [ -3.3648, 40.1929 ], [ -3.3653, 40.1926 ], [ -3.3684, 40.1927 ], [ -3.37, 40.1922 ], [ -3.3706, 40.1918 ], [ -3.371, 40.1913 ], [ -3.3715, 40.1913 ], [ -3.3721, 40.1911 ], [ -3.374, 40.191 ], [ -3.3765, 40.19 ], [ -3.3769, 40.1905 ], [ -3.3772, 40.1906 ], [ -3.3783, 40.1907 ], [ -3.3791, 40.191 ], [ -3.3795, 40.1908 ], [ -3.3813, 40.1907 ], [ -3.3821, 40.1912 ], [ -3.3823, 40.1907 ], [ -3.3829, 40.1899 ], [ -3.3829, 40.1892 ], [ -3.3831, 40.1887 ], [ -3.3838, 40.1875 ], [ -3.3841, 40.1874 ], [ -3.3876, 40.187 ], [ -3.3887, 40.1873 ], [ -3.3893, 40.1872 ], [ -3.3902, 40.1875 ], [ -3.391, 40.1875 ], [ -3.3947, 40.1872 ], [ -3.3955, 40.187 ], [ -3.3955, 40.1869 ], [ -3.3952, 40.1867 ], [ -3.3934, 40.1864 ], [ -3.3927, 40.1856 ], [ -3.3925, 40.1834 ], [ -3.3919, 40.1819 ], [ -3.3907, 40.1812 ], [ -3.3876, 40.181 ], [ -3.3866, 40.1804 ], [ -3.3861, 40.1785 ], [ -3.3861, 40.1773 ], [ -3.3862, 40.1771 ], [ -3.3853, 40.177 ], [ -3.3849, 40.1767 ], [ -3.3843, 40.1766 ], [ -3.3835, 40.176 ], [ -3.3816, 40.1756 ], [ -3.3811, 40.1756 ], [ -3.3794, 40.1761 ], [ -3.3781, 40.1767 ], [ -3.3769, 40.1769 ], [ -3.3766, 40.1773 ], [ -3.3762, 40.1773 ], [ -3.376, 40.1775 ], [ -3.3755, 40.1785 ], [ -3.3745, 40.1783 ], [ -3.3728, 40.1789 ], [ -3.3716, 40.1797 ], [ -3.3712, 40.1797 ], [ -3.3708, 40.1792 ], [ -3.3704, 40.1783 ], [ -3.3695, 40.1797 ], [ -3.369, 40.181 ], [ -3.3683, 40.1816 ], [ -3.3672, 40.1842 ], [ -3.3668, 40.1848 ], [ -3.3647, 40.1857 ], [ -3.3632, 40.1855 ], [ -3.3627, 40.1852 ], [ -3.3612, 40.1849 ], [ -3.3589, 40.1848 ], [ -3.3586, 40.1846 ], [ -3.3581, 40.1845 ], [ -3.3581, 40.1839 ], [ -3.358, 40.1838 ], [ -3.3576, 40.1838 ], [ -3.3577, 40.184 ], [ -3.3576, 40.1841 ], [ -3.3573, 40.184 ], [ -3.3567, 40.1841 ], [ -3.3567, 40.184 ], [ -3.3564, 40.184 ], [ -3.3559, 40.1837 ], [ -3.356, 40.1834 ], [ -3.3553, 40.1833 ], [ -3.3551, 40.1838 ], [ -3.3554, 40.1845 ], [ -3.3561, 40.1856 ], [ -3.3564, 40.1858 ], [ -3.3568, 40.1858 ], [ -3.3573, 40.186 ], [ -3.3578, 40.1858 ], [ -3.3579, 40.1862 ], [ -3.3582, 40.1863 ], [ -3.3581, 40.1864 ], [ -3.3595, 40.1863 ], [ -3.3594, 40.1868 ], [ -3.3603, 40.1864 ], [ -3.3609, 40.1863 ], [ -3.3609, 40.1866 ], [ -3.3603, 40.1872 ], [ -3.3604, 40.1875 ], [ -3.3607, 40.1876 ], [ -3.3608, 40.188 ], [ -3.361, 40.1882 ], [ -3.3605, 40.1883 ], [ -3.3597, 40.1878 ], [ -3.3591, 40.1878 ], [ -3.359, 40.1882 ], [ -3.3596, 40.1885 ], [ -3.3598, 40.1888 ], [ -3.3603, 40.1891 ], [ -3.3607, 40.1892 ], [ -3.36, 40.1898 ], [ -3.3597, 40.1898 ], [ -3.3595, 40.1902 ], [ -3.3592, 40.1903 ], [ -3.3585, 40.1902 ], [ -3.3573, 40.1945 ] ] ] } },
{ "type": "Feature", "properties": { "municipio": "Valdelaguna", "clasificacion": "no-urbanizable-protegido", "calificacion": "sin-asignar", "version": "vigente", "fuente": "SIT-CAM WFS — UsoDelSuelo:VPLA_V_CLASIFICACION (https://idem.comunidad.madrid/geosrvg/ows)", "fecha_dato": "2026-05-12", "ambito": "38428", "_raw_CD_SIGLAS": "SNUP", "_raw_DS_CLASIF_GEN": "Suelo No Urbanizable Protegido", "_raw_DS_CLASIF_DET": "Suelo No Urbanizable Protegido Clase IV - Espacios de interés edafológico y agrícola - Interés Arqueológico Área de Protección A", "_raw_DS_DOCU": "NORMAS SUBSIDIARIAS", "_raw_DS_LEY": null, "_raw_FC_AC": "1999-02-04", "_raw_NM_AREA_M2": 8126.5903898736697, "_cam_code": "157" }, "geometry": { "type": "Polygon", "coordinates": [ [ [ -3.3581, 40.1864 ], [ -3.3578, 40.1869 ], [ -3.358, 40.1871 ], [ -3.3584, 40.1871 ], [ -3.3594, 40.1868 ], [ -3.3595, 40.1863 ], [ -3.3581, 40.1864 ] ] ] } },
{ "type": "Feature", "properties": { "municipio": "Valdelaguna", "clasificacion": "no-urbanizable-protegido", "calificacion": "sin-asignar", "version": "vigente", "fuente": "SIT-CAM WFS — UsoDelSuelo:VPLA_V_CLASIFICACION (https://idem.comunidad.madrid/geosrvg/ows)", "fecha_dato": "2026-05-12", "ambito": "38428", "_raw_CD_SIGLAS": "SNUP", "_raw_DS_CLASIF_GEN": "Suelo No Urbanizable Protegido", "_raw_DS_CLASIF_DET": "Suelo No Urbanizable Protegido Clase V - Espacios rurales con restricción de usos", "_raw_DS_DOCU": "NORMAS SUBSIDIARIAS", "_raw_DS_LEY": null, "_raw_FC_AC": "1999-02-04", "_raw_NM_AREA_M2": 974035.32158195099, "_cam_code": "157" }, "geometry": { "type": "Polygon", "coordinates": [ [ [ -3.364, 40.1467 ], [ -3.3639, 40.1481 ], [ -3.3631, 40.1487 ], [ -3.3629, 40.149 ], [ -3.3628, 40.1494 ], [ -3.363, 40.1496 ], [ -3.3635, 40.1496 ], [ -3.3642, 40.1492 ], [ -3.3649, 40.1486 ], [ -3.3659, 40.1473 ], [ -3.3662, 40.1463 ], [ -3.3665, 40.1459 ], [ -3.3679, 40.1448 ], [ -3.3694, 40.1443 ], [ -3.3702, 40.1438 ], [ -3.3712, 40.1434 ], [ -3.3719, 40.143 ], [ -3.3722, 40.1427 ], [ -3.3722, 40.1425 ], [ -3.3732, 40.1426 ], [ -3.3742, 40.1419 ], [ -3.3744, 40.1407 ], [ -3.3748, 40.1396 ], [ -3.3754, 40.139 ], [ -3.3758, 40.1383 ], [ -3.377, 40.1374 ], [ -3.3775, 40.1368 ], [ -3.3792, 40.1341 ], [ -3.3777, 40.1336 ], [ -3.3764, 40.1352 ], [ -3.3697, 40.1382 ], [ -3.3662, 40.1402 ], [ -3.3608, 40.1416 ], [ -3.3584, 40.1418 ], [ -3.3554, 40.1432 ], [ -3.3564, 40.1434 ], [ -3.3589, 40.1433 ], [ -3.3591, 40.1434 ], [ -3.3592, 40.144 ], [ -3.3603, 40.1452 ], [ -3.3606, 40.1455 ], [ -3.3616, 40.1456 ], [ -3.3619, 40.1463 ], [ -3.3625, 40.1469 ], [ -3.3638, 40.1466 ], [ -3.364, 40.1467 ] ] ] } },
{ "type": "Feature", "properties": { "municipio": "Valdelaguna", "clasificacion": "no-urbanizable-protegido", "calificacion": "sin-asignar", "version": "vigente", "fuente": "SIT-CAM WFS — UsoDelSuelo:VPLA_V_CLASIFICACION (https://idem.comunidad.madrid/geosrvg/ows)", "fecha_dato": "2026-05-12", "ambito": "38428", "_raw_CD_SIGLAS": "SNUP", "_raw_DS_CLASIF_GEN": "Suelo No Urbanizable Protegido", "_raw_DS_CLASIF_DET": "Suelo No Urbanizable Protegido Clase V - Espacios rurales con restricción de usos", "_raw_DS_DOCU": "NORMAS SUBSIDIARIAS", "_raw_DS_LEY": null, "_raw_FC_AC": "1999-02-04", "_raw_NM_AREA_M2": 1817879.27012419, "_cam_code": "157" }, "geometry": { "type": "Polygon", "coordinates": [ [ [ -3.3322, 40.1682 ], [ -3.3329, 40.1686 ], [ -3.3334, 40.1686 ], [ -3.3334, 40.1683 ], [ -3.3341, 40.1677 ], [ -3.3342, 40.1674 ], [ -3.3352, 40.167 ], [ -3.3355, 40.1668 ], [ -3.3356, 40.1665 ], [ -3.335, 40.166 ], [ -3.3354, 40.165 ], [ -3.3352, 40.1643 ], [ -3.3348, 40.1637 ], [ -3.3348, 40.1633 ], [ -3.3341, 40.1627 ], [ -3.3328, 40.162 ], [ -3.3328, 40.1619 ], [ -3.333, 40.1617 ], [ -3.3347, 40.1615 ], [ -3.3359, 40.1598 ], [ -3.3363, 40.1597 ], [ -3.3368, 40.1599 ], [ -3.3375, 40.1599 ], [ -3.3381, 40.1594 ], [ -3.3389, 40.1594 ], [ -3.3404, 40.1599 ], [ -3.3407, 40.1603 ], [ -3.3412, 40.1605 ], [ -3.3419, 40.1607 ], [ -3.3426, 40.1606 ], [ -3.3436, 40.1611 ], [ -3.3444, 40.1613 ], [ -3.3448, 40.1611 ], [ -3.3449, 40.1608 ], [ -3.3447, 40.1602 ], [ -3.3448, 40.1594 ], [ -3.3444, 40.1584 ], [ -3.3437, 40.1575 ], [ -3.3437, 40.1573 ], [ -3.3445, 40.1567 ], [ -3.3448, 40.1563 ], [ -3.3448, 40.1559 ], [ -3.3455, 40.1555 ], [ -3.346, 40.1554 ], [ -3.3465, 40.1558 ], [ -3.3488, 40.1563 ], [ -3.3494, 40.1559 ], [ -3.3494, 40.1552 ], [ -3.3496, 40.1547 ], [ -3.349, 40.1542 ], [ -3.349, 40.1536 ], [ -3.3499, 40.1517 ], [ -3.3499, 40.1512 ], [ -3.3523, 40.1504 ], [ -3.3529, 40.1506 ], [ -3.353, 40.151 ], [ -3.3537, 40.1513 ], [ -3.354, 40.1513 ], [ -3.3543, 40.1516 ], [ -3.3546, 40.1517 ], [ -3.3548, 40.152 ], [ -3.3552, 40.1521 ], [ -3.3556, 40.1525 ], [ -3.3562, 40.1526 ], [ -3.3566, 40.1529 ], [ -3.3571, 40.153 ], [ -3.357, 40.1527 ], [ -3.3572, 40.1523 ], [ -3.357, 40.1502 ], [ -3.3565, 40.1494 ], [ -3.3553, 40.1483 ], [ -3.355, 40.1476 ], [ -3.3547, 40.1474 ], [ -3.3525, 40.1472 ], [ -3.3522, 40.1468 ], [ -3.3522, 40.1463 ], [ -3.352, 40.1459 ], [ -3.3511, 40.1458 ], [ -3.3487, 40.1477 ], [ -3.3465, 40.1486 ], [ -3.3425, 40.1494 ], [ -3.3415, 40.1509 ], [ -3.3397, 40.1507 ], [ -3.3385, 40.152 ], [ -3.3351, 40.1565 ], [ -3.3333, 40.1597 ], [ -3.3319, 40.1611 ], [ -3.329, 40.1645 ], [ -3.3281, 40.1661 ], [ -3.3289, 40.1663 ], [ -3.3283, 40.1668 ], [ -3.3283, 40.1679 ], [ -3.3282, 40.1681 ], [ -3.3285, 40.1684 ], [ -3.3294, 40.1684 ], [ -3.3295, 40.1679 ], [ -3.3303, 40.1682 ], [ -3.3305, 40.1684 ], [ -3.331, 40.1685 ], [ -3.3315, 40.1685 ], [ -3.3322, 40.1682 ] ] ] } },
{ "type": "Feature", "properties": { "municipio": "Valdelaguna", "clasificacion": "no-urbanizable-protegido", "calificacion": "sin-asignar", "version": "vigente", "fuente": "SIT-CAM WFS — UsoDelSuelo:VPLA_V_CLASIFICACION (https://idem.comunidad.madrid/geosrvg/ows)", "fecha_dato": "2026-05-12", "ambito": "38428", "_raw_CD_SIGLAS": "SNUP", "_raw_DS_CLASIF_GEN": "Suelo No Urbanizable Protegido", "_raw_DS_CLASIF_DET": "Suelo No Urbanizable Protegido Clase V - Espacios rurales con restricción de usos", "_raw_DS_DOCU": "NORMAS SUBSIDIARIAS", "_raw_DS_LEY": null, "_raw_FC_AC": "1999-02-04", "_raw_NM_AREA_M2": 635850.48302413302, "_cam_code": "157" }, "geometry": { "type": "Polygon", "coordinates": [ [ [ -3.3345, 40.1809 ], [ -3.335, 40.1807 ], [ -3.3358, 40.1806 ], [ -3.3356, 40.1795 ], [ -3.3357, 40.1788 ], [ -3.3348, 40.1787 ], [ -3.3357, 40.1778 ], [ -3.3372, 40.1771 ], [ -3.3375, 40.1768 ], [ -3.3374, 40.1762 ], [ -3.3361, 40.1746 ], [ -3.3353, 40.1738 ], [ -3.3348, 40.1737 ], [ -3.3341, 40.1733 ], [ -3.3337, 40.1729 ], [ -3.3333, 40.1729 ], [ -3.3326, 40.1726 ], [ -3.3323, 40.1726 ], [ -3.3317, 40.1729 ], [ -3.3313, 40.1733 ], [ -3.3312, 40.1737 ], [ -3.3313, 40.1741 ], [ -3.3311, 40.1744 ], [ -3.3305, 40.1747 ], [ -3.3302, 40.1751 ], [ -3.3296, 40.1751 ], [ -3.3292, 40.1746 ], [ -3.3291, 40.1739 ], [ -3.3293, 40.1723 ], [ -3.3292, 40.1719 ], [ -3.3289, 40.1717 ], [ -3.3289, 40.1713 ], [ -3.3285, 40.1706 ], [ -3.3282, 40.1703 ], [ -3.3271, 40.1702 ], [ -3.3267, 40.1706 ], [ -3.3257, 40.171 ], [ -3.3226, 40.1755 ], [ -3.3232, 40.1751 ], [ -3.3236, 40.1752 ], [ -3.3249, 40.175 ], [ -3.3251, 40.1751 ], [ -3.3254, 40.175 ], [ -3.3259, 40.1751 ], [ -3.327, 40.175 ], [ -3.3279, 40.1755 ], [ -3.3285, 40.1765 ], [ -3.3288, 40.1777 ], [ -3.329, 40.1781 ], [ -3.3294, 40.1783 ], [ -3.3292, 40.1787 ], [ -3.3294, 40.1792 ], [ -3.33, 40.1794 ], [ -3.3309, 40.1793 ], [ -3.3316, 40.1785 ], [ -3.3323, 40.178 ], [ -3.3327, 40.1783 ], [ -3.3325, 40.1786 ], [ -3.3317, 40.179 ], [ -3.3322, 40.1797 ], [ -3.3327, 40.18 ], [ -3.3322, 40.1802 ], [ -3.3323, 40.1805 ], [ -3.3327, 40.1806 ], [ -3.3329, 40.1805 ], [ -3.3345, 40.1809 ] ] ] } },
{ "type": "Feature", "properties": { "municipio": "Valdelaguna", "clasificacion": "no-urbanizable-protegido", "calificacion": "sin-asignar", "version": "vigente", "fuente": "SIT-CAM WFS — UsoDelSuelo:VPLA_V_CLASIFICACION (https://idem.comunidad.madrid/geosrvg/ows)", "fecha_dato": "2026-05-12", "ambito": "38428", "_raw_CD_SIGLAS": "SNUP", "_raw_DS_CLASIF_GEN": "Suelo No Urbanizable Protegido", "_raw_DS_CLASIF_DET": "Suelo No Urbanizable Protegido de interés cultural", "_raw_DS_DOCU": "NORMAS SUBSIDIARIAS", "_raw_DS_LEY": null, "_raw_FC_AC": "1999-02-04", "_raw_NM_AREA_M2": 525005.657688712, "_cam_code": "157" }, "geometry": { "type": "Polygon", "coordinates": [ [ [ -3.3987, 40.1977 ], [ -3.4001, 40.1981 ], [ -3.4005, 40.1977 ], [ -3.401, 40.1968 ], [ -3.4011, 40.1963 ], [ -3.4008, 40.195 ], [ -3.3995, 40.1934 ], [ -3.3992, 40.1928 ], [ -3.3992, 40.1924 ], [ -3.3989, 40.1916 ], [ -3.3985, 40.1911 ], [ -3.3972, 40.1902 ], [ -3.3972, 40.1899 ], [ -3.3976, 40.1888 ], [ -3.3973, 40.1873 ], [ -3.3967, 40.1864 ], [ -3.3963, 40.1861 ], [ -3.3946, 40.1856 ], [ -3.3939, 40.1851 ], [ -3.3932, 40.182 ], [ -3.3926, 40.1812 ], [ -3.3908, 40.1804 ], [ -3.3882, 40.1803 ], [ -3.3878, 40.1801 ], [ -3.3872, 40.1795 ], [ -3.3871, 40.1781 ], [ -3.3873, 40.1776 ], [ -3.3892, 40.1765 ], [ -3.3901, 40.1757 ], [ -3.3916, 40.175 ], [ -3.3938, 40.1744 ], [ -3.3946, 40.1738 ], [ -3.3951, 40.1732 ], [ -3.3954, 40.1725 ], [ -3.3955, 40.1713 ], [ -3.3961, 40.1699 ], [ -3.3962, 40.1685 ], [ -3.3967, 40.1679 ], [ -3.3974, 40.1675 ], [ -3.3985, 40.1671 ], [ -3.3988, 40.1665 ], [ -3.3993, 40.1662 ], [ -3.3989, 40.1654 ], [ -3.3981, 40.166 ], [ -3.398, 40.1663 ], [ -3.3968, 40.1668 ], [ -3.3957, 40.1678 ], [ -3.3947, 40.1682 ], [ -3.3946, 40.1693 ], [ -3.3936, 40.173 ], [ -3.3931, 40.1736 ], [ -3.3926, 40.1738 ], [ -3.3924, 40.1741 ], [ -3.3899, 40.1743 ], [ -3.3888, 40.1749 ], [ -3.387, 40.1762 ], [ -3.3864, 40.1767 ], [ -3.3861, 40.1773 ], [ -3.3861, 40.1785 ], [ -3.3866, 40.1804 ], [ -3.3876, 40.181 ], [ -3.3907, 40.1812 ], [ -3.3919, 40.1819 ], [ -3.3925, 40.1834 ], [ -3.3927, 40.1856 ], [ -3.3934, 40.1864 ], [ -3.3952, 40.1867 ], [ -3.3955, 40.1869 ], [ -3.396, 40.1879 ], [ -3.3961, 40.1884 ], [ -3.3956, 40.1898 ], [ -3.3956, 40.1905 ], [ -3.3961, 40.1912 ], [ -3.3966, 40.1916 ], [ -3.3972, 40.1918 ], [ -3.3976, 40.1921 ], [ -3.3981, 40.1933 ], [ -3.3994, 40.1953 ], [ -3.3995, 40.1965 ], [ -3.3989, 40.1976 ], [ -3.3987, 40.1977 ] ] ] } },
{ "type": "Feature", "properties": { "municipio": "Valdelaguna", "clasificacion": "no-urbanizable-protegido", "calificacion": "sin-asignar", "version": "vigente", "fuente": "SIT-CAM WFS — UsoDelSuelo:VPLA_V_CLASIFICACION (https://idem.comunidad.madrid/geosrvg/ows)", "fecha_dato": "2026-05-12", "ambito": "38428", "_raw_CD_SIGLAS": "SNUP", "_raw_DS_CLASIF_GEN": "Suelo No Urbanizable Protegido", "_raw_DS_CLASIF_DET": "Suelo No Urbanizable Protegido de interés cultural  - Interés Arqueológico Área de Protección A", "_raw_DS_DOCU": "NORMAS SUBSIDIARIAS", "_raw_DS_LEY": null, "_raw_FC_AC": "1999-02-04", "_raw_NM_AREA_M2": 116909.215243666, "_cam_code": "157" }, "geometry": { "type": "Polygon", "coordinates": [ [ [ -3.3932, 40.2037 ], [ -3.3949, 40.2044 ], [ -3.395, 40.2037 ], [ -3.3956, 40.2026 ], [ -3.3963, 40.202 ], [ -3.3978, 40.1998 ], [ -3.3982, 40.1994 ], [ -3.3996, 40.1986 ], [ -3.4001, 40.1981 ], [ -3.3987, 40.1977 ], [ -3.396, 40.1993 ], [ -3.3954, 40.2009 ], [ -3.3935, 40.203 ], [ -3.3932, 40.2037 ] ] ] } },
{ "type": "Feature", "properties": { "municipio": "Valdelaguna", "clasificacion": "no-urbanizable-protegido", "calificacion": "sin-asignar", "version": "vigente", "fuente": "SIT-CAM WFS — UsoDelSuelo:VPLA_V_CLASIFICACION (https://idem.comunidad.madrid/geosrvg/ows)", "fecha_dato": "2026-05-12", "ambito": "38428", "_raw_CD_SIGLAS": "SNUP", "_raw_DS_CLASIF_GEN": "Suelo No Urbanizable Protegido", "_raw_DS_CLASIF_DET": "Suelo No Urbanizable Protegido de interés cultural  - Interés Arqueológico Área de Protección B", "_raw_DS_DOCU": "NORMAS SUBSIDIARIAS", "_raw_DS_LEY": null, "_raw_FC_AC": "1999-02-04", "_raw_NM_AREA_M2": 143329.27816597, "_cam_code": "157" }, "geometry": { "type": "Polygon", "coordinates": [ [ [ -3.3932, 40.2037 ], [ -3.3931, 40.2047 ], [ -3.3925, 40.2057 ], [ -3.3924, 40.2061 ], [ -3.3926, 40.2071 ], [ -3.3911, 40.2103 ], [ -3.3904, 40.2108 ], [ -3.3897, 40.2115 ], [ -3.3896, 40.2118 ], [ -3.3897, 40.2124 ], [ -3.3904, 40.2132 ], [ -3.3928, 40.2103 ], [ -3.3941, 40.2076 ], [ -3.3939, 40.2065 ], [ -3.3945, 40.2055 ], [ -3.3949, 40.2044 ], [ -3.3932, 40.2037 ] ] ] } },
{ "type": "Feature", "properties": { "municipio": "Valdelaguna", "clasificacion": "urbanizable-no-sectorizado", "calificacion": "sin-asignar", "version": "vigente", "fuente": "SIT-CAM WFS — UsoDelSuelo:VPLA_V_CLASIFICACION (https://idem.comunidad.madrid/geosrvg/ows)", "fecha_dato": "2026-05-12", "ambito": "38428", "_raw_CD_SIGLAS": "SUBNS", "_raw_DS_CLASIF_GEN": "Suelo No Urbanizable Común", "_raw_DS_CLASIF_DET": "Suelo No Urbanizable Común", "_raw_DS_DOCU": "NORMAS SUBSIDIARIAS", "_raw_DS_LEY": null, "_raw_FC_AC": "1999-02-04", "_raw_NM_AREA_M2": 4571990.0711245397, "_cam_code": "157" }, "geometry": { "type": "Polygon", "coordinates": [ [ [ -3.3755, 40.1666 ], [ -3.3756, 40.1669 ], [ -3.3756, 40.1663 ], [ -3.3754, 40.1656 ], [ -3.3746, 40.165 ], [ -3.3754, 40.1644 ], [ -3.3761, 40.1641 ], [ -3.3768, 40.1634 ], [ -3.3779, 40.1629 ], [ -3.3826, 40.1625 ], [ -3.3865, 40.1616 ], [ -3.3914, 40.1618 ], [ -3.3963, 40.1616 ], [ -3.3953, 40.1597 ], [ -3.3945, 40.1575 ], [ -3.3933, 40.1529 ], [ -3.3927, 40.1513 ], [ -3.3909, 40.1493 ], [ -3.3866, 40.1405 ], [ -3.3851, 40.1367 ], [ -3.385, 40.1353 ], [ -3.3828, 40.1349 ], [ -3.3806, 40.1343 ], [ -3.3792, 40.1341 ], [ -3.3775, 40.1368 ], [ -3.377, 40.1374 ], [ -3.3758, 40.1383 ], [ -3.3754, 40.139 ], [ -3.3748, 40.1396 ], [ -3.3744, 40.1407 ], [ -3.3742, 40.1419 ], [ -3.3747, 40.1418 ], [ -3.3752, 40.1419 ], [ -3.3754, 40.1423 ], [ -3.3759, 40.1426 ], [ -3.3759, 40.1438 ], [ -3.3777, 40.1437 ], [ -3.3789, 40.1432 ], [ -3.3801, 40.143 ], [ -3.3836, 40.1434 ], [ -3.3829, 40.1443 ], [ -3.3822, 40.1442 ], [ -3.3808, 40.1443 ], [ -3.3785, 40.145 ], [ -3.3781, 40.1453 ], [ -3.3768, 40.1455 ], [ -3.3768, 40.1462 ], [ -3.377, 40.1467 ], [ -3.377, 40.1471 ], [ -3.3767, 40.1478 ], [ -3.3764, 40.1481 ], [ -3.3752, 40.1487 ], [ -3.3742, 40.1489 ], [ -3.3742, 40.1491 ], [ -3.3737, 40.1493 ], [ -3.3728, 40.1494 ], [ -3.3719, 40.1502 ], [ -3.3704, 40.1508 ], [ -3.3701, 40.1511 ], [ -3.3692, 40.1511 ], [ -3.369, 40.1514 ], [ -3.3693, 40.1521 ], [ -3.3693, 40.1524 ], [ -3.3699, 40.1527 ], [ -3.3693, 40.1531 ], [ -3.3684, 40.1533 ], [ -3.368, 40.1538 ], [ -3.367, 40.1546 ], [ -3.367, 40.1548 ], [ -3.3675, 40.1555 ], [ -3.3675, 40.1557 ], [ -3.3683, 40.1558 ], [ -3.3682, 40.1563 ], [ -3.3673, 40.1567 ], [ -3.3661, 40.1578 ], [ -3.3679, 40.1569 ], [ -3.3683, 40.1565 ], [ -3.3689, 40.1569 ], [ -3.369, 40.1574 ], [ -3.3694, 40.1576 ], [ -3.3694, 40.1575 ], [ -3.37, 40.1573 ], [ -3.3712, 40.1575 ], [ -3.3713, 40.1577 ], [ -3.3718, 40.1577 ], [ -3.3731, 40.1582 ], [ -3.3718, 40.1589 ], [ -3.3717, 40.1591 ], [ -3.3721, 40.1605 ], [ -3.3723, 40.1606 ], [ -3.3722, 40.1609 ], [ -3.3725, 40.1609 ], [ -3.3728, 40.1629 ], [ -3.373, 40.1629 ], [ -3.3731, 40.1631 ], [ -3.3726, 40.1632 ], [ -3.3728, 40.1635 ], [ -3.3729, 40.1641 ], [ -3.3727, 40.1642 ], [ -3.3724, 40.1641 ], [ -3.3717, 40.1636 ], [ -3.3707, 40.1635 ], [ -3.3705, 40.1636 ], [ -3.3701, 40.1645 ], [ -3.3683, 40.1645 ], [ -3.368, 40.1644 ], [ -3.368, 40.1642 ], [ -3.3678, 40.1641 ], [ -3.3677, 40.1643 ], [ -3.3674, 40.1643 ], [ -3.3671, 40.1645 ], [ -3.3666, 40.1645 ], [ -3.3671, 40.1636 ], [ -3.3659, 40.1637 ], [ -3.3655, 40.1643 ], [ -3.3655, 40.1646 ], [ -3.3649, 40.1655 ], [ -3.365, 40.1657 ], [ -3.3649, 40.1662 ], [ -3.3651, 40.1663 ], [ -3.3654, 40.1661 ], [ -3.3671, 40.1656 ], [ -3.3677, 40.1651 ], [ -3.3684, 40.1649 ], [ -3.369, 40.1649 ], [ -3.3701, 40.1652 ], [ -3.3709, 40.1651 ], [ -3.3714, 40.1648 ], [ -3.3716, 40.1649 ], [ -3.3717, 40.1654 ], [ -3.372, 40.1658 ], [ -3.3726, 40.1662 ], [ -3.3742, 40.1666 ], [ -3.3748, 40.1665 ], [ -3.3755, 40.1666 ] ] ] } },
{ "type": "Feature", "properties": { "municipio": "Valdelaguna", "clasificacion": "urbanizable-no-sectorizado", "calificacion": "sin-asignar", "version": "vigente", "fuente": "SIT-CAM WFS — UsoDelSuelo:VPLA_V_CLASIFICACION (https://idem.comunidad.madrid/geosrvg/ows)", "fecha_dato": "2026-05-12", "ambito": "38428", "_raw_CD_SIGLAS": "SUBNS", "_raw_DS_CLASIF_GEN": "Suelo No Urbanizable Común", "_raw_DS_CLASIF_DET": "Suelo No Urbanizable Común", "_raw_DS_DOCU": "NORMAS SUBSIDIARIAS", "_raw_DS_LEY": null, "_raw_FC_AC": "1999-02-04", "_raw_NM_AREA_M2": 113773.39614103299, "_cam_code": "157" }, "geometry": { "type": "Polygon", "coordinates": [ [ [ -3.3621, 40.1585 ], [ -3.3627, 40.1585 ], [ -3.3631, 40.1582 ], [ -3.3637, 40.1573 ], [ -3.3642, 40.1576 ], [ -3.3644, 40.1571 ], [ -3.366, 40.1557 ], [ -3.3659, 40.1551 ], [ -3.3656, 40.1549 ], [ -3.3649, 40.1551 ], [ -3.3634, 40.1552 ], [ -3.363, 40.1553 ], [ -3.3627, 40.1557 ], [ -3.3625, 40.1557 ], [ -3.3623, 40.1559 ], [ -3.361, 40.1561 ], [ -3.3607, 40.1563 ], [ -3.36, 40.1564 ], [ -3.3603, 40.1571 ], [ -3.3601, 40.1582 ], [ -3.3607, 40.1582 ], [ -3.3609, 40.1584 ], [ -3.3611, 40.1581 ], [ -3.3615, 40.158 ], [ -3.3616, 40.1583 ], [ -3.3621, 40.1583 ], [ -3.3621, 40.1585 ] ] ] } },
{ "type": "Feature", "properties": { "municipio": "Valdelaguna", "clasificacion": "urbanizable-sectorizado", "calificacion": "sin-asignar", "version": "vigente", "fuente": "SIT-CAM WFS — UsoDelSuelo:VPLA_V_CLASIFICACION (https://idem.comunidad.madrid/geosrvg/ows)", "fecha_dato": "2026-05-12", "ambito": "38428", "_raw_CD_SIGLAS": "SUBS", "_raw_DS_CLASIF_GEN": "Suelo Apto Para Urbanizar", "_raw_DS_CLASIF_DET": "Suelo Apto Para Urbanizar", "_raw_DS_DOCU": "NORMAS SUBSIDIARIAS", "_raw_DS_LEY": null, "_raw_FC_AC": "1999-02-04", "_raw_NM_AREA_M2": 27213.8571791697, "_cam_code": "157" }, "geometry": { "type": "Polygon", "coordinates": [ [ [ -3.3678, 40.1641 ], [ -3.368, 40.1642 ], [ -3.368, 40.1644 ], [ -3.3683, 40.1645 ], [ -3.3701, 40.1645 ], [ -3.3705, 40.1636 ], [ -3.3704, 40.1633 ], [ -3.3701, 40.1632 ], [ -3.3697, 40.1635 ], [ -3.3686, 40.1636 ], [ -3.3681, 40.1638 ], [ -3.3677, 40.1638 ], [ -3.3677, 40.1639 ], [ -3.3674, 40.1639 ], [ -3.3671, 40.1636 ], [ -3.3666, 40.1645 ], [ -3.3671, 40.1645 ], [ -3.3674, 40.1643 ], [ -3.3677, 40.1643 ], [ -3.3678, 40.1641 ] ] ] } },
{ "type": "Feature", "properties": { "municipio": "Valdelaguna", "clasificacion": "urbanizable-sectorizado", "calificacion": "sin-asignar", "version": "vigente", "fuente": "SIT-CAM WFS — UsoDelSuelo:VPLA_V_CLASIFICACION (https://idem.comunidad.madrid/geosrvg/ows)", "fecha_dato": "2026-05-12", "ambito": "38428", "_raw_CD_SIGLAS": "SUBS", "_raw_DS_CLASIF_GEN": "Suelo Apto Para Urbanizar", "_raw_DS_CLASIF_DET": "Suelo Apto Para Urbanizar", "_raw_DS_DOCU": "NORMAS SUBSIDIARIAS", "_raw_DS_LEY": null, "_raw_FC_AC": "1999-02-04", "_raw_NM_AREA_M2": 30795.691162778301, "_cam_code": "157" }, "geometry": { "type": "Polygon", "coordinates": [ [ [ -3.3692, 40.1575 ], [ -3.3695, 40.158 ], [ -3.371, 40.1584 ], [ -3.3709, 40.1589 ], [ -3.3712, 40.1592 ], [ -3.3731, 40.1582 ], [ -3.3718, 40.1577 ], [ -3.3713, 40.1577 ], [ -3.3712, 40.1575 ], [ -3.37, 40.1573 ], [ -3.3694, 40.1575 ], [ -3.3694, 40.1576 ], [ -3.3692, 40.1575 ] ] ] } },
{ "type": "Feature", "properties": { "municipio": "Valdelaguna", "clasificacion": "urbanizable-sectorizado", "calificacion": "sin-asignar", "version": "vigente", "fuente": "SIT-CAM WFS — UsoDelSuelo:VPLA_V_CLASIFICACION (https://idem.comunidad.madrid/geosrvg/ows)", "fecha_dato": "2026-05-12", "ambito": "38428", "_raw_CD_SIGLAS": "SUBS", "_raw_DS_CLASIF_GEN": "Suelo Apto Para Urbanizar", "_raw_DS_CLASIF_DET": "Suelo Apto Para Urbanizar", "_raw_DS_DOCU": "NORMAS SUBSIDIARIAS", "_raw_DS_LEY": null, "_raw_FC_AC": "1999-02-04", "_raw_NM_AREA_M2": 58793.2612138439, "_cam_code": "157" }, "geometry": { "type": "Polygon", "coordinates": [ [ [ -3.3608, 40.1592 ], [ -3.3614, 40.1598 ], [ -3.3617, 40.1595 ], [ -3.362, 40.1594 ], [ -3.3622, 40.1595 ], [ -3.3626, 40.1594 ], [ -3.3631, 40.1589 ], [ -3.3633, 40.1592 ], [ -3.3641, 40.159 ], [ -3.3641, 40.1593 ], [ -3.3643, 40.1591 ], [ -3.3649, 40.1589 ], [ -3.365, 40.1591 ], [ -3.3656, 40.1592 ], [ -3.3657, 40.1589 ], [ -3.366, 40.1589 ], [ -3.366, 40.1588 ], [ -3.3654, 40.1584 ], [ -3.3653, 40.1573 ], [ -3.365, 40.1572 ], [ -3.3646, 40.1576 ], [ -3.3641, 40.1576 ], [ -3.3637, 40.1573 ], [ -3.3633, 40.158 ], [ -3.3627, 40.1585 ], [ -3.3621, 40.1585 ], [ -3.3621, 40.1583 ], [ -3.3616, 40.1583 ], [ -3.3615, 40.158 ], [ -3.3611, 40.1581 ], [ -3.3609, 40.1584 ], [ -3.3609, 40.1591 ], [ -3.3608, 40.1592 ] ] ] } },
{ "type": "Feature", "properties": { "municipio": "Valdelaguna", "clasificacion": "urbanizable-sectorizado", "calificacion": "sin-asignar", "version": "vigente", "fuente": "SIT-CAM WFS — UsoDelSuelo:VPLA_V_CLASIFICACION (https://idem.comunidad.madrid/geosrvg/ows)", "fecha_dato": "2026-05-12", "ambito": "38428", "_raw_CD_SIGLAS": "SUBS", "_raw_DS_CLASIF_GEN": "Suelo Apto Para Urbanizar", "_raw_DS_CLASIF_DET": "Suelo Apto Para Urbanizar", "_raw_DS_DOCU": "NORMAS SUBSIDIARIAS", "_raw_DS_LEY": null, "_raw_FC_AC": "1999-02-04", "_raw_NM_AREA_M2": 16282.2102054971, "_cam_code": "157" }, "geometry": { "type": "Polygon", "coordinates": [ [ [ -3.3603, 40.1609 ], [ -3.3607, 40.1608 ], [ -3.3616, 40.1609 ], [ -3.3623, 40.1606 ], [ -3.3623, 40.1604 ], [ -3.3624, 40.1604 ], [ -3.3615, 40.16 ], [ -3.361, 40.1595 ], [ -3.3606, 40.1594 ], [ -3.3604, 40.1596 ], [ -3.3606, 40.1598 ], [ -3.3605, 40.16 ], [ -3.3606, 40.1605 ], [ -3.3603, 40.1609 ] ] ] } },
{ "type": "Feature", "properties": { "municipio": "Valdelaguna", "clasificacion": "urbanizable-sectorizado", "calificacion": "sin-asignar", "version": "vigente", "fuente": "SIT-CAM WFS — UsoDelSuelo:VPLA_V_CLASIFICACION (https://idem.comunidad.madrid/geosrvg/ows)", "fecha_dato": "2026-05-12", "ambito": "38428", "_raw_CD_SIGLAS": "SUBS", "_raw_DS_CLASIF_GEN": "Suelo Apto Para Urbanizar", "_raw_DS_CLASIF_DET": "Suelo Apto Para Urbanizar", "_raw_DS_DOCU": "NORMAS SUBSIDIARIAS", "_raw_DS_LEY": null, "_raw_FC_AC": "1999-02-04", "_raw_NM_AREA_M2": 32035.3525360438, "_cam_code": "157" }, "geometry": { "type": "Polygon", "coordinates": [ [ [ -3.3716, 40.1635 ], [ -3.3724, 40.1641 ], [ -3.3727, 40.1642 ], [ -3.3729, 40.1641 ], [ -3.3728, 40.1635 ], [ -3.3726, 40.1632 ], [ -3.3731, 40.1631 ], [ -3.373, 40.1629 ], [ -3.3728, 40.1629 ], [ -3.3725, 40.1609 ], [ -3.3722, 40.1609 ], [ -3.3723, 40.1612 ], [ -3.3717, 40.1612 ], [ -3.3717, 40.1615 ], [ -3.3715, 40.1619 ], [ -3.3715, 40.1624 ], [ -3.3714, 40.1627 ], [ -3.3712, 40.1628 ], [ -3.3716, 40.1635 ] ] ] } },
{ "type": "Feature", "properties": { "municipio": "Valdelaguna", "clasificacion": "urbano-consolidado", "calificacion": "sin-asignar", "version": "vigente", "fuente": "SIT-CAM WFS — UsoDelSuelo:VPLA_V_CLASIFICACION (https://idem.comunidad.madrid/geosrvg/ows)", "fecha_dato": "2026-05-12", "ambito": "38428", "_raw_CD_SIGLAS": "SUC", "_raw_DS_CLASIF_GEN": "Suelo Urbano Consolidado", "_raw_DS_CLASIF_DET": "Suelo Urbano", "_raw_DS_DOCU": "NORMAS SUBSIDIARIAS", "_raw_DS_LEY": null, "_raw_FC_AC": "1999-02-04", "_raw_NM_AREA_M2": 312002.45195289602, "_cam_code": "157" }, "geometry": { "type": "Polygon", "coordinates": [ [ [ -3.3677, 40.1639 ], [ -3.3677, 40.1638 ], [ -3.3681, 40.1638 ], [ -3.3686, 40.1636 ], [ -3.3697, 40.1635 ], [ -3.3701, 40.1632 ], [ -3.3704, 40.1633 ], [ -3.3705, 40.1636 ], [ -3.3707, 40.1635 ], [ -3.3717, 40.1636 ], [ -3.3712, 40.1628 ], [ -3.3714, 40.1627 ], [ -3.3715, 40.1619 ], [ -3.3717, 40.1615 ], [ -3.3717, 40.1606 ], [ -3.3714, 40.1599 ], [ -3.3715, 40.1593 ], [ -3.3717, 40.1592 ], [ -3.3718, 40.1589 ], [ -3.3712, 40.1592 ], [ -3.3709, 40.1589 ], [ -3.371, 40.1584 ], [ -3.3699, 40.1581 ], [ -3.3698, 40.1584 ], [ -3.3701, 40.1583 ], [ -3.37, 40.1585 ], [ -3.3701, 40.159 ], [ -3.3697, 40.1591 ], [ -3.3697, 40.1589 ], [ -3.3696, 40.1591 ], [ -3.3697, 40.1592 ], [ -3.3701, 40.1591 ], [ -3.3701, 40.1596 ], [ -3.3703, 40.1601 ], [ -3.3701, 40.1603 ], [ -3.3698, 40.1602 ], [ -3.3697, 40.1607 ], [ -3.3691, 40.1607 ], [ -3.3688, 40.1605 ], [ -3.3687, 40.1607 ], [ -3.3679, 40.1606 ], [ -3.3673, 40.16 ], [ -3.3668, 40.1601 ], [ -3.3661, 40.1598 ], [ -3.3662, 40.1596 ], [ -3.3658, 40.1595 ], [ -3.3656, 40.1592 ], [ -3.365, 40.1591 ], [ -3.3649, 40.1589 ], [ -3.3643, 40.1591 ], [ -3.3641, 40.1593 ], [ -3.3641, 40.159 ], [ -3.3633, 40.1592 ], [ -3.3631, 40.1589 ], [ -3.3626, 40.1594 ], [ -3.3622, 40.1595 ], [ -3.362, 40.1594 ], [ -3.3613, 40.1598 ], [ -3.3624, 40.1604 ], [ -3.3623, 40.1604 ], [ -3.3623, 40.1606 ], [ -3.3637, 40.1609 ], [ -3.3638, 40.1608 ], [ -3.3647, 40.1612 ], [ -3.3642, 40.1616 ], [ -3.3632, 40.1615 ], [ -3.3632, 40.1617 ], [ -3.3629, 40.1616 ], [ -3.362, 40.1617 ], [ -3.3624, 40.1622 ], [ -3.3624, 40.162 ], [ -3.3625, 40.162 ], [ -3.363, 40.1623 ], [ -3.3629, 40.1623 ], [ -3.363, 40.1626 ], [ -3.3631, 40.1625 ], [ -3.3635, 40.1626 ], [ -3.364, 40.163 ], [ -3.3645, 40.1631 ], [ -3.3645, 40.1632 ], [ -3.365, 40.1631 ], [ -3.3652, 40.1634 ], [ -3.3654, 40.1632 ], [ -3.3657, 40.1632 ], [ -3.3657, 40.1633 ], [ -3.3663, 40.1632 ], [ -3.3663, 40.1634 ], [ -3.367, 40.1633 ], [ -3.367, 40.1636 ], [ -3.3674, 40.1639 ], [ -3.3677, 40.1639 ] ] ] } },
{ "type": "Feature", "properties": { "municipio": "Valdelaguna", "clasificacion": "urbano-no-consolidado", "calificacion": "sin-asignar", "version": "vigente", "fuente": "SIT-CAM WFS — UsoDelSuelo:VPLA_V_CLASIFICACION (https://idem.comunidad.madrid/geosrvg/ows)", "fecha_dato": "2026-05-12", "ambito": "38428", "_raw_CD_SIGLAS": "SUNC", "_raw_DS_CLASIF_GEN": "Suelo Urbano No Consolidado", "_raw_DS_CLASIF_DET": "Suelo Urbano", "_raw_DS_DOCU": "NORMAS SUBSIDIARIAS", "_raw_DS_LEY": null, "_raw_FC_AC": "1999-02-04", "_raw_NM_AREA_M2": 5067.0277338774404, "_cam_code": "157" }, "geometry": { "type": "Polygon", "coordinates": [ [ [ -3.3657, 40.1633 ], [ -3.3658, 40.1638 ], [ -3.3659, 40.1637 ], [ -3.367, 40.1636 ], [ -3.367, 40.1633 ], [ -3.3663, 40.1634 ], [ -3.3663, 40.1632 ], [ -3.366, 40.1632 ], [ -3.3657, 40.1633 ] ] ] } },
{ "type": "Feature", "properties": { "municipio": "Valdelaguna", "clasificacion": "urbano-no-consolidado", "calificacion": "sin-asignar", "version": "vigente", "fuente": "SIT-CAM WFS — UsoDelSuelo:VPLA_V_CLASIFICACION (https://idem.comunidad.madrid/geosrvg/ows)", "fecha_dato": "2026-05-12", "ambito": "38428", "_raw_CD_SIGLAS": "SUNC", "_raw_DS_CLASIF_GEN": "Suelo Urbano No Consolidado", "_raw_DS_CLASIF_DET": "Suelo Urbano", "_raw_DS_DOCU": "NORMAS SUBSIDIARIAS", "_raw_DS_LEY": null, "_raw_FC_AC": "1999-02-04", "_raw_NM_AREA_M2": 8820.4160593260804, "_cam_code": "157" }, "geometry": { "type": "Polygon", "coordinates": [ [ [ -3.3717, 40.1606 ], [ -3.3717, 40.1612 ], [ -3.3723, 40.1612 ], [ -3.3722, 40.1611 ], [ -3.3723, 40.1606 ], [ -3.3721, 40.1605 ], [ -3.3717, 40.1591 ], [ -3.3715, 40.1593 ], [ -3.3714, 40.1599 ], [ -3.3717, 40.1606 ] ] ] } },
{ "type": "Feature", "properties": { "municipio": "Valdelaguna", "clasificacion": "urbano-no-consolidado", "calificacion": "sin-asignar", "version": "vigente", "fuente": "SIT-CAM WFS — UsoDelSuelo:VPLA_V_CLASIFICACION (https://idem.comunidad.madrid/geosrvg/ows)", "fecha_dato": "2026-05-12", "ambito": "38428", "_raw_CD_SIGLAS": "SUNC", "_raw_DS_CLASIF_GEN": "Suelo Urbano No Consolidado", "_raw_DS_CLASIF_DET": "Suelo Urbano", "_raw_DS_DOCU": "NORMAS SUBSIDIARIAS", "_raw_DS_LEY": null, "_raw_FC_AC": "1999-02-04", "_raw_NM_AREA_M2": 121169.589194877, "_cam_code": "157" }, "geometry": { "type": "Polygon", "coordinates": [ [ [ -3.3688, 40.1605 ], [ -3.3691, 40.1607 ], [ -3.3697, 40.1607 ], [ -3.3698, 40.1602 ], [ -3.3701, 40.1603 ], [ -3.3703, 40.1601 ], [ -3.3701, 40.1596 ], [ -3.3701, 40.1591 ], [ -3.3699, 40.1592 ], [ -3.3696, 40.1591 ], [ -3.3697, 40.1589 ], [ -3.3697, 40.1591 ], [ -3.3701, 40.159 ], [ -3.37, 40.1587 ], [ -3.3701, 40.1583 ], [ -3.3698, 40.1584 ], [ -3.3699, 40.1581 ], [ -3.3693, 40.1579 ], [ -3.3692, 40.1575 ], [ -3.369, 40.1574 ], [ -3.3689, 40.1569 ], [ -3.3683, 40.1565 ], [ -3.3679, 40.1569 ], [ -3.3666, 40.1576 ], [ -3.3659, 40.1578 ], [ -3.3657, 40.158 ], [ -3.3654, 40.1579 ], [ -3.3653, 40.158 ], [ -3.3654, 40.158 ], [ -3.3654, 40.1584 ], [ -3.366, 40.1588 ], [ -3.366, 40.1589 ], [ -3.3657, 40.1589 ], [ -3.3656, 40.1593 ], [ -3.3658, 40.1595 ], [ -3.3662, 40.1596 ], [ -3.3661, 40.1598 ], [ -3.3668, 40.1601 ], [ -3.3673, 40.16 ], [ -3.3676, 40.1602 ], [ -3.3677, 40.1605 ], [ -3.3682, 40.1607 ], [ -3.3687, 40.1607 ], [ -3.3688, 40.1605 ] ] ] } }
]
}
