{
"type": "FeatureCollection",
"name": "vigente.full",
"features": [
{ "type": "Feature", "properties": { "municipio": "Humanes de Madrid", "clasificacion": "no-urbanizable-protegido", "calificacion": "sin-asignar", "version": "vigente", "fuente": "SIT-CAM WFS — UsoDelSuelo:VPLA_V_CLASIFICACION (https://idem.comunidad.madrid/geosrvg/ows)", "fecha_dato": "2026-05-12", "ambito": "18899", "_raw_CD_SIGLAS": "SNUP", "_raw_DS_CLASIF_GEN": "Suelo No Urbanizable Protegido", "_raw_DS_CLASIF_DET": "Suelo No Urbanizable Protección Veredas", "_raw_DS_DOCU": "NORMAS SUBSIDIARIAS", "_raw_DS_LEY": "CM Ley 4/1984, E Ley 8/1990", "_raw_FC_AC": "1992-07-23", "_raw_NM_AREA_M2": 12905.8968735085, "_cam_code": "073" }, "geometry": { "type": "Polygon", "coordinates": [ [ [ -3.8063, 40.2561 ], [ -3.8056, 40.2562 ], [ -3.8046, 40.2572 ], [ -3.8046, 40.2574 ], [ -3.8057, 40.2563 ], [ -3.8082, 40.2562 ], [ -3.8111, 40.2557 ], [ -3.8132, 40.2555 ], [ -3.8141, 40.2552 ], [ -3.8155, 40.2552 ], [ -3.8166, 40.255 ], [ -3.8164, 40.2549 ], [ -3.8163, 40.255 ], [ -3.8157, 40.255 ], [ -3.8157, 40.2551 ], [ -3.8141, 40.2551 ], [ -3.8131, 40.2554 ], [ -3.811, 40.2556 ], [ -3.8082, 40.2561 ], [ -3.8063, 40.2561 ] ] ] } },
{ "type": "Feature", "properties": { "municipio": "Humanes de Madrid", "clasificacion": "no-urbanizable-protegido", "calificacion": "sin-asignar", "version": "vigente", "fuente": "SIT-CAM WFS — UsoDelSuelo:VPLA_V_CLASIFICACION (https://idem.comunidad.madrid/geosrvg/ows)", "fecha_dato": "2026-05-12", "ambito": "18899", "_raw_CD_SIGLAS": "SNUP", "_raw_DS_CLASIF_GEN": "Suelo No Urbanizable Protegido", "_raw_DS_CLASIF_DET": "Suelo No Urbanizable Protección Veredas", "_raw_DS_DOCU": "NORMAS SUBSIDIARIAS", "_raw_DS_LEY": "CM Ley 4/1984, E Ley 8/1990", "_raw_FC_AC": "1992-07-23", "_raw_NM_AREA_M2": 6709.9027509034004, "_cam_code": "073" }, "geometry": { "type": "Polygon", "coordinates": [ [ [ -3.8416, 40.261 ], [ -3.8425, 40.2612 ], [ -3.8437, 40.2612 ], [ -3.845, 40.2608 ], [ -3.8479, 40.261 ], [ -3.8481, 40.261 ], [ -3.8481, 40.2609 ], [ -3.8479, 40.2608 ], [ -3.8465, 40.2608 ], [ -3.8465, 40.2607 ], [ -3.845, 40.2607 ], [ -3.844, 40.261 ], [ -3.8436, 40.261 ], [ -3.8436, 40.2611 ], [ -3.8429, 40.2611 ], [ -3.842, 40.2609 ], [ -3.8416, 40.2609 ], [ -3.8416, 40.261 ] ] ] } },
{ "type": "Feature", "properties": { "municipio": "Humanes de Madrid", "clasificacion": "no-urbanizable-protegido", "calificacion": "sin-asignar", "version": "vigente", "fuente": "SIT-CAM WFS — UsoDelSuelo:VPLA_V_CLASIFICACION (https://idem.comunidad.madrid/geosrvg/ows)", "fecha_dato": "2026-05-12", "ambito": "18899", "_raw_CD_SIGLAS": "SNUP", "_raw_DS_CLASIF_GEN": "Suelo No Urbanizable Protegido", "_raw_DS_CLASIF_DET": "Suelo No Urbanizable Protección Veredas", "_raw_DS_DOCU": "NORMAS SUBSIDIARIAS", "_raw_DS_LEY": "CM Ley 4/1984, E Ley 8/1990", "_raw_FC_AC": "1992-07-23", "_raw_NM_AREA_M2": 23898.1429392301, "_cam_code": "073" }, "geometry": { "type": "Polygon", "coordinates": [ [ [ -3.8303, 40.2546 ], [ -3.8302, 40.255 ], [ -3.8303, 40.255 ], [ -3.8308, 40.2565 ], [ -3.832, 40.2589 ], [ -3.832, 40.2592 ], [ -3.8324, 40.2602 ], [ -3.8333, 40.261 ], [ -3.8331, 40.2615 ], [ -3.8331, 40.2616 ], [ -3.8332, 40.2613 ], [ -3.8333, 40.2614 ], [ -3.8334, 40.2613 ], [ -3.8335, 40.261 ], [ -3.8334, 40.261 ], [ -3.8339, 40.2602 ], [ -3.8339, 40.259 ], [ -3.8337, 40.2582 ], [ -3.8335, 40.2579 ], [ -3.8353, 40.2592 ], [ -3.8362, 40.2596 ], [ -3.8362, 40.2597 ], [ -3.8367, 40.2598 ], [ -3.8344, 40.2585 ], [ -3.8332, 40.2574 ], [ -3.8322, 40.2555 ], [ -3.8311, 40.254 ], [ -3.8309, 40.2539 ], [ -3.8308, 40.254 ], [ -3.8327, 40.2565 ], [ -3.8331, 40.2575 ], [ -3.8336, 40.2583 ], [ -3.8338, 40.2601 ], [ -3.8334, 40.2609 ], [ -3.8334, 40.2608 ], [ -3.8331, 40.2607 ], [ -3.8327, 40.2603 ], [ -3.8323, 40.2596 ], [ -3.832, 40.2585 ], [ -3.8311, 40.2569 ], [ -3.831, 40.2564 ], [ -3.8303, 40.2549 ], [ -3.8303, 40.2546 ] ] ] } },
{ "type": "Feature", "properties": { "municipio": "Humanes de Madrid", "clasificacion": "no-urbanizable-protegido", "calificacion": "sin-asignar", "version": "vigente", "fuente": "SIT-CAM WFS — UsoDelSuelo:VPLA_V_CLASIFICACION (https://idem.comunidad.madrid/geosrvg/ows)", "fecha_dato": "2026-05-12", "ambito": "18899", "_raw_CD_SIGLAS": "SNUP", "_raw_DS_CLASIF_GEN": "Suelo No Urbanizable Protegido", "_raw_DS_CLASIF_DET": "Suelo No Urbanizable Protección Veredas", "_raw_DS_DOCU": "NORMAS SUBSIDIARIAS", "_raw_DS_LEY": "CM Ley 4/1984, E Ley 8/1990", "_raw_FC_AC": "1992-07-23", "_raw_NM_AREA_M2": 7776.3485482012702, "_cam_code": "073" }, "geometry": { "type": "Polygon", "coordinates": [ [ [ -3.8343, 40.2714 ], [ -3.8353, 40.2736 ], [ -3.8359, 40.274 ], [ -3.8364, 40.2747 ], [ -3.8365, 40.2751 ], [ -3.8374, 40.2767 ], [ -3.8376, 40.2767 ], [ -3.8362, 40.2742 ], [ -3.8353, 40.2734 ], [ -3.8344, 40.2714 ], [ -3.8343, 40.2714 ] ] ] } },
{ "type": "Feature", "properties": { "municipio": "Humanes de Madrid", "clasificacion": "no-urbanizable-protegido", "calificacion": "sin-asignar", "version": "vigente", "fuente": "SIT-CAM WFS — UsoDelSuelo:VPLA_V_CLASIFICACION (https://idem.comunidad.madrid/geosrvg/ows)", "fecha_dato": "2026-05-12", "ambito": "18899", "_raw_CD_SIGLAS": "SNUP", "_raw_DS_CLASIF_GEN": "Suelo No Urbanizable Protegido", "_raw_DS_CLASIF_DET": "Suelo No Urbanizable. Protección ferrocarril", "_raw_DS_DOCU": "NORMAS SUBSIDIARIAS", "_raw_DS_LEY": "CM Ley 4/1984, E Ley 8/1990", "_raw_FC_AC": "1992-07-23", "_raw_NM_AREA_M2": 232315.952295091, "_cam_code": "073" }, "geometry": { "type": "Polygon", "coordinates": [ [ [ -3.8468, 40.2347 ], [ -3.8434, 40.2384 ], [ -3.8432, 40.2388 ], [ -3.8401, 40.242 ], [ -3.8367, 40.246 ], [ -3.8354, 40.2473 ], [ -3.8358, 40.2474 ], [ -3.8335, 40.2499 ], [ -3.8343, 40.2503 ], [ -3.8422, 40.2416 ], [ -3.8483, 40.2351 ], [ -3.8478, 40.2347 ], [ -3.8468, 40.2347 ] ] ] } },
{ "type": "Feature", "properties": { "municipio": "Humanes de Madrid", "clasificacion": "no-urbanizable-protegido", "calificacion": "sin-asignar", "version": "vigente", "fuente": "SIT-CAM WFS — UsoDelSuelo:VPLA_V_CLASIFICACION (https://idem.comunidad.madrid/geosrvg/ows)", "fecha_dato": "2026-05-12", "ambito": "18899", "_raw_CD_SIGLAS": "SNUP", "_raw_DS_CLASIF_GEN": "Suelo No Urbanizable Protegido", "_raw_DS_CLASIF_DET": "Suelo No Urbanizable. Protección ferrocarril", "_raw_DS_DOCU": "NORMAS SUBSIDIARIAS", "_raw_DS_LEY": "CM Ley 4/1984, E Ley 8/1990", "_raw_FC_AC": "1992-07-23", "_raw_NM_AREA_M2": 104067.17461058901, "_cam_code": "073" }, "geometry": { "type": "Polygon", "coordinates": [ [ [ -3.8308, 40.2529 ], [ -3.8271, 40.257 ], [ -3.8264, 40.2576 ], [ -3.8234, 40.2608 ], [ -3.8212, 40.2633 ], [ -3.822, 40.2636 ], [ -3.8315, 40.2533 ], [ -3.8308, 40.2529 ] ] ] } },
{ "type": "Feature", "properties": { "municipio": "Humanes de Madrid", "clasificacion": "no-urbanizable-protegido", "calificacion": "sin-asignar", "version": "vigente", "fuente": "SIT-CAM WFS — UsoDelSuelo:VPLA_V_CLASIFICACION (https://idem.comunidad.madrid/geosrvg/ows)", "fecha_dato": "2026-05-12", "ambito": "18899", "_raw_CD_SIGLAS": "SNUP", "_raw_DS_CLASIF_GEN": "Suelo No Urbanizable Protegido", "_raw_DS_CLASIF_DET": "Suelo No Urbanizable Protección Veredas", "_raw_DS_DOCU": "NORMAS SUBSIDIARIAS", "_raw_DS_LEY": "CM Ley 4/1984, E Ley 8/1990", "_raw_FC_AC": "1992-07-23", "_raw_NM_AREA_M2": 26253.0260850216, "_cam_code": "073" }, "geometry": { "type": "Polygon", "coordinates": [ [ [ -3.8025, 40.2434 ], [ -3.8055, 40.2433 ], [ -3.8078, 40.2443 ], [ -3.8082, 40.2446 ], [ -3.8083, 40.2451 ], [ -3.8086, 40.2454 ], [ -3.8166, 40.247 ], [ -3.817, 40.247 ], [ -3.8171, 40.2468 ], [ -3.8158, 40.2467 ], [ -3.8087, 40.2453 ], [ -3.8085, 40.2451 ], [ -3.8084, 40.2446 ], [ -3.8082, 40.2443 ], [ -3.8066, 40.2437 ], [ -3.8059, 40.2433 ], [ -3.8051, 40.2431 ], [ -3.8035, 40.2433 ], [ -3.802, 40.2433 ], [ -3.8018, 40.2434 ], [ -3.7994, 40.2434 ], [ -3.7982, 40.2436 ], [ -3.7982, 40.2437 ], [ -3.7995, 40.2436 ], [ -3.7996, 40.2435 ], [ -3.8009, 40.2436 ], [ -3.8025, 40.2434 ] ] ] } },
{ "type": "Feature", "properties": { "municipio": "Humanes de Madrid", "clasificacion": "no-urbanizable-protegido", "calificacion": "sin-asignar", "version": "vigente", "fuente": "SIT-CAM WFS — UsoDelSuelo:VPLA_V_CLASIFICACION (https://idem.comunidad.madrid/geosrvg/ows)", "fecha_dato": "2026-05-12", "ambito": "18899", "_raw_CD_SIGLAS": "SNUP", "_raw_DS_CLASIF_GEN": "Suelo No Urbanizable Protegido", "_raw_DS_CLASIF_DET": "Suelo No Urbanizable Protección Veredas", "_raw_DS_DOCU": "NORMAS SUBSIDIARIAS", "_raw_DS_LEY": "CM Ley 4/1984, E Ley 8/1990", "_raw_FC_AC": "1992-07-23", "_raw_NM_AREA_M2": 56373.244119531097, "_cam_code": "073" }, "geometry": { "type": "Polygon", "coordinates": [ [ [ -3.8244, 40.2448 ], [ -3.8252, 40.2456 ], [ -3.825, 40.2462 ], [ -3.825, 40.2467 ], [ -3.8247, 40.2469 ], [ -3.8247, 40.247 ], [ -3.8247, 40.2471 ], [ -3.8247, 40.247 ], [ -3.8252, 40.2468 ], [ -3.8252, 40.2459 ], [ -3.8255, 40.2453 ], [ -3.8256, 40.2444 ], [ -3.8259, 40.2439 ], [ -3.8267, 40.2417 ], [ -3.8266, 40.2403 ], [ -3.8268, 40.2399 ], [ -3.8269, 40.2399 ], [ -3.8272, 40.2408 ], [ -3.8274, 40.241 ], [ -3.8275, 40.2415 ], [ -3.8283, 40.243 ], [ -3.8288, 40.2435 ], [ -3.8292, 40.2437 ], [ -3.8298, 40.2444 ], [ -3.8301, 40.2449 ], [ -3.8302, 40.2457 ], [ -3.8303, 40.2457 ], [ -3.8302, 40.2448 ], [ -3.8294, 40.2437 ], [ -3.8285, 40.2431 ], [ -3.8285, 40.2429 ], [ -3.8282, 40.2426 ], [ -3.8281, 40.2422 ], [ -3.8276, 40.2414 ], [ -3.8273, 40.2404 ], [ -3.827, 40.2399 ], [ -3.8268, 40.2387 ], [ -3.8267, 40.2387 ], [ -3.8267, 40.238 ], [ -3.8272, 40.2374 ], [ -3.8272, 40.237 ], [ -3.827, 40.2368 ], [ -3.8268, 40.2368 ], [ -3.8267, 40.2364 ], [ -3.8261, 40.2358 ], [ -3.8255, 40.2346 ], [ -3.8254, 40.2346 ], [ -3.8254, 40.2344 ], [ -3.8251, 40.2341 ], [ -3.8248, 40.2332 ], [ -3.8245, 40.2329 ], [ -3.8242, 40.2328 ], [ -3.8232, 40.2327 ], [ -3.8232, 40.2326 ], [ -3.8227, 40.2326 ], [ -3.8226, 40.2325 ], [ -3.8226, 40.2327 ], [ -3.8242, 40.2329 ], [ -3.8247, 40.2333 ], [ -3.825, 40.2342 ], [ -3.8253, 40.2345 ], [ -3.8253, 40.2347 ], [ -3.8257, 40.2352 ], [ -3.8258, 40.2356 ], [ -3.8265, 40.2363 ], [ -3.8266, 40.2368 ], [ -3.8271, 40.2371 ], [ -3.8271, 40.2373 ], [ -3.8266, 40.2379 ], [ -3.8267, 40.2399 ], [ -3.8265, 40.2402 ], [ -3.8265, 40.241 ], [ -3.8266, 40.2411 ], [ -3.8265, 40.242 ], [ -3.8264, 40.242 ], [ -3.826, 40.243 ], [ -3.826, 40.2433 ], [ -3.8254, 40.2445 ], [ -3.8253, 40.2453 ], [ -3.8247, 40.2449 ], [ -3.824, 40.244 ], [ -3.8218, 40.2409 ], [ -3.8213, 40.2399 ], [ -3.8208, 40.2395 ], [ -3.8203, 40.2387 ], [ -3.8201, 40.2376 ], [ -3.8198, 40.237 ], [ -3.8191, 40.2363 ], [ -3.819, 40.2359 ], [ -3.8184, 40.2351 ], [ -3.8182, 40.234 ], [ -3.8186, 40.2333 ], [ -3.8186, 40.2318 ], [ -3.8166, 40.2315 ], [ -3.8132, 40.2314 ], [ -3.8132, 40.2315 ], [ -3.8166, 40.2316 ], [ -3.8184, 40.2318 ], [ -3.8184, 40.232 ], [ -3.8185, 40.232 ], [ -3.8184, 40.2328 ], [ -3.8185, 40.233 ], [ -3.8181, 40.2339 ], [ -3.8181, 40.2345 ], [ -3.8183, 40.2352 ], [ -3.8198, 40.2373 ], [ -3.8201, 40.2382 ], [ -3.8201, 40.2386 ], [ -3.8206, 40.2393 ], [ -3.8206, 40.2395 ], [ -3.8211, 40.2399 ], [ -3.8218, 40.2412 ], [ -3.822, 40.2413 ], [ -3.8228, 40.2424 ], [ -3.8231, 40.243 ], [ -3.8238, 40.2438 ], [ -3.8244, 40.2448 ] ] ] } },
{ "type": "Feature", "properties": { "municipio": "Humanes de Madrid", "clasificacion": "no-urbanizable-protegido", "calificacion": "sin-asignar", "version": "vigente", "fuente": "SIT-CAM WFS — UsoDelSuelo:VPLA_V_CLASIFICACION (https://idem.comunidad.madrid/geosrvg/ows)", "fecha_dato": "2026-05-12", "ambito": "18899", "_raw_CD_SIGLAS": "SNUP", "_raw_DS_CLASIF_GEN": "Suelo No Urbanizable Protegido", "_raw_DS_CLASIF_DET": "Suelo No Urbanizable Protección Veredas", "_raw_DS_DOCU": "NORMAS SUBSIDIARIAS", "_raw_DS_LEY": "CM Ley 4/1984, E Ley 8/1990", "_raw_FC_AC": "1992-07-23", "_raw_NM_AREA_M2": 69446.460362880505, "_cam_code": "073" }, "geometry": { "type": "Polygon", "coordinates": [ [ [ -3.8504, 40.2511 ], [ -3.8524, 40.2515 ], [ -3.853, 40.2515 ], [ -3.8531, 40.2514 ], [ -3.8524, 40.2514 ], [ -3.8504, 40.251 ], [ -3.8492, 40.2511 ], [ -3.8491, 40.251 ], [ -3.8469, 40.2509 ], [ -3.8455, 40.2506 ], [ -3.8438, 40.2506 ], [ -3.8418, 40.25 ], [ -3.839, 40.25 ], [ -3.8385, 40.2498 ], [ -3.8365, 40.2499 ], [ -3.8365, 40.2498 ], [ -3.8376, 40.2492 ], [ -3.8382, 40.2487 ], [ -3.8383, 40.2484 ], [ -3.8388, 40.2482 ], [ -3.8408, 40.2479 ], [ -3.8445, 40.2479 ], [ -3.8453, 40.2478 ], [ -3.8474, 40.2474 ], [ -3.8483, 40.247 ], [ -3.8494, 40.2467 ], [ -3.8534, 40.2459 ], [ -3.8535, 40.2457 ], [ -3.853, 40.2459 ], [ -3.8489, 40.2467 ], [ -3.8474, 40.2473 ], [ -3.8453, 40.2477 ], [ -3.8408, 40.2478 ], [ -3.8385, 40.2482 ], [ -3.8387, 40.2478 ], [ -3.8387, 40.2467 ], [ -3.839, 40.2463 ], [ -3.8404, 40.2462 ], [ -3.841, 40.246 ], [ -3.8433, 40.246 ], [ -3.8449, 40.2458 ], [ -3.8482, 40.2446 ], [ -3.8518, 40.2445 ], [ -3.8536, 40.2443 ], [ -3.8536, 40.2442 ], [ -3.8532, 40.2442 ], [ -3.8516, 40.2444 ], [ -3.8491, 40.2444 ], [ -3.8488, 40.2445 ], [ -3.8486, 40.2444 ], [ -3.8448, 40.2457 ], [ -3.8433, 40.2459 ], [ -3.8414, 40.2459 ], [ -3.8443, 40.2431 ], [ -3.8449, 40.242 ], [ -3.8452, 40.242 ], [ -3.8452, 40.2419 ], [ -3.8471, 40.2419 ], [ -3.8477, 40.2417 ], [ -3.8502, 40.2417 ], [ -3.8502, 40.2416 ], [ -3.8517, 40.2416 ], [ -3.8517, 40.2417 ], [ -3.8526, 40.2418 ], [ -3.853, 40.2417 ], [ -3.853, 40.2416 ], [ -3.8523, 40.2417 ], [ -3.8523, 40.2416 ], [ -3.8518, 40.2416 ], [ -3.8517, 40.2415 ], [ -3.8502, 40.2415 ], [ -3.8501, 40.2416 ], [ -3.8476, 40.2416 ], [ -3.8476, 40.2417 ], [ -3.8471, 40.2417 ], [ -3.8471, 40.2418 ], [ -3.8451, 40.2418 ], [ -3.8446, 40.2422 ], [ -3.8441, 40.2431 ], [ -3.8419, 40.2452 ], [ -3.8416, 40.2457 ], [ -3.8403, 40.2461 ], [ -3.8394, 40.2461 ], [ -3.8394, 40.2462 ], [ -3.8388, 40.2463 ], [ -3.8386, 40.2465 ], [ -3.8385, 40.248 ], [ -3.8384, 40.248 ], [ -3.8381, 40.2486 ], [ -3.8375, 40.2491 ], [ -3.8362, 40.2498 ], [ -3.8363, 40.25 ], [ -3.8384, 40.2499 ], [ -3.839, 40.2501 ], [ -3.8418, 40.2501 ], [ -3.8438, 40.2507 ], [ -3.8455, 40.2507 ], [ -3.8469, 40.251 ], [ -3.8491, 40.2511 ], [ -3.8492, 40.2512 ], [ -3.8504, 40.2511 ] ] ] } },
{ "type": "Feature", "properties": { "municipio": "Humanes de Madrid", "clasificacion": "no-urbanizable-protegido", "calificacion": "sin-asignar", "version": "vigente", "fuente": "SIT-CAM WFS — UsoDelSuelo:VPLA_V_CLASIFICACION (https://idem.comunidad.madrid/geosrvg/ows)", "fecha_dato": "2026-05-12", "ambito": "18899", "_raw_CD_SIGLAS": "SNUP", "_raw_DS_CLASIF_GEN": "Suelo No Urbanizable Protegido", "_raw_DS_CLASIF_DET": "Suelo No Urbanizable Protección Cauces", "_raw_DS_DOCU": "NORMAS SUBSIDIARIAS", "_raw_DS_LEY": "CM Ley 4/1984, E Ley 8/1990", "_raw_FC_AC": "1992-07-23", "_raw_NM_AREA_M2": 28261.987517117399, "_cam_code": "073" }, "geometry": { "type": "Polygon", "coordinates": [ [ [ -3.8045, 40.233 ], [ -3.8054, 40.2332 ], [ -3.8057, 40.2333 ], [ -3.8057, 40.2334 ], [ -3.8078, 40.2335 ], [ -3.8077, 40.2334 ], [ -3.8077, 40.2325 ], [ -3.8074, 40.2324 ], [ -3.8068, 40.2324 ], [ -3.8067, 40.2323 ], [ -3.8055, 40.2324 ], [ -3.8053, 40.2322 ], [ -3.8045, 40.233 ] ] ] } },
{ "type": "Feature", "properties": { "municipio": "Humanes de Madrid", "clasificacion": "no-urbanizable-protegido", "calificacion": "sin-asignar", "version": "vigente", "fuente": "SIT-CAM WFS — UsoDelSuelo:VPLA_V_CLASIFICACION (https://idem.comunidad.madrid/geosrvg/ows)", "fecha_dato": "2026-05-12", "ambito": "18899", "_raw_CD_SIGLAS": "SNUP", "_raw_DS_CLASIF_GEN": "Suelo No Urbanizable Protegido", "_raw_DS_CLASIF_DET": "Suelo No Urbanizable Protección Cauces", "_raw_DS_DOCU": "NORMAS SUBSIDIARIAS", "_raw_DS_LEY": "CM Ley 4/1984, E Ley 8/1990", "_raw_FC_AC": "1992-07-23", "_raw_NM_AREA_M2": 78725.041328052699, "_cam_code": "073" }, "geometry": { "type": "Polygon", "coordinates": [ [ [ -3.8079, 40.2335 ], [ -3.8107, 40.234 ], [ -3.8115, 40.2343 ], [ -3.8124, 40.2349 ], [ -3.8148, 40.2357 ], [ -3.8177, 40.2358 ], [ -3.8187, 40.236 ], [ -3.8187, 40.2361 ], [ -3.819, 40.2362 ], [ -3.8186, 40.2356 ], [ -3.8181, 40.2355 ], [ -3.8178, 40.2353 ], [ -3.8168, 40.2352 ], [ -3.8168, 40.2351 ], [ -3.815, 40.2351 ], [ -3.8141, 40.2349 ], [ -3.8141, 40.2348 ], [ -3.8139, 40.2348 ], [ -3.812, 40.2335 ], [ -3.8111, 40.2332 ], [ -3.8101, 40.2331 ], [ -3.8091, 40.2327 ], [ -3.8078, 40.2325 ], [ -3.8079, 40.2335 ] ] ] } },
{ "type": "Feature", "properties": { "municipio": "Humanes de Madrid", "clasificacion": "no-urbanizable-protegido", "calificacion": "sin-asignar", "version": "vigente", "fuente": "SIT-CAM WFS — UsoDelSuelo:VPLA_V_CLASIFICACION (https://idem.comunidad.madrid/geosrvg/ows)", "fecha_dato": "2026-05-12", "ambito": "18899", "_raw_CD_SIGLAS": "SNUP", "_raw_DS_CLASIF_GEN": "Suelo No Urbanizable Protegido", "_raw_DS_CLASIF_DET": "Suelo No Urbanizable Protección Cauces", "_raw_DS_DOCU": "NORMAS SUBSIDIARIAS", "_raw_DS_LEY": "CM Ley 4/1984, E Ley 8/1990", "_raw_FC_AC": "1992-07-23", "_raw_NM_AREA_M2": 41161.786592779303, "_cam_code": "073" }, "geometry": { "type": "Polygon", "coordinates": [ [ [ -3.8217, 40.2369 ], [ -3.8232, 40.2374 ], [ -3.8232, 40.2375 ], [ -3.8244, 40.2376 ], [ -3.8244, 40.2375 ], [ -3.8248, 40.2375 ], [ -3.825, 40.2373 ], [ -3.8256, 40.2372 ], [ -3.8256, 40.2371 ], [ -3.827, 40.2374 ], [ -3.8271, 40.2371 ], [ -3.8266, 40.2367 ], [ -3.8227, 40.2368 ], [ -3.8218, 40.2365 ], [ -3.8214, 40.2365 ], [ -3.8214, 40.2364 ], [ -3.8213, 40.2365 ], [ -3.8207, 40.2364 ], [ -3.8188, 40.2357 ], [ -3.819, 40.2359 ], [ -3.8191, 40.2363 ], [ -3.8197, 40.2367 ], [ -3.8201, 40.2368 ], [ -3.8212, 40.2367 ], [ -3.8217, 40.2368 ], [ -3.8217, 40.2369 ] ] ] } },
{ "type": "Feature", "properties": { "municipio": "Humanes de Madrid", "clasificacion": "no-urbanizable-protegido", "calificacion": "sin-asignar", "version": "vigente", "fuente": "SIT-CAM WFS — UsoDelSuelo:VPLA_V_CLASIFICACION (https://idem.comunidad.madrid/geosrvg/ows)", "fecha_dato": "2026-05-12", "ambito": "18899", "_raw_CD_SIGLAS": "SNUP", "_raw_DS_CLASIF_GEN": "Suelo No Urbanizable Protegido", "_raw_DS_CLASIF_DET": "Suelo No Urbanizable Protección Cauces", "_raw_DS_DOCU": "NORMAS SUBSIDIARIAS", "_raw_DS_LEY": "CM Ley 4/1984, E Ley 8/1990", "_raw_FC_AC": "1992-07-23", "_raw_NM_AREA_M2": 48449.580469724599, "_cam_code": "073" }, "geometry": { "type": "Polygon", "coordinates": [ [ [ -3.8338, 40.2375 ], [ -3.8344, 40.2376 ], [ -3.8344, 40.2377 ], [ -3.8349, 40.2379 ], [ -3.835, 40.2371 ], [ -3.8351, 40.2371 ], [ -3.8352, 40.2368 ], [ -3.8348, 40.2367 ], [ -3.8334, 40.2367 ], [ -3.8334, 40.2368 ], [ -3.8302, 40.2368 ], [ -3.8297, 40.2367 ], [ -3.8288, 40.2368 ], [ -3.8288, 40.2367 ], [ -3.8286, 40.2367 ], [ -3.8285, 40.2368 ], [ -3.8279, 40.2368 ], [ -3.8279, 40.2369 ], [ -3.8276, 40.2368 ], [ -3.8275, 40.2368 ], [ -3.8274, 40.2368 ], [ -3.8273, 40.2368 ], [ -3.8272, 40.2368 ], [ -3.8272, 40.2368 ], [ -3.8271, 40.2368 ], [ -3.8271, 40.2368 ], [ -3.827, 40.2368 ], [ -3.8269, 40.2368 ], [ -3.8272, 40.237 ], [ -3.8272, 40.2374 ], [ -3.8297, 40.2372 ], [ -3.8309, 40.2375 ], [ -3.8338, 40.2375 ] ] ] } },
{ "type": "Feature", "properties": { "municipio": "Humanes de Madrid", "clasificacion": "no-urbanizable-protegido", "calificacion": "sin-asignar", "version": "vigente", "fuente": "SIT-CAM WFS — UsoDelSuelo:VPLA_V_CLASIFICACION (https://idem.comunidad.madrid/geosrvg/ows)", "fecha_dato": "2026-05-12", "ambito": "18899", "_raw_CD_SIGLAS": "SNUP", "_raw_DS_CLASIF_GEN": "Suelo No Urbanizable Protegido", "_raw_DS_CLASIF_DET": "Suelo No Urbanizable Protección Cauces", "_raw_DS_DOCU": "NORMAS SUBSIDIARIAS", "_raw_DS_LEY": "CM Ley 4/1984, E Ley 8/1990", "_raw_FC_AC": "1992-07-23", "_raw_NM_AREA_M2": 59800.387583285403, "_cam_code": "073" }, "geometry": { "type": "Polygon", "coordinates": [ [ [ -3.8398, 40.2389 ], [ -3.8399, 40.2389 ], [ -3.8398, 40.2392 ], [ -3.8415, 40.2396 ], [ -3.8416, 40.2394 ], [ -3.8429, 40.2388 ], [ -3.8428, 40.2387 ], [ -3.841, 40.2388 ], [ -3.841, 40.2387 ], [ -3.8405, 40.2385 ], [ -3.84, 40.2384 ], [ -3.8385, 40.2383 ], [ -3.8385, 40.2382 ], [ -3.8382, 40.2382 ], [ -3.838, 40.238 ], [ -3.8376, 40.2379 ], [ -3.8375, 40.2377 ], [ -3.8369, 40.2375 ], [ -3.8369, 40.2374 ], [ -3.836, 40.2372 ], [ -3.8355, 40.2369 ], [ -3.8353, 40.237 ], [ -3.8352, 40.2377 ], [ -3.8351, 40.2377 ], [ -3.8352, 40.2382 ], [ -3.8362, 40.2384 ], [ -3.8362, 40.2385 ], [ -3.8368, 40.2387 ], [ -3.838, 40.2389 ], [ -3.8398, 40.2389 ] ] ] } },
{ "type": "Feature", "properties": { "municipio": "Humanes de Madrid", "clasificacion": "no-urbanizable-protegido", "calificacion": "sin-asignar", "version": "vigente", "fuente": "SIT-CAM WFS — UsoDelSuelo:VPLA_V_CLASIFICACION (https://idem.comunidad.madrid/geosrvg/ows)", "fecha_dato": "2026-05-12", "ambito": "18899", "_raw_CD_SIGLAS": "SNUP", "_raw_DS_CLASIF_GEN": "Suelo No Urbanizable Protegido", "_raw_DS_CLASIF_DET": "Suelo No Urbanizable Protección Cauces", "_raw_DS_DOCU": "NORMAS SUBSIDIARIAS", "_raw_DS_LEY": "CM Ley 4/1984, E Ley 8/1990", "_raw_FC_AC": "1992-07-23", "_raw_NM_AREA_M2": 1965.2975269388, "_cam_code": "073" }, "geometry": { "type": "Polygon", "coordinates": [ [ [ -3.8429, 40.239 ], [ -3.8424, 40.2392 ], [ -3.8424, 40.2393 ], [ -3.8417, 40.2396 ], [ -3.8424, 40.2396 ], [ -3.8429, 40.239 ] ] ] } },
{ "type": "Feature", "properties": { "municipio": "Humanes de Madrid", "clasificacion": "no-urbanizable-protegido", "calificacion": "sin-asignar", "version": "vigente", "fuente": "SIT-CAM WFS — UsoDelSuelo:VPLA_V_CLASIFICACION (https://idem.comunidad.madrid/geosrvg/ows)", "fecha_dato": "2026-05-12", "ambito": "18899", "_raw_CD_SIGLAS": "SNUP", "_raw_DS_CLASIF_GEN": "Suelo No Urbanizable Protegido", "_raw_DS_CLASIF_DET": "Suelo No Urbanizable Protección Cauces", "_raw_DS_DOCU": "NORMAS SUBSIDIARIAS", "_raw_DS_LEY": "CM Ley 4/1984, E Ley 8/1990", "_raw_FC_AC": "1992-07-23", "_raw_NM_AREA_M2": 368440.99901053403, "_cam_code": "073" }, "geometry": { "type": "Polygon", "coordinates": [ [ [ -3.8069, 40.2438 ], [ -3.8082, 40.2443 ], [ -3.8084, 40.2446 ], [ -3.8085, 40.2451 ], [ -3.8087, 40.2453 ], [ -3.8122, 40.246 ], [ -3.8122, 40.245 ], [ -3.811, 40.2447 ], [ -3.8111, 40.2444 ], [ -3.8122, 40.2446 ], [ -3.8121, 40.2439 ], [ -3.8116, 40.2439 ], [ -3.8112, 40.2437 ], [ -3.8103, 40.2436 ], [ -3.8101, 40.2433 ], [ -3.8094, 40.2432 ], [ -3.8088, 40.2427 ], [ -3.8087, 40.242 ], [ -3.8084, 40.2415 ], [ -3.8079, 40.2412 ], [ -3.8074, 40.2404 ], [ -3.807, 40.2402 ], [ -3.8067, 40.2396 ], [ -3.8066, 40.2396 ], [ -3.8064, 40.2383 ], [ -3.8063, 40.2383 ], [ -3.8063, 40.2373 ], [ -3.8056, 40.2372 ], [ -3.8053, 40.2371 ], [ -3.8053, 40.237 ], [ -3.8057, 40.2371 ], [ -3.8059, 40.2371 ], [ -3.806, 40.2371 ], [ -3.8061, 40.2371 ], [ -3.8062, 40.2371 ], [ -3.8059, 40.2369 ], [ -3.8059, 40.2367 ], [ -3.8057, 40.2366 ], [ -3.8055, 40.2362 ], [ -3.8048, 40.2357 ], [ -3.8047, 40.2355 ], [ -3.8042, 40.2354 ], [ -3.8037, 40.2347 ], [ -3.8035, 40.2354 ], [ -3.8032, 40.2354 ], [ -3.803, 40.2356 ], [ -3.8022, 40.2369 ], [ -3.8041, 40.2388 ], [ -3.8041, 40.2391 ], [ -3.8042, 40.2391 ], [ -3.8041, 40.2395 ], [ -3.8031, 40.2398 ], [ -3.8018, 40.2398 ], [ -3.8017, 40.2399 ], [ -3.8003, 40.24 ], [ -3.7996, 40.2402 ], [ -3.7994, 40.2405 ], [ -3.7986, 40.2409 ], [ -3.7985, 40.2416 ], [ -3.7981, 40.2421 ], [ -3.7976, 40.2422 ], [ -3.7979, 40.243 ], [ -3.798, 40.2429 ], [ -3.7986, 40.2429 ], [ -3.7986, 40.2428 ], [ -3.799, 40.2427 ], [ -3.7992, 40.2425 ], [ -3.7993, 40.2417 ], [ -3.7995, 40.2415 ], [ -3.8029, 40.2409 ], [ -3.8043, 40.2404 ], [ -3.8044, 40.2409 ], [ -3.8045, 40.2409 ], [ -3.8043, 40.2414 ], [ -3.8046, 40.2415 ], [ -3.8046, 40.2416 ], [ -3.805, 40.2416 ], [ -3.805, 40.2415 ], [ -3.8058, 40.2416 ], [ -3.8068, 40.2434 ], [ -3.8068, 40.2436 ], [ -3.8069, 40.2436 ], [ -3.8069, 40.2438 ] ] ] } },
{ "type": "Feature", "properties": { "municipio": "Humanes de Madrid", "clasificacion": "no-urbanizable-protegido", "calificacion": "sin-asignar", "version": "vigente", "fuente": "SIT-CAM WFS — UsoDelSuelo:VPLA_V_CLASIFICACION (https://idem.comunidad.madrid/geosrvg/ows)", "fecha_dato": "2026-05-12", "ambito": "18899", "_raw_CD_SIGLAS": "SNUP", "_raw_DS_CLASIF_GEN": "Suelo No Urbanizable Protegido", "_raw_DS_CLASIF_DET": "Suelo No Urbanizable Protección Cauces", "_raw_DS_DOCU": "NORMAS SUBSIDIARIAS", "_raw_DS_LEY": "CM Ley 4/1984, E Ley 8/1990", "_raw_FC_AC": "1992-07-23", "_raw_NM_AREA_M2": 110383.082972391, "_cam_code": "073" }, "geometry": { "type": "Polygon", "coordinates": [ [ [ -3.8076, 40.2491 ], [ -3.8079, 40.2492 ], [ -3.8079, 40.2497 ], [ -3.8084, 40.2501 ], [ -3.8083, 40.2505 ], [ -3.8078, 40.2507 ], [ -3.8082, 40.2507 ], [ -3.8089, 40.251 ], [ -3.8091, 40.2512 ], [ -3.8093, 40.2522 ], [ -3.8095, 40.2522 ], [ -3.8095, 40.2514 ], [ -3.8097, 40.2508 ], [ -3.8096, 40.2494 ], [ -3.8091, 40.2483 ], [ -3.8091, 40.248 ], [ -3.809, 40.248 ], [ -3.8088, 40.2474 ], [ -3.8087, 40.2474 ], [ -3.8087, 40.2468 ], [ -3.8093, 40.2455 ], [ -3.8086, 40.2454 ], [ -3.8083, 40.2451 ], [ -3.8083, 40.2448 ], [ -3.8081, 40.2445 ], [ -3.8069, 40.2439 ], [ -3.8074, 40.2451 ], [ -3.8075, 40.2451 ], [ -3.8075, 40.2457 ], [ -3.8072, 40.246 ], [ -3.8073, 40.2466 ], [ -3.807, 40.2469 ], [ -3.8064, 40.2471 ], [ -3.8064, 40.2473 ], [ -3.8067, 40.2473 ], [ -3.8071, 40.2475 ], [ -3.8075, 40.2487 ], [ -3.8074, 40.2488 ], [ -3.8062, 40.2488 ], [ -3.8061, 40.2487 ], [ -3.8061, 40.2488 ], [ -3.8058, 40.2488 ], [ -3.8056, 40.249 ], [ -3.8059, 40.249 ], [ -3.8059, 40.2491 ], [ -3.8063, 40.2492 ], [ -3.8076, 40.2491 ] ] ] } },
{ "type": "Feature", "properties": { "municipio": "Humanes de Madrid", "clasificacion": "no-urbanizable-protegido", "calificacion": "sin-asignar", "version": "vigente", "fuente": "SIT-CAM WFS — UsoDelSuelo:VPLA_V_CLASIFICACION (https://idem.comunidad.madrid/geosrvg/ows)", "fecha_dato": "2026-05-12", "ambito": "18899", "_raw_CD_SIGLAS": "SNUP", "_raw_DS_CLASIF_GEN": "Suelo No Urbanizable Protegido", "_raw_DS_CLASIF_DET": "Suelo No Urbanizable Protección Cauces", "_raw_DS_DOCU": "NORMAS SUBSIDIARIAS", "_raw_DS_LEY": "CM Ley 4/1984, E Ley 8/1990", "_raw_FC_AC": "1992-07-23", "_raw_NM_AREA_M2": 100035.191743793, "_cam_code": "073" }, "geometry": { "type": "Polygon", "coordinates": [ [ [ -3.8079, 40.2508 ], [ -3.8069, 40.251 ], [ -3.8051, 40.251 ], [ -3.8051, 40.2513 ], [ -3.8064, 40.2516 ], [ -3.8065, 40.2518 ], [ -3.8067, 40.2518 ], [ -3.8069, 40.252 ], [ -3.8076, 40.2522 ], [ -3.8078, 40.2524 ], [ -3.8084, 40.2525 ], [ -3.8086, 40.2527 ], [ -3.8086, 40.2529 ], [ -3.8089, 40.253 ], [ -3.8089, 40.2532 ], [ -3.8081, 40.2534 ], [ -3.8081, 40.2535 ], [ -3.8075, 40.2535 ], [ -3.8075, 40.2541 ], [ -3.8074, 40.2542 ], [ -3.8067, 40.2542 ], [ -3.8067, 40.2543 ], [ -3.806, 40.2544 ], [ -3.8058, 40.2552 ], [ -3.8056, 40.2553 ], [ -3.8055, 40.2556 ], [ -3.805, 40.2561 ], [ -3.8049, 40.2569 ], [ -3.8056, 40.2562 ], [ -3.8074, 40.2561 ], [ -3.8072, 40.2559 ], [ -3.8072, 40.2554 ], [ -3.8075, 40.2552 ], [ -3.8075, 40.255 ], [ -3.8078, 40.2547 ], [ -3.8081, 40.2547 ], [ -3.8081, 40.2546 ], [ -3.8083, 40.2546 ], [ -3.8083, 40.2545 ], [ -3.8085, 40.2545 ], [ -3.8093, 40.254 ], [ -3.8097, 40.2534 ], [ -3.8098, 40.2527 ], [ -3.8097, 40.2527 ], [ -3.8096, 40.2523 ], [ -3.8091, 40.2522 ], [ -3.8089, 40.2512 ], [ -3.8079, 40.2508 ] ] ] } },
{ "type": "Feature", "properties": { "municipio": "Humanes de Madrid", "clasificacion": "no-urbanizable-protegido", "calificacion": "sin-asignar", "version": "vigente", "fuente": "SIT-CAM WFS — UsoDelSuelo:VPLA_V_CLASIFICACION (https://idem.comunidad.madrid/geosrvg/ows)", "fecha_dato": "2026-05-12", "ambito": "18899", "_raw_CD_SIGLAS": "SNUP", "_raw_DS_CLASIF_GEN": "Suelo No Urbanizable Protegido", "_raw_DS_CLASIF_DET": "Suelo No Urbanizable Protección Cauces", "_raw_DS_DOCU": "NORMAS SUBSIDIARIAS", "_raw_DS_LEY": "CM Ley 4/1984, E Ley 8/1990", "_raw_FC_AC": "1992-07-23", "_raw_NM_AREA_M2": 110924.16124347301, "_cam_code": "073" }, "geometry": { "type": "Polygon", "coordinates": [ [ [ -3.8051, 40.257 ], [ -3.8056, 40.2569 ], [ -3.8059, 40.2572 ], [ -3.8059, 40.2574 ], [ -3.8064, 40.2577 ], [ -3.8068, 40.2583 ], [ -3.8081, 40.2584 ], [ -3.8085, 40.2585 ], [ -3.8085, 40.2586 ], [ -3.8092, 40.2586 ], [ -3.8092, 40.2587 ], [ -3.81, 40.2588 ], [ -3.81, 40.2589 ], [ -3.8109, 40.2589 ], [ -3.8136, 40.2585 ], [ -3.8146, 40.2581 ], [ -3.8146, 40.258 ], [ -3.8134, 40.2579 ], [ -3.8117, 40.2573 ], [ -3.809, 40.2574 ], [ -3.8079, 40.2565 ], [ -3.8076, 40.2565 ], [ -3.8074, 40.2562 ], [ -3.8057, 40.2563 ], [ -3.8055, 40.2564 ], [ -3.8054, 40.2567 ], [ -3.8051, 40.257 ] ] ] } },
{ "type": "Feature", "properties": { "municipio": "Humanes de Madrid", "clasificacion": "no-urbanizable-protegido", "calificacion": "sin-asignar", "version": "vigente", "fuente": "SIT-CAM WFS — UsoDelSuelo:VPLA_V_CLASIFICACION (https://idem.comunidad.madrid/geosrvg/ows)", "fecha_dato": "2026-05-12", "ambito": "18899", "_raw_CD_SIGLAS": "SNUP", "_raw_DS_CLASIF_GEN": "Suelo No Urbanizable Protegido", "_raw_DS_CLASIF_DET": "Suelo No Urbanizable Protección Veredas", "_raw_DS_DOCU": "NORMAS SUBSIDIARIAS", "_raw_DS_LEY": "CM Ley 4/1984, E Ley 8/1990", "_raw_FC_AC": "1992-07-23", "_raw_NM_AREA_M2": 30177.432313906698, "_cam_code": "073" }, "geometry": { "type": "Polygon", "coordinates": [ [ [ -3.8347, 40.2398 ], [ -3.8338, 40.242 ], [ -3.8335, 40.2435 ], [ -3.8336, 40.2435 ], [ -3.834, 40.2423 ], [ -3.8341, 40.2417 ], [ -3.8349, 40.24 ], [ -3.835, 40.2382 ], [ -3.8351, 40.2382 ], [ -3.8351, 40.2377 ], [ -3.8352, 40.2377 ], [ -3.8354, 40.2367 ], [ -3.836, 40.236 ], [ -3.8361, 40.2354 ], [ -3.8363, 40.2352 ], [ -3.8364, 40.2348 ], [ -3.8365, 40.2348 ], [ -3.8365, 40.2345 ], [ -3.8366, 40.2345 ], [ -3.8366, 40.2343 ], [ -3.8367, 40.2343 ], [ -3.8369, 40.2337 ], [ -3.837, 40.2337 ], [ -3.8372, 40.2333 ], [ -3.8373, 40.2329 ], [ -3.8374, 40.2329 ], [ -3.8375, 40.2309 ], [ -3.8376, 40.2309 ], [ -3.8376, 40.2306 ], [ -3.8378, 40.2304 ], [ -3.8378, 40.2304 ], [ -3.8378, 40.2304 ], [ -3.8378, 40.2303 ], [ -3.8378, 40.2303 ], [ -3.8378, 40.2303 ], [ -3.8378, 40.2303 ], [ -3.8378, 40.2303 ], [ -3.8378, 40.2303 ], [ -3.8378, 40.2302 ], [ -3.8378, 40.2302 ], [ -3.8378, 40.2302 ], [ -3.8378, 40.2302 ], [ -3.8378, 40.2302 ], [ -3.8378, 40.2302 ], [ -3.8378, 40.2302 ], [ -3.8378, 40.2302 ], [ -3.8378, 40.2302 ], [ -3.8378, 40.2302 ], [ -3.8378, 40.2301 ], [ -3.8378, 40.2301 ], [ -3.8378, 40.2301 ], [ -3.8378, 40.2301 ], [ -3.8378, 40.2301 ], [ -3.8378, 40.2301 ], [ -3.8378, 40.2301 ], [ -3.8378, 40.2301 ], [ -3.8378, 40.23 ], [ -3.8379, 40.23 ], [ -3.8377, 40.23 ], [ -3.8376, 40.23 ], [ -3.8376, 40.2303 ], [ -3.8374, 40.2304 ], [ -3.8374, 40.2307 ], [ -3.8373, 40.2307 ], [ -3.8371, 40.233 ], [ -3.837, 40.233 ], [ -3.8368, 40.2336 ], [ -3.8367, 40.2336 ], [ -3.8367, 40.2338 ], [ -3.8366, 40.2338 ], [ -3.8366, 40.234 ], [ -3.8363, 40.2344 ], [ -3.8362, 40.2349 ], [ -3.8359, 40.2353 ], [ -3.8359, 40.2356 ], [ -3.8358, 40.2356 ], [ -3.8357, 40.236 ], [ -3.8353, 40.2364 ], [ -3.8351, 40.2371 ], [ -3.835, 40.2371 ], [ -3.8349, 40.2379 ], [ -3.8348, 40.2379 ], [ -3.8348, 40.2385 ], [ -3.8347, 40.2385 ], [ -3.8347, 40.2398 ] ] ] } },
{ "type": "Feature", "properties": { "municipio": "Humanes de Madrid", "clasificacion": "no-urbanizable-protegido", "calificacion": "sin-asignar", "version": "vigente", "fuente": "SIT-CAM WFS — UsoDelSuelo:VPLA_V_CLASIFICACION (https://idem.comunidad.madrid/geosrvg/ows)", "fecha_dato": "2026-05-12", "ambito": "18899", "_raw_CD_SIGLAS": "SNUP", "_raw_DS_CLASIF_GEN": "Suelo No Urbanizable Protegido", "_raw_DS_CLASIF_DET": "Suelo No Urbanizable Protección Veredas", "_raw_DS_DOCU": "NORMAS SUBSIDIARIAS", "_raw_DS_LEY": "CM Ley 4/1984, E Ley 8/1990", "_raw_FC_AC": "1992-07-23", "_raw_NM_AREA_M2": 21155.594320463701, "_cam_code": "073" }, "geometry": { "type": "Polygon", "coordinates": [ [ [ -3.8343, 40.2449 ], [ -3.8348, 40.2448 ], [ -3.835, 40.2444 ], [ -3.8359, 40.2436 ], [ -3.8373, 40.2428 ], [ -3.8374, 40.2426 ], [ -3.8379, 40.2424 ], [ -3.8383, 40.242 ], [ -3.8385, 40.242 ], [ -3.8386, 40.2418 ], [ -3.8392, 40.2416 ], [ -3.8397, 40.2412 ], [ -3.8399, 40.2412 ], [ -3.84, 40.241 ], [ -3.8405, 40.2408 ], [ -3.8418, 40.2395 ], [ -3.8422, 40.2394 ], [ -3.8422, 40.2393 ], [ -3.8428, 40.2391 ], [ -3.8428, 40.239 ], [ -3.8432, 40.2388 ], [ -3.8428, 40.2388 ], [ -3.8426, 40.239 ], [ -3.8424, 40.239 ], [ -3.8424, 40.2391 ], [ -3.8416, 40.2394 ], [ -3.8403, 40.2407 ], [ -3.8401, 40.2407 ], [ -3.8398, 40.241 ], [ -3.8396, 40.241 ], [ -3.8395, 40.2412 ], [ -3.8389, 40.2414 ], [ -3.8384, 40.2418 ], [ -3.8382, 40.2418 ], [ -3.8377, 40.2423 ], [ -3.8375, 40.2423 ], [ -3.8374, 40.2425 ], [ -3.8372, 40.2425 ], [ -3.8369, 40.2428 ], [ -3.8367, 40.2428 ], [ -3.8363, 40.2432 ], [ -3.8361, 40.2432 ], [ -3.836, 40.2434 ], [ -3.8358, 40.2434 ], [ -3.8343, 40.2449 ] ] ] } },
{ "type": "Feature", "properties": { "municipio": "Humanes de Madrid", "clasificacion": "no-urbanizable-protegido", "calificacion": "sin-asignar", "version": "vigente", "fuente": "SIT-CAM WFS — UsoDelSuelo:VPLA_V_CLASIFICACION (https://idem.comunidad.madrid/geosrvg/ows)", "fecha_dato": "2026-05-12", "ambito": "18899", "_raw_CD_SIGLAS": "SNUP", "_raw_DS_CLASIF_GEN": "Suelo No Urbanizable Protegido", "_raw_DS_CLASIF_DET": "Suelo No Urbanizable Protección Veredas", "_raw_DS_DOCU": "NORMAS SUBSIDIARIAS", "_raw_DS_LEY": "CM Ley 4/1984, E Ley 8/1990", "_raw_FC_AC": "1992-07-23", "_raw_NM_AREA_M2": 45320.919741876001, "_cam_code": "073" }, "geometry": { "type": "Polygon", "coordinates": [ [ [ -3.8243, 40.2472 ], [ -3.8245, 40.2471 ], [ -3.8243, 40.2471 ], [ -3.8229, 40.2461 ], [ -3.8189, 40.2423 ], [ -3.8181, 40.2419 ], [ -3.8173, 40.2413 ], [ -3.8147, 40.2392 ], [ -3.8138, 40.2383 ], [ -3.8127, 40.2376 ], [ -3.8114, 40.2365 ], [ -3.8104, 40.236 ], [ -3.8085, 40.2344 ], [ -3.8078, 40.2332 ], [ -3.8079, 40.2329 ], [ -3.8077, 40.2321 ], [ -3.8078, 40.2302 ], [ -3.8077, 40.2302 ], [ -3.8077, 40.2295 ], [ -3.8076, 40.2294 ], [ -3.8075, 40.2295 ], [ -3.8076, 40.2296 ], [ -3.8077, 40.2334 ], [ -3.8083, 40.2343 ], [ -3.8095, 40.2355 ], [ -3.8104, 40.236 ], [ -3.8105, 40.2362 ], [ -3.8111, 40.2364 ], [ -3.8122, 40.2374 ], [ -3.8137, 40.2384 ], [ -3.8138, 40.2386 ], [ -3.815, 40.2395 ], [ -3.8152, 40.2397 ], [ -3.8153, 40.2399 ], [ -3.8153, 40.2398 ], [ -3.8153, 40.2398 ], [ -3.8152, 40.2398 ], [ -3.8148, 40.2398 ], [ -3.8147, 40.2397 ], [ -3.8142, 40.2397 ], [ -3.8139, 40.2395 ], [ -3.8134, 40.2395 ], [ -3.8134, 40.2394 ], [ -3.8126, 40.2394 ], [ -3.81, 40.2389 ], [ -3.8093, 40.2383 ], [ -3.8087, 40.2381 ], [ -3.8087, 40.238 ], [ -3.8084, 40.238 ], [ -3.8082, 40.2378 ], [ -3.808, 40.2378 ], [ -3.808, 40.2377 ], [ -3.8077, 40.2377 ], [ -3.8077, 40.2376 ], [ -3.8062, 40.2371 ], [ -3.8057, 40.2371 ], [ -3.8056, 40.237 ], [ -3.8053, 40.237 ], [ -3.8053, 40.2371 ], [ -3.8069, 40.2374 ], [ -3.8069, 40.2375 ], [ -3.8074, 40.2376 ], [ -3.8074, 40.2377 ], [ -3.8079, 40.2378 ], [ -3.8079, 40.2379 ], [ -3.8084, 40.238 ], [ -3.8084, 40.2381 ], [ -3.8092, 40.2384 ], [ -3.81, 40.239 ], [ -3.8125, 40.2394 ], [ -3.8125, 40.2395 ], [ -3.8134, 40.2395 ], [ -3.8134, 40.2396 ], [ -3.8139, 40.2396 ], [ -3.8141, 40.2398 ], [ -3.8147, 40.2398 ], [ -3.8155, 40.24 ], [ -3.8164, 40.2408 ], [ -3.8167, 40.2409 ], [ -3.8179, 40.2419 ], [ -3.8189, 40.2425 ], [ -3.823, 40.2464 ], [ -3.8243, 40.2472 ] ] ] } },
{ "type": "Feature", "properties": { "municipio": "Humanes de Madrid", "clasificacion": "no-urbanizable-protegido", "calificacion": "sin-asignar", "version": "vigente", "fuente": "SIT-CAM WFS — UsoDelSuelo:VPLA_V_CLASIFICACION (https://idem.comunidad.madrid/geosrvg/ows)", "fecha_dato": "2026-05-12", "ambito": "18899", "_raw_CD_SIGLAS": "SNUP", "_raw_DS_CLASIF_GEN": "Suelo No Urbanizable Protegido", "_raw_DS_CLASIF_DET": "Suelo No Urbanizable Protección Cauces", "_raw_DS_DOCU": "NORMAS SUBSIDIARIAS", "_raw_DS_LEY": "CM Ley 4/1984, E Ley 8/1990", "_raw_FC_AC": "1992-07-23", "_raw_NM_AREA_M2": 224745.20227920701, "_cam_code": "073" }, "geometry": { "type": "Polygon", "coordinates": [ [ [ -3.8213, 40.2271 ], [ -3.8204, 40.2287 ], [ -3.8251, 40.2295 ], [ -3.8263, 40.2299 ], [ -3.8276, 40.2307 ], [ -3.8278, 40.2307 ], [ -3.8278, 40.2308 ], [ -3.8297, 40.2312 ], [ -3.8303, 40.2312 ], [ -3.8304, 40.2311 ], [ -3.8338, 40.2312 ], [ -3.8338, 40.2313 ], [ -3.834, 40.2313 ], [ -3.834, 40.2314 ], [ -3.8342, 40.2314 ], [ -3.835, 40.2319 ], [ -3.8357, 40.2321 ], [ -3.8364, 40.2327 ], [ -3.837, 40.2326 ], [ -3.8369, 40.2321 ], [ -3.8358, 40.2314 ], [ -3.8355, 40.2307 ], [ -3.8346, 40.2304 ], [ -3.8332, 40.2301 ], [ -3.831, 40.2299 ], [ -3.831, 40.2298 ], [ -3.8307, 40.2297 ], [ -3.8296, 40.2295 ], [ -3.8272, 40.2284 ], [ -3.8213, 40.2271 ] ] ] } },
{ "type": "Feature", "properties": { "municipio": "Humanes de Madrid", "clasificacion": "no-urbanizable-protegido", "calificacion": "sin-asignar", "version": "vigente", "fuente": "SIT-CAM WFS — UsoDelSuelo:VPLA_V_CLASIFICACION (https://idem.comunidad.madrid/geosrvg/ows)", "fecha_dato": "2026-05-12", "ambito": "18899", "_raw_CD_SIGLAS": "SNUP", "_raw_DS_CLASIF_GEN": "Suelo No Urbanizable Protegido", "_raw_DS_CLASIF_DET": "Suelo No Urbanizable Protección Veredas", "_raw_DS_DOCU": "NORMAS SUBSIDIARIAS", "_raw_DS_LEY": "CM Ley 4/1984, E Ley 8/1990", "_raw_FC_AC": "1992-07-23", "_raw_NM_AREA_M2": 19318.2136158467, "_cam_code": "073" }, "geometry": { "type": "Polygon", "coordinates": [ [ [ -3.8075, 40.2508 ], [ -3.8078, 40.2508 ], [ -3.8079, 40.2508 ], [ -3.8089, 40.2512 ], [ -3.8091, 40.2522 ], [ -3.8092, 40.2523 ], [ -3.8097, 40.2523 ], [ -3.8103, 40.2521 ], [ -3.8118, 40.2519 ], [ -3.8145, 40.2519 ], [ -3.8178, 40.2509 ], [ -3.82, 40.2509 ], [ -3.82, 40.2508 ], [ -3.8212, 40.2506 ], [ -3.8212, 40.2505 ], [ -3.8207, 40.2505 ], [ -3.8197, 40.2508 ], [ -3.8176, 40.2508 ], [ -3.8148, 40.2517 ], [ -3.8116, 40.2518 ], [ -3.81, 40.252 ], [ -3.8096, 40.2522 ], [ -3.8093, 40.2522 ], [ -3.8091, 40.2512 ], [ -3.8089, 40.251 ], [ -3.8082, 40.2507 ], [ -3.8076, 40.2507 ], [ -3.8075, 40.2508 ] ] ] } },
{ "type": "Feature", "properties": { "municipio": "Humanes de Madrid", "clasificacion": "no-urbanizable-protegido", "calificacion": "sin-asignar", "version": "vigente", "fuente": "SIT-CAM WFS — UsoDelSuelo:VPLA_V_CLASIFICACION (https://idem.comunidad.madrid/geosrvg/ows)", "fecha_dato": "2026-05-12", "ambito": "18899", "_raw_CD_SIGLAS": "SNUP", "_raw_DS_CLASIF_GEN": "Suelo No Urbanizable Protegido", "_raw_DS_CLASIF_DET": "Suelo No Urbanizable Protección Veredas", "_raw_DS_DOCU": "NORMAS SUBSIDIARIAS", "_raw_DS_LEY": "CM Ley 4/1984, E Ley 8/1990", "_raw_FC_AC": "1992-07-23", "_raw_NM_AREA_M2": 30236.042698490601, "_cam_code": "073" }, "geometry": { "type": "Polygon", "coordinates": [ [ [ -3.836, 40.2527 ], [ -3.8394, 40.2531 ], [ -3.8415, 40.2542 ], [ -3.8425, 40.2545 ], [ -3.8477, 40.2553 ], [ -3.8486, 40.2553 ], [ -3.85, 40.2557 ], [ -3.8497, 40.2554 ], [ -3.8481, 40.2551 ], [ -3.845, 40.2548 ], [ -3.8426, 40.2544 ], [ -3.841, 40.2538 ], [ -3.8399, 40.2532 ], [ -3.8399, 40.2531 ], [ -3.8401, 40.2532 ], [ -3.8448, 40.2533 ], [ -3.8476, 40.2538 ], [ -3.848, 40.2531 ], [ -3.8472, 40.2525 ], [ -3.846, 40.2521 ], [ -3.8459, 40.2522 ], [ -3.8467, 40.2524 ], [ -3.8478, 40.253 ], [ -3.8478, 40.2533 ], [ -3.8476, 40.2537 ], [ -3.8449, 40.2532 ], [ -3.8407, 40.2531 ], [ -3.8385, 40.2529 ], [ -3.8368, 40.2526 ], [ -3.8361, 40.2526 ], [ -3.836, 40.2527 ] ] ] } },
{ "type": "Feature", "properties": { "municipio": "Humanes de Madrid", "clasificacion": "urbano-consolidado", "calificacion": "sin-asignar", "version": "vigente", "fuente": "SIT-CAM WFS — UsoDelSuelo:VPLA_V_CLASIFICACION (https://idem.comunidad.madrid/geosrvg/ows)", "fecha_dato": "2026-05-12", "ambito": "18899", "_raw_CD_SIGLAS": "SU", "_raw_DS_CLASIF_GEN": "Suelo Urbano", "_raw_DS_CLASIF_DET": "Suelo Urbano", "_raw_DS_DOCU": "NORMAS SUBSIDIARIAS", "_raw_DS_LEY": "CM Ley 4/1984, E Ley 8/1990", "_raw_FC_AC": "1992-07-23", "_raw_NM_AREA_M2": 2674835.3228523401, "_cam_code": "073" }, "geometry": { "type": "Polygon", "coordinates": [ [ [ -3.8233, 40.2772 ], [ -3.8265, 40.2774 ], [ -3.8266, 40.2758 ], [ -3.8262, 40.2758 ], [ -3.8262, 40.2753 ], [ -3.8254, 40.2753 ], [ -3.8253, 40.2752 ], [ -3.8248, 40.2753 ], [ -3.8247, 40.2756 ], [ -3.8241, 40.2756 ], [ -3.8241, 40.2759 ], [ -3.8239, 40.2759 ], [ -3.8239, 40.2756 ], [ -3.821, 40.2754 ], [ -3.8205, 40.2751 ], [ -3.8206, 40.2737 ], [ -3.8215, 40.2736 ], [ -3.8215, 40.2737 ], [ -3.8229, 40.274 ], [ -3.8238, 40.274 ], [ -3.8236, 40.2737 ], [ -3.8237, 40.2735 ], [ -3.8235, 40.273 ], [ -3.8236, 40.2725 ], [ -3.8237, 40.2725 ], [ -3.8237, 40.272 ], [ -3.8257, 40.2716 ], [ -3.8265, 40.2716 ], [ -3.8266, 40.2711 ], [ -3.8258, 40.271 ], [ -3.8259, 40.2707 ], [ -3.8248, 40.2706 ], [ -3.8289, 40.2691 ], [ -3.8288, 40.2688 ], [ -3.8281, 40.268 ], [ -3.828, 40.2674 ], [ -3.8275, 40.2674 ], [ -3.8244, 40.2668 ], [ -3.8248, 40.2664 ], [ -3.8245, 40.2664 ], [ -3.8246, 40.2653 ], [ -3.8234, 40.265 ], [ -3.8234, 40.2653 ], [ -3.823, 40.2653 ], [ -3.823, 40.2661 ], [ -3.8225, 40.2661 ], [ -3.8224, 40.2667 ], [ -3.8221, 40.2667 ], [ -3.8219, 40.2678 ], [ -3.8224, 40.2679 ], [ -3.8231, 40.2678 ], [ -3.8224, 40.2687 ], [ -3.8219, 40.2686 ], [ -3.8217, 40.2692 ], [ -3.819, 40.2695 ], [ -3.8189, 40.2699 ], [ -3.819, 40.2701 ], [ -3.8181, 40.2709 ], [ -3.8178, 40.271 ], [ -3.8147, 40.2707 ], [ -3.8213, 40.2636 ], [ -3.8214, 40.2634 ], [ -3.8211, 40.2633 ], [ -3.8136, 40.2714 ], [ -3.8134, 40.2714 ], [ -3.8134, 40.2689 ], [ -3.8142, 40.2681 ], [ -3.8134, 40.2676 ], [ -3.8145, 40.2666 ], [ -3.8153, 40.2671 ], [ -3.8157, 40.2668 ], [ -3.8146, 40.2662 ], [ -3.8145, 40.2661 ], [ -3.8146, 40.2659 ], [ -3.8163, 40.2643 ], [ -3.8172, 40.2646 ], [ -3.8176, 40.2642 ], [ -3.8169, 40.2638 ], [ -3.8196, 40.2614 ], [ -3.8205, 40.2604 ], [ -3.8219, 40.261 ], [ -3.8212, 40.2616 ], [ -3.8218, 40.2619 ], [ -3.8223, 40.262 ], [ -3.8225, 40.2619 ], [ -3.8234, 40.2608 ], [ -3.8264, 40.2576 ], [ -3.8275, 40.2566 ], [ -3.828, 40.2559 ], [ -3.8283, 40.2557 ], [ -3.8308, 40.2529 ], [ -3.8329, 40.2541 ], [ -3.8346, 40.2548 ], [ -3.8361, 40.2526 ], [ -3.8349, 40.2524 ], [ -3.835, 40.252 ], [ -3.8335, 40.2518 ], [ -3.8333, 40.2517 ], [ -3.8333, 40.2513 ], [ -3.8328, 40.2512 ], [ -3.8336, 40.2503 ], [ -3.8339, 40.2505 ], [ -3.8344, 40.2506 ], [ -3.8361, 40.2501 ], [ -3.8363, 40.2499 ], [ -3.8362, 40.2498 ], [ -3.8349, 40.2503 ], [ -3.8343, 40.2503 ], [ -3.8335, 40.2499 ], [ -3.833, 40.2505 ], [ -3.833, 40.2504 ], [ -3.8324, 40.2501 ], [ -3.8314, 40.2501 ], [ -3.8323, 40.249 ], [ -3.833, 40.249 ], [ -3.8329, 40.2485 ], [ -3.8337, 40.2483 ], [ -3.8341, 40.2484 ], [ -3.8342, 40.2477 ], [ -3.833, 40.2476 ], [ -3.8335, 40.2468 ], [ -3.8335, 40.2467 ], [ -3.8332, 40.2466 ], [ -3.8314, 40.2496 ], [ -3.8308, 40.2493 ], [ -3.8267, 40.2482 ], [ -3.8254, 40.2477 ], [ -3.8245, 40.2471 ], [ -3.8243, 40.2472 ], [ -3.8229, 40.2463 ], [ -3.8187, 40.2451 ], [ -3.8176, 40.2451 ], [ -3.817, 40.247 ], [ -3.8226, 40.2479 ], [ -3.8227, 40.248 ], [ -3.8247, 40.2479 ], [ -3.8243, 40.2483 ], [ -3.8245, 40.2484 ], [ -3.8248, 40.2483 ], [ -3.8253, 40.2485 ], [ -3.8258, 40.2482 ], [ -3.8267, 40.2493 ], [ -3.8259, 40.2496 ], [ -3.8264, 40.2502 ], [ -3.8268, 40.2504 ], [ -3.8264, 40.2508 ], [ -3.8267, 40.251 ], [ -3.8271, 40.2506 ], [ -3.8279, 40.2512 ], [ -3.827, 40.2521 ], [ -3.8263, 40.2519 ], [ -3.8262, 40.2522 ], [ -3.8271, 40.2524 ], [ -3.8271, 40.2525 ], [ -3.828, 40.2529 ], [ -3.8273, 40.2536 ], [ -3.827, 40.2535 ], [ -3.8267, 40.2532 ], [ -3.8264, 40.2531 ], [ -3.8261, 40.2532 ], [ -3.826, 40.2534 ], [ -3.8264, 40.2536 ], [ -3.8262, 40.2538 ], [ -3.8267, 40.2542 ], [ -3.8257, 40.255 ], [ -3.8249, 40.2559 ], [ -3.8246, 40.2554 ], [ -3.8241, 40.2555 ], [ -3.8241, 40.2556 ], [ -3.8238, 40.2557 ], [ -3.8224, 40.2543 ], [ -3.8228, 40.2539 ], [ -3.8224, 40.2536 ], [ -3.8221, 40.2537 ], [ -3.8212, 40.2547 ], [ -3.8191, 40.2543 ], [ -3.819, 40.255 ], [ -3.8166, 40.255 ], [ -3.8167, 40.2558 ], [ -3.8162, 40.2558 ], [ -3.8162, 40.256 ], [ -3.8164, 40.2561 ], [ -3.8185, 40.256 ], [ -3.8187, 40.2565 ], [ -3.8193, 40.2572 ], [ -3.8205, 40.2564 ], [ -3.8208, 40.256 ], [ -3.8218, 40.2564 ], [ -3.8224, 40.2568 ], [ -3.8208, 40.2577 ], [ -3.8198, 40.2586 ], [ -3.8189, 40.26 ], [ -3.818, 40.2611 ], [ -3.8158, 40.2602 ], [ -3.8158, 40.26 ], [ -3.8102, 40.26 ], [ -3.8096, 40.2643 ], [ -3.809, 40.2673 ], [ -3.8094, 40.2685 ], [ -3.8092, 40.2685 ], [ -3.8096, 40.27 ], [ -3.8098, 40.2716 ], [ -3.8102, 40.2734 ], [ -3.8103, 40.2747 ], [ -3.8105, 40.2755 ], [ -3.8105, 40.2768 ], [ -3.8121, 40.2771 ], [ -3.8138, 40.2771 ], [ -3.8141, 40.2772 ], [ -3.8204, 40.277 ], [ -3.8207, 40.2771 ], [ -3.8233, 40.2771 ], [ -3.8233, 40.2772 ] ] ] } },
{ "type": "Feature", "properties": { "municipio": "Humanes de Madrid", "clasificacion": "urbano-consolidado", "calificacion": "sin-asignar", "version": "vigente", "fuente": "SIT-CAM WFS — UsoDelSuelo:VPLA_V_CLASIFICACION (https://idem.comunidad.madrid/geosrvg/ows)", "fecha_dato": "2026-05-12", "ambito": "18899", "_raw_CD_SIGLAS": "SU", "_raw_DS_CLASIF_GEN": "Suelo Urbano", "_raw_DS_CLASIF_DET": "Suelo Urbano", "_raw_DS_DOCU": "NORMAS SUBSIDIARIAS", "_raw_DS_LEY": "CM Ley 4/1984, E Ley 8/1990", "_raw_FC_AC": "1992-07-23", "_raw_NM_AREA_M2": 60434.645522317602, "_cam_code": "073" }, "geometry": { "type": "Polygon", "coordinates": [ [ [ -3.8333, 40.2444 ], [ -3.8332, 40.2458 ], [ -3.833, 40.2461 ], [ -3.8331, 40.2461 ], [ -3.8331, 40.2465 ], [ -3.8337, 40.2459 ], [ -3.836, 40.2419 ], [ -3.8361, 40.2419 ], [ -3.8353, 40.2416 ], [ -3.8344, 40.2411 ], [ -3.8344, 40.241 ], [ -3.8336, 40.2435 ], [ -3.8335, 40.2435 ], [ -3.8333, 40.2444 ] ] ] } },
{ "type": "Feature", "properties": { "municipio": "Humanes de Madrid", "clasificacion": "urbano-consolidado", "calificacion": "sin-asignar", "version": "vigente", "fuente": "SIT-CAM WFS — UsoDelSuelo:VPLA_V_CLASIFICACION (https://idem.comunidad.madrid/geosrvg/ows)", "fecha_dato": "2026-05-12", "ambito": "18899", "_raw_CD_SIGLAS": "SU", "_raw_DS_CLASIF_GEN": "Suelo Urbano", "_raw_DS_CLASIF_DET": "Suelo Urbano", "_raw_DS_DOCU": "NORMAS SUBSIDIARIAS", "_raw_DS_LEY": "CM Ley 4/1984, E Ley 8/1990", "_raw_FC_AC": "1992-07-23", "_raw_NM_AREA_M2": 769571.695404339, "_cam_code": "073" }, "geometry": { "type": "Polygon", "coordinates": [ [ [ -3.8312, 40.2683 ], [ -3.8326, 40.2718 ], [ -3.8338, 40.2716 ], [ -3.8375, 40.2707 ], [ -3.8377, 40.2702 ], [ -3.8383, 40.2703 ], [ -3.8385, 40.2693 ], [ -3.8396, 40.2691 ], [ -3.8405, 40.2691 ], [ -3.8406, 40.2692 ], [ -3.841, 40.2691 ], [ -3.8408, 40.2685 ], [ -3.8409, 40.2681 ], [ -3.8408, 40.2677 ], [ -3.8409, 40.2649 ], [ -3.8408, 40.2646 ], [ -3.8415, 40.2643 ], [ -3.8413, 40.2631 ], [ -3.8406, 40.2631 ], [ -3.8416, 40.2609 ], [ -3.8402, 40.2606 ], [ -3.8402, 40.2605 ], [ -3.8392, 40.2602 ], [ -3.8363, 40.2597 ], [ -3.8363, 40.2624 ], [ -3.8359, 40.2623 ], [ -3.8339, 40.2623 ], [ -3.8337, 40.2624 ], [ -3.8333, 40.2613 ], [ -3.8332, 40.2613 ], [ -3.833, 40.2618 ], [ -3.8329, 40.2637 ], [ -3.8324, 40.2652 ], [ -3.8326, 40.2665 ], [ -3.833, 40.2676 ], [ -3.8312, 40.2683 ] ] ] } },
{ "type": "Feature", "properties": { "municipio": "Humanes de Madrid", "clasificacion": "urbanizable-no-sectorizado", "calificacion": "sin-asignar", "version": "vigente", "fuente": "SIT-CAM WFS — UsoDelSuelo:VPLA_V_CLASIFICACION (https://idem.comunidad.madrid/geosrvg/ows)", "fecha_dato": "2026-05-12", "ambito": "18899", "_raw_CD_SIGLAS": "SUBNS", "_raw_DS_CLASIF_GEN": "Suelo No Urbanizable Común", "_raw_DS_CLASIF_DET": "Suelo No Urbanizable Común", "_raw_DS_DOCU": "NORMAS SUBSIDIARIAS", "_raw_DS_LEY": "CM Ley 4/1984, E Ley 8/1990", "_raw_FC_AC": "1992-07-23", "_raw_NM_AREA_M2": 481537.84541820298, "_cam_code": "073" }, "geometry": { "type": "Polygon", "coordinates": [ [ [ -3.8069, 40.2608 ], [ -3.8092, 40.2685 ], [ -3.8094, 40.2685 ], [ -3.809, 40.2673 ], [ -3.8096, 40.2643 ], [ -3.8102, 40.26 ], [ -3.8158, 40.26 ], [ -3.8165, 40.2602 ], [ -3.8174, 40.2571 ], [ -3.8164, 40.2565 ], [ -3.8164, 40.2561 ], [ -3.8162, 40.256 ], [ -3.816, 40.2551 ], [ -3.8141, 40.2552 ], [ -3.8132, 40.2555 ], [ -3.8111, 40.2557 ], [ -3.8082, 40.2562 ], [ -3.8074, 40.2562 ], [ -3.8076, 40.2565 ], [ -3.8079, 40.2565 ], [ -3.809, 40.2574 ], [ -3.8117, 40.2573 ], [ -3.8138, 40.258 ], [ -3.8146, 40.258 ], [ -3.8146, 40.2581 ], [ -3.814, 40.2584 ], [ -3.8136, 40.2585 ], [ -3.8109, 40.2589 ], [ -3.81, 40.2589 ], [ -3.81, 40.2588 ], [ -3.8092, 40.2587 ], [ -3.8092, 40.2586 ], [ -3.8085, 40.2586 ], [ -3.8085, 40.2585 ], [ -3.8075, 40.2583 ], [ -3.8068, 40.2583 ], [ -3.8064, 40.2577 ], [ -3.8059, 40.2574 ], [ -3.8059, 40.2572 ], [ -3.8056, 40.2569 ], [ -3.805, 40.257 ], [ -3.8046, 40.2574 ], [ -3.8052, 40.2581 ], [ -3.8069, 40.2608 ] ] ] } },
{ "type": "Feature", "properties": { "municipio": "Humanes de Madrid", "clasificacion": "urbanizable-no-sectorizado", "calificacion": "sin-asignar", "version": "vigente", "fuente": "SIT-CAM WFS — UsoDelSuelo:VPLA_V_CLASIFICACION (https://idem.comunidad.madrid/geosrvg/ows)", "fecha_dato": "2026-05-12", "ambito": "18899", "_raw_CD_SIGLAS": "SUBNS", "_raw_DS_CLASIF_GEN": "Suelo No Urbanizable Común", "_raw_DS_CLASIF_DET": "Suelo No Urbanizable Común", "_raw_DS_DOCU": "NORMAS SUBSIDIARIAS", "_raw_DS_LEY": "CM Ley 4/1984, E Ley 8/1990", "_raw_FC_AC": "1992-07-23", "_raw_NM_AREA_M2": 153846.30093930001, "_cam_code": "073" }, "geometry": { "type": "Polygon", "coordinates": [ [ [ -3.8343, 40.2449 ], [ -3.8332, 40.2466 ], [ -3.834, 40.247 ], [ -3.8354, 40.2473 ], [ -3.8367, 40.246 ], [ -3.8401, 40.242 ], [ -3.8424, 40.2396 ], [ -3.8417, 40.2396 ], [ -3.8405, 40.2408 ], [ -3.84, 40.241 ], [ -3.8399, 40.2412 ], [ -3.8397, 40.2412 ], [ -3.8392, 40.2416 ], [ -3.8386, 40.2418 ], [ -3.8385, 40.242 ], [ -3.8383, 40.242 ], [ -3.8379, 40.2424 ], [ -3.8374, 40.2426 ], [ -3.8373, 40.2428 ], [ -3.8359, 40.2436 ], [ -3.835, 40.2444 ], [ -3.8348, 40.2448 ], [ -3.8343, 40.2449 ] ] ] } },
{ "type": "Feature", "properties": { "municipio": "Humanes de Madrid", "clasificacion": "urbanizable-no-sectorizado", "calificacion": "sin-asignar", "version": "vigente", "fuente": "SIT-CAM WFS — UsoDelSuelo:VPLA_V_CLASIFICACION (https://idem.comunidad.madrid/geosrvg/ows)", "fecha_dato": "2026-05-12", "ambito": "18899", "_raw_CD_SIGLAS": "SUBNS", "_raw_DS_CLASIF_GEN": "Suelo No Urbanizable Común", "_raw_DS_CLASIF_DET": "Suelo No Urbanizable Común", "_raw_DS_DOCU": "NORMAS SUBSIDIARIAS", "_raw_DS_LEY": "CM Ley 4/1984, E Ley 8/1990", "_raw_FC_AC": "1992-07-23", "_raw_NM_AREA_M2": 34333.107956286898, "_cam_code": "073" }, "geometry": { "type": "Polygon", "coordinates": [ [ [ -3.8053, 40.2322 ], [ -3.8055, 40.2324 ], [ -3.8067, 40.2323 ], [ -3.8077, 40.2325 ], [ -3.8076, 40.2324 ], [ -3.8076, 40.2296 ], [ -3.8075, 40.2295 ], [ -3.8053, 40.2322 ] ] ] } },
{ "type": "Feature", "properties": { "municipio": "Humanes de Madrid", "clasificacion": "urbanizable-no-sectorizado", "calificacion": "sin-asignar", "version": "vigente", "fuente": "SIT-CAM WFS — UsoDelSuelo:VPLA_V_CLASIFICACION (https://idem.comunidad.madrid/geosrvg/ows)", "fecha_dato": "2026-05-12", "ambito": "18899", "_raw_CD_SIGLAS": "SUBNS", "_raw_DS_CLASIF_GEN": "Suelo No Urbanizable Común", "_raw_DS_CLASIF_DET": "Suelo No Urbanizable Común", "_raw_DS_DOCU": "NORMAS SUBSIDIARIAS", "_raw_DS_LEY": "CM Ley 4/1984, E Ley 8/1990", "_raw_FC_AC": "1992-07-23", "_raw_NM_AREA_M2": 1571550.6889021699, "_cam_code": "073" }, "geometry": { "type": "Polygon", "coordinates": [ [ [ -3.8343, 40.2367 ], [ -3.8352, 40.2368 ], [ -3.8353, 40.2364 ], [ -3.8357, 40.236 ], [ -3.8358, 40.2356 ], [ -3.8359, 40.2356 ], [ -3.8359, 40.2353 ], [ -3.8362, 40.2349 ], [ -3.8363, 40.2344 ], [ -3.8364, 40.2344 ], [ -3.8369, 40.2332 ], [ -3.8371, 40.233 ], [ -3.8372, 40.2312 ], [ -3.8373, 40.2312 ], [ -3.8374, 40.2304 ], [ -3.8376, 40.2303 ], [ -3.8376, 40.23 ], [ -3.8303, 40.2296 ], [ -3.831, 40.2298 ], [ -3.831, 40.2299 ], [ -3.8332, 40.2301 ], [ -3.8355, 40.2307 ], [ -3.8358, 40.2314 ], [ -3.8368, 40.232 ], [ -3.837, 40.2323 ], [ -3.837, 40.2326 ], [ -3.8364, 40.2327 ], [ -3.8357, 40.2321 ], [ -3.835, 40.2319 ], [ -3.8342, 40.2314 ], [ -3.834, 40.2314 ], [ -3.834, 40.2313 ], [ -3.8338, 40.2313 ], [ -3.8338, 40.2312 ], [ -3.8331, 40.2311 ], [ -3.8297, 40.2312 ], [ -3.8278, 40.2308 ], [ -3.8278, 40.2307 ], [ -3.8276, 40.2307 ], [ -3.8263, 40.2299 ], [ -3.8251, 40.2295 ], [ -3.8204, 40.2287 ], [ -3.821, 40.2277 ], [ -3.8194, 40.2285 ], [ -3.8182, 40.2297 ], [ -3.8163, 40.2282 ], [ -3.8149, 40.2277 ], [ -3.8127, 40.23 ], [ -3.8107, 40.2311 ], [ -3.8083, 40.23 ], [ -3.8077, 40.2295 ], [ -3.8077, 40.2302 ], [ -3.8078, 40.2302 ], [ -3.8077, 40.2321 ], [ -3.8078, 40.2325 ], [ -3.8091, 40.2327 ], [ -3.8101, 40.2331 ], [ -3.8111, 40.2332 ], [ -3.812, 40.2335 ], [ -3.8139, 40.2348 ], [ -3.8141, 40.2348 ], [ -3.8141, 40.2349 ], [ -3.815, 40.2351 ], [ -3.8168, 40.2351 ], [ -3.8168, 40.2352 ], [ -3.8174, 40.2352 ], [ -3.8174, 40.2353 ], [ -3.8178, 40.2353 ], [ -3.8181, 40.2355 ], [ -3.8186, 40.2356 ], [ -3.8183, 40.2352 ], [ -3.8181, 40.2345 ], [ -3.8181, 40.2339 ], [ -3.8185, 40.233 ], [ -3.8184, 40.2328 ], [ -3.8185, 40.232 ], [ -3.8184, 40.232 ], [ -3.8184, 40.2318 ], [ -3.8176, 40.2317 ], [ -3.8132, 40.2315 ], [ -3.8132, 40.2314 ], [ -3.8166, 40.2315 ], [ -3.8186, 40.2318 ], [ -3.8186, 40.2333 ], [ -3.8182, 40.234 ], [ -3.8184, 40.2351 ], [ -3.8188, 40.2357 ], [ -3.8207, 40.2364 ], [ -3.8212, 40.2365 ], [ -3.8214, 40.2364 ], [ -3.8214, 40.2365 ], [ -3.8218, 40.2365 ], [ -3.8227, 40.2368 ], [ -3.8266, 40.2367 ], [ -3.8265, 40.2363 ], [ -3.826, 40.2359 ], [ -3.826, 40.2357 ], [ -3.8258, 40.2356 ], [ -3.8257, 40.2352 ], [ -3.8253, 40.2347 ], [ -3.8253, 40.2345 ], [ -3.825, 40.2342 ], [ -3.8247, 40.2333 ], [ -3.8242, 40.2329 ], [ -3.8226, 40.2327 ], [ -3.8226, 40.2325 ], [ -3.8227, 40.2326 ], [ -3.8232, 40.2326 ], [ -3.8232, 40.2327 ], [ -3.8242, 40.2328 ], [ -3.8245, 40.2329 ], [ -3.8248, 40.2332 ], [ -3.8251, 40.2341 ], [ -3.8254, 40.2344 ], [ -3.8254, 40.2346 ], [ -3.8255, 40.2346 ], [ -3.8261, 40.2358 ], [ -3.8267, 40.2364 ], [ -3.8268, 40.2368 ], [ -3.8279, 40.2369 ], [ -3.8279, 40.2368 ], [ -3.8285, 40.2368 ], [ -3.8286, 40.2367 ], [ -3.8288, 40.2367 ], [ -3.8288, 40.2368 ], [ -3.8293, 40.2367 ], [ -3.8302, 40.2368 ], [ -3.8343, 40.2367 ] ] ] } },
{ "type": "Feature", "properties": { "municipio": "Humanes de Madrid", "clasificacion": "urbanizable-no-sectorizado", "calificacion": "sin-asignar", "version": "vigente", "fuente": "SIT-CAM WFS — UsoDelSuelo:VPLA_V_CLASIFICACION (https://idem.comunidad.madrid/geosrvg/ows)", "fecha_dato": "2026-05-12", "ambito": "18899", "_raw_CD_SIGLAS": "SUBNS", "_raw_DS_CLASIF_GEN": "Suelo No Urbanizable Común", "_raw_DS_CLASIF_DET": "Suelo No Urbanizable Común", "_raw_DS_DOCU": "NORMAS SUBSIDIARIAS", "_raw_DS_LEY": "CM Ley 4/1984, E Ley 8/1990", "_raw_FC_AC": "1992-07-23", "_raw_NM_AREA_M2": 271717.15418657102, "_cam_code": "073" }, "geometry": { "type": "Polygon", "coordinates": [ [ [ -3.8059, 40.2369 ], [ -3.8077, 40.2376 ], [ -3.8077, 40.2377 ], [ -3.808, 40.2377 ], [ -3.808, 40.2378 ], [ -3.8082, 40.2378 ], [ -3.8084, 40.238 ], [ -3.8087, 40.238 ], [ -3.8087, 40.2381 ], [ -3.8093, 40.2383 ], [ -3.81, 40.2389 ], [ -3.8126, 40.2394 ], [ -3.8134, 40.2394 ], [ -3.8134, 40.2395 ], [ -3.8139, 40.2395 ], [ -3.8142, 40.2397 ], [ -3.8147, 40.2397 ], [ -3.8148, 40.2398 ], [ -3.8148, 40.2398 ], [ -3.8149, 40.2398 ], [ -3.8149, 40.2398 ], [ -3.8149, 40.2398 ], [ -3.815, 40.2398 ], [ -3.815, 40.2398 ], [ -3.8151, 40.2398 ], [ -3.8151, 40.2398 ], [ -3.8151, 40.2398 ], [ -3.8152, 40.2398 ], [ -3.8152, 40.2398 ], [ -3.8153, 40.2398 ], [ -3.8153, 40.2399 ], [ -3.8153, 40.2399 ], [ -3.8152, 40.2397 ], [ -3.815, 40.2395 ], [ -3.8138, 40.2386 ], [ -3.8137, 40.2384 ], [ -3.8122, 40.2374 ], [ -3.8111, 40.2364 ], [ -3.8105, 40.2362 ], [ -3.8104, 40.236 ], [ -3.8095, 40.2355 ], [ -3.8083, 40.2343 ], [ -3.8078, 40.2335 ], [ -3.8057, 40.2334 ], [ -3.8057, 40.2333 ], [ -3.8054, 40.2332 ], [ -3.8045, 40.233 ], [ -3.8041, 40.2333 ], [ -3.8038, 40.234 ], [ -3.8037, 40.2347 ], [ -3.8042, 40.2354 ], [ -3.8047, 40.2355 ], [ -3.8048, 40.2357 ], [ -3.8055, 40.2362 ], [ -3.8057, 40.2366 ], [ -3.8059, 40.2367 ], [ -3.8059, 40.2369 ] ] ] } },
{ "type": "Feature", "properties": { "municipio": "Humanes de Madrid", "clasificacion": "urbanizable-no-sectorizado", "calificacion": "sin-asignar", "version": "vigente", "fuente": "SIT-CAM WFS — UsoDelSuelo:VPLA_V_CLASIFICACION (https://idem.comunidad.madrid/geosrvg/ows)", "fecha_dato": "2026-05-12", "ambito": "18899", "_raw_CD_SIGLAS": "SUBNS", "_raw_DS_CLASIF_GEN": "Suelo No Urbanizable Común", "_raw_DS_CLASIF_DET": "Suelo No Urbanizable Común", "_raw_DS_DOCU": "NORMAS SUBSIDIARIAS", "_raw_DS_LEY": "CM Ley 4/1984, E Ley 8/1990", "_raw_FC_AC": "1992-07-23", "_raw_NM_AREA_M2": 150991.43704306701, "_cam_code": "073" }, "geometry": { "type": "Polygon", "coordinates": [ [ [ -3.8051, 40.2431 ], [ -3.8059, 40.2433 ], [ -3.8069, 40.2438 ], [ -3.8069, 40.2436 ], [ -3.8068, 40.2436 ], [ -3.8068, 40.2434 ], [ -3.8058, 40.2416 ], [ -3.8056, 40.2415 ], [ -3.8046, 40.2416 ], [ -3.8046, 40.2415 ], [ -3.8043, 40.2414 ], [ -3.8043, 40.2412 ], [ -3.8045, 40.241 ], [ -3.8043, 40.2404 ], [ -3.8029, 40.2409 ], [ -3.7995, 40.2415 ], [ -3.7993, 40.2417 ], [ -3.7993, 40.2423 ], [ -3.7992, 40.2423 ], [ -3.7992, 40.2425 ], [ -3.799, 40.2427 ], [ -3.7988, 40.2427 ], [ -3.7986, 40.2429 ], [ -3.798, 40.2429 ], [ -3.7979, 40.243 ], [ -3.7982, 40.2436 ], [ -3.7994, 40.2434 ], [ -3.8018, 40.2434 ], [ -3.802, 40.2433 ], [ -3.8035, 40.2433 ], [ -3.8051, 40.2431 ] ] ] } },
{ "type": "Feature", "properties": { "municipio": "Humanes de Madrid", "clasificacion": "urbanizable-no-sectorizado", "calificacion": "sin-asignar", "version": "vigente", "fuente": "SIT-CAM WFS — UsoDelSuelo:VPLA_V_CLASIFICACION (https://idem.comunidad.madrid/geosrvg/ows)", "fecha_dato": "2026-05-12", "ambito": "18899", "_raw_CD_SIGLAS": "SUBNS", "_raw_DS_CLASIF_GEN": "Suelo No Urbanizable Común", "_raw_DS_CLASIF_DET": "Suelo No Urbanizable Común", "_raw_DS_DOCU": "NORMAS SUBSIDIARIAS", "_raw_DS_LEY": "CM Ley 4/1984, E Ley 8/1990", "_raw_FC_AC": "1992-07-23", "_raw_NM_AREA_M2": 165396.68322425499, "_cam_code": "073" }, "geometry": { "type": "Polygon", "coordinates": [ [ [ -3.8253, 40.2467 ], [ -3.8261, 40.2471 ], [ -3.8265, 40.2471 ], [ -3.8302, 40.2457 ], [ -3.8301, 40.2449 ], [ -3.8298, 40.2444 ], [ -3.8292, 40.2437 ], [ -3.8288, 40.2435 ], [ -3.8283, 40.243 ], [ -3.8279, 40.2423 ], [ -3.8269, 40.2399 ], [ -3.8268, 40.2399 ], [ -3.8266, 40.2403 ], [ -3.8266, 40.2409 ], [ -3.8267, 40.241 ], [ -3.8266, 40.2421 ], [ -3.8265, 40.2421 ], [ -3.8265, 40.2424 ], [ -3.8263, 40.2426 ], [ -3.8259, 40.2439 ], [ -3.8256, 40.2444 ], [ -3.8255, 40.2453 ], [ -3.8252, 40.2459 ], [ -3.8252, 40.2468 ], [ -3.8251, 40.2468 ], [ -3.8252, 40.2468 ], [ -3.8253, 40.2467 ] ] ] } },
{ "type": "Feature", "properties": { "municipio": "Humanes de Madrid", "clasificacion": "urbanizable-no-sectorizado", "calificacion": "sin-asignar", "version": "vigente", "fuente": "SIT-CAM WFS — UsoDelSuelo:VPLA_V_CLASIFICACION (https://idem.comunidad.madrid/geosrvg/ows)", "fecha_dato": "2026-05-12", "ambito": "18899", "_raw_CD_SIGLAS": "SUBNS", "_raw_DS_CLASIF_GEN": "Suelo No Urbanizable Común", "_raw_DS_CLASIF_DET": "Suelo No Urbanizable Común", "_raw_DS_DOCU": "NORMAS SUBSIDIARIAS", "_raw_DS_LEY": "CM Ley 4/1984, E Ley 8/1990", "_raw_FC_AC": "1992-07-23", "_raw_NM_AREA_M2": 562868.49904813804, "_cam_code": "073" }, "geometry": { "type": "Polygon", "coordinates": [ [ [ -3.8104, 40.236 ], [ -3.8114, 40.2365 ], [ -3.8127, 40.2376 ], [ -3.8138, 40.2383 ], [ -3.8147, 40.2392 ], [ -3.8173, 40.2413 ], [ -3.8181, 40.2419 ], [ -3.8189, 40.2423 ], [ -3.8229, 40.2461 ], [ -3.8243, 40.2471 ], [ -3.8247, 40.2471 ], [ -3.8247, 40.2469 ], [ -3.825, 40.2467 ], [ -3.825, 40.2462 ], [ -3.8252, 40.2455 ], [ -3.8244, 40.2448 ], [ -3.8238, 40.2438 ], [ -3.8231, 40.243 ], [ -3.8228, 40.2424 ], [ -3.822, 40.2413 ], [ -3.8218, 40.2412 ], [ -3.8211, 40.2399 ], [ -3.8206, 40.2395 ], [ -3.8206, 40.2393 ], [ -3.8201, 40.2386 ], [ -3.8199, 40.2375 ], [ -3.819, 40.2362 ], [ -3.8187, 40.2361 ], [ -3.8187, 40.236 ], [ -3.8177, 40.2358 ], [ -3.8148, 40.2357 ], [ -3.8124, 40.2349 ], [ -3.8115, 40.2343 ], [ -3.8107, 40.234 ], [ -3.8079, 40.2335 ], [ -3.8085, 40.2344 ], [ -3.8104, 40.236 ] ] ] } },
{ "type": "Feature", "properties": { "municipio": "Humanes de Madrid", "clasificacion": "urbanizable-no-sectorizado", "calificacion": "sin-asignar", "version": "vigente", "fuente": "SIT-CAM WFS — UsoDelSuelo:VPLA_V_CLASIFICACION (https://idem.comunidad.madrid/geosrvg/ows)", "fecha_dato": "2026-05-12", "ambito": "18899", "_raw_CD_SIGLAS": "SUBNS", "_raw_DS_CLASIF_GEN": "Suelo No Urbanizable Común", "_raw_DS_CLASIF_DET": "Suelo No Urbanizable Común", "_raw_DS_DOCU": "NORMAS SUBSIDIARIAS", "_raw_DS_LEY": "CM Ley 4/1984, E Ley 8/1990", "_raw_FC_AC": "1992-07-23", "_raw_NM_AREA_M2": 560725.14270767395, "_cam_code": "073" }, "geometry": { "type": "Polygon", "coordinates": [ [ [ -3.8426, 40.2387 ], [ -3.8432, 40.2388 ], [ -3.8434, 40.2384 ], [ -3.8447, 40.2369 ], [ -3.8468, 40.2347 ], [ -3.8458, 40.2347 ], [ -3.8431, 40.2333 ], [ -3.8433, 40.2323 ], [ -3.8419, 40.2317 ], [ -3.8403, 40.2296 ], [ -3.8378, 40.23 ], [ -3.8378, 40.2304 ], [ -3.8377, 40.2304 ], [ -3.8376, 40.2309 ], [ -3.8375, 40.2309 ], [ -3.8374, 40.2329 ], [ -3.8373, 40.2329 ], [ -3.837, 40.2337 ], [ -3.8369, 40.2337 ], [ -3.8368, 40.2341 ], [ -3.8365, 40.2345 ], [ -3.8365, 40.2348 ], [ -3.8364, 40.2348 ], [ -3.8363, 40.2352 ], [ -3.8361, 40.2354 ], [ -3.836, 40.236 ], [ -3.8355, 40.2365 ], [ -3.8354, 40.2369 ], [ -3.836, 40.2372 ], [ -3.8369, 40.2374 ], [ -3.8369, 40.2375 ], [ -3.8375, 40.2377 ], [ -3.8376, 40.2379 ], [ -3.838, 40.238 ], [ -3.8382, 40.2382 ], [ -3.8385, 40.2382 ], [ -3.8385, 40.2383 ], [ -3.84, 40.2384 ], [ -3.8405, 40.2385 ], [ -3.841, 40.2387 ], [ -3.841, 40.2388 ], [ -3.8426, 40.2387 ] ] ] } },
{ "type": "Feature", "properties": { "municipio": "Humanes de Madrid", "clasificacion": "urbanizable-no-sectorizado", "calificacion": "sin-asignar", "version": "vigente", "fuente": "SIT-CAM WFS — UsoDelSuelo:VPLA_V_CLASIFICACION (https://idem.comunidad.madrid/geosrvg/ows)", "fecha_dato": "2026-05-12", "ambito": "18899", "_raw_CD_SIGLAS": "SUBNS", "_raw_DS_CLASIF_GEN": "Suelo No Urbanizable Común", "_raw_DS_CLASIF_DET": "Suelo No Urbanizable Común", "_raw_DS_DOCU": "NORMAS SUBSIDIARIAS", "_raw_DS_LEY": "CM Ley 4/1984, E Ley 8/1990", "_raw_FC_AC": "1992-07-23", "_raw_NM_AREA_M2": 267225.82680653897, "_cam_code": "073" }, "geometry": { "type": "Polygon", "coordinates": [ [ [ -3.8387, 40.2478 ], [ -3.8385, 40.2482 ], [ -3.8408, 40.2478 ], [ -3.8443, 40.2478 ], [ -3.8474, 40.2473 ], [ -3.8489, 40.2467 ], [ -3.8533, 40.2458 ], [ -3.8535, 40.2457 ], [ -3.8536, 40.2454 ], [ -3.8536, 40.2443 ], [ -3.8518, 40.2445 ], [ -3.8482, 40.2446 ], [ -3.8449, 40.2458 ], [ -3.8433, 40.246 ], [ -3.841, 40.246 ], [ -3.8404, 40.2462 ], [ -3.839, 40.2463 ], [ -3.8387, 40.2467 ], [ -3.8387, 40.2478 ] ] ] } },
{ "type": "Feature", "properties": { "municipio": "Humanes de Madrid", "clasificacion": "urbanizable-no-sectorizado", "calificacion": "sin-asignar", "version": "vigente", "fuente": "SIT-CAM WFS — UsoDelSuelo:VPLA_V_CLASIFICACION (https://idem.comunidad.madrid/geosrvg/ows)", "fecha_dato": "2026-05-12", "ambito": "18899", "_raw_CD_SIGLAS": "SUBNS", "_raw_DS_CLASIF_GEN": "Suelo No Urbanizable Común", "_raw_DS_CLASIF_DET": "Suelo No Urbanizable Común", "_raw_DS_DOCU": "NORMAS SUBSIDIARIAS", "_raw_DS_LEY": "CM Ley 4/1984, E Ley 8/1990", "_raw_FC_AC": "1992-07-23", "_raw_NM_AREA_M2": 867533.11711780704, "_cam_code": "073" }, "geometry": { "type": "Polygon", "coordinates": [ [ [ -3.8343, 40.2503 ], [ -3.8349, 40.2503 ], [ -3.8356, 40.2501 ], [ -3.8375, 40.2491 ], [ -3.8381, 40.2486 ], [ -3.8384, 40.248 ], [ -3.8385, 40.248 ], [ -3.8386, 40.2465 ], [ -3.8388, 40.2463 ], [ -3.8394, 40.2462 ], [ -3.8394, 40.2461 ], [ -3.8403, 40.2461 ], [ -3.8416, 40.2457 ], [ -3.8419, 40.2452 ], [ -3.8441, 40.2431 ], [ -3.8446, 40.2422 ], [ -3.8451, 40.2418 ], [ -3.8471, 40.2418 ], [ -3.8471, 40.2417 ], [ -3.8476, 40.2417 ], [ -3.8476, 40.2416 ], [ -3.8501, 40.2416 ], [ -3.8502, 40.2415 ], [ -3.8517, 40.2415 ], [ -3.8518, 40.2416 ], [ -3.8523, 40.2416 ], [ -3.8523, 40.2417 ], [ -3.8526, 40.2416 ], [ -3.8526, 40.2416 ], [ -3.8527, 40.2416 ], [ -3.8527, 40.2416 ], [ -3.8528, 40.2416 ], [ -3.8528, 40.2416 ], [ -3.8528, 40.2416 ], [ -3.8529, 40.2416 ], [ -3.853, 40.2416 ], [ -3.853, 40.2417 ], [ -3.8529, 40.2417 ], [ -3.8527, 40.2417 ], [ -3.8526, 40.2418 ], [ -3.8517, 40.2417 ], [ -3.8517, 40.2416 ], [ -3.8502, 40.2416 ], [ -3.8502, 40.2417 ], [ -3.8477, 40.2417 ], [ -3.8471, 40.2419 ], [ -3.8452, 40.2419 ], [ -3.8452, 40.242 ], [ -3.8449, 40.242 ], [ -3.8443, 40.2431 ], [ -3.8414, 40.2459 ], [ -3.8433, 40.2459 ], [ -3.8448, 40.2457 ], [ -3.8486, 40.2444 ], [ -3.8488, 40.2445 ], [ -3.8491, 40.2444 ], [ -3.8516, 40.2444 ], [ -3.8536, 40.2442 ], [ -3.8532, 40.2429 ], [ -3.8532, 40.2427 ], [ -3.8529, 40.2413 ], [ -3.8529, 40.2411 ], [ -3.8519, 40.2393 ], [ -3.8518, 40.2379 ], [ -3.8515, 40.2364 ], [ -3.8492, 40.2358 ], [ -3.8483, 40.2351 ], [ -3.8422, 40.2416 ], [ -3.8343, 40.2503 ] ] ] } },
{ "type": "Feature", "properties": { "municipio": "Humanes de Madrid", "clasificacion": "urbanizable-no-sectorizado", "calificacion": "sin-asignar", "version": "vigente", "fuente": "SIT-CAM WFS — UsoDelSuelo:VPLA_V_CLASIFICACION (https://idem.comunidad.madrid/geosrvg/ows)", "fecha_dato": "2026-05-12", "ambito": "18899", "_raw_CD_SIGLAS": "SUBNS", "_raw_DS_CLASIF_GEN": "Suelo No Urbanizable Común", "_raw_DS_CLASIF_DET": "Suelo No Urbanizable Común", "_raw_DS_DOCU": "NORMAS SUBSIDIARIAS", "_raw_DS_LEY": "CM Ley 4/1984, E Ley 8/1990", "_raw_FC_AC": "1992-07-23", "_raw_NM_AREA_M2": 490432.11679022899, "_cam_code": "073" }, "geometry": { "type": "Polygon", "coordinates": [ [ [ -3.8535, 40.2457 ], [ -3.8534, 40.2459 ], [ -3.8494, 40.2467 ], [ -3.8483, 40.247 ], [ -3.8474, 40.2474 ], [ -3.8459, 40.2477 ], [ -3.8445, 40.2479 ], [ -3.8408, 40.2479 ], [ -3.8388, 40.2482 ], [ -3.8383, 40.2484 ], [ -3.8381, 40.2488 ], [ -3.8365, 40.2498 ], [ -3.8365, 40.2499 ], [ -3.8385, 40.2498 ], [ -3.839, 40.25 ], [ -3.8418, 40.25 ], [ -3.8438, 40.2506 ], [ -3.8455, 40.2506 ], [ -3.8469, 40.2509 ], [ -3.8491, 40.251 ], [ -3.8492, 40.2511 ], [ -3.8504, 40.251 ], [ -3.8524, 40.2514 ], [ -3.8531, 40.2514 ], [ -3.8533, 40.251 ], [ -3.8537, 40.2492 ], [ -3.8537, 40.2469 ], [ -3.8535, 40.2457 ] ] ] } },
{ "type": "Feature", "properties": { "municipio": "Humanes de Madrid", "clasificacion": "urbanizable-no-sectorizado", "calificacion": "sin-asignar", "version": "vigente", "fuente": "SIT-CAM WFS — UsoDelSuelo:VPLA_V_CLASIFICACION (https://idem.comunidad.madrid/geosrvg/ows)", "fecha_dato": "2026-05-12", "ambito": "18899", "_raw_CD_SIGLAS": "SUBNS", "_raw_DS_CLASIF_GEN": "Suelo No Urbanizable Común", "_raw_DS_CLASIF_DET": "Suelo No Urbanizable Común", "_raw_DS_DOCU": "NORMAS SUBSIDIARIAS", "_raw_DS_LEY": "CM Ley 4/1984, E Ley 8/1990", "_raw_FC_AC": "1992-07-23", "_raw_NM_AREA_M2": 180897.56570944501, "_cam_code": "073" }, "geometry": { "type": "Polygon", "coordinates": [ [ [ -3.835, 40.239 ], [ -3.8349, 40.2391 ], [ -3.8349, 40.24 ], [ -3.8344, 40.2411 ], [ -3.8361, 40.2419 ], [ -3.836, 40.2419 ], [ -3.8344, 40.2447 ], [ -3.8358, 40.2434 ], [ -3.8363, 40.2432 ], [ -3.8367, 40.2428 ], [ -3.8371, 40.2427 ], [ -3.8375, 40.2423 ], [ -3.8377, 40.2423 ], [ -3.8382, 40.2418 ], [ -3.8384, 40.2418 ], [ -3.8389, 40.2414 ], [ -3.8395, 40.2412 ], [ -3.8396, 40.241 ], [ -3.8398, 40.241 ], [ -3.8401, 40.2407 ], [ -3.8403, 40.2407 ], [ -3.8405, 40.2404 ], [ -3.8408, 40.2403 ], [ -3.8414, 40.2397 ], [ -3.8414, 40.2396 ], [ -3.8411, 40.2395 ], [ -3.8398, 40.2392 ], [ -3.8399, 40.2389 ], [ -3.838, 40.2389 ], [ -3.8368, 40.2387 ], [ -3.8362, 40.2385 ], [ -3.8362, 40.2384 ], [ -3.8352, 40.2382 ], [ -3.8352, 40.2381 ], [ -3.835, 40.2382 ], [ -3.835, 40.239 ] ] ] } },
{ "type": "Feature", "properties": { "municipio": "Humanes de Madrid", "clasificacion": "urbanizable-no-sectorizado", "calificacion": "sin-asignar", "version": "vigente", "fuente": "SIT-CAM WFS — UsoDelSuelo:VPLA_V_CLASIFICACION (https://idem.comunidad.madrid/geosrvg/ows)", "fecha_dato": "2026-05-12", "ambito": "18899", "_raw_CD_SIGLAS": "SUBNS", "_raw_DS_CLASIF_GEN": "Suelo No Urbanizable Común", "_raw_DS_CLASIF_DET": "Suelo No Urbanizable Común", "_raw_DS_DOCU": "NORMAS SUBSIDIARIAS", "_raw_DS_LEY": "CM Ley 4/1984, E Ley 8/1990", "_raw_FC_AC": "1992-07-23", "_raw_NM_AREA_M2": 317680.33788504999, "_cam_code": "073" }, "geometry": { "type": "Polygon", "coordinates": [ [ [ -3.8193, 40.2364 ], [ -3.8193, 40.2365 ], [ -3.8198, 40.237 ], [ -3.8201, 40.2376 ], [ -3.8203, 40.2387 ], [ -3.8208, 40.2395 ], [ -3.8213, 40.2399 ], [ -3.8218, 40.2409 ], [ -3.824, 40.244 ], [ -3.8247, 40.2449 ], [ -3.8253, 40.2453 ], [ -3.8254, 40.2445 ], [ -3.826, 40.2433 ], [ -3.826, 40.243 ], [ -3.8264, 40.242 ], [ -3.8265, 40.242 ], [ -3.8265, 40.2415 ], [ -3.8266, 40.2414 ], [ -3.8265, 40.2402 ], [ -3.8267, 40.2399 ], [ -3.8266, 40.2379 ], [ -3.827, 40.2374 ], [ -3.8256, 40.2371 ], [ -3.8256, 40.2372 ], [ -3.825, 40.2373 ], [ -3.8248, 40.2375 ], [ -3.8238, 40.2376 ], [ -3.8226, 40.2373 ], [ -3.8217, 40.2369 ], [ -3.8217, 40.2368 ], [ -3.8212, 40.2367 ], [ -3.8201, 40.2368 ], [ -3.8195, 40.2366 ], [ -3.8193, 40.2364 ] ] ] } },
{ "type": "Feature", "properties": { "municipio": "Humanes de Madrid", "clasificacion": "urbanizable-no-sectorizado", "calificacion": "sin-asignar", "version": "vigente", "fuente": "SIT-CAM WFS — UsoDelSuelo:VPLA_V_CLASIFICACION (https://idem.comunidad.madrid/geosrvg/ows)", "fecha_dato": "2026-05-12", "ambito": "18899", "_raw_CD_SIGLAS": "SUBNS", "_raw_DS_CLASIF_GEN": "Suelo No Urbanizable Común", "_raw_DS_CLASIF_DET": "Suelo No Urbanizable Común", "_raw_DS_DOCU": "NORMAS SUBSIDIARIAS", "_raw_DS_LEY": "CM Ley 4/1984, E Ley 8/1990", "_raw_FC_AC": "1992-07-23", "_raw_NM_AREA_M2": 469078.39492895699, "_cam_code": "073" }, "geometry": { "type": "Polygon", "coordinates": [ [ [ -3.8271, 40.2374 ], [ -3.8267, 40.238 ], [ -3.8267, 40.2387 ], [ -3.8268, 40.2387 ], [ -3.827, 40.2399 ], [ -3.8273, 40.2404 ], [ -3.8276, 40.2414 ], [ -3.8281, 40.2422 ], [ -3.8282, 40.2426 ], [ -3.8285, 40.2429 ], [ -3.8285, 40.2431 ], [ -3.8294, 40.2437 ], [ -3.8302, 40.2448 ], [ -3.8303, 40.2457 ], [ -3.833, 40.2461 ], [ -3.8332, 40.2458 ], [ -3.8332, 40.2448 ], [ -3.8338, 40.242 ], [ -3.8347, 40.2398 ], [ -3.8348, 40.2379 ], [ -3.8341, 40.2375 ], [ -3.8309, 40.2375 ], [ -3.8297, 40.2372 ], [ -3.8271, 40.2374 ] ] ] } },
{ "type": "Feature", "properties": { "municipio": "Humanes de Madrid", "clasificacion": "urbanizable-no-sectorizado", "calificacion": "sin-asignar", "version": "vigente", "fuente": "SIT-CAM WFS — UsoDelSuelo:VPLA_V_CLASIFICACION (https://idem.comunidad.madrid/geosrvg/ows)", "fecha_dato": "2026-05-12", "ambito": "18899", "_raw_CD_SIGLAS": "SUBNS", "_raw_DS_CLASIF_GEN": "Suelo No Urbanizable Común", "_raw_DS_CLASIF_DET": "Suelo No Urbanizable Común", "_raw_DS_DOCU": "NORMAS SUBSIDIARIAS", "_raw_DS_LEY": "CM Ley 4/1984, E Ley 8/1990", "_raw_FC_AC": "1992-07-23", "_raw_NM_AREA_M2": 621587.33998185897, "_cam_code": "073" }, "geometry": { "type": "Polygon", "coordinates": [ [ [ -3.8122, 40.2456 ], [ -3.8122, 40.245 ], [ -3.811, 40.2447 ], [ -3.8111, 40.2444 ], [ -3.8122, 40.2446 ], [ -3.8121, 40.2439 ], [ -3.8116, 40.2439 ], [ -3.8112, 40.2437 ], [ -3.8103, 40.2436 ], [ -3.8101, 40.2433 ], [ -3.8094, 40.2432 ], [ -3.8088, 40.2427 ], [ -3.8087, 40.242 ], [ -3.8084, 40.2415 ], [ -3.8079, 40.2412 ], [ -3.8074, 40.2404 ], [ -3.807, 40.2402 ], [ -3.8067, 40.2396 ], [ -3.8066, 40.2396 ], [ -3.8064, 40.2383 ], [ -3.8063, 40.2383 ], [ -3.8063, 40.2374 ], [ -3.8063, 40.2373 ], [ -3.8062, 40.2373 ], [ -3.8065, 40.2374 ], [ -3.8069, 40.2374 ], [ -3.8069, 40.2375 ], [ -3.8074, 40.2376 ], [ -3.8074, 40.2377 ], [ -3.8079, 40.2378 ], [ -3.8079, 40.2379 ], [ -3.8084, 40.238 ], [ -3.8084, 40.2381 ], [ -3.8092, 40.2384 ], [ -3.81, 40.239 ], [ -3.8125, 40.2394 ], [ -3.8125, 40.2395 ], [ -3.8134, 40.2395 ], [ -3.8134, 40.2396 ], [ -3.8139, 40.2396 ], [ -3.8141, 40.2398 ], [ -3.8147, 40.2398 ], [ -3.8155, 40.24 ], [ -3.8164, 40.2408 ], [ -3.8167, 40.2409 ], [ -3.8179, 40.2419 ], [ -3.8189, 40.2425 ], [ -3.823, 40.2464 ], [ -3.82, 40.2454 ], [ -3.8187, 40.2451 ], [ -3.8176, 40.2451 ], [ -3.8171, 40.2468 ], [ -3.8158, 40.2467 ], [ -3.8122, 40.246 ], [ -3.8122, 40.2456 ] ] ] } },
{ "type": "Feature", "properties": { "municipio": "Humanes de Madrid", "clasificacion": "urbanizable-no-sectorizado", "calificacion": "sin-asignar", "version": "vigente", "fuente": "SIT-CAM WFS — UsoDelSuelo:VPLA_V_CLASIFICACION (https://idem.comunidad.madrid/geosrvg/ows)", "fecha_dato": "2026-05-12", "ambito": "18899", "_raw_CD_SIGLAS": "SUBNS", "_raw_DS_CLASIF_GEN": "Suelo No Urbanizable Común", "_raw_DS_CLASIF_DET": "Suelo No Urbanizable Común", "_raw_DS_DOCU": "NORMAS SUBSIDIARIAS", "_raw_DS_LEY": "CM Ley 4/1984, E Ley 8/1990", "_raw_FC_AC": "1992-07-23", "_raw_NM_AREA_M2": 157697.22590528399, "_cam_code": "073" }, "geometry": { "type": "Polygon", "coordinates": [ [ [ -3.8022, 40.2369 ], [ -3.8016, 40.2377 ], [ -3.8014, 40.2382 ], [ -3.7982, 40.2385 ], [ -3.7962, 40.2389 ], [ -3.7971, 40.2408 ], [ -3.7976, 40.2422 ], [ -3.798, 40.2422 ], [ -3.7983, 40.2419 ], [ -3.7985, 40.2416 ], [ -3.7986, 40.2409 ], [ -3.7994, 40.2405 ], [ -3.7996, 40.2402 ], [ -3.8003, 40.24 ], [ -3.8017, 40.2399 ], [ -3.8018, 40.2398 ], [ -3.8031, 40.2398 ], [ -3.8041, 40.2395 ], [ -3.8041, 40.2393 ], [ -3.8042, 40.2393 ], [ -3.8041, 40.2388 ], [ -3.8022, 40.2369 ] ] ] } },
{ "type": "Feature", "properties": { "municipio": "Humanes de Madrid", "clasificacion": "urbanizable-no-sectorizado", "calificacion": "sin-asignar", "version": "vigente", "fuente": "SIT-CAM WFS — UsoDelSuelo:VPLA_V_CLASIFICACION (https://idem.comunidad.madrid/geosrvg/ows)", "fecha_dato": "2026-05-12", "ambito": "18899", "_raw_CD_SIGLAS": "SUBNS", "_raw_DS_CLASIF_GEN": "Suelo No Urbanizable Común", "_raw_DS_CLASIF_DET": "Suelo No Urbanizable Común", "_raw_DS_DOCU": "NORMAS SUBSIDIARIAS", "_raw_DS_LEY": "CM Ley 4/1984, E Ley 8/1990", "_raw_FC_AC": "1992-07-23", "_raw_NM_AREA_M2": 539327.866712471, "_cam_code": "073" }, "geometry": { "type": "Polygon", "coordinates": [ [ [ -3.8096, 40.2509 ], [ -3.8095, 40.2522 ], [ -3.81, 40.252 ], [ -3.8116, 40.2518 ], [ -3.8148, 40.2517 ], [ -3.8176, 40.2508 ], [ -3.8197, 40.2508 ], [ -3.8207, 40.2505 ], [ -3.8212, 40.2505 ], [ -3.8212, 40.2502 ], [ -3.8221, 40.2479 ], [ -3.8155, 40.2468 ], [ -3.8093, 40.2455 ], [ -3.8087, 40.2468 ], [ -3.8087, 40.2474 ], [ -3.8088, 40.2474 ], [ -3.809, 40.248 ], [ -3.8091, 40.248 ], [ -3.8091, 40.2483 ], [ -3.8095, 40.249 ], [ -3.8096, 40.25 ], [ -3.8097, 40.2501 ], [ -3.8097, 40.2508 ], [ -3.8096, 40.2509 ] ] ] } },
{ "type": "Feature", "properties": { "municipio": "Humanes de Madrid", "clasificacion": "urbanizable-no-sectorizado", "calificacion": "sin-asignar", "version": "vigente", "fuente": "SIT-CAM WFS — UsoDelSuelo:VPLA_V_CLASIFICACION (https://idem.comunidad.madrid/geosrvg/ows)", "fecha_dato": "2026-05-12", "ambito": "18899", "_raw_CD_SIGLAS": "SUBNS", "_raw_DS_CLASIF_GEN": "Suelo No Urbanizable Común", "_raw_DS_CLASIF_DET": "Suelo No Urbanizable Común", "_raw_DS_DOCU": "NORMAS SUBSIDIARIAS", "_raw_DS_LEY": "CM Ley 4/1984, E Ley 8/1990", "_raw_FC_AC": "1992-07-23", "_raw_NM_AREA_M2": 519006.30862550298, "_cam_code": "073" }, "geometry": { "type": "Polygon", "coordinates": [ [ [ -3.8402, 40.2534 ], [ -3.8431, 40.2545 ], [ -3.8481, 40.2551 ], [ -3.8497, 40.2554 ], [ -3.85, 40.2556 ], [ -3.8515, 40.2533 ], [ -3.8516, 40.2529 ], [ -3.853, 40.2515 ], [ -3.8524, 40.2515 ], [ -3.8504, 40.2511 ], [ -3.8492, 40.2512 ], [ -3.8491, 40.2511 ], [ -3.8469, 40.251 ], [ -3.8455, 40.2507 ], [ -3.8438, 40.2507 ], [ -3.8418, 40.2501 ], [ -3.839, 40.2501 ], [ -3.8384, 40.2499 ], [ -3.8363, 40.25 ], [ -3.8363, 40.2522 ], [ -3.8361, 40.2526 ], [ -3.8407, 40.2531 ], [ -3.8449, 40.2532 ], [ -3.8476, 40.2537 ], [ -3.8478, 40.2533 ], [ -3.8478, 40.253 ], [ -3.8467, 40.2524 ], [ -3.8459, 40.2522 ], [ -3.846, 40.2521 ], [ -3.8472, 40.2525 ], [ -3.848, 40.2531 ], [ -3.8476, 40.2538 ], [ -3.8448, 40.2533 ], [ -3.8401, 40.2532 ], [ -3.8399, 40.2531 ], [ -3.8402, 40.2534 ] ] ] } },
{ "type": "Feature", "properties": { "municipio": "Humanes de Madrid", "clasificacion": "urbanizable-no-sectorizado", "calificacion": "sin-asignar", "version": "vigente", "fuente": "SIT-CAM WFS — UsoDelSuelo:VPLA_V_CLASIFICACION (https://idem.comunidad.madrid/geosrvg/ows)", "fecha_dato": "2026-05-12", "ambito": "18899", "_raw_CD_SIGLAS": "SUBNS", "_raw_DS_CLASIF_GEN": "Suelo No Urbanizable Común", "_raw_DS_CLASIF_DET": "Suelo No Urbanizable Común", "_raw_DS_DOCU": "NORMAS SUBSIDIARIAS", "_raw_DS_LEY": "CM Ley 4/1984, E Ley 8/1990", "_raw_FC_AC": "1992-07-23", "_raw_NM_AREA_M2": 404599.955050672, "_cam_code": "073" }, "geometry": { "type": "Polygon", "coordinates": [ [ [ -3.8078, 40.2547 ], [ -3.8072, 40.2554 ], [ -3.8072, 40.2559 ], [ -3.8074, 40.2561 ], [ -3.8082, 40.2561 ], [ -3.811, 40.2556 ], [ -3.8131, 40.2554 ], [ -3.8141, 40.2551 ], [ -3.8157, 40.2551 ], [ -3.8157, 40.255 ], [ -3.8163, 40.255 ], [ -3.8164, 40.2549 ], [ -3.8166, 40.255 ], [ -3.819, 40.255 ], [ -3.8192, 40.2541 ], [ -3.8207, 40.253 ], [ -3.8212, 40.2506 ], [ -3.82, 40.2508 ], [ -3.82, 40.2509 ], [ -3.8178, 40.2509 ], [ -3.8145, 40.2519 ], [ -3.8118, 40.2519 ], [ -3.8099, 40.2522 ], [ -3.8096, 40.2523 ], [ -3.8097, 40.2527 ], [ -3.8098, 40.2527 ], [ -3.8098, 40.2531 ], [ -3.8095, 40.2538 ], [ -3.8085, 40.2545 ], [ -3.8083, 40.2545 ], [ -3.8081, 40.2547 ], [ -3.8078, 40.2547 ] ] ] } },
{ "type": "Feature", "properties": { "municipio": "Humanes de Madrid", "clasificacion": "urbanizable-no-sectorizado", "calificacion": "sin-asignar", "version": "vigente", "fuente": "SIT-CAM WFS — UsoDelSuelo:VPLA_V_CLASIFICACION (https://idem.comunidad.madrid/geosrvg/ows)", "fecha_dato": "2026-05-12", "ambito": "18899", "_raw_CD_SIGLAS": "SUBNS", "_raw_DS_CLASIF_GEN": "Suelo No Urbanizable Común", "_raw_DS_CLASIF_DET": "Suelo No Urbanizable Común", "_raw_DS_DOCU": "NORMAS SUBSIDIARIAS", "_raw_DS_LEY": "CM Ley 4/1984, E Ley 8/1990", "_raw_FC_AC": "1992-07-23", "_raw_NM_AREA_M2": 760400.24718869699, "_cam_code": "073" }, "geometry": { "type": "Polygon", "coordinates": [ [ [ -3.8016, 40.2521 ], [ -3.803, 40.2554 ], [ -3.8046, 40.2573 ], [ -3.8049, 40.2569 ], [ -3.8049, 40.2567 ], [ -3.805, 40.2567 ], [ -3.805, 40.2561 ], [ -3.8059, 40.255 ], [ -3.806, 40.2544 ], [ -3.8067, 40.2543 ], [ -3.8067, 40.2542 ], [ -3.8074, 40.2542 ], [ -3.8075, 40.2541 ], [ -3.8075, 40.2535 ], [ -3.8081, 40.2535 ], [ -3.8081, 40.2534 ], [ -3.8089, 40.2532 ], [ -3.8089, 40.253 ], [ -3.8086, 40.2529 ], [ -3.8086, 40.2527 ], [ -3.8084, 40.2525 ], [ -3.8078, 40.2524 ], [ -3.8076, 40.2522 ], [ -3.8069, 40.252 ], [ -3.8067, 40.2518 ], [ -3.8065, 40.2518 ], [ -3.8064, 40.2516 ], [ -3.8051, 40.2513 ], [ -3.8051, 40.251 ], [ -3.8069, 40.251 ], [ -3.8084, 40.2504 ], [ -3.8084, 40.2501 ], [ -3.8079, 40.2497 ], [ -3.8079, 40.2492 ], [ -3.8076, 40.2491 ], [ -3.8063, 40.2492 ], [ -3.8059, 40.2491 ], [ -3.8059, 40.249 ], [ -3.8056, 40.249 ], [ -3.8056, 40.2489 ], [ -3.8061, 40.2488 ], [ -3.8061, 40.2487 ], [ -3.8062, 40.2488 ], [ -3.8074, 40.2488 ], [ -3.8075, 40.2487 ], [ -3.8071, 40.2475 ], [ -3.8067, 40.2473 ], [ -3.8064, 40.2473 ], [ -3.8064, 40.2471 ], [ -3.807, 40.2469 ], [ -3.8073, 40.2466 ], [ -3.8072, 40.246 ], [ -3.8075, 40.2457 ], [ -3.8075, 40.2451 ], [ -3.8074, 40.2451 ], [ -3.8069, 40.2439 ], [ -3.8055, 40.2433 ], [ -3.8025, 40.2434 ], [ -3.8009, 40.2436 ], [ -3.7996, 40.2435 ], [ -3.7995, 40.2436 ], [ -3.7982, 40.2437 ], [ -3.799, 40.2459 ], [ -3.8001, 40.2477 ], [ -3.8016, 40.2521 ] ] ] } },
{ "type": "Feature", "properties": { "municipio": "Humanes de Madrid", "clasificacion": "urbanizable-no-sectorizado", "calificacion": "sin-asignar", "version": "vigente", "fuente": "SIT-CAM WFS — UsoDelSuelo:VPLA_V_CLASIFICACION (https://idem.comunidad.madrid/geosrvg/ows)", "fecha_dato": "2026-05-12", "ambito": "18899", "_raw_CD_SIGLAS": "SUBNS", "_raw_DS_CLASIF_GEN": "Suelo No Urbanizable Común", "_raw_DS_CLASIF_DET": "Suelo No Urbanizable Común", "_raw_DS_DOCU": "NORMAS SUBSIDIARIAS", "_raw_DS_LEY": "CM Ley 4/1984, E Ley 8/1990", "_raw_FC_AC": "1992-07-23", "_raw_NM_AREA_M2": 947002.80313266395, "_cam_code": "073" }, "geometry": { "type": "Polygon", "coordinates": [ [ [ -3.8402, 40.2606 ], [ -3.8429, 40.2611 ], [ -3.8436, 40.2611 ], [ -3.8436, 40.261 ], [ -3.844, 40.261 ], [ -3.845, 40.2607 ], [ -3.8465, 40.2607 ], [ -3.8465, 40.2608 ], [ -3.8479, 40.2608 ], [ -3.8481, 40.2609 ], [ -3.8495, 40.2576 ], [ -3.8495, 40.2566 ], [ -3.85, 40.2557 ], [ -3.8486, 40.2553 ], [ -3.8477, 40.2553 ], [ -3.8425, 40.2545 ], [ -3.8415, 40.2542 ], [ -3.8394, 40.2531 ], [ -3.8364, 40.2527 ], [ -3.836, 40.2527 ], [ -3.8359, 40.253 ], [ -3.8346, 40.2548 ], [ -3.8329, 40.2541 ], [ -3.8315, 40.2533 ], [ -3.8309, 40.2539 ], [ -3.8311, 40.254 ], [ -3.8322, 40.2555 ], [ -3.8332, 40.2574 ], [ -3.8344, 40.2585 ], [ -3.8367, 40.2598 ], [ -3.8392, 40.2602 ], [ -3.8402, 40.2605 ], [ -3.8402, 40.2606 ] ] ] } },
{ "type": "Feature", "properties": { "municipio": "Humanes de Madrid", "clasificacion": "urbanizable-no-sectorizado", "calificacion": "sin-asignar", "version": "vigente", "fuente": "SIT-CAM WFS — UsoDelSuelo:VPLA_V_CLASIFICACION (https://idem.comunidad.madrid/geosrvg/ows)", "fecha_dato": "2026-05-12", "ambito": "18899", "_raw_CD_SIGLAS": "SUBNS", "_raw_DS_CLASIF_GEN": "Suelo No Urbanizable Común", "_raw_DS_CLASIF_DET": "Suelo No Urbanizable Común", "_raw_DS_DOCU": "NORMAS SUBSIDIARIAS", "_raw_DS_LEY": "CM Ley 4/1984, E Ley 8/1990", "_raw_FC_AC": "1992-07-23", "_raw_NM_AREA_M2": 87512.262964452806, "_cam_code": "073" }, "geometry": { "type": "Polygon", "coordinates": [ [ [ -3.8303, 40.2546 ], [ -3.8303, 40.2549 ], [ -3.831, 40.2564 ], [ -3.8311, 40.2569 ], [ -3.832, 40.2585 ], [ -3.8323, 40.2596 ], [ -3.8327, 40.2603 ], [ -3.8334, 40.2609 ], [ -3.8338, 40.2601 ], [ -3.8336, 40.2583 ], [ -3.8331, 40.2575 ], [ -3.8327, 40.2565 ], [ -3.8311, 40.2543 ], [ -3.8308, 40.254 ], [ -3.8303, 40.2546 ] ] ] } },
{ "type": "Feature", "properties": { "municipio": "Humanes de Madrid", "clasificacion": "urbanizable-no-sectorizado", "calificacion": "sin-asignar", "version": "vigente", "fuente": "SIT-CAM WFS — UsoDelSuelo:VPLA_V_CLASIFICACION (https://idem.comunidad.madrid/geosrvg/ows)", "fecha_dato": "2026-05-12", "ambito": "18899", "_raw_CD_SIGLAS": "SUBNS", "_raw_DS_CLASIF_GEN": "Suelo No Urbanizable Común", "_raw_DS_CLASIF_DET": "Suelo No Urbanizable Común", "_raw_DS_DOCU": "NORMAS SUBSIDIARIAS", "_raw_DS_LEY": "CM Ley 4/1984, E Ley 8/1990", "_raw_FC_AC": "1992-07-23", "_raw_NM_AREA_M2": 682604.22454215097, "_cam_code": "073" }, "geometry": { "type": "Polygon", "coordinates": [ [ [ -3.8377, 40.2702 ], [ -3.8375, 40.2707 ], [ -3.8344, 40.2714 ], [ -3.8353, 40.2734 ], [ -3.8362, 40.2742 ], [ -3.8376, 40.2767 ], [ -3.8395, 40.277 ], [ -3.8397, 40.2764 ], [ -3.8398, 40.2753 ], [ -3.8408, 40.2741 ], [ -3.8415, 40.2728 ], [ -3.8429, 40.2687 ], [ -3.8448, 40.2659 ], [ -3.845, 40.2654 ], [ -3.8473, 40.2625 ], [ -3.8481, 40.261 ], [ -3.8459, 40.2608 ], [ -3.845, 40.2608 ], [ -3.8437, 40.2612 ], [ -3.8425, 40.2612 ], [ -3.8416, 40.261 ], [ -3.8406, 40.2631 ], [ -3.8413, 40.2631 ], [ -3.8415, 40.2643 ], [ -3.8408, 40.2646 ], [ -3.8409, 40.2649 ], [ -3.8408, 40.2655 ], [ -3.8409, 40.2658 ], [ -3.8408, 40.2668 ], [ -3.8409, 40.2681 ], [ -3.8408, 40.2685 ], [ -3.841, 40.2691 ], [ -3.8408, 40.2692 ], [ -3.8396, 40.2691 ], [ -3.8385, 40.2693 ], [ -3.8383, 40.2703 ], [ -3.8377, 40.2702 ] ] ] } },
{ "type": "Feature", "properties": { "municipio": "Humanes de Madrid", "clasificacion": "urbanizable-no-sectorizado", "calificacion": "sin-asignar", "version": "vigente", "fuente": "SIT-CAM WFS — UsoDelSuelo:VPLA_V_CLASIFICACION (https://idem.comunidad.madrid/geosrvg/ows)", "fecha_dato": "2026-05-12", "ambito": "18899", "_raw_CD_SIGLAS": "SUBNS", "_raw_DS_CLASIF_GEN": "Suelo No Urbanizable Común", "_raw_DS_CLASIF_DET": "Suelo No Urbanizable Común", "_raw_DS_DOCU": "NORMAS SUBSIDIARIAS", "_raw_DS_LEY": "CM Ley 4/1984, E Ley 8/1990", "_raw_FC_AC": "1992-07-23", "_raw_NM_AREA_M2": 1220463.7123994001, "_cam_code": "073" }, "geometry": { "type": "Polygon", "coordinates": [ [ [ -3.822, 40.2636 ], [ -3.8265, 40.2651 ], [ -3.8269, 40.2655 ], [ -3.8274, 40.2664 ], [ -3.8279, 40.267 ], [ -3.8281, 40.268 ], [ -3.8288, 40.2688 ], [ -3.829, 40.2705 ], [ -3.829, 40.2727 ], [ -3.8284, 40.2774 ], [ -3.8288, 40.2774 ], [ -3.8301, 40.277 ], [ -3.831, 40.2771 ], [ -3.832, 40.277 ], [ -3.8348, 40.2771 ], [ -3.8367, 40.2769 ], [ -3.8375, 40.2767 ], [ -3.8374, 40.2767 ], [ -3.8365, 40.2751 ], [ -3.8364, 40.2747 ], [ -3.8359, 40.274 ], [ -3.8353, 40.2736 ], [ -3.8343, 40.2714 ], [ -3.8332, 40.2717 ], [ -3.8326, 40.2718 ], [ -3.8325, 40.2717 ], [ -3.8312, 40.2683 ], [ -3.833, 40.2676 ], [ -3.8326, 40.2665 ], [ -3.8324, 40.2652 ], [ -3.8329, 40.2637 ], [ -3.833, 40.2618 ], [ -3.8333, 40.261 ], [ -3.8324, 40.2602 ], [ -3.832, 40.2592 ], [ -3.832, 40.2589 ], [ -3.8308, 40.2565 ], [ -3.8303, 40.255 ], [ -3.8302, 40.255 ], [ -3.8302, 40.2547 ], [ -3.822, 40.2636 ] ] ] } },
{ "type": "Feature", "properties": { "municipio": "Humanes de Madrid", "clasificacion": "urbanizable-no-sectorizado", "calificacion": "sin-asignar", "version": "vigente", "fuente": "SIT-CAM WFS — UsoDelSuelo:VPLA_V_CLASIFICACION (https://idem.comunidad.madrid/geosrvg/ows)", "fecha_dato": "2026-05-12", "ambito": "18899", "_raw_CD_SIGLAS": "SUBNS", "_raw_DS_CLASIF_GEN": "Suelo No Urbanizable Común", "_raw_DS_CLASIF_DET": "Suelo No Urbanizable Común", "_raw_DS_DOCU": "NORMAS SUBSIDIARIAS", "_raw_DS_LEY": "CM Ley 4/1984, E Ley 8/1990", "_raw_FC_AC": "1992-07-23", "_raw_NM_AREA_M2": 84125.234983041897, "_cam_code": "073" }, "geometry": { "type": "Polygon", "coordinates": [ [ [ -3.8344, 40.2623 ], [ -3.8363, 40.2624 ], [ -3.8363, 40.2597 ], [ -3.8353, 40.2592 ], [ -3.8335, 40.2579 ], [ -3.8337, 40.2582 ], [ -3.8339, 40.259 ], [ -3.8339, 40.2602 ], [ -3.8334, 40.261 ], [ -3.8335, 40.261 ], [ -3.8333, 40.2615 ], [ -3.8337, 40.2624 ], [ -3.8344, 40.2623 ] ] ] } },
{ "type": "Feature", "properties": { "municipio": "Humanes de Madrid", "clasificacion": "urbanizable-sectorizado", "calificacion": "sin-asignar", "version": "vigente", "fuente": "SIT-CAM WFS — UsoDelSuelo:VPLA_V_CLASIFICACION (https://idem.comunidad.madrid/geosrvg/ows)", "fecha_dato": "2026-05-12", "ambito": "18899", "_raw_CD_SIGLAS": "SUBS", "_raw_DS_CLASIF_GEN": "Suelo Urbanizable Sectorizado", "_raw_DS_CLASIF_DET": "Suelo Urbanizable", "_raw_DS_DOCU": "NORMAS SUBSIDIARIAS", "_raw_DS_LEY": "CM Ley 4/1984, E Ley 8/1990", "_raw_FC_AC": "1992-07-23", "_raw_NM_AREA_M2": 284393.72612955701, "_cam_code": "073" }, "geometry": { "type": "Polygon", "coordinates": [ [ [ -3.8145, 40.2666 ], [ -3.8134, 40.2676 ], [ -3.8142, 40.2681 ], [ -3.8134, 40.2689 ], [ -3.8134, 40.2714 ], [ -3.8136, 40.2714 ], [ -3.8211, 40.2633 ], [ -3.8216, 40.2629 ], [ -3.8223, 40.262 ], [ -3.8212, 40.2616 ], [ -3.8219, 40.261 ], [ -3.8205, 40.2604 ], [ -3.8196, 40.2614 ], [ -3.8169, 40.2638 ], [ -3.8176, 40.2642 ], [ -3.8172, 40.2646 ], [ -3.8163, 40.2643 ], [ -3.8146, 40.2659 ], [ -3.8145, 40.2661 ], [ -3.8146, 40.2662 ], [ -3.8157, 40.2668 ], [ -3.8153, 40.2671 ], [ -3.8145, 40.2666 ] ] ] } },
{ "type": "Feature", "properties": { "municipio": "Humanes de Madrid", "clasificacion": "urbanizable-sectorizado", "calificacion": "sin-asignar", "version": "vigente", "fuente": "SIT-CAM WFS — UsoDelSuelo:VPLA_V_CLASIFICACION (https://idem.comunidad.madrid/geosrvg/ows)", "fecha_dato": "2026-05-12", "ambito": "18899", "_raw_CD_SIGLAS": "SUBS", "_raw_DS_CLASIF_GEN": "Suelo Urbanizable Sectorizado", "_raw_DS_CLASIF_DET": "Suelo Urbanizable", "_raw_DS_DOCU": "NORMAS SUBSIDIARIAS", "_raw_DS_LEY": "CM Ley 4/1984, E Ley 8/1990", "_raw_FC_AC": "1992-07-23", "_raw_NM_AREA_M2": 336445.295625775, "_cam_code": "073" }, "geometry": { "type": "Polygon", "coordinates": [ [ [ -3.8214, 40.2634 ], [ -3.8147, 40.2707 ], [ -3.8178, 40.271 ], [ -3.8181, 40.2709 ], [ -3.819, 40.2701 ], [ -3.8189, 40.2699 ], [ -3.819, 40.2695 ], [ -3.8217, 40.2692 ], [ -3.8219, 40.2686 ], [ -3.8224, 40.2687 ], [ -3.8231, 40.2678 ], [ -3.8225, 40.2679 ], [ -3.8219, 40.2678 ], [ -3.8221, 40.2667 ], [ -3.8224, 40.2667 ], [ -3.8225, 40.2661 ], [ -3.823, 40.2661 ], [ -3.823, 40.2653 ], [ -3.8234, 40.2653 ], [ -3.8234, 40.265 ], [ -3.8246, 40.2653 ], [ -3.8245, 40.2664 ], [ -3.8248, 40.2664 ], [ -3.8244, 40.2668 ], [ -3.8275, 40.2674 ], [ -3.828, 40.2674 ], [ -3.8279, 40.267 ], [ -3.8274, 40.2664 ], [ -3.8269, 40.2655 ], [ -3.8265, 40.2651 ], [ -3.8214, 40.2634 ] ] ] } },
{ "type": "Feature", "properties": { "municipio": "Humanes de Madrid", "clasificacion": "urbanizable-sectorizado", "calificacion": "sin-asignar", "version": "vigente", "fuente": "SIT-CAM WFS — UsoDelSuelo:VPLA_V_CLASIFICACION (https://idem.comunidad.madrid/geosrvg/ows)", "fecha_dato": "2026-05-12", "ambito": "18899", "_raw_CD_SIGLAS": "SUBS", "_raw_DS_CLASIF_GEN": "Suelo Urbanizable Sectorizado", "_raw_DS_CLASIF_DET": "Suelo Urbanizable", "_raw_DS_DOCU": "NORMAS SUBSIDIARIAS", "_raw_DS_LEY": "CM Ley 4/1984, E Ley 8/1990", "_raw_FC_AC": "1992-07-23", "_raw_NM_AREA_M2": 137373.796196034, "_cam_code": "073" }, "geometry": { "type": "Polygon", "coordinates": [ [ [ -3.8158, 40.2602 ], [ -3.818, 40.2611 ], [ -3.8189, 40.26 ], [ -3.8198, 40.2586 ], [ -3.8208, 40.2577 ], [ -3.8224, 40.2568 ], [ -3.8218, 40.2564 ], [ -3.8208, 40.256 ], [ -3.8205, 40.2564 ], [ -3.8193, 40.2572 ], [ -3.8187, 40.2565 ], [ -3.8185, 40.256 ], [ -3.8164, 40.2561 ], [ -3.8164, 40.2565 ], [ -3.8174, 40.2571 ], [ -3.8165, 40.2602 ], [ -3.8158, 40.26 ], [ -3.8158, 40.2602 ] ] ] } },
{ "type": "Feature", "properties": { "municipio": "Humanes de Madrid", "clasificacion": "urbanizable-sectorizado", "calificacion": "sin-asignar", "version": "vigente", "fuente": "SIT-CAM WFS — UsoDelSuelo:VPLA_V_CLASIFICACION (https://idem.comunidad.madrid/geosrvg/ows)", "fecha_dato": "2026-05-12", "ambito": "18899", "_raw_CD_SIGLAS": "SUBS", "_raw_DS_CLASIF_GEN": "Suelo Urbanizable Sectorizado", "_raw_DS_CLASIF_DET": "Suelo Urbanizable", "_raw_DS_DOCU": "NORMAS SUBSIDIARIAS", "_raw_DS_LEY": "CM Ley 4/1984, E Ley 8/1990", "_raw_FC_AC": "1992-07-23", "_raw_NM_AREA_M2": 372732.30801675702, "_cam_code": "073" }, "geometry": { "type": "Polygon", "coordinates": [ [ [ -3.8246, 40.2554 ], [ -3.8249, 40.2559 ], [ -3.8257, 40.255 ], [ -3.8267, 40.2542 ], [ -3.8262, 40.2538 ], [ -3.8264, 40.2536 ], [ -3.826, 40.2534 ], [ -3.8261, 40.2532 ], [ -3.8264, 40.2531 ], [ -3.8267, 40.2532 ], [ -3.827, 40.2535 ], [ -3.8273, 40.2536 ], [ -3.828, 40.2529 ], [ -3.8271, 40.2525 ], [ -3.8271, 40.2524 ], [ -3.8262, 40.2522 ], [ -3.8263, 40.2519 ], [ -3.827, 40.2521 ], [ -3.8279, 40.2512 ], [ -3.8271, 40.2506 ], [ -3.8267, 40.251 ], [ -3.8264, 40.2508 ], [ -3.8268, 40.2504 ], [ -3.8264, 40.2502 ], [ -3.8259, 40.2496 ], [ -3.8267, 40.2493 ], [ -3.8258, 40.2482 ], [ -3.8253, 40.2485 ], [ -3.8248, 40.2483 ], [ -3.8246, 40.2484 ], [ -3.8243, 40.2483 ], [ -3.8247, 40.2479 ], [ -3.8233, 40.248 ], [ -3.8221, 40.2479 ], [ -3.8212, 40.2502 ], [ -3.8212, 40.2507 ], [ -3.8207, 40.253 ], [ -3.8192, 40.2541 ], [ -3.8191, 40.2543 ], [ -3.8212, 40.2547 ], [ -3.8221, 40.2537 ], [ -3.8224, 40.2536 ], [ -3.8228, 40.2539 ], [ -3.8224, 40.2543 ], [ -3.8238, 40.2557 ], [ -3.8241, 40.2556 ], [ -3.8241, 40.2555 ], [ -3.8246, 40.2554 ] ] ] } },
{ "type": "Feature", "properties": { "municipio": "Humanes de Madrid", "clasificacion": "urbanizable-sectorizado", "calificacion": "sin-asignar", "version": "vigente", "fuente": "SIT-CAM WFS — UsoDelSuelo:VPLA_V_CLASIFICACION (https://idem.comunidad.madrid/geosrvg/ows)", "fecha_dato": "2026-05-12", "ambito": "18899", "_raw_CD_SIGLAS": "SUBS", "_raw_DS_CLASIF_GEN": "Suelo Urbanizable Sectorizado", "_raw_DS_CLASIF_DET": "Suelo Urbanizable", "_raw_DS_DOCU": "NORMAS SUBSIDIARIAS", "_raw_DS_LEY": "CM Ley 4/1984, E Ley 8/1990", "_raw_FC_AC": "1992-07-23", "_raw_NM_AREA_M2": 4117.9000172387296, "_cam_code": "073" }, "geometry": { "type": "Polygon", "coordinates": [ [ [ -3.8162, 40.2558 ], [ -3.8167, 40.2558 ], [ -3.8166, 40.255 ], [ -3.816, 40.2551 ], [ -3.8162, 40.2558 ] ] ] } },
{ "type": "Feature", "properties": { "municipio": "Humanes de Madrid", "clasificacion": "urbanizable-sectorizado", "calificacion": "sin-asignar", "version": "vigente", "fuente": "SIT-CAM WFS — UsoDelSuelo:VPLA_V_CLASIFICACION (https://idem.comunidad.madrid/geosrvg/ows)", "fecha_dato": "2026-05-12", "ambito": "18899", "_raw_CD_SIGLAS": "SUBS", "_raw_DS_CLASIF_GEN": "Suelo Urbanizable Sectorizado", "_raw_DS_CLASIF_DET": "Suelo Urbanizable", "_raw_DS_DOCU": "NORMAS SUBSIDIARIAS", "_raw_DS_LEY": "CM Ley 4/1984, E Ley 8/1990", "_raw_FC_AC": "1992-07-23", "_raw_NM_AREA_M2": 170039.99240185501, "_cam_code": "073" }, "geometry": { "type": "Polygon", "coordinates": [ [ [ -3.8253, 40.2467 ], [ -3.8245, 40.2471 ], [ -3.8252, 40.2476 ], [ -3.8267, 40.2482 ], [ -3.8308, 40.2493 ], [ -3.8314, 40.2496 ], [ -3.8332, 40.2465 ], [ -3.8331, 40.2465 ], [ -3.8331, 40.2461 ], [ -3.8302, 40.2457 ], [ -3.8265, 40.2471 ], [ -3.8261, 40.2471 ], [ -3.8253, 40.2467 ] ] ] } },
{ "type": "Feature", "properties": { "municipio": "Humanes de Madrid", "clasificacion": "urbanizable-sectorizado", "calificacion": "sin-asignar", "version": "vigente", "fuente": "SIT-CAM WFS — UsoDelSuelo:VPLA_V_CLASIFICACION (https://idem.comunidad.madrid/geosrvg/ows)", "fecha_dato": "2026-05-12", "ambito": "18899", "_raw_CD_SIGLAS": "SUBS", "_raw_DS_CLASIF_GEN": "Suelo Urbanizable Sectorizado", "_raw_DS_CLASIF_DET": "Suelo Urbanizable", "_raw_DS_DOCU": "NORMAS SUBSIDIARIAS", "_raw_DS_LEY": "CM Ley 4/1984, E Ley 8/1990", "_raw_FC_AC": "1992-07-23", "_raw_NM_AREA_M2": 52132.274726694901, "_cam_code": "073" }, "geometry": { "type": "Polygon", "coordinates": [ [ [ -3.8337, 40.2503 ], [ -3.8328, 40.2512 ], [ -3.8333, 40.2513 ], [ -3.8333, 40.2517 ], [ -3.835, 40.252 ], [ -3.8349, 40.2524 ], [ -3.8361, 40.2526 ], [ -3.8363, 40.2522 ], [ -3.8363, 40.25 ], [ -3.8344, 40.2506 ], [ -3.8339, 40.2505 ], [ -3.8337, 40.2503 ] ] ] } },
{ "type": "Feature", "properties": { "municipio": "Humanes de Madrid", "clasificacion": "urbanizable-sectorizado", "calificacion": "sin-asignar", "version": "vigente", "fuente": "SIT-CAM WFS — UsoDelSuelo:VPLA_V_CLASIFICACION (https://idem.comunidad.madrid/geosrvg/ows)", "fecha_dato": "2026-05-12", "ambito": "18899", "_raw_CD_SIGLAS": "SUBS", "_raw_DS_CLASIF_GEN": "Suelo Urbanizable Sectorizado", "_raw_DS_CLASIF_DET": "Suelo Urbanizable", "_raw_DS_DOCU": "NORMAS SUBSIDIARIAS", "_raw_DS_LEY": "CM Ley 4/1984, E Ley 8/1990", "_raw_FC_AC": "1992-07-23", "_raw_NM_AREA_M2": 328529.50214812299, "_cam_code": "073" }, "geometry": { "type": "Polygon", "coordinates": [ [ [ -3.8273, 40.2774 ], [ -3.8274, 40.2775 ], [ -3.8275, 40.2774 ], [ -3.8284, 40.2774 ], [ -3.829, 40.2727 ], [ -3.8289, 40.2691 ], [ -3.8248, 40.2706 ], [ -3.8259, 40.2707 ], [ -3.8258, 40.271 ], [ -3.8266, 40.2711 ], [ -3.8265, 40.2716 ], [ -3.8257, 40.2716 ], [ -3.8237, 40.272 ], [ -3.8237, 40.2725 ], [ -3.8236, 40.2725 ], [ -3.8235, 40.273 ], [ -3.8237, 40.2735 ], [ -3.8236, 40.2737 ], [ -3.8238, 40.274 ], [ -3.8229, 40.274 ], [ -3.8215, 40.2737 ], [ -3.8215, 40.2736 ], [ -3.8206, 40.2737 ], [ -3.8205, 40.2751 ], [ -3.821, 40.2754 ], [ -3.8239, 40.2756 ], [ -3.8239, 40.2759 ], [ -3.8241, 40.2759 ], [ -3.8241, 40.2756 ], [ -3.8247, 40.2756 ], [ -3.8248, 40.2753 ], [ -3.8252, 40.2752 ], [ -3.8262, 40.2753 ], [ -3.8262, 40.2758 ], [ -3.8266, 40.2758 ], [ -3.8265, 40.2774 ], [ -3.8273, 40.2774 ] ] ] } },
{ "type": "Feature", "properties": { "municipio": "Humanes de Madrid", "clasificacion": "urbanizable-sectorizado", "calificacion": "sin-asignar", "version": "vigente", "fuente": "SIT-CAM WFS — UsoDelSuelo:VPLA_V_CLASIFICACION (https://idem.comunidad.madrid/geosrvg/ows)", "fecha_dato": "2026-05-12", "ambito": "18899", "_raw_CD_SIGLAS": "SUBS", "_raw_DS_CLASIF_GEN": "Suelo Urbanizable Sectorizado", "_raw_DS_CLASIF_DET": "Suelo Urbanizable", "_raw_DS_DOCU": "NORMAS SUBSIDIARIAS", "_raw_DS_LEY": "CM Ley 4/1984, E Ley 8/1990", "_raw_FC_AC": "1992-07-23", "_raw_NM_AREA_M2": 52501.782301703599, "_cam_code": "073" }, "geometry": { "type": "Polygon", "coordinates": [ [ [ -3.832, 40.2501 ], [ -3.8324, 40.2501 ], [ -3.833, 40.2504 ], [ -3.833, 40.2505 ], [ -3.8358, 40.2474 ], [ -3.8335, 40.2468 ], [ -3.833, 40.2476 ], [ -3.8342, 40.2477 ], [ -3.8341, 40.2484 ], [ -3.8337, 40.2483 ], [ -3.8329, 40.2485 ], [ -3.833, 40.249 ], [ -3.8323, 40.249 ], [ -3.8314, 40.2501 ], [ -3.832, 40.2501 ] ] ] } }
]
}
