{
"type": "FeatureCollection",
"name": "vigente.full",
"features": [
{ "type": "Feature", "properties": { "municipio": "La Serna del Monte", "clasificacion": "no-urbanizable-protegido", "calificacion": "sin-asignar", "version": "vigente", "fuente": "SIT-CAM WFS — UsoDelSuelo:VPLA_V_CLASIFICACION (https://idem.comunidad.madrid/geosrvg/ows)", "fecha_dato": "2026-05-12", "ambito": "17694", "_raw_CD_SIGLAS": "SNUP", "_raw_DS_CLASIF_GEN": "Suelo No Urbanizable Protegido", "_raw_DS_CLASIF_DET": "Suelo No Urbanizable Especialmente Protegido por su interés Agropecuario y Paisajístico", "_raw_DS_DOCU": "NORMAS SUBSIDIARIAS", "_raw_DS_LEY": "CM Ley 4/1984, E RD 1346/1976", "_raw_FC_AC": "1992-03-13", "_raw_NM_AREA_M2": 2120.8496417957399, "_cam_code": "138" }, "geometry": { "type": "Polygon", "coordinates": [ [ [ -3.624, 41.0289 ], [ -3.6237, 41.0302 ], [ -3.6238, 41.0299 ], [ -3.6241, 41.0297 ], [ -3.6239, 41.0296 ], [ -3.6242, 41.0294 ], [ -3.624, 41.0293 ], [ -3.6242, 41.0291 ], [ -3.624, 41.0289 ] ] ] } },
{ "type": "Feature", "properties": { "municipio": "La Serna del Monte", "clasificacion": "no-urbanizable-protegido", "calificacion": "sin-asignar", "version": "vigente", "fuente": "SIT-CAM WFS — UsoDelSuelo:VPLA_V_CLASIFICACION (https://idem.comunidad.madrid/geosrvg/ows)", "fecha_dato": "2026-05-12", "ambito": "17694", "_raw_CD_SIGLAS": "SNUP", "_raw_DS_CLASIF_GEN": "Suelo No Urbanizable Protegido", "_raw_DS_CLASIF_DET": "Suelo No Urbanizable Especialmente Protegido por su interés Forestal y Paisajístico", "_raw_DS_DOCU": "NORMAS SUBSIDIARIAS", "_raw_DS_LEY": "CM Ley 4/1984, E RD 1346/1976", "_raw_FC_AC": "1992-03-13", "_raw_NM_AREA_M2": 30128.9459346533, "_cam_code": "138" }, "geometry": { "type": "Polygon", "coordinates": [ [ [ -3.621, 41.043 ], [ -3.6212, 41.0428 ], [ -3.6226, 41.0428 ], [ -3.6231, 41.0423 ], [ -3.6243, 41.0422 ], [ -3.6245, 41.0418 ], [ -3.6245, 41.0415 ], [ -3.624, 41.0407 ], [ -3.6235, 41.0421 ], [ -3.6234, 41.0422 ], [ -3.6232, 41.0421 ], [ -3.6228, 41.0422 ], [ -3.6227, 41.0417 ], [ -3.6222, 41.0408 ], [ -3.622, 41.0412 ], [ -3.6215, 41.0417 ], [ -3.621, 41.043 ] ] ] } },
{ "type": "Feature", "properties": { "municipio": "La Serna del Monte", "clasificacion": "no-urbanizable-protegido", "calificacion": "sin-asignar", "version": "vigente", "fuente": "SIT-CAM WFS — UsoDelSuelo:VPLA_V_CLASIFICACION (https://idem.comunidad.madrid/geosrvg/ows)", "fecha_dato": "2026-05-12", "ambito": "17694", "_raw_CD_SIGLAS": "SNUP", "_raw_DS_CLASIF_GEN": "Suelo No Urbanizable Protegido", "_raw_DS_CLASIF_DET": "Suelo No Urbanizable Especialmente Protegido por su interés Forestal y Paisajístico", "_raw_DS_DOCU": "NORMAS SUBSIDIARIAS", "_raw_DS_LEY": "CM Ley 4/1984, E RD 1346/1976", "_raw_FC_AC": "1992-03-13", "_raw_NM_AREA_M2": 445778.27732574398, "_cam_code": "138" }, "geometry": { "type": "Polygon", "coordinates": [ [ [ -3.6163, 41.0363 ], [ -3.6162, 41.0396 ], [ -3.6163, 41.0402 ], [ -3.6166, 41.0405 ], [ -3.6166, 41.0409 ], [ -3.6167, 41.0409 ], [ -3.6169, 41.0415 ], [ -3.6168, 41.0423 ], [ -3.6172, 41.0427 ], [ -3.6179, 41.0428 ], [ -3.6184, 41.0435 ], [ -3.6189, 41.0436 ], [ -3.6191, 41.0438 ], [ -3.6191, 41.044 ], [ -3.6194, 41.0442 ], [ -3.6202, 41.0432 ], [ -3.6221, 41.0397 ], [ -3.6225, 41.0392 ], [ -3.6228, 41.0391 ], [ -3.6235, 41.0381 ], [ -3.6236, 41.0372 ], [ -3.6238, 41.037 ], [ -3.6237, 41.0368 ], [ -3.6242, 41.0363 ], [ -3.6246, 41.0355 ], [ -3.6237, 41.035 ], [ -3.6229, 41.035 ], [ -3.6225, 41.0356 ], [ -3.6225, 41.0355 ], [ -3.622, 41.0354 ], [ -3.621, 41.0354 ], [ -3.6209, 41.0353 ], [ -3.6201, 41.0354 ], [ -3.6193, 41.0352 ], [ -3.6189, 41.0347 ], [ -3.6183, 41.036 ], [ -3.6163, 41.035 ], [ -3.6162, 41.0358 ], [ -3.6163, 41.0363 ] ] ] } },
{ "type": "Feature", "properties": { "municipio": "La Serna del Monte", "clasificacion": "no-urbanizable-protegido", "calificacion": "sin-asignar", "version": "vigente", "fuente": "SIT-CAM WFS — UsoDelSuelo:VPLA_V_CLASIFICACION (https://idem.comunidad.madrid/geosrvg/ows)", "fecha_dato": "2026-05-12", "ambito": "17694", "_raw_CD_SIGLAS": "SNUP", "_raw_DS_CLASIF_GEN": "Suelo No Urbanizable Protegido", "_raw_DS_CLASIF_DET": "Suelo No Urbanizable Especialmente Protegido por su interés Forestal y Paisajístico", "_raw_DS_DOCU": "NORMAS SUBSIDIARIAS", "_raw_DS_LEY": "CM Ley 4/1984, E RD 1346/1976", "_raw_FC_AC": "1992-03-13", "_raw_NM_AREA_M2": 64702.948722865003, "_cam_code": "138" }, "geometry": { "type": "Polygon", "coordinates": [ [ [ -3.6206, 41.0448 ], [ -3.62, 41.0462 ], [ -3.6201, 41.0464 ], [ -3.6207, 41.0464 ], [ -3.6212, 41.0459 ], [ -3.6216, 41.0458 ], [ -3.6217, 41.0455 ], [ -3.6219, 41.0455 ], [ -3.6223, 41.0452 ], [ -3.6228, 41.0446 ], [ -3.6235, 41.0436 ], [ -3.6235, 41.0431 ], [ -3.6234, 41.043 ], [ -3.6224, 41.043 ], [ -3.621, 41.0433 ], [ -3.6207, 41.0435 ], [ -3.62, 41.0447 ], [ -3.6205, 41.0447 ], [ -3.6206, 41.0448 ] ] ] } },
{ "type": "Feature", "properties": { "municipio": "La Serna del Monte", "clasificacion": "no-urbanizable-protegido", "calificacion": "sin-asignar", "version": "vigente", "fuente": "SIT-CAM WFS — UsoDelSuelo:VPLA_V_CLASIFICACION (https://idem.comunidad.madrid/geosrvg/ows)", "fecha_dato": "2026-05-12", "ambito": "17694", "_raw_CD_SIGLAS": "SNUP", "_raw_DS_CLASIF_GEN": "Suelo No Urbanizable Protegido", "_raw_DS_CLASIF_DET": "Suelo No Urbanizable Especialmente Protegido por su interés Forestal y Paisajístico", "_raw_DS_DOCU": "NORMAS SUBSIDIARIAS", "_raw_DS_LEY": "CM Ley 4/1984, E RD 1346/1976", "_raw_FC_AC": "1992-03-13", "_raw_NM_AREA_M2": 867905.71440056199, "_cam_code": "138" }, "geometry": { "type": "Polygon", "coordinates": [ [ [ -3.6245, 41.0439 ], [ -3.6233, 41.045 ], [ -3.6231, 41.045 ], [ -3.6227, 41.0453 ], [ -3.6224, 41.0457 ], [ -3.6225, 41.0462 ], [ -3.6224, 41.0477 ], [ -3.6228, 41.0487 ], [ -3.6226, 41.0488 ], [ -3.6227, 41.0489 ], [ -3.6227, 41.0494 ], [ -3.6225, 41.0496 ], [ -3.6226, 41.0507 ], [ -3.6225, 41.0515 ], [ -3.6219, 41.0526 ], [ -3.622, 41.0552 ], [ -3.6223, 41.0557 ], [ -3.6219, 41.0561 ], [ -3.6217, 41.0573 ], [ -3.6219, 41.0579 ], [ -3.6217, 41.0581 ], [ -3.6217, 41.0583 ], [ -3.6224, 41.0594 ], [ -3.6241, 41.0598 ], [ -3.6243, 41.06 ], [ -3.6243, 41.0602 ], [ -3.6232, 41.0618 ], [ -3.623, 41.0619 ], [ -3.6223, 41.0636 ], [ -3.6217, 41.0641 ], [ -3.6214, 41.0654 ], [ -3.6208, 41.066 ], [ -3.6205, 41.0667 ], [ -3.6201, 41.067 ], [ -3.619, 41.0684 ], [ -3.6169, 41.0699 ], [ -3.6198, 41.07 ], [ -3.6248, 41.0707 ], [ -3.6255, 41.0709 ], [ -3.6281, 41.0689 ], [ -3.6266, 41.0678 ], [ -3.6247, 41.065 ], [ -3.6246, 41.0641 ], [ -3.625, 41.0617 ], [ -3.6239, 41.055 ], [ -3.623, 41.0504 ], [ -3.6268, 41.0445 ], [ -3.6297, 41.0385 ], [ -3.629, 41.0386 ], [ -3.6287, 41.0388 ], [ -3.6286, 41.0391 ], [ -3.6279, 41.0392 ], [ -3.6274, 41.0397 ], [ -3.6266, 41.0402 ], [ -3.6265, 41.0404 ], [ -3.6264, 41.0401 ], [ -3.6258, 41.0401 ], [ -3.6255, 41.0403 ], [ -3.6244, 41.0403 ], [ -3.6242, 41.0405 ], [ -3.6247, 41.0414 ], [ -3.6246, 41.0424 ], [ -3.6254, 41.0436 ], [ -3.6259, 41.0437 ], [ -3.6271, 41.0433 ], [ -3.6269, 41.0436 ], [ -3.6255, 41.0439 ], [ -3.625, 41.0432 ], [ -3.6247, 41.0431 ], [ -3.6247, 41.0435 ], [ -3.6245, 41.0437 ], [ -3.6245, 41.0439 ] ] ] } },
{ "type": "Feature", "properties": { "municipio": "La Serna del Monte", "clasificacion": "no-urbanizable-protegido", "calificacion": "sin-asignar", "version": "vigente", "fuente": "SIT-CAM WFS — UsoDelSuelo:VPLA_V_CLASIFICACION (https://idem.comunidad.madrid/geosrvg/ows)", "fecha_dato": "2026-05-12", "ambito": "17694", "_raw_CD_SIGLAS": "SNUP", "_raw_DS_CLASIF_GEN": "Suelo No Urbanizable Protegido", "_raw_DS_CLASIF_DET": "Suelo No Urbanizable Especialmente Protegido por su Interés Paisajístico", "_raw_DS_DOCU": "NORMAS SUBSIDIARIAS", "_raw_DS_LEY": "CM Ley 4/1984, E RD 1346/1976", "_raw_FC_AC": "1992-03-13", "_raw_NM_AREA_M2": 23302.110449473101, "_cam_code": "138" }, "geometry": { "type": "Polygon", "coordinates": [ [ [ -3.6254, 41.0257 ], [ -3.6261, 41.026 ], [ -3.6265, 41.026 ], [ -3.6269, 41.0257 ], [ -3.6264, 41.0252 ], [ -3.6262, 41.0247 ], [ -3.6254, 41.0246 ], [ -3.6247, 41.0247 ], [ -3.6246, 41.0246 ], [ -3.6243, 41.0258 ], [ -3.6254, 41.0257 ] ] ] } },
{ "type": "Feature", "properties": { "municipio": "La Serna del Monte", "clasificacion": "no-urbanizable-protegido", "calificacion": "sin-asignar", "version": "vigente", "fuente": "SIT-CAM WFS — UsoDelSuelo:VPLA_V_CLASIFICACION (https://idem.comunidad.madrid/geosrvg/ows)", "fecha_dato": "2026-05-12", "ambito": "17694", "_raw_CD_SIGLAS": "SNUP", "_raw_DS_CLASIF_GEN": "Suelo No Urbanizable Protegido", "_raw_DS_CLASIF_DET": "Suelo No Urbanizable Especialmente Protegido por su Interés Paisajístico", "_raw_DS_DOCU": "NORMAS SUBSIDIARIAS", "_raw_DS_LEY": "CM Ley 4/1984, E RD 1346/1976", "_raw_FC_AC": "1992-03-13", "_raw_NM_AREA_M2": 6268.1153689611401, "_cam_code": "138" }, "geometry": { "type": "Polygon", "coordinates": [ [ [ -3.6356, 41.0292 ], [ -3.6352, 41.03 ], [ -3.6355, 41.0298 ], [ -3.6359, 41.0298 ], [ -3.6369, 41.0293 ], [ -3.6364, 41.0291 ], [ -3.6356, 41.0292 ] ] ] } },
{ "type": "Feature", "properties": { "municipio": "La Serna del Monte", "clasificacion": "no-urbanizable-protegido", "calificacion": "sin-asignar", "version": "vigente", "fuente": "SIT-CAM WFS — UsoDelSuelo:VPLA_V_CLASIFICACION (https://idem.comunidad.madrid/geosrvg/ows)", "fecha_dato": "2026-05-12", "ambito": "17694", "_raw_CD_SIGLAS": "SNUP", "_raw_DS_CLASIF_GEN": "Suelo No Urbanizable Protegido", "_raw_DS_CLASIF_DET": "Suelo No Urbanizable Especialmente Protegido por su Interés Paisajístico", "_raw_DS_DOCU": "NORMAS SUBSIDIARIAS", "_raw_DS_LEY": "CM Ley 4/1984, E RD 1346/1976", "_raw_FC_AC": "1992-03-13", "_raw_NM_AREA_M2": 22297.944476399101, "_cam_code": "138" }, "geometry": { "type": "Polygon", "coordinates": [ [ [ -3.6335, 41.0298 ], [ -3.6328, 41.0299 ], [ -3.6324, 41.0307 ], [ -3.6313, 41.0308 ], [ -3.631, 41.0314 ], [ -3.6329, 41.0311 ], [ -3.6342, 41.0311 ], [ -3.6342, 41.0306 ], [ -3.6339, 41.0305 ], [ -3.6335, 41.0298 ] ] ] } },
{ "type": "Feature", "properties": { "municipio": "La Serna del Monte", "clasificacion": "no-urbanizable-protegido", "calificacion": "sin-asignar", "version": "vigente", "fuente": "SIT-CAM WFS — UsoDelSuelo:VPLA_V_CLASIFICACION (https://idem.comunidad.madrid/geosrvg/ows)", "fecha_dato": "2026-05-12", "ambito": "17694", "_raw_CD_SIGLAS": "SNUP", "_raw_DS_CLASIF_GEN": "Suelo No Urbanizable Protegido", "_raw_DS_CLASIF_DET": "Suelo No Urbanizable Especialmente Protegido por su interés Agropecuario y Paisajístico", "_raw_DS_DOCU": "NORMAS SUBSIDIARIAS", "_raw_DS_LEY": "CM Ley 4/1984, E RD 1346/1976", "_raw_FC_AC": "1992-03-13", "_raw_NM_AREA_M2": 18853.124663734099, "_cam_code": "138" }, "geometry": { "type": "Polygon", "coordinates": [ [ [ -3.624, 41.0285 ], [ -3.6247, 41.0292 ], [ -3.6247, 41.0288 ], [ -3.6251, 41.0289 ], [ -3.625, 41.0284 ], [ -3.6253, 41.0283 ], [ -3.6256, 41.0284 ], [ -3.6257, 41.0277 ], [ -3.6253, 41.0274 ], [ -3.6248, 41.0273 ], [ -3.6242, 41.0275 ], [ -3.6239, 41.0279 ], [ -3.6239, 41.0281 ], [ -3.624, 41.0285 ] ] ] } },
{ "type": "Feature", "properties": { "municipio": "La Serna del Monte", "clasificacion": "no-urbanizable-protegido", "calificacion": "sin-asignar", "version": "vigente", "fuente": "SIT-CAM WFS — UsoDelSuelo:VPLA_V_CLASIFICACION (https://idem.comunidad.madrid/geosrvg/ows)", "fecha_dato": "2026-05-12", "ambito": "17694", "_raw_CD_SIGLAS": "SNUP", "_raw_DS_CLASIF_GEN": "Suelo No Urbanizable Protegido", "_raw_DS_CLASIF_DET": "Suelo No Urbanizable Especialmente Protegido por su interés Forestal y Paisajístico", "_raw_DS_DOCU": "NORMAS SUBSIDIARIAS", "_raw_DS_LEY": "CM Ley 4/1984, E RD 1346/1976", "_raw_FC_AC": "1992-03-13", "_raw_NM_AREA_M2": 918972.30533268198, "_cam_code": "138" }, "geometry": { "type": "Polygon", "coordinates": [ [ [ -3.615, 41.0143 ], [ -3.6125, 41.0184 ], [ -3.6129, 41.0198 ], [ -3.6145, 41.0215 ], [ -3.6132, 41.0226 ], [ -3.6129, 41.0232 ], [ -3.6126, 41.0234 ], [ -3.6127, 41.0234 ], [ -3.6127, 41.0237 ], [ -3.6128, 41.0237 ], [ -3.6129, 41.0243 ], [ -3.6123, 41.0247 ], [ -3.6126, 41.0269 ], [ -3.6136, 41.031 ], [ -3.6151, 41.0336 ], [ -3.616, 41.0344 ], [ -3.6161, 41.0341 ], [ -3.616, 41.0337 ], [ -3.6167, 41.0321 ], [ -3.6168, 41.0316 ], [ -3.6176, 41.0304 ], [ -3.6185, 41.0293 ], [ -3.6188, 41.0291 ], [ -3.619, 41.0287 ], [ -3.6191, 41.0283 ], [ -3.6189, 41.0277 ], [ -3.619, 41.0273 ], [ -3.6187, 41.0262 ], [ -3.619, 41.0257 ], [ -3.619, 41.0247 ], [ -3.6189, 41.0245 ], [ -3.6198, 41.0231 ], [ -3.6201, 41.0222 ], [ -3.6191, 41.0216 ], [ -3.6186, 41.021 ], [ -3.6186, 41.0199 ], [ -3.6182, 41.0192 ], [ -3.6183, 41.0185 ], [ -3.618, 41.0174 ], [ -3.6181, 41.0169 ], [ -3.6179, 41.0144 ], [ -3.6178, 41.0143 ], [ -3.6178, 41.0131 ], [ -3.615, 41.0143 ] ] ] } },
{ "type": "Feature", "properties": { "municipio": "La Serna del Monte", "clasificacion": "no-urbanizable-protegido", "calificacion": "sin-asignar", "version": "vigente", "fuente": "SIT-CAM WFS — UsoDelSuelo:VPLA_V_CLASIFICACION (https://idem.comunidad.madrid/geosrvg/ows)", "fecha_dato": "2026-05-12", "ambito": "17694", "_raw_CD_SIGLAS": "SNUP", "_raw_DS_CLASIF_GEN": "Suelo No Urbanizable Protegido", "_raw_DS_CLASIF_DET": "Suelo No Urbanizable Especialmente Protegido por su interés Cultural y Paisajístico", "_raw_DS_DOCU": "NORMAS SUBSIDIARIAS", "_raw_DS_LEY": "CM Ley 4/1984, E RD 1346/1976", "_raw_FC_AC": "1992-03-13", "_raw_NM_AREA_M2": 157729.876604577, "_cam_code": "138" }, "geometry": { "type": "Polygon", "coordinates": [ [ [ -3.6234, 41.043 ], [ -3.6235, 41.0436 ], [ -3.6225, 41.045 ], [ -3.6219, 41.0455 ], [ -3.6217, 41.0455 ], [ -3.6217, 41.0457 ], [ -3.6216, 41.0457 ], [ -3.6216, 41.0458 ], [ -3.622, 41.0459 ], [ -3.622, 41.0461 ], [ -3.6221, 41.0461 ], [ -3.6221, 41.0476 ], [ -3.6226, 41.0488 ], [ -3.6228, 41.0487 ], [ -3.6228, 41.0485 ], [ -3.6224, 41.0477 ], [ -3.6225, 41.0467 ], [ -3.6224, 41.0457 ], [ -3.6227, 41.0453 ], [ -3.6231, 41.045 ], [ -3.6233, 41.045 ], [ -3.6245, 41.0439 ], [ -3.6245, 41.0437 ], [ -3.6247, 41.0435 ], [ -3.6247, 41.0431 ], [ -3.625, 41.0432 ], [ -3.6255, 41.0439 ], [ -3.6269, 41.0436 ], [ -3.6271, 41.0433 ], [ -3.6259, 41.0437 ], [ -3.6254, 41.0436 ], [ -3.6246, 41.0424 ], [ -3.6247, 41.0414 ], [ -3.6244, 41.0407 ], [ -3.6238, 41.0403 ], [ -3.6238, 41.0402 ], [ -3.6238, 41.0399 ], [ -3.624, 41.0397 ], [ -3.6237, 41.0394 ], [ -3.6238, 41.0388 ], [ -3.6242, 41.0383 ], [ -3.6248, 41.0379 ], [ -3.625, 41.0379 ], [ -3.6252, 41.0382 ], [ -3.6252, 41.0382 ], [ -3.6253, 41.0382 ], [ -3.6254, 41.0382 ], [ -3.6254, 41.0383 ], [ -3.6254, 41.0382 ], [ -3.6251, 41.0379 ], [ -3.6258, 41.0375 ], [ -3.6258, 41.0371 ], [ -3.626, 41.0366 ], [ -3.6259, 41.036 ], [ -3.6253, 41.0361 ], [ -3.625, 41.0358 ], [ -3.6253, 41.0342 ], [ -3.6251, 41.034 ], [ -3.625, 41.0345 ], [ -3.6248, 41.0347 ], [ -3.6248, 41.0351 ], [ -3.6244, 41.036 ], [ -3.6237, 41.0368 ], [ -3.6238, 41.037 ], [ -3.6236, 41.0372 ], [ -3.6235, 41.0381 ], [ -3.6228, 41.0391 ], [ -3.6225, 41.0392 ], [ -3.6221, 41.0397 ], [ -3.6202, 41.0432 ], [ -3.6194, 41.0442 ], [ -3.6197, 41.0445 ], [ -3.6197, 41.0459 ], [ -3.6199, 41.0465 ], [ -3.6206, 41.0448 ], [ -3.6205, 41.0447 ], [ -3.62, 41.0447 ], [ -3.6207, 41.0435 ], [ -3.621, 41.0433 ], [ -3.6224, 41.043 ], [ -3.6234, 41.043 ] ], [ [ -3.6213, 41.0428 ], [ -3.621, 41.043 ], [ -3.6215, 41.0417 ], [ -3.622, 41.0412 ], [ -3.6222, 41.0408 ], [ -3.6224, 41.0402 ], [ -3.6223, 41.0401 ], [ -3.6228, 41.0394 ], [ -3.6235, 41.0393 ], [ -3.6237, 41.0397 ], [ -3.6238, 41.0404 ], [ -3.6245, 41.0415 ], [ -3.6245, 41.0418 ], [ -3.6243, 41.0422 ], [ -3.6231, 41.0423 ], [ -3.6226, 41.0428 ], [ -3.6213, 41.0428 ] ] ] } },
{ "type": "Feature", "properties": { "municipio": "La Serna del Monte", "clasificacion": "no-urbanizable-protegido", "calificacion": "sin-asignar", "version": "vigente", "fuente": "SIT-CAM WFS — UsoDelSuelo:VPLA_V_CLASIFICACION (https://idem.comunidad.madrid/geosrvg/ows)", "fecha_dato": "2026-05-12", "ambito": "17694", "_raw_CD_SIGLAS": "SNUP", "_raw_DS_CLASIF_GEN": "Suelo No Urbanizable Protegido", "_raw_DS_CLASIF_DET": "Suelo No Urbanizable Especialmente Protegido por su interés Agropecuario y Paisajístico", "_raw_DS_DOCU": "NORMAS SUBSIDIARIAS", "_raw_DS_LEY": "CM Ley 4/1984, E RD 1346/1976", "_raw_FC_AC": "1992-03-13", "_raw_NM_AREA_M2": 179379.45295278, "_cam_code": "138" }, "geometry": { "type": "Polygon", "coordinates": [ [ [ -3.6125, 41.0184 ], [ -3.6097, 41.0213 ], [ -3.6096, 41.0215 ], [ -3.6097, 41.0216 ], [ -3.6089, 41.0227 ], [ -3.6086, 41.0228 ], [ -3.6083, 41.0231 ], [ -3.6093, 41.0239 ], [ -3.6102, 41.0241 ], [ -3.6103, 41.0243 ], [ -3.6111, 41.0248 ], [ -3.6121, 41.0248 ], [ -3.6125, 41.0245 ], [ -3.6127, 41.0245 ], [ -3.6129, 41.0243 ], [ -3.6129, 41.0241 ], [ -3.6128, 41.0237 ], [ -3.6127, 41.0237 ], [ -3.6127, 41.0234 ], [ -3.6126, 41.0234 ], [ -3.6129, 41.0232 ], [ -3.6132, 41.0226 ], [ -3.6145, 41.0215 ], [ -3.6129, 41.0198 ], [ -3.6125, 41.0184 ] ] ] } },
{ "type": "Feature", "properties": { "municipio": "La Serna del Monte", "clasificacion": "no-urbanizable-protegido", "calificacion": "sin-asignar", "version": "vigente", "fuente": "SIT-CAM WFS — UsoDelSuelo:VPLA_V_CLASIFICACION (https://idem.comunidad.madrid/geosrvg/ows)", "fecha_dato": "2026-05-12", "ambito": "17694", "_raw_CD_SIGLAS": "SNUP", "_raw_DS_CLASIF_GEN": "Suelo No Urbanizable Protegido", "_raw_DS_CLASIF_DET": "Suelo No Urbanizable Especialmente Protegido por su Afección de Cauces, Riberas, Embalses y por su interés Paisajístico", "_raw_DS_DOCU": "NORMAS SUBSIDIARIAS", "_raw_DS_LEY": "CM Ley 4/1984, E RD 1346/1976", "_raw_FC_AC": "1992-03-13", "_raw_NM_AREA_M2": 39054.946167940303, "_cam_code": "138" }, "geometry": { "type": "Polygon", "coordinates": [ [ [ -3.6251, 41.0403 ], [ -3.6255, 41.0403 ], [ -3.6259, 41.0401 ], [ -3.6259, 41.0397 ], [ -3.6261, 41.0396 ], [ -3.6261, 41.0393 ], [ -3.6264, 41.039 ], [ -3.6262, 41.0388 ], [ -3.6262, 41.0385 ], [ -3.6266, 41.0373 ], [ -3.6272, 41.0363 ], [ -3.6276, 41.036 ], [ -3.6274, 41.0343 ], [ -3.6271, 41.0339 ], [ -3.6271, 41.0336 ], [ -3.6269, 41.0334 ], [ -3.6269, 41.0332 ], [ -3.6268, 41.0332 ], [ -3.6267, 41.0325 ], [ -3.6261, 41.0317 ], [ -3.6262, 41.0313 ], [ -3.6261, 41.0309 ], [ -3.6261, 41.0312 ], [ -3.6259, 41.0316 ], [ -3.6261, 41.0322 ], [ -3.6263, 41.0323 ], [ -3.6272, 41.0346 ], [ -3.6269, 41.0356 ], [ -3.6266, 41.036 ], [ -3.6265, 41.0365 ], [ -3.6266, 41.0366 ], [ -3.6262, 41.037 ], [ -3.6258, 41.0379 ], [ -3.6257, 41.0391 ], [ -3.6251, 41.0403 ] ] ] } },
{ "type": "Feature", "properties": { "municipio": "La Serna del Monte", "clasificacion": "no-urbanizable-protegido", "calificacion": "sin-asignar", "version": "vigente", "fuente": "SIT-CAM WFS — UsoDelSuelo:VPLA_V_CLASIFICACION (https://idem.comunidad.madrid/geosrvg/ows)", "fecha_dato": "2026-05-12", "ambito": "17694", "_raw_CD_SIGLAS": "SNUP", "_raw_DS_CLASIF_GEN": "Suelo No Urbanizable Protegido", "_raw_DS_CLASIF_DET": "Suelo No Urbanizable Especialmente Protegido por su interés Cultural y Paisajístico", "_raw_DS_DOCU": "NORMAS SUBSIDIARIAS", "_raw_DS_LEY": "CM Ley 4/1984, E RD 1346/1976", "_raw_FC_AC": "1992-03-13", "_raw_NM_AREA_M2": 106234.195972174, "_cam_code": "138" }, "geometry": { "type": "Polygon", "coordinates": [ [ [ -3.616, 41.0337 ], [ -3.6161, 41.0341 ], [ -3.616, 41.0344 ], [ -3.6164, 41.0347 ], [ -3.6163, 41.035 ], [ -3.6166, 41.0347 ], [ -3.617, 41.0337 ], [ -3.6174, 41.0334 ], [ -3.6181, 41.0333 ], [ -3.6193, 41.0326 ], [ -3.6222, 41.0317 ], [ -3.6222, 41.0315 ], [ -3.6226, 41.0311 ], [ -3.6236, 41.031 ], [ -3.6235, 41.0306 ], [ -3.6233, 41.0306 ], [ -3.6234, 41.0305 ], [ -3.6227, 41.0309 ], [ -3.6225, 41.0309 ], [ -3.6221, 41.0313 ], [ -3.6196, 41.0319 ], [ -3.6195, 41.0322 ], [ -3.6193, 41.0322 ], [ -3.6192, 41.0324 ], [ -3.6184, 41.0327 ], [ -3.618, 41.0331 ], [ -3.6171, 41.0332 ], [ -3.6165, 41.0335 ], [ -3.6168, 41.0325 ], [ -3.6171, 41.032 ], [ -3.6175, 41.0317 ], [ -3.6175, 41.0312 ], [ -3.6195, 41.0286 ], [ -3.6198, 41.0279 ], [ -3.6205, 41.028 ], [ -3.6208, 41.0278 ], [ -3.6202, 41.0277 ], [ -3.6194, 41.0273 ], [ -3.619, 41.0267 ], [ -3.6191, 41.0259 ], [ -3.6193, 41.0257 ], [ -3.6191, 41.0252 ], [ -3.6191, 41.0248 ], [ -3.6206, 41.0221 ], [ -3.6196, 41.0216 ], [ -3.619, 41.021 ], [ -3.6189, 41.02 ], [ -3.6186, 41.0192 ], [ -3.6186, 41.0187 ], [ -3.6182, 41.0168 ], [ -3.6182, 41.0146 ], [ -3.618, 41.013 ], [ -3.6178, 41.0131 ], [ -3.6178, 41.0143 ], [ -3.6179, 41.0144 ], [ -3.6181, 41.0169 ], [ -3.618, 41.0174 ], [ -3.6183, 41.0185 ], [ -3.6182, 41.0192 ], [ -3.6186, 41.0199 ], [ -3.6186, 41.021 ], [ -3.6191, 41.0216 ], [ -3.62, 41.0221 ], [ -3.6201, 41.0224 ], [ -3.6198, 41.0231 ], [ -3.6189, 41.0245 ], [ -3.619, 41.0247 ], [ -3.619, 41.0257 ], [ -3.6187, 41.0262 ], [ -3.619, 41.0273 ], [ -3.6189, 41.0277 ], [ -3.6191, 41.0283 ], [ -3.619, 41.0287 ], [ -3.6188, 41.0291 ], [ -3.6185, 41.0293 ], [ -3.6176, 41.0304 ], [ -3.6168, 41.0316 ], [ -3.6167, 41.0321 ], [ -3.616, 41.0337 ] ] ] } },
{ "type": "Feature", "properties": { "municipio": "La Serna del Monte", "clasificacion": "no-urbanizable-protegido", "calificacion": "sin-asignar", "version": "vigente", "fuente": "SIT-CAM WFS — UsoDelSuelo:VPLA_V_CLASIFICACION (https://idem.comunidad.madrid/geosrvg/ows)", "fecha_dato": "2026-05-12", "ambito": "17694", "_raw_CD_SIGLAS": "SNUP", "_raw_DS_CLASIF_GEN": "Suelo No Urbanizable Protegido", "_raw_DS_CLASIF_DET": "Suelo No Urbanizable Especialmente Protegido por su interés Cultural y Paisajístico", "_raw_DS_DOCU": "NORMAS SUBSIDIARIAS", "_raw_DS_LEY": "CM Ley 4/1984, E RD 1346/1976", "_raw_FC_AC": "1992-03-13", "_raw_NM_AREA_M2": 140216.32085514499, "_cam_code": "138" }, "geometry": { "type": "Polygon", "coordinates": [ [ [ -3.6319, 41.0299 ], [ -3.6311, 41.0308 ], [ -3.6303, 41.0323 ], [ -3.6298, 41.0326 ], [ -3.6304, 41.0328 ], [ -3.6309, 41.0335 ], [ -3.6309, 41.0328 ], [ -3.6308, 41.0327 ], [ -3.6309, 41.0316 ], [ -3.6313, 41.0308 ], [ -3.6317, 41.0305 ], [ -3.632, 41.03 ], [ -3.6335, 41.0298 ], [ -3.6339, 41.0305 ], [ -3.6342, 41.0306 ], [ -3.6342, 41.0311 ], [ -3.6343, 41.0307 ], [ -3.6349, 41.0301 ], [ -3.6352, 41.03 ], [ -3.6356, 41.0292 ], [ -3.6364, 41.0291 ], [ -3.6369, 41.0293 ], [ -3.6369, 41.0292 ], [ -3.6372, 41.0291 ], [ -3.6368, 41.0288 ], [ -3.6364, 41.0288 ], [ -3.636, 41.029 ], [ -3.6355, 41.0289 ], [ -3.6336, 41.0277 ], [ -3.6338, 41.0267 ], [ -3.6335, 41.0256 ], [ -3.6336, 41.0252 ], [ -3.6339, 41.0246 ], [ -3.634, 41.0246 ], [ -3.6339, 41.0242 ], [ -3.6345, 41.0212 ], [ -3.6342, 41.0217 ], [ -3.6338, 41.023 ], [ -3.6332, 41.0237 ], [ -3.633, 41.0245 ], [ -3.6326, 41.0251 ], [ -3.6326, 41.0255 ], [ -3.6329, 41.0261 ], [ -3.6329, 41.0265 ], [ -3.6324, 41.0275 ], [ -3.6318, 41.0278 ], [ -3.6305, 41.0274 ], [ -3.6301, 41.0274 ], [ -3.6274, 41.0286 ], [ -3.6266, 41.0292 ], [ -3.6267, 41.0293 ], [ -3.6269, 41.0292 ], [ -3.627, 41.029 ], [ -3.6272, 41.0291 ], [ -3.6282, 41.0284 ], [ -3.6292, 41.0279 ], [ -3.6298, 41.0277 ], [ -3.6307, 41.0277 ], [ -3.6313, 41.0279 ], [ -3.6319, 41.0284 ], [ -3.632, 41.0292 ], [ -3.6319, 41.0299 ] ] ] } },
{ "type": "Feature", "properties": { "municipio": "La Serna del Monte", "clasificacion": "no-urbanizable-protegido", "calificacion": "sin-asignar", "version": "vigente", "fuente": "SIT-CAM WFS — UsoDelSuelo:VPLA_V_CLASIFICACION (https://idem.comunidad.madrid/geosrvg/ows)", "fecha_dato": "2026-05-12", "ambito": "17694", "_raw_CD_SIGLAS": "SNUP", "_raw_DS_CLASIF_GEN": "Suelo No Urbanizable Protegido", "_raw_DS_CLASIF_DET": "Suelo No Urbanizable Especialmente Protegido por su interés Agropecuario y Paisajístico", "_raw_DS_DOCU": "NORMAS SUBSIDIARIAS", "_raw_DS_LEY": "CM Ley 4/1984, E RD 1346/1976", "_raw_FC_AC": "1992-03-13", "_raw_NM_AREA_M2": 607370.56550874596, "_cam_code": "138" }, "geometry": { "type": "Polygon", "coordinates": [ [ [ -3.6186, 41.0622 ], [ -3.6193, 41.0632 ], [ -3.6193, 41.0646 ], [ -3.6191, 41.065 ], [ -3.6191, 41.0653 ], [ -3.6193, 41.0656 ], [ -3.6193, 41.0664 ], [ -3.6188, 41.0669 ], [ -3.6179, 41.0673 ], [ -3.6169, 41.0681 ], [ -3.6161, 41.0699 ], [ -3.6169, 41.0699 ], [ -3.6178, 41.0692 ], [ -3.6181, 41.0691 ], [ -3.619, 41.0684 ], [ -3.6201, 41.067 ], [ -3.6205, 41.0667 ], [ -3.6208, 41.066 ], [ -3.6214, 41.0654 ], [ -3.6217, 41.0641 ], [ -3.6223, 41.0636 ], [ -3.623, 41.0619 ], [ -3.6232, 41.0618 ], [ -3.6243, 41.0602 ], [ -3.6243, 41.06 ], [ -3.6241, 41.0598 ], [ -3.6224, 41.0594 ], [ -3.6217, 41.0583 ], [ -3.6217, 41.0581 ], [ -3.6219, 41.0579 ], [ -3.6217, 41.0574 ], [ -3.6219, 41.0561 ], [ -3.6223, 41.0557 ], [ -3.622, 41.0552 ], [ -3.6219, 41.0526 ], [ -3.6225, 41.0515 ], [ -3.6226, 41.051 ], [ -3.6225, 41.0496 ], [ -3.6227, 41.0494 ], [ -3.6227, 41.0489 ], [ -3.6221, 41.0476 ], [ -3.6221, 41.0461 ], [ -3.622, 41.0461 ], [ -3.622, 41.0459 ], [ -3.6216, 41.0458 ], [ -3.6212, 41.0459 ], [ -3.6207, 41.0464 ], [ -3.6201, 41.0464 ], [ -3.62, 41.0463 ], [ -3.6199, 41.0465 ], [ -3.6208, 41.0483 ], [ -3.6217, 41.0486 ], [ -3.6219, 41.0489 ], [ -3.6224, 41.0492 ], [ -3.6222, 41.0493 ], [ -3.6222, 41.0497 ], [ -3.6221, 41.0497 ], [ -3.6222, 41.0507 ], [ -3.6216, 41.0512 ], [ -3.6212, 41.0513 ], [ -3.6203, 41.0523 ], [ -3.62, 41.0532 ], [ -3.6199, 41.0546 ], [ -3.6193, 41.0551 ], [ -3.6176, 41.0558 ], [ -3.6174, 41.056 ], [ -3.6174, 41.0567 ], [ -3.6177, 41.057 ], [ -3.6179, 41.0581 ], [ -3.6172, 41.0608 ], [ -3.6175, 41.0615 ], [ -3.6175, 41.062 ], [ -3.6179, 41.0622 ], [ -3.6179, 41.0623 ], [ -3.6186, 41.0622 ] ] ] } },
{ "type": "Feature", "properties": { "municipio": "La Serna del Monte", "clasificacion": "no-urbanizable-protegido", "calificacion": "sin-asignar", "version": "vigente", "fuente": "SIT-CAM WFS — UsoDelSuelo:VPLA_V_CLASIFICACION (https://idem.comunidad.madrid/geosrvg/ows)", "fecha_dato": "2026-05-12", "ambito": "17694", "_raw_CD_SIGLAS": "SNUP", "_raw_DS_CLASIF_GEN": "Suelo No Urbanizable Protegido", "_raw_DS_CLASIF_DET": "Suelo No Urbanizable Especialmente Protegido por su interés Agropecuario y Paisajístico", "_raw_DS_DOCU": "NORMAS SUBSIDIARIAS", "_raw_DS_LEY": "CM Ley 4/1984, E RD 1346/1976", "_raw_FC_AC": "1992-03-13", "_raw_NM_AREA_M2": 32757.403784530601, "_cam_code": "138" }, "geometry": { "type": "Polygon", "coordinates": [ [ [ -3.6228, 41.0422 ], [ -3.6232, 41.0421 ], [ -3.6234, 41.0422 ], [ -3.6235, 41.0421 ], [ -3.6239, 41.0408 ], [ -3.624, 41.0408 ], [ -3.6235, 41.0393 ], [ -3.6228, 41.0394 ], [ -3.6223, 41.0401 ], [ -3.6224, 41.0402 ], [ -3.6222, 41.0408 ], [ -3.6227, 41.0417 ], [ -3.6228, 41.0422 ] ] ] } },
{ "type": "Feature", "properties": { "municipio": "La Serna del Monte", "clasificacion": "no-urbanizable-protegido", "calificacion": "sin-asignar", "version": "vigente", "fuente": "SIT-CAM WFS — UsoDelSuelo:VPLA_V_CLASIFICACION (https://idem.comunidad.madrid/geosrvg/ows)", "fecha_dato": "2026-05-12", "ambito": "17694", "_raw_CD_SIGLAS": "SNUP", "_raw_DS_CLASIF_GEN": "Suelo No Urbanizable Protegido", "_raw_DS_CLASIF_DET": "Suelo No Urbanizable Especialmente Protegido por su interés Agropecuario y Paisajístico", "_raw_DS_DOCU": "NORMAS SUBSIDIARIAS", "_raw_DS_LEY": "CM Ley 4/1984, E RD 1346/1976", "_raw_FC_AC": "1992-03-13", "_raw_NM_AREA_M2": 86526.462034406402, "_cam_code": "138" }, "geometry": { "type": "Polygon", "coordinates": [ [ [ -3.6238, 41.0403 ], [ -3.6243, 41.0405 ], [ -3.6244, 41.0403 ], [ -3.6251, 41.0403 ], [ -3.6256, 41.0394 ], [ -3.6258, 41.0379 ], [ -3.6262, 41.037 ], [ -3.6266, 41.0366 ], [ -3.6265, 41.0365 ], [ -3.6266, 41.036 ], [ -3.6269, 41.0356 ], [ -3.6272, 41.0346 ], [ -3.6263, 41.0323 ], [ -3.6261, 41.0322 ], [ -3.6259, 41.0316 ], [ -3.6259, 41.0316 ], [ -3.6259, 41.0316 ], [ -3.6258, 41.0316 ], [ -3.6257, 41.0316 ], [ -3.6258, 41.0316 ], [ -3.6257, 41.0324 ], [ -3.6261, 41.0328 ], [ -3.6259, 41.033 ], [ -3.6262, 41.0332 ], [ -3.6262, 41.0334 ], [ -3.6261, 41.0334 ], [ -3.6261, 41.0337 ], [ -3.6258, 41.0338 ], [ -3.6258, 41.0339 ], [ -3.6264, 41.034 ], [ -3.6263, 41.034 ], [ -3.6263, 41.0344 ], [ -3.6265, 41.0345 ], [ -3.6255, 41.0346 ], [ -3.6254, 41.0341 ], [ -3.6253, 41.0343 ], [ -3.6253, 41.0342 ], [ -3.625, 41.0358 ], [ -3.6253, 41.0361 ], [ -3.6259, 41.036 ], [ -3.626, 41.0366 ], [ -3.6258, 41.0371 ], [ -3.6258, 41.0375 ], [ -3.6251, 41.0379 ], [ -3.6251, 41.038 ], [ -3.6252, 41.038 ], [ -3.6252, 41.0381 ], [ -3.6253, 41.0381 ], [ -3.6253, 41.0382 ], [ -3.6254, 41.0383 ], [ -3.6254, 41.0382 ], [ -3.6253, 41.0382 ], [ -3.6252, 41.0382 ], [ -3.625, 41.0379 ], [ -3.6248, 41.0379 ], [ -3.624, 41.0385 ], [ -3.6237, 41.039 ], [ -3.6237, 41.0394 ], [ -3.624, 41.0397 ], [ -3.6238, 41.0399 ], [ -3.6238, 41.0403 ] ] ] } },
{ "type": "Feature", "properties": { "municipio": "La Serna del Monte", "clasificacion": "no-urbanizable-protegido", "calificacion": "sin-asignar", "version": "vigente", "fuente": "SIT-CAM WFS — UsoDelSuelo:VPLA_V_CLASIFICACION (https://idem.comunidad.madrid/geosrvg/ows)", "fecha_dato": "2026-05-12", "ambito": "17694", "_raw_CD_SIGLAS": "SNUP", "_raw_DS_CLASIF_GEN": "Suelo No Urbanizable Protegido", "_raw_DS_CLASIF_DET": "Suelo No Urbanizable Especialmente Protegido por su interés Agropecuario y Paisajístico", "_raw_DS_DOCU": "NORMAS SUBSIDIARIAS", "_raw_DS_LEY": "CM Ley 4/1984, E RD 1346/1976", "_raw_FC_AC": "1992-03-13", "_raw_NM_AREA_M2": 504872.97097661003, "_cam_code": "138" }, "geometry": { "type": "Polygon", "coordinates": [ [ [ -3.6264, 41.0401 ], [ -3.6265, 41.0404 ], [ -3.6266, 41.0402 ], [ -3.6274, 41.0397 ], [ -3.6279, 41.0392 ], [ -3.6286, 41.0391 ], [ -3.6288, 41.0387 ], [ -3.6293, 41.0385 ], [ -3.6297, 41.0385 ], [ -3.632, 41.0339 ], [ -3.6336, 41.0332 ], [ -3.6336, 41.0331 ], [ -3.6338, 41.0331 ], [ -3.6339, 41.0323 ], [ -3.6343, 41.0314 ], [ -3.6343, 41.0311 ], [ -3.6329, 41.0311 ], [ -3.631, 41.0314 ], [ -3.6309, 41.0324 ], [ -3.6308, 41.0325 ], [ -3.6309, 41.0335 ], [ -3.6304, 41.0328 ], [ -3.6298, 41.0326 ], [ -3.6303, 41.0323 ], [ -3.6311, 41.0308 ], [ -3.6319, 41.0299 ], [ -3.632, 41.0294 ], [ -3.6319, 41.0284 ], [ -3.6313, 41.0279 ], [ -3.6307, 41.0277 ], [ -3.6298, 41.0277 ], [ -3.6282, 41.0284 ], [ -3.6272, 41.0291 ], [ -3.627, 41.029 ], [ -3.6269, 41.0292 ], [ -3.6264, 41.0295 ], [ -3.6265, 41.0302 ], [ -3.6264, 41.0309 ], [ -3.6262, 41.031 ], [ -3.6261, 41.0309 ], [ -3.6262, 41.0311 ], [ -3.6261, 41.0317 ], [ -3.6267, 41.0325 ], [ -3.6268, 41.0332 ], [ -3.6269, 41.0332 ], [ -3.6269, 41.0334 ], [ -3.6271, 41.0336 ], [ -3.6271, 41.0339 ], [ -3.6274, 41.0343 ], [ -3.6276, 41.0355 ], [ -3.6276, 41.036 ], [ -3.6269, 41.0367 ], [ -3.6263, 41.0381 ], [ -3.6262, 41.0388 ], [ -3.6264, 41.039 ], [ -3.6261, 41.0393 ], [ -3.6261, 41.0396 ], [ -3.6259, 41.0397 ], [ -3.6259, 41.0401 ], [ -3.6264, 41.0401 ] ] ] } },
{ "type": "Feature", "properties": { "municipio": "La Serna del Monte", "clasificacion": "no-urbanizable-protegido", "calificacion": "sin-asignar", "version": "vigente", "fuente": "SIT-CAM WFS — UsoDelSuelo:VPLA_V_CLASIFICACION (https://idem.comunidad.madrid/geosrvg/ows)", "fecha_dato": "2026-05-12", "ambito": "17694", "_raw_CD_SIGLAS": "SNUP", "_raw_DS_CLASIF_GEN": "Suelo No Urbanizable Protegido", "_raw_DS_CLASIF_DET": "Suelo No Urbanizable Especialmente Protegido por su interés Agropecuario y Paisajístico", "_raw_DS_DOCU": "NORMAS SUBSIDIARIAS", "_raw_DS_LEY": "CM Ley 4/1984, E RD 1346/1976", "_raw_FC_AC": "1992-03-13", "_raw_NM_AREA_M2": 166613.41662991, "_cam_code": "138" }, "geometry": { "type": "Polygon", "coordinates": [ [ [ -3.6165, 41.0348 ], [ -3.6163, 41.035 ], [ -3.6183, 41.036 ], [ -3.6189, 41.0347 ], [ -3.6195, 41.0353 ], [ -3.6201, 41.0354 ], [ -3.6209, 41.0353 ], [ -3.621, 41.0354 ], [ -3.6224, 41.0355 ], [ -3.6225, 41.0349 ], [ -3.6228, 41.0345 ], [ -3.6228, 41.034 ], [ -3.6229, 41.0339 ], [ -3.6231, 41.031 ], [ -3.6226, 41.0311 ], [ -3.6222, 41.0315 ], [ -3.6222, 41.0317 ], [ -3.6193, 41.0326 ], [ -3.6181, 41.0333 ], [ -3.6174, 41.0334 ], [ -3.617, 41.0337 ], [ -3.6165, 41.0348 ] ] ] } },
{ "type": "Feature", "properties": { "municipio": "La Serna del Monte", "clasificacion": "no-urbanizable-protegido", "calificacion": "sin-asignar", "version": "vigente", "fuente": "SIT-CAM WFS — UsoDelSuelo:VPLA_V_CLASIFICACION (https://idem.comunidad.madrid/geosrvg/ows)", "fecha_dato": "2026-05-12", "ambito": "17694", "_raw_CD_SIGLAS": "SNUP", "_raw_DS_CLASIF_GEN": "Suelo No Urbanizable Protegido", "_raw_DS_CLASIF_DET": "Suelo No Urbanizable Especialmente Protegido por su interés Agropecuario y Paisajístico", "_raw_DS_DOCU": "NORMAS SUBSIDIARIAS", "_raw_DS_LEY": "CM Ley 4/1984, E RD 1346/1976", "_raw_FC_AC": "1992-03-13", "_raw_NM_AREA_M2": 44869.825673081199, "_cam_code": "138" }, "geometry": { "type": "Polygon", "coordinates": [ [ [ -3.6231, 41.033 ], [ -3.6229, 41.035 ], [ -3.6237, 41.035 ], [ -3.6246, 41.0355 ], [ -3.6248, 41.0351 ], [ -3.6248, 41.0347 ], [ -3.625, 41.0345 ], [ -3.6251, 41.0341 ], [ -3.6251, 41.034 ], [ -3.6247, 41.0341 ], [ -3.6249, 41.0336 ], [ -3.6241, 41.033 ], [ -3.6245, 41.033 ], [ -3.6245, 41.0329 ], [ -3.6234, 41.0327 ], [ -3.6238, 41.0323 ], [ -3.6237, 41.0323 ], [ -3.6237, 41.032 ], [ -3.6238, 41.032 ], [ -3.6238, 41.0317 ], [ -3.6239, 41.0317 ], [ -3.6239, 41.0314 ], [ -3.6236, 41.031 ], [ -3.6232, 41.032 ], [ -3.6233, 41.0325 ], [ -3.6231, 41.033 ] ] ] } },
{ "type": "Feature", "properties": { "municipio": "La Serna del Monte", "clasificacion": "no-urbanizable-protegido", "calificacion": "sin-asignar", "version": "vigente", "fuente": "SIT-CAM WFS — UsoDelSuelo:VPLA_V_CLASIFICACION (https://idem.comunidad.madrid/geosrvg/ows)", "fecha_dato": "2026-05-12", "ambito": "17694", "_raw_CD_SIGLAS": "SNUP", "_raw_DS_CLASIF_GEN": "Suelo No Urbanizable Protegido", "_raw_DS_CLASIF_DET": "Suelo No Urbanizable Especialmente Protegido por su interés Agropecuario y Paisajístico", "_raw_DS_DOCU": "NORMAS SUBSIDIARIAS", "_raw_DS_LEY": "CM Ley 4/1984, E RD 1346/1976", "_raw_FC_AC": "1992-03-13", "_raw_NM_AREA_M2": 873102.35500684904, "_cam_code": "138" }, "geometry": { "type": "Polygon", "coordinates": [ [ [ -3.6175, 41.0317 ], [ -3.6171, 41.032 ], [ -3.6168, 41.0325 ], [ -3.6165, 41.0335 ], [ -3.6171, 41.0332 ], [ -3.618, 41.0331 ], [ -3.6184, 41.0327 ], [ -3.6192, 41.0324 ], [ -3.6193, 41.0322 ], [ -3.6195, 41.0322 ], [ -3.6196, 41.0319 ], [ -3.6221, 41.0313 ], [ -3.6225, 41.0309 ], [ -3.6232, 41.0306 ], [ -3.6239, 41.0276 ], [ -3.6241, 41.0271 ], [ -3.6243, 41.027 ], [ -3.6244, 41.0262 ], [ -3.6242, 41.0261 ], [ -3.6242, 41.0255 ], [ -3.6244, 41.0253 ], [ -3.6246, 41.0246 ], [ -3.6247, 41.0247 ], [ -3.6254, 41.0246 ], [ -3.6262, 41.0247 ], [ -3.6264, 41.0252 ], [ -3.6269, 41.0257 ], [ -3.6265, 41.026 ], [ -3.6257, 41.0259 ], [ -3.6252, 41.0265 ], [ -3.6254, 41.0266 ], [ -3.6258, 41.0272 ], [ -3.626, 41.0279 ], [ -3.6261, 41.0279 ], [ -3.6261, 41.0282 ], [ -3.6264, 41.0284 ], [ -3.6266, 41.0292 ], [ -3.6274, 41.0286 ], [ -3.6293, 41.0277 ], [ -3.6301, 41.0274 ], [ -3.631, 41.0275 ], [ -3.6314, 41.0268 ], [ -3.6313, 41.0263 ], [ -3.6318, 41.0263 ], [ -3.6322, 41.0266 ], [ -3.6323, 41.0271 ], [ -3.6321, 41.0271 ], [ -3.6318, 41.0278 ], [ -3.6323, 41.0276 ], [ -3.6329, 41.0265 ], [ -3.6329, 41.0261 ], [ -3.6326, 41.0255 ], [ -3.6326, 41.0251 ], [ -3.633, 41.0245 ], [ -3.6332, 41.0237 ], [ -3.6338, 41.023 ], [ -3.6342, 41.0217 ], [ -3.6345, 41.0212 ], [ -3.6345, 41.0209 ], [ -3.6327, 41.0202 ], [ -3.6303, 41.0207 ], [ -3.6291, 41.0211 ], [ -3.6288, 41.021 ], [ -3.6271, 41.0225 ], [ -3.6257, 41.0244 ], [ -3.6245, 41.0242 ], [ -3.6241, 41.0246 ], [ -3.6238, 41.0243 ], [ -3.6234, 41.0242 ], [ -3.6234, 41.024 ], [ -3.6238, 41.0233 ], [ -3.6238, 41.0229 ], [ -3.6236, 41.0227 ], [ -3.6232, 41.0225 ], [ -3.6212, 41.0223 ], [ -3.6212, 41.0222 ], [ -3.6206, 41.0221 ], [ -3.6191, 41.0248 ], [ -3.6191, 41.0252 ], [ -3.6193, 41.0257 ], [ -3.6191, 41.0259 ], [ -3.619, 41.0267 ], [ -3.6194, 41.0273 ], [ -3.6202, 41.0277 ], [ -3.6208, 41.0278 ], [ -3.6205, 41.028 ], [ -3.6198, 41.0279 ], [ -3.6195, 41.0286 ], [ -3.6175, 41.0312 ], [ -3.6175, 41.0317 ] ] ] } },
{ "type": "Feature", "properties": { "municipio": "La Serna del Monte", "clasificacion": "no-urbanizable-protegido", "calificacion": "sin-asignar", "version": "vigente", "fuente": "SIT-CAM WFS — UsoDelSuelo:VPLA_V_CLASIFICACION (https://idem.comunidad.madrid/geosrvg/ows)", "fecha_dato": "2026-05-12", "ambito": "17694", "_raw_CD_SIGLAS": "SNUP", "_raw_DS_CLASIF_GEN": "Suelo No Urbanizable Protegido", "_raw_DS_CLASIF_DET": "Suelo No Urbanizable Especialmente Protegido por su interés Agropecuario y Paisajístico", "_raw_DS_DOCU": "NORMAS SUBSIDIARIAS", "_raw_DS_LEY": "CM Ley 4/1984, E RD 1346/1976", "_raw_FC_AC": "1992-03-13", "_raw_NM_AREA_M2": 5491.5039514092196, "_cam_code": "138" }, "geometry": { "type": "Polygon", "coordinates": [ [ [ -3.6329, 41.0299 ], [ -3.632, 41.03 ], [ -3.6314, 41.0308 ], [ -3.6324, 41.0307 ], [ -3.6327, 41.03 ], [ -3.6329, 41.0299 ] ] ] } },
{ "type": "Feature", "properties": { "municipio": "La Serna del Monte", "clasificacion": "no-urbanizable-protegido", "calificacion": "sin-asignar", "version": "vigente", "fuente": "SIT-CAM WFS — UsoDelSuelo:VPLA_V_CLASIFICACION (https://idem.comunidad.madrid/geosrvg/ows)", "fecha_dato": "2026-05-12", "ambito": "17694", "_raw_CD_SIGLAS": "SNUP", "_raw_DS_CLASIF_GEN": "Suelo No Urbanizable Protegido", "_raw_DS_CLASIF_DET": "Suelo No Urbanizable Especialmente Protegido por su Afección de Cauces, Riberas, Embalses y por su interés Paisajístico", "_raw_DS_DOCU": "NORMAS SUBSIDIARIAS", "_raw_DS_LEY": "CM Ley 4/1984, E RD 1346/1976", "_raw_FC_AC": "1992-03-13", "_raw_NM_AREA_M2": 10803.1779730702, "_cam_code": "138" }, "geometry": { "type": "Polygon", "coordinates": [ [ [ -3.6223, 41.0355 ], [ -3.6224, 41.0355 ], [ -3.6225, 41.0355 ], [ -3.6225, 41.0356 ], [ -3.623, 41.0348 ], [ -3.6231, 41.033 ], [ -3.6233, 41.0325 ], [ -3.6232, 41.032 ], [ -3.6236, 41.031 ], [ -3.6231, 41.031 ], [ -3.6228, 41.0345 ], [ -3.6225, 41.0349 ], [ -3.6224, 41.0355 ], [ -3.6224, 41.0355 ], [ -3.6224, 41.0355 ], [ -3.6224, 41.0355 ], [ -3.6224, 41.0355 ], [ -3.6224, 41.0355 ], [ -3.6224, 41.0355 ], [ -3.6224, 41.0355 ], [ -3.6224, 41.0355 ], [ -3.6224, 41.0355 ], [ -3.6224, 41.0355 ], [ -3.6224, 41.0355 ], [ -3.6224, 41.0355 ], [ -3.6224, 41.0355 ], [ -3.6224, 41.0355 ], [ -3.6223, 41.0355 ], [ -3.6222, 41.0355 ], [ -3.6223, 41.0355 ] ] ] } },
{ "type": "Feature", "properties": { "municipio": "La Serna del Monte", "clasificacion": "no-urbanizable-protegido", "calificacion": "sin-asignar", "version": "vigente", "fuente": "SIT-CAM WFS — UsoDelSuelo:VPLA_V_CLASIFICACION (https://idem.comunidad.madrid/geosrvg/ows)", "fecha_dato": "2026-05-12", "ambito": "17694", "_raw_CD_SIGLAS": "SNUP", "_raw_DS_CLASIF_GEN": "Suelo No Urbanizable Protegido", "_raw_DS_CLASIF_DET": "Suelo No Urbanizable Especialmente Protegido por su Afección de Cauces, Riberas, Embalses y por su interés Paisajístico", "_raw_DS_DOCU": "NORMAS SUBSIDIARIAS", "_raw_DS_LEY": "CM Ley 4/1984, E RD 1346/1976", "_raw_FC_AC": "1992-03-13", "_raw_NM_AREA_M2": 4236.4919096579497, "_cam_code": "138" }, "geometry": { "type": "Polygon", "coordinates": [ [ [ -3.6264, 41.0295 ], [ -3.6262, 41.0297 ], [ -3.6263, 41.0299 ], [ -3.6261, 41.0299 ], [ -3.6259, 41.0302 ], [ -3.6262, 41.0309 ], [ -3.6264, 41.0309 ], [ -3.6265, 41.0302 ], [ -3.6265, 41.0297 ], [ -3.6264, 41.0295 ] ] ] } },
{ "type": "Feature", "properties": { "municipio": "La Serna del Monte", "clasificacion": "no-urbanizable-protegido", "calificacion": "sin-asignar", "version": "vigente", "fuente": "SIT-CAM WFS — UsoDelSuelo:VPLA_V_CLASIFICACION (https://idem.comunidad.madrid/geosrvg/ows)", "fecha_dato": "2026-05-12", "ambito": "17694", "_raw_CD_SIGLAS": "SNUP", "_raw_DS_CLASIF_GEN": "Suelo No Urbanizable Protegido", "_raw_DS_CLASIF_DET": "Suelo No Urbanizable Especialmente Protegido por su Afección de Cauces, Riberas, Embalses y por su interés Paisajístico", "_raw_DS_DOCU": "NORMAS SUBSIDIARIAS", "_raw_DS_LEY": "CM Ley 4/1984, E RD 1346/1976", "_raw_FC_AC": "1992-03-13", "_raw_NM_AREA_M2": 39359.440004174801, "_cam_code": "138" }, "geometry": { "type": "Polygon", "coordinates": [ [ [ -3.6232, 41.0306 ], [ -3.6237, 41.0305 ], [ -3.6236, 41.0304 ], [ -3.6237, 41.0304 ], [ -3.624, 41.0289 ], [ -3.6241, 41.029 ], [ -3.6243, 41.0288 ], [ -3.624, 41.0285 ], [ -3.6239, 41.0279 ], [ -3.6242, 41.0275 ], [ -3.6244, 41.0275 ], [ -3.6246, 41.0273 ], [ -3.6253, 41.0274 ], [ -3.6257, 41.0277 ], [ -3.6256, 41.0284 ], [ -3.6261, 41.0285 ], [ -3.6257, 41.0286 ], [ -3.6259, 41.0287 ], [ -3.6258, 41.0291 ], [ -3.6261, 41.029 ], [ -3.6262, 41.0294 ], [ -3.6266, 41.0292 ], [ -3.6264, 41.0284 ], [ -3.6261, 41.0282 ], [ -3.6261, 41.0279 ], [ -3.626, 41.0279 ], [ -3.6258, 41.0272 ], [ -3.6254, 41.0266 ], [ -3.6252, 41.0265 ], [ -3.6258, 41.0259 ], [ -3.6254, 41.0257 ], [ -3.6243, 41.0258 ], [ -3.6244, 41.0253 ], [ -3.6242, 41.0255 ], [ -3.6242, 41.0261 ], [ -3.6244, 41.0262 ], [ -3.6243, 41.027 ], [ -3.6241, 41.0271 ], [ -3.6239, 41.0276 ], [ -3.6232, 41.0306 ] ] ] } },
{ "type": "Feature", "properties": { "municipio": "La Serna del Monte", "clasificacion": "urbano-consolidado", "calificacion": "sin-asignar", "version": "vigente", "fuente": "SIT-CAM WFS — UsoDelSuelo:VPLA_V_CLASIFICACION (https://idem.comunidad.madrid/geosrvg/ows)", "fecha_dato": "2026-05-12", "ambito": "17694", "_raw_CD_SIGLAS": "SU", "_raw_DS_CLASIF_GEN": "Suelo Urbano", "_raw_DS_CLASIF_DET": "Suelo Urbano", "_raw_DS_DOCU": "NORMAS SUBSIDIARIAS", "_raw_DS_LEY": "CM Ley 4/1984, E RD 1346/1976", "_raw_FC_AC": "1992-03-13", "_raw_NM_AREA_M2": 107203.489173553, "_cam_code": "138" }, "geometry": { "type": "Polygon", "coordinates": [ [ [ -3.6254, 41.0341 ], [ -3.6255, 41.0346 ], [ -3.6265, 41.0345 ], [ -3.6263, 41.0344 ], [ -3.6263, 41.034 ], [ -3.6264, 41.034 ], [ -3.6258, 41.0339 ], [ -3.6258, 41.0338 ], [ -3.6261, 41.0337 ], [ -3.6262, 41.0332 ], [ -3.6259, 41.033 ], [ -3.6261, 41.0328 ], [ -3.626, 41.0326 ], [ -3.6257, 41.0324 ], [ -3.6258, 41.0318 ], [ -3.6258, 41.0316 ], [ -3.6257, 41.0316 ], [ -3.626, 41.0315 ], [ -3.6261, 41.0309 ], [ -3.6262, 41.031 ], [ -3.6263, 41.0309 ], [ -3.6261, 41.0308 ], [ -3.6259, 41.0302 ], [ -3.6261, 41.0299 ], [ -3.6263, 41.0299 ], [ -3.6262, 41.0297 ], [ -3.6267, 41.0293 ], [ -3.6265, 41.0292 ], [ -3.6262, 41.0294 ], [ -3.6261, 41.029 ], [ -3.6258, 41.0291 ], [ -3.6259, 41.0287 ], [ -3.6257, 41.0286 ], [ -3.6261, 41.0285 ], [ -3.6253, 41.0283 ], [ -3.625, 41.0284 ], [ -3.6251, 41.0289 ], [ -3.6247, 41.0288 ], [ -3.6247, 41.0292 ], [ -3.6243, 41.0288 ], [ -3.6241, 41.029 ], [ -3.6242, 41.0291 ], [ -3.624, 41.0293 ], [ -3.6242, 41.0294 ], [ -3.6239, 41.0296 ], [ -3.6241, 41.0297 ], [ -3.6238, 41.0299 ], [ -3.6237, 41.0304 ], [ -3.6236, 41.0304 ], [ -3.6237, 41.0305 ], [ -3.6233, 41.0306 ], [ -3.6235, 41.0306 ], [ -3.6236, 41.031 ], [ -3.6239, 41.0314 ], [ -3.6239, 41.0317 ], [ -3.6238, 41.0317 ], [ -3.6238, 41.032 ], [ -3.6237, 41.032 ], [ -3.6237, 41.0323 ], [ -3.6238, 41.0323 ], [ -3.6234, 41.0327 ], [ -3.6245, 41.0329 ], [ -3.6245, 41.033 ], [ -3.6241, 41.033 ], [ -3.6249, 41.0336 ], [ -3.6247, 41.0341 ], [ -3.6251, 41.034 ], [ -3.6253, 41.0343 ], [ -3.6254, 41.0341 ] ] ] } },
{ "type": "Feature", "properties": { "municipio": "La Serna del Monte", "clasificacion": "urbano-consolidado", "calificacion": "sin-asignar", "version": "vigente", "fuente": "SIT-CAM WFS — UsoDelSuelo:VPLA_V_CLASIFICACION (https://idem.comunidad.madrid/geosrvg/ows)", "fecha_dato": "2026-05-12", "ambito": "17694", "_raw_CD_SIGLAS": "SU", "_raw_DS_CLASIF_GEN": "Suelo Urbano", "_raw_DS_CLASIF_DET": "Suelo Urbano", "_raw_DS_DOCU": "NORMAS SUBSIDIARIAS", "_raw_DS_LEY": "CM Ley 4/1984, E RD 1346/1976", "_raw_FC_AC": "1992-03-13", "_raw_NM_AREA_M2": 10743.8736514186, "_cam_code": "138" }, "geometry": { "type": "Polygon", "coordinates": [ [ [ -3.6314, 41.0268 ], [ -3.6309, 41.0275 ], [ -3.6318, 41.0278 ], [ -3.6321, 41.0271 ], [ -3.6323, 41.0271 ], [ -3.6322, 41.0266 ], [ -3.6318, 41.0263 ], [ -3.6313, 41.0263 ], [ -3.6314, 41.0268 ] ] ] } }
]
}
