{
"type": "FeatureCollection",
"name": "vigente.full",
"features": [
{ "type": "Feature", "properties": { "municipio": "Ajalvir", "clasificacion": "no-urbanizable-protegido", "calificacion": "sin-asignar", "version": "vigente", "fuente": "SIT-CAM WFS — UsoDelSuelo:VPLA_V_CLASIFICACION (https://idem.comunidad.madrid/geosrvg/ows)", "fecha_dato": "2026-05-12", "ambito": "14401", "_raw_CD_SIGLAS": "SNUP", "_raw_DS_CLASIF_GEN": "Suelo No Urbanizable Protegido", "_raw_DS_CLASIF_DET": "Suelo No Urbanizable Especialmente Protegido Por su Interés Paisajístico", "_raw_DS_DOCU": "NORMAS SUBSIDIARIAS", "_raw_DS_LEY": "E RD 1346/1976", "_raw_FC_AC": "1991-02-21", "_raw_NM_AREA_M2": 263900.3732271, "_cam_code": "002" }, "geometry": { "type": "Polygon", "coordinates": [ [ [ -3.4918, 40.5132 ], [ -3.4931, 40.5145 ], [ -3.4934, 40.5151 ], [ -3.4935, 40.5151 ], [ -3.4935, 40.5153 ], [ -3.4941, 40.5161 ], [ -3.4941, 40.5163 ], [ -3.4944, 40.5165 ], [ -3.4944, 40.5167 ], [ -3.4945, 40.5167 ], [ -3.4951, 40.5177 ], [ -3.4967, 40.5189 ], [ -3.498, 40.519 ], [ -3.4973, 40.5181 ], [ -3.4967, 40.518 ], [ -3.4962, 40.5176 ], [ -3.4956, 40.5169 ], [ -3.4952, 40.5162 ], [ -3.4944, 40.5154 ], [ -3.4944, 40.5152 ], [ -3.4927, 40.5117 ], [ -3.4924, 40.5114 ], [ -3.4907, 40.5107 ], [ -3.4905, 40.5105 ], [ -3.4883, 40.5067 ], [ -3.4881, 40.5066 ], [ -3.4878, 40.5058 ], [ -3.4876, 40.5056 ], [ -3.4872, 40.5042 ], [ -3.4867, 40.5032 ], [ -3.486, 40.5026 ], [ -3.4853, 40.5005 ], [ -3.4846, 40.4996 ], [ -3.4837, 40.5 ], [ -3.4836, 40.5001 ], [ -3.4858, 40.5039 ], [ -3.4883, 40.5087 ], [ -3.4898, 40.5108 ], [ -3.4895, 40.512 ], [ -3.489, 40.5128 ], [ -3.4889, 40.5132 ], [ -3.489, 40.5136 ], [ -3.4894, 40.5139 ], [ -3.4901, 40.5139 ], [ -3.4914, 40.5131 ], [ -3.4918, 40.5132 ] ] ] } },
{ "type": "Feature", "properties": { "municipio": "Ajalvir", "clasificacion": "no-urbanizable-protegido", "calificacion": "sin-asignar", "version": "vigente", "fuente": "SIT-CAM WFS — UsoDelSuelo:VPLA_V_CLASIFICACION (https://idem.comunidad.madrid/geosrvg/ows)", "fecha_dato": "2026-05-12", "ambito": "14401", "_raw_CD_SIGLAS": "SNUP", "_raw_DS_CLASIF_GEN": "Suelo No Urbanizable Protegido", "_raw_DS_CLASIF_DET": "Suelo No Urbanizable Especialmente Protegido Por su Interés Paisajístico", "_raw_DS_DOCU": "NORMAS SUBSIDIARIAS", "_raw_DS_LEY": "E RD 1346/1976", "_raw_FC_AC": "1991-02-21", "_raw_NM_AREA_M2": 526768.92464897502, "_cam_code": "002" }, "geometry": { "type": "Polygon", "coordinates": [ [ [ -3.4743, 40.5411 ], [ -3.475, 40.5414 ], [ -3.4758, 40.5423 ], [ -3.4755, 40.545 ], [ -3.4788, 40.5451 ], [ -3.4789, 40.5452 ], [ -3.4798, 40.5447 ], [ -3.482, 40.543 ], [ -3.4842, 40.5426 ], [ -3.4848, 40.5421 ], [ -3.4855, 40.5418 ], [ -3.4844, 40.5418 ], [ -3.4859, 40.5407 ], [ -3.4856, 40.5403 ], [ -3.4858, 40.5402 ], [ -3.4845, 40.5386 ], [ -3.4829, 40.538 ], [ -3.4827, 40.538 ], [ -3.4825, 40.5384 ], [ -3.482, 40.5382 ], [ -3.4816, 40.5382 ], [ -3.4816, 40.538 ], [ -3.4813, 40.5379 ], [ -3.4812, 40.5377 ], [ -3.4805, 40.5375 ], [ -3.4808, 40.5372 ], [ -3.4797, 40.5369 ], [ -3.4789, 40.5379 ], [ -3.4776, 40.5389 ], [ -3.4772, 40.5396 ], [ -3.4756, 40.5396 ], [ -3.475, 40.5398 ], [ -3.4744, 40.5405 ], [ -3.4743, 40.5411 ] ] ] } },
{ "type": "Feature", "properties": { "municipio": "Ajalvir", "clasificacion": "no-urbanizable-protegido", "calificacion": "sin-asignar", "version": "vigente", "fuente": "SIT-CAM WFS — UsoDelSuelo:VPLA_V_CLASIFICACION (https://idem.comunidad.madrid/geosrvg/ows)", "fecha_dato": "2026-05-12", "ambito": "14401", "_raw_CD_SIGLAS": "SNUP", "_raw_DS_CLASIF_GEN": "Suelo No Urbanizable Protegido", "_raw_DS_CLASIF_DET": "Suelo No Urbanizable Especialmente Protegido Por Afección de Cauces, Riberas y Embalses", "_raw_DS_DOCU": "NORMAS SUBSIDIARIAS", "_raw_DS_LEY": "E RD 1346/1976", "_raw_FC_AC": "1991-02-21", "_raw_NM_AREA_M2": 272306.57322624, "_cam_code": "002" }, "geometry": { "type": "Polygon", "coordinates": [ [ [ -3.4562, 40.5099 ], [ -3.4572, 40.5102 ], [ -3.4572, 40.5103 ], [ -3.4581, 40.5105 ], [ -3.458, 40.5075 ], [ -3.4583, 40.5058 ], [ -3.4571, 40.4993 ], [ -3.4541, 40.5016 ], [ -3.4548, 40.5023 ], [ -3.4551, 40.5028 ], [ -3.4551, 40.5038 ], [ -3.4548, 40.5046 ], [ -3.4549, 40.5066 ], [ -3.4556, 40.5091 ], [ -3.4559, 40.5098 ], [ -3.4562, 40.51 ], [ -3.4562, 40.5099 ] ] ] } },
{ "type": "Feature", "properties": { "municipio": "Ajalvir", "clasificacion": "no-urbanizable-protegido", "calificacion": "sin-asignar", "version": "vigente", "fuente": "SIT-CAM WFS — UsoDelSuelo:VPLA_V_CLASIFICACION (https://idem.comunidad.madrid/geosrvg/ows)", "fecha_dato": "2026-05-12", "ambito": "14401", "_raw_CD_SIGLAS": "SNUP", "_raw_DS_CLASIF_GEN": "Suelo No Urbanizable Protegido", "_raw_DS_CLASIF_DET": "Suelo No Urbanizable Especialmente Protegido Por Afección de Cauces, Riberas y Embalses", "_raw_DS_DOCU": "NORMAS SUBSIDIARIAS", "_raw_DS_LEY": "E RD 1346/1976", "_raw_FC_AC": "1991-02-21", "_raw_NM_AREA_M2": 759310.82068137301, "_cam_code": "002" }, "geometry": { "type": "Polygon", "coordinates": [ [ [ -3.4759, 40.5295 ], [ -3.478, 40.532 ], [ -3.4788, 40.5307 ], [ -3.4777, 40.5298 ], [ -3.4783, 40.5295 ], [ -3.4783, 40.5293 ], [ -3.4781, 40.5291 ], [ -3.4777, 40.5291 ], [ -3.4777, 40.529 ], [ -3.4785, 40.5286 ], [ -3.4764, 40.5273 ], [ -3.4748, 40.526 ], [ -3.474, 40.5259 ], [ -3.4734, 40.5255 ], [ -3.4728, 40.5249 ], [ -3.4724, 40.5242 ], [ -3.4722, 40.5237 ], [ -3.472, 40.5221 ], [ -3.4716, 40.5212 ], [ -3.4714, 40.5203 ], [ -3.4711, 40.5195 ], [ -3.4707, 40.5191 ], [ -3.4702, 40.5181 ], [ -3.47, 40.5174 ], [ -3.47, 40.5169 ], [ -3.4698, 40.5165 ], [ -3.4699, 40.5161 ], [ -3.4698, 40.5158 ], [ -3.469, 40.5148 ], [ -3.4687, 40.5141 ], [ -3.4686, 40.5131 ], [ -3.4681, 40.5126 ], [ -3.468, 40.5121 ], [ -3.4673, 40.5107 ], [ -3.4668, 40.5103 ], [ -3.4662, 40.5092 ], [ -3.4656, 40.5079 ], [ -3.4653, 40.5064 ], [ -3.4648, 40.505 ], [ -3.4633, 40.5023 ], [ -3.4633, 40.5004 ], [ -3.4627, 40.4964 ], [ -3.4598, 40.4979 ], [ -3.4603, 40.498 ], [ -3.4614, 40.4986 ], [ -3.4617, 40.4989 ], [ -3.4621, 40.4998 ], [ -3.4621, 40.5016 ], [ -3.4615, 40.5034 ], [ -3.4614, 40.5041 ], [ -3.4616, 40.5048 ], [ -3.4632, 40.5078 ], [ -3.465, 40.5119 ], [ -3.4659, 40.5136 ], [ -3.4673, 40.515 ], [ -3.4688, 40.5173 ], [ -3.469, 40.5179 ], [ -3.4689, 40.5206 ], [ -3.4694, 40.5233 ], [ -3.4696, 40.5238 ], [ -3.4706, 40.5252 ], [ -3.4723, 40.5268 ], [ -3.4759, 40.5295 ] ] ] } },
{ "type": "Feature", "properties": { "municipio": "Ajalvir", "clasificacion": "urbano-consolidado", "calificacion": "sin-asignar", "version": "vigente", "fuente": "SIT-CAM WFS — UsoDelSuelo:VPLA_V_CLASIFICACION (https://idem.comunidad.madrid/geosrvg/ows)", "fecha_dato": "2026-05-12", "ambito": "14401", "_raw_CD_SIGLAS": "SU", "_raw_DS_CLASIF_GEN": "Suelo Urbano", "_raw_DS_CLASIF_DET": "Suelo Urbano", "_raw_DS_DOCU": "NORMAS SUBSIDIARIAS", "_raw_DS_LEY": "E RD 1346/1976", "_raw_FC_AC": "1991-02-21", "_raw_NM_AREA_M2": 39096.350850124603, "_cam_code": "002" }, "geometry": { "type": "Polygon", "coordinates": [ [ [ -3.4867, 40.5401 ], [ -3.4844, 40.5418 ], [ -3.4855, 40.5418 ], [ -3.4869, 40.5412 ], [ -3.4873, 40.5409 ], [ -3.4874, 40.5409 ], [ -3.4876, 40.5413 ], [ -3.4884, 40.5408 ], [ -3.4869, 40.539 ], [ -3.4864, 40.5392 ], [ -3.4862, 40.5389 ], [ -3.486, 40.5389 ], [ -3.4859, 40.539 ], [ -3.4866, 40.5397 ], [ -3.4867, 40.5401 ] ] ] } },
{ "type": "Feature", "properties": { "municipio": "Ajalvir", "clasificacion": "urbano-consolidado", "calificacion": "sin-asignar", "version": "vigente", "fuente": "SIT-CAM WFS — UsoDelSuelo:VPLA_V_CLASIFICACION (https://idem.comunidad.madrid/geosrvg/ows)", "fecha_dato": "2026-05-12", "ambito": "14401", "_raw_CD_SIGLAS": "SU", "_raw_DS_CLASIF_GEN": "Suelo Urbano", "_raw_DS_CLASIF_DET": "Suelo Urbano", "_raw_DS_DOCU": "NORMAS SUBSIDIARIAS", "_raw_DS_LEY": "E RD 1346/1976", "_raw_FC_AC": "1991-02-21", "_raw_NM_AREA_M2": 317089.42956861801, "_cam_code": "002" }, "geometry": { "type": "Polygon", "coordinates": [ [ [ -3.4799, 40.5064 ], [ -3.4828, 40.5063 ], [ -3.4826, 40.5034 ], [ -3.4825, 40.5032 ], [ -3.483, 40.5031 ], [ -3.4831, 40.5002 ], [ -3.4831, 40.5003 ], [ -3.4846, 40.4996 ], [ -3.4837, 40.499 ], [ -3.4828, 40.4978 ], [ -3.4822, 40.4973 ], [ -3.4809, 40.4968 ], [ -3.4802, 40.4967 ], [ -3.4797, 40.4964 ], [ -3.4794, 40.496 ], [ -3.479, 40.4959 ], [ -3.4791, 40.4975 ], [ -3.4793, 40.4975 ], [ -3.4792, 40.4976 ], [ -3.4792, 40.4988 ], [ -3.4796, 40.5021 ], [ -3.4799, 40.5064 ] ] ] } },
{ "type": "Feature", "properties": { "municipio": "Ajalvir", "clasificacion": "urbano-consolidado", "calificacion": "sin-asignar", "version": "vigente", "fuente": "SIT-CAM WFS — UsoDelSuelo:VPLA_V_CLASIFICACION (https://idem.comunidad.madrid/geosrvg/ows)", "fecha_dato": "2026-05-12", "ambito": "14401", "_raw_CD_SIGLAS": "SU", "_raw_DS_CLASIF_GEN": "Suelo Urbano", "_raw_DS_CLASIF_DET": "Suelo Urbano", "_raw_DS_DOCU": "NORMAS SUBSIDIARIAS", "_raw_DS_LEY": "E RD 1346/1976", "_raw_FC_AC": "1991-02-21", "_raw_NM_AREA_M2": 10544.252550020699, "_cam_code": "002" }, "geometry": { "type": "Polygon", "coordinates": [ [ [ -3.4807, 40.5154 ], [ -3.4808, 40.5165 ], [ -3.482, 40.5163 ], [ -3.4825, 40.5161 ], [ -3.4823, 40.5159 ], [ -3.4817, 40.516 ], [ -3.4817, 40.5154 ], [ -3.4807, 40.5154 ] ] ] } },
{ "type": "Feature", "properties": { "municipio": "Ajalvir", "clasificacion": "urbano-consolidado", "calificacion": "sin-asignar", "version": "vigente", "fuente": "SIT-CAM WFS — UsoDelSuelo:VPLA_V_CLASIFICACION (https://idem.comunidad.madrid/geosrvg/ows)", "fecha_dato": "2026-05-12", "ambito": "14401", "_raw_CD_SIGLAS": "SU", "_raw_DS_CLASIF_GEN": "Suelo Urbano", "_raw_DS_CLASIF_DET": "Suelo Urbano", "_raw_DS_DOCU": "NORMAS SUBSIDIARIAS", "_raw_DS_LEY": "E RD 1346/1976", "_raw_FC_AC": "1991-02-21", "_raw_NM_AREA_M2": 221450.65429946, "_cam_code": "002" }, "geometry": { "type": "Polygon", "coordinates": [ [ [ -3.4778, 40.5166 ], [ -3.4778, 40.5167 ], [ -3.4781, 40.5166 ], [ -3.4807, 40.5154 ], [ -3.4806, 40.5144 ], [ -3.4817, 40.514 ], [ -3.4814, 40.5137 ], [ -3.4813, 40.5134 ], [ -3.4816, 40.5122 ], [ -3.4822, 40.5122 ], [ -3.4822, 40.5118 ], [ -3.4817, 40.5116 ], [ -3.482, 40.5102 ], [ -3.4827, 40.5089 ], [ -3.483, 40.5086 ], [ -3.483, 40.5084 ], [ -3.4829, 40.5085 ], [ -3.4812, 40.5085 ], [ -3.4807, 40.5079 ], [ -3.4802, 40.5079 ], [ -3.4801, 40.508 ], [ -3.4802, 40.5087 ], [ -3.4798, 40.5086 ], [ -3.4779, 40.5088 ], [ -3.4782, 40.5128 ], [ -3.4796, 40.5127 ], [ -3.4798, 40.5148 ], [ -3.4777, 40.5157 ], [ -3.4777, 40.5161 ], [ -3.4773, 40.5161 ], [ -3.4773, 40.5162 ], [ -3.4774, 40.5165 ], [ -3.4778, 40.5166 ] ] ] } },
{ "type": "Feature", "properties": { "municipio": "Ajalvir", "clasificacion": "urbano-consolidado", "calificacion": "sin-asignar", "version": "vigente", "fuente": "SIT-CAM WFS — UsoDelSuelo:VPLA_V_CLASIFICACION (https://idem.comunidad.madrid/geosrvg/ows)", "fecha_dato": "2026-05-12", "ambito": "14401", "_raw_CD_SIGLAS": "SU", "_raw_DS_CLASIF_GEN": "Suelo Urbano", "_raw_DS_CLASIF_DET": "Suelo Urbano", "_raw_DS_DOCU": "NORMAS SUBSIDIARIAS", "_raw_DS_LEY": "E RD 1346/1976", "_raw_FC_AC": "1991-02-21", "_raw_NM_AREA_M2": 837432.40842976805, "_cam_code": "002" }, "geometry": { "type": "Polygon", "coordinates": [ [ [ -3.4805, 40.5362 ], [ -3.4821, 40.5366 ], [ -3.4805, 40.5374 ], [ -3.4805, 40.5375 ], [ -3.4812, 40.5377 ], [ -3.4813, 40.5379 ], [ -3.4817, 40.538 ], [ -3.4823, 40.537 ], [ -3.4827, 40.5366 ], [ -3.4834, 40.5371 ], [ -3.4835, 40.537 ], [ -3.4843, 40.5375 ], [ -3.4846, 40.5376 ], [ -3.4848, 40.5374 ], [ -3.485, 40.5378 ], [ -3.4857, 40.5376 ], [ -3.4852, 40.537 ], [ -3.4866, 40.5365 ], [ -3.4861, 40.5355 ], [ -3.4857, 40.5342 ], [ -3.4858, 40.5339 ], [ -3.4889, 40.5332 ], [ -3.4892, 40.5333 ], [ -3.4891, 40.5327 ], [ -3.4894, 40.5326 ], [ -3.4918, 40.5322 ], [ -3.4935, 40.5322 ], [ -3.4933, 40.5315 ], [ -3.493, 40.5313 ], [ -3.4931, 40.5305 ], [ -3.4929, 40.5302 ], [ -3.4923, 40.5299 ], [ -3.4923, 40.5298 ], [ -3.4919, 40.5302 ], [ -3.4904, 40.5307 ], [ -3.49, 40.5307 ], [ -3.4896, 40.5313 ], [ -3.4889, 40.5315 ], [ -3.4892, 40.5322 ], [ -3.4891, 40.5324 ], [ -3.4889, 40.5324 ], [ -3.4887, 40.5321 ], [ -3.4876, 40.5325 ], [ -3.4874, 40.5325 ], [ -3.487, 40.532 ], [ -3.486, 40.5322 ], [ -3.4859, 40.5319 ], [ -3.4852, 40.5323 ], [ -3.4843, 40.5314 ], [ -3.4858, 40.5305 ], [ -3.486, 40.5307 ], [ -3.4865, 40.5304 ], [ -3.4863, 40.5302 ], [ -3.4872, 40.5297 ], [ -3.4874, 40.5297 ], [ -3.4869, 40.5293 ], [ -3.4867, 40.5293 ], [ -3.4867, 40.5292 ], [ -3.4829, 40.53 ], [ -3.4824, 40.5299 ], [ -3.4819, 40.5302 ], [ -3.4815, 40.5301 ], [ -3.4814, 40.5291 ], [ -3.482, 40.5289 ], [ -3.4825, 40.5284 ], [ -3.4829, 40.5285 ], [ -3.4832, 40.5288 ], [ -3.4836, 40.5286 ], [ -3.4837, 40.5284 ], [ -3.4842, 40.5282 ], [ -3.4834, 40.5277 ], [ -3.483, 40.5271 ], [ -3.483, 40.5269 ], [ -3.4818, 40.5269 ], [ -3.4819, 40.5265 ], [ -3.4817, 40.5263 ], [ -3.4835, 40.5258 ], [ -3.4835, 40.5254 ], [ -3.4826, 40.5257 ], [ -3.4817, 40.5258 ], [ -3.4816, 40.5223 ], [ -3.4821, 40.5198 ], [ -3.4824, 40.5193 ], [ -3.4826, 40.5184 ], [ -3.4809, 40.5185 ], [ -3.4811, 40.524 ], [ -3.4793, 40.5251 ], [ -3.4798, 40.5252 ], [ -3.4811, 40.5245 ], [ -3.4811, 40.5259 ], [ -3.4812, 40.5261 ], [ -3.4811, 40.5268 ], [ -3.4802, 40.5276 ], [ -3.4777, 40.529 ], [ -3.4777, 40.5291 ], [ -3.4781, 40.5291 ], [ -3.4783, 40.5293 ], [ -3.4783, 40.5295 ], [ -3.4777, 40.5298 ], [ -3.4788, 40.5307 ], [ -3.4778, 40.5323 ], [ -3.4776, 40.5324 ], [ -3.4774, 40.5322 ], [ -3.4771, 40.5325 ], [ -3.4774, 40.5328 ], [ -3.4777, 40.5329 ], [ -3.4774, 40.5335 ], [ -3.478, 40.5342 ], [ -3.4767, 40.5353 ], [ -3.4764, 40.5354 ], [ -3.4758, 40.536 ], [ -3.4766, 40.5366 ], [ -3.4764, 40.537 ], [ -3.476, 40.5373 ], [ -3.4762, 40.5375 ], [ -3.4772, 40.5369 ], [ -3.4792, 40.5354 ], [ -3.4805, 40.5362 ] ] ] } },
{ "type": "Feature", "properties": { "municipio": "Ajalvir", "clasificacion": "urbanizable-no-sectorizado", "calificacion": "sin-asignar", "version": "vigente", "fuente": "SIT-CAM WFS — UsoDelSuelo:VPLA_V_CLASIFICACION (https://idem.comunidad.madrid/geosrvg/ows)", "fecha_dato": "2026-05-12", "ambito": "14401", "_raw_CD_SIGLAS": "SUBNS", "_raw_DS_CLASIF_GEN": "Suelo No Urbanizable Común", "_raw_DS_CLASIF_DET": "Suelo No Urbanizable Común", "_raw_DS_DOCU": "NORMAS SUBSIDIARIAS", "_raw_DS_LEY": "E RD 1346/1976", "_raw_FC_AC": "1991-02-21", "_raw_NM_AREA_M2": 12259072.9193311, "_cam_code": "002" }, "geometry": { "type": "Polygon", "coordinates": [ [ [ -3.4829, 40.5576 ], [ -3.4821, 40.56 ], [ -3.481, 40.561 ], [ -3.481, 40.5622 ], [ -3.4843, 40.5619 ], [ -3.4857, 40.5602 ], [ -3.4877, 40.5598 ], [ -3.4884, 40.5579 ], [ -3.4886, 40.5561 ], [ -3.4888, 40.5555 ], [ -3.4929, 40.5545 ], [ -3.4957, 40.555 ], [ -3.4981, 40.5546 ], [ -3.5024, 40.5525 ], [ -3.502, 40.5523 ], [ -3.5018, 40.552 ], [ -3.5018, 40.5513 ], [ -3.5021, 40.5511 ], [ -3.5022, 40.5491 ], [ -3.5028, 40.5476 ], [ -3.5029, 40.547 ], [ -3.5029, 40.5469 ], [ -3.5022, 40.5468 ], [ -3.5027, 40.5459 ], [ -3.5024, 40.5434 ], [ -3.5045, 40.5427 ], [ -3.506, 40.5411 ], [ -3.5083, 40.5395 ], [ -3.5099, 40.5389 ], [ -3.5107, 40.5389 ], [ -3.5111, 40.5393 ], [ -3.5122, 40.5386 ], [ -3.5101, 40.5357 ], [ -3.5096, 40.5326 ], [ -3.5082, 40.5309 ], [ -3.5081, 40.5298 ], [ -3.5058, 40.528 ], [ -3.5045, 40.5272 ], [ -3.5045, 40.5271 ], [ -3.5041, 40.527 ], [ -3.504, 40.5268 ], [ -3.503, 40.5261 ], [ -3.503, 40.5256 ], [ -3.5028, 40.5253 ], [ -3.5024, 40.5239 ], [ -3.5023, 40.5239 ], [ -3.5018, 40.5231 ], [ -3.5014, 40.523 ], [ -3.5012, 40.5228 ], [ -3.5016, 40.5223 ], [ -3.5016, 40.5219 ], [ -3.5013, 40.5216 ], [ -3.5011, 40.5216 ], [ -3.5003, 40.5208 ], [ -3.5003, 40.5204 ], [ -3.4996, 40.5201 ], [ -3.4991, 40.5196 ], [ -3.4985, 40.5194 ], [ -3.4981, 40.519 ], [ -3.4967, 40.5189 ], [ -3.4959, 40.5184 ], [ -3.4951, 40.5177 ], [ -3.4945, 40.5167 ], [ -3.4944, 40.5167 ], [ -3.4944, 40.5165 ], [ -3.4941, 40.5163 ], [ -3.4941, 40.5161 ], [ -3.4935, 40.5153 ], [ -3.4935, 40.5151 ], [ -3.4934, 40.5151 ], [ -3.4931, 40.5145 ], [ -3.4918, 40.5132 ], [ -3.4914, 40.5131 ], [ -3.4901, 40.5139 ], [ -3.4894, 40.5139 ], [ -3.489, 40.5136 ], [ -3.4889, 40.5134 ], [ -3.489, 40.5128 ], [ -3.4895, 40.512 ], [ -3.4898, 40.5108 ], [ -3.4883, 40.5087 ], [ -3.4858, 40.5039 ], [ -3.4836, 40.5001 ], [ -3.4833, 40.5002 ], [ -3.4831, 40.5003 ], [ -3.4831, 40.5003 ], [ -3.4831, 40.5002 ], [ -3.483, 40.5031 ], [ -3.4825, 40.5032 ], [ -3.4826, 40.5034 ], [ -3.4828, 40.5063 ], [ -3.4799, 40.5064 ], [ -3.4796, 40.5021 ], [ -3.4792, 40.4988 ], [ -3.4792, 40.4976 ], [ -3.4793, 40.4975 ], [ -3.4791, 40.4975 ], [ -3.479, 40.4959 ], [ -3.4794, 40.496 ], [ -3.48, 40.4966 ], [ -3.481, 40.4969 ], [ -3.4799, 40.4952 ], [ -3.4798, 40.4952 ], [ -3.4796, 40.4946 ], [ -3.4788, 40.4948 ], [ -3.4744, 40.4947 ], [ -3.4707, 40.4938 ], [ -3.4699, 40.4935 ], [ -3.4676, 40.4932 ], [ -3.4646, 40.4954 ], [ -3.4627, 40.4964 ], [ -3.4633, 40.5004 ], [ -3.4633, 40.5023 ], [ -3.4648, 40.505 ], [ -3.4653, 40.5064 ], [ -3.4656, 40.5079 ], [ -3.4662, 40.5092 ], [ -3.4668, 40.5103 ], [ -3.4673, 40.5107 ], [ -3.468, 40.5121 ], [ -3.4681, 40.5126 ], [ -3.4686, 40.5131 ], [ -3.4687, 40.5141 ], [ -3.469, 40.5148 ], [ -3.4698, 40.5158 ], [ -3.4699, 40.5161 ], [ -3.4698, 40.5165 ], [ -3.47, 40.5169 ], [ -3.47, 40.5174 ], [ -3.4702, 40.5181 ], [ -3.4707, 40.5191 ], [ -3.4711, 40.5195 ], [ -3.4716, 40.5212 ], [ -3.472, 40.5221 ], [ -3.4722, 40.5237 ], [ -3.4728, 40.5249 ], [ -3.474, 40.5259 ], [ -3.4748, 40.526 ], [ -3.4764, 40.5273 ], [ -3.4785, 40.5286 ], [ -3.4805, 40.5274 ], [ -3.4811, 40.5268 ], [ -3.4811, 40.5265 ], [ -3.4812, 40.5265 ], [ -3.4811, 40.5245 ], [ -3.4798, 40.5252 ], [ -3.4793, 40.5251 ], [ -3.4811, 40.524 ], [ -3.4811, 40.5221 ], [ -3.4809, 40.52 ], [ -3.4809, 40.5171 ], [ -3.4807, 40.5154 ], [ -3.4778, 40.5167 ], [ -3.4777, 40.5165 ], [ -3.4774, 40.5165 ], [ -3.4773, 40.5162 ], [ -3.4773, 40.5161 ], [ -3.4777, 40.5161 ], [ -3.4777, 40.5157 ], [ -3.4798, 40.5148 ], [ -3.4796, 40.5127 ], [ -3.4782, 40.5128 ], [ -3.4779, 40.5088 ], [ -3.4798, 40.5086 ], [ -3.4802, 40.5087 ], [ -3.4801, 40.5084 ], [ -3.4802, 40.5079 ], [ -3.4807, 40.5079 ], [ -3.481, 40.5083 ], [ -3.4832, 40.5082 ], [ -3.4832, 40.5084 ], [ -3.484, 40.5084 ], [ -3.483, 40.51 ], [ -3.4825, 40.5119 ], [ -3.4823, 40.5135 ], [ -3.4829, 40.514 ], [ -3.4841, 40.5154 ], [ -3.4837, 40.5156 ], [ -3.4836, 40.5158 ], [ -3.4837, 40.5161 ], [ -3.481, 40.5168 ], [ -3.4811, 40.517 ], [ -3.4811, 40.5181 ], [ -3.4836, 40.5181 ], [ -3.483, 40.5198 ], [ -3.483, 40.5202 ], [ -3.4827, 40.5211 ], [ -3.4825, 40.5232 ], [ -3.4843, 40.5231 ], [ -3.4845, 40.5235 ], [ -3.4847, 40.5295 ], [ -3.4834, 40.5298 ], [ -3.4829, 40.5298 ], [ -3.4825, 40.5299 ], [ -3.4825, 40.53 ], [ -3.4867, 40.5292 ], [ -3.4867, 40.5293 ], [ -3.4869, 40.5293 ], [ -3.4889, 40.5306 ], [ -3.4904, 40.5307 ], [ -3.4919, 40.5302 ], [ -3.4923, 40.5298 ], [ -3.4923, 40.5299 ], [ -3.4929, 40.5302 ], [ -3.4931, 40.5305 ], [ -3.493, 40.5313 ], [ -3.4933, 40.5315 ], [ -3.4935, 40.5321 ], [ -3.4935, 40.5322 ], [ -3.4909, 40.5323 ], [ -3.4894, 40.5326 ], [ -3.4891, 40.5327 ], [ -3.4892, 40.5333 ], [ -3.4889, 40.5332 ], [ -3.4858, 40.5339 ], [ -3.4857, 40.5342 ], [ -3.4861, 40.5355 ], [ -3.4866, 40.5365 ], [ -3.4852, 40.537 ], [ -3.4884, 40.5408 ], [ -3.4876, 40.5413 ], [ -3.4874, 40.5409 ], [ -3.4873, 40.5409 ], [ -3.4873, 40.541 ], [ -3.4865, 40.5414 ], [ -3.4848, 40.5421 ], [ -3.4842, 40.5426 ], [ -3.482, 40.543 ], [ -3.4798, 40.5447 ], [ -3.4789, 40.5452 ], [ -3.4812, 40.5485 ], [ -3.4808, 40.5493 ], [ -3.4808, 40.55 ], [ -3.4811, 40.5507 ], [ -3.482, 40.5514 ], [ -3.4819, 40.5531 ], [ -3.4821, 40.5535 ], [ -3.4821, 40.5537 ], [ -3.4814, 40.5546 ], [ -3.4813, 40.5559 ], [ -3.4832, 40.5555 ], [ -3.4829, 40.5576 ] ] ] } },
{ "type": "Feature", "properties": { "municipio": "Ajalvir", "clasificacion": "urbanizable-no-sectorizado", "calificacion": "sin-asignar", "version": "vigente", "fuente": "SIT-CAM WFS — UsoDelSuelo:VPLA_V_CLASIFICACION (https://idem.comunidad.madrid/geosrvg/ows)", "fecha_dato": "2026-05-12", "ambito": "14401", "_raw_CD_SIGLAS": "SUBNS", "_raw_DS_CLASIF_GEN": "Suelo No Urbanizable Común", "_raw_DS_CLASIF_DET": "Suelo No Urbanizable Común", "_raw_DS_DOCU": "NORMAS SUBSIDIARIAS", "_raw_DS_LEY": "E RD 1346/1976", "_raw_FC_AC": "1991-02-21", "_raw_NM_AREA_M2": 1235495.4995708801, "_cam_code": "002" }, "geometry": { "type": "Polygon", "coordinates": [ [ [ -3.4365, 40.5092 ], [ -3.4388, 40.5135 ], [ -3.4424, 40.5126 ], [ -3.4461, 40.5122 ], [ -3.4491, 40.5114 ], [ -3.45, 40.5115 ], [ -3.4509, 40.5119 ], [ -3.4515, 40.5119 ], [ -3.4528, 40.5123 ], [ -3.4533, 40.5123 ], [ -3.454, 40.5118 ], [ -3.4558, 40.5109 ], [ -3.4561, 40.5106 ], [ -3.4562, 40.51 ], [ -3.4559, 40.5098 ], [ -3.4556, 40.5091 ], [ -3.4549, 40.5066 ], [ -3.4548, 40.5046 ], [ -3.4551, 40.5038 ], [ -3.4551, 40.5028 ], [ -3.455, 40.5026 ], [ -3.4541, 40.5016 ], [ -3.4524, 40.5029 ], [ -3.4472, 40.5051 ], [ -3.4461, 40.5054 ], [ -3.4447, 40.506 ], [ -3.443, 40.5061 ], [ -3.4419, 40.5063 ], [ -3.4379, 40.5075 ], [ -3.4366, 40.508 ], [ -3.4351, 40.5089 ], [ -3.4365, 40.5092 ] ] ] } },
{ "type": "Feature", "properties": { "municipio": "Ajalvir", "clasificacion": "urbanizable-no-sectorizado", "calificacion": "sin-asignar", "version": "vigente", "fuente": "SIT-CAM WFS — UsoDelSuelo:VPLA_V_CLASIFICACION (https://idem.comunidad.madrid/geosrvg/ows)", "fecha_dato": "2026-05-12", "ambito": "14401", "_raw_CD_SIGLAS": "SUBNS", "_raw_DS_CLASIF_GEN": "Suelo No Urbanizable Común", "_raw_DS_CLASIF_DET": "Suelo No Urbanizable Común", "_raw_DS_DOCU": "NORMAS SUBSIDIARIAS", "_raw_DS_LEY": "E RD 1346/1976", "_raw_FC_AC": "1991-02-21", "_raw_NM_AREA_M2": 2538545.0563969901, "_cam_code": "002" }, "geometry": { "type": "Polygon", "coordinates": [ [ [ -3.4719, 40.5405 ], [ -3.4732, 40.5407 ], [ -3.4743, 40.5411 ], [ -3.4744, 40.5405 ], [ -3.475, 40.5398 ], [ -3.4756, 40.5396 ], [ -3.4772, 40.5396 ], [ -3.4776, 40.5389 ], [ -3.4787, 40.538 ], [ -3.4763, 40.5376 ], [ -3.476, 40.5373 ], [ -3.4764, 40.537 ], [ -3.4766, 40.5366 ], [ -3.4758, 40.536 ], [ -3.4764, 40.5354 ], [ -3.4767, 40.5353 ], [ -3.478, 40.5342 ], [ -3.4774, 40.5335 ], [ -3.4777, 40.5329 ], [ -3.4771, 40.5326 ], [ -3.4774, 40.5322 ], [ -3.4777, 40.5324 ], [ -3.478, 40.532 ], [ -3.4759, 40.5295 ], [ -3.4723, 40.5268 ], [ -3.4706, 40.5252 ], [ -3.4696, 40.5238 ], [ -3.4694, 40.5233 ], [ -3.4689, 40.5206 ], [ -3.469, 40.5179 ], [ -3.4688, 40.5173 ], [ -3.4673, 40.515 ], [ -3.4659, 40.5136 ], [ -3.465, 40.5119 ], [ -3.4632, 40.5078 ], [ -3.4616, 40.5048 ], [ -3.4614, 40.5041 ], [ -3.4615, 40.5034 ], [ -3.4621, 40.5016 ], [ -3.4621, 40.4998 ], [ -3.462, 40.4995 ], [ -3.4617, 40.4989 ], [ -3.4614, 40.4986 ], [ -3.4603, 40.498 ], [ -3.4598, 40.4979 ], [ -3.4571, 40.4993 ], [ -3.4583, 40.5058 ], [ -3.458, 40.5075 ], [ -3.4581, 40.5105 ], [ -3.4587, 40.5107 ], [ -3.4591, 40.5106 ], [ -3.4606, 40.5109 ], [ -3.462, 40.511 ], [ -3.4616, 40.5123 ], [ -3.4617, 40.5132 ], [ -3.4623, 40.5132 ], [ -3.4623, 40.5135 ], [ -3.4632, 40.5138 ], [ -3.4639, 40.515 ], [ -3.4635, 40.5152 ], [ -3.4632, 40.5152 ], [ -3.4632, 40.5153 ], [ -3.4624, 40.5155 ], [ -3.4617, 40.5155 ], [ -3.4613, 40.5157 ], [ -3.4614, 40.5161 ], [ -3.4611, 40.5166 ], [ -3.4611, 40.517 ], [ -3.4615, 40.5181 ], [ -3.462, 40.5183 ], [ -3.4619, 40.5194 ], [ -3.4621, 40.5198 ], [ -3.4626, 40.52 ], [ -3.4626, 40.5201 ], [ -3.4629, 40.5201 ], [ -3.4631, 40.5203 ], [ -3.463, 40.5205 ], [ -3.4628, 40.5205 ], [ -3.4628, 40.5206 ], [ -3.4624, 40.5208 ], [ -3.4616, 40.5217 ], [ -3.4622, 40.5218 ], [ -3.4627, 40.5222 ], [ -3.4631, 40.5229 ], [ -3.4631, 40.5235 ], [ -3.4621, 40.5238 ], [ -3.4612, 40.5267 ], [ -3.4624, 40.5268 ], [ -3.4628, 40.5285 ], [ -3.4652, 40.5291 ], [ -3.467, 40.531 ], [ -3.4687, 40.5312 ], [ -3.4686, 40.5328 ], [ -3.4709, 40.5331 ], [ -3.4695, 40.5375 ], [ -3.4686, 40.5394 ], [ -3.4698, 40.5396 ], [ -3.4724, 40.5388 ], [ -3.4723, 40.5396 ], [ -3.4719, 40.5405 ] ] ] } },
{ "type": "Feature", "properties": { "municipio": "Ajalvir", "clasificacion": "urbanizable-sectorizado", "calificacion": "sin-asignar", "version": "vigente", "fuente": "SIT-CAM WFS — UsoDelSuelo:VPLA_V_CLASIFICACION (https://idem.comunidad.madrid/geosrvg/ows)", "fecha_dato": "2026-05-12", "ambito": "14401", "_raw_CD_SIGLAS": "SUBS", "_raw_DS_CLASIF_GEN": "Suelo Apto Para Urbanizar", "_raw_DS_CLASIF_DET": "Suelo Apto para Urbanizar", "_raw_DS_DOCU": "NORMAS SUBSIDIARIAS", "_raw_DS_LEY": "E RD 1346/1976", "_raw_FC_AC": "1991-02-21", "_raw_NM_AREA_M2": 67719.103625086296, "_cam_code": "002" }, "geometry": { "type": "Polygon", "coordinates": [ [ [ -3.4845, 40.5386 ], [ -3.4858, 40.5402 ], [ -3.4856, 40.5403 ], [ -3.4859, 40.5407 ], [ -3.4867, 40.5401 ], [ -3.4866, 40.5397 ], [ -3.4859, 40.539 ], [ -3.4862, 40.5389 ], [ -3.4864, 40.5392 ], [ -3.4869, 40.539 ], [ -3.4857, 40.5376 ], [ -3.485, 40.5378 ], [ -3.4848, 40.5374 ], [ -3.4846, 40.5376 ], [ -3.4843, 40.5375 ], [ -3.4835, 40.537 ], [ -3.4834, 40.5371 ], [ -3.4827, 40.5366 ], [ -3.4816, 40.538 ], [ -3.4816, 40.5382 ], [ -3.482, 40.5382 ], [ -3.4825, 40.5384 ], [ -3.4827, 40.538 ], [ -3.4838, 40.5383 ], [ -3.4838, 40.5384 ], [ -3.4845, 40.5386 ] ] ] } },
{ "type": "Feature", "properties": { "municipio": "Ajalvir", "clasificacion": "urbanizable-sectorizado", "calificacion": "sin-asignar", "version": "vigente", "fuente": "SIT-CAM WFS — UsoDelSuelo:VPLA_V_CLASIFICACION (https://idem.comunidad.madrid/geosrvg/ows)", "fecha_dato": "2026-05-12", "ambito": "14401", "_raw_CD_SIGLAS": "SUBS", "_raw_DS_CLASIF_GEN": "Suelo Apto Para Urbanizar", "_raw_DS_CLASIF_DET": "Suelo Apto para Urbanizar", "_raw_DS_DOCU": "NORMAS SUBSIDIARIAS", "_raw_DS_LEY": "E RD 1346/1976", "_raw_FC_AC": "1991-02-21", "_raw_NM_AREA_M2": 60501.956641096796, "_cam_code": "002" }, "geometry": { "type": "Polygon", "coordinates": [ [ [ -3.4792, 40.5354 ], [ -3.4762, 40.5375 ], [ -3.4765, 40.5377 ], [ -3.4771, 40.5377 ], [ -3.4787, 40.538 ], [ -3.4789, 40.5379 ], [ -3.4797, 40.5369 ], [ -3.48, 40.5369 ], [ -3.4808, 40.5372 ], [ -3.4808, 40.5373 ], [ -3.4821, 40.5366 ], [ -3.4813, 40.5365 ], [ -3.4805, 40.5362 ], [ -3.4792, 40.5354 ] ] ] } },
{ "type": "Feature", "properties": { "municipio": "Ajalvir", "clasificacion": "urbanizable-sectorizado", "calificacion": "sin-asignar", "version": "vigente", "fuente": "SIT-CAM WFS — UsoDelSuelo:VPLA_V_CLASIFICACION (https://idem.comunidad.madrid/geosrvg/ows)", "fecha_dato": "2026-05-12", "ambito": "14401", "_raw_CD_SIGLAS": "SUBS", "_raw_DS_CLASIF_GEN": "Suelo Apto Para Urbanizar", "_raw_DS_CLASIF_DET": "Suelo Apto para Urbanizar", "_raw_DS_DOCU": "NORMAS SUBSIDIARIAS", "_raw_DS_LEY": "E RD 1346/1976", "_raw_FC_AC": "1991-02-21", "_raw_NM_AREA_M2": 81999.732387522105, "_cam_code": "002" }, "geometry": { "type": "Polygon", "coordinates": [ [ [ -3.487, 40.532 ], [ -3.4874, 40.5325 ], [ -3.4881, 40.5324 ], [ -3.4881, 40.5323 ], [ -3.4887, 40.5321 ], [ -3.4889, 40.5324 ], [ -3.4891, 40.5324 ], [ -3.4892, 40.5322 ], [ -3.4889, 40.5315 ], [ -3.4896, 40.5313 ], [ -3.49, 40.5307 ], [ -3.4889, 40.5306 ], [ -3.4875, 40.5297 ], [ -3.4872, 40.5297 ], [ -3.4863, 40.5302 ], [ -3.4865, 40.5304 ], [ -3.486, 40.5307 ], [ -3.4858, 40.5305 ], [ -3.4843, 40.5314 ], [ -3.4852, 40.5323 ], [ -3.4858, 40.532 ], [ -3.4858, 40.5319 ], [ -3.4859, 40.5319 ], [ -3.486, 40.5322 ], [ -3.4868, 40.532 ], [ -3.487, 40.532 ] ] ] } },
{ "type": "Feature", "properties": { "municipio": "Ajalvir", "clasificacion": "urbanizable-sectorizado", "calificacion": "sin-asignar", "version": "vigente", "fuente": "SIT-CAM WFS — UsoDelSuelo:VPLA_V_CLASIFICACION (https://idem.comunidad.madrid/geosrvg/ows)", "fecha_dato": "2026-05-12", "ambito": "14401", "_raw_CD_SIGLAS": "SUBS", "_raw_DS_CLASIF_GEN": "Suelo Apto Para Urbanizar", "_raw_DS_CLASIF_DET": "Suelo Apto para Urbanizar", "_raw_DS_DOCU": "NORMAS SUBSIDIARIAS", "_raw_DS_LEY": "E RD 1346/1976", "_raw_FC_AC": "1991-02-21", "_raw_NM_AREA_M2": 303162.14537536399, "_cam_code": "002" }, "geometry": { "type": "Polygon", "coordinates": [ [ [ -3.482, 40.5289 ], [ -3.4814, 40.5291 ], [ -3.4814, 40.5299 ], [ -3.4816, 40.5302 ], [ -3.4819, 40.5302 ], [ -3.4824, 40.5299 ], [ -3.4847, 40.5295 ], [ -3.4845, 40.5235 ], [ -3.4844, 40.5232 ], [ -3.4843, 40.5231 ], [ -3.4825, 40.5232 ], [ -3.4827, 40.5211 ], [ -3.483, 40.5202 ], [ -3.483, 40.5198 ], [ -3.4836, 40.5181 ], [ -3.4811, 40.5181 ], [ -3.4811, 40.517 ], [ -3.481, 40.5168 ], [ -3.4837, 40.5161 ], [ -3.4836, 40.5158 ], [ -3.4837, 40.5156 ], [ -3.4841, 40.5154 ], [ -3.4829, 40.514 ], [ -3.4823, 40.5135 ], [ -3.4825, 40.5119 ], [ -3.483, 40.51 ], [ -3.484, 40.5084 ], [ -3.4832, 40.5084 ], [ -3.4832, 40.5082 ], [ -3.481, 40.5083 ], [ -3.4812, 40.5085 ], [ -3.4829, 40.5085 ], [ -3.483, 40.5084 ], [ -3.483, 40.5086 ], [ -3.4827, 40.5089 ], [ -3.482, 40.5102 ], [ -3.4817, 40.5116 ], [ -3.4822, 40.5118 ], [ -3.4822, 40.5122 ], [ -3.4816, 40.5122 ], [ -3.4813, 40.5134 ], [ -3.4814, 40.5137 ], [ -3.4817, 40.514 ], [ -3.4806, 40.5144 ], [ -3.4807, 40.5154 ], [ -3.4817, 40.5154 ], [ -3.4817, 40.516 ], [ -3.4823, 40.5159 ], [ -3.4825, 40.5161 ], [ -3.482, 40.5163 ], [ -3.4808, 40.5165 ], [ -3.4809, 40.5185 ], [ -3.4826, 40.5184 ], [ -3.4824, 40.5193 ], [ -3.4821, 40.5198 ], [ -3.4816, 40.5223 ], [ -3.4817, 40.5258 ], [ -3.4826, 40.5257 ], [ -3.4835, 40.5254 ], [ -3.4835, 40.5258 ], [ -3.4818, 40.5262 ], [ -3.4817, 40.5263 ], [ -3.4819, 40.5265 ], [ -3.4818, 40.5269 ], [ -3.483, 40.5269 ], [ -3.483, 40.5271 ], [ -3.4834, 40.5277 ], [ -3.4842, 40.5282 ], [ -3.4837, 40.5284 ], [ -3.4836, 40.5286 ], [ -3.4832, 40.5288 ], [ -3.4829, 40.5285 ], [ -3.4825, 40.5284 ], [ -3.482, 40.5289 ] ] ] } }
]
}
