{
"type": "FeatureCollection",
"name": "vigente.full",
"features": [
{ "type": "Feature", "properties": { "municipio": "Valdetorres de Jarama", "clasificacion": "no-urbanizable-protegido", "calificacion": "sin-asignar", "version": "vigente", "fuente": "SIT-CAM WFS — UsoDelSuelo:VPLA_V_CLASIFICACION (https://idem.comunidad.madrid/geosrvg/ows)", "fecha_dato": "2026-05-12", "ambito": "33691", "_raw_CD_SIGLAS": "SNUP", "_raw_DS_CLASIF_GEN": "Suelo No Urbanizable Protegido", "_raw_DS_CLASIF_DET": "Suelo No Urbanizable de Especial Protección Agrícola y Reserva Infraestructura Plan Regional", "_raw_DS_DOCU": "NORMAS SUBSIDIARIAS", "_raw_DS_LEY": "CM Ley 9/1995, E RDL 1/1992", "_raw_FC_AC": "1997-07-29", "_raw_NM_AREA_M2": 49729.872230024499, "_cam_code": "164" }, "geometry": { "type": "Polygon", "coordinates": [ [ [ -3.5422, 40.6736 ], [ -3.5421, 40.6751 ], [ -3.5418, 40.6756 ], [ -3.5434, 40.6768 ], [ -3.545, 40.6761 ], [ -3.5453, 40.6758 ], [ -3.5422, 40.6736 ] ] ] } },
{ "type": "Feature", "properties": { "municipio": "Valdetorres de Jarama", "clasificacion": "no-urbanizable-protegido", "calificacion": "sin-asignar", "version": "vigente", "fuente": "SIT-CAM WFS — UsoDelSuelo:VPLA_V_CLASIFICACION (https://idem.comunidad.madrid/geosrvg/ows)", "fecha_dato": "2026-05-12", "ambito": "33691", "_raw_CD_SIGLAS": "SNUP", "_raw_DS_CLASIF_GEN": "Suelo No Urbanizable Protegido", "_raw_DS_CLASIF_DET": "Suelo No Urbanizable de Especial Protección Ecológica y Cauces y Riberas", "_raw_DS_DOCU": "NORMAS SUBSIDIARIAS", "_raw_DS_LEY": "CM Ley 9/1995, E RDL 1/1992", "_raw_FC_AC": "1997-07-29", "_raw_NM_AREA_M2": 201896.33600424099, "_cam_code": "164" }, "geometry": { "type": "Polygon", "coordinates": [ [ [ -3.5041, 40.7157 ], [ -3.5032, 40.7163 ], [ -3.5021, 40.7168 ], [ -3.5013, 40.7175 ], [ -3.501, 40.7175 ], [ -3.5021, 40.7182 ], [ -3.5027, 40.7181 ], [ -3.5046, 40.7172 ], [ -3.5072, 40.7156 ], [ -3.5081, 40.7155 ], [ -3.5088, 40.7149 ], [ -3.5089, 40.7144 ], [ -3.5092, 40.7139 ], [ -3.5098, 40.7133 ], [ -3.5096, 40.7124 ], [ -3.5085, 40.7127 ], [ -3.508, 40.7127 ], [ -3.5074, 40.7124 ], [ -3.5068, 40.7123 ], [ -3.5065, 40.7124 ], [ -3.506, 40.7123 ], [ -3.5055, 40.7125 ], [ -3.503, 40.7125 ], [ -3.5011, 40.7132 ], [ -3.4995, 40.7134 ], [ -3.4974, 40.7141 ], [ -3.4981, 40.7149 ], [ -3.4992, 40.7144 ], [ -3.5012, 40.7141 ], [ -3.5029, 40.7135 ], [ -3.5056, 40.7134 ], [ -3.5072, 40.713 ], [ -3.5077, 40.7133 ], [ -3.5079, 40.7137 ], [ -3.5077, 40.7144 ], [ -3.5074, 40.7145 ], [ -3.5069, 40.7144 ], [ -3.5067, 40.7152 ], [ -3.5065, 40.7153 ], [ -3.5061, 40.7152 ], [ -3.5041, 40.7157 ] ] ] } },
{ "type": "Feature", "properties": { "municipio": "Valdetorres de Jarama", "clasificacion": "no-urbanizable-protegido", "calificacion": "sin-asignar", "version": "vigente", "fuente": "SIT-CAM WFS — UsoDelSuelo:VPLA_V_CLASIFICACION (https://idem.comunidad.madrid/geosrvg/ows)", "fecha_dato": "2026-05-12", "ambito": "33691", "_raw_CD_SIGLAS": "SNUP", "_raw_DS_CLASIF_GEN": "Suelo No Urbanizable Protegido", "_raw_DS_CLASIF_DET": "Suelo No Urbanizable de Especial Protección Ecológica y Vías Pecuarias", "_raw_DS_DOCU": "NORMAS SUBSIDIARIAS", "_raw_DS_LEY": "CM Ley 9/1995, E RDL 1/1992", "_raw_FC_AC": "1997-07-29", "_raw_NM_AREA_M2": 30802.184657485501, "_cam_code": "164" }, "geometry": { "type": "Polygon", "coordinates": [ [ [ -3.51, 40.671 ], [ -3.5101, 40.6712 ], [ -3.5105, 40.6714 ], [ -3.5106, 40.6718 ], [ -3.5105, 40.6724 ], [ -3.5105, 40.6822 ], [ -3.5106, 40.6825 ], [ -3.5105, 40.6872 ], [ -3.5106, 40.6881 ], [ -3.5107, 40.6881 ], [ -3.5108, 40.6711 ], [ -3.51, 40.671 ] ] ] } },
{ "type": "Feature", "properties": { "municipio": "Valdetorres de Jarama", "clasificacion": "no-urbanizable-protegido", "calificacion": "sin-asignar", "version": "vigente", "fuente": "SIT-CAM WFS — UsoDelSuelo:VPLA_V_CLASIFICACION (https://idem.comunidad.madrid/geosrvg/ows)", "fecha_dato": "2026-05-12", "ambito": "33691", "_raw_CD_SIGLAS": "SNUP", "_raw_DS_CLASIF_GEN": "Suelo No Urbanizable Protegido", "_raw_DS_CLASIF_DET": "Suelo No Urbanizable de Especial Protección Ecológica y Vías Pecuarias", "_raw_DS_DOCU": "NORMAS SUBSIDIARIAS", "_raw_DS_LEY": "CM Ley 9/1995, E RDL 1/1992", "_raw_FC_AC": "1997-07-29", "_raw_NM_AREA_M2": 52592.932202709002, "_cam_code": "164" }, "geometry": { "type": "Polygon", "coordinates": [ [ [ -3.4869, 40.6881 ], [ -3.4882, 40.6887 ], [ -3.489, 40.6889 ], [ -3.4928, 40.6895 ], [ -3.4952, 40.6901 ], [ -3.5008, 40.691 ], [ -3.5064, 40.6926 ], [ -3.5066, 40.6924 ], [ -3.5017, 40.691 ], [ -3.492, 40.6891 ], [ -3.4913, 40.6891 ], [ -3.4872, 40.6882 ], [ -3.4872, 40.6881 ], [ -3.4868, 40.688 ], [ -3.4863, 40.6875 ], [ -3.486, 40.6874 ], [ -3.4848, 40.6864 ], [ -3.4801, 40.683 ], [ -3.4797, 40.6822 ], [ -3.4792, 40.6816 ], [ -3.4779, 40.6808 ], [ -3.4773, 40.6806 ], [ -3.4772, 40.6805 ], [ -3.4769, 40.6803 ], [ -3.4764, 40.68 ], [ -3.4763, 40.6799 ], [ -3.4762, 40.68 ], [ -3.4792, 40.6817 ], [ -3.4797, 40.6823 ], [ -3.4798, 40.6827 ], [ -3.4802, 40.6832 ], [ -3.4807, 40.6836 ], [ -3.4809, 40.6836 ], [ -3.481, 40.6838 ], [ -3.4817, 40.6842 ], [ -3.4833, 40.6855 ], [ -3.4847, 40.6864 ], [ -3.485, 40.6867 ], [ -3.4851, 40.6867 ], [ -3.4854, 40.687 ], [ -3.4869, 40.6881 ] ] ] } },
{ "type": "Feature", "properties": { "municipio": "Valdetorres de Jarama", "clasificacion": "no-urbanizable-protegido", "calificacion": "sin-asignar", "version": "vigente", "fuente": "SIT-CAM WFS — UsoDelSuelo:VPLA_V_CLASIFICACION (https://idem.comunidad.madrid/geosrvg/ows)", "fecha_dato": "2026-05-12", "ambito": "33691", "_raw_CD_SIGLAS": "SNUP", "_raw_DS_CLASIF_GEN": "Suelo No Urbanizable Protegido", "_raw_DS_CLASIF_DET": "Suelo No Urbanizable de Especial Protección Ecológica y Vías Pecuarias", "_raw_DS_DOCU": "NORMAS SUBSIDIARIAS", "_raw_DS_LEY": "CM Ley 9/1995, E RDL 1/1992", "_raw_FC_AC": "1997-07-29", "_raw_NM_AREA_M2": 15943.6165085335, "_cam_code": "164" }, "geometry": { "type": "Polygon", "coordinates": [ [ [ -3.51, 40.7042 ], [ -3.5047, 40.7082 ], [ -3.5037, 40.7088 ], [ -3.497, 40.7139 ], [ -3.4971, 40.714 ], [ -3.51, 40.7042 ] ] ] } },
{ "type": "Feature", "properties": { "municipio": "Valdetorres de Jarama", "clasificacion": "no-urbanizable-protegido", "calificacion": "sin-asignar", "version": "vigente", "fuente": "SIT-CAM WFS — UsoDelSuelo:VPLA_V_CLASIFICACION (https://idem.comunidad.madrid/geosrvg/ows)", "fecha_dato": "2026-05-12", "ambito": "33691", "_raw_CD_SIGLAS": "SNUP", "_raw_DS_CLASIF_GEN": "Suelo No Urbanizable Protegido", "_raw_DS_CLASIF_DET": "Suelo No Urbanizable de Especial Protección Ecológica y Vías Pecuarias", "_raw_DS_DOCU": "NORMAS SUBSIDIARIAS", "_raw_DS_LEY": "CM Ley 9/1995, E RDL 1/1992", "_raw_FC_AC": "1997-07-29", "_raw_NM_AREA_M2": 30629.514655554402, "_cam_code": "164" }, "geometry": { "type": "Polygon", "coordinates": [ [ [ -3.5042, 40.7152 ], [ -3.5006, 40.7173 ], [ -3.501, 40.7175 ], [ -3.5013, 40.7175 ], [ -3.5021, 40.7168 ], [ -3.5032, 40.7163 ], [ -3.5041, 40.7157 ], [ -3.5061, 40.7152 ], [ -3.5065, 40.7153 ], [ -3.5067, 40.7152 ], [ -3.5069, 40.7144 ], [ -3.5065, 40.7146 ], [ -3.5054, 40.7146 ], [ -3.5054, 40.7148 ], [ -3.5042, 40.7152 ] ] ] } },
{ "type": "Feature", "properties": { "municipio": "Valdetorres de Jarama", "clasificacion": "no-urbanizable-protegido", "calificacion": "sin-asignar", "version": "vigente", "fuente": "SIT-CAM WFS — UsoDelSuelo:VPLA_V_CLASIFICACION (https://idem.comunidad.madrid/geosrvg/ows)", "fecha_dato": "2026-05-12", "ambito": "33691", "_raw_CD_SIGLAS": "SNUP", "_raw_DS_CLASIF_GEN": "Suelo No Urbanizable Protegido", "_raw_DS_CLASIF_DET": "Suelo No Urbanizable de Especial Protección Ecológica", "_raw_DS_DOCU": "NORMAS SUBSIDIARIAS", "_raw_DS_LEY": "CM Ley 9/1995, E RDL 1/1992", "_raw_FC_AC": "1997-07-29", "_raw_NM_AREA_M2": 323110.86482492997, "_cam_code": "164" }, "geometry": { "type": "Polygon", "coordinates": [ [ [ -3.5054, 40.7167 ], [ -3.5027, 40.7181 ], [ -3.5021, 40.7182 ], [ -3.504, 40.7193 ], [ -3.508, 40.7208 ], [ -3.5117, 40.7224 ], [ -3.5116, 40.7219 ], [ -3.5107, 40.7199 ], [ -3.5099, 40.7139 ], [ -3.5098, 40.7139 ], [ -3.5098, 40.7133 ], [ -3.5092, 40.7139 ], [ -3.5089, 40.7144 ], [ -3.5088, 40.7149 ], [ -3.5081, 40.7155 ], [ -3.5072, 40.7156 ], [ -3.5054, 40.7167 ] ] ] } },
{ "type": "Feature", "properties": { "municipio": "Valdetorres de Jarama", "clasificacion": "no-urbanizable-protegido", "calificacion": "sin-asignar", "version": "vigente", "fuente": "SIT-CAM WFS — UsoDelSuelo:VPLA_V_CLASIFICACION (https://idem.comunidad.madrid/geosrvg/ows)", "fecha_dato": "2026-05-12", "ambito": "33691", "_raw_CD_SIGLAS": "SNUP", "_raw_DS_CLASIF_GEN": "Suelo No Urbanizable Protegido", "_raw_DS_CLASIF_DET": "Suelo No Urbanizable de Especial Protección Agrícola", "_raw_DS_DOCU": "NORMAS SUBSIDIARIAS", "_raw_DS_LEY": "CM Ley 9/1995, E RDL 1/1992", "_raw_FC_AC": "1997-07-29", "_raw_NM_AREA_M2": 5696.3078720173298, "_cam_code": "164" }, "geometry": { "type": "Polygon", "coordinates": [ [ [ -3.5533, 40.6842 ], [ -3.5542, 40.6832 ], [ -3.5532, 40.6827 ], [ -3.5533, 40.6842 ] ] ] } },
{ "type": "Feature", "properties": { "municipio": "Valdetorres de Jarama", "clasificacion": "no-urbanizable-protegido", "calificacion": "sin-asignar", "version": "vigente", "fuente": "SIT-CAM WFS — UsoDelSuelo:VPLA_V_CLASIFICACION (https://idem.comunidad.madrid/geosrvg/ows)", "fecha_dato": "2026-05-12", "ambito": "33691", "_raw_CD_SIGLAS": "SNUP", "_raw_DS_CLASIF_GEN": "Suelo No Urbanizable Protegido", "_raw_DS_CLASIF_DET": "Suelo No Urbanizable de Especial Protección Agrícola", "_raw_DS_DOCU": "NORMAS SUBSIDIARIAS", "_raw_DS_LEY": "CM Ley 9/1995, E RDL 1/1992", "_raw_FC_AC": "1997-07-29", "_raw_NM_AREA_M2": 540342.16522870597, "_cam_code": "164" }, "geometry": { "type": "Polygon", "coordinates": [ [ [ -3.5444, 40.6885 ], [ -3.5448, 40.6892 ], [ -3.5455, 40.689 ], [ -3.5467, 40.689 ], [ -3.5481, 40.6884 ], [ -3.5489, 40.6877 ], [ -3.55, 40.687 ], [ -3.551, 40.6857 ], [ -3.5508, 40.6823 ], [ -3.5442, 40.6774 ], [ -3.5437, 40.6784 ], [ -3.5437, 40.6787 ], [ -3.5443, 40.6794 ], [ -3.5448, 40.6807 ], [ -3.5447, 40.6823 ], [ -3.5448, 40.6827 ], [ -3.5446, 40.6837 ], [ -3.5442, 40.6841 ], [ -3.5436, 40.6844 ], [ -3.5433, 40.6848 ], [ -3.5432, 40.6857 ], [ -3.5433, 40.6869 ], [ -3.5441, 40.6883 ], [ -3.5444, 40.6885 ] ] ] } },
{ "type": "Feature", "properties": { "municipio": "Valdetorres de Jarama", "clasificacion": "no-urbanizable-protegido", "calificacion": "sin-asignar", "version": "vigente", "fuente": "SIT-CAM WFS — UsoDelSuelo:VPLA_V_CLASIFICACION (https://idem.comunidad.madrid/geosrvg/ows)", "fecha_dato": "2026-05-12", "ambito": "33691", "_raw_CD_SIGLAS": "SNUP", "_raw_DS_CLASIF_GEN": "Suelo No Urbanizable Protegido", "_raw_DS_CLASIF_DET": "Suelo No Urbanizable de Especial Protección Agrícola", "_raw_DS_DOCU": "NORMAS SUBSIDIARIAS", "_raw_DS_LEY": "CM Ley 9/1995, E RDL 1/1992", "_raw_FC_AC": "1997-07-29", "_raw_NM_AREA_M2": 40350.039497321697, "_cam_code": "164" }, "geometry": { "type": "Polygon", "coordinates": [ [ [ -3.5525, 40.6871 ], [ -3.5502, 40.6907 ], [ -3.5504, 40.6905 ], [ -3.5526, 40.6901 ], [ -3.5529, 40.6898 ], [ -3.5529, 40.6896 ], [ -3.5525, 40.6889 ], [ -3.5525, 40.6885 ], [ -3.5534, 40.6868 ], [ -3.5525, 40.6871 ] ] ] } },
{ "type": "Feature", "properties": { "municipio": "Valdetorres de Jarama", "clasificacion": "no-urbanizable-protegido", "calificacion": "sin-asignar", "version": "vigente", "fuente": "SIT-CAM WFS — UsoDelSuelo:VPLA_V_CLASIFICACION (https://idem.comunidad.madrid/geosrvg/ows)", "fecha_dato": "2026-05-12", "ambito": "33691", "_raw_CD_SIGLAS": "SNUP", "_raw_DS_CLASIF_GEN": "Suelo No Urbanizable Protegido", "_raw_DS_CLASIF_DET": "Suelo No Urbanizable de Especial Protección Agrícola", "_raw_DS_DOCU": "NORMAS SUBSIDIARIAS", "_raw_DS_LEY": "CM Ley 9/1995, E RDL 1/1992", "_raw_FC_AC": "1997-07-29", "_raw_NM_AREA_M2": 100933.181934509, "_cam_code": "164" }, "geometry": { "type": "Polygon", "coordinates": [ [ [ -3.542, 40.6873 ], [ -3.5414, 40.6877 ], [ -3.5405, 40.689 ], [ -3.5407, 40.6893 ], [ -3.5409, 40.6903 ], [ -3.5413, 40.6913 ], [ -3.5423, 40.691 ], [ -3.5446, 40.6896 ], [ -3.5444, 40.689 ], [ -3.544, 40.6884 ], [ -3.5437, 40.6882 ], [ -3.5432, 40.6872 ], [ -3.542, 40.6873 ] ] ] } },
{ "type": "Feature", "properties": { "municipio": "Valdetorres de Jarama", "clasificacion": "no-urbanizable-protegido", "calificacion": "sin-asignar", "version": "vigente", "fuente": "SIT-CAM WFS — UsoDelSuelo:VPLA_V_CLASIFICACION (https://idem.comunidad.madrid/geosrvg/ows)", "fecha_dato": "2026-05-12", "ambito": "33691", "_raw_CD_SIGLAS": "SNUP", "_raw_DS_CLASIF_GEN": "Suelo No Urbanizable Protegido", "_raw_DS_CLASIF_DET": "Suelo No Urbanizable de Especial Protección Agrícola", "_raw_DS_DOCU": "NORMAS SUBSIDIARIAS", "_raw_DS_LEY": "CM Ley 9/1995, E RDL 1/1992", "_raw_FC_AC": "1997-07-29", "_raw_NM_AREA_M2": 28046.602996266902, "_cam_code": "164" }, "geometry": { "type": "Polygon", "coordinates": [ [ [ -3.5482, 40.6895 ], [ -3.5474, 40.6899 ], [ -3.5452, 40.6903 ], [ -3.5447, 40.6908 ], [ -3.5458, 40.6913 ], [ -3.5469, 40.6914 ], [ -3.5482, 40.6895 ] ] ] } },
{ "type": "Feature", "properties": { "municipio": "Valdetorres de Jarama", "clasificacion": "no-urbanizable-protegido", "calificacion": "sin-asignar", "version": "vigente", "fuente": "SIT-CAM WFS — UsoDelSuelo:VPLA_V_CLASIFICACION (https://idem.comunidad.madrid/geosrvg/ows)", "fecha_dato": "2026-05-12", "ambito": "33691", "_raw_CD_SIGLAS": "SNUP", "_raw_DS_CLASIF_GEN": "Suelo No Urbanizable Protegido", "_raw_DS_CLASIF_DET": "Suelo No Urbanizable de Especial Protección Agrícola", "_raw_DS_DOCU": "NORMAS SUBSIDIARIAS", "_raw_DS_LEY": "CM Ley 9/1995, E RDL 1/1992", "_raw_FC_AC": "1997-07-29", "_raw_NM_AREA_M2": 73553.003357468202, "_cam_code": "164" }, "geometry": { "type": "Polygon", "coordinates": [ [ [ -3.5192, 40.6965 ], [ -3.5191, 40.6975 ], [ -3.52, 40.6978 ], [ -3.5213, 40.698 ], [ -3.5225, 40.6986 ], [ -3.5236, 40.6989 ], [ -3.5248, 40.6992 ], [ -3.5261, 40.6993 ], [ -3.5259, 40.699 ], [ -3.5221, 40.6971 ], [ -3.5212, 40.6965 ], [ -3.5195, 40.6961 ], [ -3.5192, 40.6965 ] ] ] } },
{ "type": "Feature", "properties": { "municipio": "Valdetorres de Jarama", "clasificacion": "no-urbanizable-protegido", "calificacion": "sin-asignar", "version": "vigente", "fuente": "SIT-CAM WFS — UsoDelSuelo:VPLA_V_CLASIFICACION (https://idem.comunidad.madrid/geosrvg/ows)", "fecha_dato": "2026-05-12", "ambito": "33691", "_raw_CD_SIGLAS": "SNUP", "_raw_DS_CLASIF_GEN": "Suelo No Urbanizable Protegido", "_raw_DS_CLASIF_DET": "Suelo No Urbanizable de Especial Protección Agrícola", "_raw_DS_DOCU": "NORMAS SUBSIDIARIAS", "_raw_DS_LEY": "CM Ley 9/1995, E RDL 1/1992", "_raw_FC_AC": "1997-07-29", "_raw_NM_AREA_M2": 1943733.0273706701, "_cam_code": "164" }, "geometry": { "type": "Polygon", "coordinates": [ [ [ -3.5187, 40.6928 ], [ -3.5184, 40.6931 ], [ -3.5207, 40.6942 ], [ -3.5199, 40.6947 ], [ -3.5199, 40.6948 ], [ -3.5202, 40.6951 ], [ -3.522, 40.6962 ], [ -3.5219, 40.6962 ], [ -3.5219, 40.6967 ], [ -3.5224, 40.697 ], [ -3.5267, 40.6992 ], [ -3.5294, 40.6999 ], [ -3.5316, 40.7001 ], [ -3.5322, 40.6997 ], [ -3.5327, 40.6989 ], [ -3.5335, 40.6962 ], [ -3.5341, 40.6952 ], [ -3.5373, 40.6929 ], [ -3.5374, 40.6927 ], [ -3.5378, 40.6934 ], [ -3.5389, 40.6933 ], [ -3.5398, 40.6926 ], [ -3.5406, 40.6922 ], [ -3.5411, 40.6913 ], [ -3.5405, 40.6901 ], [ -3.5403, 40.6892 ], [ -3.54, 40.6889 ], [ -3.5396, 40.6889 ], [ -3.5368, 40.688 ], [ -3.5336, 40.6872 ], [ -3.5313, 40.6865 ], [ -3.5307, 40.6862 ], [ -3.5293, 40.686 ], [ -3.526, 40.6852 ], [ -3.5241, 40.6846 ], [ -3.5234, 40.6842 ], [ -3.5228, 40.6841 ], [ -3.5226, 40.6846 ], [ -3.522, 40.6851 ], [ -3.5219, 40.6854 ], [ -3.522, 40.6855 ], [ -3.5222, 40.6853 ], [ -3.5224, 40.6853 ], [ -3.5226, 40.6855 ], [ -3.5225, 40.6862 ], [ -3.5219, 40.6872 ], [ -3.5209, 40.6894 ], [ -3.5205, 40.6904 ], [ -3.5207, 40.6905 ], [ -3.5206, 40.6906 ], [ -3.5203, 40.6905 ], [ -3.5195, 40.6908 ], [ -3.5193, 40.691 ], [ -3.5191, 40.6913 ], [ -3.5194, 40.6914 ], [ -3.5191, 40.6918 ], [ -3.5187, 40.6928 ] ] ] } },
{ "type": "Feature", "properties": { "municipio": "Valdetorres de Jarama", "clasificacion": "no-urbanizable-protegido", "calificacion": "sin-asignar", "version": "vigente", "fuente": "SIT-CAM WFS — UsoDelSuelo:VPLA_V_CLASIFICACION (https://idem.comunidad.madrid/geosrvg/ows)", "fecha_dato": "2026-05-12", "ambito": "33691", "_raw_CD_SIGLAS": "SNUP", "_raw_DS_CLASIF_GEN": "Suelo No Urbanizable Protegido", "_raw_DS_CLASIF_DET": "Suelo No Urbanizable de Especial Protección Agrícola", "_raw_DS_DOCU": "NORMAS SUBSIDIARIAS", "_raw_DS_LEY": "CM Ley 9/1995, E RDL 1/1992", "_raw_FC_AC": "1997-07-29", "_raw_NM_AREA_M2": 365997.57723824901, "_cam_code": "164" }, "geometry": { "type": "Polygon", "coordinates": [ [ [ -3.5346, 40.7007 ], [ -3.5354, 40.7013 ], [ -3.5358, 40.7004 ], [ -3.5363, 40.6998 ], [ -3.537, 40.6993 ], [ -3.5391, 40.6987 ], [ -3.5399, 40.6978 ], [ -3.54, 40.6966 ], [ -3.5403, 40.6963 ], [ -3.5404, 40.6953 ], [ -3.5406, 40.6947 ], [ -3.5411, 40.6938 ], [ -3.5417, 40.6936 ], [ -3.5416, 40.6932 ], [ -3.5427, 40.6919 ], [ -3.5428, 40.6915 ], [ -3.5433, 40.6907 ], [ -3.5413, 40.6916 ], [ -3.5409, 40.6923 ], [ -3.5402, 40.6926 ], [ -3.5398, 40.693 ], [ -3.5383, 40.6939 ], [ -3.5373, 40.6941 ], [ -3.5351, 40.6952 ], [ -3.5342, 40.6965 ], [ -3.5339, 40.6967 ], [ -3.5339, 40.697 ], [ -3.5336, 40.6975 ], [ -3.5338, 40.6989 ], [ -3.5335, 40.6996 ], [ -3.5323, 40.7008 ], [ -3.5333, 40.701 ], [ -3.534, 40.7007 ], [ -3.5346, 40.7007 ] ] ] } },
{ "type": "Feature", "properties": { "municipio": "Valdetorres de Jarama", "clasificacion": "no-urbanizable-protegido", "calificacion": "sin-asignar", "version": "vigente", "fuente": "SIT-CAM WFS — UsoDelSuelo:VPLA_V_CLASIFICACION (https://idem.comunidad.madrid/geosrvg/ows)", "fecha_dato": "2026-05-12", "ambito": "33691", "_raw_CD_SIGLAS": "SNUP", "_raw_DS_CLASIF_GEN": "Suelo No Urbanizable Protegido", "_raw_DS_CLASIF_DET": "Suelo No Urbanizable de Especial Protección Agrícola", "_raw_DS_DOCU": "NORMAS SUBSIDIARIAS", "_raw_DS_LEY": "CM Ley 9/1995, E RDL 1/1992", "_raw_FC_AC": "1997-07-29", "_raw_NM_AREA_M2": 438958.52871465601, "_cam_code": "164" }, "geometry": { "type": "Polygon", "coordinates": [ [ [ -3.5186, 40.6978 ], [ -3.5181, 40.6983 ], [ -3.5175, 40.6994 ], [ -3.5176, 40.7003 ], [ -3.5179, 40.7012 ], [ -3.519, 40.7022 ], [ -3.52, 40.7026 ], [ -3.5208, 40.7033 ], [ -3.523, 40.7043 ], [ -3.5249, 40.7049 ], [ -3.5251, 40.7048 ], [ -3.5258, 40.703 ], [ -3.5265, 40.7021 ], [ -3.5296, 40.701 ], [ -3.5299, 40.7007 ], [ -3.5264, 40.6995 ], [ -3.5236, 40.699 ], [ -3.5223, 40.6986 ], [ -3.521, 40.698 ], [ -3.5195, 40.6978 ], [ -3.519, 40.6976 ], [ -3.5186, 40.6978 ] ] ] } },
{ "type": "Feature", "properties": { "municipio": "Valdetorres de Jarama", "clasificacion": "no-urbanizable-protegido", "calificacion": "sin-asignar", "version": "vigente", "fuente": "SIT-CAM WFS — UsoDelSuelo:VPLA_V_CLASIFICACION (https://idem.comunidad.madrid/geosrvg/ows)", "fecha_dato": "2026-05-12", "ambito": "33691", "_raw_CD_SIGLAS": "SNUP", "_raw_DS_CLASIF_GEN": "Suelo No Urbanizable Protegido", "_raw_DS_CLASIF_DET": "Suelo No Urbanizable de Especial Protección Agrícola", "_raw_DS_DOCU": "NORMAS SUBSIDIARIAS", "_raw_DS_LEY": "CM Ley 9/1995, E RDL 1/1992", "_raw_FC_AC": "1997-07-29", "_raw_NM_AREA_M2": 617810.11849705596, "_cam_code": "164" }, "geometry": { "type": "Polygon", "coordinates": [ [ [ -3.5302, 40.7011 ], [ -3.5268, 40.7023 ], [ -3.5264, 40.7027 ], [ -3.5255, 40.7048 ], [ -3.5256, 40.705 ], [ -3.5258, 40.705 ], [ -3.5256, 40.7056 ], [ -3.5247, 40.7066 ], [ -3.5245, 40.7074 ], [ -3.5247, 40.7079 ], [ -3.527, 40.7089 ], [ -3.5272, 40.7094 ], [ -3.5281, 40.7097 ], [ -3.5304, 40.7108 ], [ -3.5313, 40.7099 ], [ -3.5318, 40.7096 ], [ -3.5319, 40.7093 ], [ -3.5327, 40.7083 ], [ -3.5328, 40.7063 ], [ -3.5325, 40.7056 ], [ -3.5326, 40.7048 ], [ -3.5331, 40.7042 ], [ -3.5343, 40.7036 ], [ -3.5346, 40.7033 ], [ -3.5354, 40.7031 ], [ -3.5354, 40.7026 ], [ -3.5357, 40.7022 ], [ -3.5355, 40.7019 ], [ -3.5355, 40.7015 ], [ -3.5346, 40.7008 ], [ -3.534, 40.7008 ], [ -3.5334, 40.7011 ], [ -3.5329, 40.7011 ], [ -3.5317, 40.7007 ], [ -3.5302, 40.7011 ] ] ] } },
{ "type": "Feature", "properties": { "municipio": "Valdetorres de Jarama", "clasificacion": "no-urbanizable-protegido", "calificacion": "sin-asignar", "version": "vigente", "fuente": "SIT-CAM WFS — UsoDelSuelo:VPLA_V_CLASIFICACION (https://idem.comunidad.madrid/geosrvg/ows)", "fecha_dato": "2026-05-12", "ambito": "33691", "_raw_CD_SIGLAS": "SNUP", "_raw_DS_CLASIF_GEN": "Suelo No Urbanizable Protegido", "_raw_DS_CLASIF_DET": "Suelo No Urbanizable de Especial Protección Agrícola", "_raw_DS_DOCU": "NORMAS SUBSIDIARIAS", "_raw_DS_LEY": "CM Ley 9/1995, E RDL 1/1992", "_raw_FC_AC": "1997-07-29", "_raw_NM_AREA_M2": 545528.30540271197, "_cam_code": "164" }, "geometry": { "type": "Polygon", "coordinates": [ [ [ -3.5543, 40.6693 ], [ -3.552, 40.6698 ], [ -3.5475, 40.6702 ], [ -3.5472, 40.6706 ], [ -3.547, 40.6706 ], [ -3.5465, 40.671 ], [ -3.5459, 40.6719 ], [ -3.5458, 40.6724 ], [ -3.546, 40.6737 ], [ -3.546, 40.6746 ], [ -3.5454, 40.6759 ], [ -3.5519, 40.6806 ], [ -3.5518, 40.6802 ], [ -3.5519, 40.6791 ], [ -3.5522, 40.6779 ], [ -3.5527, 40.6767 ], [ -3.5526, 40.6765 ], [ -3.5528, 40.6757 ], [ -3.5526, 40.6742 ], [ -3.5528, 40.6729 ], [ -3.5532, 40.6721 ], [ -3.5538, 40.6697 ], [ -3.5543, 40.6693 ] ] ] } },
{ "type": "Feature", "properties": { "municipio": "Valdetorres de Jarama", "clasificacion": "no-urbanizable-protegido", "calificacion": "sin-asignar", "version": "vigente", "fuente": "SIT-CAM WFS — UsoDelSuelo:VPLA_V_CLASIFICACION (https://idem.comunidad.madrid/geosrvg/ows)", "fecha_dato": "2026-05-12", "ambito": "33691", "_raw_CD_SIGLAS": "SNUP", "_raw_DS_CLASIF_GEN": "Suelo No Urbanizable Protegido", "_raw_DS_CLASIF_DET": "Suelo No Urbanizable de Especial Protección Agrícola", "_raw_DS_DOCU": "NORMAS SUBSIDIARIAS", "_raw_DS_LEY": "CM Ley 9/1995, E RDL 1/1992", "_raw_FC_AC": "1997-07-29", "_raw_NM_AREA_M2": 31989.294625176601, "_cam_code": "164" }, "geometry": { "type": "Polygon", "coordinates": [ [ [ -3.5437, 40.6797 ], [ -3.5437, 40.6808 ], [ -3.5445, 40.681 ], [ -3.5429, 40.684 ], [ -3.5436, 40.6842 ], [ -3.5441, 40.6839 ], [ -3.5444, 40.6835 ], [ -3.5446, 40.6814 ], [ -3.5446, 40.6809 ], [ -3.5443, 40.6799 ], [ -3.5441, 40.6795 ], [ -3.5437, 40.6791 ], [ -3.5437, 40.6797 ] ] ] } },
{ "type": "Feature", "properties": { "municipio": "Valdetorres de Jarama", "clasificacion": "no-urbanizable-protegido", "calificacion": "sin-asignar", "version": "vigente", "fuente": "SIT-CAM WFS — UsoDelSuelo:VPLA_V_CLASIFICACION (https://idem.comunidad.madrid/geosrvg/ows)", "fecha_dato": "2026-05-12", "ambito": "33691", "_raw_CD_SIGLAS": "SNUP", "_raw_DS_CLASIF_GEN": "Suelo No Urbanizable Protegido", "_raw_DS_CLASIF_DET": "Suelo No Urbanizable de Especial Protección Agrícola y Reserva Infraestructura Plan Regional", "_raw_DS_DOCU": "NORMAS SUBSIDIARIAS", "_raw_DS_LEY": "CM Ley 9/1995, E RDL 1/1992", "_raw_FC_AC": "1997-07-29", "_raw_NM_AREA_M2": 582429.82189743605, "_cam_code": "164" }, "geometry": { "type": "Polygon", "coordinates": [ [ [ -3.4619, 40.6842 ], [ -3.4629, 40.6857 ], [ -3.4643, 40.6853 ], [ -3.4681, 40.6846 ], [ -3.47, 40.6847 ], [ -3.4723, 40.6846 ], [ -3.4738, 40.6842 ], [ -3.4731, 40.6835 ], [ -3.4728, 40.6835 ], [ -3.4733, 40.6833 ], [ -3.474, 40.6827 ], [ -3.4757, 40.6807 ], [ -3.4763, 40.6799 ], [ -3.4765, 40.679 ], [ -3.4769, 40.6781 ], [ -3.478, 40.6782 ], [ -3.4793, 40.6743 ], [ -3.4901, 40.669 ], [ -3.4865, 40.669 ], [ -3.4771, 40.6733 ], [ -3.4758, 40.6777 ], [ -3.4756, 40.6779 ], [ -3.4746, 40.6778 ], [ -3.4738, 40.6795 ], [ -3.4715, 40.6821 ], [ -3.4721, 40.6829 ], [ -3.4695, 40.6828 ], [ -3.4675, 40.6829 ], [ -3.4649, 40.6834 ], [ -3.4619, 40.6842 ] ] ] } },
{ "type": "Feature", "properties": { "municipio": "Valdetorres de Jarama", "clasificacion": "no-urbanizable-protegido", "calificacion": "sin-asignar", "version": "vigente", "fuente": "SIT-CAM WFS — UsoDelSuelo:VPLA_V_CLASIFICACION (https://idem.comunidad.madrid/geosrvg/ows)", "fecha_dato": "2026-05-12", "ambito": "33691", "_raw_CD_SIGLAS": "SNUP", "_raw_DS_CLASIF_GEN": "Suelo No Urbanizable Protegido", "_raw_DS_CLASIF_DET": "Suelo No Urbanizable de Especial Protección Agrícola y Reserva Infraestructura Plan Regional", "_raw_DS_DOCU": "NORMAS SUBSIDIARIAS", "_raw_DS_LEY": "CM Ley 9/1995, E RDL 1/1992", "_raw_FC_AC": "1997-07-29", "_raw_NM_AREA_M2": 241191.56115899299, "_cam_code": "164" }, "geometry": { "type": "Polygon", "coordinates": [ [ [ -3.5454, 40.6759 ], [ -3.5448, 40.6764 ], [ -3.5442, 40.6774 ], [ -3.5508, 40.6823 ], [ -3.551, 40.6857 ], [ -3.55, 40.687 ], [ -3.5504, 40.6867 ], [ -3.5527, 40.6858 ], [ -3.5529, 40.6849 ], [ -3.5533, 40.6842 ], [ -3.5532, 40.6827 ], [ -3.5524, 40.682 ], [ -3.5521, 40.6814 ], [ -3.5519, 40.6806 ], [ -3.5454, 40.6759 ] ] ] } },
{ "type": "Feature", "properties": { "municipio": "Valdetorres de Jarama", "clasificacion": "no-urbanizable-protegido", "calificacion": "sin-asignar", "version": "vigente", "fuente": "SIT-CAM WFS — UsoDelSuelo:VPLA_V_CLASIFICACION (https://idem.comunidad.madrid/geosrvg/ows)", "fecha_dato": "2026-05-12", "ambito": "33691", "_raw_CD_SIGLAS": "SNUP", "_raw_DS_CLASIF_GEN": "Suelo No Urbanizable Protegido", "_raw_DS_CLASIF_DET": "Suelo No Urbanizable de Especial Protección Agrícola y Reserva Infraestructura Plan Regional", "_raw_DS_DOCU": "NORMAS SUBSIDIARIAS", "_raw_DS_LEY": "CM Ley 9/1995, E RDL 1/1992", "_raw_FC_AC": "1997-07-29", "_raw_NM_AREA_M2": 80265.010740419399, "_cam_code": "164" }, "geometry": { "type": "Polygon", "coordinates": [ [ [ -3.5525, 40.6871 ], [ -3.5504, 40.6879 ], [ -3.5487, 40.6894 ], [ -3.5482, 40.6895 ], [ -3.5469, 40.6914 ], [ -3.5497, 40.691 ], [ -3.5502, 40.6907 ], [ -3.5525, 40.6871 ] ] ] } },
{ "type": "Feature", "properties": { "municipio": "Valdetorres de Jarama", "clasificacion": "no-urbanizable-protegido", "calificacion": "sin-asignar", "version": "vigente", "fuente": "SIT-CAM WFS — UsoDelSuelo:VPLA_V_CLASIFICACION (https://idem.comunidad.madrid/geosrvg/ows)", "fecha_dato": "2026-05-12", "ambito": "33691", "_raw_CD_SIGLAS": "SNUP", "_raw_DS_CLASIF_GEN": "Suelo No Urbanizable Protegido", "_raw_DS_CLASIF_DET": "Suelo No Urbanizable de Especial Protección Agrícola y Vías Pecuarias", "_raw_DS_DOCU": "NORMAS SUBSIDIARIAS", "_raw_DS_LEY": "CM Ley 9/1995, E RDL 1/1992", "_raw_FC_AC": "1997-07-29", "_raw_NM_AREA_M2": 47650.0358523213, "_cam_code": "164" }, "geometry": { "type": "Polygon", "coordinates": [ [ [ -3.5323, 40.6665 ], [ -3.5348, 40.6668 ], [ -3.536, 40.6673 ], [ -3.539, 40.6708 ], [ -3.5397, 40.6714 ], [ -3.5405, 40.6718 ], [ -3.5415, 40.6728 ], [ -3.5416, 40.6732 ], [ -3.5422, 40.6736 ], [ -3.5422, 40.6733 ], [ -3.5419, 40.6727 ], [ -3.5414, 40.6721 ], [ -3.5408, 40.6715 ], [ -3.5399, 40.671 ], [ -3.5387, 40.6698 ], [ -3.5383, 40.6692 ], [ -3.5377, 40.6687 ], [ -3.5371, 40.6678 ], [ -3.5365, 40.6672 ], [ -3.5358, 40.6668 ], [ -3.5355, 40.6668 ], [ -3.5346, 40.6664 ], [ -3.5328, 40.6661 ], [ -3.532, 40.6662 ], [ -3.5323, 40.6665 ] ] ] } },
{ "type": "Feature", "properties": { "municipio": "Valdetorres de Jarama", "clasificacion": "no-urbanizable-protegido", "calificacion": "sin-asignar", "version": "vigente", "fuente": "SIT-CAM WFS — UsoDelSuelo:VPLA_V_CLASIFICACION (https://idem.comunidad.madrid/geosrvg/ows)", "fecha_dato": "2026-05-12", "ambito": "33691", "_raw_CD_SIGLAS": "SNUP", "_raw_DS_CLASIF_GEN": "Suelo No Urbanizable Protegido", "_raw_DS_CLASIF_DET": "Suelo No Urbanizable de Especial Protección Agrícola y Vías Pecuarias", "_raw_DS_DOCU": "NORMAS SUBSIDIARIAS", "_raw_DS_LEY": "CM Ley 9/1995, E RDL 1/1992", "_raw_FC_AC": "1997-07-29", "_raw_NM_AREA_M2": 26482.418434472202, "_cam_code": "164" }, "geometry": { "type": "Polygon", "coordinates": [ [ [ -3.5462, 40.6704 ], [ -3.5457, 40.6723 ], [ -3.5459, 40.6744 ], [ -3.5456, 40.6754 ], [ -3.5453, 40.6758 ], [ -3.5454, 40.6759 ], [ -3.546, 40.6746 ], [ -3.546, 40.6737 ], [ -3.5458, 40.6727 ], [ -3.5459, 40.6719 ], [ -3.5465, 40.671 ], [ -3.547, 40.6706 ], [ -3.5472, 40.6706 ], [ -3.5475, 40.6702 ], [ -3.552, 40.6698 ], [ -3.5553, 40.669 ], [ -3.5553, 40.6689 ], [ -3.5553, 40.669 ], [ -3.5507, 40.6699 ], [ -3.5476, 40.6701 ], [ -3.5472, 40.6703 ], [ -3.5472, 40.6705 ], [ -3.5465, 40.6708 ], [ -3.5461, 40.6713 ], [ -3.5463, 40.6703 ], [ -3.546, 40.6696 ], [ -3.5461, 40.6688 ], [ -3.546, 40.6687 ], [ -3.5459, 40.6674 ], [ -3.5465, 40.6662 ], [ -3.5473, 40.665 ], [ -3.548, 40.6632 ], [ -3.5481, 40.6617 ], [ -3.5484, 40.6604 ], [ -3.5481, 40.6607 ], [ -3.5477, 40.6638 ], [ -3.5469, 40.6656 ], [ -3.5457, 40.6674 ], [ -3.546, 40.6689 ], [ -3.5459, 40.6697 ], [ -3.5462, 40.6704 ] ] ] } },
{ "type": "Feature", "properties": { "municipio": "Valdetorres de Jarama", "clasificacion": "no-urbanizable-protegido", "calificacion": "sin-asignar", "version": "vigente", "fuente": "SIT-CAM WFS — UsoDelSuelo:VPLA_V_CLASIFICACION (https://idem.comunidad.madrid/geosrvg/ows)", "fecha_dato": "2026-05-12", "ambito": "33691", "_raw_CD_SIGLAS": "SNUP", "_raw_DS_CLASIF_GEN": "Suelo No Urbanizable Protegido", "_raw_DS_CLASIF_DET": "Suelo No Urbanizable de Especial Protección Agrícola y Vías Pecuarias", "_raw_DS_DOCU": "NORMAS SUBSIDIARIAS", "_raw_DS_LEY": "CM Ley 9/1995, E RDL 1/1992", "_raw_FC_AC": "1997-07-29", "_raw_NM_AREA_M2": 600032.43013161095, "_cam_code": "164" }, "geometry": { "type": "Polygon", "coordinates": [ [ [ -3.5204, 40.712 ], [ -3.5201, 40.7136 ], [ -3.5201, 40.714 ], [ -3.5199, 40.7142 ], [ -3.5193, 40.7151 ], [ -3.5191, 40.7156 ], [ -3.5188, 40.7159 ], [ -3.5187, 40.7166 ], [ -3.5181, 40.7176 ], [ -3.5182, 40.7185 ], [ -3.5185, 40.7191 ], [ -3.5186, 40.7197 ], [ -3.5184, 40.7202 ], [ -3.5186, 40.722 ], [ -3.5184, 40.7242 ], [ -3.5185, 40.7242 ], [ -3.5187, 40.7228 ], [ -3.5186, 40.7217 ], [ -3.5187, 40.7196 ], [ -3.5186, 40.719 ], [ -3.5183, 40.7184 ], [ -3.5182, 40.7176 ], [ -3.5186, 40.717 ], [ -3.5189, 40.7159 ], [ -3.5191, 40.7158 ], [ -3.5194, 40.7151 ], [ -3.5201, 40.7141 ], [ -3.5203, 40.7136 ], [ -3.5203, 40.7128 ], [ -3.5205, 40.7121 ], [ -3.5208, 40.7123 ], [ -3.5212, 40.7122 ], [ -3.5218, 40.7125 ], [ -3.5232, 40.7127 ], [ -3.5235, 40.7129 ], [ -3.5237, 40.7128 ], [ -3.5245, 40.7129 ], [ -3.5262, 40.7137 ], [ -3.5263, 40.7127 ], [ -3.5281, 40.7115 ], [ -3.5305, 40.7109 ], [ -3.5281, 40.7097 ], [ -3.5272, 40.7094 ], [ -3.527, 40.7089 ], [ -3.5252, 40.7082 ], [ -3.5246, 40.7078 ], [ -3.5245, 40.7071 ], [ -3.5247, 40.7066 ], [ -3.5256, 40.7056 ], [ -3.5258, 40.705 ], [ -3.5256, 40.705 ], [ -3.5255, 40.7048 ], [ -3.5264, 40.7027 ], [ -3.5268, 40.7023 ], [ -3.5298, 40.7012 ], [ -3.5317, 40.7007 ], [ -3.5329, 40.7011 ], [ -3.5334, 40.7011 ], [ -3.534, 40.7008 ], [ -3.5346, 40.7008 ], [ -3.5355, 40.7015 ], [ -3.5364, 40.7017 ], [ -3.5368, 40.7016 ], [ -3.5358, 40.7015 ], [ -3.5346, 40.7007 ], [ -3.534, 40.7007 ], [ -3.5333, 40.701 ], [ -3.5323, 40.7008 ], [ -3.5335, 40.6996 ], [ -3.5338, 40.6989 ], [ -3.5336, 40.6975 ], [ -3.5339, 40.697 ], [ -3.5339, 40.6967 ], [ -3.5342, 40.6965 ], [ -3.5351, 40.6952 ], [ -3.5373, 40.6941 ], [ -3.5383, 40.6939 ], [ -3.5398, 40.693 ], [ -3.5402, 40.6926 ], [ -3.5409, 40.6923 ], [ -3.5413, 40.6916 ], [ -3.5433, 40.6907 ], [ -3.5448, 40.6896 ], [ -3.5447, 40.6889 ], [ -3.5441, 40.6883 ], [ -3.5433, 40.6869 ], [ -3.5432, 40.6857 ], [ -3.5433, 40.6848 ], [ -3.5436, 40.6844 ], [ -3.5442, 40.6841 ], [ -3.5446, 40.6837 ], [ -3.5448, 40.6827 ], [ -3.5447, 40.6823 ], [ -3.5448, 40.6807 ], [ -3.5443, 40.6794 ], [ -3.5437, 40.6787 ], [ -3.5437, 40.6784 ], [ -3.5442, 40.6774 ], [ -3.5434, 40.6768 ], [ -3.5432, 40.6768 ], [ -3.5422, 40.6775 ], [ -3.5412, 40.6779 ], [ -3.5414, 40.677 ], [ -3.5416, 40.6767 ], [ -3.5416, 40.6762 ], [ -3.5418, 40.6756 ], [ -3.5414, 40.6753 ], [ -3.5408, 40.6777 ], [ -3.5405, 40.6783 ], [ -3.5402, 40.6786 ], [ -3.5429, 40.6801 ], [ -3.5438, 40.6809 ], [ -3.5437, 40.6808 ], [ -3.5437, 40.6791 ], [ -3.5441, 40.6795 ], [ -3.5446, 40.6809 ], [ -3.5444, 40.6835 ], [ -3.5441, 40.6839 ], [ -3.5432, 40.6846 ], [ -3.543, 40.685 ], [ -3.5431, 40.6871 ], [ -3.5437, 40.6882 ], [ -3.544, 40.6884 ], [ -3.5444, 40.689 ], [ -3.5446, 40.6896 ], [ -3.5423, 40.691 ], [ -3.5413, 40.6913 ], [ -3.5409, 40.6903 ], [ -3.5407, 40.6893 ], [ -3.5405, 40.689 ], [ -3.54, 40.6889 ], [ -3.5403, 40.6892 ], [ -3.5405, 40.6901 ], [ -3.5411, 40.6913 ], [ -3.5407, 40.6921 ], [ -3.5398, 40.6926 ], [ -3.5389, 40.6933 ], [ -3.5378, 40.6934 ], [ -3.5374, 40.6927 ], [ -3.5373, 40.6929 ], [ -3.5341, 40.6952 ], [ -3.5335, 40.6962 ], [ -3.5327, 40.6989 ], [ -3.5322, 40.6997 ], [ -3.5316, 40.7001 ], [ -3.5294, 40.6999 ], [ -3.5267, 40.6992 ], [ -3.5219, 40.6967 ], [ -3.5219, 40.6962 ], [ -3.5215, 40.6966 ], [ -3.5208, 40.6963 ], [ -3.5192, 40.6959 ], [ -3.5192, 40.6965 ], [ -3.5195, 40.6961 ], [ -3.5212, 40.6965 ], [ -3.5221, 40.6971 ], [ -3.5259, 40.699 ], [ -3.5261, 40.6993 ], [ -3.5248, 40.6992 ], [ -3.5225, 40.6986 ], [ -3.5213, 40.698 ], [ -3.5196, 40.6977 ], [ -3.5191, 40.6975 ], [ -3.5192, 40.6969 ], [ -3.519, 40.6971 ], [ -3.5189, 40.6975 ], [ -3.5185, 40.6979 ], [ -3.519, 40.6976 ], [ -3.5195, 40.6978 ], [ -3.521, 40.698 ], [ -3.5223, 40.6986 ], [ -3.5236, 40.699 ], [ -3.5264, 40.6995 ], [ -3.5299, 40.7007 ], [ -3.5296, 40.701 ], [ -3.5265, 40.7021 ], [ -3.5258, 40.703 ], [ -3.525, 40.7049 ], [ -3.523, 40.7043 ], [ -3.5208, 40.7033 ], [ -3.52, 40.7026 ], [ -3.519, 40.7022 ], [ -3.5179, 40.7012 ], [ -3.5178, 40.7008 ], [ -3.5176, 40.7013 ], [ -3.5172, 40.7012 ], [ -3.518, 40.7023 ], [ -3.5202, 40.7038 ], [ -3.5205, 40.7038 ], [ -3.5208, 40.7042 ], [ -3.5224, 40.7052 ], [ -3.5239, 40.707 ], [ -3.5241, 40.7073 ], [ -3.5242, 40.7078 ], [ -3.5244, 40.7079 ], [ -3.5246, 40.7097 ], [ -3.5245, 40.71 ], [ -3.5236, 40.7108 ], [ -3.5215, 40.7121 ], [ -3.5209, 40.7122 ], [ -3.5204, 40.712 ] ] ] } },
{ "type": "Feature", "properties": { "municipio": "Valdetorres de Jarama", "clasificacion": "no-urbanizable-protegido", "calificacion": "sin-asignar", "version": "vigente", "fuente": "SIT-CAM WFS — UsoDelSuelo:VPLA_V_CLASIFICACION (https://idem.comunidad.madrid/geosrvg/ows)", "fecha_dato": "2026-05-12", "ambito": "33691", "_raw_CD_SIGLAS": "SNUP", "_raw_DS_CLASIF_GEN": "Suelo No Urbanizable Protegido", "_raw_DS_CLASIF_DET": "Suelo No Urbanizable de Especial Protección Agrícola, Cauces y Riberas y Reserva Infraestructura Plan Regional", "_raw_DS_DOCU": "NORMAS SUBSIDIARIAS", "_raw_DS_LEY": "CM Ley 9/1995, E RDL 1/1992", "_raw_FC_AC": "1997-07-29", "_raw_NM_AREA_M2": 10327.091017721399, "_cam_code": "164" }, "geometry": { "type": "Polygon", "coordinates": [ [ [ -3.5521, 40.6814 ], [ -3.5524, 40.682 ], [ -3.5532, 40.6827 ], [ -3.553, 40.6815 ], [ -3.5519, 40.6806 ], [ -3.5521, 40.6814 ] ] ] } },
{ "type": "Feature", "properties": { "municipio": "Valdetorres de Jarama", "clasificacion": "no-urbanizable-protegido", "calificacion": "sin-asignar", "version": "vigente", "fuente": "SIT-CAM WFS — UsoDelSuelo:VPLA_V_CLASIFICACION (https://idem.comunidad.madrid/geosrvg/ows)", "fecha_dato": "2026-05-12", "ambito": "33691", "_raw_CD_SIGLAS": "SNUP", "_raw_DS_CLASIF_GEN": "Suelo No Urbanizable Protegido", "_raw_DS_CLASIF_DET": "Suelo No Urbanizable de Especial Protección Agrícola, Cauces y Riberas y Reserva Infraestructura Plan Regional", "_raw_DS_DOCU": "NORMAS SUBSIDIARIAS", "_raw_DS_LEY": "CM Ley 9/1995, E RDL 1/1992", "_raw_FC_AC": "1997-07-29", "_raw_NM_AREA_M2": 52359.207592394501, "_cam_code": "164" }, "geometry": { "type": "Polygon", "coordinates": [ [ [ -3.5529, 40.6849 ], [ -3.5527, 40.6858 ], [ -3.5504, 40.6867 ], [ -3.55, 40.687 ], [ -3.5482, 40.6895 ], [ -3.5487, 40.6894 ], [ -3.5504, 40.6879 ], [ -3.5525, 40.6871 ], [ -3.5534, 40.6858 ], [ -3.5533, 40.6842 ], [ -3.5529, 40.6849 ] ] ] } },
{ "type": "Feature", "properties": { "municipio": "Valdetorres de Jarama", "clasificacion": "no-urbanizable-protegido", "calificacion": "sin-asignar", "version": "vigente", "fuente": "SIT-CAM WFS — UsoDelSuelo:VPLA_V_CLASIFICACION (https://idem.comunidad.madrid/geosrvg/ows)", "fecha_dato": "2026-05-12", "ambito": "33691", "_raw_CD_SIGLAS": "SNUP", "_raw_DS_CLASIF_GEN": "Suelo No Urbanizable Protegido", "_raw_DS_CLASIF_DET": "Suelo No Urbanizable de Especial Protección Agrícola, Vías Pecuarias y Reserva Infraestructura Plan Regional", "_raw_DS_DOCU": "NORMAS SUBSIDIARIAS", "_raw_DS_LEY": "CM Ley 9/1995, E RDL 1/1992", "_raw_FC_AC": "1997-07-29", "_raw_NM_AREA_M2": 9199.40644212201, "_cam_code": "164" }, "geometry": { "type": "Polygon", "coordinates": [ [ [ -3.5417, 40.6735 ], [ -3.5416, 40.6751 ], [ -3.5414, 40.6753 ], [ -3.5418, 40.6756 ], [ -3.5421, 40.6751 ], [ -3.5422, 40.6736 ], [ -3.5416, 40.6732 ], [ -3.5417, 40.6735 ] ] ] } },
{ "type": "Feature", "properties": { "municipio": "Valdetorres de Jarama", "clasificacion": "no-urbanizable-protegido", "calificacion": "sin-asignar", "version": "vigente", "fuente": "SIT-CAM WFS — UsoDelSuelo:VPLA_V_CLASIFICACION (https://idem.comunidad.madrid/geosrvg/ows)", "fecha_dato": "2026-05-12", "ambito": "33691", "_raw_CD_SIGLAS": "SNUP", "_raw_DS_CLASIF_GEN": "Suelo No Urbanizable Protegido", "_raw_DS_CLASIF_DET": "Suelo No Urbanizable de Especial Protección Agrícola, Vías Pecuarias y Reserva Infraestructura Plan Regional", "_raw_DS_DOCU": "NORMAS SUBSIDIARIAS", "_raw_DS_LEY": "CM Ley 9/1995, E RDL 1/1992", "_raw_FC_AC": "1997-07-29", "_raw_NM_AREA_M2": 7151.5300107323601, "_cam_code": "164" }, "geometry": { "type": "Polygon", "coordinates": [ [ [ -3.545, 40.6761 ], [ -3.544, 40.6766 ], [ -3.5434, 40.6768 ], [ -3.5442, 40.6774 ], [ -3.5448, 40.6764 ], [ -3.5454, 40.6759 ], [ -3.5453, 40.6758 ], [ -3.545, 40.6761 ] ] ] } },
{ "type": "Feature", "properties": { "municipio": "Valdetorres de Jarama", "clasificacion": "no-urbanizable-protegido", "calificacion": "sin-asignar", "version": "vigente", "fuente": "SIT-CAM WFS — UsoDelSuelo:VPLA_V_CLASIFICACION (https://idem.comunidad.madrid/geosrvg/ows)", "fecha_dato": "2026-05-12", "ambito": "33691", "_raw_CD_SIGLAS": "SNUP", "_raw_DS_CLASIF_GEN": "Suelo No Urbanizable Protegido", "_raw_DS_CLASIF_DET": "Suelo No Urbanizable de Especial Protección Ecológica", "_raw_DS_DOCU": "NORMAS SUBSIDIARIAS", "_raw_DS_LEY": "CM Ley 9/1995, E RDL 1/1992", "_raw_FC_AC": "1997-07-29", "_raw_NM_AREA_M2": 2483.9657760854702, "_cam_code": "164" }, "geometry": { "type": "Polygon", "coordinates": [ [ [ -3.495, 40.6709 ], [ -3.4959, 40.671 ], [ -3.4969, 40.671 ], [ -3.4949, 40.6707 ], [ -3.495, 40.6709 ] ] ] } },
{ "type": "Feature", "properties": { "municipio": "Valdetorres de Jarama", "clasificacion": "no-urbanizable-protegido", "calificacion": "sin-asignar", "version": "vigente", "fuente": "SIT-CAM WFS — UsoDelSuelo:VPLA_V_CLASIFICACION (https://idem.comunidad.madrid/geosrvg/ows)", "fecha_dato": "2026-05-12", "ambito": "33691", "_raw_CD_SIGLAS": "SNUP", "_raw_DS_CLASIF_GEN": "Suelo No Urbanizable Protegido", "_raw_DS_CLASIF_DET": "Suelo No Urbanizable de Especial Protección Ecológica", "_raw_DS_DOCU": "NORMAS SUBSIDIARIAS", "_raw_DS_LEY": "CM Ley 9/1995, E RDL 1/1992", "_raw_FC_AC": "1997-07-29", "_raw_NM_AREA_M2": 1519605.38785098, "_cam_code": "164" }, "geometry": { "type": "Polygon", "coordinates": [ [ [ -3.4619, 40.6842 ], [ -3.4636, 40.6837 ], [ -3.4675, 40.6829 ], [ -3.4695, 40.6828 ], [ -3.4721, 40.6829 ], [ -3.4715, 40.6821 ], [ -3.4738, 40.6795 ], [ -3.4746, 40.6778 ], [ -3.4756, 40.6779 ], [ -3.4758, 40.6777 ], [ -3.4771, 40.6733 ], [ -3.4865, 40.669 ], [ -3.4847, 40.6681 ], [ -3.4828, 40.668 ], [ -3.4834, 40.6702 ], [ -3.4827, 40.6704 ], [ -3.4789, 40.6708 ], [ -3.4789, 40.6698 ], [ -3.474, 40.6689 ], [ -3.4721, 40.6689 ], [ -3.4713, 40.6691 ], [ -3.4706, 40.6691 ], [ -3.4699, 40.6694 ], [ -3.4683, 40.6692 ], [ -3.4663, 40.6713 ], [ -3.465, 40.6742 ], [ -3.4651, 40.6756 ], [ -3.466, 40.6789 ], [ -3.4659, 40.6792 ], [ -3.4652, 40.6796 ], [ -3.4647, 40.6795 ], [ -3.4644, 40.6798 ], [ -3.4638, 40.6799 ], [ -3.4635, 40.6803 ], [ -3.4628, 40.6805 ], [ -3.4626, 40.6812 ], [ -3.4623, 40.6816 ], [ -3.4621, 40.6815 ], [ -3.4611, 40.6817 ], [ -3.4607, 40.6818 ], [ -3.4604, 40.6821 ], [ -3.4602, 40.6821 ], [ -3.4619, 40.6842 ] ] ] } },
{ "type": "Feature", "properties": { "municipio": "Valdetorres de Jarama", "clasificacion": "no-urbanizable-protegido", "calificacion": "sin-asignar", "version": "vigente", "fuente": "SIT-CAM WFS — UsoDelSuelo:VPLA_V_CLASIFICACION (https://idem.comunidad.madrid/geosrvg/ows)", "fecha_dato": "2026-05-12", "ambito": "33691", "_raw_CD_SIGLAS": "SNUP", "_raw_DS_CLASIF_GEN": "Suelo No Urbanizable Protegido", "_raw_DS_CLASIF_DET": "Suelo No Urbanizable de Especial Protección Agrícola y Vías Pecuarias", "_raw_DS_DOCU": "NORMAS SUBSIDIARIAS", "_raw_DS_LEY": "CM Ley 9/1995, E RDL 1/1992", "_raw_FC_AC": "1997-07-29", "_raw_NM_AREA_M2": 2936.0013347293402, "_cam_code": "164" }, "geometry": { "type": "Polygon", "coordinates": [ [ [ -3.53, 40.6669 ], [ -3.5299, 40.667 ], [ -3.529, 40.6673 ], [ -3.5295, 40.6674 ], [ -3.5304, 40.6673 ], [ -3.53, 40.6669 ] ] ] } },
{ "type": "Feature", "properties": { "municipio": "Valdetorres de Jarama", "clasificacion": "no-urbanizable-protegido", "calificacion": "sin-asignar", "version": "vigente", "fuente": "SIT-CAM WFS — UsoDelSuelo:VPLA_V_CLASIFICACION (https://idem.comunidad.madrid/geosrvg/ows)", "fecha_dato": "2026-05-12", "ambito": "33691", "_raw_CD_SIGLAS": "SNUP", "_raw_DS_CLASIF_GEN": "Suelo No Urbanizable Protegido", "_raw_DS_CLASIF_DET": "Suelo No Urbanizable de Especial Protección Ecológica", "_raw_DS_DOCU": "NORMAS SUBSIDIARIAS", "_raw_DS_LEY": "CM Ley 9/1995, E RDL 1/1992", "_raw_FC_AC": "1997-07-29", "_raw_NM_AREA_M2": 5118748.7733985698, "_cam_code": "164" }, "geometry": { "type": "Polygon", "coordinates": [ [ [ -3.5074, 40.6919 ], [ -3.5085, 40.693 ], [ -3.5089, 40.6916 ], [ -3.5089, 40.6882 ], [ -3.5106, 40.6881 ], [ -3.5105, 40.6872 ], [ -3.5106, 40.6825 ], [ -3.5105, 40.6822 ], [ -3.5105, 40.6724 ], [ -3.5106, 40.6718 ], [ -3.5105, 40.6714 ], [ -3.5101, 40.6712 ], [ -3.51, 40.671 ], [ -3.5085, 40.6708 ], [ -3.5027, 40.6711 ], [ -3.4983, 40.6709 ], [ -3.4991, 40.6711 ], [ -3.4991, 40.6714 ], [ -3.4995, 40.6714 ], [ -3.4995, 40.6749 ], [ -3.4954, 40.6749 ], [ -3.4945, 40.6748 ], [ -3.4945, 40.6706 ], [ -3.4923, 40.6703 ], [ -3.491, 40.6705 ], [ -3.4912, 40.6691 ], [ -3.4901, 40.669 ], [ -3.4793, 40.6743 ], [ -3.478, 40.6782 ], [ -3.483, 40.6786 ], [ -3.4832, 40.6788 ], [ -3.4831, 40.6792 ], [ -3.4814, 40.6789 ], [ -3.4807, 40.6789 ], [ -3.4806, 40.6787 ], [ -3.4799, 40.6788 ], [ -3.4799, 40.6789 ], [ -3.4786, 40.6788 ], [ -3.4778, 40.6789 ], [ -3.4777, 40.6788 ], [ -3.4774, 40.679 ], [ -3.477, 40.679 ], [ -3.4765, 40.6793 ], [ -3.4765, 40.6792 ], [ -3.4763, 40.6799 ], [ -3.4764, 40.68 ], [ -3.4792, 40.6816 ], [ -3.4797, 40.6822 ], [ -3.4801, 40.683 ], [ -3.4848, 40.6864 ], [ -3.486, 40.6874 ], [ -3.4863, 40.6875 ], [ -3.4868, 40.688 ], [ -3.4872, 40.6881 ], [ -3.4872, 40.6882 ], [ -3.4913, 40.6891 ], [ -3.492, 40.6891 ], [ -3.5017, 40.691 ], [ -3.5066, 40.6924 ], [ -3.5071, 40.6915 ], [ -3.5072, 40.6915 ], [ -3.5074, 40.6919 ] ] ] } },
{ "type": "Feature", "properties": { "municipio": "Valdetorres de Jarama", "clasificacion": "no-urbanizable-protegido", "calificacion": "sin-asignar", "version": "vigente", "fuente": "SIT-CAM WFS — UsoDelSuelo:VPLA_V_CLASIFICACION (https://idem.comunidad.madrid/geosrvg/ows)", "fecha_dato": "2026-05-12", "ambito": "33691", "_raw_CD_SIGLAS": "SNUP", "_raw_DS_CLASIF_GEN": "Suelo No Urbanizable Protegido", "_raw_DS_CLASIF_DET": "Suelo No Urbanizable de Especial Protección Ecológica", "_raw_DS_DOCU": "NORMAS SUBSIDIARIAS", "_raw_DS_LEY": "CM Ley 9/1995, E RDL 1/1992", "_raw_FC_AC": "1997-07-29", "_raw_NM_AREA_M2": 7831483.5241671102, "_cam_code": "164" }, "geometry": { "type": "Polygon", "coordinates": [ [ [ -3.4836, 40.7101 ], [ -3.4875, 40.7108 ], [ -3.4886, 40.7115 ], [ -3.4909, 40.7125 ], [ -3.497, 40.7139 ], [ -3.5037, 40.7088 ], [ -3.5047, 40.7082 ], [ -3.51, 40.7042 ], [ -3.5096, 40.7029 ], [ -3.5094, 40.703 ], [ -3.5092, 40.7034 ], [ -3.5088, 40.7032 ], [ -3.5084, 40.7032 ], [ -3.5081, 40.7033 ], [ -3.508, 40.7036 ], [ -3.5075, 40.7036 ], [ -3.5069, 40.7031 ], [ -3.5063, 40.7031 ], [ -3.5063, 40.7032 ], [ -3.506, 40.7033 ], [ -3.5051, 40.7032 ], [ -3.5051, 40.7033 ], [ -3.5048, 40.7033 ], [ -3.5048, 40.7027 ], [ -3.505, 40.7011 ], [ -3.5094, 40.7014 ], [ -3.5094, 40.7018 ], [ -3.5095, 40.7018 ], [ -3.5098, 40.6975 ], [ -3.51, 40.6964 ], [ -3.5084, 40.6962 ], [ -3.5084, 40.696 ], [ -3.5095, 40.6958 ], [ -3.5095, 40.695 ], [ -3.5097, 40.695 ], [ -3.5097, 40.6946 ], [ -3.509, 40.6945 ], [ -3.5091, 40.6944 ], [ -3.5101, 40.6944 ], [ -3.5101, 40.6941 ], [ -3.509, 40.694 ], [ -3.5092, 40.6934 ], [ -3.5074, 40.693 ], [ -3.5058, 40.6924 ], [ -3.5013, 40.6911 ], [ -3.4952, 40.6901 ], [ -3.4933, 40.6896 ], [ -3.4882, 40.6887 ], [ -3.4869, 40.6881 ], [ -3.4847, 40.6864 ], [ -3.4833, 40.6855 ], [ -3.4817, 40.6842 ], [ -3.481, 40.6838 ], [ -3.4809, 40.6836 ], [ -3.4753, 40.6833 ], [ -3.4738, 40.6834 ], [ -3.4731, 40.6835 ], [ -3.4738, 40.6842 ], [ -3.4723, 40.6846 ], [ -3.47, 40.6847 ], [ -3.4681, 40.6846 ], [ -3.4643, 40.6853 ], [ -3.4629, 40.6857 ], [ -3.4637, 40.6871 ], [ -3.4641, 40.6868 ], [ -3.4646, 40.6868 ], [ -3.467, 40.6875 ], [ -3.4686, 40.6899 ], [ -3.4701, 40.6909 ], [ -3.4699, 40.6923 ], [ -3.4746, 40.6925 ], [ -3.4746, 40.6927 ], [ -3.4752, 40.6938 ], [ -3.4736, 40.6972 ], [ -3.4731, 40.7009 ], [ -3.4725, 40.7039 ], [ -3.4707, 40.7046 ], [ -3.47, 40.7068 ], [ -3.476, 40.7079 ], [ -3.4778, 40.7089 ], [ -3.4784, 40.7096 ], [ -3.4802, 40.7103 ], [ -3.4836, 40.7101 ] ] ] } },
{ "type": "Feature", "properties": { "municipio": "Valdetorres de Jarama", "clasificacion": "no-urbanizable-protegido", "calificacion": "sin-asignar", "version": "vigente", "fuente": "SIT-CAM WFS — UsoDelSuelo:VPLA_V_CLASIFICACION (https://idem.comunidad.madrid/geosrvg/ows)", "fecha_dato": "2026-05-12", "ambito": "33691", "_raw_CD_SIGLAS": "SNUP", "_raw_DS_CLASIF_GEN": "Suelo No Urbanizable Protegido", "_raw_DS_CLASIF_DET": "Suelo No Urbanizable de Especial Protección Ecológica", "_raw_DS_DOCU": "NORMAS SUBSIDIARIAS", "_raw_DS_LEY": "CM Ley 9/1995, E RDL 1/1992", "_raw_FC_AC": "1997-07-29", "_raw_NM_AREA_M2": 441955.562558682, "_cam_code": "164" }, "geometry": { "type": "Polygon", "coordinates": [ [ [ -3.51, 40.7043 ], [ -3.4971, 40.714 ], [ -3.4974, 40.7141 ], [ -3.4995, 40.7134 ], [ -3.5011, 40.7132 ], [ -3.503, 40.7125 ], [ -3.5055, 40.7125 ], [ -3.506, 40.7123 ], [ -3.5065, 40.7124 ], [ -3.5068, 40.7123 ], [ -3.5074, 40.7124 ], [ -3.508, 40.7127 ], [ -3.5085, 40.7127 ], [ -3.5096, 40.7124 ], [ -3.5096, 40.711 ], [ -3.5101, 40.705 ], [ -3.51, 40.7043 ] ] ] } },
{ "type": "Feature", "properties": { "municipio": "Valdetorres de Jarama", "clasificacion": "no-urbanizable-protegido", "calificacion": "sin-asignar", "version": "vigente", "fuente": "SIT-CAM WFS — UsoDelSuelo:VPLA_V_CLASIFICACION (https://idem.comunidad.madrid/geosrvg/ows)", "fecha_dato": "2026-05-12", "ambito": "33691", "_raw_CD_SIGLAS": "SNUP", "_raw_DS_CLASIF_GEN": "Suelo No Urbanizable Protegido", "_raw_DS_CLASIF_DET": "Suelo No Urbanizable de Especial Protección Ecológica", "_raw_DS_DOCU": "NORMAS SUBSIDIARIAS", "_raw_DS_LEY": "CM Ley 9/1995, E RDL 1/1992", "_raw_FC_AC": "1997-07-29", "_raw_NM_AREA_M2": 172341.81877550599, "_cam_code": "164" }, "geometry": { "type": "Polygon", "coordinates": [ [ [ -3.4992, 40.7144 ], [ -3.4981, 40.7149 ], [ -3.4997, 40.7167 ], [ -3.5006, 40.7173 ], [ -3.5042, 40.7152 ], [ -3.5054, 40.7148 ], [ -3.5054, 40.7146 ], [ -3.5065, 40.7146 ], [ -3.5068, 40.7144 ], [ -3.5074, 40.7145 ], [ -3.5077, 40.7144 ], [ -3.5079, 40.7137 ], [ -3.5077, 40.7133 ], [ -3.5072, 40.713 ], [ -3.5056, 40.7134 ], [ -3.5036, 40.7134 ], [ -3.5029, 40.7135 ], [ -3.5012, 40.7141 ], [ -3.4992, 40.7144 ] ] ] } },
{ "type": "Feature", "properties": { "municipio": "Valdetorres de Jarama", "clasificacion": "no-urbanizable-protegido", "calificacion": "sin-asignar", "version": "vigente", "fuente": "SIT-CAM WFS — UsoDelSuelo:VPLA_V_CLASIFICACION (https://idem.comunidad.madrid/geosrvg/ows)", "fecha_dato": "2026-05-12", "ambito": "33691", "_raw_CD_SIGLAS": "SNUP", "_raw_DS_CLASIF_GEN": "Suelo No Urbanizable Protegido", "_raw_DS_CLASIF_DET": "Suelo No Urbanizable de Especial Protección Vías Pecuarias", "_raw_DS_DOCU": "NORMAS SUBSIDIARIAS", "_raw_DS_LEY": "CM Ley 9/1995, E RDL 1/1992", "_raw_FC_AC": "1997-07-29", "_raw_NM_AREA_M2": 110557.53896167599, "_cam_code": "164" }, "geometry": { "type": "Polygon", "coordinates": [ [ [ -3.5191, 40.6907 ], [ -3.5189, 40.6912 ], [ -3.519, 40.6913 ], [ -3.5195, 40.6908 ], [ -3.5203, 40.6905 ], [ -3.5206, 40.6906 ], [ -3.5207, 40.6905 ], [ -3.5205, 40.6904 ], [ -3.5209, 40.6894 ], [ -3.5219, 40.6872 ], [ -3.5225, 40.6862 ], [ -3.5226, 40.6855 ], [ -3.5224, 40.6853 ], [ -3.5219, 40.6855 ], [ -3.522, 40.6851 ], [ -3.5226, 40.6846 ], [ -3.5229, 40.684 ], [ -3.5241, 40.6831 ], [ -3.5243, 40.6822 ], [ -3.5244, 40.6806 ], [ -3.5246, 40.6804 ], [ -3.5249, 40.6795 ], [ -3.5254, 40.6787 ], [ -3.5261, 40.6781 ], [ -3.5257, 40.6773 ], [ -3.5258, 40.6754 ], [ -3.5263, 40.6726 ], [ -3.5264, 40.6711 ], [ -3.5269, 40.6699 ], [ -3.5273, 40.6679 ], [ -3.5271, 40.6681 ], [ -3.5269, 40.6694 ], [ -3.5262, 40.6709 ], [ -3.526, 40.673 ], [ -3.5255, 40.6761 ], [ -3.5256, 40.6761 ], [ -3.5255, 40.6764 ], [ -3.5255, 40.6771 ], [ -3.5256, 40.6771 ], [ -3.5255, 40.678 ], [ -3.5247, 40.6792 ], [ -3.5243, 40.68 ], [ -3.5243, 40.6803 ], [ -3.524, 40.6804 ], [ -3.5238, 40.6821 ], [ -3.5236, 40.6825 ], [ -3.5225, 40.6838 ], [ -3.5214, 40.6857 ], [ -3.5209, 40.6875 ], [ -3.5198, 40.6898 ], [ -3.5191, 40.6907 ] ] ] } },
{ "type": "Feature", "properties": { "municipio": "Valdetorres de Jarama", "clasificacion": "no-urbanizable-protegido", "calificacion": "sin-asignar", "version": "vigente", "fuente": "SIT-CAM WFS — UsoDelSuelo:VPLA_V_CLASIFICACION (https://idem.comunidad.madrid/geosrvg/ows)", "fecha_dato": "2026-05-12", "ambito": "33691", "_raw_CD_SIGLAS": "SNUP", "_raw_DS_CLASIF_GEN": "Suelo No Urbanizable Protegido", "_raw_DS_CLASIF_DET": "Suelo No Urbanizable de Especial Protección Agrícola y Reserva Infraestructura Plan Regional", "_raw_DS_DOCU": "NORMAS SUBSIDIARIAS", "_raw_DS_LEY": "CM Ley 9/1995, E RDL 1/1992", "_raw_FC_AC": "1997-07-29", "_raw_NM_AREA_M2": 220175.96483925899, "_cam_code": "164" }, "geometry": { "type": "Polygon", "coordinates": [ [ [ -3.532, 40.6662 ], [ -3.53, 40.6669 ], [ -3.5304, 40.6673 ], [ -3.5414, 40.6753 ], [ -3.5416, 40.6751 ], [ -3.5417, 40.6741 ], [ -3.5416, 40.6732 ], [ -3.532, 40.6662 ] ] ] } },
{ "type": "Feature", "properties": { "municipio": "Valdetorres de Jarama", "clasificacion": "no-urbanizable-protegido", "calificacion": "sin-asignar", "version": "vigente", "fuente": "SIT-CAM WFS — UsoDelSuelo:VPLA_V_CLASIFICACION (https://idem.comunidad.madrid/geosrvg/ows)", "fecha_dato": "2026-05-12", "ambito": "33691", "_raw_CD_SIGLAS": "SNUP", "_raw_DS_CLASIF_GEN": "Suelo No Urbanizable Protegido", "_raw_DS_CLASIF_DET": "Suelo No Urbanizable de Especial Protección Agrícola y Cauces y Riberas", "_raw_DS_DOCU": "NORMAS SUBSIDIARIAS", "_raw_DS_LEY": "CM Ley 9/1995, E RDL 1/1992", "_raw_FC_AC": "1997-07-29", "_raw_NM_AREA_M2": 855236.05141254805, "_cam_code": "164" }, "geometry": { "type": "Polygon", "coordinates": [ [ [ -3.5254, 40.719 ], [ -3.5247, 40.7209 ], [ -3.5246, 40.7223 ], [ -3.5249, 40.7238 ], [ -3.5259, 40.7247 ], [ -3.5261, 40.7254 ], [ -3.526, 40.7269 ], [ -3.5263, 40.7262 ], [ -3.5268, 40.7257 ], [ -3.5271, 40.7243 ], [ -3.5261, 40.7229 ], [ -3.5259, 40.722 ], [ -3.5259, 40.7212 ], [ -3.527, 40.7186 ], [ -3.5277, 40.7173 ], [ -3.5277, 40.7171 ], [ -3.5284, 40.7159 ], [ -3.5283, 40.7149 ], [ -3.5285, 40.7138 ], [ -3.5297, 40.7125 ], [ -3.5311, 40.7116 ], [ -3.5329, 40.7101 ], [ -3.5331, 40.7097 ], [ -3.5333, 40.7096 ], [ -3.5339, 40.7088 ], [ -3.5341, 40.7082 ], [ -3.5339, 40.7071 ], [ -3.534, 40.7057 ], [ -3.5347, 40.7046 ], [ -3.535, 40.7044 ], [ -3.5359, 40.7043 ], [ -3.5366, 40.7039 ], [ -3.5377, 40.7026 ], [ -3.5396, 40.7008 ], [ -3.5405, 40.7002 ], [ -3.5428, 40.6993 ], [ -3.5439, 40.698 ], [ -3.5443, 40.6975 ], [ -3.5438, 40.6963 ], [ -3.5437, 40.6956 ], [ -3.544, 40.6915 ], [ -3.5452, 40.6903 ], [ -3.5474, 40.6899 ], [ -3.5482, 40.6895 ], [ -3.55, 40.687 ], [ -3.5477, 40.6886 ], [ -3.5467, 40.689 ], [ -3.5455, 40.689 ], [ -3.5448, 40.6892 ], [ -3.5448, 40.6896 ], [ -3.5445, 40.6899 ], [ -3.5433, 40.6907 ], [ -3.5428, 40.6915 ], [ -3.5427, 40.6919 ], [ -3.5416, 40.6932 ], [ -3.5417, 40.6936 ], [ -3.5411, 40.6938 ], [ -3.5406, 40.6947 ], [ -3.5404, 40.6953 ], [ -3.5403, 40.6963 ], [ -3.54, 40.6966 ], [ -3.5399, 40.6978 ], [ -3.5391, 40.6987 ], [ -3.537, 40.6993 ], [ -3.5363, 40.6998 ], [ -3.5358, 40.7004 ], [ -3.5354, 40.7013 ], [ -3.5358, 40.7015 ], [ -3.5368, 40.7016 ], [ -3.5364, 40.7017 ], [ -3.5355, 40.7015 ], [ -3.5355, 40.7019 ], [ -3.5357, 40.7022 ], [ -3.5354, 40.7026 ], [ -3.5354, 40.7031 ], [ -3.5346, 40.7033 ], [ -3.5343, 40.7036 ], [ -3.5331, 40.7042 ], [ -3.5326, 40.7048 ], [ -3.5325, 40.7056 ], [ -3.5328, 40.7063 ], [ -3.5327, 40.7083 ], [ -3.5319, 40.7093 ], [ -3.5318, 40.7096 ], [ -3.5313, 40.7099 ], [ -3.5304, 40.7108 ], [ -3.5305, 40.7109 ], [ -3.5303, 40.7109 ], [ -3.5285, 40.7119 ], [ -3.5273, 40.7135 ], [ -3.5262, 40.7134 ], [ -3.5262, 40.7137 ], [ -3.5245, 40.7129 ], [ -3.5239, 40.7128 ], [ -3.5235, 40.7129 ], [ -3.5232, 40.7127 ], [ -3.5218, 40.7125 ], [ -3.5212, 40.7122 ], [ -3.5208, 40.7123 ], [ -3.5205, 40.7121 ], [ -3.5203, 40.7128 ], [ -3.5203, 40.7136 ], [ -3.5201, 40.7141 ], [ -3.5208, 40.7145 ], [ -3.523, 40.715 ], [ -3.5271, 40.7145 ], [ -3.5276, 40.7146 ], [ -3.5267, 40.7165 ], [ -3.527, 40.7169 ], [ -3.527, 40.7175 ], [ -3.5267, 40.7186 ], [ -3.5263, 40.7195 ], [ -3.5258, 40.7197 ], [ -3.5258, 40.7192 ], [ -3.5264, 40.7186 ], [ -3.5261, 40.7185 ], [ -3.5263, 40.718 ], [ -3.5262, 40.7175 ], [ -3.5261, 40.718 ], [ -3.5254, 40.719 ] ] ] } },
{ "type": "Feature", "properties": { "municipio": "Valdetorres de Jarama", "clasificacion": "no-urbanizable-protegido", "calificacion": "sin-asignar", "version": "vigente", "fuente": "SIT-CAM WFS — UsoDelSuelo:VPLA_V_CLASIFICACION (https://idem.comunidad.madrid/geosrvg/ows)", "fecha_dato": "2026-05-12", "ambito": "33691", "_raw_CD_SIGLAS": "SNUP", "_raw_DS_CLASIF_GEN": "Suelo No Urbanizable Protegido", "_raw_DS_CLASIF_DET": "Suelo No Urbanizable de Especial Protección Agrícola y Cauces y Riberas", "_raw_DS_DOCU": "NORMAS SUBSIDIARIAS", "_raw_DS_LEY": "CM Ley 9/1995, E RDL 1/1992", "_raw_FC_AC": "1997-07-29", "_raw_NM_AREA_M2": 133705.69108317301, "_cam_code": "164" }, "geometry": { "type": "Polygon", "coordinates": [ [ [ -3.5096, 40.7124 ], [ -3.5098, 40.7133 ], [ -3.5101, 40.7133 ], [ -3.5134, 40.7124 ], [ -3.514, 40.7125 ], [ -3.5153, 40.7121 ], [ -3.5166, 40.7119 ], [ -3.5178, 40.7119 ], [ -3.5203, 40.7128 ], [ -3.5204, 40.712 ], [ -3.5209, 40.7122 ], [ -3.5212, 40.7121 ], [ -3.5205, 40.7113 ], [ -3.5194, 40.711 ], [ -3.5169, 40.7106 ], [ -3.5157, 40.7106 ], [ -3.5146, 40.7107 ], [ -3.5133, 40.7111 ], [ -3.5119, 40.7118 ], [ -3.5096, 40.7124 ] ] ] } },
{ "type": "Feature", "properties": { "municipio": "Valdetorres de Jarama", "clasificacion": "no-urbanizable-protegido", "calificacion": "sin-asignar", "version": "vigente", "fuente": "SIT-CAM WFS — UsoDelSuelo:VPLA_V_CLASIFICACION (https://idem.comunidad.madrid/geosrvg/ows)", "fecha_dato": "2026-05-12", "ambito": "33691", "_raw_CD_SIGLAS": "SNUP", "_raw_DS_CLASIF_GEN": "Suelo No Urbanizable Protegido", "_raw_DS_CLASIF_DET": "Suelo No Urbanizable de Especial Protección Agrícola y Cauces y Riberas", "_raw_DS_DOCU": "NORMAS SUBSIDIARIAS", "_raw_DS_LEY": "CM Ley 9/1995, E RDL 1/1992", "_raw_FC_AC": "1997-07-29", "_raw_NM_AREA_M2": 217969.798053829, "_cam_code": "164" }, "geometry": { "type": "Polygon", "coordinates": [ [ [ -3.5553, 40.669 ], [ -3.5543, 40.6693 ], [ -3.5538, 40.6697 ], [ -3.5532, 40.6721 ], [ -3.5528, 40.6729 ], [ -3.5526, 40.6742 ], [ -3.5528, 40.6757 ], [ -3.5526, 40.6765 ], [ -3.5527, 40.6767 ], [ -3.5522, 40.6779 ], [ -3.5519, 40.6791 ], [ -3.5518, 40.6802 ], [ -3.5519, 40.6806 ], [ -3.553, 40.6815 ], [ -3.5532, 40.6827 ], [ -3.5542, 40.6832 ], [ -3.5533, 40.6842 ], [ -3.5534, 40.6858 ], [ -3.5525, 40.6871 ], [ -3.5535, 40.6867 ], [ -3.5547, 40.6842 ], [ -3.5556, 40.6833 ], [ -3.5556, 40.6828 ], [ -3.5554, 40.6826 ], [ -3.5544, 40.6822 ], [ -3.5539, 40.6819 ], [ -3.5537, 40.6816 ], [ -3.5533, 40.6794 ], [ -3.5535, 40.6782 ], [ -3.5537, 40.678 ], [ -3.554, 40.6772 ], [ -3.5542, 40.6771 ], [ -3.5539, 40.6742 ], [ -3.5542, 40.6728 ], [ -3.555, 40.6713 ], [ -3.5551, 40.6697 ], [ -3.5553, 40.669 ] ] ] } },
{ "type": "Feature", "properties": { "municipio": "Valdetorres de Jarama", "clasificacion": "no-urbanizable-protegido", "calificacion": "sin-asignar", "version": "vigente", "fuente": "SIT-CAM WFS — UsoDelSuelo:VPLA_V_CLASIFICACION (https://idem.comunidad.madrid/geosrvg/ows)", "fecha_dato": "2026-05-12", "ambito": "33691", "_raw_CD_SIGLAS": "SNUP", "_raw_DS_CLASIF_GEN": "Suelo No Urbanizable Protegido", "_raw_DS_CLASIF_DET": "Suelo No Urbanizable de Especial Protección Agrícola y Cauces y Riberas", "_raw_DS_DOCU": "NORMAS SUBSIDIARIAS", "_raw_DS_LEY": "CM Ley 9/1995, E RDL 1/1992", "_raw_FC_AC": "1997-07-29", "_raw_NM_AREA_M2": 105681.40379350301, "_cam_code": "164" }, "geometry": { "type": "Polygon", "coordinates": [ [ [ -3.5553, 40.6609 ], [ -3.5552, 40.6617 ], [ -3.5544, 40.6623 ], [ -3.5542, 40.6628 ], [ -3.5535, 40.6635 ], [ -3.5534, 40.6647 ], [ -3.5535, 40.6651 ], [ -3.5532, 40.6656 ], [ -3.5535, 40.6665 ], [ -3.5538, 40.6683 ], [ -3.5544, 40.6691 ], [ -3.5553, 40.669 ], [ -3.5553, 40.6685 ], [ -3.555, 40.6678 ], [ -3.5549, 40.6669 ], [ -3.5542, 40.666 ], [ -3.5542, 40.6649 ], [ -3.5546, 40.6642 ], [ -3.5557, 40.6634 ], [ -3.5565, 40.6625 ], [ -3.5568, 40.6616 ], [ -3.5568, 40.6609 ], [ -3.5553, 40.6609 ] ] ] } },
{ "type": "Feature", "properties": { "municipio": "Valdetorres de Jarama", "clasificacion": "no-urbanizable-protegido", "calificacion": "sin-asignar", "version": "vigente", "fuente": "SIT-CAM WFS — UsoDelSuelo:VPLA_V_CLASIFICACION (https://idem.comunidad.madrid/geosrvg/ows)", "fecha_dato": "2026-05-12", "ambito": "33691", "_raw_CD_SIGLAS": "SNUP", "_raw_DS_CLASIF_GEN": "Suelo No Urbanizable Protegido", "_raw_DS_CLASIF_DET": "Suelo No Urbanizable de Especial Protección Agrícola", "_raw_DS_DOCU": "NORMAS SUBSIDIARIAS", "_raw_DS_LEY": "CM Ley 9/1995, E RDL 1/1992", "_raw_FC_AC": "1997-07-29", "_raw_NM_AREA_M2": 940848.71278916497, "_cam_code": "164" }, "geometry": { "type": "Polygon", "coordinates": [ [ [ -3.5182, 40.7176 ], [ -3.5183, 40.7184 ], [ -3.5186, 40.719 ], [ -3.5187, 40.7196 ], [ -3.5186, 40.7201 ], [ -3.5187, 40.7228 ], [ -3.5185, 40.7243 ], [ -3.5186, 40.7243 ], [ -3.5199, 40.7266 ], [ -3.5213, 40.7282 ], [ -3.524, 40.7306 ], [ -3.5259, 40.7325 ], [ -3.5257, 40.7318 ], [ -3.5256, 40.7303 ], [ -3.5253, 40.7292 ], [ -3.5256, 40.7277 ], [ -3.5258, 40.7275 ], [ -3.526, 40.7269 ], [ -3.5261, 40.7254 ], [ -3.5259, 40.7247 ], [ -3.5249, 40.7238 ], [ -3.5246, 40.7223 ], [ -3.5246, 40.7215 ], [ -3.5247, 40.7209 ], [ -3.5254, 40.719 ], [ -3.5261, 40.718 ], [ -3.5262, 40.7175 ], [ -3.5263, 40.718 ], [ -3.5261, 40.7185 ], [ -3.5264, 40.7186 ], [ -3.5258, 40.7192 ], [ -3.5258, 40.7197 ], [ -3.5263, 40.7195 ], [ -3.5267, 40.7186 ], [ -3.527, 40.7175 ], [ -3.527, 40.7169 ], [ -3.5267, 40.7165 ], [ -3.5276, 40.7146 ], [ -3.5271, 40.7145 ], [ -3.523, 40.715 ], [ -3.5208, 40.7145 ], [ -3.5201, 40.7141 ], [ -3.5194, 40.7151 ], [ -3.5191, 40.7158 ], [ -3.5189, 40.7159 ], [ -3.5186, 40.717 ], [ -3.5182, 40.7176 ] ] ] } },
{ "type": "Feature", "properties": { "municipio": "Valdetorres de Jarama", "clasificacion": "no-urbanizable-protegido", "calificacion": "sin-asignar", "version": "vigente", "fuente": "SIT-CAM WFS — UsoDelSuelo:VPLA_V_CLASIFICACION (https://idem.comunidad.madrid/geosrvg/ows)", "fecha_dato": "2026-05-12", "ambito": "33691", "_raw_CD_SIGLAS": "SNUP", "_raw_DS_CLASIF_GEN": "Suelo No Urbanizable Protegido", "_raw_DS_CLASIF_DET": "Suelo No Urbanizable de Especial Protección Agrícola", "_raw_DS_DOCU": "NORMAS SUBSIDIARIAS", "_raw_DS_LEY": "CM Ley 9/1995, E RDL 1/1992", "_raw_FC_AC": "1997-07-29", "_raw_NM_AREA_M2": 619613.99661827495, "_cam_code": "164" }, "geometry": { "type": "Polygon", "coordinates": [ [ [ -3.5158, 40.712 ], [ -3.514, 40.7125 ], [ -3.5153, 40.7129 ], [ -3.5141, 40.7161 ], [ -3.5133, 40.7174 ], [ -3.5118, 40.7193 ], [ -3.5116, 40.7222 ], [ -3.5117, 40.7224 ], [ -3.5145, 40.7236 ], [ -3.5184, 40.7242 ], [ -3.5186, 40.7227 ], [ -3.5184, 40.7202 ], [ -3.5186, 40.7197 ], [ -3.5185, 40.7191 ], [ -3.5182, 40.7185 ], [ -3.5181, 40.7176 ], [ -3.5187, 40.7166 ], [ -3.5188, 40.7159 ], [ -3.5201, 40.714 ], [ -3.5203, 40.7128 ], [ -3.5178, 40.7119 ], [ -3.5158, 40.712 ] ] ] } },
{ "type": "Feature", "properties": { "municipio": "Valdetorres de Jarama", "clasificacion": "no-urbanizable-protegido", "calificacion": "sin-asignar", "version": "vigente", "fuente": "SIT-CAM WFS — UsoDelSuelo:VPLA_V_CLASIFICACION (https://idem.comunidad.madrid/geosrvg/ows)", "fecha_dato": "2026-05-12", "ambito": "33691", "_raw_CD_SIGLAS": "SNUP", "_raw_DS_CLASIF_GEN": "Suelo No Urbanizable Protegido", "_raw_DS_CLASIF_DET": "Suelo No Urbanizable de Especial Protección Agrícola", "_raw_DS_DOCU": "NORMAS SUBSIDIARIAS", "_raw_DS_LEY": "CM Ley 9/1995, E RDL 1/1992", "_raw_FC_AC": "1997-07-29", "_raw_NM_AREA_M2": 27604.1763330748, "_cam_code": "164" }, "geometry": { "type": "Polygon", "coordinates": [ [ [ -3.5299, 40.7111 ], [ -3.5281, 40.7115 ], [ -3.5263, 40.7127 ], [ -3.5262, 40.7134 ], [ -3.5273, 40.7135 ], [ -3.5285, 40.7119 ], [ -3.5303, 40.7109 ], [ -3.5299, 40.7111 ] ] ] } },
{ "type": "Feature", "properties": { "municipio": "Valdetorres de Jarama", "clasificacion": "no-urbanizable-protegido", "calificacion": "sin-asignar", "version": "vigente", "fuente": "SIT-CAM WFS — UsoDelSuelo:VPLA_V_CLASIFICACION (https://idem.comunidad.madrid/geosrvg/ows)", "fecha_dato": "2026-05-12", "ambito": "33691", "_raw_CD_SIGLAS": "SNUP", "_raw_DS_CLASIF_GEN": "Suelo No Urbanizable Protegido", "_raw_DS_CLASIF_DET": "Suelo No Urbanizable de Especial Protección Agrícola", "_raw_DS_DOCU": "NORMAS SUBSIDIARIAS", "_raw_DS_LEY": "CM Ley 9/1995, E RDL 1/1992", "_raw_FC_AC": "1997-07-29", "_raw_NM_AREA_M2": 1106913.4439173499, "_cam_code": "164" }, "geometry": { "type": "Polygon", "coordinates": [ [ [ -3.5096, 40.711 ], [ -3.5096, 40.7124 ], [ -3.5119, 40.7118 ], [ -3.5133, 40.7111 ], [ -3.5146, 40.7107 ], [ -3.5157, 40.7106 ], [ -3.5169, 40.7106 ], [ -3.5194, 40.711 ], [ -3.5205, 40.7113 ], [ -3.5212, 40.7121 ], [ -3.5215, 40.7121 ], [ -3.5236, 40.7108 ], [ -3.5245, 40.71 ], [ -3.5246, 40.7097 ], [ -3.5245, 40.7084 ], [ -3.5241, 40.7073 ], [ -3.5224, 40.7052 ], [ -3.5208, 40.7042 ], [ -3.5205, 40.7038 ], [ -3.5202, 40.7038 ], [ -3.518, 40.7023 ], [ -3.5172, 40.7012 ], [ -3.5173, 40.7012 ], [ -3.5167, 40.701 ], [ -3.5163, 40.7021 ], [ -3.5129, 40.7011 ], [ -3.5102, 40.7037 ], [ -3.5102, 40.7031 ], [ -3.5098, 40.7026 ], [ -3.5095, 40.7029 ], [ -3.5096, 40.7029 ], [ -3.5101, 40.7046 ], [ -3.5096, 40.711 ] ] ] } },
{ "type": "Feature", "properties": { "municipio": "Valdetorres de Jarama", "clasificacion": "no-urbanizable-protegido", "calificacion": "sin-asignar", "version": "vigente", "fuente": "SIT-CAM WFS — UsoDelSuelo:VPLA_V_CLASIFICACION (https://idem.comunidad.madrid/geosrvg/ows)", "fecha_dato": "2026-05-12", "ambito": "33691", "_raw_CD_SIGLAS": "SNUP", "_raw_DS_CLASIF_GEN": "Suelo No Urbanizable Protegido", "_raw_DS_CLASIF_DET": "Suelo No Urbanizable de Especial Protección Agrícola", "_raw_DS_DOCU": "NORMAS SUBSIDIARIAS", "_raw_DS_LEY": "CM Ley 9/1995, E RDL 1/1992", "_raw_FC_AC": "1997-07-29", "_raw_NM_AREA_M2": 1026442.41519417, "_cam_code": "164" }, "geometry": { "type": "Polygon", "coordinates": [ [ [ -3.5323, 40.6769 ], [ -3.5392, 40.6782 ], [ -3.5402, 40.6786 ], [ -3.5405, 40.6783 ], [ -3.5408, 40.6777 ], [ -3.5414, 40.6753 ], [ -3.5304, 40.6673 ], [ -3.5295, 40.6674 ], [ -3.529, 40.6673 ], [ -3.5273, 40.6679 ], [ -3.5269, 40.6699 ], [ -3.5264, 40.6711 ], [ -3.5263, 40.6726 ], [ -3.5258, 40.6754 ], [ -3.5257, 40.6773 ], [ -3.526, 40.678 ], [ -3.5261, 40.6781 ], [ -3.5265, 40.678 ], [ -3.5303, 40.6769 ], [ -3.5323, 40.6769 ] ] ] } },
{ "type": "Feature", "properties": { "municipio": "Valdetorres de Jarama", "clasificacion": "no-urbanizable-protegido", "calificacion": "sin-asignar", "version": "vigente", "fuente": "SIT-CAM WFS — UsoDelSuelo:VPLA_V_CLASIFICACION (https://idem.comunidad.madrid/geosrvg/ows)", "fecha_dato": "2026-05-12", "ambito": "33691", "_raw_CD_SIGLAS": "SNUP", "_raw_DS_CLASIF_GEN": "Suelo No Urbanizable Protegido", "_raw_DS_CLASIF_DET": "Suelo No Urbanizable de Especial Protección Agrícola", "_raw_DS_DOCU": "NORMAS SUBSIDIARIAS", "_raw_DS_LEY": "CM Ley 9/1995, E RDL 1/1992", "_raw_FC_AC": "1997-07-29", "_raw_NM_AREA_M2": 22124.947459312902, "_cam_code": "164" }, "geometry": { "type": "Polygon", "coordinates": [ [ [ -3.5418, 40.6756 ], [ -3.5416, 40.6767 ], [ -3.5414, 40.677 ], [ -3.5412, 40.6779 ], [ -3.5422, 40.6775 ], [ -3.5432, 40.6768 ], [ -3.5434, 40.6768 ], [ -3.5418, 40.6756 ] ] ] } },
{ "type": "Feature", "properties": { "municipio": "Valdetorres de Jarama", "clasificacion": "no-urbanizable-protegido", "calificacion": "sin-asignar", "version": "vigente", "fuente": "SIT-CAM WFS — UsoDelSuelo:VPLA_V_CLASIFICACION (https://idem.comunidad.madrid/geosrvg/ows)", "fecha_dato": "2026-05-12", "ambito": "33691", "_raw_CD_SIGLAS": "SNUP", "_raw_DS_CLASIF_GEN": "Suelo No Urbanizable Protegido", "_raw_DS_CLASIF_DET": "Suelo No Urbanizable de Especial Protección Agrícola", "_raw_DS_DOCU": "NORMAS SUBSIDIARIAS", "_raw_DS_LEY": "CM Ley 9/1995, E RDL 1/1992", "_raw_FC_AC": "1997-07-29", "_raw_NM_AREA_M2": 1102038.8685711699, "_cam_code": "164" }, "geometry": { "type": "Polygon", "coordinates": [ [ [ -3.5326, 40.6642 ], [ -3.5324, 40.6661 ], [ -3.5346, 40.6664 ], [ -3.5355, 40.6668 ], [ -3.5358, 40.6668 ], [ -3.5365, 40.6672 ], [ -3.5371, 40.6678 ], [ -3.5377, 40.6687 ], [ -3.5383, 40.6692 ], [ -3.5387, 40.6698 ], [ -3.5399, 40.671 ], [ -3.5408, 40.6715 ], [ -3.5414, 40.6721 ], [ -3.5419, 40.6727 ], [ -3.5422, 40.6733 ], [ -3.5422, 40.6736 ], [ -3.5453, 40.6758 ], [ -3.5456, 40.6754 ], [ -3.5459, 40.6744 ], [ -3.5457, 40.6723 ], [ -3.5462, 40.6706 ], [ -3.5459, 40.6697 ], [ -3.546, 40.6689 ], [ -3.5457, 40.6674 ], [ -3.5469, 40.6656 ], [ -3.5477, 40.6638 ], [ -3.5482, 40.6605 ], [ -3.5463, 40.6618 ], [ -3.5463, 40.663 ], [ -3.5427, 40.6608 ], [ -3.5403, 40.6612 ], [ -3.5326, 40.6642 ] ] ] } },
{ "type": "Feature", "properties": { "municipio": "Valdetorres de Jarama", "clasificacion": "no-urbanizable-protegido", "calificacion": "sin-asignar", "version": "vigente", "fuente": "SIT-CAM WFS — UsoDelSuelo:VPLA_V_CLASIFICACION (https://idem.comunidad.madrid/geosrvg/ows)", "fecha_dato": "2026-05-12", "ambito": "33691", "_raw_CD_SIGLAS": "SNUP", "_raw_DS_CLASIF_GEN": "Suelo No Urbanizable Protegido", "_raw_DS_CLASIF_DET": "Suelo No Urbanizable de Especial Protección Agrícola", "_raw_DS_DOCU": "NORMAS SUBSIDIARIAS", "_raw_DS_LEY": "CM Ley 9/1995, E RDL 1/1992", "_raw_FC_AC": "1997-07-29", "_raw_NM_AREA_M2": 80916.380772635195, "_cam_code": "164" }, "geometry": { "type": "Polygon", "coordinates": [ [ [ -3.5323, 40.6665 ], [ -3.5416, 40.6732 ], [ -3.5415, 40.6728 ], [ -3.5405, 40.6718 ], [ -3.5397, 40.6714 ], [ -3.539, 40.6708 ], [ -3.536, 40.6673 ], [ -3.5344, 40.6667 ], [ -3.5323, 40.6665 ] ] ] } },
{ "type": "Feature", "properties": { "municipio": "Valdetorres de Jarama", "clasificacion": "no-urbanizable-protegido", "calificacion": "sin-asignar", "version": "vigente", "fuente": "SIT-CAM WFS — UsoDelSuelo:VPLA_V_CLASIFICACION (https://idem.comunidad.madrid/geosrvg/ows)", "fecha_dato": "2026-05-12", "ambito": "33691", "_raw_CD_SIGLAS": "SNUP", "_raw_DS_CLASIF_GEN": "Suelo No Urbanizable Protegido", "_raw_DS_CLASIF_DET": "Suelo No Urbanizable de Especial Protección Agrícola", "_raw_DS_DOCU": "NORMAS SUBSIDIARIAS", "_raw_DS_LEY": "CM Ley 9/1995, E RDL 1/1992", "_raw_FC_AC": "1997-07-29", "_raw_NM_AREA_M2": 598585.11552720703, "_cam_code": "164" }, "geometry": { "type": "Polygon", "coordinates": [ [ [ -3.5484, 40.6604 ], [ -3.548, 40.6632 ], [ -3.5473, 40.665 ], [ -3.5465, 40.6662 ], [ -3.5459, 40.6674 ], [ -3.546, 40.6687 ], [ -3.5461, 40.6688 ], [ -3.546, 40.6696 ], [ -3.5463, 40.6703 ], [ -3.5461, 40.6713 ], [ -3.5465, 40.6708 ], [ -3.5472, 40.6705 ], [ -3.5472, 40.6703 ], [ -3.5476, 40.6701 ], [ -3.5507, 40.6699 ], [ -3.5544, 40.6691 ], [ -3.5538, 40.6683 ], [ -3.5535, 40.6665 ], [ -3.5532, 40.6656 ], [ -3.5535, 40.6651 ], [ -3.5534, 40.6647 ], [ -3.5535, 40.6635 ], [ -3.5542, 40.6628 ], [ -3.5544, 40.6623 ], [ -3.5552, 40.6617 ], [ -3.5553, 40.6609 ], [ -3.5484, 40.6604 ] ] ] } },
{ "type": "Feature", "properties": { "municipio": "Valdetorres de Jarama", "clasificacion": "no-urbanizable-protegido", "calificacion": "sin-asignar", "version": "vigente", "fuente": "SIT-CAM WFS — UsoDelSuelo:VPLA_V_CLASIFICACION (https://idem.comunidad.madrid/geosrvg/ows)", "fecha_dato": "2026-05-12", "ambito": "33691", "_raw_CD_SIGLAS": "SNUP", "_raw_DS_CLASIF_GEN": "Suelo No Urbanizable Protegido", "_raw_DS_CLASIF_DET": "Suelo No Urbanizable de Especial Protección Agrícola", "_raw_DS_DOCU": "NORMAS SUBSIDIARIAS", "_raw_DS_LEY": "CM Ley 9/1995, E RDL 1/1992", "_raw_FC_AC": "1997-07-29", "_raw_NM_AREA_M2": 7890.9071012858303, "_cam_code": "164" }, "geometry": { "type": "Polygon", "coordinates": [ [ [ -3.5549, 40.6669 ], [ -3.555, 40.6678 ], [ -3.5553, 40.6685 ], [ -3.5553, 40.6689 ], [ -3.5556, 40.6679 ], [ -3.5556, 40.6674 ], [ -3.5546, 40.6664 ], [ -3.5549, 40.6669 ] ] ] } },
{ "type": "Feature", "properties": { "municipio": "Valdetorres de Jarama", "clasificacion": "urbano-consolidado", "calificacion": "sin-asignar", "version": "vigente", "fuente": "SIT-CAM WFS — UsoDelSuelo:VPLA_V_CLASIFICACION (https://idem.comunidad.madrid/geosrvg/ows)", "fecha_dato": "2026-05-12", "ambito": "33691", "_raw_CD_SIGLAS": "SU", "_raw_DS_CLASIF_GEN": "Suelo Urbano", "_raw_DS_CLASIF_DET": "Suelo Urbano", "_raw_DS_DOCU": "NORMAS SUBSIDIARIAS", "_raw_DS_LEY": "CM Ley 9/1995, E RDL 1/1992", "_raw_FC_AC": "1997-07-29", "_raw_NM_AREA_M2": 309583.84567566402, "_cam_code": "164" }, "geometry": { "type": "Polygon", "coordinates": [ [ [ -3.5155, 40.6804 ], [ -3.524, 40.6808 ], [ -3.524, 40.6804 ], [ -3.5243, 40.6803 ], [ -3.5243, 40.68 ], [ -3.5247, 40.6792 ], [ -3.5255, 40.678 ], [ -3.5256, 40.6773 ], [ -3.5255, 40.6764 ], [ -3.5256, 40.6761 ], [ -3.5163, 40.6758 ], [ -3.5155, 40.6804 ] ], [ [ -3.5219, 40.677 ], [ -3.522, 40.6773 ], [ -3.5219, 40.6786 ], [ -3.516, 40.6784 ], [ -3.5163, 40.6768 ], [ -3.5219, 40.677 ] ] ] } },
{ "type": "Feature", "properties": { "municipio": "Valdetorres de Jarama", "clasificacion": "urbano-consolidado", "calificacion": "sin-asignar", "version": "vigente", "fuente": "SIT-CAM WFS — UsoDelSuelo:VPLA_V_CLASIFICACION (https://idem.comunidad.madrid/geosrvg/ows)", "fecha_dato": "2026-05-12", "ambito": "33691", "_raw_CD_SIGLAS": "SU", "_raw_DS_CLASIF_GEN": "Suelo Urbano", "_raw_DS_CLASIF_DET": "Suelo Urbano", "_raw_DS_DOCU": "NORMAS SUBSIDIARIAS", "_raw_DS_LEY": "CM Ley 9/1995, E RDL 1/1992", "_raw_FC_AC": "1997-07-29", "_raw_NM_AREA_M2": 1615224.5194357899, "_cam_code": "164" }, "geometry": { "type": "Polygon", "coordinates": [ [ [ -3.5316, 40.6866 ], [ -3.5396, 40.6889 ], [ -3.5405, 40.689 ], [ -3.5416, 40.6875 ], [ -3.5425, 40.6872 ], [ -3.5432, 40.6872 ], [ -3.5431, 40.6871 ], [ -3.543, 40.6861 ], [ -3.543, 40.685 ], [ -3.5436, 40.6842 ], [ -3.5429, 40.684 ], [ -3.5445, 40.681 ], [ -3.5436, 40.6808 ], [ -3.5429, 40.6801 ], [ -3.5414, 40.6792 ], [ -3.5395, 40.6783 ], [ -3.5339, 40.6773 ], [ -3.5323, 40.6769 ], [ -3.5303, 40.6769 ], [ -3.5259, 40.6782 ], [ -3.525, 40.6793 ], [ -3.5246, 40.6804 ], [ -3.5244, 40.6806 ], [ -3.5243, 40.6822 ], [ -3.5241, 40.6831 ], [ -3.5229, 40.6841 ], [ -3.526, 40.6852 ], [ -3.5293, 40.686 ], [ -3.5307, 40.6862 ], [ -3.5316, 40.6866 ] ] ] } },
{ "type": "Feature", "properties": { "municipio": "Valdetorres de Jarama", "clasificacion": "urbano-consolidado", "calificacion": "sin-asignar", "version": "vigente", "fuente": "SIT-CAM WFS — UsoDelSuelo:VPLA_V_CLASIFICACION (https://idem.comunidad.madrid/geosrvg/ows)", "fecha_dato": "2026-05-12", "ambito": "33691", "_raw_CD_SIGLAS": "SU", "_raw_DS_CLASIF_GEN": "Suelo Urbano", "_raw_DS_CLASIF_DET": "Suelo Urbano", "_raw_DS_DOCU": "NORMAS SUBSIDIARIAS", "_raw_DS_LEY": "CM Ley 9/1995, E RDL 1/1992", "_raw_FC_AC": "1997-07-29", "_raw_NM_AREA_M2": 1042493.3064783399, "_cam_code": "164" }, "geometry": { "type": "Polygon", "coordinates": [ [ [ -3.5098, 40.7026 ], [ -3.5102, 40.7031 ], [ -3.5102, 40.7037 ], [ -3.5128, 40.7013 ], [ -3.5127, 40.7013 ], [ -3.5139, 40.7002 ], [ -3.5139, 40.7 ], [ -3.5156, 40.7006 ], [ -3.5162, 40.6997 ], [ -3.517, 40.7001 ], [ -3.5173, 40.7004 ], [ -3.5174, 40.7012 ], [ -3.5172, 40.7012 ], [ -3.5176, 40.7013 ], [ -3.5178, 40.7008 ], [ -3.5176, 40.7003 ], [ -3.5175, 40.6994 ], [ -3.5181, 40.6983 ], [ -3.5189, 40.6975 ], [ -3.519, 40.6971 ], [ -3.5192, 40.6969 ], [ -3.5192, 40.6959 ], [ -3.5208, 40.6963 ], [ -3.5215, 40.6966 ], [ -3.522, 40.6962 ], [ -3.5202, 40.6951 ], [ -3.5195, 40.6944 ], [ -3.5191, 40.6944 ], [ -3.5186, 40.6942 ], [ -3.5185, 40.694 ], [ -3.5176, 40.6936 ], [ -3.5181, 40.6934 ], [ -3.5187, 40.6928 ], [ -3.5191, 40.6918 ], [ -3.5194, 40.6914 ], [ -3.5161, 40.69 ], [ -3.5153, 40.6901 ], [ -3.5138, 40.6899 ], [ -3.5107, 40.6899 ], [ -3.5107, 40.6881 ], [ -3.5089, 40.6882 ], [ -3.5089, 40.6916 ], [ -3.5085, 40.693 ], [ -3.5078, 40.6924 ], [ -3.5072, 40.6915 ], [ -3.507, 40.6916 ], [ -3.5067, 40.6923 ], [ -3.5064, 40.6926 ], [ -3.5074, 40.693 ], [ -3.5092, 40.6934 ], [ -3.509, 40.694 ], [ -3.5101, 40.6941 ], [ -3.5101, 40.6944 ], [ -3.5091, 40.6944 ], [ -3.509, 40.6945 ], [ -3.5097, 40.6946 ], [ -3.5097, 40.695 ], [ -3.5095, 40.695 ], [ -3.5095, 40.6958 ], [ -3.5084, 40.696 ], [ -3.5084, 40.6962 ], [ -3.51, 40.6964 ], [ -3.5098, 40.6981 ], [ -3.5111, 40.6982 ], [ -3.5107, 40.6979 ], [ -3.5109, 40.6976 ], [ -3.5117, 40.6971 ], [ -3.5122, 40.6975 ], [ -3.5123, 40.6974 ], [ -3.513, 40.6977 ], [ -3.5129, 40.698 ], [ -3.5124, 40.6986 ], [ -3.5123, 40.6991 ], [ -3.5118, 40.6995 ], [ -3.5115, 40.7001 ], [ -3.511, 40.7003 ], [ -3.5107, 40.7007 ], [ -3.5099, 40.701 ], [ -3.5098, 40.7013 ], [ -3.5099, 40.7018 ], [ -3.5094, 40.7018 ], [ -3.5094, 40.7014 ], [ -3.505, 40.7011 ], [ -3.5048, 40.7033 ], [ -3.5051, 40.7033 ], [ -3.5051, 40.7032 ], [ -3.506, 40.7033 ], [ -3.5063, 40.7032 ], [ -3.5063, 40.7031 ], [ -3.5069, 40.7031 ], [ -3.5075, 40.7036 ], [ -3.508, 40.7036 ], [ -3.5081, 40.7033 ], [ -3.5084, 40.7032 ], [ -3.5088, 40.7032 ], [ -3.5092, 40.7034 ], [ -3.5094, 40.703 ], [ -3.5098, 40.7026 ] ] ] } },
{ "type": "Feature", "properties": { "municipio": "Valdetorres de Jarama", "clasificacion": "urbano-consolidado", "calificacion": "sin-asignar", "version": "vigente", "fuente": "SIT-CAM WFS — UsoDelSuelo:VPLA_V_CLASIFICACION (https://idem.comunidad.madrid/geosrvg/ows)", "fecha_dato": "2026-05-12", "ambito": "33691", "_raw_CD_SIGLAS": "SU", "_raw_DS_CLASIF_GEN": "Suelo Urbano", "_raw_DS_CLASIF_DET": "Suelo Urbano", "_raw_DS_DOCU": "NORMAS SUBSIDIARIAS", "_raw_DS_LEY": "CM Ley 9/1995, E RDL 1/1992", "_raw_FC_AC": "1997-07-29", "_raw_NM_AREA_M2": 35805.495706635098, "_cam_code": "164" }, "geometry": { "type": "Polygon", "coordinates": [ [ [ -3.4765, 40.679 ], [ -3.4765, 40.6793 ], [ -3.477, 40.679 ], [ -3.4774, 40.679 ], [ -3.4777, 40.6788 ], [ -3.4778, 40.6789 ], [ -3.4784, 40.6788 ], [ -3.4799, 40.6789 ], [ -3.4799, 40.6788 ], [ -3.4806, 40.6787 ], [ -3.4807, 40.6789 ], [ -3.4814, 40.6789 ], [ -3.4831, 40.6792 ], [ -3.4832, 40.6788 ], [ -3.483, 40.6786 ], [ -3.4769, 40.6781 ], [ -3.4765, 40.679 ] ] ] } },
{ "type": "Feature", "properties": { "municipio": "Valdetorres de Jarama", "clasificacion": "urbano-consolidado", "calificacion": "sin-asignar", "version": "vigente", "fuente": "SIT-CAM WFS — UsoDelSuelo:VPLA_V_CLASIFICACION (https://idem.comunidad.madrid/geosrvg/ows)", "fecha_dato": "2026-05-12", "ambito": "33691", "_raw_CD_SIGLAS": "SU", "_raw_DS_CLASIF_GEN": "Suelo Urbano", "_raw_DS_CLASIF_DET": "Suelo Urbano", "_raw_DS_DOCU": "NORMAS SUBSIDIARIAS", "_raw_DS_LEY": "CM Ley 9/1995, E RDL 1/1992", "_raw_FC_AC": "1997-07-29", "_raw_NM_AREA_M2": 181492.67272903901, "_cam_code": "164" }, "geometry": { "type": "Polygon", "coordinates": [ [ [ -3.4945, 40.6748 ], [ -3.4954, 40.6749 ], [ -3.4995, 40.6749 ], [ -3.4995, 40.6714 ], [ -3.4991, 40.6714 ], [ -3.4991, 40.6711 ], [ -3.4983, 40.6709 ], [ -3.4959, 40.671 ], [ -3.495, 40.6709 ], [ -3.4949, 40.6707 ], [ -3.4945, 40.6706 ], [ -3.4945, 40.6748 ] ] ] } },
{ "type": "Feature", "properties": { "municipio": "Valdetorres de Jarama", "clasificacion": "urbanizable-no-sectorizado", "calificacion": "sin-asignar", "version": "vigente", "fuente": "SIT-CAM WFS — UsoDelSuelo:VPLA_V_CLASIFICACION (https://idem.comunidad.madrid/geosrvg/ows)", "fecha_dato": "2026-05-12", "ambito": "33691", "_raw_CD_SIGLAS": "SUBNS", "_raw_DS_CLASIF_GEN": "Suelo No Urbanizable Común", "_raw_DS_CLASIF_DET": "Suelo No Urbanizable Común", "_raw_DS_DOCU": "NORMAS SUBSIDIARIAS", "_raw_DS_LEY": "CM Ley 9/1995, E RDL 1/1992", "_raw_FC_AC": "1997-07-29", "_raw_NM_AREA_M2": 243421.55390288099, "_cam_code": "164" }, "geometry": { "type": "Polygon", "coordinates": [ [ [ -3.5099, 40.7139 ], [ -3.5107, 40.7199 ], [ -3.5116, 40.722 ], [ -3.5118, 40.7193 ], [ -3.5133, 40.7174 ], [ -3.5141, 40.7161 ], [ -3.5153, 40.7129 ], [ -3.5134, 40.7124 ], [ -3.511, 40.7131 ], [ -3.5098, 40.7133 ], [ -3.5098, 40.7139 ], [ -3.5099, 40.7139 ] ] ] } },
{ "type": "Feature", "properties": { "municipio": "Valdetorres de Jarama", "clasificacion": "urbanizable-no-sectorizado", "calificacion": "sin-asignar", "version": "vigente", "fuente": "SIT-CAM WFS — UsoDelSuelo:VPLA_V_CLASIFICACION (https://idem.comunidad.madrid/geosrvg/ows)", "fecha_dato": "2026-05-12", "ambito": "33691", "_raw_CD_SIGLAS": "SUBNS", "_raw_DS_CLASIF_GEN": "Suelo No Urbanizable Común", "_raw_DS_CLASIF_DET": "Suelo No Urbanizable Común", "_raw_DS_DOCU": "NORMAS SUBSIDIARIAS", "_raw_DS_LEY": "CM Ley 9/1995, E RDL 1/1992", "_raw_FC_AC": "1997-07-29", "_raw_NM_AREA_M2": 88794.937240214407, "_cam_code": "164" }, "geometry": { "type": "Polygon", "coordinates": [ [ [ -3.5219, 40.6786 ], [ -3.522, 40.6773 ], [ -3.5219, 40.677 ], [ -3.5163, 40.6768 ], [ -3.516, 40.6784 ], [ -3.5219, 40.6786 ] ] ] } },
{ "type": "Feature", "properties": { "municipio": "Valdetorres de Jarama", "clasificacion": "urbanizable-no-sectorizado", "calificacion": "sin-asignar", "version": "vigente", "fuente": "SIT-CAM WFS — UsoDelSuelo:VPLA_V_CLASIFICACION (https://idem.comunidad.madrid/geosrvg/ows)", "fecha_dato": "2026-05-12", "ambito": "33691", "_raw_CD_SIGLAS": "SUBNS", "_raw_DS_CLASIF_GEN": "Suelo No Urbanizable Común", "_raw_DS_CLASIF_DET": "Suelo No Urbanizable Común", "_raw_DS_DOCU": "NORMAS SUBSIDIARIAS", "_raw_DS_LEY": "CM Ley 9/1995, E RDL 1/1992", "_raw_FC_AC": "1997-07-29", "_raw_NM_AREA_M2": 1924502.63724489, "_cam_code": "164" }, "geometry": { "type": "Polygon", "coordinates": [ [ [ -3.5161, 40.69 ], [ -3.5183, 40.6909 ], [ -3.5185, 40.6911 ], [ -3.5188, 40.6912 ], [ -3.519, 40.6911 ], [ -3.5191, 40.6907 ], [ -3.5198, 40.6898 ], [ -3.5209, 40.6875 ], [ -3.5214, 40.6857 ], [ -3.5225, 40.6838 ], [ -3.5231, 40.6832 ], [ -3.5238, 40.6821 ], [ -3.5239, 40.6809 ], [ -3.5239, 40.6808 ], [ -3.5229, 40.6807 ], [ -3.5155, 40.6804 ], [ -3.5163, 40.6758 ], [ -3.5255, 40.6761 ], [ -3.526, 40.673 ], [ -3.5262, 40.6709 ], [ -3.5269, 40.6694 ], [ -3.5271, 40.6681 ], [ -3.5252, 40.6704 ], [ -3.5168, 40.6718 ], [ -3.5108, 40.6711 ], [ -3.5107, 40.6899 ], [ -3.5138, 40.6899 ], [ -3.5153, 40.6901 ], [ -3.5161, 40.69 ] ] ] } },
{ "type": "Feature", "properties": { "municipio": "Valdetorres de Jarama", "clasificacion": "urbanizable-sectorizado", "calificacion": "sin-asignar", "version": "vigente", "fuente": "SIT-CAM WFS — UsoDelSuelo:VPLA_V_CLASIFICACION (https://idem.comunidad.madrid/geosrvg/ows)", "fecha_dato": "2026-05-12", "ambito": "33691", "_raw_CD_SIGLAS": "SUBS", "_raw_DS_CLASIF_GEN": "Suelo Apto Para Urbanizar", "_raw_DS_CLASIF_DET": "Suelo Apto para Urbanizar", "_raw_DS_DOCU": "NORMAS SUBSIDIARIAS", "_raw_DS_LEY": "CM Ley 9/1995, E RDL 1/1992", "_raw_FC_AC": "1997-07-29", "_raw_NM_AREA_M2": 18836.029945817201, "_cam_code": "164" }, "geometry": { "type": "Polygon", "coordinates": [ [ [ -3.5184, 40.6931 ], [ -3.5181, 40.6934 ], [ -3.5176, 40.6936 ], [ -3.5185, 40.694 ], [ -3.5186, 40.6942 ], [ -3.5191, 40.6944 ], [ -3.5195, 40.6944 ], [ -3.5199, 40.6947 ], [ -3.5207, 40.6942 ], [ -3.5184, 40.6931 ] ] ] } },
{ "type": "Feature", "properties": { "municipio": "Valdetorres de Jarama", "clasificacion": "urbanizable-sectorizado", "calificacion": "sin-asignar", "version": "vigente", "fuente": "SIT-CAM WFS — UsoDelSuelo:VPLA_V_CLASIFICACION (https://idem.comunidad.madrid/geosrvg/ows)", "fecha_dato": "2026-05-12", "ambito": "33691", "_raw_CD_SIGLAS": "SUBS", "_raw_DS_CLASIF_GEN": "Suelo Apto Para Urbanizar", "_raw_DS_CLASIF_DET": "Suelo Apto para Urbanizar", "_raw_DS_DOCU": "NORMAS SUBSIDIARIAS", "_raw_DS_LEY": "CM Ley 9/1995, E RDL 1/1992", "_raw_FC_AC": "1997-07-29", "_raw_NM_AREA_M2": 54041.184342735301, "_cam_code": "164" }, "geometry": { "type": "Polygon", "coordinates": [ [ [ -3.5129, 40.7011 ], [ -3.5163, 40.7021 ], [ -3.5167, 40.701 ], [ -3.5174, 40.7012 ], [ -3.5174, 40.7006 ], [ -3.517, 40.7001 ], [ -3.5162, 40.6997 ], [ -3.5156, 40.7006 ], [ -3.5139, 40.7 ], [ -3.5139, 40.7002 ], [ -3.5129, 40.7011 ] ] ] } },
{ "type": "Feature", "properties": { "municipio": "Valdetorres de Jarama", "clasificacion": "urbanizable-sectorizado", "calificacion": "sin-asignar", "version": "vigente", "fuente": "SIT-CAM WFS — UsoDelSuelo:VPLA_V_CLASIFICACION (https://idem.comunidad.madrid/geosrvg/ows)", "fecha_dato": "2026-05-12", "ambito": "33691", "_raw_CD_SIGLAS": "SUBS", "_raw_DS_CLASIF_GEN": "Suelo Apto Para Urbanizar", "_raw_DS_CLASIF_DET": "Suelo Apto para Urbanizar", "_raw_DS_DOCU": "NORMAS SUBSIDIARIAS", "_raw_DS_LEY": "CM Ley 9/1995, E RDL 1/1992", "_raw_FC_AC": "1997-07-29", "_raw_NM_AREA_M2": 70907.795579829603, "_cam_code": "164" }, "geometry": { "type": "Polygon", "coordinates": [ [ [ -3.5098, 40.6981 ], [ -3.5095, 40.7018 ], [ -3.5099, 40.7018 ], [ -3.5098, 40.7015 ], [ -3.5099, 40.701 ], [ -3.5107, 40.7007 ], [ -3.511, 40.7003 ], [ -3.5115, 40.7001 ], [ -3.5118, 40.6995 ], [ -3.5123, 40.6991 ], [ -3.5124, 40.6986 ], [ -3.5129, 40.698 ], [ -3.513, 40.6977 ], [ -3.5123, 40.6974 ], [ -3.5122, 40.6975 ], [ -3.5117, 40.6971 ], [ -3.5109, 40.6976 ], [ -3.5107, 40.6979 ], [ -3.5111, 40.6982 ], [ -3.5098, 40.6981 ] ] ] } },
{ "type": "Feature", "properties": { "municipio": "Valdetorres de Jarama", "clasificacion": "urbanizable-sectorizado", "calificacion": "sin-asignar", "version": "vigente", "fuente": "SIT-CAM WFS — UsoDelSuelo:VPLA_V_CLASIFICACION (https://idem.comunidad.madrid/geosrvg/ows)", "fecha_dato": "2026-05-12", "ambito": "33691", "_raw_CD_SIGLAS": "SUBS", "_raw_DS_CLASIF_GEN": "Suelo Apto Para Urbanizar", "_raw_DS_CLASIF_DET": "Suelo Apto para Urbanizar", "_raw_DS_DOCU": "NORMAS SUBSIDIARIAS", "_raw_DS_LEY": "CM Ley 9/1995, E RDL 1/1992", "_raw_FC_AC": "1997-07-29", "_raw_NM_AREA_M2": 129413.267216505, "_cam_code": "164" }, "geometry": { "type": "Polygon", "coordinates": [ [ [ -3.4753, 40.6833 ], [ -3.4798, 40.6836 ], [ -3.4808, 40.6836 ], [ -3.4809, 40.6836 ], [ -3.4807, 40.6836 ], [ -3.4805, 40.6834 ], [ -3.4803, 40.6832 ], [ -3.4802, 40.6832 ], [ -3.4802, 40.6831 ], [ -3.48, 40.683 ], [ -3.4797, 40.6823 ], [ -3.4792, 40.6817 ], [ -3.4762, 40.68 ], [ -3.4744, 40.6823 ], [ -3.4733, 40.6833 ], [ -3.4728, 40.6835 ], [ -3.4753, 40.6833 ] ] ] } }
]
}
