{
"type": "FeatureCollection",
"name": "vigente.full",
"features": [
{ "type": "Feature", "properties": { "municipio": "Bustarviejo", "clasificacion": "urbano-consolidado", "calificacion": "sin-asignar", "version": "vigente", "fuente": "SIT-CAM WFS — UsoDelSuelo:VPLA_V_CLASIFICACION (https://idem.comunidad.madrid/geosrvg/ows)", "fecha_dato": "2026-05-12", "ambito": "64118", "_raw_CD_SIGLAS": "SU", "_raw_DS_CLASIF_GEN": "Suelo Urbano", "_raw_DS_CLASIF_DET": "Suelo Urbano Casco Antiguo", "_raw_DS_DOCU": "NORMAS SUBSIDIARIAS", "_raw_DS_LEY": "E Ley 12/05/1956", "_raw_FC_AC": "2005-06-22", "_raw_NM_AREA_M2": 186544.180084669, "_cam_code": "028" }, "geometry": { "type": "Polygon", "coordinates": [ [ [ -3.7102, 40.8594 ], [ -3.7104, 40.8598 ], [ -3.7108, 40.86 ], [ -3.7114, 40.86 ], [ -3.7119, 40.8598 ], [ -3.7118, 40.8598 ], [ -3.7122, 40.8595 ], [ -3.7122, 40.8592 ], [ -3.7124, 40.8592 ], [ -3.7129, 40.8586 ], [ -3.7127, 40.8584 ], [ -3.7128, 40.8582 ], [ -3.713, 40.8583 ], [ -3.7144, 40.8574 ], [ -3.7143, 40.857 ], [ -3.714, 40.8573 ], [ -3.7121, 40.8581 ], [ -3.712, 40.8578 ], [ -3.7121, 40.8577 ], [ -3.7118, 40.8572 ], [ -3.7114, 40.8569 ], [ -3.7106, 40.8568 ], [ -3.7102, 40.8562 ], [ -3.7096, 40.856 ], [ -3.7091, 40.8561 ], [ -3.7089, 40.8559 ], [ -3.7087, 40.856 ], [ -3.7086, 40.8564 ], [ -3.7076, 40.8565 ], [ -3.7075, 40.8562 ], [ -3.7066, 40.8559 ], [ -3.7067, 40.856 ], [ -3.7067, 40.857 ], [ -3.7055, 40.8571 ], [ -3.7055, 40.8573 ], [ -3.7065, 40.8574 ], [ -3.7068, 40.8578 ], [ -3.7063, 40.858 ], [ -3.7063, 40.8583 ], [ -3.7056, 40.8587 ], [ -3.7058, 40.8595 ], [ -3.7063, 40.8594 ], [ -3.7067, 40.8597 ], [ -3.707, 40.8595 ], [ -3.7069, 40.8594 ], [ -3.7077, 40.8595 ], [ -3.7082, 40.8592 ], [ -3.7091, 40.8591 ], [ -3.7093, 40.8595 ], [ -3.7098, 40.8593 ], [ -3.71, 40.8595 ], [ -3.7102, 40.8594 ] ] ] } },
{ "type": "Feature", "properties": { "municipio": "Bustarviejo", "clasificacion": "urbano-consolidado", "calificacion": "sin-asignar", "version": "vigente", "fuente": "SIT-CAM WFS — UsoDelSuelo:VPLA_V_CLASIFICACION (https://idem.comunidad.madrid/geosrvg/ows)", "fecha_dato": "2026-05-12", "ambito": "17142", "_raw_CD_SIGLAS": "SU", "_raw_DS_CLASIF_GEN": "Suelo Urbano (INCORPORADO)", "_raw_DS_CLASIF_DET": "Suelo Urbano (INCORPORADO)", "_raw_DS_DOCU": "PLAN PARCIAL", "_raw_DS_LEY": "E Ley 12/05/1956", "_raw_FC_AC": "1970-06-08", "_raw_NM_AREA_M2": 58056.263796755396, "_cam_code": "028" }, "geometry": { "type": "Polygon", "coordinates": [ [ [ -3.6934, 40.8615 ], [ -3.6941, 40.8614 ], [ -3.694, 40.8611 ], [ -3.6935, 40.861 ], [ -3.6932, 40.8608 ], [ -3.6935, 40.8607 ], [ -3.6932, 40.8599 ], [ -3.6918, 40.8581 ], [ -3.6901, 40.8582 ], [ -3.6897, 40.8586 ], [ -3.6909, 40.8601 ], [ -3.6912, 40.8601 ], [ -3.6917, 40.8604 ], [ -3.6922, 40.8603 ], [ -3.6921, 40.8604 ], [ -3.6924, 40.861 ], [ -3.6929, 40.861 ], [ -3.6934, 40.8615 ] ] ] } },
{ "type": "Feature", "properties": { "municipio": "Bustarviejo", "clasificacion": "urbano-consolidado", "calificacion": "sin-asignar", "version": "vigente", "fuente": "SIT-CAM WFS — UsoDelSuelo:VPLA_V_CLASIFICACION (https://idem.comunidad.madrid/geosrvg/ows)", "fecha_dato": "2026-05-12", "ambito": "64118", "_raw_CD_SIGLAS": "SU", "_raw_DS_CLASIF_GEN": "Suelo Urbano", "_raw_DS_CLASIF_DET": "Suelo Urbano Ensanche", "_raw_DS_DOCU": "NORMAS SUBSIDIARIAS", "_raw_DS_LEY": "E Ley 12/05/1956", "_raw_FC_AC": "2005-06-22", "_raw_NM_AREA_M2": 383412.837096526, "_cam_code": "028" }, "geometry": { "type": "Polygon", "coordinates": [ [ [ -3.7094, 40.8611 ], [ -3.7111, 40.8613 ], [ -3.7118, 40.8615 ], [ -3.7121, 40.8625 ], [ -3.7125, 40.8628 ], [ -3.7134, 40.8625 ], [ -3.7138, 40.8622 ], [ -3.7149, 40.8621 ], [ -3.7152, 40.8616 ], [ -3.7145, 40.861 ], [ -3.7143, 40.861 ], [ -3.7136, 40.8603 ], [ -3.7153, 40.8598 ], [ -3.7169, 40.8595 ], [ -3.717, 40.8598 ], [ -3.7173, 40.86 ], [ -3.7182, 40.8599 ], [ -3.7184, 40.8601 ], [ -3.7198, 40.8602 ], [ -3.7201, 40.8606 ], [ -3.72, 40.8609 ], [ -3.7201, 40.861 ], [ -3.7214, 40.8612 ], [ -3.7216, 40.8611 ], [ -3.7214, 40.8607 ], [ -3.7212, 40.8606 ], [ -3.7214, 40.8602 ], [ -3.721, 40.86 ], [ -3.7206, 40.8595 ], [ -3.7211, 40.8589 ], [ -3.7212, 40.8585 ], [ -3.7212, 40.858 ], [ -3.721, 40.8577 ], [ -3.7215, 40.8574 ], [ -3.7213, 40.8571 ], [ -3.7209, 40.8571 ], [ -3.7202, 40.8575 ], [ -3.72, 40.8572 ], [ -3.7197, 40.8572 ], [ -3.7185, 40.8575 ], [ -3.7173, 40.8576 ], [ -3.7169, 40.8572 ], [ -3.7166, 40.8564 ], [ -3.715, 40.8561 ], [ -3.7147, 40.8564 ], [ -3.7131, 40.8569 ], [ -3.7136, 40.8575 ], [ -3.7143, 40.857 ], [ -3.7144, 40.8574 ], [ -3.713, 40.8583 ], [ -3.7128, 40.8582 ], [ -3.7127, 40.8584 ], [ -3.7129, 40.8586 ], [ -3.7124, 40.8592 ], [ -3.7122, 40.8592 ], [ -3.7122, 40.8595 ], [ -3.7118, 40.8598 ], [ -3.7119, 40.8598 ], [ -3.7114, 40.86 ], [ -3.7108, 40.86 ], [ -3.7104, 40.8598 ], [ -3.7102, 40.8594 ], [ -3.71, 40.8595 ], [ -3.7097, 40.8593 ], [ -3.7093, 40.8595 ], [ -3.7091, 40.8591 ], [ -3.7082, 40.8592 ], [ -3.7077, 40.8595 ], [ -3.7069, 40.8594 ], [ -3.707, 40.8595 ], [ -3.7067, 40.8597 ], [ -3.7069, 40.8602 ], [ -3.7069, 40.861 ], [ -3.7068, 40.861 ], [ -3.7071, 40.8614 ], [ -3.7094, 40.8611 ] ] ] } },
{ "type": "Feature", "properties": { "municipio": "Bustarviejo", "clasificacion": "urbano-consolidado", "calificacion": "sin-asignar", "version": "vigente", "fuente": "SIT-CAM WFS — UsoDelSuelo:VPLA_V_CLASIFICACION (https://idem.comunidad.madrid/geosrvg/ows)", "fecha_dato": "2026-05-12", "ambito": "64118", "_raw_CD_SIGLAS": "SU", "_raw_DS_CLASIF_GEN": "Suelo Urbano", "_raw_DS_CLASIF_DET": "Suelo Urbano Ensanche", "_raw_DS_DOCU": "NORMAS SUBSIDIARIAS", "_raw_DS_LEY": "E Ley 12/05/1956", "_raw_FC_AC": "2005-06-22", "_raw_NM_AREA_M2": 38543.926529933597, "_cam_code": "028" }, "geometry": { "type": "Polygon", "coordinates": [ [ [ -3.6892, 40.8646 ], [ -3.6892, 40.865 ], [ -3.6899, 40.8654 ], [ -3.69, 40.8656 ], [ -3.6904, 40.8652 ], [ -3.6913, 40.8648 ], [ -3.6916, 40.8645 ], [ -3.6901, 40.8644 ], [ -3.69, 40.8643 ], [ -3.6903, 40.8641 ], [ -3.6903, 40.8639 ], [ -3.6894, 40.8634 ], [ -3.6896, 40.8629 ], [ -3.6893, 40.863 ], [ -3.6887, 40.8635 ], [ -3.6885, 40.8635 ], [ -3.6885, 40.8636 ], [ -3.6873, 40.8639 ], [ -3.6877, 40.8646 ], [ -3.6884, 40.8644 ], [ -3.6884, 40.8643 ], [ -3.6886, 40.8647 ], [ -3.6888, 40.8645 ], [ -3.6892, 40.8646 ] ] ] } },
{ "type": "Feature", "properties": { "municipio": "Bustarviejo", "clasificacion": "urbano-consolidado", "calificacion": "sin-asignar", "version": "vigente", "fuente": "SIT-CAM WFS — UsoDelSuelo:VPLA_V_CLASIFICACION (https://idem.comunidad.madrid/geosrvg/ows)", "fecha_dato": "2026-05-12", "ambito": "64118", "_raw_CD_SIGLAS": "SU", "_raw_DS_CLASIF_GEN": "Suelo Urbano", "_raw_DS_CLASIF_DET": "Suelo Urbano Ensanche", "_raw_DS_DOCU": "NORMAS SUBSIDIARIAS", "_raw_DS_LEY": "E Ley 12/05/1956", "_raw_FC_AC": "2005-06-22", "_raw_NM_AREA_M2": 193081.99693092401, "_cam_code": "028" }, "geometry": { "type": "Polygon", "coordinates": [ [ [ -3.7009, 40.8604 ], [ -3.6995, 40.8615 ], [ -3.699, 40.8622 ], [ -3.6982, 40.8625 ], [ -3.6977, 40.8632 ], [ -3.6988, 40.8634 ], [ -3.6992, 40.8636 ], [ -3.6992, 40.8641 ], [ -3.699, 40.8644 ], [ -3.6993, 40.8646 ], [ -3.6993, 40.8652 ], [ -3.6991, 40.8656 ], [ -3.6986, 40.8661 ], [ -3.6988, 40.8667 ], [ -3.7013, 40.8673 ], [ -3.7022, 40.8674 ], [ -3.7033, 40.8668 ], [ -3.7033, 40.8665 ], [ -3.7028, 40.8647 ], [ -3.7025, 40.8641 ], [ -3.7026, 40.8638 ], [ -3.7016, 40.8633 ], [ -3.701, 40.8612 ], [ -3.7012, 40.8608 ], [ -3.7009, 40.8604 ] ] ] } },
{ "type": "Feature", "properties": { "municipio": "Bustarviejo", "clasificacion": "urbano-consolidado", "calificacion": "sin-asignar", "version": "vigente", "fuente": "SIT-CAM WFS — UsoDelSuelo:VPLA_V_CLASIFICACION (https://idem.comunidad.madrid/geosrvg/ows)", "fecha_dato": "2026-05-12", "ambito": "64118", "_raw_CD_SIGLAS": "SU", "_raw_DS_CLASIF_GEN": "Suelo Urbano", "_raw_DS_CLASIF_DET": "Suelo Urbano Ensanche", "_raw_DS_DOCU": "NORMAS SUBSIDIARIAS", "_raw_DS_LEY": "E Ley 12/05/1956", "_raw_FC_AC": "2005-06-22", "_raw_NM_AREA_M2": 61293.294905069299, "_cam_code": "028" }, "geometry": { "type": "Polygon", "coordinates": [ [ [ -3.7114, 40.8569 ], [ -3.7118, 40.8572 ], [ -3.7121, 40.8567 ], [ -3.7104, 40.8559 ], [ -3.7105, 40.8556 ], [ -3.7106, 40.8556 ], [ -3.7107, 40.8551 ], [ -3.7105, 40.8549 ], [ -3.7101, 40.8551 ], [ -3.7099, 40.8549 ], [ -3.7094, 40.8548 ], [ -3.7092, 40.855 ], [ -3.7089, 40.8549 ], [ -3.7085, 40.855 ], [ -3.7081, 40.8543 ], [ -3.7073, 40.8546 ], [ -3.7062, 40.8553 ], [ -3.7065, 40.8556 ], [ -3.7066, 40.8559 ], [ -3.7075, 40.8562 ], [ -3.7076, 40.8565 ], [ -3.7086, 40.8564 ], [ -3.7087, 40.856 ], [ -3.709, 40.8559 ], [ -3.7091, 40.8561 ], [ -3.7096, 40.856 ], [ -3.7102, 40.8562 ], [ -3.7106, 40.8568 ], [ -3.7114, 40.8569 ] ] ] } },
{ "type": "Feature", "properties": { "municipio": "Bustarviejo", "clasificacion": "urbano-consolidado", "calificacion": "sin-asignar", "version": "vigente", "fuente": "SIT-CAM WFS — UsoDelSuelo:VPLA_V_CLASIFICACION (https://idem.comunidad.madrid/geosrvg/ows)", "fecha_dato": "2026-05-12", "ambito": "64118", "_raw_CD_SIGLAS": "SU", "_raw_DS_CLASIF_GEN": "Suelo Urbano", "_raw_DS_CLASIF_DET": "Suelo Urbano Ensanche", "_raw_DS_DOCU": "NORMAS SUBSIDIARIAS", "_raw_DS_LEY": "E Ley 12/05/1956", "_raw_FC_AC": "2005-06-22", "_raw_NM_AREA_M2": 143470.00039932999, "_cam_code": "028" }, "geometry": { "type": "Polygon", "coordinates": [ [ [ -3.6935, 40.8572 ], [ -3.6945, 40.8582 ], [ -3.6948, 40.859 ], [ -3.6949, 40.8588 ], [ -3.6948, 40.8586 ], [ -3.695, 40.8585 ], [ -3.695, 40.8582 ], [ -3.6955, 40.8577 ], [ -3.6959, 40.8576 ], [ -3.6958, 40.8574 ], [ -3.6952, 40.8575 ], [ -3.695, 40.8571 ], [ -3.6945, 40.8568 ], [ -3.6944, 40.8566 ], [ -3.6951, 40.8563 ], [ -3.696, 40.8562 ], [ -3.6968, 40.8564 ], [ -3.6975, 40.8562 ], [ -3.6983, 40.8566 ], [ -3.6986, 40.8564 ], [ -3.699, 40.8564 ], [ -3.6993, 40.8571 ], [ -3.6996, 40.8572 ], [ -3.6998, 40.8575 ], [ -3.7006, 40.8575 ], [ -3.7007, 40.8573 ], [ -3.7005, 40.8568 ], [ -3.7, 40.8562 ], [ -3.7012, 40.8561 ], [ -3.7011, 40.8564 ], [ -3.7017, 40.8563 ], [ -3.7019, 40.8557 ], [ -3.7017, 40.8555 ], [ -3.7019, 40.8553 ], [ -3.7017, 40.8549 ], [ -3.7017, 40.8546 ], [ -3.7015, 40.8543 ], [ -3.7012, 40.8545 ], [ -3.7007, 40.8545 ], [ -3.7004, 40.8547 ], [ -3.6995, 40.8547 ], [ -3.6983, 40.8544 ], [ -3.6972, 40.8545 ], [ -3.6965, 40.8549 ], [ -3.6963, 40.8554 ], [ -3.696, 40.8554 ], [ -3.6957, 40.8551 ], [ -3.6956, 40.8553 ], [ -3.6952, 40.8555 ], [ -3.6939, 40.8558 ], [ -3.6934, 40.8565 ], [ -3.6939, 40.8567 ], [ -3.6938, 40.857 ], [ -3.6935, 40.8572 ] ] ] } },
{ "type": "Feature", "properties": { "municipio": "Bustarviejo", "clasificacion": "urbano-consolidado", "calificacion": "sin-asignar", "version": "vigente", "fuente": "SIT-CAM WFS — UsoDelSuelo:VPLA_V_CLASIFICACION (https://idem.comunidad.madrid/geosrvg/ows)", "fecha_dato": "2026-05-12", "ambito": "64118", "_raw_CD_SIGLAS": "SU", "_raw_DS_CLASIF_GEN": "Suelo Urbano", "_raw_DS_CLASIF_DET": "Suelo Urbano Ensanche", "_raw_DS_DOCU": "NORMAS SUBSIDIARIAS", "_raw_DS_LEY": "E Ley 12/05/1956", "_raw_FC_AC": "2005-06-22", "_raw_NM_AREA_M2": 43907.489469769796, "_cam_code": "028" }, "geometry": { "type": "Polygon", "coordinates": [ [ [ -3.7025, 40.8598 ], [ -3.7038, 40.8594 ], [ -3.7057, 40.8594 ], [ -3.7056, 40.8587 ], [ -3.7063, 40.8583 ], [ -3.7063, 40.858 ], [ -3.7068, 40.8578 ], [ -3.7065, 40.8574 ], [ -3.7055, 40.8573 ], [ -3.7046, 40.8579 ], [ -3.7037, 40.8582 ], [ -3.7038, 40.8587 ], [ -3.703, 40.859 ], [ -3.7026, 40.8593 ], [ -3.7025, 40.8598 ] ] ] } },
{ "type": "Feature", "properties": { "municipio": "Bustarviejo", "clasificacion": "urbanizable-no-sectorizado", "calificacion": "sin-asignar", "version": "vigente", "fuente": "SIT-CAM WFS — UsoDelSuelo:VPLA_V_CLASIFICACION (https://idem.comunidad.madrid/geosrvg/ows)", "fecha_dato": "2026-05-12", "ambito": "64118", "_raw_CD_SIGLAS": "SUBNS", "_raw_DS_CLASIF_GEN": "Suelo de Reserva Urbana", "_raw_DS_CLASIF_DET": "Suelo de Reserva Urbana (INCORPORADO)", "_raw_DS_DOCU": "NORMAS SUBSIDIARIAS", "_raw_DS_LEY": "E Ley 12/05/1956", "_raw_FC_AC": "2005-06-22", "_raw_NM_AREA_M2": 529964.34746596497, "_cam_code": "028" }, "geometry": { "type": "Polygon", "coordinates": [ [ [ -3.7338, 40.8567 ], [ -3.7339, 40.8567 ], [ -3.7338, 40.8567 ], [ -3.7336, 40.8572 ], [ -3.7334, 40.8573 ], [ -3.7339, 40.8575 ], [ -3.7354, 40.8569 ], [ -3.7355, 40.8566 ], [ -3.735, 40.8563 ], [ -3.7349, 40.8561 ], [ -3.735, 40.8558 ], [ -3.7358, 40.8556 ], [ -3.7358, 40.8555 ], [ -3.7366, 40.8555 ], [ -3.7367, 40.8552 ], [ -3.7384, 40.854 ], [ -3.7391, 40.8529 ], [ -3.7409, 40.8516 ], [ -3.7415, 40.8513 ], [ -3.7419, 40.8513 ], [ -3.7422, 40.8516 ], [ -3.7424, 40.8521 ], [ -3.7424, 40.8523 ], [ -3.7422, 40.8525 ], [ -3.7425, 40.8525 ], [ -3.7434, 40.8517 ], [ -3.7436, 40.8517 ], [ -3.7441, 40.8513 ], [ -3.7443, 40.8513 ], [ -3.7445, 40.851 ], [ -3.7454, 40.8504 ], [ -3.7455, 40.8499 ], [ -3.7461, 40.8498 ], [ -3.7461, 40.8497 ], [ -3.7457, 40.8496 ], [ -3.7458, 40.8487 ], [ -3.7461, 40.8479 ], [ -3.7459, 40.8478 ], [ -3.7454, 40.8481 ], [ -3.7447, 40.848 ], [ -3.7442, 40.847 ], [ -3.7439, 40.8467 ], [ -3.7439, 40.8463 ], [ -3.7437, 40.8459 ], [ -3.7437, 40.845 ], [ -3.7439, 40.8443 ], [ -3.7436, 40.8443 ], [ -3.743, 40.8451 ], [ -3.7417, 40.8455 ], [ -3.7415, 40.8443 ], [ -3.7413, 40.8444 ], [ -3.7413, 40.8452 ], [ -3.7415, 40.8454 ], [ -3.7415, 40.8457 ], [ -3.741, 40.8467 ], [ -3.7405, 40.8483 ], [ -3.7397, 40.8493 ], [ -3.7389, 40.85 ], [ -3.7386, 40.8506 ], [ -3.7375, 40.8514 ], [ -3.737, 40.8516 ], [ -3.7366, 40.852 ], [ -3.736, 40.8521 ], [ -3.7359, 40.8523 ], [ -3.7347, 40.853 ], [ -3.7329, 40.8531 ], [ -3.7325, 40.8529 ], [ -3.7323, 40.853 ], [ -3.7315, 40.853 ], [ -3.7314, 40.8529 ], [ -3.7308, 40.853 ], [ -3.7304, 40.8532 ], [ -3.7305, 40.8533 ], [ -3.7308, 40.8531 ], [ -3.7313, 40.8531 ], [ -3.7313, 40.853 ], [ -3.7315, 40.853 ], [ -3.7317, 40.8532 ], [ -3.7325, 40.8532 ], [ -3.7329, 40.8537 ], [ -3.7323, 40.8542 ], [ -3.7317, 40.8545 ], [ -3.731, 40.8545 ], [ -3.7301, 40.8549 ], [ -3.7302, 40.8551 ], [ -3.7301, 40.8552 ], [ -3.7288, 40.8551 ], [ -3.729, 40.8549 ], [ -3.7297, 40.8549 ], [ -3.7299, 40.854 ], [ -3.7296, 40.854 ], [ -3.7294, 40.8537 ], [ -3.7292, 40.854 ], [ -3.7285, 40.8543 ], [ -3.7279, 40.8549 ], [ -3.7265, 40.8551 ], [ -3.7264, 40.8553 ], [ -3.7271, 40.8556 ], [ -3.7278, 40.8556 ], [ -3.7282, 40.8558 ], [ -3.7287, 40.8557 ], [ -3.7302, 40.8562 ], [ -3.7306, 40.8562 ], [ -3.7306, 40.8563 ], [ -3.7316, 40.8565 ], [ -3.7331, 40.8572 ], [ -3.7332, 40.8567 ], [ -3.7338, 40.8567 ] ], [ [ -3.7343, 40.8555 ], [ -3.7338, 40.8553 ], [ -3.7337, 40.8545 ], [ -3.7342, 40.8541 ], [ -3.7346, 40.854 ], [ -3.7347, 40.8542 ], [ -3.735, 40.8542 ], [ -3.7349, 40.8548 ], [ -3.7347, 40.855 ], [ -3.7347, 40.8552 ], [ -3.7343, 40.8555 ] ], [ [ -3.7371, 40.854 ], [ -3.7367, 40.8537 ], [ -3.7377, 40.8531 ], [ -3.7383, 40.8525 ], [ -3.7388, 40.8526 ], [ -3.7388, 40.8528 ], [ -3.7386, 40.8529 ], [ -3.7383, 40.8535 ], [ -3.7375, 40.854 ], [ -3.7371, 40.854 ] ], [ [ -3.7328, 40.8554 ], [ -3.7338, 40.8557 ], [ -3.7341, 40.8557 ], [ -3.7342, 40.8562 ], [ -3.7338, 40.8566 ], [ -3.7327, 40.8565 ], [ -3.7325, 40.856 ], [ -3.7323, 40.8559 ], [ -3.7322, 40.8557 ], [ -3.7323, 40.8557 ], [ -3.732, 40.8554 ], [ -3.7325, 40.8552 ], [ -3.7328, 40.8554 ] ], [ [ -3.7435, 40.8495 ], [ -3.742, 40.8509 ], [ -3.7415, 40.8511 ], [ -3.7412, 40.8509 ], [ -3.7414, 40.8505 ], [ -3.7417, 40.8504 ], [ -3.7418, 40.85 ], [ -3.7428, 40.8484 ], [ -3.7431, 40.8484 ], [ -3.7435, 40.8488 ], [ -3.7435, 40.8495 ] ] ] } },
{ "type": "Feature", "properties": { "municipio": "Bustarviejo", "clasificacion": "urbanizable-no-sectorizado", "calificacion": "sin-asignar", "version": "vigente", "fuente": "SIT-CAM WFS — UsoDelSuelo:VPLA_V_CLASIFICACION (https://idem.comunidad.madrid/geosrvg/ows)", "fecha_dato": "2026-05-12", "ambito": "64118", "_raw_CD_SIGLAS": "SUBNS", "_raw_DS_CLASIF_GEN": "Suelo de Reserva Metropolitana", "_raw_DS_CLASIF_DET": "Suelo de Reserva Metropolitana", "_raw_DS_DOCU": "NORMAS SUBSIDIARIAS", "_raw_DS_LEY": "E Ley 12/05/1956", "_raw_FC_AC": "2005-06-22", "_raw_NM_AREA_M2": 4433108.2553619696, "_cam_code": "028" }, "geometry": { "type": "Polygon", "coordinates": [ [ [ -3.6833, 40.8674 ], [ -3.6845, 40.8697 ], [ -3.6865, 40.869 ], [ -3.6889, 40.8677 ], [ -3.6902, 40.8677 ], [ -3.692, 40.8689 ], [ -3.6928, 40.869 ], [ -3.696, 40.8683 ], [ -3.6969, 40.8683 ], [ -3.6979, 40.8687 ], [ -3.6988, 40.8685 ], [ -3.6996, 40.868 ], [ -3.7004, 40.8671 ], [ -3.6988, 40.8667 ], [ -3.6987, 40.8665 ], [ -3.6986, 40.8661 ], [ -3.6991, 40.8656 ], [ -3.6993, 40.8652 ], [ -3.6993, 40.8646 ], [ -3.699, 40.8644 ], [ -3.6992, 40.8641 ], [ -3.6992, 40.8636 ], [ -3.6988, 40.8634 ], [ -3.6977, 40.8632 ], [ -3.6981, 40.8626 ], [ -3.6979, 40.8625 ], [ -3.6967, 40.8623 ], [ -3.6947, 40.8627 ], [ -3.6948, 40.8623 ], [ -3.6946, 40.8613 ], [ -3.6934, 40.8615 ], [ -3.6929, 40.861 ], [ -3.6924, 40.861 ], [ -3.6921, 40.8604 ], [ -3.6922, 40.8603 ], [ -3.6917, 40.8604 ], [ -3.6912, 40.8601 ], [ -3.6909, 40.8601 ], [ -3.6897, 40.8586 ], [ -3.6901, 40.8582 ], [ -3.6918, 40.8581 ], [ -3.692, 40.8578 ], [ -3.6932, 40.8568 ], [ -3.6939, 40.8558 ], [ -3.6952, 40.8555 ], [ -3.6956, 40.8553 ], [ -3.6957, 40.8551 ], [ -3.696, 40.8554 ], [ -3.6963, 40.8554 ], [ -3.6965, 40.8549 ], [ -3.6972, 40.8545 ], [ -3.6977, 40.8544 ], [ -3.6983, 40.8544 ], [ -3.6995, 40.8547 ], [ -3.7004, 40.8547 ], [ -3.7007, 40.8545 ], [ -3.7012, 40.8545 ], [ -3.7015, 40.8543 ], [ -3.7019, 40.8553 ], [ -3.7017, 40.8555 ], [ -3.7019, 40.8557 ], [ -3.7034, 40.8557 ], [ -3.7046, 40.856 ], [ -3.7052, 40.8563 ], [ -3.7061, 40.857 ], [ -3.7067, 40.857 ], [ -3.7067, 40.856 ], [ -3.7065, 40.8556 ], [ -3.7062, 40.8554 ], [ -3.7061, 40.8551 ], [ -3.7043, 40.8543 ], [ -3.7041, 40.8539 ], [ -3.7026, 40.8525 ], [ -3.7025, 40.8522 ], [ -3.7007, 40.8515 ], [ -3.6998, 40.8504 ], [ -3.6992, 40.8501 ], [ -3.6978, 40.8479 ], [ -3.6967, 40.8474 ], [ -3.6959, 40.8472 ], [ -3.6957, 40.8469 ], [ -3.6937, 40.8461 ], [ -3.6935, 40.8448 ], [ -3.6936, 40.8441 ], [ -3.6929, 40.8433 ], [ -3.6929, 40.8425 ], [ -3.6925, 40.8419 ], [ -3.6923, 40.8413 ], [ -3.6912, 40.8406 ], [ -3.6909, 40.8402 ], [ -3.6905, 40.8401 ], [ -3.6888, 40.8384 ], [ -3.6821, 40.8417 ], [ -3.6809, 40.8394 ], [ -3.6799, 40.8382 ], [ -3.6777, 40.836 ], [ -3.6761, 40.8332 ], [ -3.6711, 40.8335 ], [ -3.6764, 40.839 ], [ -3.6765, 40.8424 ], [ -3.6782, 40.8452 ], [ -3.6783, 40.8452 ], [ -3.6803, 40.8483 ], [ -3.6808, 40.8516 ], [ -3.6787, 40.8578 ], [ -3.6812, 40.8583 ], [ -3.6834, 40.8629 ], [ -3.684, 40.8659 ], [ -3.6833, 40.8674 ] ], [ [ -3.6901, 40.8644 ], [ -3.6916, 40.8645 ], [ -3.6913, 40.8648 ], [ -3.6904, 40.8652 ], [ -3.69, 40.8656 ], [ -3.6899, 40.8654 ], [ -3.6892, 40.865 ], [ -3.6891, 40.8645 ], [ -3.6888, 40.8645 ], [ -3.6886, 40.8647 ], [ -3.6884, 40.8643 ], [ -3.6884, 40.8644 ], [ -3.6877, 40.8646 ], [ -3.6873, 40.8639 ], [ -3.6885, 40.8636 ], [ -3.6885, 40.8635 ], [ -3.6887, 40.8635 ], [ -3.6893, 40.863 ], [ -3.6896, 40.8629 ], [ -3.6894, 40.8634 ], [ -3.6903, 40.8639 ], [ -3.6903, 40.8641 ], [ -3.69, 40.8643 ], [ -3.6901, 40.8644 ] ], [ [ -3.6799, 40.8417 ], [ -3.6787, 40.8411 ], [ -3.6773, 40.8397 ], [ -3.6772, 40.8391 ], [ -3.6781, 40.8375 ], [ -3.6783, 40.8376 ], [ -3.6783, 40.838 ], [ -3.6788, 40.8381 ], [ -3.68, 40.8394 ], [ -3.6807, 40.8399 ], [ -3.681, 40.8405 ], [ -3.6804, 40.841 ], [ -3.6799, 40.8417 ] ] ] } },
{ "type": "Feature", "properties": { "municipio": "Bustarviejo", "clasificacion": "urbanizable-no-sectorizado", "calificacion": "sin-asignar", "version": "vigente", "fuente": "SIT-CAM WFS — UsoDelSuelo:VPLA_V_CLASIFICACION (https://idem.comunidad.madrid/geosrvg/ows)", "fecha_dato": "2026-05-12", "ambito": "64118", "_raw_CD_SIGLAS": "SUBNS", "_raw_DS_CLASIF_GEN": "Suelo de Reserva Metropolitana", "_raw_DS_CLASIF_DET": "Suelo de Reserva Metropolitana", "_raw_DS_DOCU": "NORMAS SUBSIDIARIAS", "_raw_DS_LEY": "E Ley 12/05/1956", "_raw_FC_AC": "2005-06-22", "_raw_NM_AREA_M2": 161316.69742024201, "_cam_code": "028" }, "geometry": { "type": "Polygon", "coordinates": [ [ [ -3.7048, 40.8675 ], [ -3.7066, 40.869 ], [ -3.7083, 40.8698 ], [ -3.7096, 40.8696 ], [ -3.7101, 40.869 ], [ -3.7101, 40.8681 ], [ -3.7098, 40.8667 ], [ -3.7092, 40.8649 ], [ -3.7089, 40.8653 ], [ -3.7074, 40.8657 ], [ -3.7052, 40.8666 ], [ -3.7047, 40.8666 ], [ -3.7043, 40.8668 ], [ -3.7042, 40.8667 ], [ -3.7033, 40.8668 ], [ -3.7048, 40.8675 ] ] ] } },
{ "type": "Feature", "properties": { "municipio": "Bustarviejo", "clasificacion": "urbanizable-no-sectorizado", "calificacion": "sin-asignar", "version": "vigente", "fuente": "SIT-CAM WFS — UsoDelSuelo:VPLA_V_CLASIFICACION (https://idem.comunidad.madrid/geosrvg/ows)", "fecha_dato": "2026-05-12", "ambito": "64118", "_raw_CD_SIGLAS": "SUBNS", "_raw_DS_CLASIF_GEN": "Suelo de Reserva Urbana", "_raw_DS_CLASIF_DET": "Suelo de Reserva Urbana (INCORPORADO)", "_raw_DS_DOCU": "NORMAS SUBSIDIARIAS", "_raw_DS_LEY": "E Ley 12/05/1956", "_raw_FC_AC": "2005-06-22", "_raw_NM_AREA_M2": 3429165.3756635999, "_cam_code": "028" }, "geometry": { "type": "Polygon", "coordinates": [ [ [ -3.737, 40.8739 ], [ -3.7377, 40.8742 ], [ -3.7395, 40.8737 ], [ -3.7406, 40.8737 ], [ -3.7414, 40.873 ], [ -3.7421, 40.8728 ], [ -3.7438, 40.8727 ], [ -3.7456, 40.8716 ], [ -3.7466, 40.8701 ], [ -3.7474, 40.87 ], [ -3.7489, 40.8694 ], [ -3.7506, 40.8683 ], [ -3.7507, 40.868 ], [ -3.7512, 40.8678 ], [ -3.7518, 40.8672 ], [ -3.7547, 40.8672 ], [ -3.7554, 40.8669 ], [ -3.7562, 40.8669 ], [ -3.7576, 40.8674 ], [ -3.7588, 40.8685 ], [ -3.7599, 40.868 ], [ -3.7605, 40.8684 ], [ -3.7614, 40.8687 ], [ -3.7624, 40.8685 ], [ -3.7634, 40.8689 ], [ -3.7636, 40.8688 ], [ -3.7637, 40.8683 ], [ -3.7636, 40.868 ], [ -3.7632, 40.8676 ], [ -3.7622, 40.867 ], [ -3.7605, 40.8664 ], [ -3.7598, 40.8664 ], [ -3.7596, 40.8661 ], [ -3.7625, 40.8656 ], [ -3.7634, 40.8647 ], [ -3.7642, 40.8638 ], [ -3.7645, 40.8632 ], [ -3.7642, 40.8627 ], [ -3.7641, 40.8618 ], [ -3.7643, 40.8616 ], [ -3.7646, 40.8606 ], [ -3.7649, 40.8602 ], [ -3.7658, 40.8596 ], [ -3.7655, 40.8589 ], [ -3.7658, 40.8582 ], [ -3.7657, 40.8574 ], [ -3.7663, 40.857 ], [ -3.7659, 40.8555 ], [ -3.766, 40.8551 ], [ -3.7669, 40.8544 ], [ -3.7671, 40.8539 ], [ -3.7668, 40.8531 ], [ -3.7663, 40.8523 ], [ -3.7656, 40.85 ], [ -3.7658, 40.8491 ], [ -3.7663, 40.8484 ], [ -3.7646, 40.8468 ], [ -3.7645, 40.8465 ], [ -3.7652, 40.8449 ], [ -3.7651, 40.8442 ], [ -3.7647, 40.8448 ], [ -3.7638, 40.8452 ], [ -3.7634, 40.8458 ], [ -3.7635, 40.8467 ], [ -3.764, 40.8473 ], [ -3.7644, 40.8475 ], [ -3.7642, 40.8476 ], [ -3.7626, 40.8467 ], [ -3.7599, 40.8461 ], [ -3.7583, 40.8456 ], [ -3.7578, 40.8456 ], [ -3.7562, 40.8449 ], [ -3.7547, 40.8448 ], [ -3.7537, 40.8441 ], [ -3.7529, 40.8441 ], [ -3.7521, 40.8433 ], [ -3.7517, 40.8435 ], [ -3.7507, 40.8437 ], [ -3.75, 40.8435 ], [ -3.7481, 40.8452 ], [ -3.7479, 40.8462 ], [ -3.7475, 40.8468 ], [ -3.7478, 40.847 ], [ -3.7483, 40.8467 ], [ -3.7484, 40.8465 ], [ -3.7489, 40.8464 ], [ -3.7489, 40.8462 ], [ -3.7488, 40.8462 ], [ -3.7484, 40.8462 ], [ -3.7481, 40.8464 ], [ -3.7481, 40.8462 ], [ -3.7484, 40.846 ], [ -3.7494, 40.8456 ], [ -3.7496, 40.8458 ], [ -3.7499, 40.8457 ], [ -3.7502, 40.8458 ], [ -3.7503, 40.8457 ], [ -3.7501, 40.8456 ], [ -3.7501, 40.8453 ], [ -3.7503, 40.8448 ], [ -3.7504, 40.844 ], [ -3.7506, 40.8439 ], [ -3.751, 40.8443 ], [ -3.7516, 40.8439 ], [ -3.7516, 40.8437 ], [ -3.752, 40.8436 ], [ -3.7526, 40.8442 ], [ -3.7532, 40.8445 ], [ -3.7529, 40.8446 ], [ -3.7526, 40.845 ], [ -3.7517, 40.8451 ], [ -3.7517, 40.8454 ], [ -3.7506, 40.846 ], [ -3.7511, 40.8461 ], [ -3.7514, 40.8464 ], [ -3.7518, 40.8457 ], [ -3.7526, 40.8452 ], [ -3.7532, 40.8446 ], [ -3.7536, 40.8446 ], [ -3.7537, 40.8449 ], [ -3.7534, 40.8451 ], [ -3.7536, 40.8452 ], [ -3.7539, 40.845 ], [ -3.7543, 40.8451 ], [ -3.7547, 40.845 ], [ -3.755, 40.8451 ], [ -3.7554, 40.8455 ], [ -3.7561, 40.8458 ], [ -3.7563, 40.8466 ], [ -3.7562, 40.847 ], [ -3.7574, 40.8483 ], [ -3.7573, 40.8485 ], [ -3.7563, 40.8487 ], [ -3.7556, 40.8487 ], [ -3.7555, 40.8491 ], [ -3.7546, 40.8493 ], [ -3.7546, 40.8496 ], [ -3.7547, 40.8496 ], [ -3.7546, 40.8498 ], [ -3.7528, 40.8507 ], [ -3.7523, 40.8505 ], [ -3.7522, 40.8502 ], [ -3.7523, 40.85 ], [ -3.7509, 40.8501 ], [ -3.7503, 40.8495 ], [ -3.7502, 40.8493 ], [ -3.7506, 40.8483 ], [ -3.7512, 40.8478 ], [ -3.7516, 40.8479 ], [ -3.7516, 40.8477 ], [ -3.7508, 40.8473 ], [ -3.7508, 40.8471 ], [ -3.7507, 40.8471 ], [ -3.7499, 40.8477 ], [ -3.7498, 40.8481 ], [ -3.75, 40.8484 ], [ -3.7497, 40.8489 ], [ -3.749, 40.8493 ], [ -3.7486, 40.8493 ], [ -3.7497, 40.8522 ], [ -3.7497, 40.8524 ], [ -3.749, 40.8532 ], [ -3.7492, 40.8534 ], [ -3.7498, 40.8531 ], [ -3.7502, 40.8531 ], [ -3.7507, 40.8534 ], [ -3.751, 40.8537 ], [ -3.7511, 40.854 ], [ -3.7514, 40.854 ], [ -3.7515, 40.8543 ], [ -3.7519, 40.8547 ], [ -3.7511, 40.8558 ], [ -3.7501, 40.8564 ], [ -3.7501, 40.8566 ], [ -3.7503, 40.8565 ], [ -3.7505, 40.8568 ], [ -3.7512, 40.8571 ], [ -3.7522, 40.8569 ], [ -3.7524, 40.8572 ], [ -3.7528, 40.8573 ], [ -3.7531, 40.8576 ], [ -3.7531, 40.8588 ], [ -3.7533, 40.8595 ], [ -3.7533, 40.8597 ], [ -3.7532, 40.8597 ], [ -3.7537, 40.86 ], [ -3.7536, 40.8604 ], [ -3.7538, 40.8606 ], [ -3.7537, 40.861 ], [ -3.7533, 40.8613 ], [ -3.7529, 40.8614 ], [ -3.7509, 40.8616 ], [ -3.7471, 40.8608 ], [ -3.7471, 40.861 ], [ -3.748, 40.8612 ], [ -3.748, 40.8614 ], [ -3.7482, 40.8616 ], [ -3.7481, 40.8618 ], [ -3.7484, 40.8621 ], [ -3.7478, 40.863 ], [ -3.7473, 40.8631 ], [ -3.7468, 40.8634 ], [ -3.7462, 40.8635 ], [ -3.7456, 40.8634 ], [ -3.7444, 40.8646 ], [ -3.7434, 40.8651 ], [ -3.7436, 40.8648 ], [ -3.7436, 40.8642 ], [ -3.7438, 40.8638 ], [ -3.7444, 40.8631 ], [ -3.7447, 40.863 ], [ -3.7449, 40.8626 ], [ -3.7451, 40.8614 ], [ -3.7452, 40.8613 ], [ -3.7458, 40.8614 ], [ -3.7461, 40.8612 ], [ -3.746, 40.8605 ], [ -3.7457, 40.8605 ], [ -3.7444, 40.86 ], [ -3.7443, 40.861 ], [ -3.7434, 40.8609 ], [ -3.743, 40.86 ], [ -3.7431, 40.8596 ], [ -3.7434, 40.8596 ], [ -3.7437, 40.8594 ], [ -3.7435, 40.8592 ], [ -3.7441, 40.8595 ], [ -3.7441, 40.8591 ], [ -3.7448, 40.8582 ], [ -3.7448, 40.8577 ], [ -3.7452, 40.8576 ], [ -3.7453, 40.8577 ], [ -3.7454, 40.8576 ], [ -3.7461, 40.8579 ], [ -3.7463, 40.8578 ], [ -3.7467, 40.8573 ], [ -3.7468, 40.8565 ], [ -3.7457, 40.8559 ], [ -3.7452, 40.8561 ], [ -3.7457, 40.8563 ], [ -3.7452, 40.8565 ], [ -3.7451, 40.8563 ], [ -3.7449, 40.8563 ], [ -3.7446, 40.856 ], [ -3.7443, 40.8559 ], [ -3.7429, 40.856 ], [ -3.7416, 40.8557 ], [ -3.7418, 40.8553 ], [ -3.7418, 40.855 ], [ -3.7416, 40.8552 ], [ -3.7411, 40.8552 ], [ -3.741, 40.8551 ], [ -3.7412, 40.8547 ], [ -3.7407, 40.8551 ], [ -3.7407, 40.8547 ], [ -3.7406, 40.8547 ], [ -3.7399, 40.8553 ], [ -3.7396, 40.8553 ], [ -3.7392, 40.8557 ], [ -3.74, 40.8559 ], [ -3.7403, 40.8564 ], [ -3.7405, 40.8565 ], [ -3.7405, 40.8569 ], [ -3.7402, 40.8571 ], [ -3.7402, 40.8573 ], [ -3.7409, 40.8573 ], [ -3.7422, 40.8576 ], [ -3.7422, 40.8588 ], [ -3.7417, 40.859 ], [ -3.7418, 40.8595 ], [ -3.7416, 40.8596 ], [ -3.7418, 40.8597 ], [ -3.7415, 40.8606 ], [ -3.7395, 40.8613 ], [ -3.7401, 40.8623 ], [ -3.7403, 40.8632 ], [ -3.7406, 40.8653 ], [ -3.7406, 40.8655 ], [ -3.7402, 40.8662 ], [ -3.7403, 40.8666 ], [ -3.7397, 40.8671 ], [ -3.7392, 40.8684 ], [ -3.7389, 40.8687 ], [ -3.7378, 40.8693 ], [ -3.7363, 40.8705 ], [ -3.7361, 40.871 ], [ -3.7357, 40.8736 ], [ -3.737, 40.8739 ] ], [ [ -3.7411, 40.8653 ], [ -3.7412, 40.8654 ], [ -3.7409, 40.8656 ], [ -3.7407, 40.865 ], [ -3.7408, 40.8644 ], [ -3.7411, 40.8647 ], [ -3.7411, 40.8653 ] ], [ [ -3.7622, 40.8611 ], [ -3.762, 40.8618 ], [ -3.7613, 40.8622 ], [ -3.7613, 40.8621 ], [ -3.761, 40.8621 ], [ -3.7606, 40.8619 ], [ -3.7606, 40.8616 ], [ -3.76, 40.8615 ], [ -3.76, 40.8613 ], [ -3.7602, 40.8611 ], [ -3.7598, 40.8608 ], [ -3.7599, 40.8606 ], [ -3.7602, 40.8607 ], [ -3.7604, 40.8605 ], [ -3.7603, 40.8603 ], [ -3.7601, 40.86 ], [ -3.7596, 40.8599 ], [ -3.7591, 40.8596 ], [ -3.759, 40.8602 ], [ -3.7592, 40.8603 ], [ -3.7592, 40.8605 ], [ -3.7591, 40.8608 ], [ -3.7589, 40.8607 ], [ -3.7591, 40.8612 ], [ -3.759, 40.8614 ], [ -3.7591, 40.8614 ], [ -3.758, 40.862 ], [ -3.7577, 40.8619 ], [ -3.7576, 40.8617 ], [ -3.757, 40.8613 ], [ -3.7571, 40.8612 ], [ -3.7568, 40.8606 ], [ -3.7561, 40.8605 ], [ -3.756, 40.8603 ], [ -3.7561, 40.8601 ], [ -3.7565, 40.8602 ], [ -3.7566, 40.8596 ], [ -3.7568, 40.8596 ], [ -3.7569, 40.8593 ], [ -3.7569, 40.8589 ], [ -3.7571, 40.8589 ], [ -3.7571, 40.8588 ], [ -3.7559, 40.8586 ], [ -3.7555, 40.8582 ], [ -3.7558, 40.8579 ], [ -3.7557, 40.8578 ], [ -3.7552, 40.8578 ], [ -3.7549, 40.8574 ], [ -3.7547, 40.8574 ], [ -3.7548, 40.857 ], [ -3.7544, 40.8567 ], [ -3.7544, 40.8565 ], [ -3.7547, 40.8561 ], [ -3.7539, 40.8561 ], [ -3.754, 40.8553 ], [ -3.7538, 40.8547 ], [ -3.7541, 40.8544 ], [ -3.7544, 40.8543 ], [ -3.7551, 40.8543 ], [ -3.7552, 40.8538 ], [ -3.7555, 40.8538 ], [ -3.7558, 40.8536 ], [ -3.7555, 40.8531 ], [ -3.7563, 40.8528 ], [ -3.7567, 40.8529 ], [ -3.7573, 40.8528 ], [ -3.7586, 40.8536 ], [ -3.7583, 40.8545 ], [ -3.7585, 40.8546 ], [ -3.7584, 40.8549 ], [ -3.7581, 40.8548 ], [ -3.758, 40.8552 ], [ -3.7584, 40.8554 ], [ -3.7586, 40.8558 ], [ -3.7585, 40.8563 ], [ -3.7581, 40.8567 ], [ -3.7583, 40.8571 ], [ -3.7597, 40.8576 ], [ -3.76, 40.8576 ], [ -3.7603, 40.8581 ], [ -3.7617, 40.8586 ], [ -3.7624, 40.8591 ], [ -3.7632, 40.8592 ], [ -3.7635, 40.8595 ], [ -3.7634, 40.8598 ], [ -3.763, 40.8601 ], [ -3.7629, 40.8609 ], [ -3.7627, 40.8611 ], [ -3.7621, 40.8608 ], [ -3.7615, 40.8602 ], [ -3.7612, 40.8604 ], [ -3.7612, 40.8606 ], [ -3.762, 40.8609 ], [ -3.7622, 40.8611 ] ], [ [ -3.7527, 40.8543 ], [ -3.7521, 40.8545 ], [ -3.7518, 40.8542 ], [ -3.7519, 40.8541 ], [ -3.7518, 40.8541 ], [ -3.7518, 40.8539 ], [ -3.7525, 40.854 ], [ -3.7527, 40.8541 ], [ -3.7527, 40.8543 ] ], [ [ -3.7586, 40.8527 ], [ -3.7587, 40.8522 ], [ -3.7588, 40.8521 ], [ -3.7591, 40.8522 ], [ -3.759, 40.8518 ], [ -3.7594, 40.8514 ], [ -3.7598, 40.8513 ], [ -3.7606, 40.8508 ], [ -3.7613, 40.8508 ], [ -3.7621, 40.8512 ], [ -3.7606, 40.8523 ], [ -3.7611, 40.8532 ], [ -3.7608, 40.8538 ], [ -3.7602, 40.8541 ], [ -3.7596, 40.854 ], [ -3.7591, 40.8537 ], [ -3.7589, 40.8534 ], [ -3.759, 40.8532 ], [ -3.7587, 40.853 ], [ -3.7586, 40.8527 ] ], [ [ -3.7499, 40.8506 ], [ -3.75, 40.8512 ], [ -3.7504, 40.8518 ], [ -3.7504, 40.852 ], [ -3.7501, 40.8521 ], [ -3.7497, 40.852 ], [ -3.7492, 40.8505 ], [ -3.7499, 40.8506 ] ], [ [ -3.7638, 40.8531 ], [ -3.7633, 40.8526 ], [ -3.7639, 40.8524 ], [ -3.7645, 40.8525 ], [ -3.7646, 40.8527 ], [ -3.7643, 40.853 ], [ -3.7638, 40.8531 ] ], [ [ -3.7621, 40.8582 ], [ -3.7614, 40.8575 ], [ -3.7621, 40.8567 ], [ -3.7616, 40.8564 ], [ -3.762, 40.856 ], [ -3.7617, 40.8558 ], [ -3.762, 40.8556 ], [ -3.7624, 40.8559 ], [ -3.764, 40.856 ], [ -3.7641, 40.8562 ], [ -3.7646, 40.8564 ], [ -3.7644, 40.8569 ], [ -3.7645, 40.857 ], [ -3.7644, 40.8572 ], [ -3.7645, 40.8575 ], [ -3.7644, 40.8575 ], [ -3.7642, 40.8582 ], [ -3.7638, 40.8581 ], [ -3.7629, 40.8582 ], [ -3.7623, 40.8581 ], [ -3.7623, 40.8582 ], [ -3.7621, 40.8582 ] ], [ [ -3.7621, 40.8493 ], [ -3.7617, 40.8495 ], [ -3.7616, 40.8498 ], [ -3.7617, 40.85 ], [ -3.7612, 40.8506 ], [ -3.7605, 40.8501 ], [ -3.76, 40.8496 ], [ -3.7598, 40.8491 ], [ -3.7588, 40.8484 ], [ -3.7585, 40.848 ], [ -3.7589, 40.8473 ], [ -3.7589, 40.8471 ], [ -3.7592, 40.8469 ], [ -3.7596, 40.8471 ], [ -3.7605, 40.8472 ], [ -3.7609, 40.8471 ], [ -3.762, 40.8474 ], [ -3.7632, 40.8475 ], [ -3.7639, 40.8478 ], [ -3.7637, 40.8488 ], [ -3.7635, 40.8491 ], [ -3.763, 40.8492 ], [ -3.7626, 40.8489 ], [ -3.7624, 40.8489 ], [ -3.7621, 40.8493 ] ], [ [ -3.7406, 40.8632 ], [ -3.7412, 40.8633 ], [ -3.7413, 40.8635 ], [ -3.7409, 40.8639 ], [ -3.7407, 40.8639 ], [ -3.7406, 40.8638 ], [ -3.7406, 40.8632 ] ] ] } },
{ "type": "Feature", "properties": { "municipio": "Bustarviejo", "clasificacion": "urbanizable-no-sectorizado", "calificacion": "sin-asignar", "version": "vigente", "fuente": "SIT-CAM WFS — UsoDelSuelo:VPLA_V_CLASIFICACION (https://idem.comunidad.madrid/geosrvg/ows)", "fecha_dato": "2026-05-12", "ambito": "64118", "_raw_CD_SIGLAS": "SUBNS", "_raw_DS_CLASIF_GEN": "Suelo de Reserva Metropolitana", "_raw_DS_CLASIF_DET": "Suelo de Reserva Metropolitana", "_raw_DS_DOCU": "NORMAS SUBSIDIARIAS", "_raw_DS_LEY": "E Ley 12/05/1956", "_raw_FC_AC": "2005-06-22", "_raw_NM_AREA_M2": 11333948.826818701, "_cam_code": "028" }, "geometry": { "type": "Polygon", "coordinates": [ [ [ -3.7334, 40.8582 ], [ -3.7344, 40.8588 ], [ -3.7354, 40.86 ], [ -3.7356, 40.8614 ], [ -3.7353, 40.8631 ], [ -3.7364, 40.8633 ], [ -3.7392, 40.8642 ], [ -3.7404, 40.864 ], [ -3.7401, 40.8623 ], [ -3.7395, 40.8613 ], [ -3.7415, 40.8606 ], [ -3.7418, 40.8597 ], [ -3.7416, 40.8596 ], [ -3.7418, 40.8595 ], [ -3.7417, 40.859 ], [ -3.7422, 40.8588 ], [ -3.7422, 40.8576 ], [ -3.7409, 40.8573 ], [ -3.7402, 40.8573 ], [ -3.7402, 40.8571 ], [ -3.7405, 40.8569 ], [ -3.7405, 40.8565 ], [ -3.7403, 40.8564 ], [ -3.74, 40.8559 ], [ -3.7392, 40.8557 ], [ -3.7396, 40.8553 ], [ -3.7399, 40.8553 ], [ -3.7406, 40.8547 ], [ -3.7407, 40.8547 ], [ -3.7407, 40.8551 ], [ -3.7412, 40.8547 ], [ -3.741, 40.8551 ], [ -3.7411, 40.8552 ], [ -3.7416, 40.8552 ], [ -3.7418, 40.855 ], [ -3.7418, 40.8553 ], [ -3.7416, 40.8557 ], [ -3.7426, 40.8559 ], [ -3.7443, 40.8554 ], [ -3.7454, 40.8553 ], [ -3.7478, 40.8556 ], [ -3.7482, 40.8555 ], [ -3.7492, 40.8533 ], [ -3.749, 40.8532 ], [ -3.7497, 40.8524 ], [ -3.7486, 40.8493 ], [ -3.749, 40.8493 ], [ -3.7497, 40.8489 ], [ -3.75, 40.8484 ], [ -3.7498, 40.8481 ], [ -3.7499, 40.8477 ], [ -3.7508, 40.8471 ], [ -3.7514, 40.8464 ], [ -3.7511, 40.8461 ], [ -3.7502, 40.8459 ], [ -3.75, 40.8457 ], [ -3.7496, 40.8458 ], [ -3.7494, 40.8456 ], [ -3.7481, 40.8462 ], [ -3.7481, 40.8464 ], [ -3.7484, 40.8462 ], [ -3.7489, 40.8462 ], [ -3.7489, 40.8464 ], [ -3.7484, 40.8465 ], [ -3.7483, 40.8467 ], [ -3.7478, 40.847 ], [ -3.7475, 40.8468 ], [ -3.7479, 40.8462 ], [ -3.7481, 40.8452 ], [ -3.75, 40.8435 ], [ -3.7507, 40.8437 ], [ -3.7517, 40.8435 ], [ -3.7521, 40.8433 ], [ -3.7545, 40.8395 ], [ -3.7556, 40.8384 ], [ -3.7557, 40.8367 ], [ -3.756, 40.8359 ], [ -3.7571, 40.8341 ], [ -3.758, 40.8314 ], [ -3.758, 40.8311 ], [ -3.7574, 40.8298 ], [ -3.7575, 40.8283 ], [ -3.7567, 40.8245 ], [ -3.7565, 40.8238 ], [ -3.7562, 40.8235 ], [ -3.7528, 40.8244 ], [ -3.7498, 40.8256 ], [ -3.7477, 40.826 ], [ -3.7476, 40.825 ], [ -3.7471, 40.8241 ], [ -3.7473, 40.8225 ], [ -3.7475, 40.8221 ], [ -3.7472, 40.8203 ], [ -3.7465, 40.8179 ], [ -3.7461, 40.8174 ], [ -3.7456, 40.8164 ], [ -3.7452, 40.814 ], [ -3.7452, 40.812 ], [ -3.7455, 40.8105 ], [ -3.7462, 40.8091 ], [ -3.7455, 40.809 ], [ -3.7453, 40.8085 ], [ -3.7451, 40.8085 ], [ -3.7448, 40.8081 ], [ -3.7448, 40.8078 ], [ -3.7452, 40.8077 ], [ -3.7455, 40.8074 ], [ -3.7455, 40.8071 ], [ -3.7444, 40.8065 ], [ -3.7438, 40.8065 ], [ -3.7434, 40.8061 ], [ -3.7425, 40.806 ], [ -3.7424, 40.8057 ], [ -3.7419, 40.8052 ], [ -3.7411, 40.8047 ], [ -3.7404, 40.8049 ], [ -3.7398, 40.8053 ], [ -3.7395, 40.8053 ], [ -3.7393, 40.8048 ], [ -3.7385, 40.8048 ], [ -3.7374, 40.8052 ], [ -3.7368, 40.8052 ], [ -3.7367, 40.805 ], [ -3.7363, 40.8048 ], [ -3.7342, 40.8049 ], [ -3.7336, 40.8043 ], [ -3.7335, 40.8039 ], [ -3.733, 40.8034 ], [ -3.7329, 40.8031 ], [ -3.7326, 40.803 ], [ -3.7326, 40.8029 ], [ -3.732, 40.8029 ], [ -3.7315, 40.8027 ], [ -3.7315, 40.8026 ], [ -3.7304, 40.8026 ], [ -3.7304, 40.8025 ], [ -3.7293, 40.8022 ], [ -3.7287, 40.8019 ], [ -3.7279, 40.8011 ], [ -3.7276, 40.801 ], [ -3.7266, 40.8011 ], [ -3.7266, 40.801 ], [ -3.7247, 40.8005 ], [ -3.7244, 40.8002 ], [ -3.7245, 40.7997 ], [ -3.7244, 40.7982 ], [ -3.7242, 40.798 ], [ -3.7237, 40.798 ], [ -3.7233, 40.7978 ], [ -3.7222, 40.7971 ], [ -3.7221, 40.7968 ], [ -3.7211, 40.796 ], [ -3.7204, 40.7959 ], [ -3.7198, 40.7954 ], [ -3.7197, 40.7949 ], [ -3.7174, 40.7949 ], [ -3.7174, 40.7948 ], [ -3.7161, 40.7946 ], [ -3.716, 40.7949 ], [ -3.715, 40.7954 ], [ -3.7153, 40.7962 ], [ -3.7131, 40.7969 ], [ -3.7124, 40.7973 ], [ -3.7136, 40.7986 ], [ -3.7136, 40.7999 ], [ -3.716, 40.8023 ], [ -3.7166, 40.8037 ], [ -3.716, 40.8043 ], [ -3.7148, 40.805 ], [ -3.7123, 40.8045 ], [ -3.7106, 40.8045 ], [ -3.7093, 40.8056 ], [ -3.7079, 40.8072 ], [ -3.7056, 40.8086 ], [ -3.7044, 40.8099 ], [ -3.7016, 40.8123 ], [ -3.7018, 40.8153 ], [ -3.7013, 40.8169 ], [ -3.701, 40.8226 ], [ -3.7013, 40.8244 ], [ -3.714, 40.8199 ], [ -3.7194, 40.8193 ], [ -3.7213, 40.8188 ], [ -3.7242, 40.8195 ], [ -3.7259, 40.8196 ], [ -3.7283, 40.8195 ], [ -3.731, 40.8189 ], [ -3.7328, 40.8176 ], [ -3.7341, 40.8171 ], [ -3.7366, 40.8172 ], [ -3.7378, 40.817 ], [ -3.7385, 40.8171 ], [ -3.7387, 40.8173 ], [ -3.7382, 40.8192 ], [ -3.7386, 40.8212 ], [ -3.7393, 40.8227 ], [ -3.7412, 40.8239 ], [ -3.742, 40.8248 ], [ -3.7426, 40.8262 ], [ -3.7438, 40.8274 ], [ -3.7469, 40.8291 ], [ -3.7465, 40.83 ], [ -3.7461, 40.8304 ], [ -3.7454, 40.8316 ], [ -3.7445, 40.8321 ], [ -3.7439, 40.8328 ], [ -3.7437, 40.8333 ], [ -3.7434, 40.8335 ], [ -3.743, 40.8345 ], [ -3.7426, 40.835 ], [ -3.7425, 40.8354 ], [ -3.7407, 40.8371 ], [ -3.7407, 40.8374 ], [ -3.7405, 40.8378 ], [ -3.7405, 40.8383 ], [ -3.7407, 40.8387 ], [ -3.7405, 40.8396 ], [ -3.7407, 40.8401 ], [ -3.7407, 40.8405 ], [ -3.7412, 40.8415 ], [ -3.7414, 40.843 ], [ -3.7413, 40.8444 ], [ -3.7415, 40.8443 ], [ -3.7416, 40.8453 ], [ -3.7417, 40.8455 ], [ -3.7428, 40.8452 ], [ -3.7431, 40.845 ], [ -3.7436, 40.8443 ], [ -3.7439, 40.8443 ], [ -3.7437, 40.845 ], [ -3.7437, 40.8459 ], [ -3.7439, 40.8463 ], [ -3.7439, 40.8467 ], [ -3.7442, 40.847 ], [ -3.7447, 40.848 ], [ -3.7454, 40.8481 ], [ -3.7459, 40.8478 ], [ -3.7461, 40.8479 ], [ -3.7457, 40.8492 ], [ -3.7457, 40.8496 ], [ -3.7461, 40.8497 ], [ -3.7461, 40.8498 ], [ -3.7455, 40.8499 ], [ -3.7454, 40.8504 ], [ -3.7445, 40.851 ], [ -3.7443, 40.8513 ], [ -3.7441, 40.8513 ], [ -3.7438, 40.8516 ], [ -3.7434, 40.8517 ], [ -3.7425, 40.8525 ], [ -3.7422, 40.8525 ], [ -3.7424, 40.8523 ], [ -3.7424, 40.8521 ], [ -3.7422, 40.8516 ], [ -3.7419, 40.8513 ], [ -3.7415, 40.8513 ], [ -3.7409, 40.8516 ], [ -3.7391, 40.8529 ], [ -3.7384, 40.854 ], [ -3.7367, 40.8552 ], [ -3.7366, 40.8555 ], [ -3.7358, 40.8555 ], [ -3.7358, 40.8556 ], [ -3.735, 40.8558 ], [ -3.7349, 40.8559 ], [ -3.735, 40.8563 ], [ -3.7355, 40.8566 ], [ -3.7355, 40.8568 ], [ -3.7342, 40.8573 ], [ -3.734, 40.8575 ], [ -3.7334, 40.8573 ], [ -3.7336, 40.8572 ], [ -3.7338, 40.8567 ], [ -3.7339, 40.8567 ], [ -3.7338, 40.8567 ], [ -3.7332, 40.8567 ], [ -3.7331, 40.8572 ], [ -3.7316, 40.8565 ], [ -3.7306, 40.8563 ], [ -3.7306, 40.8562 ], [ -3.7302, 40.8562 ], [ -3.7287, 40.8557 ], [ -3.7282, 40.8558 ], [ -3.7278, 40.8556 ], [ -3.7247, 40.8556 ], [ -3.7248, 40.8555 ], [ -3.7233, 40.8542 ], [ -3.7215, 40.8533 ], [ -3.7203, 40.8534 ], [ -3.7194, 40.8533 ], [ -3.718, 40.8529 ], [ -3.7172, 40.8529 ], [ -3.7149, 40.8524 ], [ -3.7143, 40.8524 ], [ -3.7129, 40.8528 ], [ -3.7117, 40.8536 ], [ -3.7109, 40.8539 ], [ -3.7099, 40.8545 ], [ -3.7095, 40.8549 ], [ -3.7099, 40.8549 ], [ -3.7101, 40.8551 ], [ -3.7105, 40.8549 ], [ -3.7107, 40.855 ], [ -3.7105, 40.8557 ], [ -3.711, 40.8558 ], [ -3.7116, 40.8557 ], [ -3.7129, 40.8551 ], [ -3.7163, 40.8554 ], [ -3.7171, 40.8557 ], [ -3.7168, 40.8559 ], [ -3.7166, 40.8564 ], [ -3.7169, 40.8572 ], [ -3.7173, 40.8576 ], [ -3.7185, 40.8575 ], [ -3.7197, 40.8572 ], [ -3.72, 40.8572 ], [ -3.7202, 40.8575 ], [ -3.7209, 40.8571 ], [ -3.7213, 40.8571 ], [ -3.7215, 40.8574 ], [ -3.7226, 40.8566 ], [ -3.7244, 40.8563 ], [ -3.7261, 40.8563 ], [ -3.7289, 40.8566 ], [ -3.7314, 40.8573 ], [ -3.7334, 40.8582 ] ] ] } },
{ "type": "Feature", "properties": { "municipio": "Bustarviejo", "clasificacion": "urbanizable-no-sectorizado", "calificacion": "sin-asignar", "version": "vigente", "fuente": "SIT-CAM WFS — UsoDelSuelo:VPLA_V_CLASIFICACION (https://idem.comunidad.madrid/geosrvg/ows)", "fecha_dato": "2026-05-12", "ambito": "64118", "_raw_CD_SIGLAS": "SUBNS", "_raw_DS_CLASIF_GEN": "Suelo Rústico", "_raw_DS_CLASIF_DET": "Suelo Rústico", "_raw_DS_DOCU": "NORMAS SUBSIDIARIAS", "_raw_DS_LEY": "E Ley 12/05/1956", "_raw_FC_AC": "2005-06-22", "_raw_NM_AREA_M2": 1090245.08047385, "_cam_code": "028" }, "geometry": { "type": "Polygon", "coordinates": [ [ [ -3.7012, 40.8086 ], [ -3.7016, 40.8123 ], [ -3.7044, 40.8099 ], [ -3.7056, 40.8086 ], [ -3.7079, 40.8072 ], [ -3.7093, 40.8056 ], [ -3.7106, 40.8045 ], [ -3.7123, 40.8045 ], [ -3.7148, 40.805 ], [ -3.716, 40.8043 ], [ -3.7166, 40.8037 ], [ -3.716, 40.8023 ], [ -3.7136, 40.7999 ], [ -3.7136, 40.7986 ], [ -3.7124, 40.7973 ], [ -3.7113, 40.7978 ], [ -3.7111, 40.798 ], [ -3.7088, 40.7987 ], [ -3.7066, 40.799 ], [ -3.7061, 40.7992 ], [ -3.7042, 40.7994 ], [ -3.7031, 40.7997 ], [ -3.7014, 40.7998 ], [ -3.7012, 40.8086 ] ] ] } },
{ "type": "Feature", "properties": { "municipio": "Bustarviejo", "clasificacion": "urbanizable-no-sectorizado", "calificacion": "sin-asignar", "version": "vigente", "fuente": "SIT-CAM WFS — UsoDelSuelo:VPLA_V_CLASIFICACION (https://idem.comunidad.madrid/geosrvg/ows)", "fecha_dato": "2026-05-12", "ambito": "64118", "_raw_CD_SIGLAS": "SUBNS", "_raw_DS_CLASIF_GEN": "Suelo Rústico", "_raw_DS_CLASIF_DET": "Suelo Rústico", "_raw_DS_DOCU": "NORMAS SUBSIDIARIAS", "_raw_DS_LEY": "E Ley 12/05/1956", "_raw_FC_AC": "2005-06-22", "_raw_NM_AREA_M2": 15907442.4058349, "_cam_code": "028" }, "geometry": { "type": "Polygon", "coordinates": [ [ [ -3.7247, 40.8556 ], [ -3.7253, 40.8556 ], [ -3.726, 40.8556 ], [ -3.7267, 40.8556 ], [ -3.7271, 40.8556 ], [ -3.7273, 40.8556 ], [ -3.7264, 40.8553 ], [ -3.7265, 40.8551 ], [ -3.7279, 40.8549 ], [ -3.7285, 40.8543 ], [ -3.7292, 40.854 ], [ -3.7294, 40.8537 ], [ -3.7296, 40.854 ], [ -3.7299, 40.854 ], [ -3.7297, 40.8549 ], [ -3.729, 40.8549 ], [ -3.7288, 40.8551 ], [ -3.7301, 40.8552 ], [ -3.7302, 40.8551 ], [ -3.7301, 40.8549 ], [ -3.731, 40.8545 ], [ -3.7317, 40.8545 ], [ -3.7323, 40.8542 ], [ -3.7329, 40.8537 ], [ -3.7325, 40.8532 ], [ -3.7317, 40.8532 ], [ -3.7315, 40.853 ], [ -3.7308, 40.8531 ], [ -3.7305, 40.8533 ], [ -3.7304, 40.8532 ], [ -3.7308, 40.853 ], [ -3.7312, 40.8529 ], [ -3.7315, 40.853 ], [ -3.7325, 40.8529 ], [ -3.7329, 40.8531 ], [ -3.7347, 40.853 ], [ -3.7359, 40.8523 ], [ -3.736, 40.8521 ], [ -3.7366, 40.852 ], [ -3.737, 40.8516 ], [ -3.7375, 40.8514 ], [ -3.7386, 40.8506 ], [ -3.7389, 40.85 ], [ -3.7403, 40.8486 ], [ -3.7406, 40.8481 ], [ -3.7407, 40.8475 ], [ -3.7415, 40.8457 ], [ -3.7415, 40.8454 ], [ -3.7413, 40.8452 ], [ -3.7414, 40.843 ], [ -3.7412, 40.8415 ], [ -3.7407, 40.8405 ], [ -3.7407, 40.8401 ], [ -3.7405, 40.8396 ], [ -3.7407, 40.839 ], [ -3.7407, 40.8387 ], [ -3.7405, 40.8383 ], [ -3.7405, 40.8378 ], [ -3.7407, 40.8374 ], [ -3.7407, 40.8371 ], [ -3.7425, 40.8354 ], [ -3.7426, 40.835 ], [ -3.743, 40.8345 ], [ -3.7434, 40.8335 ], [ -3.7437, 40.8333 ], [ -3.7439, 40.8328 ], [ -3.7445, 40.8321 ], [ -3.7454, 40.8316 ], [ -3.7461, 40.8304 ], [ -3.7465, 40.83 ], [ -3.7469, 40.8291 ], [ -3.7438, 40.8274 ], [ -3.7426, 40.8262 ], [ -3.742, 40.8248 ], [ -3.7412, 40.8239 ], [ -3.7393, 40.8227 ], [ -3.7386, 40.8212 ], [ -3.7382, 40.8192 ], [ -3.7387, 40.8173 ], [ -3.7385, 40.8171 ], [ -3.7382, 40.817 ], [ -3.7366, 40.8172 ], [ -3.7341, 40.8171 ], [ -3.7328, 40.8176 ], [ -3.731, 40.8189 ], [ -3.7283, 40.8195 ], [ -3.7273, 40.8196 ], [ -3.7242, 40.8195 ], [ -3.7213, 40.8188 ], [ -3.7194, 40.8193 ], [ -3.714, 40.8199 ], [ -3.7004, 40.8248 ], [ -3.6996, 40.8249 ], [ -3.6996, 40.825 ], [ -3.6987, 40.8252 ], [ -3.6967, 40.8254 ], [ -3.6957, 40.8257 ], [ -3.6948, 40.8258 ], [ -3.6937, 40.8265 ], [ -3.693, 40.8266 ], [ -3.6924, 40.827 ], [ -3.691, 40.8271 ], [ -3.6901, 40.8277 ], [ -3.6899, 40.8277 ], [ -3.6854, 40.8299 ], [ -3.6837, 40.8303 ], [ -3.682, 40.8305 ], [ -3.6806, 40.8309 ], [ -3.6796, 40.8317 ], [ -3.6785, 40.8331 ], [ -3.6761, 40.8332 ], [ -3.6777, 40.836 ], [ -3.6799, 40.8382 ], [ -3.6809, 40.8394 ], [ -3.6821, 40.8417 ], [ -3.6888, 40.8384 ], [ -3.6905, 40.8401 ], [ -3.6909, 40.8402 ], [ -3.6912, 40.8406 ], [ -3.6923, 40.8413 ], [ -3.6925, 40.8419 ], [ -3.6929, 40.8425 ], [ -3.6929, 40.8433 ], [ -3.6936, 40.8441 ], [ -3.6935, 40.8448 ], [ -3.6937, 40.8461 ], [ -3.6957, 40.8469 ], [ -3.6959, 40.8472 ], [ -3.6967, 40.8474 ], [ -3.6978, 40.8479 ], [ -3.6992, 40.8501 ], [ -3.6998, 40.8504 ], [ -3.7007, 40.8515 ], [ -3.7025, 40.8522 ], [ -3.7026, 40.8525 ], [ -3.7041, 40.8539 ], [ -3.7043, 40.8543 ], [ -3.7053, 40.8548 ], [ -3.7058, 40.8549 ], [ -3.7061, 40.8551 ], [ -3.7062, 40.8554 ], [ -3.7062, 40.8553 ], [ -3.7073, 40.8546 ], [ -3.7081, 40.8543 ], [ -3.7085, 40.855 ], [ -3.7089, 40.8549 ], [ -3.7092, 40.855 ], [ -3.7094, 40.8548 ], [ -3.7095, 40.8549 ], [ -3.7099, 40.8545 ], [ -3.7109, 40.8539 ], [ -3.7117, 40.8536 ], [ -3.7129, 40.8528 ], [ -3.7143, 40.8524 ], [ -3.7149, 40.8524 ], [ -3.7172, 40.8529 ], [ -3.718, 40.8529 ], [ -3.7194, 40.8533 ], [ -3.7203, 40.8534 ], [ -3.7215, 40.8533 ], [ -3.7233, 40.8542 ], [ -3.7248, 40.8555 ], [ -3.7247, 40.8556 ] ] ] } },
{ "type": "Feature", "properties": { "municipio": "Bustarviejo", "clasificacion": "urbanizable-no-sectorizado", "calificacion": "sin-asignar", "version": "vigente", "fuente": "SIT-CAM WFS — UsoDelSuelo:VPLA_V_CLASIFICACION (https://idem.comunidad.madrid/geosrvg/ows)", "fecha_dato": "2026-05-12", "ambito": "64118", "_raw_CD_SIGLAS": "SUBNS", "_raw_DS_CLASIF_GEN": "Suelo Rústico", "_raw_DS_CLASIF_DET": "Suelo Rústico", "_raw_DS_DOCU": "NORMAS SUBSIDIARIAS", "_raw_DS_LEY": "E Ley 12/05/1956", "_raw_FC_AC": "2005-06-22", "_raw_NM_AREA_M2": 9447033.6575444508, "_cam_code": "028" }, "geometry": { "type": "Polygon", "coordinates": [ [ [ -3.7521, 40.8433 ], [ -3.7529, 40.8441 ], [ -3.7537, 40.8441 ], [ -3.7547, 40.8448 ], [ -3.7562, 40.8449 ], [ -3.7578, 40.8456 ], [ -3.7583, 40.8456 ], [ -3.7599, 40.8461 ], [ -3.7626, 40.8467 ], [ -3.7641, 40.8476 ], [ -3.7644, 40.8475 ], [ -3.764, 40.8473 ], [ -3.7635, 40.8467 ], [ -3.7634, 40.8458 ], [ -3.7638, 40.8452 ], [ -3.7647, 40.8448 ], [ -3.7651, 40.8442 ], [ -3.7652, 40.8449 ], [ -3.7645, 40.8465 ], [ -3.7646, 40.8468 ], [ -3.7663, 40.8484 ], [ -3.7658, 40.8491 ], [ -3.7656, 40.85 ], [ -3.7663, 40.8523 ], [ -3.7668, 40.8531 ], [ -3.7671, 40.8539 ], [ -3.7669, 40.8544 ], [ -3.766, 40.8551 ], [ -3.7659, 40.8555 ], [ -3.7663, 40.857 ], [ -3.7657, 40.8574 ], [ -3.7658, 40.8582 ], [ -3.7655, 40.8589 ], [ -3.7658, 40.8596 ], [ -3.7649, 40.8602 ], [ -3.7646, 40.8606 ], [ -3.7643, 40.8616 ], [ -3.7641, 40.8618 ], [ -3.7642, 40.8627 ], [ -3.7645, 40.8632 ], [ -3.7642, 40.8638 ], [ -3.7634, 40.8647 ], [ -3.7625, 40.8656 ], [ -3.7596, 40.8661 ], [ -3.7598, 40.8664 ], [ -3.7605, 40.8664 ], [ -3.7622, 40.867 ], [ -3.7632, 40.8676 ], [ -3.7636, 40.868 ], [ -3.7637, 40.8683 ], [ -3.7636, 40.8688 ], [ -3.7645, 40.8687 ], [ -3.7645, 40.8685 ], [ -3.7667, 40.8667 ], [ -3.773, 40.866 ], [ -3.7739, 40.866 ], [ -3.775, 40.8652 ], [ -3.7752, 40.8645 ], [ -3.7757, 40.864 ], [ -3.7755, 40.8611 ], [ -3.7758, 40.8603 ], [ -3.777, 40.86 ], [ -3.7787, 40.8588 ], [ -3.7797, 40.8583 ], [ -3.781, 40.8569 ], [ -3.7812, 40.8565 ], [ -3.782, 40.8563 ], [ -3.7842, 40.8553 ], [ -3.7848, 40.8518 ], [ -3.7844, 40.85 ], [ -3.7873, 40.8487 ], [ -3.7879, 40.848 ], [ -3.7881, 40.8472 ], [ -3.7894, 40.8465 ], [ -3.7896, 40.8456 ], [ -3.7867, 40.8441 ], [ -3.7864, 40.8438 ], [ -3.7865, 40.8435 ], [ -3.7868, 40.8434 ], [ -3.7868, 40.8433 ], [ -3.7863, 40.8431 ], [ -3.7862, 40.8421 ], [ -3.7864, 40.8417 ], [ -3.7859, 40.8416 ], [ -3.7857, 40.8414 ], [ -3.7856, 40.8409 ], [ -3.7851, 40.8407 ], [ -3.7851, 40.8405 ], [ -3.785, 40.8405 ], [ -3.7851, 40.8401 ], [ -3.785, 40.8392 ], [ -3.7853, 40.8387 ], [ -3.7856, 40.8385 ], [ -3.7855, 40.8382 ], [ -3.7847, 40.8376 ], [ -3.7847, 40.8371 ], [ -3.7832, 40.8369 ], [ -3.7829, 40.8366 ], [ -3.7829, 40.8363 ], [ -3.7822, 40.836 ], [ -3.7819, 40.8352 ], [ -3.7816, 40.8351 ], [ -3.7816, 40.8346 ], [ -3.7806, 40.8338 ], [ -3.7808, 40.8327 ], [ -3.7798, 40.8325 ], [ -3.7799, 40.8316 ], [ -3.7796, 40.8313 ], [ -3.7799, 40.831 ], [ -3.7797, 40.8308 ], [ -3.779, 40.8307 ], [ -3.7783, 40.8304 ], [ -3.7782, 40.8297 ], [ -3.778, 40.8295 ], [ -3.7775, 40.8293 ], [ -3.7767, 40.8292 ], [ -3.7763, 40.8286 ], [ -3.7753, 40.8282 ], [ -3.7749, 40.8279 ], [ -3.7738, 40.8265 ], [ -3.7738, 40.8261 ], [ -3.7735, 40.8255 ], [ -3.7688, 40.8254 ], [ -3.765, 40.8239 ], [ -3.7627, 40.8227 ], [ -3.7621, 40.8222 ], [ -3.7605, 40.8213 ], [ -3.7603, 40.8213 ], [ -3.7594, 40.8208 ], [ -3.7546, 40.8174 ], [ -3.7522, 40.8151 ], [ -3.7469, 40.8116 ], [ -3.7469, 40.8113 ], [ -3.7473, 40.8109 ], [ -3.7473, 40.8104 ], [ -3.7462, 40.8091 ], [ -3.7455, 40.8105 ], [ -3.7452, 40.812 ], [ -3.7452, 40.814 ], [ -3.7456, 40.8164 ], [ -3.7461, 40.8174 ], [ -3.7465, 40.8179 ], [ -3.7472, 40.8203 ], [ -3.7475, 40.8221 ], [ -3.7473, 40.8225 ], [ -3.7471, 40.8241 ], [ -3.7476, 40.825 ], [ -3.7477, 40.826 ], [ -3.7498, 40.8256 ], [ -3.7528, 40.8244 ], [ -3.7562, 40.8235 ], [ -3.7565, 40.8238 ], [ -3.7567, 40.8245 ], [ -3.7575, 40.8283 ], [ -3.7574, 40.8298 ], [ -3.758, 40.8311 ], [ -3.7574, 40.8334 ], [ -3.7571, 40.8341 ], [ -3.756, 40.8359 ], [ -3.7557, 40.8367 ], [ -3.7556, 40.8384 ], [ -3.7545, 40.8395 ], [ -3.7521, 40.8433 ] ] ] } },
{ "type": "Feature", "properties": { "municipio": "Bustarviejo", "clasificacion": "urbanizable-no-sectorizado", "calificacion": "sin-asignar", "version": "vigente", "fuente": "SIT-CAM WFS — UsoDelSuelo:VPLA_V_CLASIFICACION (https://idem.comunidad.madrid/geosrvg/ows)", "fecha_dato": "2026-05-12", "ambito": "64118", "_raw_CD_SIGLAS": "SUBNS", "_raw_DS_CLASIF_GEN": "Suelo Rústico", "_raw_DS_CLASIF_DET": "Suelo Rústico", "_raw_DS_DOCU": "NORMAS SUBSIDIARIAS", "_raw_DS_LEY": "E Ley 12/05/1956", "_raw_FC_AC": "2005-06-22", "_raw_NM_AREA_M2": 16514.629302144, "_cam_code": "028" }, "geometry": { "type": "Polygon", "coordinates": [ [ [ -3.7617, 40.8701 ], [ -3.7625, 40.8693 ], [ -3.7627, 40.8692 ], [ -3.7629, 40.8693 ], [ -3.7634, 40.8689 ], [ -3.7624, 40.8685 ], [ -3.7614, 40.8687 ], [ -3.7611, 40.8686 ], [ -3.7617, 40.8701 ] ] ] } },
{ "type": "Feature", "properties": { "municipio": "Bustarviejo", "clasificacion": "urbanizable-no-sectorizado", "calificacion": "sin-asignar", "version": "vigente", "fuente": "SIT-CAM WFS — UsoDelSuelo:VPLA_V_CLASIFICACION (https://idem.comunidad.madrid/geosrvg/ows)", "fecha_dato": "2026-05-12", "ambito": "64118", "_raw_CD_SIGLAS": "SUBNS", "_raw_DS_CLASIF_GEN": "Suelo Rústico", "_raw_DS_CLASIF_DET": "Suelo Rústico", "_raw_DS_DOCU": "NORMAS SUBSIDIARIAS", "_raw_DS_LEY": "E Ley 12/05/1956", "_raw_FC_AC": "2005-06-22", "_raw_NM_AREA_M2": 15976.688829049101, "_cam_code": "028" }, "geometry": { "type": "Polygon", "coordinates": [ [ [ -3.7395, 40.8737 ], [ -3.7377, 40.8742 ], [ -3.7388, 40.8748 ], [ -3.7392, 40.8748 ], [ -3.7406, 40.8737 ], [ -3.7395, 40.8737 ] ] ] } },
{ "type": "Feature", "properties": { "municipio": "Bustarviejo", "clasificacion": "urbanizable-no-sectorizado", "calificacion": "sin-asignar", "version": "vigente", "fuente": "SIT-CAM WFS — UsoDelSuelo:VPLA_V_CLASIFICACION (https://idem.comunidad.madrid/geosrvg/ows)", "fecha_dato": "2026-05-12", "ambito": "64118", "_raw_CD_SIGLAS": "SUBNS", "_raw_DS_CLASIF_GEN": "Suelo Rústico", "_raw_DS_CLASIF_DET": "Suelo Rústico", "_raw_DS_DOCU": "NORMAS SUBSIDIARIAS", "_raw_DS_LEY": "E Ley 12/05/1956", "_raw_FC_AC": "2005-06-22", "_raw_NM_AREA_M2": 6060627.5413551498, "_cam_code": "028" }, "geometry": { "type": "Polygon", "coordinates": [ [ [ -3.694, 40.8804 ], [ -3.6964, 40.8806 ], [ -3.7005, 40.8789 ], [ -3.7039, 40.8778 ], [ -3.7088, 40.8774 ], [ -3.7108, 40.8771 ], [ -3.7111, 40.8768 ], [ -3.7128, 40.8764 ], [ -3.7149, 40.8765 ], [ -3.7159, 40.8768 ], [ -3.7177, 40.8767 ], [ -3.7201, 40.8755 ], [ -3.7216, 40.8745 ], [ -3.7227, 40.8719 ], [ -3.7248, 40.8715 ], [ -3.7261, 40.8718 ], [ -3.7269, 40.8723 ], [ -3.7287, 40.873 ], [ -3.7303, 40.8732 ], [ -3.7321, 40.873 ], [ -3.7348, 40.8733 ], [ -3.7357, 40.8736 ], [ -3.7359, 40.872 ], [ -3.7363, 40.8705 ], [ -3.7378, 40.8693 ], [ -3.7389, 40.8687 ], [ -3.7392, 40.8684 ], [ -3.7397, 40.8671 ], [ -3.7403, 40.8666 ], [ -3.7402, 40.8662 ], [ -3.7406, 40.8655 ], [ -3.7404, 40.864 ], [ -3.7392, 40.8642 ], [ -3.7364, 40.8633 ], [ -3.7353, 40.8631 ], [ -3.7356, 40.8614 ], [ -3.7354, 40.86 ], [ -3.7344, 40.8588 ], [ -3.7334, 40.8582 ], [ -3.7314, 40.8573 ], [ -3.7289, 40.8566 ], [ -3.7261, 40.8563 ], [ -3.7244, 40.8563 ], [ -3.7226, 40.8566 ], [ -3.721, 40.8577 ], [ -3.7212, 40.858 ], [ -3.7212, 40.8585 ], [ -3.7211, 40.8589 ], [ -3.7206, 40.8595 ], [ -3.721, 40.86 ], [ -3.7214, 40.8602 ], [ -3.7212, 40.8606 ], [ -3.7214, 40.8607 ], [ -3.7216, 40.8611 ], [ -3.7214, 40.8612 ], [ -3.7201, 40.861 ], [ -3.72, 40.8609 ], [ -3.7201, 40.8606 ], [ -3.7198, 40.8602 ], [ -3.7184, 40.8601 ], [ -3.7182, 40.8599 ], [ -3.7173, 40.86 ], [ -3.717, 40.8598 ], [ -3.7169, 40.8595 ], [ -3.7153, 40.8598 ], [ -3.7136, 40.8603 ], [ -3.7143, 40.861 ], [ -3.7145, 40.861 ], [ -3.7152, 40.8616 ], [ -3.7149, 40.8621 ], [ -3.7138, 40.8622 ], [ -3.7134, 40.8625 ], [ -3.7125, 40.8628 ], [ -3.7121, 40.8625 ], [ -3.7118, 40.8615 ], [ -3.7111, 40.8613 ], [ -3.7103, 40.8613 ], [ -3.7098, 40.8621 ], [ -3.7095, 40.8632 ], [ -3.7092, 40.8634 ], [ -3.7092, 40.8649 ], [ -3.7098, 40.8667 ], [ -3.7101, 40.8681 ], [ -3.7101, 40.869 ], [ -3.7096, 40.8696 ], [ -3.7083, 40.8698 ], [ -3.7066, 40.869 ], [ -3.7048, 40.8675 ], [ -3.7033, 40.8668 ], [ -3.7022, 40.8674 ], [ -3.7004, 40.8671 ], [ -3.6996, 40.868 ], [ -3.6988, 40.8685 ], [ -3.6979, 40.8687 ], [ -3.6969, 40.8683 ], [ -3.696, 40.8683 ], [ -3.6928, 40.869 ], [ -3.692, 40.8689 ], [ -3.6902, 40.8677 ], [ -3.6889, 40.8677 ], [ -3.6865, 40.869 ], [ -3.6845, 40.8697 ], [ -3.6899, 40.8739 ], [ -3.694, 40.8804 ] ] ] } },
{ "type": "Feature", "properties": { "municipio": "Bustarviejo", "clasificacion": "urbanizable-sectorizado", "calificacion": "sin-asignar", "version": "vigente", "fuente": "SIT-CAM WFS — UsoDelSuelo:VPLA_V_CLASIFICACION (https://idem.comunidad.madrid/geosrvg/ows)", "fecha_dato": "2026-05-12", "ambito": "64118", "_raw_CD_SIGLAS": "SUBS", "_raw_DS_CLASIF_GEN": "Suelo de Reserva Urbana", "_raw_DS_CLASIF_DET": "Suelo de Reserva Urbana", "_raw_DS_DOCU": "NORMAS SUBSIDIARIAS", "_raw_DS_LEY": "E Ley 12/05/1956", "_raw_FC_AC": "2005-06-22", "_raw_NM_AREA_M2": 76103.738989984296, "_cam_code": "028" }, "geometry": { "type": "Polygon", "coordinates": [ [ [ -3.6787, 40.8411 ], [ -3.6799, 40.8417 ], [ -3.6804, 40.841 ], [ -3.681, 40.8405 ], [ -3.6807, 40.8399 ], [ -3.68, 40.8394 ], [ -3.6788, 40.8381 ], [ -3.6783, 40.838 ], [ -3.6783, 40.8376 ], [ -3.6781, 40.8375 ], [ -3.6772, 40.8391 ], [ -3.6773, 40.8397 ], [ -3.6787, 40.8411 ] ] ] } },
{ "type": "Feature", "properties": { "municipio": "Bustarviejo", "clasificacion": "urbanizable-sectorizado", "calificacion": "sin-asignar", "version": "vigente", "fuente": "SIT-CAM WFS — UsoDelSuelo:VPLA_V_CLASIFICACION (https://idem.comunidad.madrid/geosrvg/ows)", "fecha_dato": "2026-05-12", "ambito": "64118", "_raw_CD_SIGLAS": "SUBS", "_raw_DS_CLASIF_GEN": "Suelo de Reserva Urbana", "_raw_DS_CLASIF_DET": "Suelo de Reserva Urbana", "_raw_DS_DOCU": "NORMAS SUBSIDIARIAS", "_raw_DS_LEY": "E Ley 12/05/1956", "_raw_FC_AC": "2005-06-22", "_raw_NM_AREA_M2": 936949.38764557999, "_cam_code": "028" }, "geometry": { "type": "Polygon", "coordinates": [ [ [ -3.7042, 40.8667 ], [ -3.7043, 40.8668 ], [ -3.7047, 40.8666 ], [ -3.7052, 40.8666 ], [ -3.7074, 40.8657 ], [ -3.7089, 40.8653 ], [ -3.7092, 40.8649 ], [ -3.7092, 40.8634 ], [ -3.7095, 40.8632 ], [ -3.7098, 40.8621 ], [ -3.7103, 40.8613 ], [ -3.7094, 40.8611 ], [ -3.7071, 40.8614 ], [ -3.7068, 40.861 ], [ -3.7069, 40.861 ], [ -3.7068, 40.8598 ], [ -3.7063, 40.8594 ], [ -3.7058, 40.8595 ], [ -3.7057, 40.8594 ], [ -3.7038, 40.8594 ], [ -3.7025, 40.8598 ], [ -3.7026, 40.8593 ], [ -3.703, 40.859 ], [ -3.7038, 40.8587 ], [ -3.7037, 40.8582 ], [ -3.7046, 40.8579 ], [ -3.7055, 40.8573 ], [ -3.7055, 40.8571 ], [ -3.7061, 40.857 ], [ -3.7052, 40.8563 ], [ -3.7046, 40.856 ], [ -3.7034, 40.8557 ], [ -3.7019, 40.8557 ], [ -3.7017, 40.8563 ], [ -3.7014, 40.8564 ], [ -3.7011, 40.8564 ], [ -3.7012, 40.8561 ], [ -3.7, 40.8562 ], [ -3.7005, 40.8568 ], [ -3.7007, 40.8573 ], [ -3.7006, 40.8575 ], [ -3.6998, 40.8575 ], [ -3.6996, 40.8572 ], [ -3.6993, 40.8571 ], [ -3.699, 40.8564 ], [ -3.6986, 40.8564 ], [ -3.6983, 40.8566 ], [ -3.6975, 40.8562 ], [ -3.6968, 40.8564 ], [ -3.696, 40.8562 ], [ -3.6951, 40.8563 ], [ -3.6944, 40.8566 ], [ -3.6945, 40.8568 ], [ -3.695, 40.8571 ], [ -3.6952, 40.8575 ], [ -3.6958, 40.8574 ], [ -3.6959, 40.8576 ], [ -3.6955, 40.8577 ], [ -3.695, 40.8582 ], [ -3.695, 40.8585 ], [ -3.6948, 40.8586 ], [ -3.6949, 40.8588 ], [ -3.6948, 40.859 ], [ -3.6945, 40.8582 ], [ -3.6938, 40.8577 ], [ -3.6935, 40.8572 ], [ -3.6938, 40.857 ], [ -3.6939, 40.8567 ], [ -3.6937, 40.8566 ], [ -3.6934, 40.8565 ], [ -3.6928, 40.8572 ], [ -3.692, 40.8578 ], [ -3.6918, 40.8581 ], [ -3.6919, 40.8583 ], [ -3.6922, 40.8585 ], [ -3.6924, 40.859 ], [ -3.6932, 40.8599 ], [ -3.6934, 40.8604 ], [ -3.6935, 40.8607 ], [ -3.6932, 40.8608 ], [ -3.6935, 40.861 ], [ -3.694, 40.8611 ], [ -3.6941, 40.8614 ], [ -3.6946, 40.8613 ], [ -3.6948, 40.8623 ], [ -3.6947, 40.8627 ], [ -3.6967, 40.8623 ], [ -3.6981, 40.8626 ], [ -3.699, 40.8622 ], [ -3.6995, 40.8615 ], [ -3.7009, 40.8604 ], [ -3.7012, 40.8608 ], [ -3.701, 40.8612 ], [ -3.7014, 40.8624 ], [ -3.7015, 40.8631 ], [ -3.7017, 40.8634 ], [ -3.7026, 40.8638 ], [ -3.7025, 40.8641 ], [ -3.7031, 40.8657 ], [ -3.7033, 40.8668 ], [ -3.7042, 40.8667 ] ] ] } },
{ "type": "Feature", "properties": { "municipio": "Bustarviejo", "clasificacion": "urbanizable-sectorizado", "calificacion": "sin-asignar", "version": "vigente", "fuente": "SIT-CAM WFS — UsoDelSuelo:VPLA_V_CLASIFICACION (https://idem.comunidad.madrid/geosrvg/ows)", "fecha_dato": "2026-05-12", "ambito": "64118", "_raw_CD_SIGLAS": "SUBS", "_raw_DS_CLASIF_GEN": "Suelo de Reserva Urbana", "_raw_DS_CLASIF_DET": "Suelo de Reserva Urbana", "_raw_DS_DOCU": "NORMAS SUBSIDIARIAS", "_raw_DS_LEY": "E Ley 12/05/1956", "_raw_FC_AC": "2005-06-22", "_raw_NM_AREA_M2": 558919.22460270103, "_cam_code": "028" }, "geometry": { "type": "Polygon", "coordinates": [ [ [ -3.7444, 40.8631 ], [ -3.7436, 40.8642 ], [ -3.7436, 40.8648 ], [ -3.7434, 40.8651 ], [ -3.7444, 40.8646 ], [ -3.7456, 40.8634 ], [ -3.7462, 40.8635 ], [ -3.7468, 40.8634 ], [ -3.7473, 40.8631 ], [ -3.7478, 40.863 ], [ -3.7484, 40.8621 ], [ -3.7481, 40.8618 ], [ -3.7482, 40.8616 ], [ -3.748, 40.8614 ], [ -3.748, 40.8612 ], [ -3.7471, 40.861 ], [ -3.7471, 40.8608 ], [ -3.7509, 40.8616 ], [ -3.7529, 40.8614 ], [ -3.7533, 40.8613 ], [ -3.7537, 40.861 ], [ -3.7538, 40.8606 ], [ -3.7536, 40.8604 ], [ -3.7537, 40.86 ], [ -3.7532, 40.8597 ], [ -3.7533, 40.8597 ], [ -3.7533, 40.8595 ], [ -3.7531, 40.8588 ], [ -3.7531, 40.8576 ], [ -3.7528, 40.8573 ], [ -3.7524, 40.8572 ], [ -3.7522, 40.8569 ], [ -3.7512, 40.8571 ], [ -3.7505, 40.8568 ], [ -3.7503, 40.8565 ], [ -3.7501, 40.8566 ], [ -3.7501, 40.8564 ], [ -3.7511, 40.8558 ], [ -3.7519, 40.8548 ], [ -3.7514, 40.854 ], [ -3.7511, 40.854 ], [ -3.751, 40.8537 ], [ -3.7507, 40.8534 ], [ -3.7502, 40.8531 ], [ -3.7498, 40.8531 ], [ -3.7492, 40.8534 ], [ -3.7492, 40.8533 ], [ -3.7482, 40.8555 ], [ -3.7479, 40.8556 ], [ -3.7454, 40.8553 ], [ -3.7443, 40.8554 ], [ -3.7427, 40.8559 ], [ -3.7429, 40.856 ], [ -3.7443, 40.8559 ], [ -3.7446, 40.856 ], [ -3.7449, 40.8563 ], [ -3.7451, 40.8563 ], [ -3.7452, 40.8565 ], [ -3.7457, 40.8563 ], [ -3.7452, 40.8561 ], [ -3.7457, 40.8559 ], [ -3.7468, 40.8565 ], [ -3.7467, 40.8573 ], [ -3.7463, 40.8578 ], [ -3.7461, 40.8579 ], [ -3.7454, 40.8576 ], [ -3.7453, 40.8577 ], [ -3.7452, 40.8576 ], [ -3.7448, 40.8577 ], [ -3.7448, 40.8582 ], [ -3.7441, 40.8591 ], [ -3.7441, 40.8595 ], [ -3.7435, 40.8592 ], [ -3.7437, 40.8594 ], [ -3.7434, 40.8596 ], [ -3.7431, 40.8596 ], [ -3.743, 40.86 ], [ -3.7434, 40.8609 ], [ -3.7437, 40.861 ], [ -3.7443, 40.861 ], [ -3.7444, 40.86 ], [ -3.7457, 40.8605 ], [ -3.746, 40.8605 ], [ -3.7461, 40.8612 ], [ -3.7458, 40.8614 ], [ -3.7455, 40.8613 ], [ -3.7451, 40.8614 ], [ -3.7449, 40.8626 ], [ -3.7447, 40.863 ], [ -3.7444, 40.8631 ] ] ] } },
{ "type": "Feature", "properties": { "municipio": "Bustarviejo", "clasificacion": "urbanizable-sectorizado", "calificacion": "sin-asignar", "version": "vigente", "fuente": "SIT-CAM WFS — UsoDelSuelo:VPLA_V_CLASIFICACION (https://idem.comunidad.madrid/geosrvg/ows)", "fecha_dato": "2026-05-12", "ambito": "64118", "_raw_CD_SIGLAS": "SUBS", "_raw_DS_CLASIF_GEN": "Suelo de Reserva Urbana", "_raw_DS_CLASIF_DET": "Suelo de Reserva Urbana", "_raw_DS_DOCU": "NORMAS SUBSIDIARIAS", "_raw_DS_LEY": "E Ley 12/05/1956", "_raw_FC_AC": "2005-06-22", "_raw_NM_AREA_M2": 369482.56092283799, "_cam_code": "028" }, "geometry": { "type": "Polygon", "coordinates": [ [ [ -3.7613, 40.8621 ], [ -3.7613, 40.8622 ], [ -3.762, 40.8618 ], [ -3.762, 40.8614 ], [ -3.7622, 40.8611 ], [ -3.762, 40.8609 ], [ -3.7612, 40.8606 ], [ -3.7612, 40.8604 ], [ -3.7615, 40.8602 ], [ -3.7621, 40.8608 ], [ -3.7627, 40.8611 ], [ -3.7629, 40.8609 ], [ -3.763, 40.8601 ], [ -3.7635, 40.8596 ], [ -3.7634, 40.8593 ], [ -3.7624, 40.8591 ], [ -3.7617, 40.8586 ], [ -3.7603, 40.8581 ], [ -3.76, 40.8576 ], [ -3.7597, 40.8576 ], [ -3.7583, 40.8571 ], [ -3.7581, 40.8567 ], [ -3.7585, 40.8563 ], [ -3.7586, 40.8558 ], [ -3.7584, 40.8554 ], [ -3.758, 40.8552 ], [ -3.7581, 40.8548 ], [ -3.7584, 40.8549 ], [ -3.7585, 40.8546 ], [ -3.7583, 40.8545 ], [ -3.7586, 40.8536 ], [ -3.7573, 40.8528 ], [ -3.7567, 40.8529 ], [ -3.7563, 40.8528 ], [ -3.7555, 40.8531 ], [ -3.7558, 40.8536 ], [ -3.7555, 40.8538 ], [ -3.7552, 40.8538 ], [ -3.7551, 40.8543 ], [ -3.7541, 40.8544 ], [ -3.7538, 40.8547 ], [ -3.7538, 40.8549 ], [ -3.754, 40.8553 ], [ -3.7539, 40.8561 ], [ -3.7547, 40.8561 ], [ -3.7544, 40.8565 ], [ -3.7544, 40.8567 ], [ -3.7548, 40.857 ], [ -3.7547, 40.8574 ], [ -3.7549, 40.8574 ], [ -3.7552, 40.8578 ], [ -3.7557, 40.8578 ], [ -3.7558, 40.8579 ], [ -3.7555, 40.8582 ], [ -3.7559, 40.8586 ], [ -3.7571, 40.8588 ], [ -3.7571, 40.8589 ], [ -3.7569, 40.8589 ], [ -3.7569, 40.8593 ], [ -3.7568, 40.8596 ], [ -3.7566, 40.8596 ], [ -3.7565, 40.8602 ], [ -3.7564, 40.8601 ], [ -3.756, 40.8602 ], [ -3.7561, 40.8605 ], [ -3.7568, 40.8606 ], [ -3.7571, 40.8612 ], [ -3.757, 40.8613 ], [ -3.7576, 40.8617 ], [ -3.7577, 40.8619 ], [ -3.758, 40.862 ], [ -3.7591, 40.8614 ], [ -3.759, 40.8614 ], [ -3.7591, 40.8612 ], [ -3.7589, 40.8609 ], [ -3.7589, 40.8607 ], [ -3.7591, 40.8608 ], [ -3.7592, 40.8605 ], [ -3.7592, 40.8603 ], [ -3.759, 40.8602 ], [ -3.7591, 40.8596 ], [ -3.7596, 40.8599 ], [ -3.7601, 40.86 ], [ -3.7604, 40.8605 ], [ -3.7602, 40.8607 ], [ -3.7599, 40.8606 ], [ -3.7598, 40.8607 ], [ -3.7602, 40.8611 ], [ -3.76, 40.8613 ], [ -3.76, 40.8615 ], [ -3.7606, 40.8616 ], [ -3.7606, 40.8619 ], [ -3.761, 40.8621 ], [ -3.7613, 40.8621 ] ] ] } },
{ "type": "Feature", "properties": { "municipio": "Bustarviejo", "clasificacion": "urbanizable-sectorizado", "calificacion": "sin-asignar", "version": "vigente", "fuente": "SIT-CAM WFS — UsoDelSuelo:VPLA_V_CLASIFICACION (https://idem.comunidad.madrid/geosrvg/ows)", "fecha_dato": "2026-05-12", "ambito": "64118", "_raw_CD_SIGLAS": "SUBS", "_raw_DS_CLASIF_GEN": "Suelo de Reserva Urbana", "_raw_DS_CLASIF_DET": "Suelo de Reserva Urbana", "_raw_DS_DOCU": "NORMAS SUBSIDIARIAS", "_raw_DS_LEY": "E Ley 12/05/1956", "_raw_FC_AC": "2005-06-22", "_raw_NM_AREA_M2": 3801.5954427587199, "_cam_code": "028" }, "geometry": { "type": "Polygon", "coordinates": [ [ [ -3.7408, 40.8644 ], [ -3.7407, 40.865 ], [ -3.7409, 40.8656 ], [ -3.741, 40.8656 ], [ -3.7412, 40.8654 ], [ -3.7411, 40.8653 ], [ -3.7411, 40.8647 ], [ -3.741, 40.8645 ], [ -3.7408, 40.8644 ] ] ] } },
{ "type": "Feature", "properties": { "municipio": "Bustarviejo", "clasificacion": "urbanizable-sectorizado", "calificacion": "sin-asignar", "version": "vigente", "fuente": "SIT-CAM WFS — UsoDelSuelo:VPLA_V_CLASIFICACION (https://idem.comunidad.madrid/geosrvg/ows)", "fecha_dato": "2026-05-12", "ambito": "64118", "_raw_CD_SIGLAS": "SUBS", "_raw_DS_CLASIF_GEN": "Suelo de Reserva Urbana", "_raw_DS_CLASIF_DET": "Suelo de Reserva Urbana", "_raw_DS_DOCU": "NORMAS SUBSIDIARIAS", "_raw_DS_LEY": "E Ley 12/05/1956", "_raw_FC_AC": "2005-06-22", "_raw_NM_AREA_M2": 3619.8532894161699, "_cam_code": "028" }, "geometry": { "type": "Polygon", "coordinates": [ [ [ -3.7406, 40.8632 ], [ -3.7406, 40.8638 ], [ -3.7409, 40.8639 ], [ -3.7413, 40.8634 ], [ -3.741, 40.8632 ], [ -3.7406, 40.8632 ] ] ] } },
{ "type": "Feature", "properties": { "municipio": "Bustarviejo", "clasificacion": "urbanizable-sectorizado", "calificacion": "sin-asignar", "version": "vigente", "fuente": "SIT-CAM WFS — UsoDelSuelo:VPLA_V_CLASIFICACION (https://idem.comunidad.madrid/geosrvg/ows)", "fecha_dato": "2026-05-12", "ambito": "64118", "_raw_CD_SIGLAS": "SUBS", "_raw_DS_CLASIF_GEN": "Suelo de Reserva Urbana", "_raw_DS_CLASIF_DET": "Suelo de Reserva Urbana", "_raw_DS_DOCU": "NORMAS SUBSIDIARIAS", "_raw_DS_LEY": "E Ley 12/05/1956", "_raw_FC_AC": "2005-06-22", "_raw_NM_AREA_M2": 58844.2857693365, "_cam_code": "028" }, "geometry": { "type": "Polygon", "coordinates": [ [ [ -3.7587, 40.8522 ], [ -3.7586, 40.8527 ], [ -3.7587, 40.853 ], [ -3.759, 40.8532 ], [ -3.7589, 40.8534 ], [ -3.7591, 40.8537 ], [ -3.7596, 40.854 ], [ -3.7602, 40.8541 ], [ -3.7608, 40.8538 ], [ -3.7611, 40.8532 ], [ -3.7606, 40.8523 ], [ -3.7621, 40.8512 ], [ -3.7613, 40.8508 ], [ -3.7606, 40.8508 ], [ -3.7598, 40.8513 ], [ -3.7594, 40.8514 ], [ -3.759, 40.8518 ], [ -3.7591, 40.8522 ], [ -3.7589, 40.8521 ], [ -3.7587, 40.8522 ] ] ] } },
{ "type": "Feature", "properties": { "municipio": "Bustarviejo", "clasificacion": "urbanizable-sectorizado", "calificacion": "sin-asignar", "version": "vigente", "fuente": "SIT-CAM WFS — UsoDelSuelo:VPLA_V_CLASIFICACION (https://idem.comunidad.madrid/geosrvg/ows)", "fecha_dato": "2026-05-12", "ambito": "64118", "_raw_CD_SIGLAS": "SUBS", "_raw_DS_CLASIF_GEN": "Suelo de Reserva Urbana", "_raw_DS_CLASIF_DET": "Suelo de Reserva Urbana", "_raw_DS_DOCU": "NORMAS SUBSIDIARIAS", "_raw_DS_LEY": "E Ley 12/05/1956", "_raw_FC_AC": "2005-06-22", "_raw_NM_AREA_M2": 55827.436914267797, "_cam_code": "028" }, "geometry": { "type": "Polygon", "coordinates": [ [ [ -3.7621, 40.8582 ], [ -3.7623, 40.8582 ], [ -3.7623, 40.8581 ], [ -3.7626, 40.8582 ], [ -3.7638, 40.8581 ], [ -3.7642, 40.8582 ], [ -3.7644, 40.8575 ], [ -3.7645, 40.8575 ], [ -3.7644, 40.8572 ], [ -3.7645, 40.857 ], [ -3.7644, 40.8569 ], [ -3.7646, 40.8564 ], [ -3.7644, 40.8564 ], [ -3.764, 40.856 ], [ -3.7624, 40.8559 ], [ -3.762, 40.8556 ], [ -3.7617, 40.8558 ], [ -3.762, 40.856 ], [ -3.7616, 40.8564 ], [ -3.7621, 40.8567 ], [ -3.7614, 40.8575 ], [ -3.7621, 40.8582 ] ] ] } },
{ "type": "Feature", "properties": { "municipio": "Bustarviejo", "clasificacion": "urbanizable-sectorizado", "calificacion": "sin-asignar", "version": "vigente", "fuente": "SIT-CAM WFS — UsoDelSuelo:VPLA_V_CLASIFICACION (https://idem.comunidad.madrid/geosrvg/ows)", "fecha_dato": "2026-05-12", "ambito": "64118", "_raw_CD_SIGLAS": "SUBS", "_raw_DS_CLASIF_GEN": "Suelo de Reserva Urbana", "_raw_DS_CLASIF_DET": "Suelo de Reserva Urbana", "_raw_DS_DOCU": "NORMAS SUBSIDIARIAS", "_raw_DS_LEY": "E Ley 12/05/1956", "_raw_FC_AC": "2005-06-22", "_raw_NM_AREA_M2": 6241.9211811632103, "_cam_code": "028" }, "geometry": { "type": "Polygon", "coordinates": [ [ [ -3.7643, 40.8524 ], [ -3.7633, 40.8526 ], [ -3.7638, 40.8531 ], [ -3.7643, 40.853 ], [ -3.7646, 40.8527 ], [ -3.7643, 40.8524 ] ] ] } },
{ "type": "Feature", "properties": { "municipio": "Bustarviejo", "clasificacion": "urbanizable-sectorizado", "calificacion": "sin-asignar", "version": "vigente", "fuente": "SIT-CAM WFS — UsoDelSuelo:VPLA_V_CLASIFICACION (https://idem.comunidad.madrid/geosrvg/ows)", "fecha_dato": "2026-05-12", "ambito": "64118", "_raw_CD_SIGLAS": "SUBS", "_raw_DS_CLASIF_GEN": "Suelo de Reserva Urbana", "_raw_DS_CLASIF_DET": "Suelo de Reserva Urbana", "_raw_DS_DOCU": "NORMAS SUBSIDIARIAS", "_raw_DS_LEY": "E Ley 12/05/1956", "_raw_FC_AC": "2005-06-22", "_raw_NM_AREA_M2": 9079.7843791821306, "_cam_code": "028" }, "geometry": { "type": "Polygon", "coordinates": [ [ [ -3.7492, 40.8505 ], [ -3.7497, 40.852 ], [ -3.7499, 40.8521 ], [ -3.7504, 40.852 ], [ -3.7504, 40.8518 ], [ -3.75, 40.8512 ], [ -3.7499, 40.8506 ], [ -3.7492, 40.8505 ] ] ] } },
{ "type": "Feature", "properties": { "municipio": "Bustarviejo", "clasificacion": "urbanizable-sectorizado", "calificacion": "sin-asignar", "version": "vigente", "fuente": "SIT-CAM WFS — UsoDelSuelo:VPLA_V_CLASIFICACION (https://idem.comunidad.madrid/geosrvg/ows)", "fecha_dato": "2026-05-12", "ambito": "64118", "_raw_CD_SIGLAS": "SUBS", "_raw_DS_CLASIF_GEN": "Suelo de Reserva Urbana", "_raw_DS_CLASIF_DET": "Suelo de Reserva Urbana", "_raw_DS_DOCU": "NORMAS SUBSIDIARIAS", "_raw_DS_LEY": "E Ley 12/05/1956", "_raw_FC_AC": "2005-06-22", "_raw_NM_AREA_M2": 100449.83263626001, "_cam_code": "028" }, "geometry": { "type": "Polygon", "coordinates": [ [ [ -3.7598, 40.8491 ], [ -3.76, 40.8496 ], [ -3.7612, 40.8506 ], [ -3.7617, 40.85 ], [ -3.7616, 40.8498 ], [ -3.7617, 40.8495 ], [ -3.7621, 40.8493 ], [ -3.7624, 40.8489 ], [ -3.7626, 40.8489 ], [ -3.763, 40.8492 ], [ -3.7636, 40.849 ], [ -3.7639, 40.8478 ], [ -3.7632, 40.8475 ], [ -3.762, 40.8474 ], [ -3.7609, 40.8471 ], [ -3.7608, 40.8472 ], [ -3.7596, 40.8471 ], [ -3.7592, 40.8469 ], [ -3.7589, 40.8471 ], [ -3.7589, 40.8473 ], [ -3.7585, 40.848 ], [ -3.7588, 40.8484 ], [ -3.7598, 40.8491 ] ] ] } },
{ "type": "Feature", "properties": { "municipio": "Bustarviejo", "clasificacion": "urbanizable-sectorizado", "calificacion": "sin-asignar", "version": "vigente", "fuente": "SIT-CAM WFS — UsoDelSuelo:VPLA_V_CLASIFICACION (https://idem.comunidad.madrid/geosrvg/ows)", "fecha_dato": "2026-05-12", "ambito": "64118", "_raw_CD_SIGLAS": "SUBS", "_raw_DS_CLASIF_GEN": "Suelo de Reserva Urbana", "_raw_DS_CLASIF_DET": "Suelo de Reserva Urbana", "_raw_DS_DOCU": "NORMAS SUBSIDIARIAS", "_raw_DS_LEY": "E Ley 12/05/1956", "_raw_FC_AC": "2005-06-22", "_raw_NM_AREA_M2": 35137.066519522297, "_cam_code": "028" }, "geometry": { "type": "Polygon", "coordinates": [ [ [ -3.7504, 40.844 ], [ -3.7501, 40.8456 ], [ -3.7503, 40.8457 ], [ -3.7502, 40.8459 ], [ -3.7506, 40.846 ], [ -3.7517, 40.8454 ], [ -3.7517, 40.8451 ], [ -3.7526, 40.845 ], [ -3.7529, 40.8446 ], [ -3.7532, 40.8445 ], [ -3.7526, 40.8442 ], [ -3.752, 40.8436 ], [ -3.7518, 40.8436 ], [ -3.7516, 40.8437 ], [ -3.7516, 40.8439 ], [ -3.751, 40.8443 ], [ -3.7506, 40.8439 ], [ -3.7504, 40.844 ] ] ] } },
{ "type": "Feature", "properties": { "municipio": "Bustarviejo", "clasificacion": "urbanizable-sectorizado", "calificacion": "sin-asignar", "version": "vigente", "fuente": "SIT-CAM WFS — UsoDelSuelo:VPLA_V_CLASIFICACION (https://idem.comunidad.madrid/geosrvg/ows)", "fecha_dato": "2026-05-12", "ambito": "64118", "_raw_CD_SIGLAS": "SUBS", "_raw_DS_CLASIF_GEN": "Suelo de Reserva Urbana", "_raw_DS_CLASIF_DET": "Suelo de Reserva Urbana", "_raw_DS_DOCU": "NORMAS SUBSIDIARIAS", "_raw_DS_LEY": "E Ley 12/05/1956", "_raw_FC_AC": "2005-06-22", "_raw_NM_AREA_M2": 77073.603986260903, "_cam_code": "028" }, "geometry": { "type": "Polygon", "coordinates": [ [ [ -3.7104, 40.8559 ], [ -3.7121, 40.8567 ], [ -3.7118, 40.8572 ], [ -3.7121, 40.8577 ], [ -3.712, 40.8578 ], [ -3.7121, 40.8581 ], [ -3.7136, 40.8575 ], [ -3.7131, 40.8569 ], [ -3.7147, 40.8564 ], [ -3.715, 40.8561 ], [ -3.7166, 40.8564 ], [ -3.7168, 40.8559 ], [ -3.7171, 40.8557 ], [ -3.7157, 40.8553 ], [ -3.7129, 40.8551 ], [ -3.7116, 40.8557 ], [ -3.711, 40.8558 ], [ -3.7105, 40.8557 ], [ -3.7104, 40.8558 ], [ -3.7104, 40.8559 ] ] ] } },
{ "type": "Feature", "properties": { "municipio": "Bustarviejo", "clasificacion": "urbanizable-sectorizado", "calificacion": "sin-asignar", "version": "vigente", "fuente": "SIT-CAM WFS — UsoDelSuelo:VPLA_V_CLASIFICACION (https://idem.comunidad.madrid/geosrvg/ows)", "fecha_dato": "2026-05-12", "ambito": "64118", "_raw_CD_SIGLAS": "SUBS", "_raw_DS_CLASIF_GEN": "Suelo de Reserva Urbana", "_raw_DS_CLASIF_DET": "Suelo de Reserva Urbana", "_raw_DS_DOCU": "NORMAS SUBSIDIARIAS", "_raw_DS_LEY": "E Ley 12/05/1956", "_raw_FC_AC": "2005-06-22", "_raw_NM_AREA_M2": 17261.379640911, "_cam_code": "028" }, "geometry": { "type": "Polygon", "coordinates": [ [ [ -3.7322, 40.8557 ], [ -3.7325, 40.856 ], [ -3.7327, 40.8565 ], [ -3.7338, 40.8566 ], [ -3.7342, 40.8562 ], [ -3.7341, 40.8557 ], [ -3.7331, 40.8555 ], [ -3.7325, 40.8552 ], [ -3.732, 40.8554 ], [ -3.7323, 40.8557 ], [ -3.7322, 40.8557 ] ] ] } },
{ "type": "Feature", "properties": { "municipio": "Bustarviejo", "clasificacion": "urbanizable-sectorizado", "calificacion": "sin-asignar", "version": "vigente", "fuente": "SIT-CAM WFS — UsoDelSuelo:VPLA_V_CLASIFICACION (https://idem.comunidad.madrid/geosrvg/ows)", "fecha_dato": "2026-05-12", "ambito": "64118", "_raw_CD_SIGLAS": "SUBS", "_raw_DS_CLASIF_GEN": "Suelo de Reserva Urbana", "_raw_DS_CLASIF_DET": "Suelo de Reserva Urbana", "_raw_DS_DOCU": "NORMAS SUBSIDIARIAS", "_raw_DS_LEY": "E Ley 12/05/1956", "_raw_FC_AC": "2005-06-22", "_raw_NM_AREA_M2": 12302.606902493701, "_cam_code": "028" }, "geometry": { "type": "Polygon", "coordinates": [ [ [ -3.7346, 40.854 ], [ -3.7337, 40.8545 ], [ -3.7337, 40.8548 ], [ -3.7338, 40.8548 ], [ -3.7337, 40.8551 ], [ -3.7338, 40.8553 ], [ -3.7343, 40.8555 ], [ -3.7347, 40.8552 ], [ -3.735, 40.8542 ], [ -3.7347, 40.8542 ], [ -3.7346, 40.854 ] ] ] } },
{ "type": "Feature", "properties": { "municipio": "Bustarviejo", "clasificacion": "urbanizable-sectorizado", "calificacion": "sin-asignar", "version": "vigente", "fuente": "SIT-CAM WFS — UsoDelSuelo:VPLA_V_CLASIFICACION (https://idem.comunidad.madrid/geosrvg/ows)", "fecha_dato": "2026-05-12", "ambito": "64118", "_raw_CD_SIGLAS": "SUBS", "_raw_DS_CLASIF_GEN": "Suelo de Reserva Urbana", "_raw_DS_CLASIF_DET": "Suelo de Reserva Urbana", "_raw_DS_DOCU": "NORMAS SUBSIDIARIAS", "_raw_DS_LEY": "E Ley 12/05/1956", "_raw_FC_AC": "2005-06-22", "_raw_NM_AREA_M2": 3230.5800630162198, "_cam_code": "028" }, "geometry": { "type": "Polygon", "coordinates": [ [ [ -3.7518, 40.8539 ], [ -3.7519, 40.8541 ], [ -3.7518, 40.8542 ], [ -3.7521, 40.8545 ], [ -3.7527, 40.8543 ], [ -3.7527, 40.8541 ], [ -3.7525, 40.854 ], [ -3.7518, 40.8539 ] ] ] } },
{ "type": "Feature", "properties": { "municipio": "Bustarviejo", "clasificacion": "urbanizable-sectorizado", "calificacion": "sin-asignar", "version": "vigente", "fuente": "SIT-CAM WFS — UsoDelSuelo:VPLA_V_CLASIFICACION (https://idem.comunidad.madrid/geosrvg/ows)", "fecha_dato": "2026-05-12", "ambito": "64118", "_raw_CD_SIGLAS": "SUBS", "_raw_DS_CLASIF_GEN": "Suelo de Reserva Urbana", "_raw_DS_CLASIF_DET": "Suelo de Reserva Urbana", "_raw_DS_DOCU": "NORMAS SUBSIDIARIAS", "_raw_DS_LEY": "E Ley 12/05/1956", "_raw_FC_AC": "2005-06-22", "_raw_NM_AREA_M2": 12845.3703368888, "_cam_code": "028" }, "geometry": { "type": "Polygon", "coordinates": [ [ [ -3.7383, 40.8525 ], [ -3.7377, 40.8531 ], [ -3.7371, 40.8534 ], [ -3.7367, 40.8538 ], [ -3.7371, 40.854 ], [ -3.7375, 40.854 ], [ -3.7383, 40.8535 ], [ -3.7386, 40.8529 ], [ -3.7388, 40.8528 ], [ -3.7388, 40.8526 ], [ -3.7383, 40.8525 ] ] ] } },
{ "type": "Feature", "properties": { "municipio": "Bustarviejo", "clasificacion": "urbanizable-sectorizado", "calificacion": "sin-asignar", "version": "vigente", "fuente": "SIT-CAM WFS — UsoDelSuelo:VPLA_V_CLASIFICACION (https://idem.comunidad.madrid/geosrvg/ows)", "fecha_dato": "2026-05-12", "ambito": "64118", "_raw_CD_SIGLAS": "SUBS", "_raw_DS_CLASIF_GEN": "Suelo de Reserva Urbana", "_raw_DS_CLASIF_DET": "Suelo de Reserva Urbana", "_raw_DS_DOCU": "NORMAS SUBSIDIARIAS", "_raw_DS_LEY": "E Ley 12/05/1956", "_raw_FC_AC": "2005-06-22", "_raw_NM_AREA_M2": 24826.358764434201, "_cam_code": "028" }, "geometry": { "type": "Polygon", "coordinates": [ [ [ -3.7434, 40.8486 ], [ -3.7428, 40.8484 ], [ -3.7418, 40.85 ], [ -3.7417, 40.8504 ], [ -3.7414, 40.8505 ], [ -3.7412, 40.8509 ], [ -3.7413, 40.851 ], [ -3.7415, 40.8511 ], [ -3.7423, 40.8507 ], [ -3.7435, 40.8495 ], [ -3.7434, 40.8486 ] ] ] } },
{ "type": "Feature", "properties": { "municipio": "Bustarviejo", "clasificacion": "urbanizable-sectorizado", "calificacion": "sin-asignar", "version": "vigente", "fuente": "SIT-CAM WFS — UsoDelSuelo:VPLA_V_CLASIFICACION (https://idem.comunidad.madrid/geosrvg/ows)", "fecha_dato": "2026-05-12", "ambito": "64118", "_raw_CD_SIGLAS": "SUBS", "_raw_DS_CLASIF_GEN": "Suelo de Reserva Urbana", "_raw_DS_CLASIF_DET": "Suelo de Reserva Urbana", "_raw_DS_DOCU": "NORMAS SUBSIDIARIAS", "_raw_DS_LEY": "E Ley 12/05/1956", "_raw_FC_AC": "2005-06-22", "_raw_NM_AREA_M2": 236880.22957358, "_cam_code": "028" }, "geometry": { "type": "Polygon", "coordinates": [ [ [ -3.7522, 40.8502 ], [ -3.7523, 40.8505 ], [ -3.7528, 40.8507 ], [ -3.7546, 40.8498 ], [ -3.7547, 40.8497 ], [ -3.7546, 40.8493 ], [ -3.7555, 40.8491 ], [ -3.7556, 40.8487 ], [ -3.7563, 40.8487 ], [ -3.7573, 40.8485 ], [ -3.7574, 40.8483 ], [ -3.7562, 40.847 ], [ -3.7563, 40.8466 ], [ -3.7561, 40.8458 ], [ -3.7554, 40.8455 ], [ -3.755, 40.8451 ], [ -3.7547, 40.845 ], [ -3.7545, 40.8451 ], [ -3.7539, 40.845 ], [ -3.7536, 40.8452 ], [ -3.7534, 40.8451 ], [ -3.7537, 40.8449 ], [ -3.7536, 40.8446 ], [ -3.7532, 40.8446 ], [ -3.7526, 40.8452 ], [ -3.7518, 40.8457 ], [ -3.7513, 40.8466 ], [ -3.7508, 40.8471 ], [ -3.7508, 40.8473 ], [ -3.7516, 40.8477 ], [ -3.7516, 40.8479 ], [ -3.7512, 40.8478 ], [ -3.7506, 40.8483 ], [ -3.7502, 40.8493 ], [ -3.7509, 40.8501 ], [ -3.7523, 40.85 ], [ -3.7522, 40.8502 ] ] ] } }
]
}
