{
"type": "FeatureCollection",
"name": "vigente.full",
"features": [
{ "type": "Feature", "properties": { "municipio": "Robledo de Chavela", "clasificacion": "no-urbanizable-protegido", "calificacion": "sin-asignar", "version": "vigente", "fuente": "SIT-CAM WFS — UsoDelSuelo:VPLA_V_CLASIFICACION (https://idem.comunidad.madrid/geosrvg/ows)", "fecha_dato": "2026-05-12", "ambito": "13715", "_raw_CD_SIGLAS": "SNUP", "_raw_DS_CLASIF_GEN": "Suelo No Urbanizable Protegido", "_raw_DS_CLASIF_DET": "Suelo No Urbanizable de Protección Forestal", "_raw_DS_DOCU": "NORMAS SUBSIDIARIAS", "_raw_DS_LEY": "CM Ley 4/1984, E RD 1346/1976", "_raw_FC_AC": "1990-12-20", "_raw_NM_AREA_M2": 109373.263659566, "_cam_code": "125" }, "geometry": { "type": "Polygon", "coordinates": [ [ [ -4.2533, 40.5138 ], [ -4.2535, 40.5139 ], [ -4.2555, 40.5138 ], [ -4.2576, 40.5146 ], [ -4.2585, 40.5151 ], [ -4.2587, 40.5155 ], [ -4.2596, 40.5158 ], [ -4.2595, 40.5157 ], [ -4.2597, 40.5149 ], [ -4.2592, 40.5148 ], [ -4.2593, 40.5143 ], [ -4.2592, 40.5139 ], [ -4.2593, 40.5139 ], [ -4.2591, 40.5131 ], [ -4.2568, 40.5124 ], [ -4.2568, 40.5121 ], [ -4.2554, 40.5117 ], [ -4.2552, 40.5115 ], [ -4.2545, 40.5121 ], [ -4.2543, 40.5126 ], [ -4.2541, 40.5126 ], [ -4.2533, 40.5134 ], [ -4.2533, 40.5138 ] ] ] } },
{ "type": "Feature", "properties": { "municipio": "Robledo de Chavela", "clasificacion": "no-urbanizable-protegido", "calificacion": "sin-asignar", "version": "vigente", "fuente": "SIT-CAM WFS — UsoDelSuelo:VPLA_V_CLASIFICACION (https://idem.comunidad.madrid/geosrvg/ows)", "fecha_dato": "2026-05-12", "ambito": "13715", "_raw_CD_SIGLAS": "SNUP", "_raw_DS_CLASIF_GEN": "Suelo No Urbanizable Protegido", "_raw_DS_CLASIF_DET": "Suelo No Urbanizable de Protección-Agrícola-Ganadera", "_raw_DS_DOCU": "NORMAS SUBSIDIARIAS", "_raw_DS_LEY": "CM Ley 4/1984, E RD 1346/1976", "_raw_FC_AC": "1990-12-20", "_raw_NM_AREA_M2": 3974059.1027961299, "_cam_code": "125" }, "geometry": { "type": "Polygon", "coordinates": [ [ [ -4.242, 40.497 ], [ -4.2422, 40.4971 ], [ -4.2429, 40.4969 ], [ -4.243, 40.4971 ], [ -4.2445, 40.4953 ], [ -4.2466, 40.4932 ], [ -4.2488, 40.4917 ], [ -4.25, 40.4899 ], [ -4.2515, 40.4882 ], [ -4.2539, 40.4849 ], [ -4.2543, 40.4834 ], [ -4.2551, 40.4817 ], [ -4.2562, 40.4786 ], [ -4.2579, 40.4763 ], [ -4.2612, 40.4741 ], [ -4.2622, 40.4738 ], [ -4.266, 40.4713 ], [ -4.27, 40.4692 ], [ -4.2714, 40.468 ], [ -4.2753, 40.4657 ], [ -4.2764, 40.4648 ], [ -4.2692, 40.4657 ], [ -4.2658, 40.466 ], [ -4.2648, 40.4659 ], [ -4.2641, 40.4653 ], [ -4.2641, 40.4633 ], [ -4.2645, 40.4622 ], [ -4.2645, 40.4601 ], [ -4.263, 40.4592 ], [ -4.2622, 40.4589 ], [ -4.2609, 40.4588 ], [ -4.2574, 40.4591 ], [ -4.2569, 40.4595 ], [ -4.2564, 40.4614 ], [ -4.2565, 40.4627 ], [ -4.2563, 40.4635 ], [ -4.2547, 40.4655 ], [ -4.2538, 40.4676 ], [ -4.2533, 40.4698 ], [ -4.2533, 40.471 ], [ -4.2526, 40.4736 ], [ -4.2521, 40.4746 ], [ -4.2513, 40.4757 ], [ -4.2495, 40.4776 ], [ -4.2479, 40.4797 ], [ -4.245, 40.483 ], [ -4.2441, 40.4838 ], [ -4.2417, 40.4854 ], [ -4.2387, 40.4869 ], [ -4.2353, 40.4881 ], [ -4.2327, 40.4893 ], [ -4.2316, 40.4902 ], [ -4.2339, 40.4904 ], [ -4.2345, 40.4918 ], [ -4.2352, 40.4928 ], [ -4.2352, 40.4933 ], [ -4.2355, 40.4937 ], [ -4.2351, 40.4944 ], [ -4.2351, 40.4951 ], [ -4.2343, 40.4955 ], [ -4.2344, 40.4956 ], [ -4.2372, 40.4954 ], [ -4.2376, 40.4955 ], [ -4.2376, 40.4956 ], [ -4.2384, 40.4961 ], [ -4.2385, 40.496 ], [ -4.2385, 40.4952 ], [ -4.2389, 40.4947 ], [ -4.2391, 40.4947 ], [ -4.2391, 40.4948 ], [ -4.2399, 40.4952 ], [ -4.2403, 40.4953 ], [ -4.24, 40.4956 ], [ -4.2413, 40.4962 ], [ -4.2411, 40.4964 ], [ -4.2419, 40.4967 ], [ -4.242, 40.497 ] ] ] } },
{ "type": "Feature", "properties": { "municipio": "Robledo de Chavela", "clasificacion": "no-urbanizable-protegido", "calificacion": "sin-asignar", "version": "vigente", "fuente": "SIT-CAM WFS — UsoDelSuelo:VPLA_V_CLASIFICACION (https://idem.comunidad.madrid/geosrvg/ows)", "fecha_dato": "2026-05-12", "ambito": "13715", "_raw_CD_SIGLAS": "SNUP", "_raw_DS_CLASIF_GEN": "Suelo No Urbanizable Protegido", "_raw_DS_CLASIF_DET": "Suelo No Urbanizable de Protección Ecológica", "_raw_DS_DOCU": "NORMAS SUBSIDIARIAS", "_raw_DS_LEY": "CM Ley 4/1984, E RD 1346/1976", "_raw_FC_AC": "1990-12-20", "_raw_NM_AREA_M2": 733426.76633644197, "_cam_code": "125" }, "geometry": { "type": "Polygon", "coordinates": [ [ [ -4.2654, 40.4442 ], [ -4.2629, 40.4497 ], [ -4.264, 40.4492 ], [ -4.266, 40.448 ], [ -4.268, 40.4457 ], [ -4.2687, 40.4443 ], [ -4.2687, 40.4366 ], [ -4.2664, 40.4255 ], [ -4.2631, 40.4243 ], [ -4.2629, 40.425 ], [ -4.2629, 40.4263 ], [ -4.2638, 40.428 ], [ -4.2636, 40.4289 ], [ -4.2636, 40.4296 ], [ -4.2643, 40.4305 ], [ -4.2644, 40.4314 ], [ -4.2647, 40.4323 ], [ -4.2647, 40.4365 ], [ -4.2645, 40.4386 ], [ -4.265, 40.4392 ], [ -4.2665, 40.4399 ], [ -4.2662, 40.4403 ], [ -4.2656, 40.4406 ], [ -4.2666, 40.4415 ], [ -4.2655, 40.4431 ], [ -4.266, 40.4439 ], [ -4.2654, 40.4442 ] ] ] } },
{ "type": "Feature", "properties": { "municipio": "Robledo de Chavela", "clasificacion": "no-urbanizable-protegido", "calificacion": "sin-asignar", "version": "vigente", "fuente": "SIT-CAM WFS — UsoDelSuelo:VPLA_V_CLASIFICACION (https://idem.comunidad.madrid/geosrvg/ows)", "fecha_dato": "2026-05-12", "ambito": "13715", "_raw_CD_SIGLAS": "SNUP", "_raw_DS_CLASIF_GEN": "Suelo No Urbanizable Protegido", "_raw_DS_CLASIF_DET": "Suelo No Urbanizable de Protección Paisajística", "_raw_DS_DOCU": "NORMAS SUBSIDIARIAS", "_raw_DS_LEY": "CM Ley 4/1984, E RD 1346/1976", "_raw_FC_AC": "1990-12-20", "_raw_NM_AREA_M2": 935270.41816139303, "_cam_code": "125" }, "geometry": { "type": "Polygon", "coordinates": [ [ [ -4.315, 40.439 ], [ -4.3179, 40.4388 ], [ -4.3188, 40.4396 ], [ -4.3219, 40.4378 ], [ -4.3233, 40.4361 ], [ -4.3271, 40.4348 ], [ -4.3293, 40.4346 ], [ -4.3362, 40.4327 ], [ -4.3345, 40.432 ], [ -4.3335, 40.4312 ], [ -4.333, 40.4303 ], [ -4.3331, 40.4295 ], [ -4.3324, 40.4281 ], [ -4.331, 40.4279 ], [ -4.329, 40.4284 ], [ -4.3255, 40.4298 ], [ -4.3206, 40.431 ], [ -4.3187, 40.4348 ], [ -4.3175, 40.4365 ], [ -4.3168, 40.437 ], [ -4.3154, 40.4377 ], [ -4.315, 40.439 ] ] ] } },
{ "type": "Feature", "properties": { "municipio": "Robledo de Chavela", "clasificacion": "no-urbanizable-protegido", "calificacion": "sin-asignar", "version": "vigente", "fuente": "SIT-CAM WFS — UsoDelSuelo:VPLA_V_CLASIFICACION (https://idem.comunidad.madrid/geosrvg/ows)", "fecha_dato": "2026-05-12", "ambito": "13715", "_raw_CD_SIGLAS": "SNUP", "_raw_DS_CLASIF_GEN": "Suelo No Urbanizable Protegido", "_raw_DS_CLASIF_DET": "Suelo No Urbanizable de Protección Ecológica", "_raw_DS_DOCU": "NORMAS SUBSIDIARIAS", "_raw_DS_LEY": "CM Ley 4/1984, E RD 1346/1976", "_raw_FC_AC": "1990-12-20", "_raw_NM_AREA_M2": 339229.05757754098, "_cam_code": "125" }, "geometry": { "type": "Polygon", "coordinates": [ [ [ -4.2747, 40.5022 ], [ -4.2756, 40.5021 ], [ -4.2766, 40.5024 ], [ -4.2774, 40.5028 ], [ -4.2798, 40.5033 ], [ -4.2815, 40.5033 ], [ -4.282, 40.5031 ], [ -4.2826, 40.5031 ], [ -4.2832, 40.5029 ], [ -4.2837, 40.5022 ], [ -4.2836, 40.502 ], [ -4.2828, 40.5014 ], [ -4.2827, 40.5009 ], [ -4.2824, 40.5007 ], [ -4.282, 40.5001 ], [ -4.2819, 40.4996 ], [ -4.2822, 40.4993 ], [ -4.2827, 40.4992 ], [ -4.2843, 40.4982 ], [ -4.2842, 40.4973 ], [ -4.2836, 40.497 ], [ -4.2831, 40.497 ], [ -4.2815, 40.4976 ], [ -4.2808, 40.4976 ], [ -4.2806, 40.4973 ], [ -4.2793, 40.4977 ], [ -4.2782, 40.4984 ], [ -4.2776, 40.4991 ], [ -4.2753, 40.501 ], [ -4.2747, 40.5022 ] ] ] } },
{ "type": "Feature", "properties": { "municipio": "Robledo de Chavela", "clasificacion": "no-urbanizable-protegido", "calificacion": "sin-asignar", "version": "vigente", "fuente": "SIT-CAM WFS — UsoDelSuelo:VPLA_V_CLASIFICACION (https://idem.comunidad.madrid/geosrvg/ows)", "fecha_dato": "2026-05-12", "ambito": "13715", "_raw_CD_SIGLAS": "SNUP", "_raw_DS_CLASIF_GEN": "Suelo No Urbanizable Protegido", "_raw_DS_CLASIF_DET": "Suelo No Urbanizable de Protección Paisajística", "_raw_DS_DOCU": "NORMAS SUBSIDIARIAS", "_raw_DS_LEY": "CM Ley 4/1984, E RD 1346/1976", "_raw_FC_AC": "1990-12-20", "_raw_NM_AREA_M2": 2281493.24573211, "_cam_code": "125" }, "geometry": { "type": "Polygon", "coordinates": [ [ [ -4.2186, 40.5335 ], [ -4.2181, 40.5336 ], [ -4.2175, 40.5343 ], [ -4.2165, 40.5344 ], [ -4.2157, 40.535 ], [ -4.2153, 40.5351 ], [ -4.2148, 40.5356 ], [ -4.2146, 40.5356 ], [ -4.2146, 40.5357 ], [ -4.2139, 40.5361 ], [ -4.2132, 40.5368 ], [ -4.2128, 40.5375 ], [ -4.2129, 40.5379 ], [ -4.2128, 40.5385 ], [ -4.2116, 40.5399 ], [ -4.2113, 40.5409 ], [ -4.2112, 40.5409 ], [ -4.2111, 40.5415 ], [ -4.2104, 40.5422 ], [ -4.2102, 40.5428 ], [ -4.2102, 40.544 ], [ -4.2099, 40.5443 ], [ -4.2096, 40.5444 ], [ -4.2076, 40.5465 ], [ -4.2061, 40.5476 ], [ -4.2055, 40.5486 ], [ -4.2055, 40.5488 ], [ -4.2049, 40.5495 ], [ -4.2048, 40.5499 ], [ -4.2045, 40.5502 ], [ -4.204, 40.5504 ], [ -4.2039, 40.5507 ], [ -4.2038, 40.5507 ], [ -4.2037, 40.5515 ], [ -4.2024, 40.5529 ], [ -4.2018, 40.5538 ], [ -4.2015, 40.5549 ], [ -4.2008, 40.5555 ], [ -4.2003, 40.5565 ], [ -4.1971, 40.5589 ], [ -4.2136, 40.5551 ], [ -4.2189, 40.543 ], [ -4.2237, 40.5395 ], [ -4.2258, 40.5376 ], [ -4.2243, 40.5368 ], [ -4.2218, 40.5348 ], [ -4.2192, 40.5334 ], [ -4.2186, 40.5334 ], [ -4.2186, 40.5335 ] ] ] } },
{ "type": "Feature", "properties": { "municipio": "Robledo de Chavela", "clasificacion": "no-urbanizable-protegido", "calificacion": "sin-asignar", "version": "vigente", "fuente": "SIT-CAM WFS — UsoDelSuelo:VPLA_V_CLASIFICACION (https://idem.comunidad.madrid/geosrvg/ows)", "fecha_dato": "2026-05-12", "ambito": "13715", "_raw_CD_SIGLAS": "SNUP", "_raw_DS_CLASIF_GEN": "Suelo No Urbanizable Protegido", "_raw_DS_CLASIF_DET": "Suelo No Urbanizable de Protección Ecológica", "_raw_DS_DOCU": "NORMAS SUBSIDIARIAS", "_raw_DS_LEY": "CM Ley 4/1984, E RD 1346/1976", "_raw_FC_AC": "1990-12-20", "_raw_NM_AREA_M2": 1890664.5588581201, "_cam_code": "125" }, "geometry": { "type": "Polygon", "coordinates": [ [ [ -4.2102, 40.5315 ], [ -4.2095, 40.5329 ], [ -4.2093, 40.5344 ], [ -4.2087, 40.535 ], [ -4.208, 40.536 ], [ -4.2079, 40.5366 ], [ -4.2073, 40.5376 ], [ -4.2045, 40.5408 ], [ -4.2045, 40.541 ], [ -4.2042, 40.5412 ], [ -4.2039, 40.542 ], [ -4.2035, 40.5423 ], [ -4.2031, 40.5431 ], [ -4.2029, 40.5432 ], [ -4.2024, 40.5441 ], [ -4.2018, 40.5448 ], [ -4.2018, 40.5455 ], [ -4.2016, 40.5458 ], [ -4.2016, 40.5461 ], [ -4.2012, 40.5471 ], [ -4.2004, 40.5481 ], [ -4.2002, 40.549 ], [ -4.2003, 40.5502 ], [ -4.1998, 40.552 ], [ -4.1997, 40.5535 ], [ -4.1991, 40.5542 ], [ -4.1983, 40.5564 ], [ -4.1968, 40.559 ], [ -4.1988, 40.5577 ], [ -4.2003, 40.5565 ], [ -4.2008, 40.5555 ], [ -4.2015, 40.5549 ], [ -4.2018, 40.5538 ], [ -4.2024, 40.5529 ], [ -4.2037, 40.5515 ], [ -4.2038, 40.5507 ], [ -4.2039, 40.5507 ], [ -4.204, 40.5504 ], [ -4.2045, 40.5502 ], [ -4.2048, 40.5499 ], [ -4.2049, 40.5495 ], [ -4.2055, 40.5488 ], [ -4.2055, 40.5486 ], [ -4.2061, 40.5476 ], [ -4.2076, 40.5465 ], [ -4.2096, 40.5444 ], [ -4.2099, 40.5443 ], [ -4.2102, 40.544 ], [ -4.2102, 40.5428 ], [ -4.2104, 40.5422 ], [ -4.2111, 40.5415 ], [ -4.2112, 40.5409 ], [ -4.2113, 40.5409 ], [ -4.2116, 40.5399 ], [ -4.2128, 40.5385 ], [ -4.2128, 40.5383 ], [ -4.2129, 40.5383 ], [ -4.2128, 40.5375 ], [ -4.2132, 40.5368 ], [ -4.2139, 40.5361 ], [ -4.2146, 40.5357 ], [ -4.2146, 40.5356 ], [ -4.2148, 40.5356 ], [ -4.2153, 40.5351 ], [ -4.2157, 40.535 ], [ -4.2165, 40.5344 ], [ -4.2175, 40.5343 ], [ -4.2181, 40.5336 ], [ -4.2186, 40.5335 ], [ -4.2185, 40.5332 ], [ -4.2186, 40.5325 ], [ -4.2206, 40.5294 ], [ -4.2232, 40.5248 ], [ -4.2263, 40.5207 ], [ -4.2321, 40.5149 ], [ -4.2307, 40.5149 ], [ -4.2285, 40.5154 ], [ -4.2278, 40.516 ], [ -4.2259, 40.5182 ], [ -4.2229, 40.5208 ], [ -4.2206, 40.5238 ], [ -4.22, 40.5242 ], [ -4.2188, 40.5245 ], [ -4.2182, 40.5244 ], [ -4.2185, 40.5251 ], [ -4.2189, 40.5284 ], [ -4.2148, 40.531 ], [ -4.2137, 40.5315 ], [ -4.2118, 40.5317 ], [ -4.2102, 40.5315 ] ] ] } },
{ "type": "Feature", "properties": { "municipio": "Robledo de Chavela", "clasificacion": "no-urbanizable-protegido", "calificacion": "sin-asignar", "version": "vigente", "fuente": "SIT-CAM WFS — UsoDelSuelo:VPLA_V_CLASIFICACION (https://idem.comunidad.madrid/geosrvg/ows)", "fecha_dato": "2026-05-12", "ambito": "13715", "_raw_CD_SIGLAS": "SNUP", "_raw_DS_CLASIF_GEN": "Suelo No Urbanizable Protegido", "_raw_DS_CLASIF_DET": "Suelo No Urbanizable de Protección-Agrícola-Ganadera", "_raw_DS_DOCU": "NORMAS SUBSIDIARIAS", "_raw_DS_LEY": "CM Ley 4/1984, E RD 1346/1976", "_raw_FC_AC": "1990-12-20", "_raw_NM_AREA_M2": 1092048.5596729999, "_cam_code": "125" }, "geometry": { "type": "Polygon", "coordinates": [ [ [ -4.2182, 40.5244 ], [ -4.2188, 40.5245 ], [ -4.22, 40.5242 ], [ -4.2206, 40.5238 ], [ -4.2229, 40.5208 ], [ -4.2259, 40.5182 ], [ -4.2278, 40.516 ], [ -4.2285, 40.5154 ], [ -4.2307, 40.5149 ], [ -4.2321, 40.5149 ], [ -4.2332, 40.5137 ], [ -4.2341, 40.5121 ], [ -4.2342, 40.5096 ], [ -4.2341, 40.5097 ], [ -4.2339, 40.5095 ], [ -4.2325, 40.5096 ], [ -4.2313, 40.5103 ], [ -4.2305, 40.5109 ], [ -4.2303, 40.5112 ], [ -4.2299, 40.5111 ], [ -4.2298, 40.5115 ], [ -4.23, 40.5115 ], [ -4.2298, 40.5121 ], [ -4.229, 40.5126 ], [ -4.2287, 40.5125 ], [ -4.2287, 40.5123 ], [ -4.2278, 40.5126 ], [ -4.2284, 40.5122 ], [ -4.2283, 40.5121 ], [ -4.2277, 40.5126 ], [ -4.2262, 40.5134 ], [ -4.2248, 40.5125 ], [ -4.2234, 40.5124 ], [ -4.2226, 40.5121 ], [ -4.2219, 40.5115 ], [ -4.2213, 40.5106 ], [ -4.2207, 40.5102 ], [ -4.2203, 40.5101 ], [ -4.2196, 40.5104 ], [ -4.219, 40.5109 ], [ -4.2185, 40.5115 ], [ -4.218, 40.5132 ], [ -4.2174, 40.514 ], [ -4.2171, 40.5147 ], [ -4.2182, 40.5168 ], [ -4.2184, 40.5179 ], [ -4.2182, 40.5189 ], [ -4.2173, 40.5204 ], [ -4.2174, 40.5221 ], [ -4.2179, 40.5231 ], [ -4.2182, 40.5244 ] ] ] } },
{ "type": "Feature", "properties": { "municipio": "Robledo de Chavela", "clasificacion": "no-urbanizable-protegido", "calificacion": "sin-asignar", "version": "vigente", "fuente": "SIT-CAM WFS — UsoDelSuelo:VPLA_V_CLASIFICACION (https://idem.comunidad.madrid/geosrvg/ows)", "fecha_dato": "2026-05-12", "ambito": "13715", "_raw_CD_SIGLAS": "SNUP", "_raw_DS_CLASIF_GEN": "Suelo No Urbanizable Protegido", "_raw_DS_CLASIF_DET": "Suelo No Urbanizable de Protección Paisajística", "_raw_DS_DOCU": "NORMAS SUBSIDIARIAS", "_raw_DS_LEY": "CM Ley 4/1984, E RD 1346/1976", "_raw_FC_AC": "1990-12-20", "_raw_NM_AREA_M2": 7709930.5493390104, "_cam_code": "125" }, "geometry": { "type": "Polygon", "coordinates": [ [ [ -4.224, 40.5121 ], [ -4.2259, 40.5124 ], [ -4.2259, 40.5125 ], [ -4.2267, 40.5122 ], [ -4.2272, 40.5118 ], [ -4.2283, 40.5103 ], [ -4.2294, 40.5081 ], [ -4.2307, 40.5073 ], [ -4.2305, 40.5072 ], [ -4.2301, 40.5064 ], [ -4.2302, 40.5053 ], [ -4.2301, 40.5053 ], [ -4.2301, 40.5031 ], [ -4.2299, 40.5026 ], [ -4.2299, 40.5021 ], [ -4.2301, 40.5015 ], [ -4.2305, 40.5015 ], [ -4.2306, 40.5011 ], [ -4.2305, 40.5006 ], [ -4.2303, 40.5004 ], [ -4.2303, 40.4997 ], [ -4.2305, 40.4995 ], [ -4.2312, 40.4995 ], [ -4.2316, 40.4974 ], [ -4.232, 40.4972 ], [ -4.2326, 40.4964 ], [ -4.2328, 40.4963 ], [ -4.2324, 40.496 ], [ -4.2326, 40.495 ], [ -4.2319, 40.4948 ], [ -4.2309, 40.4942 ], [ -4.2302, 40.4936 ], [ -4.2297, 40.4927 ], [ -4.2299, 40.491 ], [ -4.2298, 40.4907 ], [ -4.2298, 40.4889 ], [ -4.2302, 40.4879 ], [ -4.23, 40.4864 ], [ -4.2306, 40.4853 ], [ -4.2311, 40.4837 ], [ -4.2346, 40.4818 ], [ -4.2383, 40.4771 ], [ -4.241, 40.4748 ], [ -4.2417, 40.4739 ], [ -4.2441, 40.4725 ], [ -4.2473, 40.4683 ], [ -4.2499, 40.4652 ], [ -4.2512, 40.4632 ], [ -4.2557, 40.457 ], [ -4.2586, 40.4539 ], [ -4.2599, 40.4522 ], [ -4.2606, 40.4495 ], [ -4.2636, 40.448 ], [ -4.2654, 40.4442 ], [ -4.266, 40.4439 ], [ -4.2655, 40.4431 ], [ -4.2666, 40.4415 ], [ -4.2656, 40.4406 ], [ -4.2662, 40.4403 ], [ -4.2665, 40.4399 ], [ -4.265, 40.4392 ], [ -4.2645, 40.4386 ], [ -4.2647, 40.4365 ], [ -4.2647, 40.4326 ], [ -4.2635, 40.4339 ], [ -4.2629, 40.4341 ], [ -4.2617, 40.4342 ], [ -4.2617, 40.4341 ], [ -4.2614, 40.4341 ], [ -4.261, 40.4337 ], [ -4.2607, 40.4329 ], [ -4.2605, 40.4327 ], [ -4.2605, 40.4324 ], [ -4.2604, 40.4324 ], [ -4.2593, 40.4329 ], [ -4.2576, 40.4341 ], [ -4.2548, 40.4357 ], [ -4.2546, 40.4367 ], [ -4.2551, 40.4383 ], [ -4.2548, 40.4388 ], [ -4.2545, 40.4408 ], [ -4.2541, 40.4424 ], [ -4.254, 40.4441 ], [ -4.2536, 40.4446 ], [ -4.2535, 40.4451 ], [ -4.2528, 40.4459 ], [ -4.2509, 40.4496 ], [ -4.2502, 40.4514 ], [ -4.2499, 40.4518 ], [ -4.2493, 40.4536 ], [ -4.2474, 40.456 ], [ -4.2465, 40.4582 ], [ -4.245, 40.4601 ], [ -4.244, 40.4616 ], [ -4.243, 40.4635 ], [ -4.2412, 40.4656 ], [ -4.2405, 40.4662 ], [ -4.2396, 40.4675 ], [ -4.239, 40.4681 ], [ -4.237, 40.4696 ], [ -4.2363, 40.4707 ], [ -4.2344, 40.4721 ], [ -4.2336, 40.4725 ], [ -4.2331, 40.4726 ], [ -4.2326, 40.4724 ], [ -4.2317, 40.4701 ], [ -4.2313, 40.4699 ], [ -4.2304, 40.47 ], [ -4.2296, 40.4704 ], [ -4.229, 40.4712 ], [ -4.2281, 40.4717 ], [ -4.227, 40.4718 ], [ -4.2264, 40.4715 ], [ -4.2253, 40.4716 ], [ -4.2245, 40.472 ], [ -4.2235, 40.4721 ], [ -4.2231, 40.4719 ], [ -4.2228, 40.472 ], [ -4.2222, 40.4739 ], [ -4.2223, 40.4751 ], [ -4.2227, 40.4758 ], [ -4.2232, 40.4762 ], [ -4.2238, 40.4766 ], [ -4.2248, 40.4767 ], [ -4.2254, 40.4772 ], [ -4.2258, 40.4785 ], [ -4.2257, 40.4796 ], [ -4.2248, 40.4827 ], [ -4.2252, 40.4841 ], [ -4.2242, 40.4851 ], [ -4.2229, 40.4885 ], [ -4.222, 40.4902 ], [ -4.222, 40.4907 ], [ -4.221, 40.492 ], [ -4.2207, 40.4927 ], [ -4.2205, 40.4949 ], [ -4.2207, 40.4957 ], [ -4.2206, 40.4978 ], [ -4.2201, 40.4997 ], [ -4.2173, 40.5033 ], [ -4.2142, 40.5063 ], [ -4.2136, 40.5074 ], [ -4.2137, 40.5081 ], [ -4.2142, 40.5088 ], [ -4.216, 40.5086 ], [ -4.2169, 40.5082 ], [ -4.2186, 40.5068 ], [ -4.2204, 40.506 ], [ -4.2216, 40.5061 ], [ -4.2213, 40.5067 ], [ -4.2213, 40.5075 ], [ -4.2208, 40.5088 ], [ -4.2202, 40.5093 ], [ -4.22, 40.5097 ], [ -4.2203, 40.5101 ], [ -4.2207, 40.5102 ], [ -4.2213, 40.5106 ], [ -4.2219, 40.5115 ], [ -4.2226, 40.5121 ], [ -4.2234, 40.5124 ], [ -4.224, 40.5124 ], [ -4.224, 40.5121 ] ] ] } },
{ "type": "Feature", "properties": { "municipio": "Robledo de Chavela", "clasificacion": "no-urbanizable-protegido", "calificacion": "sin-asignar", "version": "vigente", "fuente": "SIT-CAM WFS — UsoDelSuelo:VPLA_V_CLASIFICACION (https://idem.comunidad.madrid/geosrvg/ows)", "fecha_dato": "2026-05-12", "ambito": "13715", "_raw_CD_SIGLAS": "SNUP", "_raw_DS_CLASIF_GEN": "Suelo No Urbanizable Protegido", "_raw_DS_CLASIF_DET": "Suelo No Urbanizable de Protección-Agrícola-Ganadera", "_raw_DS_DOCU": "NORMAS SUBSIDIARIAS", "_raw_DS_LEY": "CM Ley 4/1984, E RD 1346/1976", "_raw_FC_AC": "1990-12-20", "_raw_NM_AREA_M2": 931633.65734243905, "_cam_code": "125" }, "geometry": { "type": "Polygon", "coordinates": [ [ [ -4.1628, 40.5129 ], [ -4.1644, 40.5132 ], [ -4.1685, 40.5145 ], [ -4.1734, 40.5154 ], [ -4.1754, 40.5164 ], [ -4.1766, 40.5166 ], [ -4.1773, 40.5163 ], [ -4.1776, 40.5157 ], [ -4.1779, 40.5144 ], [ -4.1785, 40.5128 ], [ -4.1793, 40.511 ], [ -4.1801, 40.5103 ], [ -4.1805, 40.5094 ], [ -4.1799, 40.5084 ], [ -4.1791, 40.5077 ], [ -4.1791, 40.5074 ], [ -4.1777, 40.5084 ], [ -4.1726, 40.5082 ], [ -4.1676, 40.5087 ], [ -4.1643, 40.5094 ], [ -4.1638, 40.5103 ], [ -4.1636, 40.5117 ], [ -4.1628, 40.5129 ] ] ] } },
{ "type": "Feature", "properties": { "municipio": "Robledo de Chavela", "clasificacion": "no-urbanizable-protegido", "calificacion": "sin-asignar", "version": "vigente", "fuente": "SIT-CAM WFS — UsoDelSuelo:VPLA_V_CLASIFICACION (https://idem.comunidad.madrid/geosrvg/ows)", "fecha_dato": "2026-05-12", "ambito": "13715", "_raw_CD_SIGLAS": "SNUP", "_raw_DS_CLASIF_GEN": "Suelo No Urbanizable Protegido", "_raw_DS_CLASIF_DET": "Suelo No Urbanizable de Protección-Agrícola-Ganadera", "_raw_DS_DOCU": "NORMAS SUBSIDIARIAS", "_raw_DS_LEY": "CM Ley 4/1984, E RD 1346/1976", "_raw_FC_AC": "1990-12-20", "_raw_NM_AREA_M2": 497228.91383131401, "_cam_code": "125" }, "geometry": { "type": "Polygon", "coordinates": [ [ [ -4.1862, 40.512 ], [ -4.1844, 40.5122 ], [ -4.1841, 40.5126 ], [ -4.185, 40.5136 ], [ -4.1861, 40.514 ], [ -4.1913, 40.5146 ], [ -4.193, 40.5151 ], [ -4.1947, 40.516 ], [ -4.1965, 40.5173 ], [ -4.1986, 40.5184 ], [ -4.2004, 40.5198 ], [ -4.2013, 40.521 ], [ -4.2023, 40.5184 ], [ -4.2032, 40.5155 ], [ -4.203, 40.5147 ], [ -4.2021, 40.5149 ], [ -4.2003, 40.515 ], [ -4.1974, 40.5144 ], [ -4.196, 40.5137 ], [ -4.1929, 40.5132 ], [ -4.1921, 40.5128 ], [ -4.1877, 40.512 ], [ -4.1862, 40.512 ] ] ] } },
{ "type": "Feature", "properties": { "municipio": "Robledo de Chavela", "clasificacion": "no-urbanizable-protegido", "calificacion": "sin-asignar", "version": "vigente", "fuente": "SIT-CAM WFS — UsoDelSuelo:VPLA_V_CLASIFICACION (https://idem.comunidad.madrid/geosrvg/ows)", "fecha_dato": "2026-05-12", "ambito": "13715", "_raw_CD_SIGLAS": "SNUP", "_raw_DS_CLASIF_GEN": "Suelo No Urbanizable Protegido", "_raw_DS_CLASIF_DET": "Suelo No Urbanizable de Protección Ecológica", "_raw_DS_DOCU": "NORMAS SUBSIDIARIAS", "_raw_DS_LEY": "CM Ley 4/1984, E RD 1346/1976", "_raw_FC_AC": "1990-12-20", "_raw_NM_AREA_M2": 6910281.4295606399, "_cam_code": "125" }, "geometry": { "type": "Polygon", "coordinates": [ [ [ -4.1323, 40.5187 ], [ -4.14, 40.5222 ], [ -4.1419, 40.5223 ], [ -4.143, 40.5213 ], [ -4.1429, 40.521 ], [ -4.1431, 40.5208 ], [ -4.144, 40.5212 ], [ -4.1441, 40.5214 ], [ -4.1446, 40.5216 ], [ -4.1449, 40.5219 ], [ -4.1459, 40.5217 ], [ -4.1471, 40.5217 ], [ -4.1471, 40.5218 ], [ -4.1487, 40.5217 ], [ -4.1502, 40.5224 ], [ -4.1506, 40.524 ], [ -4.1509, 40.5247 ], [ -4.1508, 40.5271 ], [ -4.1506, 40.5279 ], [ -4.1508, 40.5285 ], [ -4.1508, 40.5292 ], [ -4.151, 40.5295 ], [ -4.1517, 40.5301 ], [ -4.152, 40.5302 ], [ -4.1522, 40.5305 ], [ -4.1531, 40.5312 ], [ -4.1539, 40.5315 ], [ -4.1557, 40.5309 ], [ -4.1569, 40.5309 ], [ -4.1584, 40.5307 ], [ -4.1605, 40.5304 ], [ -4.1622, 40.53 ], [ -4.1646, 40.5297 ], [ -4.1698, 40.5298 ], [ -4.1745, 40.5303 ], [ -4.1755, 40.5301 ], [ -4.1778, 40.5288 ], [ -4.1794, 40.5282 ], [ -4.1806, 40.528 ], [ -4.1826, 40.5274 ], [ -4.1854, 40.5258 ], [ -4.1899, 40.5239 ], [ -4.1922, 40.5235 ], [ -4.1959, 40.5225 ], [ -4.2011, 40.5217 ], [ -4.2013, 40.521 ], [ -4.2004, 40.5198 ], [ -4.1986, 40.5184 ], [ -4.1965, 40.5173 ], [ -4.1947, 40.516 ], [ -4.193, 40.5151 ], [ -4.1913, 40.5146 ], [ -4.1861, 40.514 ], [ -4.185, 40.5136 ], [ -4.1841, 40.5126 ], [ -4.1844, 40.5122 ], [ -4.1862, 40.512 ], [ -4.1858, 40.5117 ], [ -4.1857, 40.5107 ], [ -4.1859, 40.5091 ], [ -4.1864, 40.5082 ], [ -4.1868, 40.5062 ], [ -4.1865, 40.5042 ], [ -4.1864, 40.5024 ], [ -4.1804, 40.5063 ], [ -4.1791, 40.5074 ], [ -4.1791, 40.5077 ], [ -4.1799, 40.5084 ], [ -4.1805, 40.5094 ], [ -4.1801, 40.5103 ], [ -4.1793, 40.511 ], [ -4.1785, 40.5128 ], [ -4.1779, 40.5144 ], [ -4.1776, 40.5157 ], [ -4.1773, 40.5163 ], [ -4.1766, 40.5166 ], [ -4.1754, 40.5164 ], [ -4.1734, 40.5154 ], [ -4.1685, 40.5145 ], [ -4.1644, 40.5132 ], [ -4.1628, 40.5129 ], [ -4.1628, 40.513 ], [ -4.1605, 40.5139 ], [ -4.1599, 40.5146 ], [ -4.1594, 40.5156 ], [ -4.1585, 40.5166 ], [ -4.1566, 40.5181 ], [ -4.155, 40.519 ], [ -4.1539, 40.519 ], [ -4.1493, 40.5182 ], [ -4.1447, 40.5177 ], [ -4.1417, 40.5175 ], [ -4.1383, 40.5176 ], [ -4.1361, 40.517 ], [ -4.1328, 40.518 ], [ -4.1323, 40.5187 ] ] ] } },
{ "type": "Feature", "properties": { "municipio": "Robledo de Chavela", "clasificacion": "no-urbanizable-protegido", "calificacion": "sin-asignar", "version": "vigente", "fuente": "SIT-CAM WFS — UsoDelSuelo:VPLA_V_CLASIFICACION (https://idem.comunidad.madrid/geosrvg/ows)", "fecha_dato": "2026-05-12", "ambito": "13715", "_raw_CD_SIGLAS": "SNUP", "_raw_DS_CLASIF_GEN": "Suelo No Urbanizable Protegido", "_raw_DS_CLASIF_DET": "Suelo No Urbanizable de Protección-Agrícola-Ganadera", "_raw_DS_DOCU": "NORMAS SUBSIDIARIAS", "_raw_DS_LEY": "CM Ley 4/1984, E RD 1346/1976", "_raw_FC_AC": "1990-12-20", "_raw_NM_AREA_M2": 1438459.4003655401, "_cam_code": "125" }, "geometry": { "type": "Polygon", "coordinates": [ [ [ -4.2081, 40.4982 ], [ -4.207, 40.4996 ], [ -4.2066, 40.5011 ], [ -4.2061, 40.5043 ], [ -4.2052, 40.5057 ], [ -4.205, 40.5071 ], [ -4.2039, 40.5093 ], [ -4.203, 40.5121 ], [ -4.208, 40.5114 ], [ -4.2077, 40.5105 ], [ -4.2082, 40.5089 ], [ -4.2091, 40.5073 ], [ -4.2111, 40.5026 ], [ -4.2126, 40.5007 ], [ -4.2158, 40.4983 ], [ -4.2164, 40.4972 ], [ -4.2157, 40.4922 ], [ -4.2157, 40.4905 ], [ -4.216, 40.4895 ], [ -4.2159, 40.4879 ], [ -4.216, 40.486 ], [ -4.2162, 40.4853 ], [ -4.2157, 40.4849 ], [ -4.2143, 40.4854 ], [ -4.2141, 40.4859 ], [ -4.2132, 40.4862 ], [ -4.2121, 40.4863 ], [ -4.2115, 40.4862 ], [ -4.2111, 40.4863 ], [ -4.2108, 40.4865 ], [ -4.2106, 40.4869 ], [ -4.2098, 40.4874 ], [ -4.2097, 40.4881 ], [ -4.2098, 40.4889 ], [ -4.2097, 40.489 ], [ -4.2092, 40.489 ], [ -4.209, 40.4892 ], [ -4.2092, 40.4898 ], [ -4.2091, 40.4901 ], [ -4.2087, 40.4904 ], [ -4.2087, 40.4909 ], [ -4.2084, 40.4914 ], [ -4.2085, 40.4929 ], [ -4.2088, 40.494 ], [ -4.2088, 40.496 ], [ -4.2086, 40.4965 ], [ -4.2086, 40.4969 ], [ -4.2082, 40.4976 ], [ -4.2081, 40.4982 ] ] ] } },
{ "type": "Feature", "properties": { "municipio": "Robledo de Chavela", "clasificacion": "no-urbanizable-protegido", "calificacion": "sin-asignar", "version": "vigente", "fuente": "SIT-CAM WFS — UsoDelSuelo:VPLA_V_CLASIFICACION (https://idem.comunidad.madrid/geosrvg/ows)", "fecha_dato": "2026-05-12", "ambito": "13715", "_raw_CD_SIGLAS": "SNUP", "_raw_DS_CLASIF_GEN": "Suelo No Urbanizable Protegido", "_raw_DS_CLASIF_DET": "Suelo No Urbanizable de Protección-Agrícola-Ganadera", "_raw_DS_DOCU": "NORMAS SUBSIDIARIAS", "_raw_DS_LEY": "CM Ley 4/1984, E RD 1346/1976", "_raw_FC_AC": "1990-12-20", "_raw_NM_AREA_M2": 617111.33347046503, "_cam_code": "125" }, "geometry": { "type": "Polygon", "coordinates": [ [ [ -4.2573, 40.4112 ], [ -4.2562, 40.4121 ], [ -4.2543, 40.4151 ], [ -4.253, 40.4169 ], [ -4.2523, 40.4186 ], [ -4.252, 40.4209 ], [ -4.2516, 40.4221 ], [ -4.2512, 40.4228 ], [ -4.2504, 40.4236 ], [ -4.25, 40.4242 ], [ -4.2497, 40.4254 ], [ -4.2484, 40.428 ], [ -4.2511, 40.4274 ], [ -4.2521, 40.4269 ], [ -4.2537, 40.4254 ], [ -4.2548, 40.4237 ], [ -4.2556, 40.4217 ], [ -4.257, 40.4206 ], [ -4.2574, 40.4194 ], [ -4.2579, 40.4161 ], [ -4.2586, 40.4149 ], [ -4.2587, 40.4138 ], [ -4.259, 40.4132 ], [ -4.2573, 40.4112 ] ] ] } },
{ "type": "Feature", "properties": { "municipio": "Robledo de Chavela", "clasificacion": "no-urbanizable-protegido", "calificacion": "sin-asignar", "version": "vigente", "fuente": "SIT-CAM WFS — UsoDelSuelo:VPLA_V_CLASIFICACION (https://idem.comunidad.madrid/geosrvg/ows)", "fecha_dato": "2026-05-12", "ambito": "13715", "_raw_CD_SIGLAS": "SNUP", "_raw_DS_CLASIF_GEN": "Suelo No Urbanizable Protegido", "_raw_DS_CLASIF_DET": "Suelo No Urbanizable de Protección Ecológica", "_raw_DS_DOCU": "NORMAS SUBSIDIARIAS", "_raw_DS_LEY": "CM Ley 4/1984, E RD 1346/1976", "_raw_FC_AC": "1990-12-20", "_raw_NM_AREA_M2": 939956.11782302801, "_cam_code": "125" }, "geometry": { "type": "Polygon", "coordinates": [ [ [ -4.2604, 40.4324 ], [ -4.2605, 40.4324 ], [ -4.2605, 40.4327 ], [ -4.2607, 40.4329 ], [ -4.261, 40.4337 ], [ -4.2614, 40.4341 ], [ -4.2617, 40.4341 ], [ -4.2617, 40.4342 ], [ -4.2629, 40.4341 ], [ -4.2635, 40.4339 ], [ -4.2647, 40.4326 ], [ -4.2643, 40.4305 ], [ -4.2636, 40.4296 ], [ -4.2636, 40.4289 ], [ -4.2638, 40.428 ], [ -4.2629, 40.4263 ], [ -4.2629, 40.425 ], [ -4.2631, 40.4243 ], [ -4.2625, 40.4242 ], [ -4.2628, 40.4195 ], [ -4.2615, 40.4163 ], [ -4.2601, 40.4147 ], [ -4.259, 40.4132 ], [ -4.2587, 40.4138 ], [ -4.2586, 40.4149 ], [ -4.2579, 40.4161 ], [ -4.2574, 40.4194 ], [ -4.257, 40.4206 ], [ -4.2556, 40.4217 ], [ -4.255, 40.423 ], [ -4.2549, 40.4235 ], [ -4.2554, 40.4247 ], [ -4.2596, 40.4286 ], [ -4.2594, 40.4312 ], [ -4.26, 40.4315 ], [ -4.2604, 40.4324 ] ] ] } },
{ "type": "Feature", "properties": { "municipio": "Robledo de Chavela", "clasificacion": "no-urbanizable-protegido", "calificacion": "sin-asignar", "version": "vigente", "fuente": "SIT-CAM WFS — UsoDelSuelo:VPLA_V_CLASIFICACION (https://idem.comunidad.madrid/geosrvg/ows)", "fecha_dato": "2026-05-12", "ambito": "13715", "_raw_CD_SIGLAS": "SNUP", "_raw_DS_CLASIF_GEN": "Suelo No Urbanizable Protegido", "_raw_DS_CLASIF_DET": "Suelo No Urbanizable de Protección-Agrícola-Ganadera", "_raw_DS_DOCU": "NORMAS SUBSIDIARIAS", "_raw_DS_LEY": "CM Ley 4/1984, E RD 1346/1976", "_raw_FC_AC": "1990-12-20", "_raw_NM_AREA_M2": 2814423.6549708699, "_cam_code": "125" }, "geometry": { "type": "Polygon", "coordinates": [ [ [ -4.219, 40.4576 ], [ -4.2173, 40.4593 ], [ -4.2167, 40.4613 ], [ -4.2166, 40.4621 ], [ -4.2173, 40.4634 ], [ -4.2177, 40.4646 ], [ -4.2176, 40.4656 ], [ -4.2181, 40.4664 ], [ -4.2195, 40.4671 ], [ -4.2211, 40.4674 ], [ -4.2221, 40.4668 ], [ -4.2233, 40.4658 ], [ -4.2235, 40.4644 ], [ -4.2242, 40.4627 ], [ -4.2255, 40.4605 ], [ -4.2254, 40.4596 ], [ -4.2245, 40.4584 ], [ -4.2245, 40.4577 ], [ -4.2263, 40.456 ], [ -4.2297, 40.4544 ], [ -4.2313, 40.4542 ], [ -4.2323, 40.4546 ], [ -4.233, 40.4546 ], [ -4.2337, 40.4555 ], [ -4.2354, 40.4565 ], [ -4.2368, 40.4565 ], [ -4.2378, 40.4559 ], [ -4.2378, 40.4552 ], [ -4.2363, 40.4509 ], [ -4.2362, 40.4494 ], [ -4.2372, 40.4481 ], [ -4.2388, 40.4477 ], [ -4.2404, 40.4471 ], [ -4.241, 40.4466 ], [ -4.2416, 40.4447 ], [ -4.2424, 40.4429 ], [ -4.244, 40.4399 ], [ -4.2474, 40.4365 ], [ -4.2483, 40.4351 ], [ -4.248, 40.4347 ], [ -4.2465, 40.4307 ], [ -4.2442, 40.4317 ], [ -4.2436, 40.4325 ], [ -4.2432, 40.4332 ], [ -4.2427, 40.4359 ], [ -4.2422, 40.4369 ], [ -4.2388, 40.4413 ], [ -4.2377, 40.442 ], [ -4.2321, 40.4437 ], [ -4.2303, 40.4444 ], [ -4.2292, 40.4451 ], [ -4.2269, 40.448 ], [ -4.2257, 40.4493 ], [ -4.2243, 40.4501 ], [ -4.2223, 40.4507 ], [ -4.2212, 40.4512 ], [ -4.2203, 40.4518 ], [ -4.2196, 40.454 ], [ -4.2194, 40.4558 ], [ -4.219, 40.4576 ] ] ] } },
{ "type": "Feature", "properties": { "municipio": "Robledo de Chavela", "clasificacion": "no-urbanizable-protegido", "calificacion": "sin-asignar", "version": "vigente", "fuente": "SIT-CAM WFS — UsoDelSuelo:VPLA_V_CLASIFICACION (https://idem.comunidad.madrid/geosrvg/ows)", "fecha_dato": "2026-05-12", "ambito": "13715", "_raw_CD_SIGLAS": "SNUP", "_raw_DS_CLASIF_GEN": "Suelo No Urbanizable Protegido", "_raw_DS_CLASIF_DET": "Suelo No Urbanizable de Protección Ecológica", "_raw_DS_DOCU": "NORMAS SUBSIDIARIAS", "_raw_DS_LEY": "CM Ley 4/1984, E RD 1346/1976", "_raw_FC_AC": "1990-12-20", "_raw_NM_AREA_M2": 239002.40792284199, "_cam_code": "125" }, "geometry": { "type": "Polygon", "coordinates": [ [ [ -4.2812, 40.4942 ], [ -4.2824, 40.4943 ], [ -4.2849, 40.4942 ], [ -4.2856, 40.4939 ], [ -4.2862, 40.4932 ], [ -4.2877, 40.4927 ], [ -4.2881, 40.492 ], [ -4.2879, 40.4915 ], [ -4.2877, 40.4902 ], [ -4.2874, 40.4899 ], [ -4.2859, 40.49 ], [ -4.2852, 40.4897 ], [ -4.2851, 40.4895 ], [ -4.2823, 40.49 ], [ -4.2823, 40.4906 ], [ -4.2809, 40.4926 ], [ -4.2809, 40.4936 ], [ -4.2812, 40.4942 ] ] ] } },
{ "type": "Feature", "properties": { "municipio": "Robledo de Chavela", "clasificacion": "no-urbanizable-protegido", "calificacion": "sin-asignar", "version": "vigente", "fuente": "SIT-CAM WFS — UsoDelSuelo:VPLA_V_CLASIFICACION (https://idem.comunidad.madrid/geosrvg/ows)", "fecha_dato": "2026-05-12", "ambito": "13715", "_raw_CD_SIGLAS": "SNUP", "_raw_DS_CLASIF_GEN": "Suelo No Urbanizable Protegido", "_raw_DS_CLASIF_DET": "Suelo No Urbanizable de Protección Forestal", "_raw_DS_DOCU": "NORMAS SUBSIDIARIAS", "_raw_DS_LEY": "CM Ley 4/1984, E RD 1346/1976", "_raw_FC_AC": "1990-12-20", "_raw_NM_AREA_M2": 7696035.29800623, "_cam_code": "125" }, "geometry": { "type": "Polygon", "coordinates": [ [ [ -4.2186, 40.5335 ], [ -4.2186, 40.5334 ], [ -4.2192, 40.5334 ], [ -4.2218, 40.5348 ], [ -4.2243, 40.5368 ], [ -4.2258, 40.5376 ], [ -4.232, 40.5317 ], [ -4.2349, 40.5307 ], [ -4.2398, 40.5302 ], [ -4.2429, 40.5301 ], [ -4.2453, 40.5313 ], [ -4.2488, 40.5322 ], [ -4.2544, 40.5303 ], [ -4.2572, 40.5296 ], [ -4.2618, 40.5311 ], [ -4.2619, 40.5309 ], [ -4.2624, 40.5306 ], [ -4.2631, 40.5307 ], [ -4.2635, 40.5306 ], [ -4.2636, 40.5305 ], [ -4.2634, 40.5303 ], [ -4.2643, 40.5299 ], [ -4.2645, 40.5295 ], [ -4.2644, 40.5287 ], [ -4.2643, 40.5294 ], [ -4.2639, 40.5299 ], [ -4.2625, 40.5301 ], [ -4.2622, 40.5303 ], [ -4.2622, 40.5302 ], [ -4.2619, 40.5306 ], [ -4.2613, 40.5297 ], [ -4.2611, 40.5284 ], [ -4.2608, 40.5282 ], [ -4.2603, 40.5282 ], [ -4.2602, 40.5283 ], [ -4.2599, 40.5282 ], [ -4.2599, 40.528 ], [ -4.2587, 40.5277 ], [ -4.2585, 40.5268 ], [ -4.2587, 40.5266 ], [ -4.2585, 40.5262 ], [ -4.2583, 40.5262 ], [ -4.2579, 40.5257 ], [ -4.2579, 40.525 ], [ -4.2577, 40.5249 ], [ -4.2576, 40.5249 ], [ -4.2572, 40.5263 ], [ -4.257, 40.5264 ], [ -4.2566, 40.5259 ], [ -4.2563, 40.5275 ], [ -4.2559, 40.5275 ], [ -4.2558, 40.5271 ], [ -4.2541, 40.5275 ], [ -4.2536, 40.5266 ], [ -4.2562, 40.5256 ], [ -4.2556, 40.5246 ], [ -4.2554, 40.5245 ], [ -4.2552, 40.5236 ], [ -4.2549, 40.5238 ], [ -4.2544, 40.5234 ], [ -4.2542, 40.5236 ], [ -4.2535, 40.5233 ], [ -4.2526, 40.5234 ], [ -4.2524, 40.524 ], [ -4.2528, 40.524 ], [ -4.2528, 40.5244 ], [ -4.2526, 40.5249 ], [ -4.2519, 40.5247 ], [ -4.2518, 40.525 ], [ -4.246, 40.5202 ], [ -4.2454, 40.5198 ], [ -4.2443, 40.5194 ], [ -4.2448, 40.5186 ], [ -4.2453, 40.5184 ], [ -4.2456, 40.5175 ], [ -4.2462, 40.5176 ], [ -4.2463, 40.5169 ], [ -4.2462, 40.5165 ], [ -4.2457, 40.516 ], [ -4.2434, 40.5152 ], [ -4.2417, 40.5136 ], [ -4.2416, 40.5131 ], [ -4.2413, 40.5129 ], [ -4.2409, 40.5131 ], [ -4.2405, 40.5138 ], [ -4.2402, 40.514 ], [ -4.2398, 40.5139 ], [ -4.239, 40.5126 ], [ -4.2389, 40.5117 ], [ -4.2398, 40.5107 ], [ -4.2407, 40.5103 ], [ -4.2408, 40.5101 ], [ -4.2407, 40.5092 ], [ -4.2403, 40.509 ], [ -4.2397, 40.509 ], [ -4.2374, 40.5099 ], [ -4.236, 40.5098 ], [ -4.2352, 40.5094 ], [ -4.235, 40.5084 ], [ -4.2358, 40.5083 ], [ -4.2363, 40.5086 ], [ -4.2376, 40.5084 ], [ -4.2378, 40.5082 ], [ -4.2377, 40.5075 ], [ -4.2383, 40.5072 ], [ -4.2386, 40.5069 ], [ -4.2387, 40.5066 ], [ -4.2392, 40.5062 ], [ -4.2393, 40.5054 ], [ -4.2396, 40.5054 ], [ -4.2402, 40.5058 ], [ -4.2403, 40.5054 ], [ -4.2409, 40.5052 ], [ -4.2413, 40.5047 ], [ -4.2414, 40.5048 ], [ -4.2417, 40.5047 ], [ -4.2425, 40.504 ], [ -4.2425, 40.5038 ], [ -4.2431, 40.5031 ], [ -4.2434, 40.503 ], [ -4.2434, 40.5029 ], [ -4.2439, 40.5029 ], [ -4.2442, 40.5032 ], [ -4.2443, 40.5035 ], [ -4.2442, 40.504 ], [ -4.2443, 40.5043 ], [ -4.245, 40.5049 ], [ -4.2458, 40.5053 ], [ -4.2475, 40.5055 ], [ -4.249, 40.5061 ], [ -4.251, 40.5059 ], [ -4.2536, 40.507 ], [ -4.2543, 40.5077 ], [ -4.2555, 40.5083 ], [ -4.2562, 40.5084 ], [ -4.2566, 40.5082 ], [ -4.2571, 40.5076 ], [ -4.2582, 40.5072 ], [ -4.2589, 40.5078 ], [ -4.2594, 40.5079 ], [ -4.2603, 40.5079 ], [ -4.2626, 40.5075 ], [ -4.2638, 40.5077 ], [ -4.2642, 40.5076 ], [ -4.267, 40.5077 ], [ -4.2672, 40.5076 ], [ -4.2691, 40.5079 ], [ -4.269, 40.5084 ], [ -4.2691, 40.5084 ], [ -4.2691, 40.5081 ], [ -4.2708, 40.5082 ], [ -4.2709, 40.5083 ], [ -4.2708, 40.5085 ], [ -4.2713, 40.5084 ], [ -4.2716, 40.5084 ], [ -4.2716, 40.5085 ], [ -4.2719, 40.5079 ], [ -4.2724, 40.5076 ], [ -4.2731, 40.5069 ], [ -4.2741, 40.5066 ], [ -4.2762, 40.5063 ], [ -4.277, 40.506 ], [ -4.2772, 40.5058 ], [ -4.2775, 40.505 ], [ -4.2774, 40.5047 ], [ -4.2772, 40.5045 ], [ -4.2761, 40.5041 ], [ -4.2754, 40.5037 ], [ -4.2746, 40.5027 ], [ -4.2746, 40.5023 ], [ -4.2753, 40.501 ], [ -4.2776, 40.4991 ], [ -4.2782, 40.4984 ], [ -4.2793, 40.4977 ], [ -4.2806, 40.4973 ], [ -4.2805, 40.4972 ], [ -4.2814, 40.4957 ], [ -4.2813, 40.4952 ], [ -4.2808, 40.4945 ], [ -4.281, 40.4942 ], [ -4.2812, 40.4942 ], [ -4.2809, 40.4936 ], [ -4.2809, 40.4926 ], [ -4.2823, 40.4906 ], [ -4.2823, 40.49 ], [ -4.2817, 40.4893 ], [ -4.2809, 40.4878 ], [ -4.2794, 40.4877 ], [ -4.2784, 40.4897 ], [ -4.2772, 40.4909 ], [ -4.2755, 40.4919 ], [ -4.2734, 40.4927 ], [ -4.2715, 40.4931 ], [ -4.2695, 40.4941 ], [ -4.268, 40.4952 ], [ -4.266, 40.4972 ], [ -4.2639, 40.4986 ], [ -4.2606, 40.5002 ], [ -4.2599, 40.5004 ], [ -4.2557, 40.501 ], [ -4.2551, 40.5026 ], [ -4.2536, 40.5052 ], [ -4.253, 40.5056 ], [ -4.2512, 40.5054 ], [ -4.2493, 40.5055 ], [ -4.2477, 40.5052 ], [ -4.2472, 40.5048 ], [ -4.2472, 40.5045 ], [ -4.2468, 40.5041 ], [ -4.2457, 40.504 ], [ -4.2452, 40.5038 ], [ -4.2446, 40.503 ], [ -4.2449, 40.5027 ], [ -4.245, 40.5024 ], [ -4.2448, 40.5021 ], [ -4.2434, 40.5022 ], [ -4.2426, 40.502 ], [ -4.2418, 40.501 ], [ -4.2418, 40.5008 ], [ -4.2417, 40.5009 ], [ -4.2419, 40.5012 ], [ -4.241, 40.5014 ], [ -4.2409, 40.5012 ], [ -4.2407, 40.5012 ], [ -4.2409, 40.5008 ], [ -4.2407, 40.5005 ], [ -4.2402, 40.5002 ], [ -4.2401, 40.5004 ], [ -4.2402, 40.5008 ], [ -4.2403, 40.5008 ], [ -4.24, 40.5011 ], [ -4.2404, 40.5016 ], [ -4.2405, 40.5025 ], [ -4.2404, 40.5027 ], [ -4.24, 40.5029 ], [ -4.24, 40.5031 ], [ -4.2403, 40.5041 ], [ -4.2398, 40.5041 ], [ -4.2397, 40.5044 ], [ -4.2395, 40.5045 ], [ -4.2388, 40.5043 ], [ -4.2386, 40.5046 ], [ -4.2379, 40.5045 ], [ -4.2371, 40.5039 ], [ -4.2364, 40.5047 ], [ -4.2362, 40.5047 ], [ -4.2361, 40.505 ], [ -4.2355, 40.5049 ], [ -4.2351, 40.5059 ], [ -4.2355, 40.506 ], [ -4.2361, 40.5058 ], [ -4.2388, 40.5057 ], [ -4.2388, 40.506 ], [ -4.2384, 40.5068 ], [ -4.2379, 40.507 ], [ -4.2372, 40.5076 ], [ -4.2373, 40.5079 ], [ -4.2371, 40.5082 ], [ -4.2355, 40.508 ], [ -4.2348, 40.5077 ], [ -4.2344, 40.5079 ], [ -4.2339, 40.5084 ], [ -4.2339, 40.5088 ], [ -4.2343, 40.5095 ], [ -4.2342, 40.5096 ], [ -4.2341, 40.5121 ], [ -4.2337, 40.5129 ], [ -4.2332, 40.5137 ], [ -4.2321, 40.5149 ], [ -4.2263, 40.5207 ], [ -4.2232, 40.5248 ], [ -4.2206, 40.5294 ], [ -4.2186, 40.5325 ], [ -4.2185, 40.5332 ], [ -4.2186, 40.5335 ] ] ] } },
{ "type": "Feature", "properties": { "municipio": "Robledo de Chavela", "clasificacion": "no-urbanizable-protegido", "calificacion": "sin-asignar", "version": "vigente", "fuente": "SIT-CAM WFS — UsoDelSuelo:VPLA_V_CLASIFICACION (https://idem.comunidad.madrid/geosrvg/ows)", "fecha_dato": "2026-05-12", "ambito": "13715", "_raw_CD_SIGLAS": "SNUP", "_raw_DS_CLASIF_GEN": "Suelo No Urbanizable Protegido", "_raw_DS_CLASIF_DET": "Suelo No Urbanizable de Protección Ecológica", "_raw_DS_DOCU": "NORMAS SUBSIDIARIAS", "_raw_DS_LEY": "CM Ley 4/1984, E RD 1346/1976", "_raw_FC_AC": "1990-12-20", "_raw_NM_AREA_M2": 1542703.34304597, "_cam_code": "125" }, "geometry": { "type": "Polygon", "coordinates": [ [ [ -4.2781, 40.4794 ], [ -4.279, 40.4799 ], [ -4.2799, 40.4797 ], [ -4.2809, 40.4793 ], [ -4.2819, 40.4769 ], [ -4.2827, 40.4767 ], [ -4.2841, 40.4767 ], [ -4.2847, 40.4758 ], [ -4.2859, 40.4753 ], [ -4.2874, 40.4742 ], [ -4.2879, 40.4734 ], [ -4.2875, 40.4716 ], [ -4.2876, 40.4694 ], [ -4.2885, 40.4685 ], [ -4.2893, 40.4665 ], [ -4.2895, 40.465 ], [ -4.2892, 40.464 ], [ -4.2879, 40.4634 ], [ -4.2865, 40.4631 ], [ -4.2851, 40.4634 ], [ -4.2814, 40.4649 ], [ -4.2793, 40.4648 ], [ -4.2785, 40.4645 ], [ -4.2785, 40.4658 ], [ -4.278, 40.4674 ], [ -4.2761, 40.4699 ], [ -4.2745, 40.4718 ], [ -4.2709, 40.4745 ], [ -4.272, 40.4745 ], [ -4.2734, 40.4748 ], [ -4.2745, 40.4752 ], [ -4.2764, 40.4768 ], [ -4.2768, 40.4777 ], [ -4.2777, 40.4785 ], [ -4.2781, 40.4794 ] ] ] } },
{ "type": "Feature", "properties": { "municipio": "Robledo de Chavela", "clasificacion": "no-urbanizable-protegido", "calificacion": "sin-asignar", "version": "vigente", "fuente": "SIT-CAM WFS — UsoDelSuelo:VPLA_V_CLASIFICACION (https://idem.comunidad.madrid/geosrvg/ows)", "fecha_dato": "2026-05-12", "ambito": "13715", "_raw_CD_SIGLAS": "SNUP", "_raw_DS_CLASIF_GEN": "Suelo No Urbanizable Protegido", "_raw_DS_CLASIF_DET": "Suelo No Urbanizable de Protección Paisajística", "_raw_DS_DOCU": "NORMAS SUBSIDIARIAS", "_raw_DS_LEY": "CM Ley 4/1984, E RD 1346/1976", "_raw_FC_AC": "1990-12-20", "_raw_NM_AREA_M2": 952510.65317869198, "_cam_code": "125" }, "geometry": { "type": "Polygon", "coordinates": [ [ [ -4.2676, 40.4832 ], [ -4.268, 40.4853 ], [ -4.2694, 40.4862 ], [ -4.2726, 40.4869 ], [ -4.2737, 40.4869 ], [ -4.2751, 40.4866 ], [ -4.2782, 40.4854 ], [ -4.2777, 40.4833 ], [ -4.2781, 40.4794 ], [ -4.2777, 40.4785 ], [ -4.2768, 40.4777 ], [ -4.2764, 40.4768 ], [ -4.2745, 40.4752 ], [ -4.2734, 40.4748 ], [ -4.272, 40.4745 ], [ -4.2709, 40.4745 ], [ -4.27, 40.475 ], [ -4.2696, 40.4755 ], [ -4.2696, 40.4761 ], [ -4.2699, 40.4772 ], [ -4.27, 40.4782 ], [ -4.2689, 40.4797 ], [ -4.2671, 40.4808 ], [ -4.2676, 40.4822 ], [ -4.2676, 40.4832 ] ] ] } },
{ "type": "Feature", "properties": { "municipio": "Robledo de Chavela", "clasificacion": "no-urbanizable-protegido", "calificacion": "sin-asignar", "version": "vigente", "fuente": "SIT-CAM WFS — UsoDelSuelo:VPLA_V_CLASIFICACION (https://idem.comunidad.madrid/geosrvg/ows)", "fecha_dato": "2026-05-12", "ambito": "13715", "_raw_CD_SIGLAS": "SNUP", "_raw_DS_CLASIF_GEN": "Suelo No Urbanizable Protegido", "_raw_DS_CLASIF_DET": "Suelo No Urbanizable de Protección Ecológica", "_raw_DS_DOCU": "NORMAS SUBSIDIARIAS", "_raw_DS_LEY": "CM Ley 4/1984, E RD 1346/1976", "_raw_FC_AC": "1990-12-20", "_raw_NM_AREA_M2": 4827509.2640610104, "_cam_code": "125" }, "geometry": { "type": "Polygon", "coordinates": [ [ [ -4.2179, 40.4574 ], [ -4.219, 40.4576 ], [ -4.2194, 40.4558 ], [ -4.2196, 40.454 ], [ -4.2203, 40.4518 ], [ -4.2212, 40.4512 ], [ -4.2223, 40.4507 ], [ -4.2243, 40.4501 ], [ -4.2257, 40.4493 ], [ -4.2269, 40.448 ], [ -4.2292, 40.4451 ], [ -4.2303, 40.4444 ], [ -4.2321, 40.4437 ], [ -4.2377, 40.442 ], [ -4.2388, 40.4413 ], [ -4.2422, 40.4369 ], [ -4.2427, 40.4359 ], [ -4.2432, 40.4332 ], [ -4.2436, 40.4325 ], [ -4.2442, 40.4317 ], [ -4.2465, 40.4307 ], [ -4.2473, 40.4288 ], [ -4.2484, 40.428 ], [ -4.2497, 40.4254 ], [ -4.25, 40.4242 ], [ -4.2504, 40.4236 ], [ -4.2512, 40.4228 ], [ -4.2516, 40.4221 ], [ -4.252, 40.4209 ], [ -4.2523, 40.4186 ], [ -4.253, 40.4169 ], [ -4.2543, 40.4151 ], [ -4.2562, 40.4121 ], [ -4.2573, 40.4112 ], [ -4.2548, 40.408 ], [ -4.2531, 40.4053 ], [ -4.2503, 40.4071 ], [ -4.2452, 40.413 ], [ -4.2444, 40.4137 ], [ -4.2387, 40.4215 ], [ -4.2385, 40.4234 ], [ -4.2366, 40.4323 ], [ -4.236, 40.4333 ], [ -4.2313, 40.4354 ], [ -4.2298, 40.4367 ], [ -4.2276, 40.4396 ], [ -4.2268, 40.442 ], [ -4.2251, 40.4423 ], [ -4.2189, 40.4393 ], [ -4.2144, 40.4478 ], [ -4.2148, 40.4482 ], [ -4.217, 40.4523 ], [ -4.2181, 40.455 ], [ -4.2176, 40.4568 ], [ -4.2178, 40.4569 ], [ -4.2179, 40.4574 ] ] ] } },
{ "type": "Feature", "properties": { "municipio": "Robledo de Chavela", "clasificacion": "no-urbanizable-protegido", "calificacion": "sin-asignar", "version": "vigente", "fuente": "SIT-CAM WFS — UsoDelSuelo:VPLA_V_CLASIFICACION (https://idem.comunidad.madrid/geosrvg/ows)", "fecha_dato": "2026-05-12", "ambito": "13715", "_raw_CD_SIGLAS": "SNUP", "_raw_DS_CLASIF_GEN": "Suelo No Urbanizable Protegido", "_raw_DS_CLASIF_DET": "Suelo No Urbanizable de Protección Ecológica", "_raw_DS_DOCU": "NORMAS SUBSIDIARIAS", "_raw_DS_LEY": "CM Ley 4/1984, E RD 1346/1976", "_raw_FC_AC": "1990-12-20", "_raw_NM_AREA_M2": 5057786.9611669704, "_cam_code": "125" }, "geometry": { "type": "Polygon", "coordinates": [ [ [ -4.2422, 40.5014 ], [ -4.2426, 40.502 ], [ -4.2434, 40.5022 ], [ -4.2448, 40.5021 ], [ -4.245, 40.5024 ], [ -4.2449, 40.5027 ], [ -4.2446, 40.503 ], [ -4.2452, 40.5038 ], [ -4.2457, 40.504 ], [ -4.2468, 40.5041 ], [ -4.2472, 40.5045 ], [ -4.2472, 40.5048 ], [ -4.2477, 40.5052 ], [ -4.2493, 40.5055 ], [ -4.2512, 40.5054 ], [ -4.253, 40.5056 ], [ -4.2536, 40.5052 ], [ -4.2551, 40.5026 ], [ -4.2557, 40.501 ], [ -4.2599, 40.5004 ], [ -4.2619, 40.4996 ], [ -4.2639, 40.4986 ], [ -4.266, 40.4972 ], [ -4.268, 40.4952 ], [ -4.2695, 40.4941 ], [ -4.2715, 40.4931 ], [ -4.2734, 40.4927 ], [ -4.2755, 40.4919 ], [ -4.2772, 40.4909 ], [ -4.2784, 40.4897 ], [ -4.2794, 40.4877 ], [ -4.2782, 40.4854 ], [ -4.2751, 40.4866 ], [ -4.2737, 40.4869 ], [ -4.2726, 40.4869 ], [ -4.2694, 40.4862 ], [ -4.268, 40.4853 ], [ -4.268, 40.485 ], [ -4.2664, 40.4849 ], [ -4.2658, 40.4847 ], [ -4.2661, 40.4774 ], [ -4.2685, 40.4715 ], [ -4.2687, 40.4699 ], [ -4.266, 40.4713 ], [ -4.2622, 40.4738 ], [ -4.2612, 40.4741 ], [ -4.2579, 40.4763 ], [ -4.2562, 40.4786 ], [ -4.2551, 40.4817 ], [ -4.2543, 40.4834 ], [ -4.2539, 40.4849 ], [ -4.2531, 40.4861 ], [ -4.2515, 40.4882 ], [ -4.25, 40.4899 ], [ -4.2488, 40.4917 ], [ -4.2466, 40.4932 ], [ -4.2445, 40.4953 ], [ -4.243, 40.4971 ], [ -4.2432, 40.4976 ], [ -4.2432, 40.498 ], [ -4.243, 40.4982 ], [ -4.2428, 40.499 ], [ -4.2432, 40.4995 ], [ -4.2432, 40.4998 ], [ -4.2427, 40.5003 ], [ -4.2428, 40.5006 ], [ -4.2422, 40.5014 ] ] ] } },
{ "type": "Feature", "properties": { "municipio": "Robledo de Chavela", "clasificacion": "no-urbanizable-protegido", "calificacion": "sin-asignar", "version": "vigente", "fuente": "SIT-CAM WFS — UsoDelSuelo:VPLA_V_CLASIFICACION (https://idem.comunidad.madrid/geosrvg/ows)", "fecha_dato": "2026-05-12", "ambito": "13715", "_raw_CD_SIGLAS": "SNUP", "_raw_DS_CLASIF_GEN": "Suelo No Urbanizable Protegido", "_raw_DS_CLASIF_DET": "Suelo No Urbanizable de Protección Forestal", "_raw_DS_DOCU": "NORMAS SUBSIDIARIAS", "_raw_DS_LEY": "CM Ley 4/1984, E RD 1346/1976", "_raw_FC_AC": "1990-12-20", "_raw_NM_AREA_M2": 11733952.8724874, "_cam_code": "125" }, "geometry": { "type": "Polygon", "coordinates": [ [ [ -4.2841, 40.4767 ], [ -4.2842, 40.4778 ], [ -4.285, 40.4786 ], [ -4.2877, 40.4791 ], [ -4.2892, 40.4739 ], [ -4.289, 40.4722 ], [ -4.2892, 40.4712 ], [ -4.2899, 40.4693 ], [ -4.2902, 40.4669 ], [ -4.2916, 40.4625 ], [ -4.2918, 40.4603 ], [ -4.291, 40.4537 ], [ -4.2935, 40.4461 ], [ -4.2939, 40.4456 ], [ -4.2991, 40.4427 ], [ -4.315, 40.439 ], [ -4.3154, 40.4377 ], [ -4.3168, 40.437 ], [ -4.3175, 40.4365 ], [ -4.3187, 40.4348 ], [ -4.3206, 40.431 ], [ -4.3255, 40.4298 ], [ -4.329, 40.4284 ], [ -4.331, 40.4279 ], [ -4.3324, 40.4281 ], [ -4.3331, 40.4295 ], [ -4.333, 40.4303 ], [ -4.3335, 40.4312 ], [ -4.3345, 40.432 ], [ -4.3362, 40.4327 ], [ -4.3391, 40.4319 ], [ -4.339, 40.4317 ], [ -4.339, 40.4307 ], [ -4.3391, 40.4305 ], [ -4.3403, 40.4298 ], [ -4.3409, 40.4296 ], [ -4.3413, 40.4289 ], [ -4.3412, 40.4285 ], [ -4.3408, 40.4282 ], [ -4.3399, 40.4283 ], [ -4.3376, 40.4282 ], [ -4.3371, 40.4281 ], [ -4.336, 40.4276 ], [ -4.3354, 40.427 ], [ -4.3354, 40.4266 ], [ -4.3348, 40.4256 ], [ -4.3346, 40.4247 ], [ -4.3323, 40.4238 ], [ -4.3314, 40.4227 ], [ -4.3303, 40.4222 ], [ -4.3293, 40.4223 ], [ -4.328, 40.4235 ], [ -4.3276, 40.4237 ], [ -4.3261, 40.4239 ], [ -4.3244, 40.4239 ], [ -4.3238, 40.4237 ], [ -4.3233, 40.4231 ], [ -4.3232, 40.4225 ], [ -4.324, 40.4218 ], [ -4.3242, 40.4212 ], [ -4.324, 40.4183 ], [ -4.3188, 40.4202 ], [ -4.3043, 40.4238 ], [ -4.2967, 40.4259 ], [ -4.2821, 40.4273 ], [ -4.2782, 40.4281 ], [ -4.2784, 40.4295 ], [ -4.2789, 40.4309 ], [ -4.2793, 40.4312 ], [ -4.2831, 40.4302 ], [ -4.2844, 40.4303 ], [ -4.2852, 40.4308 ], [ -4.2854, 40.4316 ], [ -4.285, 40.4332 ], [ -4.2847, 40.4352 ], [ -4.2838, 40.4384 ], [ -4.2826, 40.4409 ], [ -4.2809, 40.4435 ], [ -4.2794, 40.4456 ], [ -4.2764, 40.4492 ], [ -4.276, 40.4512 ], [ -4.2752, 40.4529 ], [ -4.2746, 40.4538 ], [ -4.2741, 40.4539 ], [ -4.2736, 40.4542 ], [ -4.2734, 40.4546 ], [ -4.2724, 40.4547 ], [ -4.2696, 40.4545 ], [ -4.266, 40.4546 ], [ -4.2654, 40.4548 ], [ -4.265, 40.4576 ], [ -4.265, 40.4591 ], [ -4.2645, 40.4601 ], [ -4.2645, 40.4622 ], [ -4.2641, 40.4633 ], [ -4.2641, 40.4653 ], [ -4.2648, 40.4659 ], [ -4.2658, 40.466 ], [ -4.2692, 40.4657 ], [ -4.2764, 40.4648 ], [ -4.2773, 40.4652 ], [ -4.2779, 40.4652 ], [ -4.2785, 40.4645 ], [ -4.2793, 40.4648 ], [ -4.2814, 40.4649 ], [ -4.2851, 40.4634 ], [ -4.2865, 40.4631 ], [ -4.2879, 40.4634 ], [ -4.2892, 40.464 ], [ -4.2895, 40.465 ], [ -4.2893, 40.4665 ], [ -4.2885, 40.4685 ], [ -4.2876, 40.4694 ], [ -4.2875, 40.4716 ], [ -4.2879, 40.4734 ], [ -4.2874, 40.4742 ], [ -4.2859, 40.4753 ], [ -4.2847, 40.4758 ], [ -4.2841, 40.4767 ] ] ] } },
{ "type": "Feature", "properties": { "municipio": "Robledo de Chavela", "clasificacion": "urbano-consolidado", "calificacion": "sin-asignar", "version": "vigente", "fuente": "SIT-CAM WFS — UsoDelSuelo:VPLA_V_CLASIFICACION (https://idem.comunidad.madrid/geosrvg/ows)", "fecha_dato": "2026-05-12", "ambito": "13715", "_raw_CD_SIGLAS": "SU", "_raw_DS_CLASIF_GEN": "Suelo Urbano", "_raw_DS_CLASIF_DET": "Suelo Urbano", "_raw_DS_DOCU": "NORMAS SUBSIDIARIAS", "_raw_DS_LEY": "CM Ley 4/1984, E RD 1346/1976", "_raw_FC_AC": "1990-12-20", "_raw_NM_AREA_M2": 28725.258765442701, "_cam_code": "125" }, "geometry": { "type": "Polygon", "coordinates": [ [ [ -4.2319, 40.5034 ], [ -4.2326, 40.5035 ], [ -4.2327, 40.5029 ], [ -4.2338, 40.5004 ], [ -4.2332, 40.5003 ], [ -4.2324, 40.5011 ], [ -4.2321, 40.5011 ], [ -4.2319, 40.5034 ] ] ] } },
{ "type": "Feature", "properties": { "municipio": "Robledo de Chavela", "clasificacion": "urbano-consolidado", "calificacion": "sin-asignar", "version": "vigente", "fuente": "SIT-CAM WFS — UsoDelSuelo:VPLA_V_CLASIFICACION (https://idem.comunidad.madrid/geosrvg/ows)", "fecha_dato": "2026-05-12", "ambito": "13715", "_raw_CD_SIGLAS": "SU", "_raw_DS_CLASIF_GEN": "Suelo Urbano", "_raw_DS_CLASIF_DET": "Suelo Urbano", "_raw_DS_DOCU": "NORMAS SUBSIDIARIAS", "_raw_DS_LEY": "CM Ley 4/1984, E RD 1346/1976", "_raw_FC_AC": "1990-12-20", "_raw_NM_AREA_M2": 224842.99829441501, "_cam_code": "125" }, "geometry": { "type": "Polygon", "coordinates": [ [ [ -4.2328, 40.4963 ], [ -4.2336, 40.4961 ], [ -4.2342, 40.4958 ], [ -4.2344, 40.4956 ], [ -4.2343, 40.4955 ], [ -4.2351, 40.4951 ], [ -4.2351, 40.4944 ], [ -4.2355, 40.4937 ], [ -4.2352, 40.4933 ], [ -4.2352, 40.4928 ], [ -4.2345, 40.4918 ], [ -4.2339, 40.4904 ], [ -4.2298, 40.4901 ], [ -4.2299, 40.491 ], [ -4.2297, 40.4927 ], [ -4.2302, 40.4936 ], [ -4.2309, 40.4942 ], [ -4.2319, 40.4948 ], [ -4.2326, 40.495 ], [ -4.2324, 40.496 ], [ -4.2328, 40.4963 ] ] ] } },
{ "type": "Feature", "properties": { "municipio": "Robledo de Chavela", "clasificacion": "urbano-consolidado", "calificacion": "sin-asignar", "version": "vigente", "fuente": "SIT-CAM WFS — UsoDelSuelo:VPLA_V_CLASIFICACION (https://idem.comunidad.madrid/geosrvg/ows)", "fecha_dato": "2026-05-12", "ambito": "13715", "_raw_CD_SIGLAS": "SU", "_raw_DS_CLASIF_GEN": "Suelo Urbano", "_raw_DS_CLASIF_DET": "Suelo Urbano", "_raw_DS_DOCU": "NORMAS SUBSIDIARIAS", "_raw_DS_LEY": "CM Ley 4/1984, E RD 1346/1976", "_raw_FC_AC": "1990-12-20", "_raw_NM_AREA_M2": 304692.39400370402, "_cam_code": "125" }, "geometry": { "type": "Polygon", "coordinates": [ [ [ -4.2304, 40.507 ], [ -4.2307, 40.5073 ], [ -4.2294, 40.5081 ], [ -4.228, 40.5108 ], [ -4.2275, 40.5115 ], [ -4.2267, 40.5122 ], [ -4.2259, 40.5125 ], [ -4.2259, 40.5124 ], [ -4.224, 40.5121 ], [ -4.224, 40.5124 ], [ -4.2241, 40.5125 ], [ -4.2248, 40.5125 ], [ -4.2261, 40.5134 ], [ -4.2267, 40.5132 ], [ -4.2283, 40.5121 ], [ -4.2284, 40.5122 ], [ -4.2278, 40.5126 ], [ -4.2285, 40.5123 ], [ -4.2287, 40.5123 ], [ -4.2287, 40.5125 ], [ -4.229, 40.5126 ], [ -4.2298, 40.5121 ], [ -4.23, 40.5115 ], [ -4.2298, 40.5115 ], [ -4.2299, 40.5111 ], [ -4.2303, 40.5112 ], [ -4.2305, 40.5109 ], [ -4.2321, 40.5098 ], [ -4.2329, 40.5095 ], [ -4.2339, 40.5095 ], [ -4.2341, 40.5097 ], [ -4.2343, 40.5095 ], [ -4.2339, 40.5088 ], [ -4.2339, 40.5084 ], [ -4.2344, 40.5079 ], [ -4.2348, 40.5077 ], [ -4.2355, 40.508 ], [ -4.2371, 40.5082 ], [ -4.2373, 40.5079 ], [ -4.2372, 40.5076 ], [ -4.2379, 40.507 ], [ -4.2384, 40.5068 ], [ -4.2388, 40.506 ], [ -4.2388, 40.5057 ], [ -4.2361, 40.5058 ], [ -4.2355, 40.506 ], [ -4.2353, 40.5059 ], [ -4.2345, 40.506 ], [ -4.2345, 40.5066 ], [ -4.2341, 40.5066 ], [ -4.2337, 40.5068 ], [ -4.2336, 40.5061 ], [ -4.2309, 40.5065 ], [ -4.2306, 40.5066 ], [ -4.2304, 40.507 ] ] ] } },
{ "type": "Feature", "properties": { "municipio": "Robledo de Chavela", "clasificacion": "urbano-consolidado", "calificacion": "sin-asignar", "version": "vigente", "fuente": "SIT-CAM WFS — UsoDelSuelo:VPLA_V_CLASIFICACION (https://idem.comunidad.madrid/geosrvg/ows)", "fecha_dato": "2026-05-12", "ambito": "13715", "_raw_CD_SIGLAS": "SU", "_raw_DS_CLASIF_GEN": "Suelo Urbano", "_raw_DS_CLASIF_DET": "Suelo Urbano", "_raw_DS_DOCU": "NORMAS SUBSIDIARIAS", "_raw_DS_LEY": "CM Ley 4/1984, E RD 1346/1976", "_raw_FC_AC": "1990-12-20", "_raw_NM_AREA_M2": 4044577.4653867199, "_cam_code": "125" }, "geometry": { "type": "Polygon", "coordinates": [ [ [ -4.2613, 40.5297 ], [ -4.2619, 40.5306 ], [ -4.2622, 40.5302 ], [ -4.2622, 40.5303 ], [ -4.2625, 40.5301 ], [ -4.2639, 40.5299 ], [ -4.2643, 40.5294 ], [ -4.2645, 40.5275 ], [ -4.2639, 40.5266 ], [ -4.2639, 40.5262 ], [ -4.2645, 40.5254 ], [ -4.2645, 40.5247 ], [ -4.2641, 40.5241 ], [ -4.2639, 40.524 ], [ -4.2635, 40.5232 ], [ -4.2641, 40.5227 ], [ -4.2644, 40.5217 ], [ -4.2655, 40.5214 ], [ -4.2658, 40.5212 ], [ -4.266, 40.5208 ], [ -4.2652, 40.52 ], [ -4.2649, 40.5199 ], [ -4.2642, 40.5186 ], [ -4.2642, 40.5181 ], [ -4.2644, 40.5174 ], [ -4.2654, 40.5173 ], [ -4.2676, 40.5187 ], [ -4.2686, 40.5188 ], [ -4.2693, 40.5185 ], [ -4.2692, 40.5177 ], [ -4.2694, 40.5173 ], [ -4.2702, 40.517 ], [ -4.2704, 40.5168 ], [ -4.2703, 40.5165 ], [ -4.2699, 40.5163 ], [ -4.2691, 40.5162 ], [ -4.2684, 40.5156 ], [ -4.2657, 40.514 ], [ -4.2648, 40.5139 ], [ -4.2642, 40.5135 ], [ -4.2642, 40.5133 ], [ -4.2677, 40.5106 ], [ -4.2684, 40.5095 ], [ -4.2691, 40.509 ], [ -4.2695, 40.509 ], [ -4.2709, 40.5095 ], [ -4.2713, 40.5092 ], [ -4.2713, 40.5089 ], [ -4.2716, 40.5084 ], [ -4.2708, 40.5085 ], [ -4.2709, 40.5083 ], [ -4.2708, 40.5082 ], [ -4.2691, 40.5081 ], [ -4.2691, 40.5084 ], [ -4.269, 40.5084 ], [ -4.2691, 40.5079 ], [ -4.2672, 40.5076 ], [ -4.267, 40.5077 ], [ -4.2654, 40.5076 ], [ -4.2638, 40.5077 ], [ -4.2626, 40.5075 ], [ -4.2603, 40.5079 ], [ -4.2594, 40.5079 ], [ -4.2589, 40.5078 ], [ -4.2582, 40.5072 ], [ -4.2571, 40.5076 ], [ -4.2566, 40.5082 ], [ -4.2562, 40.5084 ], [ -4.2555, 40.5083 ], [ -4.2543, 40.5077 ], [ -4.2536, 40.507 ], [ -4.251, 40.5059 ], [ -4.249, 40.5061 ], [ -4.2475, 40.5055 ], [ -4.2458, 40.5053 ], [ -4.245, 40.5049 ], [ -4.2443, 40.5043 ], [ -4.2442, 40.504 ], [ -4.2443, 40.5035 ], [ -4.2442, 40.5032 ], [ -4.2439, 40.5029 ], [ -4.2434, 40.5029 ], [ -4.2434, 40.503 ], [ -4.2431, 40.5031 ], [ -4.2425, 40.5038 ], [ -4.2425, 40.504 ], [ -4.2417, 40.5047 ], [ -4.2415, 40.5048 ], [ -4.2413, 40.5047 ], [ -4.2409, 40.5052 ], [ -4.2403, 40.5054 ], [ -4.2402, 40.5058 ], [ -4.2396, 40.5054 ], [ -4.2393, 40.5054 ], [ -4.2392, 40.5062 ], [ -4.2387, 40.5066 ], [ -4.2386, 40.5069 ], [ -4.2383, 40.5072 ], [ -4.2377, 40.5075 ], [ -4.2378, 40.5082 ], [ -4.2376, 40.5084 ], [ -4.2366, 40.5086 ], [ -4.2363, 40.5086 ], [ -4.2358, 40.5083 ], [ -4.235, 40.5084 ], [ -4.2352, 40.5094 ], [ -4.236, 40.5098 ], [ -4.2368, 40.5099 ], [ -4.2378, 40.5098 ], [ -4.2397, 40.509 ], [ -4.2406, 40.5091 ], [ -4.2408, 40.5095 ], [ -4.2407, 40.5103 ], [ -4.2398, 40.5107 ], [ -4.2389, 40.5117 ], [ -4.239, 40.5126 ], [ -4.2398, 40.5139 ], [ -4.2402, 40.514 ], [ -4.2405, 40.5138 ], [ -4.2409, 40.5131 ], [ -4.2413, 40.5129 ], [ -4.2416, 40.5131 ], [ -4.2417, 40.5136 ], [ -4.2434, 40.5152 ], [ -4.2457, 40.516 ], [ -4.2462, 40.5165 ], [ -4.2463, 40.5168 ], [ -4.2462, 40.5176 ], [ -4.2456, 40.5175 ], [ -4.2453, 40.5184 ], [ -4.2448, 40.5186 ], [ -4.2443, 40.5194 ], [ -4.2454, 40.5198 ], [ -4.246, 40.5202 ], [ -4.2518, 40.525 ], [ -4.2519, 40.5247 ], [ -4.2526, 40.5249 ], [ -4.2528, 40.5244 ], [ -4.2528, 40.524 ], [ -4.2524, 40.524 ], [ -4.2526, 40.5234 ], [ -4.2535, 40.5233 ], [ -4.2541, 40.5236 ], [ -4.2544, 40.5234 ], [ -4.2549, 40.5238 ], [ -4.2552, 40.5236 ], [ -4.2554, 40.5245 ], [ -4.2556, 40.5246 ], [ -4.2562, 40.5256 ], [ -4.2536, 40.5266 ], [ -4.2541, 40.5275 ], [ -4.2555, 40.5271 ], [ -4.2558, 40.5271 ], [ -4.2559, 40.5275 ], [ -4.2563, 40.5275 ], [ -4.2566, 40.5259 ], [ -4.257, 40.5264 ], [ -4.2572, 40.5263 ], [ -4.2576, 40.5249 ], [ -4.2579, 40.525 ], [ -4.2579, 40.5257 ], [ -4.2583, 40.5262 ], [ -4.2585, 40.5262 ], [ -4.2587, 40.5266 ], [ -4.2585, 40.5268 ], [ -4.2587, 40.5277 ], [ -4.2599, 40.528 ], [ -4.2599, 40.5282 ], [ -4.2602, 40.5283 ], [ -4.2603, 40.5282 ], [ -4.2608, 40.5282 ], [ -4.2611, 40.5284 ], [ -4.2613, 40.5297 ] ], [ [ -4.2552, 40.5115 ], [ -4.2568, 40.5121 ], [ -4.2568, 40.5124 ], [ -4.2591, 40.5131 ], [ -4.2593, 40.5139 ], [ -4.2592, 40.5139 ], [ -4.2593, 40.5143 ], [ -4.2592, 40.5148 ], [ -4.2597, 40.5149 ], [ -4.2595, 40.5157 ], [ -4.2596, 40.5158 ], [ -4.2587, 40.5155 ], [ -4.2585, 40.5151 ], [ -4.2576, 40.5146 ], [ -4.2555, 40.5138 ], [ -4.254, 40.5139 ], [ -4.2533, 40.5138 ], [ -4.2533, 40.5134 ], [ -4.2541, 40.5126 ], [ -4.2543, 40.5126 ], [ -4.2543, 40.5124 ], [ -4.2546, 40.512 ], [ -4.2552, 40.5115 ] ], [ [ -4.2553, 40.5189 ], [ -4.2553, 40.519 ], [ -4.2551, 40.519 ], [ -4.2549, 40.5195 ], [ -4.2545, 40.5199 ], [ -4.2541, 40.5207 ], [ -4.2538, 40.5208 ], [ -4.2536, 40.5207 ], [ -4.2536, 40.5205 ], [ -4.2533, 40.5201 ], [ -4.2528, 40.5198 ], [ -4.2522, 40.5187 ], [ -4.2514, 40.5178 ], [ -4.2509, 40.5169 ], [ -4.2533, 40.5171 ], [ -4.2568, 40.517 ], [ -4.2566, 40.5177 ], [ -4.2563, 40.5181 ], [ -4.2558, 40.5182 ], [ -4.2558, 40.5184 ], [ -4.2562, 40.5184 ], [ -4.2559, 40.5189 ], [ -4.2553, 40.5189 ] ] ] } },
{ "type": "Feature", "properties": { "municipio": "Robledo de Chavela", "clasificacion": "urbano-consolidado", "calificacion": "sin-asignar", "version": "vigente", "fuente": "SIT-CAM WFS — UsoDelSuelo:VPLA_V_CLASIFICACION (https://idem.comunidad.madrid/geosrvg/ows)", "fecha_dato": "2026-05-12", "ambito": "13715", "_raw_CD_SIGLAS": "SU", "_raw_DS_CLASIF_GEN": "Suelo Urbano", "_raw_DS_CLASIF_DET": "Suelo Urbano", "_raw_DS_DOCU": "NORMAS SUBSIDIARIAS", "_raw_DS_LEY": "CM Ley 4/1984, E RD 1346/1976", "_raw_FC_AC": "1990-12-20", "_raw_NM_AREA_M2": 10319.865990590401, "_cam_code": "125" }, "geometry": { "type": "Polygon", "coordinates": [ [ [ -4.2385, 40.496 ], [ -4.2388, 40.4965 ], [ -4.239, 40.4966 ], [ -4.2393, 40.4961 ], [ -4.2398, 40.4957 ], [ -4.2386, 40.4951 ], [ -4.2385, 40.4952 ], [ -4.2385, 40.496 ] ] ] } },
{ "type": "Feature", "properties": { "municipio": "Robledo de Chavela", "clasificacion": "urbano-consolidado", "calificacion": "sin-asignar", "version": "vigente", "fuente": "SIT-CAM WFS — UsoDelSuelo:VPLA_V_CLASIFICACION (https://idem.comunidad.madrid/geosrvg/ows)", "fecha_dato": "2026-05-12", "ambito": "13715", "_raw_CD_SIGLAS": "SU", "_raw_DS_CLASIF_GEN": "Suelo Urbano", "_raw_DS_CLASIF_DET": "Suelo Urbano", "_raw_DS_DOCU": "NORMAS SUBSIDIARIAS", "_raw_DS_LEY": "CM Ley 4/1984, E RD 1346/1976", "_raw_FC_AC": "1990-12-20", "_raw_NM_AREA_M2": 9314.2673847161604, "_cam_code": "125" }, "geometry": { "type": "Polygon", "coordinates": [ [ [ -4.235, 40.5006 ], [ -4.2361, 40.5009 ], [ -4.2361, 40.5007 ], [ -4.2366, 40.5008 ], [ -4.2368, 40.5004 ], [ -4.2353, 40.4999 ], [ -4.235, 40.5006 ] ] ] } },
{ "type": "Feature", "properties": { "municipio": "Robledo de Chavela", "clasificacion": "urbano-consolidado", "calificacion": "sin-asignar", "version": "vigente", "fuente": "SIT-CAM WFS — UsoDelSuelo:VPLA_V_CLASIFICACION (https://idem.comunidad.madrid/geosrvg/ows)", "fecha_dato": "2026-05-12", "ambito": "13715", "_raw_CD_SIGLAS": "SU", "_raw_DS_CLASIF_GEN": "Suelo Urbano", "_raw_DS_CLASIF_DET": "Suelo Urbano", "_raw_DS_DOCU": "NORMAS SUBSIDIARIAS", "_raw_DS_LEY": "CM Ley 4/1984, E RD 1346/1976", "_raw_FC_AC": "1990-12-20", "_raw_NM_AREA_M2": 12217.895164784601, "_cam_code": "125" }, "geometry": { "type": "Polygon", "coordinates": [ [ [ -4.2342, 40.5013 ], [ -4.2349, 40.5016 ], [ -4.2363, 40.5019 ], [ -4.2364, 40.5017 ], [ -4.2357, 40.5014 ], [ -4.2359, 40.501 ], [ -4.2346, 40.5006 ], [ -4.2342, 40.5013 ] ] ] } },
{ "type": "Feature", "properties": { "municipio": "Robledo de Chavela", "clasificacion": "urbano-consolidado", "calificacion": "sin-asignar", "version": "vigente", "fuente": "SIT-CAM WFS — UsoDelSuelo:VPLA_V_CLASIFICACION (https://idem.comunidad.madrid/geosrvg/ows)", "fecha_dato": "2026-05-12", "ambito": "13715", "_raw_CD_SIGLAS": "SU", "_raw_DS_CLASIF_GEN": "Suelo Urbano", "_raw_DS_CLASIF_DET": "Suelo Urbano", "_raw_DS_DOCU": "NORMAS SUBSIDIARIAS", "_raw_DS_LEY": "CM Ley 4/1984, E RD 1346/1976", "_raw_FC_AC": "1990-12-20", "_raw_NM_AREA_M2": 76607.909157433096, "_cam_code": "125" }, "geometry": { "type": "Polygon", "coordinates": [ [ [ -4.2301, 40.5035 ], [ -4.2309, 40.5035 ], [ -4.2309, 40.5037 ], [ -4.2319, 40.5037 ], [ -4.2321, 40.5011 ], [ -4.2324, 40.5011 ], [ -4.2332, 40.5003 ], [ -4.2312, 40.4995 ], [ -4.2305, 40.4995 ], [ -4.2303, 40.4997 ], [ -4.2303, 40.5004 ], [ -4.2305, 40.5006 ], [ -4.2306, 40.5011 ], [ -4.2305, 40.5015 ], [ -4.2301, 40.5015 ], [ -4.2299, 40.5021 ], [ -4.2301, 40.5035 ] ] ] } },
{ "type": "Feature", "properties": { "municipio": "Robledo de Chavela", "clasificacion": "urbano-consolidado", "calificacion": "sin-asignar", "version": "vigente", "fuente": "SIT-CAM WFS — UsoDelSuelo:VPLA_V_CLASIFICACION (https://idem.comunidad.madrid/geosrvg/ows)", "fecha_dato": "2026-05-12", "ambito": "13715", "_raw_CD_SIGLAS": "SU", "_raw_DS_CLASIF_GEN": "Suelo Urbano", "_raw_DS_CLASIF_DET": "Suelo Urbano", "_raw_DS_DOCU": "NORMAS SUBSIDIARIAS", "_raw_DS_LEY": "CM Ley 4/1984, E RD 1346/1976", "_raw_FC_AC": "1990-12-20", "_raw_NM_AREA_M2": 15600.1750324307, "_cam_code": "125" }, "geometry": { "type": "Polygon", "coordinates": [ [ [ -4.2301, 40.5053 ], [ -4.2317, 40.5053 ], [ -4.2319, 40.5045 ], [ -4.2318, 40.5045 ], [ -4.2318, 40.5043 ], [ -4.2301, 40.5043 ], [ -4.2301, 40.5053 ] ] ] } },
{ "type": "Feature", "properties": { "municipio": "Robledo de Chavela", "clasificacion": "urbano-consolidado", "calificacion": "sin-asignar", "version": "vigente", "fuente": "SIT-CAM WFS — UsoDelSuelo:VPLA_V_CLASIFICACION (https://idem.comunidad.madrid/geosrvg/ows)", "fecha_dato": "2026-05-12", "ambito": "13715", "_raw_CD_SIGLAS": "SU", "_raw_DS_CLASIF_GEN": "Suelo Urbano", "_raw_DS_CLASIF_DET": "Suelo Urbano", "_raw_DS_DOCU": "NORMAS SUBSIDIARIAS", "_raw_DS_LEY": "CM Ley 4/1984, E RD 1346/1976", "_raw_FC_AC": "1990-12-20", "_raw_NM_AREA_M2": 451220.87442578899, "_cam_code": "125" }, "geometry": { "type": "Polygon", "coordinates": [ [ [ -4.2318, 40.5045 ], [ -4.235, 40.5048 ], [ -4.2348, 40.5054 ], [ -4.2353, 40.5055 ], [ -4.2355, 40.5049 ], [ -4.2361, 40.505 ], [ -4.2362, 40.5047 ], [ -4.2364, 40.5047 ], [ -4.2371, 40.5039 ], [ -4.2379, 40.5045 ], [ -4.2386, 40.5046 ], [ -4.2388, 40.5043 ], [ -4.2395, 40.5045 ], [ -4.2397, 40.5044 ], [ -4.2398, 40.5041 ], [ -4.2403, 40.5041 ], [ -4.24, 40.5029 ], [ -4.2404, 40.5027 ], [ -4.2405, 40.5024 ], [ -4.2404, 40.5016 ], [ -4.24, 40.5011 ], [ -4.2403, 40.5008 ], [ -4.2402, 40.5008 ], [ -4.2401, 40.5004 ], [ -4.2402, 40.5002 ], [ -4.2407, 40.5005 ], [ -4.2409, 40.5008 ], [ -4.2407, 40.5012 ], [ -4.2409, 40.5012 ], [ -4.241, 40.5014 ], [ -4.2419, 40.5012 ], [ -4.2417, 40.5009 ], [ -4.2418, 40.5008 ], [ -4.2418, 40.501 ], [ -4.2422, 40.5014 ], [ -4.2428, 40.5006 ], [ -4.2427, 40.5003 ], [ -4.2432, 40.4998 ], [ -4.2432, 40.4995 ], [ -4.2428, 40.499 ], [ -4.243, 40.4982 ], [ -4.2432, 40.498 ], [ -4.2432, 40.4977 ], [ -4.2412, 40.4982 ], [ -4.2411, 40.4981 ], [ -4.242, 40.497 ], [ -4.2419, 40.4967 ], [ -4.2411, 40.4964 ], [ -4.2413, 40.4962 ], [ -4.24, 40.4956 ], [ -4.2403, 40.4953 ], [ -4.2389, 40.4947 ], [ -4.2386, 40.4951 ], [ -4.2398, 40.4957 ], [ -4.2393, 40.4961 ], [ -4.239, 40.4966 ], [ -4.2388, 40.4965 ], [ -4.2385, 40.496 ], [ -4.2384, 40.4961 ], [ -4.239, 40.497 ], [ -4.2387, 40.4977 ], [ -4.2391, 40.4979 ], [ -4.2389, 40.4987 ], [ -4.2383, 40.4989 ], [ -4.2379, 40.4992 ], [ -4.2376, 40.499 ], [ -4.2372, 40.4991 ], [ -4.2353, 40.4983 ], [ -4.2354, 40.4985 ], [ -4.2353, 40.499 ], [ -4.2348, 40.4989 ], [ -4.2337, 40.4995 ], [ -4.234, 40.4997 ], [ -4.2337, 40.5003 ], [ -4.2338, 40.5004 ], [ -4.2335, 40.5011 ], [ -4.2342, 40.5013 ], [ -4.2346, 40.5006 ], [ -4.2359, 40.501 ], [ -4.2357, 40.5014 ], [ -4.2367, 40.5018 ], [ -4.2366, 40.5018 ], [ -4.2365, 40.5023 ], [ -4.2358, 40.5036 ], [ -4.2358, 40.5038 ], [ -4.2327, 40.503 ], [ -4.2326, 40.5035 ], [ -4.2319, 40.5034 ], [ -4.2319, 40.5037 ], [ -4.2309, 40.5037 ], [ -4.2309, 40.5035 ], [ -4.2301, 40.5035 ], [ -4.2301, 40.5043 ], [ -4.2318, 40.5043 ], [ -4.2318, 40.5045 ] ], [ [ -4.2414, 40.4996 ], [ -4.2409, 40.4997 ], [ -4.2411, 40.4996 ], [ -4.2405, 40.4992 ], [ -4.2407, 40.4991 ], [ -4.2406, 40.4988 ], [ -4.2411, 40.4988 ], [ -4.2413, 40.4986 ], [ -4.2417, 40.4987 ], [ -4.2416, 40.4988 ], [ -4.2417, 40.4997 ], [ -4.2415, 40.4998 ], [ -4.2414, 40.4996 ] ], [ [ -4.2361, 40.5009 ], [ -4.235, 40.5006 ], [ -4.2353, 40.4999 ], [ -4.2368, 40.5004 ], [ -4.2366, 40.5008 ], [ -4.2361, 40.5007 ], [ -4.2361, 40.5009 ] ] ] } },
{ "type": "Feature", "properties": { "municipio": "Robledo de Chavela", "clasificacion": "urbano-consolidado", "calificacion": "sin-asignar", "version": "vigente", "fuente": "SIT-CAM WFS — UsoDelSuelo:VPLA_V_CLASIFICACION (https://idem.comunidad.madrid/geosrvg/ows)", "fecha_dato": "2026-05-12", "ambito": "13715", "_raw_CD_SIGLAS": "SU", "_raw_DS_CLASIF_GEN": "Suelo Urbano", "_raw_DS_CLASIF_DET": "Suelo Urbano", "_raw_DS_DOCU": "NORMAS SUBSIDIARIAS", "_raw_DS_LEY": "CM Ley 4/1984, E RD 1346/1976", "_raw_FC_AC": "1990-12-20", "_raw_NM_AREA_M2": 14432.658340600001, "_cam_code": "125" }, "geometry": { "type": "Polygon", "coordinates": [ [ [ -4.242, 40.497 ], [ -4.2411, 40.4981 ], [ -4.2412, 40.4982 ], [ -4.2432, 40.4977 ], [ -4.2429, 40.4969 ], [ -4.2422, 40.4971 ], [ -4.242, 40.497 ] ] ] } },
{ "type": "Feature", "properties": { "municipio": "Robledo de Chavela", "clasificacion": "urbano-consolidado", "calificacion": "sin-asignar", "version": "vigente", "fuente": "SIT-CAM WFS — UsoDelSuelo:VPLA_V_CLASIFICACION (https://idem.comunidad.madrid/geosrvg/ows)", "fecha_dato": "2026-05-12", "ambito": "13715", "_raw_CD_SIGLAS": "SU", "_raw_DS_CLASIF_GEN": "Suelo Urbano", "_raw_DS_CLASIF_DET": "Suelo Urbano", "_raw_DS_DOCU": "NORMAS SUBSIDIARIAS", "_raw_DS_LEY": "CM Ley 4/1984, E RD 1346/1976", "_raw_FC_AC": "1990-12-20", "_raw_NM_AREA_M2": 8412.7488418047105, "_cam_code": "125" }, "geometry": { "type": "Polygon", "coordinates": [ [ [ -4.2414, 40.4996 ], [ -4.2415, 40.4998 ], [ -4.2417, 40.4997 ], [ -4.2416, 40.4995 ], [ -4.2417, 40.499 ], [ -4.2416, 40.499 ], [ -4.2416, 40.4988 ], [ -4.2417, 40.4987 ], [ -4.2413, 40.4986 ], [ -4.2411, 40.4988 ], [ -4.2406, 40.4988 ], [ -4.2407, 40.4991 ], [ -4.2405, 40.4992 ], [ -4.2411, 40.4996 ], [ -4.2409, 40.4997 ], [ -4.2414, 40.4996 ] ] ] } },
{ "type": "Feature", "properties": { "municipio": "Robledo de Chavela", "clasificacion": "urbano-consolidado", "calificacion": "sin-asignar", "version": "vigente", "fuente": "SIT-CAM WFS — UsoDelSuelo:VPLA_V_CLASIFICACION (https://idem.comunidad.madrid/geosrvg/ows)", "fecha_dato": "2026-05-12", "ambito": "13715", "_raw_CD_SIGLAS": "SU", "_raw_DS_CLASIF_GEN": "Suelo Urbano", "_raw_DS_CLASIF_DET": "Suelo Urbano", "_raw_DS_DOCU": "NORMAS SUBSIDIARIAS", "_raw_DS_LEY": "CM Ley 4/1984, E RD 1346/1976", "_raw_FC_AC": "1990-12-20", "_raw_NM_AREA_M2": 59736.941516523402, "_cam_code": "125" }, "geometry": { "type": "Polygon", "coordinates": [ [ [ -4.2335, 40.5011 ], [ -4.2327, 40.503 ], [ -4.2358, 40.5038 ], [ -4.2358, 40.5036 ], [ -4.2365, 40.5023 ], [ -4.2366, 40.5018 ], [ -4.2367, 40.5018 ], [ -4.2364, 40.5017 ], [ -4.2363, 40.5019 ], [ -4.2358, 40.5018 ], [ -4.2335, 40.5011 ] ] ] } },
{ "type": "Feature", "properties": { "municipio": "Robledo de Chavela", "clasificacion": "urbanizable-no-sectorizado", "calificacion": "sin-asignar", "version": "vigente", "fuente": "SIT-CAM WFS — UsoDelSuelo:VPLA_V_CLASIFICACION (https://idem.comunidad.madrid/geosrvg/ows)", "fecha_dato": "2026-05-12", "ambito": "13715", "_raw_CD_SIGLAS": "SUBNS", "_raw_DS_CLASIF_GEN": "Suelo No Urbanizable Común", "_raw_DS_CLASIF_DET": "Suelo No Urbanizable Común", "_raw_DS_DOCU": "NORMAS SUBSIDIARIAS", "_raw_DS_LEY": "CM Ley 4/1984, E RD 1346/1976", "_raw_FC_AC": "1990-12-20", "_raw_NM_AREA_M2": 739101.65953490895, "_cam_code": "125" }, "geometry": { "type": "Polygon", "coordinates": [ [ [ -4.2687, 40.4699 ], [ -4.2685, 40.4715 ], [ -4.2661, 40.4774 ], [ -4.2658, 40.4847 ], [ -4.2664, 40.4849 ], [ -4.268, 40.485 ], [ -4.2676, 40.4832 ], [ -4.2676, 40.4822 ], [ -4.2671, 40.4808 ], [ -4.2689, 40.4797 ], [ -4.27, 40.4782 ], [ -4.2699, 40.4772 ], [ -4.2696, 40.4761 ], [ -4.2696, 40.4755 ], [ -4.27, 40.475 ], [ -4.2709, 40.4745 ], [ -4.2745, 40.4718 ], [ -4.2761, 40.4699 ], [ -4.278, 40.4674 ], [ -4.2785, 40.4658 ], [ -4.2785, 40.4645 ], [ -4.2779, 40.4652 ], [ -4.2773, 40.4652 ], [ -4.2764, 40.4648 ], [ -4.2753, 40.4657 ], [ -4.2714, 40.468 ], [ -4.27, 40.4692 ], [ -4.2687, 40.4699 ] ] ] } },
{ "type": "Feature", "properties": { "municipio": "Robledo de Chavela", "clasificacion": "urbanizable-no-sectorizado", "calificacion": "sin-asignar", "version": "vigente", "fuente": "SIT-CAM WFS — UsoDelSuelo:VPLA_V_CLASIFICACION (https://idem.comunidad.madrid/geosrvg/ows)", "fecha_dato": "2026-05-12", "ambito": "13715", "_raw_CD_SIGLAS": "SUBNS", "_raw_DS_CLASIF_GEN": "Suelo No Urbanizable Común", "_raw_DS_CLASIF_DET": "Suelo No Urbanizable Común", "_raw_DS_DOCU": "NORMAS SUBSIDIARIAS", "_raw_DS_LEY": "CM Ley 4/1984, E RD 1346/1976", "_raw_FC_AC": "1990-12-20", "_raw_NM_AREA_M2": 6423992.9250413002, "_cam_code": "125" }, "geometry": { "type": "Polygon", "coordinates": [ [ [ -4.2298, 40.4901 ], [ -4.2316, 40.4902 ], [ -4.2327, 40.4893 ], [ -4.2353, 40.4881 ], [ -4.2387, 40.4869 ], [ -4.2417, 40.4854 ], [ -4.2441, 40.4838 ], [ -4.245, 40.483 ], [ -4.2479, 40.4797 ], [ -4.2495, 40.4776 ], [ -4.2513, 40.4757 ], [ -4.2521, 40.4746 ], [ -4.2526, 40.4736 ], [ -4.2533, 40.471 ], [ -4.2533, 40.4698 ], [ -4.2538, 40.4676 ], [ -4.2547, 40.4655 ], [ -4.2563, 40.4635 ], [ -4.2565, 40.4627 ], [ -4.2564, 40.4614 ], [ -4.2569, 40.4595 ], [ -4.2574, 40.4591 ], [ -4.2609, 40.4588 ], [ -4.2622, 40.4589 ], [ -4.263, 40.4592 ], [ -4.2645, 40.4601 ], [ -4.265, 40.4591 ], [ -4.265, 40.4576 ], [ -4.2654, 40.4548 ], [ -4.266, 40.4546 ], [ -4.2696, 40.4545 ], [ -4.2724, 40.4547 ], [ -4.2734, 40.4546 ], [ -4.2736, 40.4542 ], [ -4.2741, 40.4539 ], [ -4.2746, 40.4538 ], [ -4.2752, 40.4529 ], [ -4.276, 40.4512 ], [ -4.2764, 40.4492 ], [ -4.2794, 40.4456 ], [ -4.2809, 40.4435 ], [ -4.2826, 40.4409 ], [ -4.2838, 40.4384 ], [ -4.2847, 40.4352 ], [ -4.285, 40.4332 ], [ -4.2854, 40.4316 ], [ -4.2852, 40.4308 ], [ -4.2844, 40.4303 ], [ -4.2831, 40.4302 ], [ -4.2793, 40.4312 ], [ -4.2789, 40.4309 ], [ -4.2784, 40.4295 ], [ -4.2782, 40.4281 ], [ -4.2738, 40.4282 ], [ -4.2664, 40.4255 ], [ -4.2687, 40.4366 ], [ -4.2687, 40.4443 ], [ -4.268, 40.4457 ], [ -4.266, 40.448 ], [ -4.264, 40.4492 ], [ -4.2629, 40.4497 ], [ -4.2636, 40.448 ], [ -4.2606, 40.4495 ], [ -4.2599, 40.4522 ], [ -4.2586, 40.4539 ], [ -4.2557, 40.457 ], [ -4.2512, 40.4632 ], [ -4.2499, 40.4652 ], [ -4.2473, 40.4683 ], [ -4.2441, 40.4725 ], [ -4.2417, 40.4739 ], [ -4.241, 40.4748 ], [ -4.2383, 40.4771 ], [ -4.2346, 40.4818 ], [ -4.2311, 40.4837 ], [ -4.2306, 40.4853 ], [ -4.23, 40.4864 ], [ -4.2302, 40.4879 ], [ -4.2298, 40.4889 ], [ -4.2298, 40.4901 ] ] ] } },
{ "type": "Feature", "properties": { "municipio": "Robledo de Chavela", "clasificacion": "urbanizable-no-sectorizado", "calificacion": "sin-asignar", "version": "vigente", "fuente": "SIT-CAM WFS — UsoDelSuelo:VPLA_V_CLASIFICACION (https://idem.comunidad.madrid/geosrvg/ows)", "fecha_dato": "2026-05-12", "ambito": "13715", "_raw_CD_SIGLAS": "SUBNS", "_raw_DS_CLASIF_GEN": "Suelo No Urbanizable Común", "_raw_DS_CLASIF_DET": "Suelo No Urbanizable Común", "_raw_DS_DOCU": "NORMAS SUBSIDIARIAS", "_raw_DS_LEY": "CM Ley 4/1984, E RD 1346/1976", "_raw_FC_AC": "1990-12-20", "_raw_NM_AREA_M2": 10639968.822179999, "_cam_code": "125" }, "geometry": { "type": "Polygon", "coordinates": [ [ [ -4.2102, 40.5315 ], [ -4.2118, 40.5317 ], [ -4.2137, 40.5315 ], [ -4.2148, 40.531 ], [ -4.2189, 40.5284 ], [ -4.2185, 40.5251 ], [ -4.2182, 40.5244 ], [ -4.2179, 40.5231 ], [ -4.2174, 40.5221 ], [ -4.2173, 40.5204 ], [ -4.2182, 40.5189 ], [ -4.2184, 40.5179 ], [ -4.2182, 40.5168 ], [ -4.2171, 40.5147 ], [ -4.2174, 40.514 ], [ -4.218, 40.5132 ], [ -4.2185, 40.5115 ], [ -4.2196, 40.5104 ], [ -4.2203, 40.5101 ], [ -4.22, 40.5097 ], [ -4.2202, 40.5093 ], [ -4.2208, 40.5088 ], [ -4.2213, 40.5075 ], [ -4.2213, 40.5067 ], [ -4.2216, 40.5061 ], [ -4.2204, 40.506 ], [ -4.2186, 40.5068 ], [ -4.2169, 40.5082 ], [ -4.216, 40.5086 ], [ -4.2142, 40.5088 ], [ -4.2137, 40.5081 ], [ -4.2136, 40.5074 ], [ -4.2142, 40.5063 ], [ -4.2173, 40.5033 ], [ -4.2201, 40.4997 ], [ -4.2206, 40.4978 ], [ -4.2207, 40.4957 ], [ -4.2205, 40.4949 ], [ -4.2207, 40.4927 ], [ -4.221, 40.492 ], [ -4.222, 40.4907 ], [ -4.222, 40.4902 ], [ -4.2229, 40.4885 ], [ -4.2242, 40.4851 ], [ -4.2252, 40.4841 ], [ -4.2248, 40.4827 ], [ -4.2257, 40.4796 ], [ -4.2258, 40.4785 ], [ -4.2254, 40.4772 ], [ -4.2248, 40.4767 ], [ -4.2238, 40.4766 ], [ -4.2232, 40.4762 ], [ -4.2227, 40.4758 ], [ -4.2223, 40.4751 ], [ -4.2222, 40.4739 ], [ -4.2226, 40.4724 ], [ -4.2228, 40.472 ], [ -4.2231, 40.4719 ], [ -4.2235, 40.4721 ], [ -4.2245, 40.472 ], [ -4.2253, 40.4716 ], [ -4.2264, 40.4715 ], [ -4.227, 40.4718 ], [ -4.2281, 40.4717 ], [ -4.229, 40.4712 ], [ -4.2296, 40.4704 ], [ -4.2304, 40.47 ], [ -4.2313, 40.4699 ], [ -4.2317, 40.4701 ], [ -4.2326, 40.4724 ], [ -4.2331, 40.4726 ], [ -4.2336, 40.4725 ], [ -4.2344, 40.4721 ], [ -4.2363, 40.4707 ], [ -4.237, 40.4696 ], [ -4.239, 40.4681 ], [ -4.2396, 40.4675 ], [ -4.2405, 40.4662 ], [ -4.2412, 40.4656 ], [ -4.243, 40.4635 ], [ -4.244, 40.4616 ], [ -4.245, 40.4601 ], [ -4.2465, 40.4582 ], [ -4.2474, 40.456 ], [ -4.2493, 40.4536 ], [ -4.2499, 40.4518 ], [ -4.2502, 40.4514 ], [ -4.2509, 40.4496 ], [ -4.2528, 40.4459 ], [ -4.2535, 40.4451 ], [ -4.2536, 40.4446 ], [ -4.254, 40.4441 ], [ -4.2541, 40.4424 ], [ -4.2545, 40.4408 ], [ -4.2548, 40.4388 ], [ -4.2551, 40.4383 ], [ -4.2546, 40.4367 ], [ -4.2548, 40.4357 ], [ -4.2576, 40.4341 ], [ -4.2593, 40.4329 ], [ -4.2604, 40.4324 ], [ -4.26, 40.4315 ], [ -4.2594, 40.4312 ], [ -4.2596, 40.4286 ], [ -4.2554, 40.4247 ], [ -4.2549, 40.4235 ], [ -4.2537, 40.4254 ], [ -4.2521, 40.4269 ], [ -4.2511, 40.4274 ], [ -4.2484, 40.428 ], [ -4.2473, 40.4288 ], [ -4.2465, 40.4307 ], [ -4.248, 40.4347 ], [ -4.2483, 40.4351 ], [ -4.2474, 40.4365 ], [ -4.244, 40.4399 ], [ -4.2424, 40.4429 ], [ -4.2416, 40.4447 ], [ -4.241, 40.4466 ], [ -4.2404, 40.4471 ], [ -4.2388, 40.4477 ], [ -4.2372, 40.4481 ], [ -4.2362, 40.4494 ], [ -4.2363, 40.4509 ], [ -4.2378, 40.4552 ], [ -4.2378, 40.4559 ], [ -4.2368, 40.4565 ], [ -4.2354, 40.4565 ], [ -4.2337, 40.4555 ], [ -4.233, 40.4546 ], [ -4.2323, 40.4546 ], [ -4.2313, 40.4542 ], [ -4.2297, 40.4544 ], [ -4.2263, 40.456 ], [ -4.2245, 40.4577 ], [ -4.2245, 40.4584 ], [ -4.2254, 40.4596 ], [ -4.2255, 40.4605 ], [ -4.2242, 40.4627 ], [ -4.2235, 40.4644 ], [ -4.2233, 40.4658 ], [ -4.2221, 40.4668 ], [ -4.2211, 40.4674 ], [ -4.2195, 40.4671 ], [ -4.2181, 40.4664 ], [ -4.2176, 40.4656 ], [ -4.2177, 40.4646 ], [ -4.2173, 40.4634 ], [ -4.2166, 40.4621 ], [ -4.2167, 40.4613 ], [ -4.2173, 40.4593 ], [ -4.219, 40.4576 ], [ -4.2182, 40.4575 ], [ -4.2183, 40.4577 ], [ -4.2179, 40.4579 ], [ -4.2172, 40.4588 ], [ -4.2169, 40.4588 ], [ -4.2167, 40.4594 ], [ -4.2157, 40.46 ], [ -4.2153, 40.4601 ], [ -4.2149, 40.46 ], [ -4.2146, 40.4604 ], [ -4.2147, 40.4607 ], [ -4.2151, 40.4608 ], [ -4.2153, 40.461 ], [ -4.2155, 40.4616 ], [ -4.2153, 40.4622 ], [ -4.2151, 40.4624 ], [ -4.2147, 40.4625 ], [ -4.2145, 40.4628 ], [ -4.2147, 40.4635 ], [ -4.2149, 40.4637 ], [ -4.2149, 40.4641 ], [ -4.2144, 40.4649 ], [ -4.2143, 40.4649 ], [ -4.2144, 40.4651 ], [ -4.2151, 40.4654 ], [ -4.2152, 40.4661 ], [ -4.2155, 40.4663 ], [ -4.2155, 40.4667 ], [ -4.2153, 40.4669 ], [ -4.2153, 40.4672 ], [ -4.2157, 40.4677 ], [ -4.216, 40.4693 ], [ -4.2157, 40.4696 ], [ -4.2153, 40.4696 ], [ -4.2149, 40.4702 ], [ -4.2142, 40.4706 ], [ -4.214, 40.471 ], [ -4.214, 40.4713 ], [ -4.2142, 40.4715 ], [ -4.2143, 40.4719 ], [ -4.2132, 40.473 ], [ -4.2133, 40.4734 ], [ -4.2131, 40.4735 ], [ -4.2133, 40.4738 ], [ -4.2133, 40.4749 ], [ -4.2136, 40.4752 ], [ -4.2135, 40.4757 ], [ -4.2138, 40.4758 ], [ -4.2141, 40.4763 ], [ -4.2142, 40.4769 ], [ -4.214, 40.4776 ], [ -4.2142, 40.4779 ], [ -4.2141, 40.4782 ], [ -4.2142, 40.4783 ], [ -4.214, 40.4785 ], [ -4.2135, 40.4786 ], [ -4.2136, 40.4793 ], [ -4.2134, 40.4795 ], [ -4.2138, 40.48 ], [ -4.2138, 40.4805 ], [ -4.2135, 40.4811 ], [ -4.2133, 40.4811 ], [ -4.213, 40.4814 ], [ -4.213, 40.4823 ], [ -4.2127, 40.4825 ], [ -4.2128, 40.4829 ], [ -4.2131, 40.4833 ], [ -4.2131, 40.4837 ], [ -4.2125, 40.4843 ], [ -4.2124, 40.4851 ], [ -4.2116, 40.4862 ], [ -4.2121, 40.4863 ], [ -4.2132, 40.4862 ], [ -4.2141, 40.4859 ], [ -4.2143, 40.4854 ], [ -4.2157, 40.4849 ], [ -4.2162, 40.4853 ], [ -4.216, 40.486 ], [ -4.2159, 40.4879 ], [ -4.216, 40.4895 ], [ -4.2157, 40.4905 ], [ -4.2157, 40.4922 ], [ -4.2164, 40.4972 ], [ -4.2158, 40.4983 ], [ -4.2126, 40.5007 ], [ -4.2111, 40.5026 ], [ -4.2091, 40.5073 ], [ -4.2082, 40.5089 ], [ -4.2077, 40.5105 ], [ -4.208, 40.5114 ], [ -4.2084, 40.5113 ], [ -4.2086, 40.5116 ], [ -4.2089, 40.5117 ], [ -4.2098, 40.5117 ], [ -4.2105, 40.5121 ], [ -4.2108, 40.5125 ], [ -4.2107, 40.5134 ], [ -4.212, 40.5157 ], [ -4.212, 40.5166 ], [ -4.2129, 40.5184 ], [ -4.2126, 40.5203 ], [ -4.2122, 40.5209 ], [ -4.2119, 40.5225 ], [ -4.2121, 40.5252 ], [ -4.2118, 40.5281 ], [ -4.2112, 40.5297 ], [ -4.2102, 40.5315 ] ] ] } },
{ "type": "Feature", "properties": { "municipio": "Robledo de Chavela", "clasificacion": "urbanizable-no-sectorizado", "calificacion": "sin-asignar", "version": "vigente", "fuente": "SIT-CAM WFS — UsoDelSuelo:VPLA_V_CLASIFICACION (https://idem.comunidad.madrid/geosrvg/ows)", "fecha_dato": "2026-05-12", "ambito": "13715", "_raw_CD_SIGLAS": "SUBNS", "_raw_DS_CLASIF_GEN": "Suelo No Urbanizable Común", "_raw_DS_CLASIF_DET": "Suelo No Urbanizable Común", "_raw_DS_DOCU": "NORMAS SUBSIDIARIAS", "_raw_DS_LEY": "CM Ley 4/1984, E RD 1346/1976", "_raw_FC_AC": "1990-12-20", "_raw_NM_AREA_M2": 2034100.8327228499, "_cam_code": "125" }, "geometry": { "type": "Polygon", "coordinates": [ [ [ -4.1328, 40.518 ], [ -4.1361, 40.517 ], [ -4.1383, 40.5176 ], [ -4.1417, 40.5175 ], [ -4.1447, 40.5177 ], [ -4.1493, 40.5182 ], [ -4.1539, 40.519 ], [ -4.155, 40.519 ], [ -4.1566, 40.5181 ], [ -4.1585, 40.5166 ], [ -4.1594, 40.5156 ], [ -4.1599, 40.5146 ], [ -4.1605, 40.5139 ], [ -4.1628, 40.513 ], [ -4.1636, 40.5117 ], [ -4.1638, 40.5103 ], [ -4.1643, 40.5094 ], [ -4.1612, 40.5101 ], [ -4.1502, 40.5099 ], [ -4.1462, 40.5096 ], [ -4.1454, 40.5092 ], [ -4.1447, 40.5091 ], [ -4.1436, 40.5085 ], [ -4.1428, 40.5078 ], [ -4.1428, 40.5076 ], [ -4.1425, 40.5076 ], [ -4.1423, 40.5074 ], [ -4.1422, 40.5071 ], [ -4.1421, 40.5071 ], [ -4.1421, 40.5066 ], [ -4.1412, 40.5062 ], [ -4.1344, 40.5159 ], [ -4.1328, 40.518 ] ] ] } },
{ "type": "Feature", "properties": { "municipio": "Robledo de Chavela", "clasificacion": "urbanizable-no-sectorizado", "calificacion": "sin-asignar", "version": "vigente", "fuente": "SIT-CAM WFS — UsoDelSuelo:VPLA_V_CLASIFICACION (https://idem.comunidad.madrid/geosrvg/ows)", "fecha_dato": "2026-05-12", "ambito": "13715", "_raw_CD_SIGLAS": "SUBNS", "_raw_DS_CLASIF_GEN": "Suelo No Urbanizable Común", "_raw_DS_CLASIF_DET": "Suelo No Urbanizable Común", "_raw_DS_DOCU": "NORMAS SUBSIDIARIAS", "_raw_DS_LEY": "CM Ley 4/1984, E RD 1346/1976", "_raw_FC_AC": "1990-12-20", "_raw_NM_AREA_M2": 2469343.1929062302, "_cam_code": "125" }, "geometry": { "type": "Polygon", "coordinates": [ [ [ -4.1862, 40.512 ], [ -4.1877, 40.512 ], [ -4.1921, 40.5128 ], [ -4.1929, 40.5132 ], [ -4.196, 40.5137 ], [ -4.1974, 40.5144 ], [ -4.2003, 40.515 ], [ -4.2021, 40.5149 ], [ -4.203, 40.5147 ], [ -4.2028, 40.5136 ], [ -4.203, 40.5121 ], [ -4.2039, 40.5093 ], [ -4.205, 40.5071 ], [ -4.2052, 40.5057 ], [ -4.2061, 40.5043 ], [ -4.2066, 40.5011 ], [ -4.207, 40.4996 ], [ -4.2079, 40.4985 ], [ -4.2012, 40.4975 ], [ -4.2026, 40.4991 ], [ -4.1996, 40.5 ], [ -4.1976, 40.4987 ], [ -4.1954, 40.4988 ], [ -4.1884, 40.5013 ], [ -4.1864, 40.5024 ], [ -4.1865, 40.5042 ], [ -4.1868, 40.5062 ], [ -4.1864, 40.5082 ], [ -4.1859, 40.5091 ], [ -4.1857, 40.5107 ], [ -4.1858, 40.5117 ], [ -4.1862, 40.512 ] ] ] } },
{ "type": "Feature", "properties": { "municipio": "Robledo de Chavela", "clasificacion": "urbanizable-no-sectorizado", "calificacion": "sin-asignar", "version": "vigente", "fuente": "SIT-CAM WFS — UsoDelSuelo:VPLA_V_CLASIFICACION (https://idem.comunidad.madrid/geosrvg/ows)", "fecha_dato": "2026-05-12", "ambito": "13715", "_raw_CD_SIGLAS": "SUBNS", "_raw_DS_CLASIF_GEN": "Suelo No Urbanizable Común", "_raw_DS_CLASIF_DET": "Suelo No Urbanizable Común", "_raw_DS_DOCU": "NORMAS SUBSIDIARIAS", "_raw_DS_LEY": "CM Ley 4/1984, E RD 1346/1976", "_raw_FC_AC": "1990-12-20", "_raw_NM_AREA_M2": 916804.73185052001, "_cam_code": "125" }, "geometry": { "type": "Polygon", "coordinates": [ [ [ -4.2794, 40.4877 ], [ -4.2809, 40.4878 ], [ -4.2817, 40.4893 ], [ -4.2823, 40.49 ], [ -4.2851, 40.4895 ], [ -4.2856, 40.4886 ], [ -4.2858, 40.4885 ], [ -4.286, 40.488 ], [ -4.2864, 40.4877 ], [ -4.2868, 40.4876 ], [ -4.2873, 40.4884 ], [ -4.2879, 40.4886 ], [ -4.288, 40.4858 ], [ -4.2874, 40.4821 ], [ -4.2874, 40.4803 ], [ -4.2877, 40.4791 ], [ -4.285, 40.4786 ], [ -4.2842, 40.4778 ], [ -4.2841, 40.4767 ], [ -4.2827, 40.4767 ], [ -4.2819, 40.4769 ], [ -4.2809, 40.4793 ], [ -4.2799, 40.4797 ], [ -4.279, 40.4799 ], [ -4.2781, 40.4794 ], [ -4.2777, 40.4833 ], [ -4.2782, 40.4854 ], [ -4.2794, 40.4877 ] ] ] } },
{ "type": "Feature", "properties": { "municipio": "Robledo de Chavela", "clasificacion": "urbanizable-sectorizado", "calificacion": "sin-asignar", "version": "vigente", "fuente": "SIT-CAM WFS — UsoDelSuelo:VPLA_V_CLASIFICACION (https://idem.comunidad.madrid/geosrvg/ows)", "fecha_dato": "2026-05-12", "ambito": "13715", "_raw_CD_SIGLAS": "SUBS", "_raw_DS_CLASIF_GEN": "Suelo Apto Para Urbanizar", "_raw_DS_CLASIF_DET": "Suelo Apto para Urbanizar", "_raw_DS_DOCU": "NORMAS SUBSIDIARIAS", "_raw_DS_LEY": "CM Ley 4/1984, E RD 1346/1976", "_raw_FC_AC": "1990-12-20", "_raw_NM_AREA_M2": 112785.206877979, "_cam_code": "125" }, "geometry": { "type": "Polygon", "coordinates": [ [ [ -4.2522, 40.5187 ], [ -4.2528, 40.5198 ], [ -4.2533, 40.5201 ], [ -4.2536, 40.5205 ], [ -4.2536, 40.5207 ], [ -4.2538, 40.5208 ], [ -4.2541, 40.5207 ], [ -4.2545, 40.5199 ], [ -4.2549, 40.5195 ], [ -4.2551, 40.519 ], [ -4.2559, 40.5189 ], [ -4.2562, 40.5184 ], [ -4.2558, 40.5184 ], [ -4.2558, 40.5182 ], [ -4.2563, 40.5181 ], [ -4.2566, 40.5177 ], [ -4.2568, 40.517 ], [ -4.2533, 40.5171 ], [ -4.2509, 40.5169 ], [ -4.2514, 40.5178 ], [ -4.2522, 40.5187 ] ] ] } },
{ "type": "Feature", "properties": { "municipio": "Robledo de Chavela", "clasificacion": "urbanizable-sectorizado", "calificacion": "sin-asignar", "version": "vigente", "fuente": "SIT-CAM WFS — UsoDelSuelo:VPLA_V_CLASIFICACION (https://idem.comunidad.madrid/geosrvg/ows)", "fecha_dato": "2026-05-12", "ambito": "13715", "_raw_CD_SIGLAS": "SUBS", "_raw_DS_CLASIF_GEN": "Suelo Apto Para Urbanizar", "_raw_DS_CLASIF_DET": "Suelo Apto para Urbanizar", "_raw_DS_DOCU": "NORMAS SUBSIDIARIAS", "_raw_DS_LEY": "CM Ley 4/1984, E RD 1346/1976", "_raw_FC_AC": "1990-12-20", "_raw_NM_AREA_M2": 69825.576667766494, "_cam_code": "125" }, "geometry": { "type": "Polygon", "coordinates": [ [ [ -4.2304, 40.507 ], [ -4.2306, 40.5066 ], [ -4.2309, 40.5065 ], [ -4.2336, 40.5061 ], [ -4.2337, 40.5068 ], [ -4.2341, 40.5066 ], [ -4.2345, 40.5066 ], [ -4.2345, 40.506 ], [ -4.2351, 40.5059 ], [ -4.2353, 40.5055 ], [ -4.2348, 40.5054 ], [ -4.235, 40.5048 ], [ -4.2319, 40.5045 ], [ -4.2317, 40.5053 ], [ -4.2316, 40.5053 ], [ -4.2307, 40.5053 ], [ -4.2305, 40.5053 ], [ -4.2302, 40.5053 ], [ -4.2301, 40.5053 ], [ -4.2302, 40.5053 ], [ -4.2301, 40.5064 ], [ -4.2304, 40.507 ] ] ] } },
{ "type": "Feature", "properties": { "municipio": "Robledo de Chavela", "clasificacion": "urbanizable-sectorizado", "calificacion": "sin-asignar", "version": "vigente", "fuente": "SIT-CAM WFS — UsoDelSuelo:VPLA_V_CLASIFICACION (https://idem.comunidad.madrid/geosrvg/ows)", "fecha_dato": "2026-05-12", "ambito": "13715", "_raw_CD_SIGLAS": "SUBS", "_raw_DS_CLASIF_GEN": "Suelo Apto Para Urbanizar", "_raw_DS_CLASIF_DET": "Suelo Apto para Urbanizar", "_raw_DS_DOCU": "NORMAS SUBSIDIARIAS", "_raw_DS_LEY": "CM Ley 4/1984, E RD 1346/1976", "_raw_FC_AC": "1990-12-20", "_raw_NM_AREA_M2": 233837.94622470901, "_cam_code": "125" }, "geometry": { "type": "Polygon", "coordinates": [ [ [ -4.2312, 40.4995 ], [ -4.2337, 40.5004 ], [ -4.234, 40.4997 ], [ -4.2337, 40.4995 ], [ -4.234, 40.4993 ], [ -4.2348, 40.4989 ], [ -4.2353, 40.499 ], [ -4.2354, 40.4987 ], [ -4.2353, 40.4983 ], [ -4.2372, 40.4991 ], [ -4.2376, 40.499 ], [ -4.2379, 40.4992 ], [ -4.2383, 40.4989 ], [ -4.2389, 40.4987 ], [ -4.2391, 40.4979 ], [ -4.2387, 40.4977 ], [ -4.239, 40.497 ], [ -4.2385, 40.4962 ], [ -4.2376, 40.4955 ], [ -4.2368, 40.4954 ], [ -4.2343, 40.4956 ], [ -4.2342, 40.4958 ], [ -4.2336, 40.4961 ], [ -4.2326, 40.4964 ], [ -4.2321, 40.4971 ], [ -4.2316, 40.4974 ], [ -4.2312, 40.4995 ] ] ] } }
]
}
