{
"type": "FeatureCollection",
"name": "vigente.full",
"features": [
{ "type": "Feature", "properties": { "municipio": "Ribatejada", "clasificacion": "no-urbanizable-protegido", "calificacion": "sin-asignar", "version": "vigente", "fuente": "SIT-CAM WFS — UsoDelSuelo:VPLA_V_CLASIFICACION (https://idem.comunidad.madrid/geosrvg/ows)", "fecha_dato": "2026-05-12", "ambito": "15136", "_raw_CD_SIGLAS": "SNUP", "_raw_DS_CLASIF_GEN": "Suelo No Urbanizable Protegido", "_raw_DS_CLASIF_DET": "Suelo No Urbanizable Especialmente Protegido por su Valor Ecológico y Paisajístico", "_raw_DS_DOCU": "NORMAS SUBSIDIARIAS", "_raw_DS_LEY": "E RD 1346/1976", "_raw_FC_AC": "1991-04-04", "_raw_NM_AREA_M2": 8771690.8592532091, "_cam_code": "122" }, "geometry": { "type": "Polygon", "coordinates": [ [ [ -3.3934, 40.6925 ], [ -3.3952, 40.6922 ], [ -3.397, 40.6916 ], [ -3.3994, 40.6913 ], [ -3.3999, 40.6914 ], [ -3.4007, 40.6901 ], [ -3.4031, 40.6836 ], [ -3.403, 40.6835 ], [ -3.4033, 40.683 ], [ -3.404, 40.6798 ], [ -3.4047, 40.6779 ], [ -3.4049, 40.6767 ], [ -3.4046, 40.6744 ], [ -3.4052, 40.6738 ], [ -3.4051, 40.6718 ], [ -3.4047, 40.6696 ], [ -3.4075, 40.6706 ], [ -3.4084, 40.6706 ], [ -3.4093, 40.6708 ], [ -3.4095, 40.6719 ], [ -3.4124, 40.6713 ], [ -3.4137, 40.6717 ], [ -3.4141, 40.6711 ], [ -3.4157, 40.6709 ], [ -3.4161, 40.6694 ], [ -3.417, 40.6695 ], [ -3.4169, 40.6711 ], [ -3.4167, 40.6715 ], [ -3.4195, 40.6722 ], [ -3.4196, 40.6712 ], [ -3.4199, 40.6703 ], [ -3.4202, 40.67 ], [ -3.4205, 40.6693 ], [ -3.4208, 40.6691 ], [ -3.4205, 40.6689 ], [ -3.4209, 40.6684 ], [ -3.421, 40.6671 ], [ -3.4219, 40.6664 ], [ -3.4232, 40.6645 ], [ -3.4239, 40.6644 ], [ -3.4245, 40.6636 ], [ -3.4252, 40.6637 ], [ -3.4253, 40.6639 ], [ -3.4246, 40.6653 ], [ -3.4235, 40.6666 ], [ -3.4234, 40.6672 ], [ -3.4236, 40.6677 ], [ -3.4236, 40.6684 ], [ -3.4235, 40.6684 ], [ -3.4246, 40.6686 ], [ -3.4251, 40.6684 ], [ -3.4259, 40.6678 ], [ -3.4269, 40.6676 ], [ -3.4269, 40.6675 ], [ -3.4272, 40.6675 ], [ -3.4272, 40.6674 ], [ -3.4276, 40.6673 ], [ -3.4279, 40.6673 ], [ -3.4287, 40.6677 ], [ -3.4293, 40.6677 ], [ -3.4299, 40.667 ], [ -3.4294, 40.6651 ], [ -3.4293, 40.6651 ], [ -3.4294, 40.6642 ], [ -3.4304, 40.6642 ], [ -3.4306, 40.6641 ], [ -3.4313, 40.6648 ], [ -3.4318, 40.6649 ], [ -3.432, 40.6651 ], [ -3.432, 40.6654 ], [ -3.4317, 40.6657 ], [ -3.4316, 40.6662 ], [ -3.4327, 40.6674 ], [ -3.4327, 40.6679 ], [ -3.4317, 40.6684 ], [ -3.4308, 40.6684 ], [ -3.4304, 40.6688 ], [ -3.4297, 40.6692 ], [ -3.4301, 40.6692 ], [ -3.4301, 40.6693 ], [ -3.4305, 40.6694 ], [ -3.4304, 40.6694 ], [ -3.4304, 40.6696 ], [ -3.4315, 40.6697 ], [ -3.4319, 40.6701 ], [ -3.4327, 40.6705 ], [ -3.4329, 40.6709 ], [ -3.433, 40.6718 ], [ -3.4326, 40.6721 ], [ -3.4312, 40.6721 ], [ -3.4308, 40.6723 ], [ -3.43, 40.6721 ], [ -3.43, 40.672 ], [ -3.4297, 40.6719 ], [ -3.4298, 40.6721 ], [ -3.4303, 40.6726 ], [ -3.4312, 40.6728 ], [ -3.4316, 40.6732 ], [ -3.4324, 40.6732 ], [ -3.4334, 40.6731 ], [ -3.4333, 40.6721 ], [ -3.4344, 40.6722 ], [ -3.4348, 40.6719 ], [ -3.4351, 40.6719 ], [ -3.4352, 40.672 ], [ -3.4352, 40.6725 ], [ -3.4359, 40.6727 ], [ -3.4361, 40.6729 ], [ -3.4362, 40.6753 ], [ -3.4417, 40.6742 ], [ -3.4415, 40.6761 ], [ -3.4419, 40.6768 ], [ -3.442, 40.6776 ], [ -3.4424, 40.6781 ], [ -3.4431, 40.6781 ], [ -3.443, 40.6776 ], [ -3.4427, 40.6771 ], [ -3.4431, 40.676 ], [ -3.4426, 40.6753 ], [ -3.4426, 40.675 ], [ -3.4434, 40.6737 ], [ -3.4432, 40.6735 ], [ -3.443, 40.6725 ], [ -3.4432, 40.6719 ], [ -3.4437, 40.6712 ], [ -3.4436, 40.6711 ], [ -3.4437, 40.6707 ], [ -3.4447, 40.67 ], [ -3.447, 40.6678 ], [ -3.447, 40.6677 ], [ -3.4464, 40.6675 ], [ -3.4466, 40.6665 ], [ -3.4466, 40.6655 ], [ -3.4467, 40.6655 ], [ -3.4468, 40.6648 ], [ -3.4465, 40.6645 ], [ -3.4463, 40.6645 ], [ -3.446, 40.6642 ], [ -3.4449, 40.6637 ], [ -3.4447, 40.6634 ], [ -3.4444, 40.6633 ], [ -3.4445, 40.6626 ], [ -3.4442, 40.6623 ], [ -3.4442, 40.6619 ], [ -3.444, 40.6617 ], [ -3.444, 40.6615 ], [ -3.4442, 40.6609 ], [ -3.4445, 40.6607 ], [ -3.4446, 40.6598 ], [ -3.4436, 40.6592 ], [ -3.4413, 40.6591 ], [ -3.4412, 40.659 ], [ -3.4391, 40.6587 ], [ -3.4388, 40.6589 ], [ -3.4359, 40.6584 ], [ -3.4339, 40.6585 ], [ -3.4346, 40.6595 ], [ -3.4335, 40.6602 ], [ -3.4321, 40.6595 ], [ -3.4317, 40.6596 ], [ -3.4291, 40.6618 ], [ -3.4291, 40.6615 ], [ -3.4297, 40.6602 ], [ -3.4309, 40.6586 ], [ -3.4319, 40.6577 ], [ -3.4315, 40.6577 ], [ -3.4306, 40.658 ], [ -3.4301, 40.6579 ], [ -3.429, 40.6582 ], [ -3.4285, 40.6588 ], [ -3.4264, 40.6604 ], [ -3.4256, 40.6606 ], [ -3.425, 40.661 ], [ -3.4232, 40.6617 ], [ -3.4224, 40.6617 ], [ -3.421, 40.6629 ], [ -3.4202, 40.6633 ], [ -3.4202, 40.663 ], [ -3.4205, 40.6623 ], [ -3.4211, 40.6618 ], [ -3.4213, 40.6607 ], [ -3.4219, 40.6599 ], [ -3.4223, 40.6597 ], [ -3.4222, 40.6594 ], [ -3.423, 40.6558 ], [ -3.4249, 40.6539 ], [ -3.4255, 40.653 ], [ -3.4272, 40.6511 ], [ -3.4283, 40.6493 ], [ -3.4298, 40.6474 ], [ -3.4296, 40.6465 ], [ -3.4282, 40.6466 ], [ -3.4275, 40.6464 ], [ -3.4259, 40.6467 ], [ -3.4247, 40.6467 ], [ -3.4235, 40.6463 ], [ -3.4227, 40.6462 ], [ -3.4222, 40.6463 ], [ -3.4203, 40.6458 ], [ -3.4191, 40.6458 ], [ -3.418, 40.6474 ], [ -3.4181, 40.6477 ], [ -3.4178, 40.6485 ], [ -3.4166, 40.6484 ], [ -3.4161, 40.6485 ], [ -3.4156, 40.649 ], [ -3.4147, 40.6496 ], [ -3.4145, 40.6501 ], [ -3.4139, 40.6509 ], [ -3.4139, 40.6514 ], [ -3.4137, 40.6516 ], [ -3.4131, 40.6532 ], [ -3.4125, 40.653 ], [ -3.4127, 40.6519 ], [ -3.4087, 40.6508 ], [ -3.4082, 40.6513 ], [ -3.4075, 40.6524 ], [ -3.4072, 40.6525 ], [ -3.4069, 40.6533 ], [ -3.4068, 40.6548 ], [ -3.4065, 40.6553 ], [ -3.4045, 40.6574 ], [ -3.4039, 40.6577 ], [ -3.405, 40.6585 ], [ -3.4039, 40.6598 ], [ -3.4058, 40.6608 ], [ -3.4059, 40.661 ], [ -3.4057, 40.6614 ], [ -3.4064, 40.6617 ], [ -3.407, 40.6614 ], [ -3.4109, 40.6616 ], [ -3.411, 40.6614 ], [ -3.4108, 40.661 ], [ -3.4111, 40.6602 ], [ -3.4115, 40.6602 ], [ -3.4116, 40.6594 ], [ -3.4125, 40.6591 ], [ -3.4125, 40.6588 ], [ -3.4128, 40.6585 ], [ -3.4123, 40.6577 ], [ -3.4125, 40.6572 ], [ -3.4156, 40.6579 ], [ -3.4154, 40.6585 ], [ -3.4154, 40.659 ], [ -3.415, 40.6593 ], [ -3.4137, 40.6594 ], [ -3.4135, 40.6602 ], [ -3.4142, 40.6612 ], [ -3.4138, 40.6615 ], [ -3.4126, 40.6617 ], [ -3.4124, 40.6627 ], [ -3.4121, 40.6627 ], [ -3.412, 40.6633 ], [ -3.4123, 40.6635 ], [ -3.4105, 40.6645 ], [ -3.408, 40.6647 ], [ -3.4073, 40.6646 ], [ -3.4047, 40.6647 ], [ -3.4046, 40.665 ], [ -3.4047, 40.6654 ], [ -3.405, 40.6657 ], [ -3.405, 40.6662 ], [ -3.4058, 40.6672 ], [ -3.4054, 40.6676 ], [ -3.4027, 40.6679 ], [ -3.4019, 40.6678 ], [ -3.4011, 40.6689 ], [ -3.4003, 40.6687 ], [ -3.3986, 40.6688 ], [ -3.3968, 40.6681 ], [ -3.3961, 40.668 ], [ -3.3969, 40.6695 ], [ -3.3969, 40.6699 ], [ -3.3952, 40.6711 ], [ -3.3948, 40.6717 ], [ -3.394, 40.672 ], [ -3.3939, 40.6724 ], [ -3.394, 40.674 ], [ -3.3945, 40.6752 ], [ -3.3944, 40.6756 ], [ -3.3939, 40.6751 ], [ -3.3924, 40.6748 ], [ -3.3925, 40.675 ], [ -3.3928, 40.675 ], [ -3.3929, 40.6753 ], [ -3.3926, 40.6754 ], [ -3.3927, 40.6763 ], [ -3.3923, 40.6766 ], [ -3.3899, 40.6768 ], [ -3.3893, 40.6775 ], [ -3.3882, 40.6794 ], [ -3.3879, 40.6795 ], [ -3.3877, 40.6795 ], [ -3.3867, 40.6789 ], [ -3.386, 40.6783 ], [ -3.3856, 40.6789 ], [ -3.3855, 40.6799 ], [ -3.3853, 40.6803 ], [ -3.3834, 40.6819 ], [ -3.3828, 40.6832 ], [ -3.3832, 40.6833 ], [ -3.3836, 40.6836 ], [ -3.3842, 40.6836 ], [ -3.3858, 40.6841 ], [ -3.3865, 40.6852 ], [ -3.3867, 40.6858 ], [ -3.3871, 40.6862 ], [ -3.3886, 40.6869 ], [ -3.3893, 40.6874 ], [ -3.3934, 40.6925 ] ] ] } },
{ "type": "Feature", "properties": { "municipio": "Ribatejada", "clasificacion": "no-urbanizable-protegido", "calificacion": "sin-asignar", "version": "vigente", "fuente": "SIT-CAM WFS — UsoDelSuelo:VPLA_V_CLASIFICACION (https://idem.comunidad.madrid/geosrvg/ows)", "fecha_dato": "2026-05-12", "ambito": "15136", "_raw_CD_SIGLAS": "SNUP", "_raw_DS_CLASIF_GEN": "Suelo No Urbanizable Protegido", "_raw_DS_CLASIF_DET": "Suelo No Urbanizable Especialmente Protegido por su Afección de Cauces y Riberas", "_raw_DS_DOCU": "NORMAS SUBSIDIARIAS", "_raw_DS_LEY": "E RD 1346/1976", "_raw_FC_AC": "1991-04-04", "_raw_NM_AREA_M2": 352960.59533519601, "_cam_code": "122" }, "geometry": { "type": "Polygon", "coordinates": [ [ [ -3.3653, 40.6508 ], [ -3.3642, 40.652 ], [ -3.3635, 40.6525 ], [ -3.3623, 40.6537 ], [ -3.3631, 40.6549 ], [ -3.3656, 40.6531 ], [ -3.3669, 40.651 ], [ -3.3686, 40.6504 ], [ -3.37, 40.6497 ], [ -3.3733, 40.6493 ], [ -3.3736, 40.6474 ], [ -3.3734, 40.6455 ], [ -3.3742, 40.6454 ], [ -3.3743, 40.644 ], [ -3.3751, 40.6433 ], [ -3.3757, 40.6434 ], [ -3.376, 40.643 ], [ -3.3755, 40.6427 ], [ -3.3757, 40.6422 ], [ -3.3766, 40.6418 ], [ -3.3773, 40.6411 ], [ -3.3786, 40.6404 ], [ -3.3792, 40.6395 ], [ -3.3803, 40.6375 ], [ -3.3812, 40.6332 ], [ -3.382, 40.6324 ], [ -3.3828, 40.6324 ], [ -3.3844, 40.6311 ], [ -3.3821, 40.6305 ], [ -3.3814, 40.6312 ], [ -3.3803, 40.6329 ], [ -3.3804, 40.6348 ], [ -3.3799, 40.6374 ], [ -3.3795, 40.6385 ], [ -3.3786, 40.6399 ], [ -3.3777, 40.6405 ], [ -3.3756, 40.641 ], [ -3.3743, 40.6415 ], [ -3.3733, 40.6425 ], [ -3.3728, 40.6432 ], [ -3.3727, 40.6444 ], [ -3.373, 40.6451 ], [ -3.373, 40.6461 ], [ -3.3732, 40.6466 ], [ -3.3732, 40.6479 ], [ -3.3724, 40.6485 ], [ -3.3715, 40.6486 ], [ -3.3707, 40.6484 ], [ -3.3698, 40.6477 ], [ -3.3694, 40.6477 ], [ -3.3682, 40.6491 ], [ -3.3677, 40.6493 ], [ -3.3661, 40.6504 ], [ -3.3653, 40.6508 ] ] ] } },
{ "type": "Feature", "properties": { "municipio": "Ribatejada", "clasificacion": "no-urbanizable-protegido", "calificacion": "sin-asignar", "version": "vigente", "fuente": "SIT-CAM WFS — UsoDelSuelo:VPLA_V_CLASIFICACION (https://idem.comunidad.madrid/geosrvg/ows)", "fecha_dato": "2026-05-12", "ambito": "15136", "_raw_CD_SIGLAS": "SNUP", "_raw_DS_CLASIF_GEN": "Suelo No Urbanizable Protegido", "_raw_DS_CLASIF_DET": "Suelo No Urbanizable Especialmente Protegido por su Interés Forestal", "_raw_DS_DOCU": "NORMAS SUBSIDIARIAS", "_raw_DS_LEY": "E RD 1346/1976", "_raw_FC_AC": "1991-04-04", "_raw_NM_AREA_M2": 63863.189891244998, "_cam_code": "122" }, "geometry": { "type": "Polygon", "coordinates": [ [ [ -3.3819, 40.6802 ], [ -3.3825, 40.6798 ], [ -3.3834, 40.6796 ], [ -3.3838, 40.6797 ], [ -3.384, 40.6792 ], [ -3.3841, 40.6792 ], [ -3.3819, 40.6784 ], [ -3.3803, 40.6768 ], [ -3.3795, 40.6765 ], [ -3.3786, 40.6759 ], [ -3.378, 40.6764 ], [ -3.3801, 40.6777 ], [ -3.3805, 40.6782 ], [ -3.3805, 40.679 ], [ -3.3819, 40.6802 ] ] ] } },
{ "type": "Feature", "properties": { "municipio": "Ribatejada", "clasificacion": "no-urbanizable-protegido", "calificacion": "sin-asignar", "version": "vigente", "fuente": "SIT-CAM WFS — UsoDelSuelo:VPLA_V_CLASIFICACION (https://idem.comunidad.madrid/geosrvg/ows)", "fecha_dato": "2026-05-12", "ambito": "15136", "_raw_CD_SIGLAS": "SNUP", "_raw_DS_CLASIF_GEN": "Suelo No Urbanizable Protegido", "_raw_DS_CLASIF_DET": "Suelo No Urbanizable Especialmente Protegido por su Valor Agropecuario", "_raw_DS_DOCU": "NORMAS SUBSIDIARIAS", "_raw_DS_LEY": "E RD 1346/1976", "_raw_FC_AC": "1991-04-04", "_raw_NM_AREA_M2": 6792060.77530408, "_cam_code": "122" }, "geometry": { "type": "Polygon", "coordinates": [ [ [ -3.4558, 40.6874 ], [ -3.4563, 40.6879 ], [ -3.46, 40.6889 ], [ -3.4665, 40.6895 ], [ -3.4686, 40.6899 ], [ -3.467, 40.6875 ], [ -3.4646, 40.6868 ], [ -3.4641, 40.6868 ], [ -3.4637, 40.6871 ], [ -3.4625, 40.685 ], [ -3.4602, 40.6821 ], [ -3.4604, 40.6821 ], [ -3.4607, 40.6818 ], [ -3.4611, 40.6817 ], [ -3.4621, 40.6815 ], [ -3.4623, 40.6816 ], [ -3.4626, 40.6812 ], [ -3.4628, 40.6805 ], [ -3.4635, 40.6803 ], [ -3.4638, 40.6799 ], [ -3.4644, 40.6798 ], [ -3.4647, 40.6795 ], [ -3.4652, 40.6796 ], [ -3.4659, 40.6792 ], [ -3.466, 40.6789 ], [ -3.4651, 40.6756 ], [ -3.465, 40.6742 ], [ -3.4663, 40.6713 ], [ -3.4683, 40.6692 ], [ -3.4699, 40.6694 ], [ -3.4706, 40.6691 ], [ -3.4713, 40.6691 ], [ -3.4721, 40.6689 ], [ -3.474, 40.6689 ], [ -3.4789, 40.6698 ], [ -3.4789, 40.6708 ], [ -3.4827, 40.6704 ], [ -3.4812, 40.6659 ], [ -3.481, 40.666 ], [ -3.4803, 40.6653 ], [ -3.4792, 40.665 ], [ -3.4773, 40.6651 ], [ -3.4766, 40.6648 ], [ -3.475, 40.6653 ], [ -3.4743, 40.6653 ], [ -3.474, 40.6655 ], [ -3.4735, 40.6655 ], [ -3.473, 40.6658 ], [ -3.4727, 40.6658 ], [ -3.4727, 40.6659 ], [ -3.4725, 40.6658 ], [ -3.4696, 40.6659 ], [ -3.469, 40.666 ], [ -3.4678, 40.6665 ], [ -3.4672, 40.6665 ], [ -3.4671, 40.6663 ], [ -3.4663, 40.6663 ], [ -3.4663, 40.6664 ], [ -3.466, 40.6665 ], [ -3.4654, 40.6665 ], [ -3.4652, 40.6663 ], [ -3.4643, 40.6662 ], [ -3.4641, 40.6659 ], [ -3.4634, 40.6658 ], [ -3.4629, 40.6653 ], [ -3.4625, 40.6652 ], [ -3.4621, 40.6649 ], [ -3.4601, 40.665 ], [ -3.4601, 40.6652 ], [ -3.459, 40.6652 ], [ -3.4585, 40.665 ], [ -3.4584, 40.6651 ], [ -3.4578, 40.665 ], [ -3.4568, 40.6655 ], [ -3.4567, 40.6654 ], [ -3.457, 40.6653 ], [ -3.4568, 40.6651 ], [ -3.4559, 40.6651 ], [ -3.4552, 40.665 ], [ -3.4552, 40.6649 ], [ -3.4546, 40.6649 ], [ -3.4546, 40.6648 ], [ -3.4541, 40.6651 ], [ -3.4539, 40.665 ], [ -3.4541, 40.6649 ], [ -3.4541, 40.6646 ], [ -3.4539, 40.6646 ], [ -3.4537, 40.6641 ], [ -3.4533, 40.664 ], [ -3.4534, 40.6638 ], [ -3.4536, 40.6638 ], [ -3.4535, 40.6626 ], [ -3.452, 40.6618 ], [ -3.4535, 40.6601 ], [ -3.4506, 40.6575 ], [ -3.4489, 40.6564 ], [ -3.4475, 40.6558 ], [ -3.4487, 40.6533 ], [ -3.4464, 40.6531 ], [ -3.445, 40.6538 ], [ -3.4422, 40.6526 ], [ -3.4407, 40.6523 ], [ -3.4389, 40.6511 ], [ -3.4399, 40.65 ], [ -3.4383, 40.6498 ], [ -3.4373, 40.6488 ], [ -3.4362, 40.6516 ], [ -3.4337, 40.651 ], [ -3.4332, 40.65 ], [ -3.4341, 40.6476 ], [ -3.4343, 40.6462 ], [ -3.434, 40.6459 ], [ -3.4322, 40.6467 ], [ -3.4317, 40.6463 ], [ -3.4298, 40.6464 ], [ -3.4296, 40.6465 ], [ -3.4298, 40.6474 ], [ -3.4283, 40.6493 ], [ -3.4272, 40.6511 ], [ -3.4255, 40.653 ], [ -3.4249, 40.6539 ], [ -3.423, 40.6558 ], [ -3.4222, 40.6594 ], [ -3.4223, 40.6597 ], [ -3.4219, 40.6599 ], [ -3.4213, 40.6607 ], [ -3.4211, 40.6618 ], [ -3.4205, 40.6623 ], [ -3.4202, 40.663 ], [ -3.4202, 40.6633 ], [ -3.421, 40.6629 ], [ -3.4224, 40.6617 ], [ -3.4232, 40.6617 ], [ -3.425, 40.661 ], [ -3.4256, 40.6606 ], [ -3.4264, 40.6604 ], [ -3.4285, 40.6588 ], [ -3.429, 40.6582 ], [ -3.4301, 40.6579 ], [ -3.4306, 40.658 ], [ -3.4315, 40.6577 ], [ -3.4319, 40.6577 ], [ -3.4353, 40.6548 ], [ -3.4367, 40.6561 ], [ -3.4391, 40.6587 ], [ -3.4412, 40.659 ], [ -3.4411, 40.659 ], [ -3.4413, 40.6591 ], [ -3.4436, 40.6592 ], [ -3.4446, 40.6598 ], [ -3.4445, 40.6607 ], [ -3.4442, 40.6609 ], [ -3.444, 40.6615 ], [ -3.444, 40.6617 ], [ -3.4442, 40.6619 ], [ -3.4442, 40.6623 ], [ -3.4445, 40.6626 ], [ -3.4444, 40.6633 ], [ -3.4447, 40.6634 ], [ -3.4449, 40.6637 ], [ -3.446, 40.6642 ], [ -3.4463, 40.6645 ], [ -3.4465, 40.6645 ], [ -3.4468, 40.6648 ], [ -3.4467, 40.6655 ], [ -3.4466, 40.6655 ], [ -3.4466, 40.6665 ], [ -3.4464, 40.6675 ], [ -3.447, 40.6677 ], [ -3.447, 40.6678 ], [ -3.4447, 40.67 ], [ -3.4437, 40.6707 ], [ -3.4436, 40.671 ], [ -3.4437, 40.6712 ], [ -3.4432, 40.6719 ], [ -3.443, 40.6725 ], [ -3.4432, 40.6735 ], [ -3.4434, 40.6737 ], [ -3.4426, 40.675 ], [ -3.4426, 40.6753 ], [ -3.4431, 40.676 ], [ -3.4427, 40.6769 ], [ -3.4431, 40.6781 ], [ -3.4453, 40.6781 ], [ -3.4478, 40.6775 ], [ -3.4491, 40.6794 ], [ -3.4482, 40.6803 ], [ -3.4484, 40.682 ], [ -3.4488, 40.6826 ], [ -3.4498, 40.6828 ], [ -3.452, 40.6846 ], [ -3.4558, 40.6874 ] ] ] } },
{ "type": "Feature", "properties": { "municipio": "Ribatejada", "clasificacion": "no-urbanizable-protegido", "calificacion": "sin-asignar", "version": "vigente", "fuente": "SIT-CAM WFS — UsoDelSuelo:VPLA_V_CLASIFICACION (https://idem.comunidad.madrid/geosrvg/ows)", "fecha_dato": "2026-05-12", "ambito": "15136", "_raw_CD_SIGLAS": "SNUP", "_raw_DS_CLASIF_GEN": "Suelo No Urbanizable Protegido", "_raw_DS_CLASIF_DET": "Suelo No Urbanizable Especialmente Protegido por su Valor Agropecuario", "_raw_DS_DOCU": "NORMAS SUBSIDIARIAS", "_raw_DS_LEY": "E RD 1346/1976", "_raw_FC_AC": "1991-04-04", "_raw_NM_AREA_M2": 1531004.3932898601, "_cam_code": "122" }, "geometry": { "type": "Polygon", "coordinates": [ [ [ -3.4153, 40.6718 ], [ -3.4157, 40.673 ], [ -3.4181, 40.6759 ], [ -3.4175, 40.6769 ], [ -3.4186, 40.6781 ], [ -3.4192, 40.679 ], [ -3.4191, 40.6803 ], [ -3.4225, 40.6812 ], [ -3.4256, 40.6824 ], [ -3.4268, 40.6724 ], [ -3.43, 40.6738 ], [ -3.4334, 40.6744 ], [ -3.4359, 40.6753 ], [ -3.4362, 40.6753 ], [ -3.4361, 40.6729 ], [ -3.4359, 40.6727 ], [ -3.4352, 40.6725 ], [ -3.4352, 40.672 ], [ -3.4351, 40.6719 ], [ -3.4348, 40.6719 ], [ -3.4344, 40.6722 ], [ -3.4333, 40.6721 ], [ -3.4334, 40.6731 ], [ -3.4324, 40.6732 ], [ -3.4316, 40.6732 ], [ -3.4312, 40.6728 ], [ -3.4305, 40.6727 ], [ -3.4297, 40.6719 ], [ -3.43, 40.672 ], [ -3.43, 40.6721 ], [ -3.4308, 40.6723 ], [ -3.4312, 40.6721 ], [ -3.4326, 40.6721 ], [ -3.433, 40.6718 ], [ -3.4329, 40.6709 ], [ -3.4327, 40.6705 ], [ -3.4319, 40.6701 ], [ -3.4315, 40.6697 ], [ -3.4304, 40.6696 ], [ -3.4304, 40.6694 ], [ -3.4305, 40.6694 ], [ -3.4301, 40.6693 ], [ -3.4301, 40.6692 ], [ -3.4301, 40.6692 ], [ -3.43, 40.6692 ], [ -3.43, 40.6692 ], [ -3.4299, 40.6692 ], [ -3.4299, 40.6692 ], [ -3.4298, 40.6692 ], [ -3.4297, 40.6692 ], [ -3.4304, 40.6688 ], [ -3.4308, 40.6684 ], [ -3.4317, 40.6684 ], [ -3.4327, 40.6679 ], [ -3.4327, 40.6674 ], [ -3.4316, 40.6662 ], [ -3.4317, 40.6657 ], [ -3.432, 40.6654 ], [ -3.432, 40.6651 ], [ -3.4318, 40.6649 ], [ -3.4313, 40.6648 ], [ -3.4306, 40.6641 ], [ -3.4304, 40.6642 ], [ -3.4294, 40.6642 ], [ -3.4293, 40.6651 ], [ -3.4294, 40.6651 ], [ -3.4299, 40.667 ], [ -3.4293, 40.6677 ], [ -3.4287, 40.6677 ], [ -3.4279, 40.6673 ], [ -3.4276, 40.6673 ], [ -3.4272, 40.6674 ], [ -3.4272, 40.6675 ], [ -3.4269, 40.6675 ], [ -3.4269, 40.6676 ], [ -3.4259, 40.6678 ], [ -3.4251, 40.6684 ], [ -3.4244, 40.6686 ], [ -3.4235, 40.6684 ], [ -3.4236, 40.6684 ], [ -3.4236, 40.6677 ], [ -3.4234, 40.6672 ], [ -3.4235, 40.6666 ], [ -3.4246, 40.6653 ], [ -3.4253, 40.6639 ], [ -3.4252, 40.6637 ], [ -3.4245, 40.6636 ], [ -3.4239, 40.6644 ], [ -3.4232, 40.6645 ], [ -3.4219, 40.6664 ], [ -3.421, 40.6671 ], [ -3.4209, 40.6684 ], [ -3.4205, 40.6689 ], [ -3.4208, 40.6691 ], [ -3.4205, 40.6693 ], [ -3.4202, 40.67 ], [ -3.4199, 40.6703 ], [ -3.4196, 40.6712 ], [ -3.4195, 40.6722 ], [ -3.4167, 40.6715 ], [ -3.4169, 40.6711 ], [ -3.417, 40.6695 ], [ -3.4161, 40.6694 ], [ -3.4157, 40.6709 ], [ -3.4141, 40.6711 ], [ -3.4137, 40.6717 ], [ -3.414, 40.6718 ], [ -3.4153, 40.6718 ] ] ] } },
{ "type": "Feature", "properties": { "municipio": "Ribatejada", "clasificacion": "no-urbanizable-protegido", "calificacion": "sin-asignar", "version": "vigente", "fuente": "SIT-CAM WFS — UsoDelSuelo:VPLA_V_CLASIFICACION (https://idem.comunidad.madrid/geosrvg/ows)", "fecha_dato": "2026-05-12", "ambito": "15136", "_raw_CD_SIGLAS": "SNUP", "_raw_DS_CLASIF_GEN": "Suelo No Urbanizable Protegido", "_raw_DS_CLASIF_DET": "Suelo No Urbanizable Especialmente Protegido por su Valor Agropecuario", "_raw_DS_DOCU": "NORMAS SUBSIDIARIAS", "_raw_DS_LEY": "E RD 1346/1976", "_raw_FC_AC": "1991-04-04", "_raw_NM_AREA_M2": 8569982.7918658201, "_cam_code": "122" }, "geometry": { "type": "Polygon", "coordinates": [ [ [ -3.3871, 40.6684 ], [ -3.386, 40.6683 ], [ -3.386, 40.6682 ], [ -3.3851, 40.6678 ], [ -3.3846, 40.6674 ], [ -3.3857, 40.6658 ], [ -3.3877, 40.6665 ], [ -3.388, 40.665 ], [ -3.3881, 40.665 ], [ -3.3881, 40.6645 ], [ -3.3884, 40.6646 ], [ -3.3887, 40.664 ], [ -3.3888, 40.6634 ], [ -3.3893, 40.6634 ], [ -3.3893, 40.6633 ], [ -3.3901, 40.663 ], [ -3.39, 40.663 ], [ -3.3901, 40.6629 ], [ -3.39, 40.6621 ], [ -3.3903, 40.6617 ], [ -3.3897, 40.6606 ], [ -3.3902, 40.6603 ], [ -3.3897, 40.6586 ], [ -3.39, 40.6581 ], [ -3.39, 40.6577 ], [ -3.391, 40.6579 ], [ -3.392, 40.6578 ], [ -3.3925, 40.6563 ], [ -3.3937, 40.6524 ], [ -3.3951, 40.6432 ], [ -3.3968, 40.6372 ], [ -3.3955, 40.6368 ], [ -3.3902, 40.6345 ], [ -3.3868, 40.6327 ], [ -3.3844, 40.6311 ], [ -3.3828, 40.6324 ], [ -3.382, 40.6324 ], [ -3.3812, 40.6332 ], [ -3.3803, 40.6375 ], [ -3.3792, 40.6395 ], [ -3.3786, 40.6404 ], [ -3.3773, 40.6411 ], [ -3.3766, 40.6418 ], [ -3.3757, 40.6422 ], [ -3.3755, 40.6427 ], [ -3.376, 40.643 ], [ -3.3757, 40.6434 ], [ -3.3751, 40.6433 ], [ -3.3743, 40.644 ], [ -3.3742, 40.6454 ], [ -3.3734, 40.6455 ], [ -3.3736, 40.6474 ], [ -3.3733, 40.6493 ], [ -3.37, 40.6497 ], [ -3.3686, 40.6504 ], [ -3.3669, 40.651 ], [ -3.3656, 40.6531 ], [ -3.3631, 40.6549 ], [ -3.3632, 40.6552 ], [ -3.3643, 40.6559 ], [ -3.3636, 40.6565 ], [ -3.3645, 40.6568 ], [ -3.3649, 40.6572 ], [ -3.3653, 40.6581 ], [ -3.3666, 40.6589 ], [ -3.3669, 40.6596 ], [ -3.3678, 40.6605 ], [ -3.3679, 40.6616 ], [ -3.3681, 40.6623 ], [ -3.368, 40.6631 ], [ -3.3675, 40.6633 ], [ -3.3676, 40.6643 ], [ -3.3678, 40.6649 ], [ -3.3686, 40.6656 ], [ -3.369, 40.6657 ], [ -3.369, 40.6658 ], [ -3.3695, 40.6658 ], [ -3.3723, 40.6691 ], [ -3.3715, 40.6724 ], [ -3.3724, 40.6733 ], [ -3.3725, 40.6736 ], [ -3.3725, 40.6738 ], [ -3.3721, 40.6744 ], [ -3.3724, 40.6747 ], [ -3.3724, 40.675 ], [ -3.3726, 40.6754 ], [ -3.3727, 40.6754 ], [ -3.3727, 40.6759 ], [ -3.3731, 40.6765 ], [ -3.3728, 40.6775 ], [ -3.3735, 40.6785 ], [ -3.3738, 40.6792 ], [ -3.3746, 40.6797 ], [ -3.3747, 40.6801 ], [ -3.3781, 40.6819 ], [ -3.3801, 40.6827 ], [ -3.3828, 40.6832 ], [ -3.3834, 40.6819 ], [ -3.3853, 40.6803 ], [ -3.3855, 40.6799 ], [ -3.3856, 40.6789 ], [ -3.3867, 40.6773 ], [ -3.3866, 40.6762 ], [ -3.3883, 40.674 ], [ -3.3884, 40.6734 ], [ -3.3881, 40.6733 ], [ -3.3881, 40.673 ], [ -3.3883, 40.6728 ], [ -3.3882, 40.6726 ], [ -3.3884, 40.6718 ], [ -3.3869, 40.6714 ], [ -3.3866, 40.6723 ], [ -3.3853, 40.6721 ], [ -3.3849, 40.6719 ], [ -3.3846, 40.6722 ], [ -3.3842, 40.6723 ], [ -3.384, 40.6722 ], [ -3.3843, 40.6718 ], [ -3.3846, 40.6709 ], [ -3.3847, 40.6709 ], [ -3.3851, 40.6697 ], [ -3.3888, 40.6706 ], [ -3.3889, 40.6696 ], [ -3.3891, 40.6692 ], [ -3.389, 40.6685 ], [ -3.3882, 40.6685 ], [ -3.3881, 40.6686 ], [ -3.388, 40.6683 ], [ -3.3871, 40.6684 ] ], [ [ -3.3825, 40.6798 ], [ -3.3819, 40.6802 ], [ -3.3805, 40.679 ], [ -3.3805, 40.6782 ], [ -3.3801, 40.6777 ], [ -3.378, 40.6764 ], [ -3.3786, 40.6759 ], [ -3.3795, 40.6765 ], [ -3.3803, 40.6768 ], [ -3.3819, 40.6784 ], [ -3.3841, 40.6792 ], [ -3.384, 40.6792 ], [ -3.3838, 40.6797 ], [ -3.3834, 40.6796 ], [ -3.3825, 40.6798 ] ] ] } },
{ "type": "Feature", "properties": { "municipio": "Ribatejada", "clasificacion": "no-urbanizable-protegido", "calificacion": "sin-asignar", "version": "vigente", "fuente": "SIT-CAM WFS — UsoDelSuelo:VPLA_V_CLASIFICACION (https://idem.comunidad.madrid/geosrvg/ows)", "fecha_dato": "2026-05-12", "ambito": "15136", "_raw_CD_SIGLAS": "SNUP", "_raw_DS_CLASIF_GEN": "Suelo No Urbanizable Protegido", "_raw_DS_CLASIF_DET": "Suelo No Urbanizable Especialmente Protegido por su Interés Forestal", "_raw_DS_DOCU": "NORMAS SUBSIDIARIAS", "_raw_DS_LEY": "E RD 1346/1976", "_raw_FC_AC": "1991-04-04", "_raw_NM_AREA_M2": 26801.579388695001, "_cam_code": "122" }, "geometry": { "type": "Polygon", "coordinates": [ [ [ -3.3909, 40.6756 ], [ -3.3913, 40.6757 ], [ -3.3926, 40.6756 ], [ -3.3926, 40.6754 ], [ -3.3921, 40.6754 ], [ -3.3911, 40.6749 ], [ -3.3898, 40.6738 ], [ -3.3884, 40.6734 ], [ -3.3883, 40.6737 ], [ -3.3884, 40.6738 ], [ -3.3909, 40.6756 ] ] ] } },
{ "type": "Feature", "properties": { "municipio": "Ribatejada", "clasificacion": "no-urbanizable-protegido", "calificacion": "sin-asignar", "version": "vigente", "fuente": "SIT-CAM WFS — UsoDelSuelo:VPLA_V_CLASIFICACION (https://idem.comunidad.madrid/geosrvg/ows)", "fecha_dato": "2026-05-12", "ambito": "15136", "_raw_CD_SIGLAS": "SNUP", "_raw_DS_CLASIF_GEN": "Suelo No Urbanizable Protegido", "_raw_DS_CLASIF_DET": "Suelo No Urbanizable Especialmente Protegido por su Valor Ecológico y Paisajístico", "_raw_DS_DOCU": "NORMAS SUBSIDIARIAS", "_raw_DS_LEY": "E RD 1346/1976", "_raw_FC_AC": "1991-04-04", "_raw_NM_AREA_M2": 366975.860639858, "_cam_code": "122" }, "geometry": { "type": "Polygon", "coordinates": [ [ [ -3.465, 40.6663 ], [ -3.4652, 40.6663 ], [ -3.4654, 40.6665 ], [ -3.4656, 40.6665 ], [ -3.4657, 40.6665 ], [ -3.4658, 40.6665 ], [ -3.4658, 40.6665 ], [ -3.4657, 40.6665 ], [ -3.4656, 40.6665 ], [ -3.4654, 40.6663 ], [ -3.4647, 40.6628 ], [ -3.453, 40.6609 ], [ -3.4528, 40.6609 ], [ -3.452, 40.6617 ], [ -3.4523, 40.662 ], [ -3.4527, 40.6621 ], [ -3.4535, 40.6626 ], [ -3.4536, 40.6638 ], [ -3.4534, 40.6638 ], [ -3.4533, 40.664 ], [ -3.4537, 40.6641 ], [ -3.4539, 40.6646 ], [ -3.4541, 40.6646 ], [ -3.4541, 40.6649 ], [ -3.4539, 40.665 ], [ -3.4541, 40.6651 ], [ -3.4545, 40.6649 ], [ -3.4545, 40.6648 ], [ -3.4559, 40.6651 ], [ -3.4568, 40.6651 ], [ -3.457, 40.6652 ], [ -3.457, 40.6653 ], [ -3.4567, 40.6654 ], [ -3.4568, 40.6655 ], [ -3.4578, 40.665 ], [ -3.4582, 40.6651 ], [ -3.4585, 40.665 ], [ -3.459, 40.6652 ], [ -3.4601, 40.6652 ], [ -3.4601, 40.665 ], [ -3.4621, 40.6649 ], [ -3.4625, 40.6652 ], [ -3.4629, 40.6653 ], [ -3.4634, 40.6658 ], [ -3.4641, 40.6659 ], [ -3.4643, 40.6662 ], [ -3.4646, 40.6663 ], [ -3.465, 40.6663 ] ] ] } },
{ "type": "Feature", "properties": { "municipio": "Ribatejada", "clasificacion": "urbano-consolidado", "calificacion": "sin-asignar", "version": "vigente", "fuente": "SIT-CAM WFS — UsoDelSuelo:VPLA_V_CLASIFICACION (https://idem.comunidad.madrid/geosrvg/ows)", "fecha_dato": "2026-05-12", "ambito": "15136", "_raw_CD_SIGLAS": "SU", "_raw_DS_CLASIF_GEN": "Suelo Urbano", "_raw_DS_CLASIF_DET": "Suelo Urbano", "_raw_DS_DOCU": "NORMAS SUBSIDIARIAS", "_raw_DS_LEY": "E RD 1346/1976", "_raw_FC_AC": "1991-04-04", "_raw_NM_AREA_M2": 105702.64296829401, "_cam_code": "122" }, "geometry": { "type": "Polygon", "coordinates": [ [ [ -3.388, 40.6683 ], [ -3.3881, 40.6686 ], [ -3.3882, 40.6685 ], [ -3.389, 40.6685 ], [ -3.3891, 40.6692 ], [ -3.3889, 40.6696 ], [ -3.3888, 40.6706 ], [ -3.3851, 40.6697 ], [ -3.3847, 40.6709 ], [ -3.3846, 40.6709 ], [ -3.3843, 40.6718 ], [ -3.384, 40.6722 ], [ -3.3842, 40.6723 ], [ -3.3846, 40.6722 ], [ -3.3849, 40.6719 ], [ -3.3853, 40.6721 ], [ -3.3866, 40.6723 ], [ -3.3869, 40.6714 ], [ -3.3884, 40.6718 ], [ -3.3882, 40.6726 ], [ -3.3883, 40.6728 ], [ -3.3881, 40.673 ], [ -3.3881, 40.6733 ], [ -3.3884, 40.6734 ], [ -3.3891, 40.671 ], [ -3.3892, 40.671 ], [ -3.3901, 40.6681 ], [ -3.3904, 40.6675 ], [ -3.3901, 40.6675 ], [ -3.3899, 40.6678 ], [ -3.3893, 40.6682 ], [ -3.3897, 40.6667 ], [ -3.3898, 40.6667 ], [ -3.3895, 40.6666 ], [ -3.3892, 40.6677 ], [ -3.3889, 40.6679 ], [ -3.3889, 40.6682 ], [ -3.388, 40.6683 ] ] ] } },
{ "type": "Feature", "properties": { "municipio": "Ribatejada", "clasificacion": "urbano-consolidado", "calificacion": "sin-asignar", "version": "vigente", "fuente": "SIT-CAM WFS — UsoDelSuelo:VPLA_V_CLASIFICACION (https://idem.comunidad.madrid/geosrvg/ows)", "fecha_dato": "2026-05-12", "ambito": "15136", "_raw_CD_SIGLAS": "SU", "_raw_DS_CLASIF_GEN": "Suelo Urbano", "_raw_DS_CLASIF_DET": "Suelo Urbano", "_raw_DS_DOCU": "NORMAS SUBSIDIARIAS", "_raw_DS_LEY": "E RD 1346/1976", "_raw_FC_AC": "1991-04-04", "_raw_NM_AREA_M2": 702813.69625301799, "_cam_code": "122" }, "geometry": { "type": "Polygon", "coordinates": [ [ [ -3.3911, 40.6749 ], [ -3.3921, 40.6754 ], [ -3.3929, 40.6753 ], [ -3.3928, 40.675 ], [ -3.3925, 40.675 ], [ -3.3925, 40.6748 ], [ -3.3924, 40.6748 ], [ -3.3923, 40.6738 ], [ -3.3923, 40.6732 ], [ -3.3928, 40.6715 ], [ -3.3939, 40.671 ], [ -3.3943, 40.6689 ], [ -3.3952, 40.6682 ], [ -3.3961, 40.668 ], [ -3.3956, 40.6672 ], [ -3.3955, 40.6665 ], [ -3.3952, 40.6659 ], [ -3.3953, 40.6656 ], [ -3.395, 40.6653 ], [ -3.3949, 40.6649 ], [ -3.3944, 40.6641 ], [ -3.3936, 40.6638 ], [ -3.3932, 40.6635 ], [ -3.3933, 40.6632 ], [ -3.3932, 40.6631 ], [ -3.3924, 40.6627 ], [ -3.3921, 40.6622 ], [ -3.3918, 40.6623 ], [ -3.3911, 40.6612 ], [ -3.3909, 40.6612 ], [ -3.392, 40.6578 ], [ -3.391, 40.6579 ], [ -3.39, 40.6577 ], [ -3.39, 40.6581 ], [ -3.3897, 40.6586 ], [ -3.3902, 40.6603 ], [ -3.3897, 40.6606 ], [ -3.3903, 40.6617 ], [ -3.39, 40.6621 ], [ -3.3901, 40.6623 ], [ -3.3901, 40.6629 ], [ -3.39, 40.663 ], [ -3.3901, 40.663 ], [ -3.3893, 40.6633 ], [ -3.3893, 40.6634 ], [ -3.3888, 40.6634 ], [ -3.3887, 40.664 ], [ -3.3884, 40.6646 ], [ -3.3881, 40.6645 ], [ -3.3881, 40.665 ], [ -3.388, 40.665 ], [ -3.3877, 40.6665 ], [ -3.3857, 40.6658 ], [ -3.3846, 40.6675 ], [ -3.3863, 40.6684 ], [ -3.3886, 40.6683 ], [ -3.3886, 40.6682 ], [ -3.3889, 40.6682 ], [ -3.3889, 40.6679 ], [ -3.3892, 40.6677 ], [ -3.3895, 40.6666 ], [ -3.3898, 40.6667 ], [ -3.3897, 40.6667 ], [ -3.3893, 40.6682 ], [ -3.3899, 40.6678 ], [ -3.3901, 40.6675 ], [ -3.3904, 40.6675 ], [ -3.3901, 40.6681 ], [ -3.3892, 40.671 ], [ -3.3891, 40.671 ], [ -3.3884, 40.6734 ], [ -3.3898, 40.6738 ], [ -3.3911, 40.6749 ] ] ] } },
{ "type": "Feature", "properties": { "municipio": "Ribatejada", "clasificacion": "urbanizable-no-sectorizado", "calificacion": "sin-asignar", "version": "vigente", "fuente": "SIT-CAM WFS — UsoDelSuelo:VPLA_V_CLASIFICACION (https://idem.comunidad.madrid/geosrvg/ows)", "fecha_dato": "2026-05-12", "ambito": "15136", "_raw_CD_SIGLAS": "SUBNS", "_raw_DS_CLASIF_GEN": "Suelo No Urbanizable Común", "_raw_DS_CLASIF_DET": "Suelo No Urbanizable Común", "_raw_DS_DOCU": "NORMAS SUBSIDIARIAS", "_raw_DS_LEY": "E RD 1346/1976", "_raw_FC_AC": "1991-04-04", "_raw_NM_AREA_M2": 207517.90778595401, "_cam_code": "122" }, "geometry": { "type": "Polygon", "coordinates": [ [ [ -3.4297, 40.6602 ], [ -3.4291, 40.6615 ], [ -3.4291, 40.6618 ], [ -3.4317, 40.6596 ], [ -3.4321, 40.6595 ], [ -3.4335, 40.6602 ], [ -3.4346, 40.6595 ], [ -3.4339, 40.6585 ], [ -3.4359, 40.6584 ], [ -3.4388, 40.6589 ], [ -3.4391, 40.6587 ], [ -3.4367, 40.6561 ], [ -3.4353, 40.6548 ], [ -3.4312, 40.6583 ], [ -3.4297, 40.6602 ] ] ] } },
{ "type": "Feature", "properties": { "municipio": "Ribatejada", "clasificacion": "urbanizable-no-sectorizado", "calificacion": "sin-asignar", "version": "vigente", "fuente": "SIT-CAM WFS — UsoDelSuelo:VPLA_V_CLASIFICACION (https://idem.comunidad.madrid/geosrvg/ows)", "fecha_dato": "2026-05-12", "ambito": "15136", "_raw_CD_SIGLAS": "SUBNS", "_raw_DS_CLASIF_GEN": "Suelo No Urbanizable Común", "_raw_DS_CLASIF_DET": "Suelo No Urbanizable Común", "_raw_DS_DOCU": "NORMAS SUBSIDIARIAS", "_raw_DS_LEY": "E RD 1346/1976", "_raw_FC_AC": "1991-04-04", "_raw_NM_AREA_M2": 4152814.1972630899, "_cam_code": "122" }, "geometry": { "type": "Polygon", "coordinates": [ [ [ -3.4072, 40.6614 ], [ -3.4064, 40.6617 ], [ -3.4057, 40.6614 ], [ -3.4059, 40.661 ], [ -3.4058, 40.6608 ], [ -3.4039, 40.6598 ], [ -3.405, 40.6585 ], [ -3.4039, 40.6577 ], [ -3.4045, 40.6574 ], [ -3.4065, 40.6553 ], [ -3.4068, 40.6548 ], [ -3.4069, 40.6533 ], [ -3.4072, 40.6525 ], [ -3.4075, 40.6524 ], [ -3.4082, 40.6513 ], [ -3.4087, 40.6508 ], [ -3.4127, 40.6519 ], [ -3.4125, 40.653 ], [ -3.4131, 40.6532 ], [ -3.4137, 40.6516 ], [ -3.4139, 40.6514 ], [ -3.4139, 40.6509 ], [ -3.4145, 40.6501 ], [ -3.4147, 40.6496 ], [ -3.4156, 40.649 ], [ -3.4161, 40.6485 ], [ -3.4166, 40.6484 ], [ -3.4178, 40.6485 ], [ -3.4181, 40.6477 ], [ -3.418, 40.6474 ], [ -3.4191, 40.6458 ], [ -3.4174, 40.6452 ], [ -3.4162, 40.6452 ], [ -3.4055, 40.6407 ], [ -3.4045, 40.6404 ], [ -3.4045, 40.6403 ], [ -3.4043, 40.6403 ], [ -3.3997, 40.6382 ], [ -3.3968, 40.6372 ], [ -3.3951, 40.6432 ], [ -3.3937, 40.6524 ], [ -3.3909, 40.6612 ], [ -3.3911, 40.6612 ], [ -3.3918, 40.6623 ], [ -3.3921, 40.6622 ], [ -3.3924, 40.6627 ], [ -3.3932, 40.6631 ], [ -3.3933, 40.6632 ], [ -3.3932, 40.6635 ], [ -3.3936, 40.6638 ], [ -3.3944, 40.6641 ], [ -3.3949, 40.6649 ], [ -3.395, 40.6653 ], [ -3.3953, 40.6656 ], [ -3.3952, 40.6659 ], [ -3.3955, 40.6665 ], [ -3.3956, 40.6672 ], [ -3.3961, 40.668 ], [ -3.3968, 40.6681 ], [ -3.3986, 40.6688 ], [ -3.4003, 40.6687 ], [ -3.4011, 40.6689 ], [ -3.4019, 40.6678 ], [ -3.4027, 40.6679 ], [ -3.4054, 40.6676 ], [ -3.4058, 40.6672 ], [ -3.405, 40.6662 ], [ -3.405, 40.6657 ], [ -3.4047, 40.6654 ], [ -3.4046, 40.665 ], [ -3.4047, 40.6647 ], [ -3.4074, 40.6646 ], [ -3.4072, 40.6614 ] ] ] } },
{ "type": "Feature", "properties": { "municipio": "Ribatejada", "clasificacion": "urbanizable-no-sectorizado", "calificacion": "sin-asignar", "version": "vigente", "fuente": "SIT-CAM WFS — UsoDelSuelo:VPLA_V_CLASIFICACION (https://idem.comunidad.madrid/geosrvg/ows)", "fecha_dato": "2026-05-12", "ambito": "15136", "_raw_CD_SIGLAS": "SUBNS", "_raw_DS_CLASIF_GEN": "Suelo No Urbanizable Común", "_raw_DS_CLASIF_DET": "Suelo No Urbanizable de Interés para Instalaciones Especiales", "_raw_DS_DOCU": "NORMAS SUBSIDIARIAS", "_raw_DS_LEY": "E RD 1346/1976", "_raw_FC_AC": "1991-04-04", "_raw_NM_AREA_M2": 240889.95379597801, "_cam_code": "122" }, "geometry": { "type": "Polygon", "coordinates": [ [ [ -3.4074, 40.6646 ], [ -3.408, 40.6647 ], [ -3.4105, 40.6645 ], [ -3.412, 40.6636 ], [ -3.4122, 40.6636 ], [ -3.4123, 40.6635 ], [ -3.412, 40.6633 ], [ -3.4121, 40.6627 ], [ -3.4124, 40.6627 ], [ -3.4126, 40.6617 ], [ -3.4138, 40.6615 ], [ -3.4142, 40.6612 ], [ -3.4135, 40.6602 ], [ -3.4137, 40.6594 ], [ -3.415, 40.6593 ], [ -3.4154, 40.659 ], [ -3.4154, 40.6585 ], [ -3.4156, 40.6579 ], [ -3.4125, 40.6572 ], [ -3.4123, 40.6577 ], [ -3.4128, 40.6585 ], [ -3.4125, 40.6588 ], [ -3.4125, 40.6591 ], [ -3.4116, 40.6594 ], [ -3.4115, 40.6602 ], [ -3.4111, 40.6602 ], [ -3.4108, 40.661 ], [ -3.411, 40.6614 ], [ -3.4109, 40.6616 ], [ -3.4072, 40.6614 ], [ -3.4074, 40.6646 ] ] ] } },
{ "type": "Feature", "properties": { "municipio": "Ribatejada", "clasificacion": "urbanizable-no-sectorizado", "calificacion": "sin-asignar", "version": "vigente", "fuente": "SIT-CAM WFS — UsoDelSuelo:VPLA_V_CLASIFICACION (https://idem.comunidad.madrid/geosrvg/ows)", "fecha_dato": "2026-05-12", "ambito": "15136", "_raw_CD_SIGLAS": "SUBNS", "_raw_DS_CLASIF_GEN": "Suelo No Urbanizable Común", "_raw_DS_CLASIF_DET": "Suelo No Urbanizable Común", "_raw_DS_DOCU": "NORMAS SUBSIDIARIAS", "_raw_DS_LEY": "E RD 1346/1976", "_raw_FC_AC": "1991-04-04", "_raw_NM_AREA_M2": 122415.965211713, "_cam_code": "122" }, "geometry": { "type": "Polygon", "coordinates": [ [ [ -3.3928, 40.6748 ], [ -3.3932, 40.675 ], [ -3.3939, 40.6751 ], [ -3.3944, 40.6756 ], [ -3.3945, 40.6752 ], [ -3.394, 40.674 ], [ -3.3939, 40.6724 ], [ -3.394, 40.672 ], [ -3.3948, 40.6717 ], [ -3.3952, 40.6711 ], [ -3.3969, 40.6699 ], [ -3.3969, 40.6695 ], [ -3.3961, 40.668 ], [ -3.3952, 40.6682 ], [ -3.3943, 40.6689 ], [ -3.3939, 40.671 ], [ -3.3928, 40.6715 ], [ -3.3923, 40.6732 ], [ -3.3924, 40.6748 ], [ -3.3928, 40.6748 ] ] ] } },
{ "type": "Feature", "properties": { "municipio": "Ribatejada", "clasificacion": "urbanizable-no-sectorizado", "calificacion": "sin-asignar", "version": "vigente", "fuente": "SIT-CAM WFS — UsoDelSuelo:VPLA_V_CLASIFICACION (https://idem.comunidad.madrid/geosrvg/ows)", "fecha_dato": "2026-05-12", "ambito": "15136", "_raw_CD_SIGLAS": "SUBNS", "_raw_DS_CLASIF_GEN": "Suelo No Urbanizable Común", "_raw_DS_CLASIF_DET": "Suelo No Urbanizable Común", "_raw_DS_DOCU": "NORMAS SUBSIDIARIAS", "_raw_DS_LEY": "E RD 1346/1976", "_raw_FC_AC": "1991-04-04", "_raw_NM_AREA_M2": 153217.50164829899, "_cam_code": "122" }, "geometry": { "type": "Polygon", "coordinates": [ [ [ -3.3882, 40.6742 ], [ -3.3866, 40.6762 ], [ -3.3867, 40.6773 ], [ -3.386, 40.6783 ], [ -3.3867, 40.6789 ], [ -3.3877, 40.6795 ], [ -3.3882, 40.6794 ], [ -3.3893, 40.6775 ], [ -3.3899, 40.6768 ], [ -3.3923, 40.6766 ], [ -3.3927, 40.6763 ], [ -3.3926, 40.6756 ], [ -3.3913, 40.6757 ], [ -3.3909, 40.6756 ], [ -3.3883, 40.6737 ], [ -3.3882, 40.6742 ] ] ] } }
]
}
