{
"type": "FeatureCollection",
"name": "vigente.full",
"features": [
{ "type": "Feature", "properties": { "municipio": "Pedrezuela", "clasificacion": "no-urbanizable-protegido", "calificacion": "sin-asignar", "version": "vigente", "fuente": "SIT-CAM WFS — UsoDelSuelo:VPLA_V_CLASIFICACION (https://idem.comunidad.madrid/geosrvg/ows)", "fecha_dato": "2026-05-12", "ambito": "93738", "_raw_CD_SIGLAS": "SNUP", "_raw_DS_CLASIF_GEN": "Suelo No Urbanizable Protegido", "_raw_DS_CLASIF_DET": "Suelo No Urbanizable Protección Especial", "_raw_DS_DOCU": "NORMAS SUBSIDIARIAS", "_raw_DS_LEY": null, "_raw_FC_AC": "2018-09-27", "_raw_NM_AREA_M2": 17497654.4205731, "_cam_code": "108" }, "geometry": { "type": "Polygon", "coordinates": [ [ [ -3.6138, 40.7727 ], [ -3.6129, 40.773 ], [ -3.6132, 40.7739 ], [ -3.613, 40.7743 ], [ -3.613, 40.7749 ], [ -3.6132, 40.7749 ], [ -3.6137, 40.7753 ], [ -3.6157, 40.7747 ], [ -3.6184, 40.7742 ], [ -3.6203, 40.7736 ], [ -3.6214, 40.7731 ], [ -3.6212, 40.7729 ], [ -3.6211, 40.7725 ], [ -3.6208, 40.7722 ], [ -3.6203, 40.7726 ], [ -3.6194, 40.7726 ], [ -3.6194, 40.7725 ], [ -3.6191, 40.7724 ], [ -3.6187, 40.7724 ], [ -3.6187, 40.772 ], [ -3.6197, 40.7719 ], [ -3.6202, 40.7715 ], [ -3.6207, 40.7713 ], [ -3.6216, 40.7714 ], [ -3.6221, 40.7712 ], [ -3.6222, 40.7709 ], [ -3.6221, 40.7706 ], [ -3.622, 40.7706 ], [ -3.622, 40.7696 ], [ -3.6223, 40.7693 ], [ -3.6227, 40.7691 ], [ -3.6234, 40.7691 ], [ -3.6238, 40.7693 ], [ -3.6241, 40.7693 ], [ -3.6241, 40.7694 ], [ -3.625, 40.7695 ], [ -3.625, 40.7696 ], [ -3.6254, 40.7697 ], [ -3.6263, 40.7697 ], [ -3.6263, 40.7694 ], [ -3.6265, 40.7692 ], [ -3.6265, 40.7691 ], [ -3.6254, 40.7691 ], [ -3.625, 40.7689 ], [ -3.6238, 40.7689 ], [ -3.6238, 40.7688 ], [ -3.6232, 40.7688 ], [ -3.6232, 40.7687 ], [ -3.6227, 40.7686 ], [ -3.622, 40.7693 ], [ -3.6216, 40.7693 ], [ -3.621, 40.7687 ], [ -3.621, 40.7681 ], [ -3.6208, 40.7679 ], [ -3.6205, 40.768 ], [ -3.6203, 40.7679 ], [ -3.6201, 40.7677 ], [ -3.6201, 40.7675 ], [ -3.6197, 40.7677 ], [ -3.619, 40.7676 ], [ -3.6182, 40.7682 ], [ -3.6177, 40.7682 ], [ -3.6174, 40.7679 ], [ -3.6175, 40.7676 ], [ -3.6174, 40.7673 ], [ -3.6175, 40.7672 ], [ -3.6169, 40.7671 ], [ -3.6163, 40.7663 ], [ -3.6157, 40.7664 ], [ -3.6148, 40.7663 ], [ -3.6143, 40.7659 ], [ -3.6134, 40.7658 ], [ -3.614, 40.7654 ], [ -3.6154, 40.7655 ], [ -3.6154, 40.7653 ], [ -3.6156, 40.7651 ], [ -3.616, 40.7651 ], [ -3.6162, 40.7653 ], [ -3.6163, 40.7652 ], [ -3.6173, 40.7651 ], [ -3.6176, 40.7652 ], [ -3.618, 40.7657 ], [ -3.6186, 40.7655 ], [ -3.6187, 40.7647 ], [ -3.619, 40.7644 ], [ -3.6196, 40.7645 ], [ -3.6199, 40.7649 ], [ -3.6201, 40.7647 ], [ -3.6205, 40.7646 ], [ -3.6209, 40.765 ], [ -3.6213, 40.7649 ], [ -3.6218, 40.7645 ], [ -3.6219, 40.7627 ], [ -3.6224, 40.7622 ], [ -3.6227, 40.7621 ], [ -3.6225, 40.7619 ], [ -3.6225, 40.7617 ], [ -3.6224, 40.7617 ], [ -3.6225, 40.7615 ], [ -3.6224, 40.7611 ], [ -3.6225, 40.7608 ], [ -3.6223, 40.7605 ], [ -3.6224, 40.7604 ], [ -3.6222, 40.7603 ], [ -3.6221, 40.7599 ], [ -3.6217, 40.7596 ], [ -3.6221, 40.7582 ], [ -3.6221, 40.7576 ], [ -3.622, 40.7576 ], [ -3.622, 40.7574 ], [ -3.6215, 40.7575 ], [ -3.621, 40.7571 ], [ -3.6205, 40.7571 ], [ -3.6201, 40.7567 ], [ -3.6195, 40.7565 ], [ -3.6192, 40.7562 ], [ -3.6185, 40.7561 ], [ -3.6183, 40.7559 ], [ -3.6183, 40.7557 ], [ -3.6187, 40.7555 ], [ -3.6193, 40.7555 ], [ -3.6197, 40.7553 ], [ -3.6199, 40.7556 ], [ -3.6204, 40.7557 ], [ -3.6204, 40.7558 ], [ -3.6209, 40.7558 ], [ -3.6209, 40.7559 ], [ -3.6226, 40.7559 ], [ -3.6226, 40.7558 ], [ -3.6233, 40.7555 ], [ -3.6239, 40.7555 ], [ -3.6239, 40.7556 ], [ -3.6244, 40.7554 ], [ -3.6247, 40.7556 ], [ -3.6248, 40.7562 ], [ -3.625, 40.7564 ], [ -3.6256, 40.7565 ], [ -3.6261, 40.7569 ], [ -3.6259, 40.7577 ], [ -3.6254, 40.758 ], [ -3.6254, 40.7582 ], [ -3.6255, 40.7582 ], [ -3.6255, 40.7591 ], [ -3.6256, 40.7592 ], [ -3.6255, 40.7593 ], [ -3.6255, 40.7605 ], [ -3.6258, 40.7605 ], [ -3.6263, 40.7599 ], [ -3.6269, 40.7597 ], [ -3.6272, 40.7593 ], [ -3.6275, 40.7591 ], [ -3.6278, 40.7591 ], [ -3.628, 40.7589 ], [ -3.6285, 40.759 ], [ -3.6285, 40.7589 ], [ -3.6287, 40.7589 ], [ -3.6289, 40.7587 ], [ -3.6299, 40.7585 ], [ -3.63, 40.7586 ], [ -3.6302, 40.7586 ], [ -3.6302, 40.7585 ], [ -3.6309, 40.7586 ], [ -3.6315, 40.7581 ], [ -3.6314, 40.7576 ], [ -3.6317, 40.7575 ], [ -3.632, 40.7568 ], [ -3.6323, 40.7565 ], [ -3.6322, 40.7559 ], [ -3.6326, 40.7557 ], [ -3.633, 40.7558 ], [ -3.6333, 40.7555 ], [ -3.6328, 40.755 ], [ -3.6329, 40.7548 ], [ -3.6332, 40.7547 ], [ -3.6332, 40.754 ], [ -3.6334, 40.7537 ], [ -3.6334, 40.7534 ], [ -3.6337, 40.7533 ], [ -3.6339, 40.753 ], [ -3.6338, 40.753 ], [ -3.6338, 40.7526 ], [ -3.6345, 40.7524 ], [ -3.6349, 40.7515 ], [ -3.635, 40.7506 ], [ -3.6351, 40.7506 ], [ -3.6354, 40.7499 ], [ -3.6358, 40.7496 ], [ -3.6359, 40.7491 ], [ -3.6362, 40.7488 ], [ -3.6366, 40.7487 ], [ -3.6367, 40.749 ], [ -3.6366, 40.7498 ], [ -3.6365, 40.7498 ], [ -3.6365, 40.75 ], [ -3.6364, 40.75 ], [ -3.636, 40.7508 ], [ -3.636, 40.7512 ], [ -3.6362, 40.7513 ], [ -3.6362, 40.7516 ], [ -3.6359, 40.7518 ], [ -3.6358, 40.7527 ], [ -3.6354, 40.7531 ], [ -3.6353, 40.7535 ], [ -3.635, 40.7539 ], [ -3.635, 40.7542 ], [ -3.6349, 40.7542 ], [ -3.635, 40.7547 ], [ -3.6359, 40.7548 ], [ -3.6358, 40.7556 ], [ -3.6361, 40.7558 ], [ -3.6364, 40.7563 ], [ -3.6361, 40.7564 ], [ -3.6356, 40.7563 ], [ -3.6357, 40.7566 ], [ -3.6352, 40.7573 ], [ -3.6343, 40.7576 ], [ -3.6343, 40.758 ], [ -3.634, 40.7582 ], [ -3.6341, 40.7584 ], [ -3.634, 40.7587 ], [ -3.6347, 40.759 ], [ -3.635, 40.7595 ], [ -3.635, 40.7598 ], [ -3.6347, 40.7601 ], [ -3.6339, 40.7598 ], [ -3.6335, 40.76 ], [ -3.6334, 40.7614 ], [ -3.6333, 40.7614 ], [ -3.6337, 40.7624 ], [ -3.6352, 40.7617 ], [ -3.6378, 40.7601 ], [ -3.6365, 40.7577 ], [ -3.6419, 40.7556 ], [ -3.6429, 40.7543 ], [ -3.6522, 40.7472 ], [ -3.6531, 40.7462 ], [ -3.6571, 40.7428 ], [ -3.6604, 40.7409 ], [ -3.6612, 40.7402 ], [ -3.6636, 40.7389 ], [ -3.6668, 40.738 ], [ -3.6668, 40.7379 ], [ -3.6697, 40.7362 ], [ -3.6732, 40.7333 ], [ -3.6737, 40.7325 ], [ -3.6742, 40.7301 ], [ -3.6741, 40.73 ], [ -3.6759, 40.7283 ], [ -3.6771, 40.7233 ], [ -3.6755, 40.7236 ], [ -3.6746, 40.724 ], [ -3.6712, 40.7249 ], [ -3.6689, 40.7253 ], [ -3.6682, 40.7253 ], [ -3.6629, 40.7261 ], [ -3.6608, 40.7261 ], [ -3.656, 40.7253 ], [ -3.6538, 40.7245 ], [ -3.6521, 40.7242 ], [ -3.6512, 40.7239 ], [ -3.6494, 40.7238 ], [ -3.6464, 40.7226 ], [ -3.6434, 40.7219 ], [ -3.6395, 40.7217 ], [ -3.6361, 40.721 ], [ -3.6353, 40.721 ], [ -3.6353, 40.7209 ], [ -3.6333, 40.7204 ], [ -3.6321, 40.7202 ], [ -3.6318, 40.72 ], [ -3.6315, 40.72 ], [ -3.6311, 40.7197 ], [ -3.6299, 40.7195 ], [ -3.6297, 40.7193 ], [ -3.6288, 40.719 ], [ -3.6274, 40.7189 ], [ -3.6263, 40.7186 ], [ -3.6246, 40.7184 ], [ -3.6232, 40.7181 ], [ -3.6232, 40.718 ], [ -3.6229, 40.7179 ], [ -3.6218, 40.7181 ], [ -3.6211, 40.7185 ], [ -3.6211, 40.7186 ], [ -3.6206, 40.7186 ], [ -3.6196, 40.7182 ], [ -3.6195, 40.7181 ], [ -3.6195, 40.7176 ], [ -3.6187, 40.7172 ], [ -3.6181, 40.7163 ], [ -3.6175, 40.7163 ], [ -3.6171, 40.716 ], [ -3.6171, 40.7157 ], [ -3.6177, 40.7151 ], [ -3.618, 40.7145 ], [ -3.6182, 40.7144 ], [ -3.6184, 40.7134 ], [ -3.6178, 40.7123 ], [ -3.6178, 40.7117 ], [ -3.618, 40.7113 ], [ -3.6185, 40.711 ], [ -3.6187, 40.7107 ], [ -3.6191, 40.7083 ], [ -3.6194, 40.708 ], [ -3.6194, 40.7075 ], [ -3.6195, 40.7074 ], [ -3.6174, 40.7074 ], [ -3.6173, 40.7073 ], [ -3.6166, 40.7074 ], [ -3.6164, 40.7077 ], [ -3.6161, 40.7078 ], [ -3.6161, 40.7079 ], [ -3.6158, 40.7079 ], [ -3.6146, 40.709 ], [ -3.613, 40.7099 ], [ -3.6124, 40.7105 ], [ -3.6119, 40.7108 ], [ -3.6114, 40.7114 ], [ -3.6114, 40.7165 ], [ -3.6116, 40.7167 ], [ -3.6116, 40.717 ], [ -3.6115, 40.717 ], [ -3.6115, 40.7185 ], [ -3.6122, 40.7185 ], [ -3.6122, 40.718 ], [ -3.6129, 40.7181 ], [ -3.6133, 40.7177 ], [ -3.6143, 40.7176 ], [ -3.6143, 40.7177 ], [ -3.6147, 40.7178 ], [ -3.615, 40.7187 ], [ -3.6145, 40.7192 ], [ -3.6146, 40.7198 ], [ -3.6152, 40.7201 ], [ -3.615, 40.7208 ], [ -3.6112, 40.7216 ], [ -3.611, 40.7219 ], [ -3.6108, 40.7228 ], [ -3.6099, 40.7233 ], [ -3.6096, 40.7241 ], [ -3.6098, 40.7255 ], [ -3.6115, 40.7261 ], [ -3.6114, 40.7267 ], [ -3.61, 40.727 ], [ -3.6083, 40.7276 ], [ -3.6074, 40.7288 ], [ -3.6046, 40.7297 ], [ -3.6045, 40.7304 ], [ -3.6051, 40.731 ], [ -3.6063, 40.7307 ], [ -3.6066, 40.7314 ], [ -3.607, 40.7314 ], [ -3.6074, 40.7316 ], [ -3.6074, 40.7315 ], [ -3.6077, 40.7314 ], [ -3.6083, 40.7306 ], [ -3.6092, 40.7304 ], [ -3.6092, 40.7298 ], [ -3.6098, 40.7294 ], [ -3.6107, 40.7293 ], [ -3.6111, 40.7296 ], [ -3.6113, 40.73 ], [ -3.6113, 40.7312 ], [ -3.6092, 40.7324 ], [ -3.6094, 40.733 ], [ -3.6088, 40.7336 ], [ -3.6091, 40.7341 ], [ -3.6096, 40.7342 ], [ -3.6097, 40.7354 ], [ -3.6106, 40.7355 ], [ -3.6106, 40.7358 ], [ -3.61, 40.7359 ], [ -3.6102, 40.7369 ], [ -3.6098, 40.7374 ], [ -3.6099, 40.7379 ], [ -3.6087, 40.738 ], [ -3.608, 40.7386 ], [ -3.6079, 40.7391 ], [ -3.6073, 40.7395 ], [ -3.6073, 40.74 ], [ -3.6076, 40.7403 ], [ -3.6077, 40.7412 ], [ -3.608, 40.7413 ], [ -3.6083, 40.7413 ], [ -3.6083, 40.7412 ], [ -3.609, 40.7409 ], [ -3.6095, 40.7413 ], [ -3.6103, 40.7407 ], [ -3.6105, 40.7407 ], [ -3.6117, 40.7417 ], [ -3.6117, 40.7422 ], [ -3.6119, 40.7424 ], [ -3.6119, 40.7427 ], [ -3.6117, 40.7429 ], [ -3.6117, 40.7433 ], [ -3.6106, 40.744 ], [ -3.6106, 40.7441 ], [ -3.6085, 40.7445 ], [ -3.608, 40.7458 ], [ -3.6089, 40.7462 ], [ -3.6089, 40.7463 ], [ -3.6112, 40.7463 ], [ -3.6112, 40.7464 ], [ -3.6116, 40.7465 ], [ -3.6115, 40.7474 ], [ -3.612, 40.7477 ], [ -3.612, 40.7487 ], [ -3.6121, 40.7488 ], [ -3.6121, 40.7492 ], [ -3.6119, 40.7494 ], [ -3.6118, 40.7504 ], [ -3.612, 40.7504 ], [ -3.612, 40.7505 ], [ -3.6142, 40.7515 ], [ -3.6152, 40.7526 ], [ -3.6152, 40.753 ], [ -3.6147, 40.7535 ], [ -3.614, 40.7541 ], [ -3.6136, 40.7542 ], [ -3.6127, 40.7552 ], [ -3.612, 40.7557 ], [ -3.6128, 40.7586 ], [ -3.6124, 40.759 ], [ -3.6143, 40.7602 ], [ -3.6143, 40.7603 ], [ -3.6157, 40.7609 ], [ -3.6159, 40.7611 ], [ -3.6171, 40.7614 ], [ -3.6178, 40.7612 ], [ -3.6197, 40.7611 ], [ -3.6202, 40.7621 ], [ -3.6189, 40.7626 ], [ -3.6192, 40.7635 ], [ -3.6188, 40.7634 ], [ -3.6184, 40.7636 ], [ -3.6184, 40.7638 ], [ -3.6181, 40.7642 ], [ -3.6177, 40.7644 ], [ -3.6165, 40.7643 ], [ -3.6157, 40.7644 ], [ -3.6146, 40.7652 ], [ -3.6143, 40.765 ], [ -3.6143, 40.7642 ], [ -3.6132, 40.7636 ], [ -3.6131, 40.7631 ], [ -3.6127, 40.763 ], [ -3.6126, 40.7623 ], [ -3.6124, 40.7621 ], [ -3.6119, 40.762 ], [ -3.6116, 40.7615 ], [ -3.6109, 40.7613 ], [ -3.6104, 40.7613 ], [ -3.6084, 40.7606 ], [ -3.6086, 40.7612 ], [ -3.6086, 40.762 ], [ -3.6088, 40.7623 ], [ -3.6088, 40.7627 ], [ -3.6085, 40.7631 ], [ -3.6088, 40.7648 ], [ -3.6087, 40.7649 ], [ -3.6094, 40.7662 ], [ -3.6094, 40.7664 ], [ -3.609, 40.7667 ], [ -3.6087, 40.7674 ], [ -3.6088, 40.7681 ], [ -3.6088, 40.7686 ], [ -3.6087, 40.7686 ], [ -3.6096, 40.7688 ], [ -3.6099, 40.769 ], [ -3.6114, 40.7693 ], [ -3.6117, 40.7709 ], [ -3.6116, 40.772 ], [ -3.6124, 40.772 ], [ -3.6147, 40.7715 ], [ -3.6138, 40.7727 ] ], [ [ -3.6242, 40.739 ], [ -3.6242, 40.7386 ], [ -3.6229, 40.7382 ], [ -3.6197, 40.7381 ], [ -3.6181, 40.7385 ], [ -3.6178, 40.7385 ], [ -3.6178, 40.7383 ], [ -3.6202, 40.7378 ], [ -3.6218, 40.738 ], [ -3.6214, 40.7374 ], [ -3.6221, 40.737 ], [ -3.6227, 40.7379 ], [ -3.623, 40.7377 ], [ -3.6239, 40.7378 ], [ -3.6243, 40.7376 ], [ -3.625, 40.7381 ], [ -3.6252, 40.7381 ], [ -3.6249, 40.7384 ], [ -3.6259, 40.7385 ], [ -3.6258, 40.7388 ], [ -3.6249, 40.7387 ], [ -3.6249, 40.7388 ], [ -3.6245, 40.7388 ], [ -3.6245, 40.739 ], [ -3.6242, 40.739 ] ], [ [ -3.6223, 40.7372 ], [ -3.6223, 40.737 ], [ -3.622, 40.7369 ], [ -3.6208, 40.7376 ], [ -3.6192, 40.7378 ], [ -3.6187, 40.7377 ], [ -3.6178, 40.7366 ], [ -3.6177, 40.7362 ], [ -3.6181, 40.7356 ], [ -3.6189, 40.7351 ], [ -3.6191, 40.7342 ], [ -3.6196, 40.7337 ], [ -3.6202, 40.7336 ], [ -3.6207, 40.7337 ], [ -3.6212, 40.7342 ], [ -3.6235, 40.734 ], [ -3.624, 40.7333 ], [ -3.624, 40.7331 ], [ -3.6236, 40.7334 ], [ -3.6219, 40.7315 ], [ -3.6212, 40.7319 ], [ -3.6204, 40.7318 ], [ -3.6202, 40.7315 ], [ -3.6198, 40.7316 ], [ -3.6189, 40.7315 ], [ -3.6186, 40.7311 ], [ -3.6183, 40.7311 ], [ -3.6176, 40.7314 ], [ -3.6172, 40.7311 ], [ -3.6186, 40.73 ], [ -3.6189, 40.73 ], [ -3.62, 40.7294 ], [ -3.6208, 40.7296 ], [ -3.6212, 40.73 ], [ -3.6223, 40.7301 ], [ -3.6224, 40.7308 ], [ -3.6233, 40.7311 ], [ -3.6235, 40.7306 ], [ -3.6239, 40.7307 ], [ -3.6238, 40.7309 ], [ -3.6245, 40.7312 ], [ -3.6246, 40.7311 ], [ -3.625, 40.7312 ], [ -3.6251, 40.7313 ], [ -3.6248, 40.7316 ], [ -3.6247, 40.7319 ], [ -3.6277, 40.7319 ], [ -3.6295, 40.7324 ], [ -3.6305, 40.7325 ], [ -3.631, 40.7324 ], [ -3.6325, 40.7309 ], [ -3.6338, 40.7317 ], [ -3.6339, 40.7319 ], [ -3.6356, 40.7329 ], [ -3.6353, 40.733 ], [ -3.6355, 40.7336 ], [ -3.6368, 40.7338 ], [ -3.6371, 40.7351 ], [ -3.6377, 40.7353 ], [ -3.6376, 40.7354 ], [ -3.638, 40.7358 ], [ -3.6379, 40.7362 ], [ -3.6381, 40.7362 ], [ -3.6381, 40.7366 ], [ -3.638, 40.7366 ], [ -3.6379, 40.7375 ], [ -3.638, 40.7379 ], [ -3.6384, 40.7383 ], [ -3.6371, 40.7395 ], [ -3.637, 40.7394 ], [ -3.6368, 40.7396 ], [ -3.6367, 40.7395 ], [ -3.6364, 40.7398 ], [ -3.6362, 40.7396 ], [ -3.6358, 40.7398 ], [ -3.6353, 40.7403 ], [ -3.6342, 40.7407 ], [ -3.6331, 40.7407 ], [ -3.6312, 40.7402 ], [ -3.6295, 40.7395 ], [ -3.6284, 40.7389 ], [ -3.6261, 40.7385 ], [ -3.6256, 40.7383 ], [ -3.6243, 40.7372 ], [ -3.6235, 40.7369 ], [ -3.6231, 40.7371 ], [ -3.6231, 40.7372 ], [ -3.6229, 40.737 ], [ -3.6223, 40.7372 ] ] ] } },
{ "type": "Feature", "properties": { "municipio": "Pedrezuela", "clasificacion": "no-urbanizable-protegido", "calificacion": "sin-asignar", "version": "vigente", "fuente": "SIT-CAM WFS — UsoDelSuelo:VPLA_V_CLASIFICACION (https://idem.comunidad.madrid/geosrvg/ows)", "fecha_dato": "2026-05-12", "ambito": "93738", "_raw_CD_SIGLAS": "SNUP", "_raw_DS_CLASIF_GEN": "Suelo No Urbanizable Protegido", "_raw_DS_CLASIF_DET": "Suelo No Urbanizable Protección Comunicaciones y Servicios", "_raw_DS_DOCU": "NORMAS SUBSIDIARIAS", "_raw_DS_LEY": null, "_raw_FC_AC": "2018-09-27", "_raw_NM_AREA_M2": 1415748.62088831, "_cam_code": "108" }, "geometry": { "type": "Polygon", "coordinates": [ [ [ -3.6208, 40.7722 ], [ -3.6211, 40.7725 ], [ -3.6212, 40.7729 ], [ -3.6214, 40.7731 ], [ -3.6239, 40.7722 ], [ -3.6239, 40.7719 ], [ -3.6238, 40.7719 ], [ -3.6239, 40.7714 ], [ -3.6238, 40.7714 ], [ -3.6237, 40.7711 ], [ -3.6237, 40.7711 ], [ -3.6237, 40.7711 ], [ -3.6237, 40.771 ], [ -3.6237, 40.7709 ], [ -3.6237, 40.7708 ], [ -3.6237, 40.7708 ], [ -3.6237, 40.7707 ], [ -3.6237, 40.7706 ], [ -3.6236, 40.7706 ], [ -3.6236, 40.7706 ], [ -3.6238, 40.7706 ], [ -3.6241, 40.7708 ], [ -3.6244, 40.7708 ], [ -3.6252, 40.7713 ], [ -3.6253, 40.7712 ], [ -3.6256, 40.7713 ], [ -3.6258, 40.7715 ], [ -3.6264, 40.7716 ], [ -3.6264, 40.7717 ], [ -3.6279, 40.7719 ], [ -3.6284, 40.7718 ], [ -3.6287, 40.7715 ], [ -3.6286, 40.7712 ], [ -3.6285, 40.7712 ], [ -3.6288, 40.7707 ], [ -3.6288, 40.7703 ], [ -3.6287, 40.7703 ], [ -3.6292, 40.7697 ], [ -3.6295, 40.7696 ], [ -3.6296, 40.7685 ], [ -3.6301, 40.7681 ], [ -3.6306, 40.7679 ], [ -3.6306, 40.7677 ], [ -3.6304, 40.7675 ], [ -3.6292, 40.7673 ], [ -3.629, 40.7667 ], [ -3.6288, 40.7666 ], [ -3.6283, 40.7667 ], [ -3.6278, 40.7673 ], [ -3.627, 40.7676 ], [ -3.6267, 40.7676 ], [ -3.6261, 40.7673 ], [ -3.6252, 40.7672 ], [ -3.6248, 40.767 ], [ -3.624, 40.767 ], [ -3.6238, 40.7667 ], [ -3.6246, 40.7666 ], [ -3.6253, 40.7663 ], [ -3.6258, 40.766 ], [ -3.6262, 40.7655 ], [ -3.6262, 40.7652 ], [ -3.626, 40.765 ], [ -3.6261, 40.7649 ], [ -3.626, 40.7645 ], [ -3.6257, 40.7638 ], [ -3.6253, 40.7634 ], [ -3.6258, 40.7635 ], [ -3.6267, 40.7632 ], [ -3.6265, 40.7621 ], [ -3.6273, 40.7622 ], [ -3.6275, 40.7621 ], [ -3.6279, 40.7615 ], [ -3.6293, 40.7618 ], [ -3.6298, 40.7613 ], [ -3.6302, 40.762 ], [ -3.6303, 40.763 ], [ -3.6301, 40.7633 ], [ -3.6301, 40.7638 ], [ -3.6304, 40.7645 ], [ -3.6311, 40.7644 ], [ -3.6315, 40.7637 ], [ -3.632, 40.764 ], [ -3.6337, 40.7624 ], [ -3.6333, 40.7615 ], [ -3.6334, 40.7614 ], [ -3.6335, 40.76 ], [ -3.6339, 40.7598 ], [ -3.6347, 40.7601 ], [ -3.635, 40.7598 ], [ -3.635, 40.7595 ], [ -3.6347, 40.759 ], [ -3.634, 40.7587 ], [ -3.6341, 40.7586 ], [ -3.634, 40.7582 ], [ -3.6343, 40.758 ], [ -3.6344, 40.7575 ], [ -3.6348, 40.7575 ], [ -3.6348, 40.7574 ], [ -3.6352, 40.7573 ], [ -3.6357, 40.7566 ], [ -3.6356, 40.7563 ], [ -3.6359, 40.7564 ], [ -3.6364, 40.7563 ], [ -3.6361, 40.7558 ], [ -3.6358, 40.7556 ], [ -3.6359, 40.7548 ], [ -3.635, 40.7547 ], [ -3.6349, 40.7542 ], [ -3.635, 40.7542 ], [ -3.635, 40.7539 ], [ -3.6353, 40.7535 ], [ -3.6354, 40.7531 ], [ -3.6358, 40.7527 ], [ -3.6359, 40.7518 ], [ -3.6362, 40.7516 ], [ -3.6362, 40.7513 ], [ -3.636, 40.7512 ], [ -3.636, 40.7508 ], [ -3.6364, 40.75 ], [ -3.6365, 40.75 ], [ -3.6365, 40.7498 ], [ -3.6366, 40.7498 ], [ -3.6367, 40.7494 ], [ -3.6366, 40.7487 ], [ -3.6362, 40.7488 ], [ -3.6359, 40.7491 ], [ -3.6358, 40.7496 ], [ -3.6354, 40.7499 ], [ -3.6351, 40.7506 ], [ -3.635, 40.7506 ], [ -3.6349, 40.7515 ], [ -3.6345, 40.7524 ], [ -3.6338, 40.7526 ], [ -3.6338, 40.753 ], [ -3.6339, 40.753 ], [ -3.6337, 40.7533 ], [ -3.6334, 40.7534 ], [ -3.6334, 40.7537 ], [ -3.6332, 40.754 ], [ -3.6332, 40.7547 ], [ -3.6329, 40.7548 ], [ -3.6328, 40.755 ], [ -3.6333, 40.7555 ], [ -3.633, 40.7558 ], [ -3.6326, 40.7557 ], [ -3.6322, 40.7559 ], [ -3.6323, 40.7565 ], [ -3.632, 40.7568 ], [ -3.6317, 40.7575 ], [ -3.6314, 40.7576 ], [ -3.6315, 40.7581 ], [ -3.6309, 40.7586 ], [ -3.6306, 40.7585 ], [ -3.63, 40.7586 ], [ -3.6299, 40.7585 ], [ -3.6289, 40.7587 ], [ -3.6287, 40.7589 ], [ -3.6285, 40.7589 ], [ -3.6285, 40.759 ], [ -3.628, 40.7589 ], [ -3.6278, 40.7591 ], [ -3.6275, 40.7591 ], [ -3.6272, 40.7593 ], [ -3.6269, 40.7597 ], [ -3.6263, 40.7599 ], [ -3.6258, 40.7605 ], [ -3.6255, 40.7605 ], [ -3.6255, 40.7593 ], [ -3.6256, 40.7592 ], [ -3.6255, 40.7591 ], [ -3.6255, 40.7582 ], [ -3.6254, 40.7582 ], [ -3.6254, 40.758 ], [ -3.6259, 40.7577 ], [ -3.6261, 40.7569 ], [ -3.6256, 40.7565 ], [ -3.625, 40.7564 ], [ -3.6248, 40.7562 ], [ -3.6247, 40.7556 ], [ -3.6244, 40.7554 ], [ -3.6239, 40.7556 ], [ -3.6239, 40.7555 ], [ -3.6233, 40.7555 ], [ -3.6226, 40.7558 ], [ -3.6226, 40.7559 ], [ -3.6209, 40.7559 ], [ -3.6209, 40.7558 ], [ -3.6204, 40.7558 ], [ -3.6204, 40.7557 ], [ -3.6199, 40.7556 ], [ -3.6197, 40.7553 ], [ -3.6193, 40.7555 ], [ -3.6187, 40.7555 ], [ -3.6183, 40.7557 ], [ -3.6183, 40.7559 ], [ -3.6185, 40.7561 ], [ -3.6192, 40.7562 ], [ -3.6195, 40.7565 ], [ -3.6201, 40.7567 ], [ -3.6205, 40.7571 ], [ -3.621, 40.7571 ], [ -3.6215, 40.7575 ], [ -3.622, 40.7574 ], [ -3.622, 40.7576 ], [ -3.6221, 40.7576 ], [ -3.6221, 40.7582 ], [ -3.6217, 40.7596 ], [ -3.6221, 40.7599 ], [ -3.6222, 40.7603 ], [ -3.6224, 40.7604 ], [ -3.6223, 40.7605 ], [ -3.6225, 40.7608 ], [ -3.6224, 40.7617 ], [ -3.6225, 40.7617 ], [ -3.6225, 40.7619 ], [ -3.6227, 40.7621 ], [ -3.6224, 40.7622 ], [ -3.6219, 40.7627 ], [ -3.6218, 40.7645 ], [ -3.6213, 40.7649 ], [ -3.6209, 40.765 ], [ -3.6205, 40.7646 ], [ -3.6201, 40.7647 ], [ -3.6199, 40.7649 ], [ -3.6196, 40.7645 ], [ -3.619, 40.7644 ], [ -3.6187, 40.7647 ], [ -3.6186, 40.7655 ], [ -3.618, 40.7657 ], [ -3.6176, 40.7652 ], [ -3.6173, 40.7651 ], [ -3.6163, 40.7652 ], [ -3.6163, 40.7653 ], [ -3.616, 40.7651 ], [ -3.6156, 40.7651 ], [ -3.6154, 40.7653 ], [ -3.6154, 40.7655 ], [ -3.614, 40.7654 ], [ -3.6134, 40.7658 ], [ -3.6143, 40.7659 ], [ -3.6148, 40.7663 ], [ -3.6153, 40.7663 ], [ -3.6154, 40.7664 ], [ -3.6163, 40.7663 ], [ -3.6169, 40.7671 ], [ -3.6175, 40.7672 ], [ -3.6174, 40.7673 ], [ -3.6175, 40.7675 ], [ -3.6174, 40.7679 ], [ -3.6177, 40.7682 ], [ -3.6182, 40.7682 ], [ -3.619, 40.7676 ], [ -3.6197, 40.7677 ], [ -3.6201, 40.7675 ], [ -3.6201, 40.7677 ], [ -3.6203, 40.7679 ], [ -3.6205, 40.768 ], [ -3.6208, 40.7679 ], [ -3.621, 40.7681 ], [ -3.621, 40.7687 ], [ -3.6216, 40.7693 ], [ -3.622, 40.7693 ], [ -3.6227, 40.7686 ], [ -3.6232, 40.7687 ], [ -3.6232, 40.7688 ], [ -3.6238, 40.7688 ], [ -3.6238, 40.7689 ], [ -3.625, 40.7689 ], [ -3.6254, 40.7691 ], [ -3.6265, 40.7691 ], [ -3.6264, 40.7694 ], [ -3.6263, 40.7694 ], [ -3.6263, 40.7697 ], [ -3.6254, 40.7697 ], [ -3.625, 40.7696 ], [ -3.625, 40.7695 ], [ -3.6241, 40.7694 ], [ -3.6241, 40.7693 ], [ -3.6238, 40.7693 ], [ -3.6234, 40.7691 ], [ -3.6227, 40.7691 ], [ -3.622, 40.7696 ], [ -3.622, 40.7706 ], [ -3.6221, 40.7706 ], [ -3.6222, 40.7709 ], [ -3.6221, 40.7712 ], [ -3.6216, 40.7714 ], [ -3.6207, 40.7713 ], [ -3.6202, 40.7715 ], [ -3.6197, 40.7719 ], [ -3.6187, 40.772 ], [ -3.6187, 40.7724 ], [ -3.6191, 40.7724 ], [ -3.6194, 40.7725 ], [ -3.6194, 40.7726 ], [ -3.6203, 40.7726 ], [ -3.6208, 40.7722 ] ] ] } },
{ "type": "Feature", "properties": { "municipio": "Pedrezuela", "clasificacion": "no-urbanizable-protegido", "calificacion": "sin-asignar", "version": "vigente", "fuente": "SIT-CAM WFS — UsoDelSuelo:VPLA_V_CLASIFICACION (https://idem.comunidad.madrid/geosrvg/ows)", "fecha_dato": "2026-05-12", "ambito": "93738", "_raw_CD_SIGLAS": "SNUP", "_raw_DS_CLASIF_GEN": "Suelo No Urbanizable Protegido", "_raw_DS_CLASIF_DET": "Suelo No Urbanizable Protección Comunicaciones y Servicios", "_raw_DS_DOCU": "NORMAS SUBSIDIARIAS", "_raw_DS_LEY": null, "_raw_FC_AC": "2018-09-27", "_raw_NM_AREA_M2": 475640.84805968398, "_cam_code": "108" }, "geometry": { "type": "Polygon", "coordinates": [ [ [ -3.5942, 40.7469 ], [ -3.6047, 40.7673 ], [ -3.6054, 40.7684 ], [ -3.6058, 40.7694 ], [ -3.6069, 40.7713 ], [ -3.6087, 40.775 ], [ -3.6103, 40.7779 ], [ -3.6112, 40.7772 ], [ -3.6102, 40.7755 ], [ -3.6087, 40.7724 ], [ -3.5997, 40.7552 ], [ -3.6015, 40.7559 ], [ -3.6066, 40.7591 ], [ -3.6079, 40.7606 ], [ -3.6086, 40.7612 ], [ -3.6084, 40.7606 ], [ -3.6104, 40.7613 ], [ -3.6091, 40.7604 ], [ -3.6074, 40.7585 ], [ -3.6055, 40.7574 ], [ -3.602, 40.7551 ], [ -3.5991, 40.7541 ], [ -3.5952, 40.7465 ], [ -3.5947, 40.7459 ], [ -3.5947, 40.7461 ], [ -3.5945, 40.7461 ], [ -3.594, 40.7455 ], [ -3.5933, 40.7441 ], [ -3.5934, 40.7459 ], [ -3.5942, 40.7469 ] ] ] } },
{ "type": "Feature", "properties": { "municipio": "Pedrezuela", "clasificacion": "no-urbanizable-protegido", "calificacion": "sin-asignar", "version": "vigente", "fuente": "SIT-CAM WFS — UsoDelSuelo:VPLA_V_CLASIFICACION (https://idem.comunidad.madrid/geosrvg/ows)", "fecha_dato": "2026-05-12", "ambito": "93738", "_raw_CD_SIGLAS": "SNUP", "_raw_DS_CLASIF_GEN": "Suelo No Urbanizable Protegido", "_raw_DS_CLASIF_DET": "Suelo No Urbanizable Protección Especial", "_raw_DS_DOCU": "NORMAS SUBSIDIARIAS", "_raw_DS_LEY": null, "_raw_FC_AC": "2018-09-27", "_raw_NM_AREA_M2": 335913.790830941, "_cam_code": "108" }, "geometry": { "type": "Polygon", "coordinates": [ [ [ -3.629, 40.7667 ], [ -3.6292, 40.7673 ], [ -3.6302, 40.7674 ], [ -3.6306, 40.7677 ], [ -3.6306, 40.7679 ], [ -3.6301, 40.7681 ], [ -3.6296, 40.7685 ], [ -3.6295, 40.7696 ], [ -3.6292, 40.7697 ], [ -3.6287, 40.7703 ], [ -3.6288, 40.7703 ], [ -3.6288, 40.7707 ], [ -3.6286, 40.7711 ], [ -3.6285, 40.7711 ], [ -3.6287, 40.7715 ], [ -3.6313, 40.7693 ], [ -3.6319, 40.7684 ], [ -3.6324, 40.7658 ], [ -3.6319, 40.7641 ], [ -3.632, 40.764 ], [ -3.6316, 40.7637 ], [ -3.6315, 40.7637 ], [ -3.6311, 40.7644 ], [ -3.6304, 40.7645 ], [ -3.6301, 40.7638 ], [ -3.6301, 40.7633 ], [ -3.6303, 40.763 ], [ -3.6302, 40.762 ], [ -3.6298, 40.7613 ], [ -3.6293, 40.7618 ], [ -3.6279, 40.7615 ], [ -3.6275, 40.7621 ], [ -3.6273, 40.7622 ], [ -3.6265, 40.7621 ], [ -3.6267, 40.7632 ], [ -3.6258, 40.7635 ], [ -3.6253, 40.7634 ], [ -3.6257, 40.7638 ], [ -3.626, 40.7645 ], [ -3.6261, 40.7648 ], [ -3.626, 40.765 ], [ -3.6262, 40.7652 ], [ -3.6262, 40.7655 ], [ -3.6255, 40.7662 ], [ -3.6246, 40.7666 ], [ -3.624, 40.7666 ], [ -3.6238, 40.7668 ], [ -3.624, 40.767 ], [ -3.6248, 40.767 ], [ -3.6252, 40.7672 ], [ -3.6261, 40.7673 ], [ -3.6267, 40.7676 ], [ -3.627, 40.7676 ], [ -3.6278, 40.7673 ], [ -3.6285, 40.7666 ], [ -3.629, 40.7667 ] ] ] } },
{ "type": "Feature", "properties": { "municipio": "Pedrezuela", "clasificacion": "no-urbanizable-protegido", "calificacion": "sin-asignar", "version": "vigente", "fuente": "SIT-CAM WFS — UsoDelSuelo:VPLA_V_CLASIFICACION (https://idem.comunidad.madrid/geosrvg/ows)", "fecha_dato": "2026-05-12", "ambito": "93738", "_raw_CD_SIGLAS": "SNUP", "_raw_DS_CLASIF_GEN": "Suelo No Urbanizable Protegido", "_raw_DS_CLASIF_DET": "Suelo No Urbanizable Protección Especial", "_raw_DS_DOCU": "NORMAS SUBSIDIARIAS", "_raw_DS_LEY": null, "_raw_FC_AC": "2018-09-27", "_raw_NM_AREA_M2": 16182.247938053801, "_cam_code": "108" }, "geometry": { "type": "Polygon", "coordinates": [ [ [ -3.6239, 40.7714 ], [ -3.6238, 40.7718 ], [ -3.6239, 40.7722 ], [ -3.6254, 40.7716 ], [ -3.6265, 40.7717 ], [ -3.626, 40.7716 ], [ -3.6253, 40.7712 ], [ -3.6252, 40.7713 ], [ -3.6244, 40.7708 ], [ -3.6241, 40.7708 ], [ -3.6238, 40.7706 ], [ -3.6238, 40.7706 ], [ -3.6236, 40.7706 ], [ -3.6236, 40.7706 ], [ -3.6237, 40.7706 ], [ -3.6237, 40.7707 ], [ -3.6237, 40.7711 ], [ -3.6238, 40.7714 ], [ -3.6239, 40.7714 ] ] ] } },
{ "type": "Feature", "properties": { "municipio": "Pedrezuela", "clasificacion": "urbano-consolidado", "calificacion": "sin-asignar", "version": "vigente", "fuente": "SIT-CAM WFS — UsoDelSuelo:VPLA_V_CLASIFICACION (https://idem.comunidad.madrid/geosrvg/ows)", "fecha_dato": "2026-05-12", "ambito": "93738", "_raw_CD_SIGLAS": "SU", "_raw_DS_CLASIF_GEN": "Suelo Urbano", "_raw_DS_CLASIF_DET": "Suelo Urbano", "_raw_DS_DOCU": "NORMAS SUBSIDIARIAS", "_raw_DS_LEY": null, "_raw_FC_AC": "2018-09-27", "_raw_NM_AREA_M2": 532544.27038819599, "_cam_code": "108" }, "geometry": { "type": "Polygon", "coordinates": [ [ [ -3.5996, 40.7481 ], [ -3.6008, 40.7484 ], [ -3.6003, 40.7497 ], [ -3.6004, 40.7498 ], [ -3.6007, 40.7493 ], [ -3.6006, 40.7491 ], [ -3.6007, 40.7488 ], [ -3.6011, 40.7485 ], [ -3.6011, 40.7479 ], [ -3.6014, 40.7476 ], [ -3.6032, 40.7479 ], [ -3.6034, 40.7477 ], [ -3.6038, 40.7476 ], [ -3.604, 40.7476 ], [ -3.6041, 40.7478 ], [ -3.6043, 40.7477 ], [ -3.6042, 40.7477 ], [ -3.6042, 40.7475 ], [ -3.6047, 40.7474 ], [ -3.6051, 40.7471 ], [ -3.6061, 40.747 ], [ -3.6066, 40.7471 ], [ -3.6064, 40.7467 ], [ -3.6059, 40.7468 ], [ -3.6059, 40.7469 ], [ -3.6058, 40.7468 ], [ -3.6058, 40.7469 ], [ -3.6055, 40.747 ], [ -3.6051, 40.747 ], [ -3.6048, 40.7472 ], [ -3.6047, 40.7471 ], [ -3.6051, 40.7466 ], [ -3.6051, 40.7459 ], [ -3.6053, 40.7457 ], [ -3.6052, 40.7452 ], [ -3.6057, 40.7448 ], [ -3.6056, 40.7448 ], [ -3.6055, 40.7444 ], [ -3.6066, 40.7437 ], [ -3.6068, 40.7437 ], [ -3.6072, 40.7433 ], [ -3.6074, 40.7434 ], [ -3.6072, 40.7435 ], [ -3.6074, 40.7437 ], [ -3.6078, 40.7433 ], [ -3.6076, 40.743 ], [ -3.6072, 40.7428 ], [ -3.6071, 40.7429 ], [ -3.6069, 40.7428 ], [ -3.607, 40.7422 ], [ -3.6068, 40.7418 ], [ -3.606, 40.7419 ], [ -3.6053, 40.7418 ], [ -3.6053, 40.7417 ], [ -3.6044, 40.7417 ], [ -3.6044, 40.7416 ], [ -3.6018, 40.742 ], [ -3.6018, 40.7421 ], [ -3.6015, 40.742 ], [ -3.6016, 40.7424 ], [ -3.6006, 40.7423 ], [ -3.6003, 40.7424 ], [ -3.6003, 40.7421 ], [ -3.5998, 40.7421 ], [ -3.5998, 40.7417 ], [ -3.5994, 40.7417 ], [ -3.5994, 40.742 ], [ -3.599, 40.7419 ], [ -3.5982, 40.742 ], [ -3.5982, 40.7418 ], [ -3.5978, 40.7418 ], [ -3.5978, 40.742 ], [ -3.5973, 40.7425 ], [ -3.5977, 40.7429 ], [ -3.5969, 40.743 ], [ -3.5971, 40.7435 ], [ -3.5964, 40.7436 ], [ -3.595, 40.7436 ], [ -3.595, 40.7432 ], [ -3.5948, 40.7428 ], [ -3.5932, 40.7427 ], [ -3.5933, 40.7441 ], [ -3.5938, 40.7452 ], [ -3.5945, 40.7461 ], [ -3.5947, 40.7461 ], [ -3.5947, 40.7456 ], [ -3.5944, 40.7451 ], [ -3.5962, 40.7451 ], [ -3.5966, 40.7454 ], [ -3.5974, 40.7446 ], [ -3.5979, 40.7455 ], [ -3.5979, 40.7456 ], [ -3.5976, 40.7457 ], [ -3.5978, 40.7458 ], [ -3.5977, 40.7459 ], [ -3.5978, 40.746 ], [ -3.5981, 40.7461 ], [ -3.5983, 40.746 ], [ -3.5985, 40.7462 ], [ -3.5992, 40.7462 ], [ -3.5991, 40.7465 ], [ -3.5988, 40.7467 ], [ -3.5988, 40.7469 ], [ -3.5985, 40.7472 ], [ -3.5987, 40.748 ], [ -3.5986, 40.7481 ], [ -3.5989, 40.7488 ], [ -3.599, 40.7488 ], [ -3.5988, 40.7491 ], [ -3.5994, 40.7486 ], [ -3.5995, 40.7482 ], [ -3.5996, 40.7481 ] ] ] } },
{ "type": "Feature", "properties": { "municipio": "Pedrezuela", "clasificacion": "urbano-consolidado", "calificacion": "sin-asignar", "version": "vigente", "fuente": "SIT-CAM WFS — UsoDelSuelo:VPLA_V_CLASIFICACION (https://idem.comunidad.madrid/geosrvg/ows)", "fecha_dato": "2026-05-12", "ambito": "93738", "_raw_CD_SIGLAS": "SU", "_raw_DS_CLASIF_GEN": "Suelo Urbano", "_raw_DS_CLASIF_DET": "Suelo Urbano", "_raw_DS_DOCU": "NORMAS SUBSIDIARIAS", "_raw_DS_LEY": null, "_raw_FC_AC": "2018-09-27", "_raw_NM_AREA_M2": 37617.710662039797, "_cam_code": "108" }, "geometry": { "type": "Polygon", "coordinates": [ [ [ -3.6242, 40.739 ], [ -3.6245, 40.739 ], [ -3.6245, 40.7388 ], [ -3.6249, 40.7388 ], [ -3.6249, 40.7387 ], [ -3.6258, 40.7388 ], [ -3.6259, 40.7385 ], [ -3.6249, 40.7384 ], [ -3.6252, 40.7381 ], [ -3.625, 40.7381 ], [ -3.6243, 40.7376 ], [ -3.6239, 40.7378 ], [ -3.623, 40.7377 ], [ -3.6227, 40.7379 ], [ -3.6221, 40.737 ], [ -3.6214, 40.7374 ], [ -3.6218, 40.738 ], [ -3.6202, 40.7378 ], [ -3.6178, 40.7383 ], [ -3.6178, 40.7385 ], [ -3.6181, 40.7385 ], [ -3.6197, 40.7381 ], [ -3.6229, 40.7382 ], [ -3.6242, 40.7386 ], [ -3.6242, 40.739 ] ] ] } },
{ "type": "Feature", "properties": { "municipio": "Pedrezuela", "clasificacion": "urbanizable-no-sectorizado", "calificacion": "sin-asignar", "version": "vigente", "fuente": "SIT-CAM WFS — UsoDelSuelo:VPLA_V_CLASIFICACION (https://idem.comunidad.madrid/geosrvg/ows)", "fecha_dato": "2026-05-12", "ambito": "93738", "_raw_CD_SIGLAS": "SUBNS", "_raw_DS_CLASIF_GEN": "Suelo No Urbanizable Común", "_raw_DS_CLASIF_DET": "Suelo No Urbanizable Común", "_raw_DS_DOCU": "NORMAS SUBSIDIARIAS", "_raw_DS_LEY": null, "_raw_FC_AC": "2018-09-27", "_raw_NM_AREA_M2": 820391.60732626205, "_cam_code": "108" }, "geometry": { "type": "Polygon", "coordinates": [ [ [ -3.5934, 40.7459 ], [ -3.5938, 40.7506 ], [ -3.5947, 40.7526 ], [ -3.5972, 40.7562 ], [ -3.5983, 40.758 ], [ -3.6009, 40.7652 ], [ -3.6035, 40.7718 ], [ -3.6041, 40.773 ], [ -3.6042, 40.7757 ], [ -3.6044, 40.7764 ], [ -3.6086, 40.7797 ], [ -3.6091, 40.779 ], [ -3.6103, 40.7779 ], [ -3.6087, 40.775 ], [ -3.6069, 40.7713 ], [ -3.6058, 40.7694 ], [ -3.6054, 40.7684 ], [ -3.6047, 40.7673 ], [ -3.6004, 40.7588 ], [ -3.5994, 40.7571 ], [ -3.5989, 40.7559 ], [ -3.5978, 40.754 ], [ -3.5942, 40.7469 ], [ -3.5934, 40.7459 ] ] ] } },
{ "type": "Feature", "properties": { "municipio": "Pedrezuela", "clasificacion": "urbanizable-no-sectorizado", "calificacion": "sin-asignar", "version": "vigente", "fuente": "SIT-CAM WFS — UsoDelSuelo:VPLA_V_CLASIFICACION (https://idem.comunidad.madrid/geosrvg/ows)", "fecha_dato": "2026-05-12", "ambito": "93738", "_raw_CD_SIGLAS": "SUBNS", "_raw_DS_CLASIF_GEN": "Suelo No Urbanizable Común", "_raw_DS_CLASIF_DET": "Suelo No Urbanizable Común", "_raw_DS_DOCU": "NORMAS SUBSIDIARIAS", "_raw_DS_LEY": null, "_raw_FC_AC": "2018-09-27", "_raw_NM_AREA_M2": 5187434.3005848099, "_cam_code": "108" }, "geometry": { "type": "Polygon", "coordinates": [ [ [ -3.6117, 40.7613 ], [ -3.6135, 40.7616 ], [ -3.6159, 40.761 ], [ -3.6143, 40.7603 ], [ -3.6143, 40.7602 ], [ -3.6124, 40.759 ], [ -3.6128, 40.7586 ], [ -3.612, 40.7557 ], [ -3.6127, 40.7552 ], [ -3.6136, 40.7542 ], [ -3.614, 40.7541 ], [ -3.6147, 40.7535 ], [ -3.6152, 40.753 ], [ -3.6152, 40.7526 ], [ -3.6142, 40.7515 ], [ -3.612, 40.7505 ], [ -3.612, 40.7504 ], [ -3.6118, 40.7504 ], [ -3.6119, 40.7494 ], [ -3.6121, 40.7492 ], [ -3.6121, 40.7488 ], [ -3.612, 40.7487 ], [ -3.612, 40.7477 ], [ -3.6115, 40.7474 ], [ -3.6116, 40.7465 ], [ -3.6112, 40.7464 ], [ -3.6112, 40.7463 ], [ -3.6089, 40.7463 ], [ -3.6089, 40.7462 ], [ -3.608, 40.7458 ], [ -3.6085, 40.7445 ], [ -3.6106, 40.7441 ], [ -3.6106, 40.744 ], [ -3.6117, 40.7433 ], [ -3.6117, 40.7429 ], [ -3.6119, 40.7427 ], [ -3.6119, 40.7424 ], [ -3.6117, 40.7422 ], [ -3.6117, 40.7417 ], [ -3.6105, 40.7407 ], [ -3.6103, 40.7407 ], [ -3.6095, 40.7413 ], [ -3.609, 40.7409 ], [ -3.6083, 40.7412 ], [ -3.6083, 40.7413 ], [ -3.6077, 40.7412 ], [ -3.6076, 40.7403 ], [ -3.6073, 40.74 ], [ -3.6073, 40.7395 ], [ -3.6079, 40.7391 ], [ -3.608, 40.7386 ], [ -3.6087, 40.738 ], [ -3.6099, 40.7379 ], [ -3.6098, 40.7374 ], [ -3.6102, 40.7369 ], [ -3.61, 40.7359 ], [ -3.6106, 40.7358 ], [ -3.6106, 40.7355 ], [ -3.6097, 40.7354 ], [ -3.6096, 40.7342 ], [ -3.6091, 40.7341 ], [ -3.6088, 40.7336 ], [ -3.6094, 40.733 ], [ -3.6092, 40.7324 ], [ -3.6113, 40.7312 ], [ -3.6113, 40.73 ], [ -3.6111, 40.7296 ], [ -3.6107, 40.7293 ], [ -3.6098, 40.7294 ], [ -3.6092, 40.7298 ], [ -3.6092, 40.7304 ], [ -3.6083, 40.7306 ], [ -3.6077, 40.7314 ], [ -3.6074, 40.7315 ], [ -3.6074, 40.7316 ], [ -3.607, 40.7314 ], [ -3.6066, 40.7314 ], [ -3.6063, 40.7307 ], [ -3.6051, 40.731 ], [ -3.6045, 40.7304 ], [ -3.6046, 40.7297 ], [ -3.6074, 40.7288 ], [ -3.6083, 40.7276 ], [ -3.61, 40.727 ], [ -3.6114, 40.7267 ], [ -3.6115, 40.7261 ], [ -3.6098, 40.7255 ], [ -3.6096, 40.724 ], [ -3.6099, 40.7233 ], [ -3.6108, 40.7228 ], [ -3.611, 40.7219 ], [ -3.6112, 40.7216 ], [ -3.615, 40.7208 ], [ -3.6152, 40.7203 ], [ -3.6152, 40.7201 ], [ -3.6146, 40.7198 ], [ -3.6145, 40.7191 ], [ -3.615, 40.7187 ], [ -3.615, 40.7185 ], [ -3.6148, 40.7179 ], [ -3.6143, 40.7177 ], [ -3.6143, 40.7176 ], [ -3.6133, 40.7177 ], [ -3.6129, 40.7181 ], [ -3.6122, 40.718 ], [ -3.6122, 40.7185 ], [ -3.6115, 40.7185 ], [ -3.6115, 40.717 ], [ -3.6116, 40.717 ], [ -3.6116, 40.7167 ], [ -3.6114, 40.7165 ], [ -3.6114, 40.7114 ], [ -3.6104, 40.712 ], [ -3.61, 40.7126 ], [ -3.6092, 40.7133 ], [ -3.6073, 40.7146 ], [ -3.6075, 40.7146 ], [ -3.6078, 40.7149 ], [ -3.6078, 40.7152 ], [ -3.608, 40.7156 ], [ -3.6075, 40.7173 ], [ -3.6075, 40.7177 ], [ -3.6061, 40.7193 ], [ -3.6059, 40.7198 ], [ -3.6057, 40.7199 ], [ -3.6052, 40.7206 ], [ -3.6039, 40.7213 ], [ -3.6034, 40.7213 ], [ -3.6027, 40.7216 ], [ -3.6022, 40.7221 ], [ -3.6006, 40.723 ], [ -3.5996, 40.7232 ], [ -3.5982, 40.7237 ], [ -3.5974, 40.7238 ], [ -3.5967, 40.7244 ], [ -3.5949, 40.7251 ], [ -3.5933, 40.7264 ], [ -3.5917, 40.728 ], [ -3.5912, 40.7286 ], [ -3.5912, 40.7288 ], [ -3.5911, 40.7288 ], [ -3.5911, 40.7293 ], [ -3.5924, 40.7308 ], [ -3.5926, 40.7353 ], [ -3.5928, 40.7366 ], [ -3.5932, 40.7427 ], [ -3.5948, 40.7428 ], [ -3.595, 40.7432 ], [ -3.595, 40.7436 ], [ -3.5964, 40.7436 ], [ -3.5971, 40.7435 ], [ -3.5969, 40.743 ], [ -3.5977, 40.7429 ], [ -3.5973, 40.7425 ], [ -3.5978, 40.742 ], [ -3.5978, 40.7418 ], [ -3.5982, 40.7418 ], [ -3.5982, 40.742 ], [ -3.5986, 40.7419 ], [ -3.5994, 40.742 ], [ -3.5994, 40.7417 ], [ -3.5998, 40.7417 ], [ -3.5998, 40.7421 ], [ -3.6003, 40.7421 ], [ -3.6003, 40.7424 ], [ -3.6006, 40.7423 ], [ -3.6016, 40.7424 ], [ -3.6015, 40.742 ], [ -3.6018, 40.7421 ], [ -3.6018, 40.742 ], [ -3.6044, 40.7416 ], [ -3.6044, 40.7417 ], [ -3.6053, 40.7417 ], [ -3.6053, 40.7418 ], [ -3.606, 40.7419 ], [ -3.6068, 40.7418 ], [ -3.607, 40.7422 ], [ -3.6069, 40.7428 ], [ -3.607, 40.7429 ], [ -3.6072, 40.7428 ], [ -3.6078, 40.7432 ], [ -3.6076, 40.7436 ], [ -3.6074, 40.7437 ], [ -3.6072, 40.7435 ], [ -3.6074, 40.7434 ], [ -3.6072, 40.7433 ], [ -3.6068, 40.7437 ], [ -3.6066, 40.7437 ], [ -3.6055, 40.7444 ], [ -3.6056, 40.7448 ], [ -3.6057, 40.7448 ], [ -3.6052, 40.7452 ], [ -3.6053, 40.7457 ], [ -3.6051, 40.7459 ], [ -3.6051, 40.7466 ], [ -3.6047, 40.7471 ], [ -3.6048, 40.7472 ], [ -3.6051, 40.747 ], [ -3.6055, 40.747 ], [ -3.6058, 40.7469 ], [ -3.6058, 40.7468 ], [ -3.6059, 40.7469 ], [ -3.6059, 40.7468 ], [ -3.6063, 40.7467 ], [ -3.6065, 40.7468 ], [ -3.6066, 40.7471 ], [ -3.6061, 40.747 ], [ -3.6051, 40.7471 ], [ -3.6047, 40.7474 ], [ -3.6042, 40.7475 ], [ -3.6042, 40.7477 ], [ -3.6043, 40.7477 ], [ -3.6041, 40.7478 ], [ -3.604, 40.7476 ], [ -3.6038, 40.7476 ], [ -3.6034, 40.7477 ], [ -3.6032, 40.7479 ], [ -3.6014, 40.7476 ], [ -3.6011, 40.7479 ], [ -3.6011, 40.7485 ], [ -3.6007, 40.7488 ], [ -3.6006, 40.7491 ], [ -3.6007, 40.7493 ], [ -3.6002, 40.7501 ], [ -3.5995, 40.7499 ], [ -3.5984, 40.7498 ], [ -3.5978, 40.7502 ], [ -3.5975, 40.7499 ], [ -3.5977, 40.7498 ], [ -3.5969, 40.7493 ], [ -3.5972, 40.749 ], [ -3.5961, 40.7483 ], [ -3.5987, 40.748 ], [ -3.5985, 40.7472 ], [ -3.5988, 40.7469 ], [ -3.5988, 40.7467 ], [ -3.5991, 40.7465 ], [ -3.5992, 40.7462 ], [ -3.5985, 40.7462 ], [ -3.5983, 40.746 ], [ -3.5982, 40.7461 ], [ -3.5978, 40.746 ], [ -3.5977, 40.7459 ], [ -3.5978, 40.7458 ], [ -3.5976, 40.7457 ], [ -3.5979, 40.7456 ], [ -3.5979, 40.7455 ], [ -3.5974, 40.7446 ], [ -3.5966, 40.7454 ], [ -3.5962, 40.7451 ], [ -3.5944, 40.7451 ], [ -3.5947, 40.7456 ], [ -3.5947, 40.7459 ], [ -3.5952, 40.7465 ], [ -3.5953, 40.7468 ], [ -3.5961, 40.7483 ], [ -3.5962, 40.7484 ], [ -3.5972, 40.7505 ], [ -3.5986, 40.753 ], [ -3.5991, 40.7541 ], [ -3.602, 40.7551 ], [ -3.6055, 40.7574 ], [ -3.6074, 40.7585 ], [ -3.6091, 40.7604 ], [ -3.6104, 40.7613 ], [ -3.6109, 40.7613 ], [ -3.6115, 40.7615 ], [ -3.6117, 40.7613 ] ] ] } },
{ "type": "Feature", "properties": { "municipio": "Pedrezuela", "clasificacion": "urbanizable-no-sectorizado", "calificacion": "sin-asignar", "version": "vigente", "fuente": "SIT-CAM WFS — UsoDelSuelo:VPLA_V_CLASIFICACION (https://idem.comunidad.madrid/geosrvg/ows)", "fecha_dato": "2026-05-12", "ambito": "93738", "_raw_CD_SIGLAS": "SUBNS", "_raw_DS_CLASIF_GEN": "Suelo No Urbanizable Común", "_raw_DS_CLASIF_DET": "Suelo No Urbanizable Común", "_raw_DS_DOCU": "NORMAS SUBSIDIARIAS", "_raw_DS_LEY": null, "_raw_FC_AC": "2018-09-27", "_raw_NM_AREA_M2": 757663.60410707397, "_cam_code": "108" }, "geometry": { "type": "Polygon", "coordinates": [ [ [ -3.6087, 40.7724 ], [ -3.6102, 40.7755 ], [ -3.6112, 40.7772 ], [ -3.6131, 40.7755 ], [ -3.6137, 40.7753 ], [ -3.6132, 40.7749 ], [ -3.613, 40.7749 ], [ -3.613, 40.7743 ], [ -3.6132, 40.7739 ], [ -3.6129, 40.773 ], [ -3.6138, 40.7727 ], [ -3.6147, 40.7715 ], [ -3.6124, 40.772 ], [ -3.6116, 40.772 ], [ -3.6117, 40.7709 ], [ -3.6114, 40.7693 ], [ -3.6099, 40.769 ], [ -3.6096, 40.7688 ], [ -3.6087, 40.7686 ], [ -3.6088, 40.7686 ], [ -3.6087, 40.7674 ], [ -3.609, 40.7667 ], [ -3.6094, 40.7664 ], [ -3.6094, 40.7662 ], [ -3.6087, 40.7649 ], [ -3.6088, 40.7648 ], [ -3.6085, 40.7631 ], [ -3.6088, 40.7627 ], [ -3.6088, 40.7623 ], [ -3.6086, 40.762 ], [ -3.6086, 40.7612 ], [ -3.6079, 40.7606 ], [ -3.6066, 40.7591 ], [ -3.6015, 40.7559 ], [ -3.5997, 40.7552 ], [ -3.6087, 40.7724 ] ] ] } },
{ "type": "Feature", "properties": { "municipio": "Pedrezuela", "clasificacion": "urbanizable-sectorizado", "calificacion": "sin-asignar", "version": "vigente", "fuente": "SIT-CAM WFS — UsoDelSuelo:VPLA_V_CLASIFICACION (https://idem.comunidad.madrid/geosrvg/ows)", "fecha_dato": "2026-05-12", "ambito": "93738", "_raw_CD_SIGLAS": "SUBS", "_raw_DS_CLASIF_GEN": "Suelo Apto Para Urbanizar", "_raw_DS_CLASIF_DET": "Suelo Apto Para Urbanizar", "_raw_DS_DOCU": "NORMAS SUBSIDIARIAS", "_raw_DS_LEY": null, "_raw_FC_AC": "2018-09-27", "_raw_NM_AREA_M2": 189095.42561313801, "_cam_code": "108" }, "geometry": { "type": "Polygon", "coordinates": [ [ [ -3.6143, 40.7644 ], [ -3.6143, 40.765 ], [ -3.6146, 40.7652 ], [ -3.6157, 40.7644 ], [ -3.6162, 40.7643 ], [ -3.6177, 40.7644 ], [ -3.6183, 40.764 ], [ -3.6184, 40.7636 ], [ -3.6188, 40.7634 ], [ -3.6192, 40.7635 ], [ -3.6189, 40.7626 ], [ -3.6202, 40.7621 ], [ -3.6197, 40.7611 ], [ -3.6178, 40.7612 ], [ -3.6171, 40.7614 ], [ -3.6159, 40.7611 ], [ -3.6159, 40.761 ], [ -3.6135, 40.7616 ], [ -3.6131, 40.7616 ], [ -3.6121, 40.7613 ], [ -3.6115, 40.7614 ], [ -3.6119, 40.762 ], [ -3.6124, 40.7621 ], [ -3.6126, 40.7623 ], [ -3.6127, 40.763 ], [ -3.6131, 40.7631 ], [ -3.6132, 40.7636 ], [ -3.6141, 40.764 ], [ -3.6143, 40.7642 ], [ -3.6143, 40.7644 ] ] ] } },
{ "type": "Feature", "properties": { "municipio": "Pedrezuela", "clasificacion": "urbanizable-sectorizado", "calificacion": "sin-asignar", "version": "vigente", "fuente": "SIT-CAM WFS — UsoDelSuelo:VPLA_V_CLASIFICACION (https://idem.comunidad.madrid/geosrvg/ows)", "fecha_dato": "2026-05-12", "ambito": "93738", "_raw_CD_SIGLAS": "SUBS", "_raw_DS_CLASIF_GEN": "Suelo Apto Para Urbanizar", "_raw_DS_CLASIF_DET": "Suelo Apto Para Urbanizar", "_raw_DS_DOCU": "NORMAS SUBSIDIARIAS", "_raw_DS_LEY": null, "_raw_FC_AC": "2018-09-27", "_raw_NM_AREA_M2": 55185.210245929797, "_cam_code": "108" }, "geometry": { "type": "Polygon", "coordinates": [ [ [ -3.5977, 40.7498 ], [ -3.5975, 40.7499 ], [ -3.5978, 40.7502 ], [ -3.5984, 40.7498 ], [ -3.5995, 40.7499 ], [ -3.6002, 40.7501 ], [ -3.6003, 40.7498 ], [ -3.6004, 40.7498 ], [ -3.6003, 40.7497 ], [ -3.6008, 40.7484 ], [ -3.5996, 40.7481 ], [ -3.5994, 40.7486 ], [ -3.5988, 40.7491 ], [ -3.599, 40.7488 ], [ -3.5988, 40.7486 ], [ -3.5986, 40.748 ], [ -3.5961, 40.7483 ], [ -3.5972, 40.749 ], [ -3.5969, 40.7493 ], [ -3.5977, 40.7498 ] ] ] } },
{ "type": "Feature", "properties": { "municipio": "Pedrezuela", "clasificacion": "urbanizable-sectorizado", "calificacion": "sin-asignar", "version": "vigente", "fuente": "SIT-CAM WFS — UsoDelSuelo:VPLA_V_CLASIFICACION (https://idem.comunidad.madrid/geosrvg/ows)", "fecha_dato": "2026-05-12", "ambito": "93738", "_raw_CD_SIGLAS": "SUBS", "_raw_DS_CLASIF_GEN": "Suelo Apto Para Urbanizar", "_raw_DS_CLASIF_DET": "Suelo Apto Para Urbanizar", "_raw_DS_DOCU": "NORMAS SUBSIDIARIAS", "_raw_DS_LEY": null, "_raw_FC_AC": "2018-09-27", "_raw_NM_AREA_M2": 1211999.9894934399, "_cam_code": "108" }, "geometry": { "type": "Polygon", "coordinates": [ [ [ -3.6229, 40.737 ], [ -3.6231, 40.7372 ], [ -3.6231, 40.7371 ], [ -3.6235, 40.7369 ], [ -3.6243, 40.7372 ], [ -3.6256, 40.7383 ], [ -3.6261, 40.7385 ], [ -3.6284, 40.7389 ], [ -3.6295, 40.7395 ], [ -3.6312, 40.7402 ], [ -3.6331, 40.7407 ], [ -3.6342, 40.7407 ], [ -3.6353, 40.7403 ], [ -3.6358, 40.7398 ], [ -3.6362, 40.7396 ], [ -3.6364, 40.7398 ], [ -3.6367, 40.7395 ], [ -3.6368, 40.7396 ], [ -3.637, 40.7394 ], [ -3.6371, 40.7395 ], [ -3.6384, 40.7383 ], [ -3.638, 40.7379 ], [ -3.6379, 40.7375 ], [ -3.638, 40.7366 ], [ -3.6381, 40.7366 ], [ -3.6381, 40.7362 ], [ -3.6379, 40.7362 ], [ -3.638, 40.7358 ], [ -3.6376, 40.7354 ], [ -3.6377, 40.7353 ], [ -3.6371, 40.7351 ], [ -3.6368, 40.7338 ], [ -3.6355, 40.7336 ], [ -3.6353, 40.733 ], [ -3.6356, 40.7329 ], [ -3.6339, 40.7319 ], [ -3.6338, 40.7317 ], [ -3.6325, 40.7309 ], [ -3.631, 40.7324 ], [ -3.63, 40.7325 ], [ -3.6277, 40.7319 ], [ -3.6247, 40.7319 ], [ -3.6248, 40.7316 ], [ -3.6251, 40.7313 ], [ -3.625, 40.7312 ], [ -3.6246, 40.7311 ], [ -3.6245, 40.7312 ], [ -3.6238, 40.7309 ], [ -3.6239, 40.7307 ], [ -3.6235, 40.7306 ], [ -3.6233, 40.7311 ], [ -3.6224, 40.7308 ], [ -3.6223, 40.7301 ], [ -3.6212, 40.73 ], [ -3.6208, 40.7296 ], [ -3.6201, 40.7294 ], [ -3.6189, 40.73 ], [ -3.6186, 40.73 ], [ -3.6175, 40.7308 ], [ -3.6172, 40.7311 ], [ -3.6176, 40.7314 ], [ -3.6183, 40.7311 ], [ -3.6186, 40.7311 ], [ -3.6189, 40.7315 ], [ -3.6198, 40.7316 ], [ -3.6202, 40.7315 ], [ -3.6204, 40.7318 ], [ -3.6212, 40.7319 ], [ -3.6219, 40.7315 ], [ -3.6236, 40.7334 ], [ -3.624, 40.7331 ], [ -3.624, 40.7333 ], [ -3.6235, 40.734 ], [ -3.6212, 40.7342 ], [ -3.6209, 40.7338 ], [ -3.6202, 40.7336 ], [ -3.6196, 40.7337 ], [ -3.6193, 40.7339 ], [ -3.619, 40.7345 ], [ -3.6189, 40.7351 ], [ -3.6181, 40.7356 ], [ -3.6177, 40.7362 ], [ -3.6178, 40.7366 ], [ -3.6182, 40.7372 ], [ -3.6187, 40.7377 ], [ -3.6192, 40.7378 ], [ -3.6208, 40.7376 ], [ -3.622, 40.7369 ], [ -3.6223, 40.737 ], [ -3.6223, 40.7372 ], [ -3.6229, 40.737 ] ] ] } }
]
}
