{
"type": "FeatureCollection",
"name": "vigente.full",
"features": [
{ "type": "Feature", "properties": { "municipio": "Piñuécar-Gandullas", "clasificacion": "no-urbanizable-protegido", "calificacion": "sin-asignar", "version": "vigente", "fuente": "SIT-CAM WFS — UsoDelSuelo:VPLA_V_CLASIFICACION (https://idem.comunidad.madrid/geosrvg/ows)", "fecha_dato": "2026-05-12", "ambito": "329", "_raw_CD_SIGLAS": "SNUP", "_raw_DS_CLASIF_GEN": "Suelo No Urbanizable Protegido", "_raw_DS_CLASIF_DET": "Suelo No Urbanizable especialmente protegido por su interés cultural", "_raw_DS_DOCU": "NORMAS SUBSIDIARIAS", "_raw_DS_LEY": "CM Ley 4/1984, E RDL 1/1992", "_raw_FC_AC": "1994-01-13", "_raw_NM_AREA_M2": 11805.117758764, "_cam_code": "114" }, "geometry": { "type": "Polygon", "coordinates": [ [ [ -3.6045, 41.0058 ], [ -3.6074, 41.0081 ], [ -3.6075, 41.008 ], [ -3.6066, 41.0073 ], [ -3.6063, 41.0072 ], [ -3.6062, 41.007 ], [ -3.6059, 41.0069 ], [ -3.6044, 41.0055 ], [ -3.6038, 41.0039 ], [ -3.6029, 41.0024 ], [ -3.6017, 41.0009 ], [ -3.6016, 41.001 ], [ -3.6029, 41.0028 ], [ -3.6045, 41.0058 ] ] ] } },
{ "type": "Feature", "properties": { "municipio": "Piñuécar-Gandullas", "clasificacion": "no-urbanizable-protegido", "calificacion": "sin-asignar", "version": "vigente", "fuente": "SIT-CAM WFS — UsoDelSuelo:VPLA_V_CLASIFICACION (https://idem.comunidad.madrid/geosrvg/ows)", "fecha_dato": "2026-05-12", "ambito": "329", "_raw_CD_SIGLAS": "SNUP", "_raw_DS_CLASIF_GEN": "Suelo No Urbanizable Protegido", "_raw_DS_CLASIF_DET": "Suelo No Urbanizable especialmente protegido por su interés cultural", "_raw_DS_DOCU": "NORMAS SUBSIDIARIAS", "_raw_DS_LEY": "CM Ley 4/1984, E RDL 1/1992", "_raw_FC_AC": "1994-01-13", "_raw_NM_AREA_M2": 40762.537781573199, "_cam_code": "114" }, "geometry": { "type": "Polygon", "coordinates": [ [ [ -3.5922, 41.0132 ], [ -3.5925, 41.0134 ], [ -3.5927, 41.014 ], [ -3.5931, 41.0139 ], [ -3.5929, 41.0133 ], [ -3.5923, 41.0129 ], [ -3.5913, 41.0128 ], [ -3.5915, 41.0114 ], [ -3.592, 41.0112 ], [ -3.5923, 41.0112 ], [ -3.5926, 41.0115 ], [ -3.5933, 41.0126 ], [ -3.5939, 41.0128 ], [ -3.5943, 41.0126 ], [ -3.595, 41.0119 ], [ -3.5954, 41.0118 ], [ -3.5962, 41.0118 ], [ -3.5976, 41.0122 ], [ -3.5997, 41.0121 ], [ -3.5997, 41.012 ], [ -3.5983, 41.012 ], [ -3.5982, 41.0121 ], [ -3.5978, 41.0119 ], [ -3.5959, 41.0115 ], [ -3.5951, 41.0116 ], [ -3.5946, 41.0118 ], [ -3.5939, 41.0125 ], [ -3.5936, 41.0124 ], [ -3.5932, 41.012 ], [ -3.5929, 41.0113 ], [ -3.5922, 41.0109 ], [ -3.5922, 41.0108 ], [ -3.592, 41.0108 ], [ -3.5912, 41.0112 ], [ -3.591, 41.0117 ], [ -3.5908, 41.0138 ], [ -3.5912, 41.0139 ], [ -3.5913, 41.0131 ], [ -3.5922, 41.0132 ] ] ] } },
{ "type": "Feature", "properties": { "municipio": "Piñuécar-Gandullas", "clasificacion": "no-urbanizable-protegido", "calificacion": "sin-asignar", "version": "vigente", "fuente": "SIT-CAM WFS — UsoDelSuelo:VPLA_V_CLASIFICACION (https://idem.comunidad.madrid/geosrvg/ows)", "fecha_dato": "2026-05-12", "ambito": "329", "_raw_CD_SIGLAS": "SNUP", "_raw_DS_CLASIF_GEN": "Suelo No Urbanizable Protegido", "_raw_DS_CLASIF_DET": "Suelo No Urbanizable especialmente protegido por su interés cultural", "_raw_DS_DOCU": "NORMAS SUBSIDIARIAS", "_raw_DS_LEY": "CM Ley 4/1984, E RDL 1/1992", "_raw_FC_AC": "1994-01-13", "_raw_NM_AREA_M2": 109436.50383683101, "_cam_code": "114" }, "geometry": { "type": "Polygon", "coordinates": [ [ [ -3.5752, 41.0239 ], [ -3.5761, 41.0239 ], [ -3.5786, 41.0233 ], [ -3.5791, 41.0224 ], [ -3.579, 41.0218 ], [ -3.5794, 41.0211 ], [ -3.5802, 41.0212 ], [ -3.5809, 41.0217 ], [ -3.5819, 41.0213 ], [ -3.5832, 41.0194 ], [ -3.5848, 41.0156 ], [ -3.5856, 41.0145 ], [ -3.5867, 41.0137 ], [ -3.5863, 41.009 ], [ -3.5854, 41.0067 ], [ -3.5847, 41.0065 ], [ -3.5835, 41.0065 ], [ -3.5829, 41.0067 ], [ -3.5822, 41.0067 ], [ -3.5814, 41.0064 ], [ -3.5811, 41.0061 ], [ -3.5807, 41.0052 ], [ -3.5804, 41.0055 ], [ -3.5808, 41.0063 ], [ -3.5812, 41.0067 ], [ -3.5817, 41.0069 ], [ -3.5827, 41.007 ], [ -3.5837, 41.0068 ], [ -3.5844, 41.0068 ], [ -3.5849, 41.0069 ], [ -3.5849, 41.007 ], [ -3.5852, 41.0071 ], [ -3.5859, 41.0091 ], [ -3.5862, 41.0105 ], [ -3.5864, 41.0133 ], [ -3.5863, 41.0133 ], [ -3.5862, 41.0136 ], [ -3.5855, 41.0141 ], [ -3.5845, 41.0151 ], [ -3.5833, 41.0183 ], [ -3.5816, 41.0211 ], [ -3.5809, 41.0212 ], [ -3.5804, 41.0208 ], [ -3.5793, 41.0208 ], [ -3.5786, 41.0215 ], [ -3.5786, 41.0226 ], [ -3.5782, 41.023 ], [ -3.577, 41.0234 ], [ -3.5751, 41.0235 ], [ -3.5752, 41.0239 ] ] ] } },
{ "type": "Feature", "properties": { "municipio": "Piñuécar-Gandullas", "clasificacion": "no-urbanizable-protegido", "calificacion": "sin-asignar", "version": "vigente", "fuente": "SIT-CAM WFS — UsoDelSuelo:VPLA_V_CLASIFICACION (https://idem.comunidad.madrid/geosrvg/ows)", "fecha_dato": "2026-05-12", "ambito": "329", "_raw_CD_SIGLAS": "SNUP", "_raw_DS_CLASIF_GEN": "Suelo No Urbanizable Protegido", "_raw_DS_CLASIF_DET": "Suelo No Urbanizable especialmente protegido por su interés cultural", "_raw_DS_DOCU": "NORMAS SUBSIDIARIAS", "_raw_DS_LEY": "CM Ley 4/1984, E RDL 1/1992", "_raw_FC_AC": "1994-01-13", "_raw_NM_AREA_M2": 80307.639284885401, "_cam_code": "114" }, "geometry": { "type": "Polygon", "coordinates": [ [ [ -3.5911, 41.025 ], [ -3.5912, 41.0251 ], [ -3.5917, 41.025 ], [ -3.5938, 41.0222 ], [ -3.5964, 41.0199 ], [ -3.5974, 41.0195 ], [ -3.5988, 41.0187 ], [ -3.5995, 41.018 ], [ -3.6025, 41.0164 ], [ -3.6029, 41.0159 ], [ -3.6035, 41.0156 ], [ -3.6041, 41.0154 ], [ -3.6046, 41.0152 ], [ -3.605, 41.015 ], [ -3.6058, 41.0147 ], [ -3.606, 41.0145 ], [ -3.6066, 41.0143 ], [ -3.6069, 41.014 ], [ -3.608, 41.0142 ], [ -3.6087, 41.0146 ], [ -3.6096, 41.016 ], [ -3.6109, 41.0174 ], [ -3.6113, 41.0182 ], [ -3.6115, 41.0192 ], [ -3.6091, 41.0214 ], [ -3.6095, 41.0214 ], [ -3.6103, 41.0208 ], [ -3.6118, 41.0192 ], [ -3.6115, 41.0181 ], [ -3.6111, 41.0172 ], [ -3.6093, 41.0153 ], [ -3.6092, 41.015 ], [ -3.6084, 41.0141 ], [ -3.6094, 41.0136 ], [ -3.6126, 41.0125 ], [ -3.6132, 41.0119 ], [ -3.6144, 41.0117 ], [ -3.6148, 41.0113 ], [ -3.6166, 41.0115 ], [ -3.6167, 41.0116 ], [ -3.6172, 41.0116 ], [ -3.6173, 41.0115 ], [ -3.6177, 41.0117 ], [ -3.6181, 41.0125 ], [ -3.6182, 41.012 ], [ -3.6178, 41.0116 ], [ -3.6172, 41.0113 ], [ -3.6148, 41.0112 ], [ -3.6137, 41.0109 ], [ -3.6116, 41.0098 ], [ -3.6108, 41.0098 ], [ -3.6104, 41.0102 ], [ -3.6112, 41.0102 ], [ -3.6119, 41.0104 ], [ -3.6132, 41.0109 ], [ -3.6133, 41.0111 ], [ -3.6139, 41.0111 ], [ -3.6143, 41.0113 ], [ -3.6143, 41.0115 ], [ -3.6136, 41.0117 ], [ -3.613, 41.0117 ], [ -3.6126, 41.0121 ], [ -3.6125, 41.0124 ], [ -3.6108, 41.0131 ], [ -3.6105, 41.0131 ], [ -3.6099, 41.0134 ], [ -3.609, 41.0136 ], [ -3.6085, 41.0139 ], [ -3.6068, 41.0139 ], [ -3.6065, 41.0142 ], [ -3.6061, 41.0143 ], [ -3.6056, 41.0147 ], [ -3.6046, 41.0152 ], [ -3.6029, 41.0158 ], [ -3.6025, 41.0163 ], [ -3.5997, 41.0178 ], [ -3.5987, 41.0185 ], [ -3.5988, 41.0186 ], [ -3.5976, 41.0193 ], [ -3.5962, 41.0199 ], [ -3.5957, 41.0204 ], [ -3.5954, 41.0205 ], [ -3.595, 41.021 ], [ -3.5932, 41.0226 ], [ -3.5922, 41.0219 ], [ -3.5914, 41.0232 ], [ -3.5911, 41.0233 ], [ -3.5908, 41.0232 ], [ -3.5892, 41.0215 ], [ -3.5884, 41.0218 ], [ -3.5885, 41.0219 ], [ -3.5892, 41.0216 ], [ -3.5906, 41.0231 ], [ -3.5911, 41.0234 ], [ -3.5915, 41.0233 ], [ -3.5915, 41.0231 ], [ -3.5922, 41.022 ], [ -3.5931, 41.0227 ], [ -3.5934, 41.0225 ], [ -3.5919, 41.0247 ], [ -3.5915, 41.025 ], [ -3.5911, 41.025 ], [ -3.5893, 41.0226 ], [ -3.5887, 41.0225 ], [ -3.5884, 41.0225 ], [ -3.587, 41.0228 ], [ -3.587, 41.0229 ], [ -3.5887, 41.0225 ], [ -3.5892, 41.0227 ], [ -3.5911, 41.025 ] ] ] } },
{ "type": "Feature", "properties": { "municipio": "Piñuécar-Gandullas", "clasificacion": "no-urbanizable-protegido", "calificacion": "sin-asignar", "version": "vigente", "fuente": "SIT-CAM WFS — UsoDelSuelo:VPLA_V_CLASIFICACION (https://idem.comunidad.madrid/geosrvg/ows)", "fecha_dato": "2026-05-12", "ambito": "329", "_raw_CD_SIGLAS": "SNUP", "_raw_DS_CLASIF_GEN": "Suelo No Urbanizable Protegido", "_raw_DS_CLASIF_DET": "Suelo No Urbanizable especialmente protegido por su interés cultural", "_raw_DS_DOCU": "NORMAS SUBSIDIARIAS", "_raw_DS_LEY": "CM Ley 4/1984, E RDL 1/1992", "_raw_FC_AC": "1994-01-13", "_raw_NM_AREA_M2": 77504.984688222597, "_cam_code": "114" }, "geometry": { "type": "Polygon", "coordinates": [ [ [ -3.5909, 41.0314 ], [ -3.5903, 41.0319 ], [ -3.5898, 41.0319 ], [ -3.5893, 41.0321 ], [ -3.5886, 41.0321 ], [ -3.5876, 41.0321 ], [ -3.5874, 41.0322 ], [ -3.5873, 41.0328 ], [ -3.5874, 41.0329 ], [ -3.5874, 41.0334 ], [ -3.5871, 41.0343 ], [ -3.5871, 41.0348 ], [ -3.5877, 41.0373 ], [ -3.5884, 41.0379 ], [ -3.5884, 41.0386 ], [ -3.5887, 41.0389 ], [ -3.5893, 41.0389 ], [ -3.5907, 41.0385 ], [ -3.5913, 41.0386 ], [ -3.5917, 41.0384 ], [ -3.5936, 41.0384 ], [ -3.5942, 41.0382 ], [ -3.5957, 41.0386 ], [ -3.5959, 41.0388 ], [ -3.5966, 41.0388 ], [ -3.5986, 41.0382 ], [ -3.5985, 41.0399 ], [ -3.5978, 41.0403 ], [ -3.5975, 41.0407 ], [ -3.5976, 41.0416 ], [ -3.5979, 41.0421 ], [ -3.5982, 41.0421 ], [ -3.5977, 41.0412 ], [ -3.5981, 41.0404 ], [ -3.5986, 41.0402 ], [ -3.5989, 41.0396 ], [ -3.5989, 41.0382 ], [ -3.5992, 41.0381 ], [ -3.5992, 41.0379 ], [ -3.5993, 41.0379 ], [ -3.5992, 41.0374 ], [ -3.5989, 41.0371 ], [ -3.5985, 41.036 ], [ -3.5986, 41.0355 ], [ -3.5985, 41.0337 ], [ -3.5983, 41.0337 ], [ -3.5985, 41.035 ], [ -3.5985, 41.0354 ], [ -3.5983, 41.0357 ], [ -3.5987, 41.0371 ], [ -3.5986, 41.0372 ], [ -3.5987, 41.0376 ], [ -3.5986, 41.0381 ], [ -3.5961, 41.0385 ], [ -3.596, 41.0383 ], [ -3.5949, 41.0381 ], [ -3.5946, 41.0379 ], [ -3.5938, 41.0379 ], [ -3.5932, 41.0381 ], [ -3.5917, 41.0379 ], [ -3.5909, 41.0384 ], [ -3.59, 41.0386 ], [ -3.5888, 41.0385 ], [ -3.5887, 41.0376 ], [ -3.588, 41.0372 ], [ -3.5878, 41.0369 ], [ -3.5878, 41.0361 ], [ -3.5874, 41.035 ], [ -3.5877, 41.0335 ], [ -3.5876, 41.0324 ], [ -3.5879, 41.0322 ], [ -3.5885, 41.0322 ], [ -3.5888, 41.0321 ], [ -3.5897, 41.0322 ], [ -3.59, 41.0322 ], [ -3.5906, 41.0319 ], [ -3.5912, 41.0313 ], [ -3.5909, 41.0314 ] ] ] } },
{ "type": "Feature", "properties": { "municipio": "Piñuécar-Gandullas", "clasificacion": "no-urbanizable-protegido", "calificacion": "sin-asignar", "version": "vigente", "fuente": "SIT-CAM WFS — UsoDelSuelo:VPLA_V_CLASIFICACION (https://idem.comunidad.madrid/geosrvg/ows)", "fecha_dato": "2026-05-12", "ambito": "329", "_raw_CD_SIGLAS": "SNUP", "_raw_DS_CLASIF_GEN": "Suelo No Urbanizable Protegido", "_raw_DS_CLASIF_DET": "Suelo No Urbanizable especialmente protegido por su interés cultural", "_raw_DS_DOCU": "NORMAS SUBSIDIARIAS", "_raw_DS_LEY": "CM Ley 4/1984, E RDL 1/1992", "_raw_FC_AC": "1994-01-13", "_raw_NM_AREA_M2": 65211.167611554003, "_cam_code": "114" }, "geometry": { "type": "Polygon", "coordinates": [ [ [ -3.5819, 41.034 ], [ -3.5818, 41.0345 ], [ -3.5822, 41.0349 ], [ -3.5838, 41.0362 ], [ -3.5841, 41.0363 ], [ -3.5849, 41.037 ], [ -3.5859, 41.0376 ], [ -3.586, 41.0379 ], [ -3.5861, 41.0379 ], [ -3.5862, 41.0387 ], [ -3.5865, 41.0394 ], [ -3.5875, 41.0407 ], [ -3.5875, 41.0411 ], [ -3.5866, 41.0417 ], [ -3.5865, 41.0419 ], [ -3.5866, 41.0423 ], [ -3.5871, 41.043 ], [ -3.5874, 41.0431 ], [ -3.5873, 41.0428 ], [ -3.5869, 41.0424 ], [ -3.5868, 41.042 ], [ -3.588, 41.0412 ], [ -3.588, 41.0408 ], [ -3.5869, 41.0393 ], [ -3.5866, 41.0385 ], [ -3.5865, 41.0378 ], [ -3.5857, 41.0372 ], [ -3.5856, 41.037 ], [ -3.5848, 41.0366 ], [ -3.5847, 41.0364 ], [ -3.5836, 41.0357 ], [ -3.5835, 41.0355 ], [ -3.5832, 41.0354 ], [ -3.5831, 41.0352 ], [ -3.5827, 41.035 ], [ -3.5822, 41.0345 ], [ -3.5822, 41.0343 ], [ -3.5825, 41.0342 ], [ -3.5834, 41.0348 ], [ -3.584, 41.0349 ], [ -3.5849, 41.0341 ], [ -3.5853, 41.0339 ], [ -3.5855, 41.0334 ], [ -3.5849, 41.0329 ], [ -3.5819, 41.0316 ], [ -3.5806, 41.0305 ], [ -3.5802, 41.0298 ], [ -3.5802, 41.0296 ], [ -3.5801, 41.0296 ], [ -3.58, 41.0301 ], [ -3.5802, 41.0305 ], [ -3.5812, 41.0314 ], [ -3.5824, 41.032 ], [ -3.5824, 41.0321 ], [ -3.5843, 41.0328 ], [ -3.585, 41.0332 ], [ -3.585, 41.0336 ], [ -3.5844, 41.0338 ], [ -3.584, 41.0345 ], [ -3.5835, 41.0345 ], [ -3.5835, 41.0344 ], [ -3.5831, 41.0343 ], [ -3.5826, 41.0339 ], [ -3.5824, 41.0339 ], [ -3.5824, 41.0338 ], [ -3.5819, 41.034 ] ] ] } },
{ "type": "Feature", "properties": { "municipio": "Piñuécar-Gandullas", "clasificacion": "no-urbanizable-protegido", "calificacion": "sin-asignar", "version": "vigente", "fuente": "SIT-CAM WFS — UsoDelSuelo:VPLA_V_CLASIFICACION (https://idem.comunidad.madrid/geosrvg/ows)", "fecha_dato": "2026-05-12", "ambito": "329", "_raw_CD_SIGLAS": "SNUP", "_raw_DS_CLASIF_GEN": "Suelo No Urbanizable Protegido", "_raw_DS_CLASIF_DET": "Suelo No Urbanizable especialmente protegido por su interés ganadero", "_raw_DS_DOCU": "NORMAS SUBSIDIARIAS", "_raw_DS_LEY": "CM Ley 4/1984, E RDL 1/1992", "_raw_FC_AC": "1994-01-13", "_raw_NM_AREA_M2": 961846.15391580295, "_cam_code": "114" }, "geometry": { "type": "Polygon", "coordinates": [ [ [ -3.5979, 41.0126 ], [ -3.5974, 41.0145 ], [ -3.5954, 41.0172 ], [ -3.5947, 41.0189 ], [ -3.5924, 41.022 ], [ -3.5925, 41.0222 ], [ -3.5931, 41.0226 ], [ -3.5934, 41.0225 ], [ -3.5954, 41.0205 ], [ -3.5957, 41.0204 ], [ -3.5962, 41.0199 ], [ -3.5976, 41.0193 ], [ -3.5988, 41.0186 ], [ -3.5987, 41.0185 ], [ -3.5997, 41.0178 ], [ -3.6025, 41.0163 ], [ -3.6029, 41.0158 ], [ -3.6046, 41.0152 ], [ -3.6056, 41.0147 ], [ -3.6061, 41.0143 ], [ -3.6065, 41.0142 ], [ -3.6066, 41.0141 ], [ -3.6061, 41.0136 ], [ -3.6054, 41.0134 ], [ -3.6062, 41.0124 ], [ -3.6083, 41.0107 ], [ -3.6077, 41.0106 ], [ -3.6076, 41.0104 ], [ -3.6071, 41.0101 ], [ -3.6069, 41.0097 ], [ -3.6069, 41.0088 ], [ -3.607, 41.0088 ], [ -3.6074, 41.0081 ], [ -3.6063, 41.0073 ], [ -3.6031, 41.0098 ], [ -3.602, 41.0097 ], [ -3.6016, 41.0099 ], [ -3.6017, 41.0088 ], [ -3.6009, 41.0079 ], [ -3.5996, 41.0054 ], [ -3.5996, 41.0051 ], [ -3.599, 41.005 ], [ -3.5987, 41.0047 ], [ -3.5981, 41.0045 ], [ -3.5977, 41.004 ], [ -3.597, 41.0036 ], [ -3.5967, 41.0024 ], [ -3.5963, 41.0022 ], [ -3.5959, 41.0022 ], [ -3.5957, 41.0027 ], [ -3.5957, 41.0036 ], [ -3.5956, 41.0036 ], [ -3.5956, 41.0045 ], [ -3.5954, 41.0057 ], [ -3.5958, 41.0067 ], [ -3.5959, 41.0074 ], [ -3.5963, 41.0086 ], [ -3.5964, 41.0086 ], [ -3.5965, 41.009 ], [ -3.5964, 41.0094 ], [ -3.597, 41.01 ], [ -3.5971, 41.0108 ], [ -3.5976, 41.0117 ], [ -3.5982, 41.0121 ], [ -3.5983, 41.012 ], [ -3.5997, 41.012 ], [ -3.5999, 41.0115 ], [ -3.6003, 41.0116 ], [ -3.6005, 41.0115 ], [ -3.6006, 41.0112 ], [ -3.6012, 41.0109 ], [ -3.6022, 41.0108 ], [ -3.6027, 41.011 ], [ -3.6038, 41.0119 ], [ -3.6034, 41.0123 ], [ -3.6035, 41.0124 ], [ -3.6033, 41.0125 ], [ -3.6034, 41.0127 ], [ -3.6031, 41.0129 ], [ -3.6033, 41.0136 ], [ -3.6027, 41.0136 ], [ -3.6027, 41.0137 ], [ -3.6026, 41.0134 ], [ -3.6024, 41.0135 ], [ -3.6021, 41.013 ], [ -3.6017, 41.013 ], [ -3.6017, 41.0129 ], [ -3.6008, 41.013 ], [ -3.6005, 41.0126 ], [ -3.5999, 41.0126 ], [ -3.5997, 41.0121 ], [ -3.5984, 41.0121 ], [ -3.598, 41.0122 ], [ -3.5981, 41.0122 ], [ -3.5981, 41.0124 ], [ -3.5979, 41.0126 ] ] ] } },
{ "type": "Feature", "properties": { "municipio": "Piñuécar-Gandullas", "clasificacion": "no-urbanizable-protegido", "calificacion": "sin-asignar", "version": "vigente", "fuente": "SIT-CAM WFS — UsoDelSuelo:VPLA_V_CLASIFICACION (https://idem.comunidad.madrid/geosrvg/ows)", "fecha_dato": "2026-05-12", "ambito": "329", "_raw_CD_SIGLAS": "SNUP", "_raw_DS_CLASIF_GEN": "Suelo No Urbanizable Protegido", "_raw_DS_CLASIF_DET": "Suelo No Urbanizable especialmente protegido por su interés ganadero", "_raw_DS_DOCU": "NORMAS SUBSIDIARIAS", "_raw_DS_LEY": "CM Ley 4/1984, E RDL 1/1992", "_raw_FC_AC": "1994-01-13", "_raw_NM_AREA_M2": 23057.895653069099, "_cam_code": "114" }, "geometry": { "type": "Polygon", "coordinates": [ [ [ -3.592, 41.0227 ], [ -3.5918, 41.0234 ], [ -3.5917, 41.0234 ], [ -3.5917, 41.0237 ], [ -3.5916, 41.0237 ], [ -3.5914, 41.0243 ], [ -3.591, 41.0248 ], [ -3.5911, 41.025 ], [ -3.5915, 41.025 ], [ -3.5919, 41.0247 ], [ -3.5934, 41.0225 ], [ -3.5931, 41.0227 ], [ -3.5926, 41.0224 ], [ -3.5924, 41.0221 ], [ -3.592, 41.0227 ] ] ] } },
{ "type": "Feature", "properties": { "municipio": "Piñuécar-Gandullas", "clasificacion": "no-urbanizable-protegido", "calificacion": "sin-asignar", "version": "vigente", "fuente": "SIT-CAM WFS — UsoDelSuelo:VPLA_V_CLASIFICACION (https://idem.comunidad.madrid/geosrvg/ows)", "fecha_dato": "2026-05-12", "ambito": "329", "_raw_CD_SIGLAS": "SNUP", "_raw_DS_CLASIF_GEN": "Suelo No Urbanizable Protegido", "_raw_DS_CLASIF_DET": "Suelo No Urbanizable especialmente protegido por su interés ganadero", "_raw_DS_DOCU": "NORMAS SUBSIDIARIAS", "_raw_DS_LEY": "CM Ley 4/1984, E RDL 1/1992", "_raw_FC_AC": "1994-01-13", "_raw_NM_AREA_M2": 2103297.42198588, "_cam_code": "114" }, "geometry": { "type": "Polygon", "coordinates": [ [ [ -3.5887, 41.0376 ], [ -3.5888, 41.0385 ], [ -3.5891, 41.0386 ], [ -3.59, 41.0386 ], [ -3.5909, 41.0384 ], [ -3.5917, 41.0379 ], [ -3.5922, 41.0379 ], [ -3.5927, 41.0381 ], [ -3.5932, 41.0381 ], [ -3.5938, 41.0379 ], [ -3.5946, 41.0379 ], [ -3.5949, 41.0381 ], [ -3.596, 41.0383 ], [ -3.5961, 41.0385 ], [ -3.5978, 41.0383 ], [ -3.5987, 41.038 ], [ -3.5986, 41.0372 ], [ -3.5987, 41.0371 ], [ -3.5983, 41.0357 ], [ -3.5985, 41.0354 ], [ -3.5983, 41.0337 ], [ -3.5983, 41.0338 ], [ -3.5978, 41.0339 ], [ -3.5976, 41.0334 ], [ -3.5981, 41.0332 ], [ -3.5984, 41.0329 ], [ -3.5981, 41.0328 ], [ -3.5984, 41.0324 ], [ -3.5983, 41.0323 ], [ -3.599, 41.0322 ], [ -3.5989, 41.032 ], [ -3.5991, 41.032 ], [ -3.5997, 41.0314 ], [ -3.5999, 41.0314 ], [ -3.6001, 41.0311 ], [ -3.6003, 41.0311 ], [ -3.6001, 41.0305 ], [ -3.6012, 41.0303 ], [ -3.6011, 41.0303 ], [ -3.6011, 41.0301 ], [ -3.6001, 41.0302 ], [ -3.6, 41.03 ], [ -3.6001, 41.0293 ], [ -3.6012, 41.0282 ], [ -3.601, 41.0276 ], [ -3.601, 41.0273 ], [ -3.6012, 41.0271 ], [ -3.6012, 41.0262 ], [ -3.5996, 41.0258 ], [ -3.5997, 41.0257 ], [ -3.5997, 41.0252 ], [ -3.6001, 41.0245 ], [ -3.6004, 41.0226 ], [ -3.6009, 41.0213 ], [ -3.6029, 41.0222 ], [ -3.6029, 41.0225 ], [ -3.6032, 41.0229 ], [ -3.6033, 41.0228 ], [ -3.6044, 41.0227 ], [ -3.6047, 41.0225 ], [ -3.6058, 41.0222 ], [ -3.6067, 41.0223 ], [ -3.607, 41.0214 ], [ -3.6077, 41.0215 ], [ -3.6078, 41.0213 ], [ -3.6077, 41.021 ], [ -3.6066, 41.0209 ], [ -3.6067, 41.0202 ], [ -3.6057, 41.0201 ], [ -3.6056, 41.0206 ], [ -3.6054, 41.0207 ], [ -3.6045, 41.0208 ], [ -3.6031, 41.0207 ], [ -3.6031, 41.0208 ], [ -3.6027, 41.0208 ], [ -3.6022, 41.0199 ], [ -3.6025, 41.0196 ], [ -3.6027, 41.019 ], [ -3.6035, 41.0188 ], [ -3.6037, 41.0186 ], [ -3.604, 41.0177 ], [ -3.6056, 41.0157 ], [ -3.6057, 41.0153 ], [ -3.6062, 41.015 ], [ -3.6066, 41.0143 ], [ -3.6029, 41.0159 ], [ -3.6025, 41.0164 ], [ -3.5995, 41.018 ], [ -3.5988, 41.0187 ], [ -3.5974, 41.0195 ], [ -3.5964, 41.0199 ], [ -3.5938, 41.0222 ], [ -3.5917, 41.025 ], [ -3.5911, 41.0251 ], [ -3.5909, 41.0248 ], [ -3.5908, 41.025 ], [ -3.5901, 41.0253 ], [ -3.5901, 41.0254 ], [ -3.5869, 41.0262 ], [ -3.5859, 41.0268 ], [ -3.5854, 41.0274 ], [ -3.5853, 41.0278 ], [ -3.5855, 41.0285 ], [ -3.5858, 41.0291 ], [ -3.586, 41.0292 ], [ -3.5861, 41.0295 ], [ -3.5869, 41.0305 ], [ -3.5871, 41.0323 ], [ -3.5874, 41.0325 ], [ -3.5874, 41.0322 ], [ -3.5876, 41.0321 ], [ -3.5878, 41.0321 ], [ -3.5879, 41.0321 ], [ -3.5881, 41.0321 ], [ -3.5882, 41.0321 ], [ -3.5884, 41.0321 ], [ -3.5886, 41.0321 ], [ -3.5893, 41.0321 ], [ -3.5898, 41.0319 ], [ -3.5903, 41.0319 ], [ -3.591, 41.0313 ], [ -3.5912, 41.0313 ], [ -3.5906, 41.0319 ], [ -3.59, 41.0322 ], [ -3.5897, 41.0322 ], [ -3.5888, 41.0321 ], [ -3.5885, 41.0322 ], [ -3.5879, 41.0322 ], [ -3.5876, 41.0324 ], [ -3.5877, 41.0335 ], [ -3.5874, 41.035 ], [ -3.5878, 41.0361 ], [ -3.5878, 41.0369 ], [ -3.588, 41.0372 ], [ -3.5887, 41.0376 ] ] ] } },
{ "type": "Feature", "properties": { "municipio": "Piñuécar-Gandullas", "clasificacion": "no-urbanizable-protegido", "calificacion": "sin-asignar", "version": "vigente", "fuente": "SIT-CAM WFS — UsoDelSuelo:VPLA_V_CLASIFICACION (https://idem.comunidad.madrid/geosrvg/ows)", "fecha_dato": "2026-05-12", "ambito": "329", "_raw_CD_SIGLAS": "SNUP", "_raw_DS_CLASIF_GEN": "Suelo No Urbanizable Protegido", "_raw_DS_CLASIF_DET": "Suelo No Urbanizable especialmente protegido por su interés ganadero", "_raw_DS_DOCU": "NORMAS SUBSIDIARIAS", "_raw_DS_LEY": "CM Ley 4/1984, E RDL 1/1992", "_raw_FC_AC": "1994-01-13", "_raw_NM_AREA_M2": 123397.84996227401, "_cam_code": "114" }, "geometry": { "type": "Polygon", "coordinates": [ [ [ -3.5885, 41.0387 ], [ -3.5877, 41.0395 ], [ -3.5873, 41.0396 ], [ -3.5875, 41.0402 ], [ -3.588, 41.0408 ], [ -3.588, 41.0412 ], [ -3.5868, 41.042 ], [ -3.5869, 41.0424 ], [ -3.5873, 41.0428 ], [ -3.5874, 41.0431 ], [ -3.5877, 41.0431 ], [ -3.5888, 41.0419 ], [ -3.5888, 41.0417 ], [ -3.5894, 41.0413 ], [ -3.5902, 41.0405 ], [ -3.5918, 41.0396 ], [ -3.5921, 41.0396 ], [ -3.5924, 41.0394 ], [ -3.5935, 41.0391 ], [ -3.5939, 41.0391 ], [ -3.5943, 41.0389 ], [ -3.5958, 41.0387 ], [ -3.5942, 41.0382 ], [ -3.5936, 41.0384 ], [ -3.5917, 41.0384 ], [ -3.5913, 41.0386 ], [ -3.5907, 41.0385 ], [ -3.5893, 41.0389 ], [ -3.5887, 41.0389 ], [ -3.5885, 41.0387 ] ] ] } },
{ "type": "Feature", "properties": { "municipio": "Piñuécar-Gandullas", "clasificacion": "no-urbanizable-protegido", "calificacion": "sin-asignar", "version": "vigente", "fuente": "SIT-CAM WFS — UsoDelSuelo:VPLA_V_CLASIFICACION (https://idem.comunidad.madrid/geosrvg/ows)", "fecha_dato": "2026-05-12", "ambito": "329", "_raw_CD_SIGLAS": "SNUP", "_raw_DS_CLASIF_GEN": "Suelo No Urbanizable Protegido", "_raw_DS_CLASIF_DET": "Suelo No Urbanizable especialmente protegido por su interés ganadero", "_raw_DS_DOCU": "NORMAS SUBSIDIARIAS", "_raw_DS_LEY": "CM Ley 4/1984, E RDL 1/1992", "_raw_FC_AC": "1994-01-13", "_raw_NM_AREA_M2": 166572.07768059001, "_cam_code": "114" }, "geometry": { "type": "Polygon", "coordinates": [ [ [ -3.5924, 41.0475 ], [ -3.5928, 41.048 ], [ -3.5949, 41.049 ], [ -3.5961, 41.0491 ], [ -3.5961, 41.0496 ], [ -3.597, 41.0498 ], [ -3.5972, 41.0494 ], [ -3.5973, 41.0487 ], [ -3.5964, 41.0475 ], [ -3.5962, 41.0462 ], [ -3.5959, 41.046 ], [ -3.5956, 41.0455 ], [ -3.5955, 41.0448 ], [ -3.5953, 41.0447 ], [ -3.5943, 41.0446 ], [ -3.5928, 41.0448 ], [ -3.5909, 41.0447 ], [ -3.5911, 41.0448 ], [ -3.5924, 41.0475 ] ] ] } },
{ "type": "Feature", "properties": { "municipio": "Piñuécar-Gandullas", "clasificacion": "no-urbanizable-protegido", "calificacion": "sin-asignar", "version": "vigente", "fuente": "SIT-CAM WFS — UsoDelSuelo:VPLA_V_CLASIFICACION (https://idem.comunidad.madrid/geosrvg/ows)", "fecha_dato": "2026-05-12", "ambito": "329", "_raw_CD_SIGLAS": "SNUP", "_raw_DS_CLASIF_GEN": "Suelo No Urbanizable Protegido", "_raw_DS_CLASIF_DET": "Suelo No Urbanizable especialmente protegido por su interés ganadero", "_raw_DS_DOCU": "NORMAS SUBSIDIARIAS", "_raw_DS_LEY": "CM Ley 4/1984, E RDL 1/1992", "_raw_FC_AC": "1994-01-13", "_raw_NM_AREA_M2": 2426394.1158467699, "_cam_code": "114" }, "geometry": { "type": "Polygon", "coordinates": [ [ [ -3.6106, 41.0517 ], [ -3.6117, 41.0518 ], [ -3.613, 41.0521 ], [ -3.6143, 41.0528 ], [ -3.6145, 41.0528 ], [ -3.6152, 41.0489 ], [ -3.615, 41.0489 ], [ -3.6148, 41.0475 ], [ -3.6138, 41.0471 ], [ -3.6135, 41.0468 ], [ -3.6124, 41.0468 ], [ -3.612, 41.0466 ], [ -3.6111, 41.0466 ], [ -3.6094, 41.0458 ], [ -3.6094, 41.0454 ], [ -3.609, 41.0452 ], [ -3.6076, 41.0453 ], [ -3.6078, 41.045 ], [ -3.6079, 41.0439 ], [ -3.6084, 41.0438 ], [ -3.6085, 41.0436 ], [ -3.6091, 41.0433 ], [ -3.6092, 41.0432 ], [ -3.6092, 41.0424 ], [ -3.6099, 41.0419 ], [ -3.6106, 41.0419 ], [ -3.6106, 41.042 ], [ -3.6109, 41.0421 ], [ -3.6119, 41.0422 ], [ -3.6129, 41.0429 ], [ -3.6132, 41.0429 ], [ -3.6134, 41.0427 ], [ -3.6146, 41.043 ], [ -3.6151, 41.0433 ], [ -3.6152, 41.0435 ], [ -3.6145, 41.0419 ], [ -3.6137, 41.041 ], [ -3.6138, 41.0378 ], [ -3.6134, 41.0354 ], [ -3.6131, 41.0349 ], [ -3.6123, 41.0341 ], [ -3.6117, 41.0338 ], [ -3.6117, 41.0337 ], [ -3.6098, 41.0334 ], [ -3.6087, 41.0338 ], [ -3.6078, 41.0338 ], [ -3.6072, 41.0335 ], [ -3.6061, 41.0332 ], [ -3.6051, 41.033 ], [ -3.6034, 41.0329 ], [ -3.6021, 41.0326 ], [ -3.6013, 41.0327 ], [ -3.601, 41.033 ], [ -3.6011, 41.0332 ], [ -3.6007, 41.033 ], [ -3.6003, 41.033 ], [ -3.6, 41.0333 ], [ -3.5999, 41.0332 ], [ -3.5997, 41.0333 ], [ -3.5998, 41.0336 ], [ -3.6005, 41.0338 ], [ -3.601, 41.0341 ], [ -3.6007, 41.0342 ], [ -3.6007, 41.0343 ], [ -3.5998, 41.0342 ], [ -3.5998, 41.0344 ], [ -3.5995, 41.0344 ], [ -3.5995, 41.0343 ], [ -3.5992, 41.0345 ], [ -3.5992, 41.0342 ], [ -3.5994, 41.0342 ], [ -3.5996, 41.034 ], [ -3.5997, 41.0336 ], [ -3.5985, 41.0337 ], [ -3.5986, 41.0348 ], [ -3.5995, 41.0346 ], [ -3.5996, 41.0347 ], [ -3.5996, 41.035 ], [ -3.5994, 41.0351 ], [ -3.5986, 41.035 ], [ -3.5986, 41.0353 ], [ -3.5994, 41.0353 ], [ -3.5993, 41.0357 ], [ -3.5985, 41.0356 ], [ -3.5985, 41.036 ], [ -3.5989, 41.0371 ], [ -3.5992, 41.0374 ], [ -3.5993, 41.0379 ], [ -3.5992, 41.0379 ], [ -3.5992, 41.0381 ], [ -3.6004, 41.0379 ], [ -3.6004, 41.0385 ], [ -3.6003, 41.0385 ], [ -3.6002, 41.0388 ], [ -3.5987, 41.04 ], [ -3.5986, 41.0402 ], [ -3.5981, 41.0404 ], [ -3.5977, 41.0412 ], [ -3.5982, 41.0421 ], [ -3.5976, 41.0423 ], [ -3.5973, 41.0426 ], [ -3.5972, 41.0429 ], [ -3.5968, 41.0433 ], [ -3.5967, 41.0437 ], [ -3.5963, 41.0443 ], [ -3.5961, 41.0444 ], [ -3.5959, 41.0449 ], [ -3.596, 41.0455 ], [ -3.5964, 41.0458 ], [ -3.5966, 41.0472 ], [ -3.5976, 41.0486 ], [ -3.5976, 41.0491 ], [ -3.5973, 41.0499 ], [ -3.6002, 41.0509 ], [ -3.6024, 41.0526 ], [ -3.6023, 41.052 ], [ -3.6026, 41.0511 ], [ -3.6037, 41.0498 ], [ -3.604, 41.0497 ], [ -3.6039, 41.0494 ], [ -3.6041, 41.049 ], [ -3.6042, 41.049 ], [ -3.6043, 41.0483 ], [ -3.605, 41.0486 ], [ -3.6053, 41.0486 ], [ -3.6057, 41.0483 ], [ -3.6061, 41.0482 ], [ -3.6061, 41.0477 ], [ -3.6062, 41.0477 ], [ -3.6067, 41.0482 ], [ -3.6073, 41.0494 ], [ -3.6072, 41.051 ], [ -3.6077, 41.051 ], [ -3.6079, 41.0516 ], [ -3.6081, 41.0518 ], [ -3.6084, 41.0519 ], [ -3.6097, 41.0519 ], [ -3.6106, 41.0517 ] ] ] } },
{ "type": "Feature", "properties": { "municipio": "Piñuécar-Gandullas", "clasificacion": "no-urbanizable-protegido", "calificacion": "sin-asignar", "version": "vigente", "fuente": "SIT-CAM WFS — UsoDelSuelo:VPLA_V_CLASIFICACION (https://idem.comunidad.madrid/geosrvg/ows)", "fecha_dato": "2026-05-12", "ambito": "329", "_raw_CD_SIGLAS": "SNUP", "_raw_DS_CLASIF_GEN": "Suelo No Urbanizable Protegido", "_raw_DS_CLASIF_DET": "Suelo No Urbanizable especialmente protegido por su interés ganadero", "_raw_DS_DOCU": "NORMAS SUBSIDIARIAS", "_raw_DS_LEY": "CM Ley 4/1984, E RDL 1/1992", "_raw_FC_AC": "1994-01-13", "_raw_NM_AREA_M2": 359480.37244089501, "_cam_code": "114" }, "geometry": { "type": "Polygon", "coordinates": [ [ [ -3.6079, 41.0569 ], [ -3.6105, 41.0571 ], [ -3.6109, 41.0572 ], [ -3.6109, 41.0573 ], [ -3.6113, 41.0574 ], [ -3.6117, 41.0577 ], [ -3.6123, 41.0578 ], [ -3.6128, 41.057 ], [ -3.6144, 41.0532 ], [ -3.6135, 41.0525 ], [ -3.6112, 41.052 ], [ -3.6102, 41.052 ], [ -3.6089, 41.0521 ], [ -3.6074, 41.0524 ], [ -3.6067, 41.0527 ], [ -3.6064, 41.0527 ], [ -3.6054, 41.0534 ], [ -3.6047, 41.0543 ], [ -3.6069, 41.0567 ], [ -3.607, 41.0578 ], [ -3.607, 41.0575 ], [ -3.6072, 41.0573 ], [ -3.6072, 41.0571 ], [ -3.6079, 41.0569 ] ] ] } },
{ "type": "Feature", "properties": { "municipio": "Piñuécar-Gandullas", "clasificacion": "no-urbanizable-protegido", "calificacion": "sin-asignar", "version": "vigente", "fuente": "SIT-CAM WFS — UsoDelSuelo:VPLA_V_CLASIFICACION (https://idem.comunidad.madrid/geosrvg/ows)", "fecha_dato": "2026-05-12", "ambito": "329", "_raw_CD_SIGLAS": "SNUP", "_raw_DS_CLASIF_GEN": "Suelo No Urbanizable Protegido", "_raw_DS_CLASIF_DET": "Suelo No Urbanizable especialmente protegido por su interés ganadero", "_raw_DS_DOCU": "NORMAS SUBSIDIARIAS", "_raw_DS_LEY": "CM Ley 4/1984, E RDL 1/1992", "_raw_FC_AC": "1994-01-13", "_raw_NM_AREA_M2": 120817.40998437299, "_cam_code": "114" }, "geometry": { "type": "Polygon", "coordinates": [ [ [ -3.6072, 41.0636 ], [ -3.6073, 41.0638 ], [ -3.608, 41.0639 ], [ -3.6084, 41.0642 ], [ -3.6092, 41.0626 ], [ -3.6099, 41.062 ], [ -3.6112, 41.0597 ], [ -3.611, 41.0598 ], [ -3.6101, 41.0598 ], [ -3.6091, 41.0596 ], [ -3.6084, 41.0593 ], [ -3.6075, 41.0587 ], [ -3.607, 41.0588 ], [ -3.6072, 41.0636 ] ] ] } },
{ "type": "Feature", "properties": { "municipio": "Piñuécar-Gandullas", "clasificacion": "no-urbanizable-protegido", "calificacion": "sin-asignar", "version": "vigente", "fuente": "SIT-CAM WFS — UsoDelSuelo:VPLA_V_CLASIFICACION (https://idem.comunidad.madrid/geosrvg/ows)", "fecha_dato": "2026-05-12", "ambito": "329", "_raw_CD_SIGLAS": "SNUP", "_raw_DS_CLASIF_GEN": "Suelo No Urbanizable Protegido", "_raw_DS_CLASIF_DET": "Suelo No Urbanizable especialmente protegido por su interés ganadero", "_raw_DS_DOCU": "NORMAS SUBSIDIARIAS", "_raw_DS_LEY": "CM Ley 4/1984, E RDL 1/1992", "_raw_FC_AC": "1994-01-13", "_raw_NM_AREA_M2": 159819.54671691899, "_cam_code": "114" }, "geometry": { "type": "Polygon", "coordinates": [ [ [ -3.6138, 41.0567 ], [ -3.6119, 41.0603 ], [ -3.6105, 41.0614 ], [ -3.6099, 41.0624 ], [ -3.6096, 41.0632 ], [ -3.6095, 41.0632 ], [ -3.6088, 41.0644 ], [ -3.6093, 41.0646 ], [ -3.6094, 41.0648 ], [ -3.6094, 41.0654 ], [ -3.6097, 41.0668 ], [ -3.6096, 41.0672 ], [ -3.6096, 41.0687 ], [ -3.6097, 41.069 ], [ -3.6099, 41.0689 ], [ -3.611, 41.0663 ], [ -3.6111, 41.0654 ], [ -3.6117, 41.0638 ], [ -3.6114, 41.0625 ], [ -3.6119, 41.0616 ], [ -3.6122, 41.0615 ], [ -3.6129, 41.0608 ], [ -3.6135, 41.0599 ], [ -3.6141, 41.0585 ], [ -3.614, 41.056 ], [ -3.6138, 41.0567 ] ] ] } },
{ "type": "Feature", "properties": { "municipio": "Piñuécar-Gandullas", "clasificacion": "no-urbanizable-protegido", "calificacion": "sin-asignar", "version": "vigente", "fuente": "SIT-CAM WFS — UsoDelSuelo:VPLA_V_CLASIFICACION (https://idem.comunidad.madrid/geosrvg/ows)", "fecha_dato": "2026-05-12", "ambito": "329", "_raw_CD_SIGLAS": "SNUP", "_raw_DS_CLASIF_GEN": "Suelo No Urbanizable Protegido", "_raw_DS_CLASIF_DET": "Suelo No Urbanizable especialmente protegido por su interés ganadero", "_raw_DS_DOCU": "NORMAS SUBSIDIARIAS", "_raw_DS_LEY": "CM Ley 4/1984, E RDL 1/1992", "_raw_FC_AC": "1994-01-13", "_raw_NM_AREA_M2": 2126.01571788606, "_cam_code": "114" }, "geometry": { "type": "Polygon", "coordinates": [ [ [ -3.6095, 41.0696 ], [ -3.6095, 41.0711 ], [ -3.6098, 41.07 ], [ -3.6096, 41.0693 ], [ -3.6095, 41.0696 ] ] ] } },
{ "type": "Feature", "properties": { "municipio": "Piñuécar-Gandullas", "clasificacion": "no-urbanizable-protegido", "calificacion": "sin-asignar", "version": "vigente", "fuente": "SIT-CAM WFS — UsoDelSuelo:VPLA_V_CLASIFICACION (https://idem.comunidad.madrid/geosrvg/ows)", "fecha_dato": "2026-05-12", "ambito": "329", "_raw_CD_SIGLAS": "SNUP", "_raw_DS_CLASIF_GEN": "Suelo No Urbanizable Protegido", "_raw_DS_CLASIF_DET": "Suelo No Urbanizable especialmente protegido por su interés ganadero", "_raw_DS_DOCU": "NORMAS SUBSIDIARIAS", "_raw_DS_LEY": "CM Ley 4/1984, E RDL 1/1992", "_raw_FC_AC": "1994-01-13", "_raw_NM_AREA_M2": 1338745.0083270399, "_cam_code": "114" }, "geometry": { "type": "Polygon", "coordinates": [ [ [ -3.6142, 41.0798 ], [ -3.6178, 41.0785 ], [ -3.6179, 41.0782 ], [ -3.6179, 41.078 ], [ -3.6171, 41.0774 ], [ -3.6168, 41.0768 ], [ -3.6163, 41.0762 ], [ -3.6142, 41.0751 ], [ -3.6142, 41.0748 ], [ -3.6144, 41.0746 ], [ -3.6144, 41.0741 ], [ -3.6138, 41.0732 ], [ -3.6138, 41.0726 ], [ -3.6141, 41.0723 ], [ -3.6141, 41.0721 ], [ -3.6153, 41.0711 ], [ -3.6155, 41.0704 ], [ -3.6163, 41.0696 ], [ -3.6169, 41.0681 ], [ -3.6179, 41.0673 ], [ -3.6188, 41.0669 ], [ -3.6193, 41.0664 ], [ -3.6193, 41.0656 ], [ -3.6191, 41.0653 ], [ -3.6191, 41.065 ], [ -3.6193, 41.0646 ], [ -3.6193, 41.0632 ], [ -3.6186, 41.0622 ], [ -3.6179, 41.0623 ], [ -3.6179, 41.0622 ], [ -3.6175, 41.062 ], [ -3.6175, 41.0615 ], [ -3.6172, 41.0608 ], [ -3.6179, 41.0581 ], [ -3.6177, 41.057 ], [ -3.6174, 41.0567 ], [ -3.6174, 41.056 ], [ -3.6176, 41.0558 ], [ -3.6193, 41.0551 ], [ -3.6199, 41.0546 ], [ -3.62, 41.0532 ], [ -3.6203, 41.0523 ], [ -3.6212, 41.0513 ], [ -3.6216, 41.0512 ], [ -3.6222, 41.0507 ], [ -3.6221, 41.0497 ], [ -3.6222, 41.0497 ], [ -3.6222, 41.0493 ], [ -3.6224, 41.0492 ], [ -3.6223, 41.0491 ], [ -3.6222, 41.0491 ], [ -3.6221, 41.0496 ], [ -3.6218, 41.0499 ], [ -3.6207, 41.0505 ], [ -3.6199, 41.0511 ], [ -3.6196, 41.0507 ], [ -3.618, 41.0519 ], [ -3.6175, 41.0525 ], [ -3.6172, 41.053 ], [ -3.6172, 41.0533 ], [ -3.6168, 41.0537 ], [ -3.6167, 41.054 ], [ -3.6159, 41.0542 ], [ -3.6148, 41.0541 ], [ -3.6149, 41.0534 ], [ -3.6147, 41.0533 ], [ -3.6144, 41.0544 ], [ -3.6145, 41.0545 ], [ -3.6143, 41.0549 ], [ -3.6144, 41.0586 ], [ -3.6138, 41.06 ], [ -3.6132, 41.0609 ], [ -3.6122, 41.0618 ], [ -3.6117, 41.0625 ], [ -3.612, 41.0638 ], [ -3.6119, 41.0645 ], [ -3.6116, 41.0649 ], [ -3.6112, 41.0666 ], [ -3.6108, 41.0673 ], [ -3.6107, 41.0673 ], [ -3.6102, 41.0691 ], [ -3.6102, 41.0696 ], [ -3.6101, 41.0697 ], [ -3.6102, 41.0697 ], [ -3.6102, 41.0701 ], [ -3.61, 41.0705 ], [ -3.6101, 41.0718 ], [ -3.6099, 41.0723 ], [ -3.6095, 41.0727 ], [ -3.6094, 41.0745 ], [ -3.6102, 41.0755 ], [ -3.6107, 41.0765 ], [ -3.6114, 41.0772 ], [ -3.6121, 41.0777 ], [ -3.6123, 41.0777 ], [ -3.6137, 41.0788 ], [ -3.6138, 41.0791 ], [ -3.6141, 41.0794 ], [ -3.6142, 41.0798 ] ] ] } },
{ "type": "Feature", "properties": { "municipio": "Piñuécar-Gandullas", "clasificacion": "no-urbanizable-protegido", "calificacion": "sin-asignar", "version": "vigente", "fuente": "SIT-CAM WFS — UsoDelSuelo:VPLA_V_CLASIFICACION (https://idem.comunidad.madrid/geosrvg/ows)", "fecha_dato": "2026-05-12", "ambito": "329", "_raw_CD_SIGLAS": "SNUP", "_raw_DS_CLASIF_GEN": "Suelo No Urbanizable Protegido", "_raw_DS_CLASIF_DET": "Suelo No Urbanizable especialmente protegido por su interés ganadero", "_raw_DS_DOCU": "NORMAS SUBSIDIARIAS", "_raw_DS_LEY": "CM Ley 4/1984, E RDL 1/1992", "_raw_FC_AC": "1994-01-13", "_raw_NM_AREA_M2": 60357.392321058302, "_cam_code": "114" }, "geometry": { "type": "Polygon", "coordinates": [ [ [ -3.6091, 41.0764 ], [ -3.609, 41.0764 ], [ -3.6089, 41.0769 ], [ -3.6091, 41.0773 ], [ -3.6104, 41.0777 ], [ -3.6114, 41.0787 ], [ -3.6114, 41.0789 ], [ -3.6111, 41.0793 ], [ -3.614, 41.0799 ], [ -3.6139, 41.0796 ], [ -3.6129, 41.0786 ], [ -3.6118, 41.0779 ], [ -3.6106, 41.0769 ], [ -3.6094, 41.0748 ], [ -3.6091, 41.0764 ] ] ] } },
{ "type": "Feature", "properties": { "municipio": "Piñuécar-Gandullas", "clasificacion": "no-urbanizable-protegido", "calificacion": "sin-asignar", "version": "vigente", "fuente": "SIT-CAM WFS — UsoDelSuelo:VPLA_V_CLASIFICACION (https://idem.comunidad.madrid/geosrvg/ows)", "fecha_dato": "2026-05-12", "ambito": "329", "_raw_CD_SIGLAS": "SNUP", "_raw_DS_CLASIF_GEN": "Suelo No Urbanizable Protegido", "_raw_DS_CLASIF_DET": "Suelo No Urbanizable especialmente protegido por su interés paisajístico", "_raw_DS_DOCU": "NORMAS SUBSIDIARIAS", "_raw_DS_LEY": "CM Ley 4/1984, E RDL 1/1992", "_raw_FC_AC": "1994-01-13", "_raw_NM_AREA_M2": 431762.608675892, "_cam_code": "114" }, "geometry": { "type": "Polygon", "coordinates": [ [ [ -3.6017, 41.0096 ], [ -3.6016, 41.0099 ], [ -3.602, 41.0097 ], [ -3.6031, 41.0098 ], [ -3.6063, 41.0073 ], [ -3.6045, 41.0058 ], [ -3.6029, 41.0028 ], [ -3.6016, 41.001 ], [ -3.6017, 41.0009 ], [ -3.6005, 40.9996 ], [ -3.6001, 40.9997 ], [ -3.5995, 41.0004 ], [ -3.5992, 41.0003 ], [ -3.5985, 41.0005 ], [ -3.598, 41.0005 ], [ -3.598, 41.0006 ], [ -3.5976, 41.0004 ], [ -3.5971, 41.0004 ], [ -3.597, 41.0006 ], [ -3.5971, 41.0009 ], [ -3.5967, 41.0011 ], [ -3.5968, 41.0016 ], [ -3.5966, 41.0018 ], [ -3.5966, 41.0024 ], [ -3.5967, 41.0024 ], [ -3.5969, 41.0029 ], [ -3.5969, 41.0034 ], [ -3.5974, 41.0039 ], [ -3.5977, 41.004 ], [ -3.5981, 41.0045 ], [ -3.5987, 41.0047 ], [ -3.599, 41.005 ], [ -3.5996, 41.0051 ], [ -3.5996, 41.0054 ], [ -3.6009, 41.0079 ], [ -3.6017, 41.0088 ], [ -3.6017, 41.0096 ] ] ] } },
{ "type": "Feature", "properties": { "municipio": "Piñuécar-Gandullas", "clasificacion": "no-urbanizable-protegido", "calificacion": "sin-asignar", "version": "vigente", "fuente": "SIT-CAM WFS — UsoDelSuelo:VPLA_V_CLASIFICACION (https://idem.comunidad.madrid/geosrvg/ows)", "fecha_dato": "2026-05-12", "ambito": "329", "_raw_CD_SIGLAS": "SNUP", "_raw_DS_CLASIF_GEN": "Suelo No Urbanizable Protegido", "_raw_DS_CLASIF_DET": "Suelo No Urbanizable especialmente protegido por su interés paisajístico", "_raw_DS_DOCU": "NORMAS SUBSIDIARIAS", "_raw_DS_LEY": "CM Ley 4/1984, E RDL 1/1992", "_raw_FC_AC": "1994-01-13", "_raw_NM_AREA_M2": 1259683.9537585201, "_cam_code": "114" }, "geometry": { "type": "Polygon", "coordinates": [ [ [ -3.5892, 41.0215 ], [ -3.5908, 41.0232 ], [ -3.5911, 41.0233 ], [ -3.5914, 41.0232 ], [ -3.5922, 41.0219 ], [ -3.5924, 41.022 ], [ -3.5947, 41.0189 ], [ -3.5954, 41.0172 ], [ -3.5974, 41.0145 ], [ -3.5979, 41.0126 ], [ -3.5981, 41.0124 ], [ -3.5981, 41.0122 ], [ -3.5976, 41.0122 ], [ -3.5962, 41.0118 ], [ -3.5954, 41.0118 ], [ -3.595, 41.0119 ], [ -3.5943, 41.0126 ], [ -3.5939, 41.0128 ], [ -3.5933, 41.0126 ], [ -3.5926, 41.0115 ], [ -3.5923, 41.0112 ], [ -3.592, 41.0112 ], [ -3.5915, 41.0114 ], [ -3.5913, 41.0128 ], [ -3.5923, 41.0129 ], [ -3.5929, 41.0133 ], [ -3.5931, 41.0139 ], [ -3.5927, 41.014 ], [ -3.5925, 41.0134 ], [ -3.5922, 41.0132 ], [ -3.5913, 41.0131 ], [ -3.5912, 41.0139 ], [ -3.5908, 41.0138 ], [ -3.591, 41.0117 ], [ -3.5912, 41.0112 ], [ -3.592, 41.0108 ], [ -3.5922, 41.0108 ], [ -3.5922, 41.0109 ], [ -3.5929, 41.0113 ], [ -3.5932, 41.012 ], [ -3.5936, 41.0124 ], [ -3.5939, 41.0125 ], [ -3.5946, 41.0118 ], [ -3.5951, 41.0116 ], [ -3.596, 41.0115 ], [ -3.5978, 41.0119 ], [ -3.5971, 41.0108 ], [ -3.597, 41.01 ], [ -3.5964, 41.0094 ], [ -3.5964, 41.0092 ], [ -3.5965, 41.0092 ], [ -3.5964, 41.0086 ], [ -3.5963, 41.0086 ], [ -3.5959, 41.0074 ], [ -3.5958, 41.0067 ], [ -3.5954, 41.0057 ], [ -3.5956, 41.0045 ], [ -3.5956, 41.0036 ], [ -3.5957, 41.0036 ], [ -3.5957, 41.0027 ], [ -3.596, 41.0016 ], [ -3.5962, 41.0013 ], [ -3.596, 41.0009 ], [ -3.5961, 41.0005 ], [ -3.596, 41.0 ], [ -3.5948, 40.9996 ], [ -3.5943, 40.9996 ], [ -3.5936, 40.9992 ], [ -3.5931, 40.9992 ], [ -3.5919, 40.9998 ], [ -3.591, 41.0011 ], [ -3.5905, 41.0016 ], [ -3.5905, 41.002 ], [ -3.5903, 41.0023 ], [ -3.5904, 41.0042 ], [ -3.5909, 41.0052 ], [ -3.5908, 41.0057 ], [ -3.5906, 41.0059 ], [ -3.5906, 41.0064 ], [ -3.5908, 41.0071 ], [ -3.5901, 41.0079 ], [ -3.5904, 41.0082 ], [ -3.5907, 41.0089 ], [ -3.5912, 41.0093 ], [ -3.5912, 41.0097 ], [ -3.5914, 41.0098 ], [ -3.5915, 41.0101 ], [ -3.5919, 41.0102 ], [ -3.5919, 41.0104 ], [ -3.5921, 41.0105 ], [ -3.592, 41.0106 ], [ -3.5918, 41.0104 ], [ -3.5917, 41.0105 ], [ -3.5909, 41.0105 ], [ -3.5908, 41.0104 ], [ -3.5899, 41.0106 ], [ -3.5896, 41.0116 ], [ -3.5896, 41.012 ], [ -3.5902, 41.013 ], [ -3.5902, 41.0135 ], [ -3.5904, 41.014 ], [ -3.5903, 41.0145 ], [ -3.5901, 41.0149 ], [ -3.5893, 41.0153 ], [ -3.589, 41.0157 ], [ -3.5888, 41.0157 ], [ -3.5886, 41.0159 ], [ -3.5884, 41.0163 ], [ -3.5865, 41.0177 ], [ -3.587, 41.0181 ], [ -3.5872, 41.018 ], [ -3.5875, 41.0183 ], [ -3.588, 41.0184 ], [ -3.5881, 41.0186 ], [ -3.5882, 41.0192 ], [ -3.588, 41.0196 ], [ -3.588, 41.0202 ], [ -3.5881, 41.0202 ], [ -3.5881, 41.0207 ], [ -3.5884, 41.0214 ], [ -3.5884, 41.0218 ], [ -3.5892, 41.0215 ] ] ] } },
{ "type": "Feature", "properties": { "municipio": "Piñuécar-Gandullas", "clasificacion": "no-urbanizable-protegido", "calificacion": "sin-asignar", "version": "vigente", "fuente": "SIT-CAM WFS — UsoDelSuelo:VPLA_V_CLASIFICACION (https://idem.comunidad.madrid/geosrvg/ows)", "fecha_dato": "2026-05-12", "ambito": "329", "_raw_CD_SIGLAS": "SNUP", "_raw_DS_CLASIF_GEN": "Suelo No Urbanizable Protegido", "_raw_DS_CLASIF_DET": "Suelo No Urbanizable especialmente protegido por su interés paisajístico", "_raw_DS_DOCU": "NORMAS SUBSIDIARIAS", "_raw_DS_LEY": "CM Ley 4/1984, E RDL 1/1992", "_raw_FC_AC": "1994-01-13", "_raw_NM_AREA_M2": 25044.805927692199, "_cam_code": "114" }, "geometry": { "type": "Polygon", "coordinates": [ [ [ -3.5904, 41.0234 ], [ -3.5911, 41.0236 ], [ -3.5915, 41.0241 ], [ -3.5919, 41.0231 ], [ -3.5919, 41.0228 ], [ -3.5924, 41.0221 ], [ -3.5922, 41.022 ], [ -3.5915, 41.0231 ], [ -3.5915, 41.0233 ], [ -3.5911, 41.0234 ], [ -3.5906, 41.0231 ], [ -3.5892, 41.0216 ], [ -3.5884, 41.0219 ], [ -3.5879, 41.0224 ], [ -3.5869, 41.0227 ], [ -3.587, 41.0228 ], [ -3.5884, 41.0225 ], [ -3.5893, 41.0226 ], [ -3.5904, 41.0234 ] ] ] } },
{ "type": "Feature", "properties": { "municipio": "Piñuécar-Gandullas", "clasificacion": "no-urbanizable-protegido", "calificacion": "sin-asignar", "version": "vigente", "fuente": "SIT-CAM WFS — UsoDelSuelo:VPLA_V_CLASIFICACION (https://idem.comunidad.madrid/geosrvg/ows)", "fecha_dato": "2026-05-12", "ambito": "329", "_raw_CD_SIGLAS": "SNUP", "_raw_DS_CLASIF_GEN": "Suelo No Urbanizable Protegido", "_raw_DS_CLASIF_DET": "Suelo No Urbanizable especialmente protegido por su interés paisajístico", "_raw_DS_DOCU": "NORMAS SUBSIDIARIAS", "_raw_DS_LEY": "CM Ley 4/1984, E RDL 1/1992", "_raw_FC_AC": "1994-01-13", "_raw_NM_AREA_M2": 116457.134460006, "_cam_code": "114" }, "geometry": { "type": "Polygon", "coordinates": [ [ [ -3.6053, 41.033 ], [ -3.6052, 41.0331 ], [ -3.6061, 41.0332 ], [ -3.6072, 41.0335 ], [ -3.6078, 41.0338 ], [ -3.6085, 41.0338 ], [ -3.6085, 41.0328 ], [ -3.608, 41.0329 ], [ -3.6083, 41.0318 ], [ -3.6082, 41.0317 ], [ -3.6077, 41.0317 ], [ -3.6077, 41.0316 ], [ -3.6075, 41.0316 ], [ -3.6073, 41.0314 ], [ -3.6076, 41.031 ], [ -3.608, 41.0309 ], [ -3.6082, 41.0307 ], [ -3.6081, 41.0307 ], [ -3.6077, 41.0297 ], [ -3.6068, 41.0299 ], [ -3.6065, 41.0301 ], [ -3.6047, 41.0302 ], [ -3.6045, 41.0304 ], [ -3.6038, 41.0305 ], [ -3.6036, 41.031 ], [ -3.604, 41.0315 ], [ -3.6039, 41.032 ], [ -3.6042, 41.032 ], [ -3.6046, 41.0324 ], [ -3.6053, 41.0325 ], [ -3.6053, 41.033 ] ] ] } },
{ "type": "Feature", "properties": { "municipio": "Piñuécar-Gandullas", "clasificacion": "no-urbanizable-protegido", "calificacion": "sin-asignar", "version": "vigente", "fuente": "SIT-CAM WFS — UsoDelSuelo:VPLA_V_CLASIFICACION (https://idem.comunidad.madrid/geosrvg/ows)", "fecha_dato": "2026-05-12", "ambito": "329", "_raw_CD_SIGLAS": "SNUP", "_raw_DS_CLASIF_GEN": "Suelo No Urbanizable Protegido", "_raw_DS_CLASIF_DET": "Suelo No Urbanizable especialmente protegido por afección de cauces, riberas y embalses", "_raw_DS_DOCU": "NORMAS SUBSIDIARIAS", "_raw_DS_LEY": "CM Ley 4/1984, E RDL 1/1992", "_raw_FC_AC": "1994-01-13", "_raw_NM_AREA_M2": 857094.14660313795, "_cam_code": "114" }, "geometry": { "type": "Polygon", "coordinates": [ [ [ -3.5854, 41.0223 ], [ -3.5863, 41.0225 ], [ -3.5865, 41.0231 ], [ -3.5863, 41.0236 ], [ -3.5857, 41.0242 ], [ -3.5851, 41.0242 ], [ -3.5848, 41.0239 ], [ -3.5844, 41.0238 ], [ -3.5841, 41.024 ], [ -3.5829, 41.0258 ], [ -3.5826, 41.0259 ], [ -3.5811, 41.0259 ], [ -3.5805, 41.0261 ], [ -3.5803, 41.0263 ], [ -3.5805, 41.0277 ], [ -3.5803, 41.0287 ], [ -3.58, 41.0296 ], [ -3.5799, 41.0296 ], [ -3.58, 41.0301 ], [ -3.5801, 41.0296 ], [ -3.5802, 41.0296 ], [ -3.5803, 41.0292 ], [ -3.5808, 41.0287 ], [ -3.5812, 41.0276 ], [ -3.5809, 41.0264 ], [ -3.581, 41.0263 ], [ -3.5819, 41.0264 ], [ -3.5831, 41.0263 ], [ -3.5836, 41.0257 ], [ -3.5843, 41.0244 ], [ -3.5847, 41.0243 ], [ -3.5851, 41.0246 ], [ -3.5859, 41.0245 ], [ -3.5863, 41.0241 ], [ -3.5866, 41.024 ], [ -3.5869, 41.0235 ], [ -3.587, 41.0233 ], [ -3.587, 41.0228 ], [ -3.5869, 41.0227 ], [ -3.587, 41.0226 ], [ -3.5874, 41.0226 ], [ -3.5879, 41.0224 ], [ -3.5885, 41.0219 ], [ -3.5881, 41.0207 ], [ -3.5881, 41.0202 ], [ -3.588, 41.0202 ], [ -3.588, 41.0196 ], [ -3.5882, 41.0192 ], [ -3.5881, 41.0186 ], [ -3.588, 41.0184 ], [ -3.5875, 41.0183 ], [ -3.5872, 41.018 ], [ -3.587, 41.0181 ], [ -3.5865, 41.0177 ], [ -3.5884, 41.0163 ], [ -3.5886, 41.0159 ], [ -3.5888, 41.0157 ], [ -3.589, 41.0157 ], [ -3.5893, 41.0153 ], [ -3.5901, 41.0149 ], [ -3.5903, 41.0145 ], [ -3.5904, 41.014 ], [ -3.5902, 41.0135 ], [ -3.5902, 41.013 ], [ -3.5896, 41.012 ], [ -3.5896, 41.0116 ], [ -3.5899, 41.0106 ], [ -3.5908, 41.0104 ], [ -3.5909, 41.0105 ], [ -3.5917, 41.0105 ], [ -3.5918, 41.0104 ], [ -3.592, 41.0106 ], [ -3.5921, 41.0105 ], [ -3.5919, 41.0104 ], [ -3.5919, 41.0102 ], [ -3.5915, 41.0101 ], [ -3.5914, 41.0098 ], [ -3.5912, 41.0097 ], [ -3.5912, 41.0093 ], [ -3.5907, 41.0089 ], [ -3.5904, 41.0082 ], [ -3.5901, 41.0079 ], [ -3.5908, 41.0071 ], [ -3.5906, 41.0064 ], [ -3.5906, 41.0059 ], [ -3.5908, 41.0057 ], [ -3.5909, 41.0051 ], [ -3.5906, 41.0045 ], [ -3.5905, 41.0045 ], [ -3.5903, 41.0035 ], [ -3.5904, 41.0029 ], [ -3.5903, 41.0028 ], [ -3.5903, 41.0023 ], [ -3.5905, 41.002 ], [ -3.5905, 41.0016 ], [ -3.591, 41.0011 ], [ -3.5919, 40.9998 ], [ -3.5931, 40.9992 ], [ -3.5936, 40.9992 ], [ -3.5943, 40.9996 ], [ -3.5948, 40.9996 ], [ -3.596, 41.0 ], [ -3.5961, 41.0004 ], [ -3.596, 41.0009 ], [ -3.5962, 41.0013 ], [ -3.5959, 41.0019 ], [ -3.5959, 41.0022 ], [ -3.5966, 41.0023 ], [ -3.5966, 41.0018 ], [ -3.5968, 41.0016 ], [ -3.5967, 41.0011 ], [ -3.5971, 41.0009 ], [ -3.597, 41.0007 ], [ -3.5971, 41.0004 ], [ -3.5976, 41.0004 ], [ -3.598, 41.0006 ], [ -3.598, 41.0005 ], [ -3.5985, 41.0005 ], [ -3.5992, 41.0003 ], [ -3.5995, 41.0004 ], [ -3.6001, 40.9997 ], [ -3.6005, 40.9996 ], [ -3.5995, 40.9984 ], [ -3.5992, 40.9984 ], [ -3.5983, 40.9993 ], [ -3.5979, 40.999 ], [ -3.5954, 40.998 ], [ -3.592, 40.9982 ], [ -3.5911, 40.9979 ], [ -3.5905, 40.9973 ], [ -3.5905, 40.9959 ], [ -3.5901, 40.9953 ], [ -3.5896, 40.9951 ], [ -3.5887, 40.9953 ], [ -3.5887, 40.9952 ], [ -3.5828, 40.9928 ], [ -3.5826, 40.9925 ], [ -3.5825, 40.9918 ], [ -3.5822, 40.9911 ], [ -3.5816, 40.9902 ], [ -3.5811, 40.9902 ], [ -3.5807, 40.9905 ], [ -3.5806, 40.9909 ], [ -3.5804, 40.991 ], [ -3.5805, 40.9926 ], [ -3.5822, 40.9937 ], [ -3.5825, 40.9946 ], [ -3.5828, 40.9948 ], [ -3.5828, 40.9952 ], [ -3.583, 40.9952 ], [ -3.5831, 40.9956 ], [ -3.5834, 40.9958 ], [ -3.5833, 40.9962 ], [ -3.5834, 40.9963 ], [ -3.5838, 40.996 ], [ -3.5842, 40.9949 ], [ -3.585, 40.995 ], [ -3.5862, 40.9956 ], [ -3.5865, 40.9962 ], [ -3.5875, 40.9961 ], [ -3.5877, 40.9963 ], [ -3.5887, 40.9965 ], [ -3.589, 40.997 ], [ -3.5898, 40.9971 ], [ -3.59, 40.9978 ], [ -3.5901, 40.9978 ], [ -3.5901, 40.9981 ], [ -3.5902, 40.9981 ], [ -3.59, 40.9986 ], [ -3.5892, 40.9993 ], [ -3.5887, 41.0002 ], [ -3.5885, 41.0002 ], [ -3.5885, 41.0008 ], [ -3.5877, 41.0014 ], [ -3.5881, 41.0016 ], [ -3.5879, 41.0024 ], [ -3.5878, 41.0024 ], [ -3.5877, 41.0027 ], [ -3.5879, 41.0028 ], [ -3.5878, 41.0031 ], [ -3.5874, 41.0037 ], [ -3.5868, 41.0041 ], [ -3.5883, 41.0039 ], [ -3.5885, 41.0042 ], [ -3.5885, 41.0047 ], [ -3.5887, 41.0052 ], [ -3.5887, 41.0056 ], [ -3.5885, 41.006 ], [ -3.5887, 41.0064 ], [ -3.5887, 41.0069 ], [ -3.5878, 41.0074 ], [ -3.5878, 41.0077 ], [ -3.5877, 41.0077 ], [ -3.5878, 41.0082 ], [ -3.588, 41.0084 ], [ -3.5879, 41.0086 ], [ -3.5884, 41.0091 ], [ -3.5884, 41.0095 ], [ -3.5877, 41.0099 ], [ -3.5878, 41.0102 ], [ -3.5879, 41.0102 ], [ -3.5879, 41.0109 ], [ -3.5877, 41.0114 ], [ -3.5879, 41.0122 ], [ -3.5884, 41.0126 ], [ -3.5883, 41.0129 ], [ -3.5888, 41.0132 ], [ -3.5888, 41.0142 ], [ -3.5884, 41.0146 ], [ -3.5882, 41.0146 ], [ -3.5879, 41.015 ], [ -3.5872, 41.015 ], [ -3.5872, 41.0149 ], [ -3.5864, 41.0148 ], [ -3.5866, 41.0149 ], [ -3.5871, 41.0156 ], [ -3.5871, 41.0159 ], [ -3.5864, 41.0162 ], [ -3.586, 41.0167 ], [ -3.5857, 41.0168 ], [ -3.5851, 41.0174 ], [ -3.5852, 41.0174 ], [ -3.5852, 41.0179 ], [ -3.5854, 41.0179 ], [ -3.5855, 41.0182 ], [ -3.5858, 41.0185 ], [ -3.5867, 41.0187 ], [ -3.5869, 41.0189 ], [ -3.5873, 41.0189 ], [ -3.5871, 41.0192 ], [ -3.587, 41.0197 ], [ -3.5871, 41.0208 ], [ -3.5873, 41.0211 ], [ -3.5873, 41.0215 ], [ -3.5867, 41.0216 ], [ -3.5861, 41.0221 ], [ -3.5857, 41.0221 ], [ -3.5854, 41.0223 ] ] ] } },
{ "type": "Feature", "properties": { "municipio": "Piñuécar-Gandullas", "clasificacion": "no-urbanizable-protegido", "calificacion": "sin-asignar", "version": "vigente", "fuente": "SIT-CAM WFS — UsoDelSuelo:VPLA_V_CLASIFICACION (https://idem.comunidad.madrid/geosrvg/ows)", "fecha_dato": "2026-05-12", "ambito": "329", "_raw_CD_SIGLAS": "SNUP", "_raw_DS_CLASIF_GEN": "Suelo No Urbanizable Protegido", "_raw_DS_CLASIF_DET": "Suelo No Urbanizable especialmente protegido por su interés forestal", "_raw_DS_DOCU": "NORMAS SUBSIDIARIAS", "_raw_DS_LEY": "CM Ley 4/1984, E RDL 1/1992", "_raw_FC_AC": "1994-01-13", "_raw_NM_AREA_M2": 342.09650245168098, "_cam_code": "114" }, "geometry": { "type": "Polygon", "coordinates": [ [ [ -3.5752, 41.024 ], [ -3.5755, 41.024 ], [ -3.576, 41.0239 ], [ -3.5752, 41.0239 ], [ -3.5752, 41.024 ] ] ] } },
{ "type": "Feature", "properties": { "municipio": "Piñuécar-Gandullas", "clasificacion": "no-urbanizable-protegido", "calificacion": "sin-asignar", "version": "vigente", "fuente": "SIT-CAM WFS — UsoDelSuelo:VPLA_V_CLASIFICACION (https://idem.comunidad.madrid/geosrvg/ows)", "fecha_dato": "2026-05-12", "ambito": "329", "_raw_CD_SIGLAS": "SNUP", "_raw_DS_CLASIF_GEN": "Suelo No Urbanizable Protegido", "_raw_DS_CLASIF_DET": "Suelo No Urbanizable especialmente protegido por su interés forestal", "_raw_DS_DOCU": "NORMAS SUBSIDIARIAS", "_raw_DS_LEY": "CM Ley 4/1984, E RDL 1/1992", "_raw_FC_AC": "1994-01-13", "_raw_NM_AREA_M2": 1181285.2672322199, "_cam_code": "114" }, "geometry": { "type": "Polygon", "coordinates": [ [ [ -3.5779, 41.0235 ], [ -3.5788, 41.0233 ], [ -3.5793, 41.0228 ], [ -3.5795, 41.0215 ], [ -3.5798, 41.0213 ], [ -3.5801, 41.0213 ], [ -3.5801, 41.0214 ], [ -3.5803, 41.0214 ], [ -3.5808, 41.0218 ], [ -3.582, 41.0217 ], [ -3.582, 41.0218 ], [ -3.5825, 41.022 ], [ -3.5828, 41.022 ], [ -3.5833, 41.0216 ], [ -3.5837, 41.0216 ], [ -3.5851, 41.0223 ], [ -3.5861, 41.0221 ], [ -3.5867, 41.0216 ], [ -3.5873, 41.0215 ], [ -3.5873, 41.0211 ], [ -3.5871, 41.0208 ], [ -3.5871, 41.0202 ], [ -3.587, 41.0201 ], [ -3.5871, 41.0192 ], [ -3.5873, 41.0189 ], [ -3.5869, 41.0189 ], [ -3.5867, 41.0187 ], [ -3.5858, 41.0185 ], [ -3.5855, 41.0182 ], [ -3.5854, 41.0179 ], [ -3.5852, 41.0179 ], [ -3.5852, 41.0174 ], [ -3.5851, 41.0174 ], [ -3.5857, 41.0168 ], [ -3.586, 41.0167 ], [ -3.5864, 41.0162 ], [ -3.5871, 41.0159 ], [ -3.5871, 41.0156 ], [ -3.5866, 41.0149 ], [ -3.5864, 41.0148 ], [ -3.5872, 41.0149 ], [ -3.5872, 41.015 ], [ -3.5879, 41.015 ], [ -3.5882, 41.0146 ], [ -3.5884, 41.0146 ], [ -3.5888, 41.0142 ], [ -3.5888, 41.0132 ], [ -3.5883, 41.0129 ], [ -3.5884, 41.0126 ], [ -3.5879, 41.0122 ], [ -3.5877, 41.0114 ], [ -3.5879, 41.0109 ], [ -3.5879, 41.0102 ], [ -3.5878, 41.0102 ], [ -3.5877, 41.0099 ], [ -3.5884, 41.0095 ], [ -3.5884, 41.0091 ], [ -3.5879, 41.0086 ], [ -3.588, 41.0084 ], [ -3.5878, 41.0082 ], [ -3.5877, 41.0077 ], [ -3.5878, 41.0077 ], [ -3.5878, 41.0074 ], [ -3.5887, 41.0069 ], [ -3.5887, 41.0064 ], [ -3.5885, 41.0061 ], [ -3.5887, 41.0056 ], [ -3.5887, 41.0052 ], [ -3.5885, 41.0047 ], [ -3.5885, 41.0042 ], [ -3.5883, 41.0039 ], [ -3.5868, 41.0041 ], [ -3.5874, 41.0037 ], [ -3.5878, 41.0031 ], [ -3.5879, 41.0028 ], [ -3.5877, 41.0027 ], [ -3.5878, 41.0024 ], [ -3.5879, 41.0024 ], [ -3.5881, 41.0016 ], [ -3.5877, 41.0014 ], [ -3.5885, 41.0008 ], [ -3.5885, 41.0002 ], [ -3.5887, 41.0002 ], [ -3.5892, 40.9993 ], [ -3.5902, 40.9983 ], [ -3.5898, 40.9971 ], [ -3.589, 40.997 ], [ -3.5887, 40.9965 ], [ -3.5877, 40.9963 ], [ -3.5875, 40.9961 ], [ -3.5865, 40.9962 ], [ -3.5862, 40.9956 ], [ -3.585, 40.995 ], [ -3.5842, 40.9949 ], [ -3.5838, 40.996 ], [ -3.5834, 40.9963 ], [ -3.5833, 40.9962 ], [ -3.5834, 40.9958 ], [ -3.5831, 40.9956 ], [ -3.583, 40.9952 ], [ -3.5828, 40.9952 ], [ -3.5828, 40.9948 ], [ -3.5825, 40.9946 ], [ -3.5822, 40.9937 ], [ -3.5805, 40.9926 ], [ -3.5811, 40.9999 ], [ -3.5807, 41.0052 ], [ -3.5811, 41.0061 ], [ -3.5814, 41.0064 ], [ -3.5822, 41.0067 ], [ -3.5829, 41.0067 ], [ -3.5835, 41.0065 ], [ -3.5847, 41.0065 ], [ -3.5854, 41.0067 ], [ -3.5863, 41.009 ], [ -3.5867, 41.0137 ], [ -3.5856, 41.0145 ], [ -3.5848, 41.0156 ], [ -3.5835, 41.0188 ], [ -3.582, 41.0212 ], [ -3.5809, 41.0217 ], [ -3.5802, 41.0212 ], [ -3.5794, 41.0211 ], [ -3.579, 41.0218 ], [ -3.5791, 41.0224 ], [ -3.5789, 41.0229 ], [ -3.5786, 41.0233 ], [ -3.5779, 41.0235 ] ] ] } },
{ "type": "Feature", "properties": { "municipio": "Piñuécar-Gandullas", "clasificacion": "no-urbanizable-protegido", "calificacion": "sin-asignar", "version": "vigente", "fuente": "SIT-CAM WFS — UsoDelSuelo:VPLA_V_CLASIFICACION (https://idem.comunidad.madrid/geosrvg/ows)", "fecha_dato": "2026-05-12", "ambito": "329", "_raw_CD_SIGLAS": "SNUP", "_raw_DS_CLASIF_GEN": "Suelo No Urbanizable Protegido", "_raw_DS_CLASIF_DET": "Suelo No Urbanizable especialmente protegido por su interés forestal", "_raw_DS_DOCU": "NORMAS SUBSIDIARIAS", "_raw_DS_LEY": "CM Ley 4/1984, E RDL 1/1992", "_raw_FC_AC": "1994-01-13", "_raw_NM_AREA_M2": 1452544.4465135001, "_cam_code": "114" }, "geometry": { "type": "Polygon", "coordinates": [ [ [ -3.5751, 41.0235 ], [ -3.577, 41.0234 ], [ -3.5782, 41.023 ], [ -3.5786, 41.0226 ], [ -3.5786, 41.0215 ], [ -3.5793, 41.0208 ], [ -3.5804, 41.0208 ], [ -3.5809, 41.0212 ], [ -3.5816, 41.0211 ], [ -3.5833, 41.0183 ], [ -3.5845, 41.0151 ], [ -3.5855, 41.0141 ], [ -3.5863, 41.0135 ], [ -3.5863, 41.0133 ], [ -3.5864, 41.0133 ], [ -3.5862, 41.0105 ], [ -3.5859, 41.0091 ], [ -3.5851, 41.007 ], [ -3.5844, 41.0068 ], [ -3.5837, 41.0068 ], [ -3.5827, 41.007 ], [ -3.5817, 41.0069 ], [ -3.5812, 41.0067 ], [ -3.5808, 41.0063 ], [ -3.5804, 41.0055 ], [ -3.5787, 41.0073 ], [ -3.5763, 41.0089 ], [ -3.5739, 41.0122 ], [ -3.5739, 41.0125 ], [ -3.573, 41.0151 ], [ -3.573, 41.0179 ], [ -3.5741, 41.02 ], [ -3.5751, 41.0235 ] ] ] } },
{ "type": "Feature", "properties": { "municipio": "Piñuécar-Gandullas", "clasificacion": "no-urbanizable-protegido", "calificacion": "sin-asignar", "version": "vigente", "fuente": "SIT-CAM WFS — UsoDelSuelo:VPLA_V_CLASIFICACION (https://idem.comunidad.madrid/geosrvg/ows)", "fecha_dato": "2026-05-12", "ambito": "329", "_raw_CD_SIGLAS": "SNUP", "_raw_DS_CLASIF_GEN": "Suelo No Urbanizable Protegido", "_raw_DS_CLASIF_DET": "Suelo No Urbanizable especialmente protegido por su interés ecológico", "_raw_DS_DOCU": "NORMAS SUBSIDIARIAS", "_raw_DS_LEY": "CM Ley 4/1984, E RDL 1/1992", "_raw_FC_AC": "1994-01-13", "_raw_NM_AREA_M2": 17262.680274722599, "_cam_code": "114" }, "geometry": { "type": "Polygon", "coordinates": [ [ [ -3.6083, 41.0653 ], [ -3.6087, 41.0658 ], [ -3.6096, 41.0672 ], [ -3.6097, 41.0668 ], [ -3.6096, 41.0667 ], [ -3.6093, 41.0646 ], [ -3.6088, 41.0644 ], [ -3.6083, 41.0653 ] ] ] } },
{ "type": "Feature", "properties": { "municipio": "Piñuécar-Gandullas", "clasificacion": "no-urbanizable-protegido", "calificacion": "sin-asignar", "version": "vigente", "fuente": "SIT-CAM WFS — UsoDelSuelo:VPLA_V_CLASIFICACION (https://idem.comunidad.madrid/geosrvg/ows)", "fecha_dato": "2026-05-12", "ambito": "329", "_raw_CD_SIGLAS": "SNUP", "_raw_DS_CLASIF_GEN": "Suelo No Urbanizable Protegido", "_raw_DS_CLASIF_DET": "Suelo No Urbanizable especialmente protegido por su interés ecológico", "_raw_DS_DOCU": "NORMAS SUBSIDIARIAS", "_raw_DS_LEY": "CM Ley 4/1984, E RDL 1/1992", "_raw_FC_AC": "1994-01-13", "_raw_NM_AREA_M2": 5129.5928450689998, "_cam_code": "114" }, "geometry": { "type": "Polygon", "coordinates": [ [ [ -3.6072, 41.0637 ], [ -3.608, 41.0649 ], [ -3.6084, 41.0642 ], [ -3.608, 41.0639 ], [ -3.6072, 41.0637 ] ] ] } },
{ "type": "Feature", "properties": { "municipio": "Piñuécar-Gandullas", "clasificacion": "no-urbanizable-protegido", "calificacion": "sin-asignar", "version": "vigente", "fuente": "SIT-CAM WFS — UsoDelSuelo:VPLA_V_CLASIFICACION (https://idem.comunidad.madrid/geosrvg/ows)", "fecha_dato": "2026-05-12", "ambito": "329", "_raw_CD_SIGLAS": "SNUP", "_raw_DS_CLASIF_GEN": "Suelo No Urbanizable Protegido", "_raw_DS_CLASIF_DET": "Suelo No Urbanizable especialmente protegido por su interés ecológico", "_raw_DS_DOCU": "NORMAS SUBSIDIARIAS", "_raw_DS_LEY": "CM Ley 4/1984, E RDL 1/1992", "_raw_FC_AC": "1994-01-13", "_raw_NM_AREA_M2": 104048.79186829001, "_cam_code": "114" }, "geometry": { "type": "Polygon", "coordinates": [ [ [ -3.6075, 41.0587 ], [ -3.6091, 41.0596 ], [ -3.6101, 41.0598 ], [ -3.611, 41.0598 ], [ -3.6112, 41.0597 ], [ -3.6122, 41.0578 ], [ -3.6123, 41.0578 ], [ -3.6117, 41.0577 ], [ -3.6113, 41.0574 ], [ -3.6109, 41.0573 ], [ -3.6109, 41.0572 ], [ -3.6093, 41.0569 ], [ -3.6074, 41.057 ], [ -3.6072, 41.0571 ], [ -3.6072, 41.0573 ], [ -3.607, 41.0575 ], [ -3.607, 41.0588 ], [ -3.6075, 41.0587 ] ] ] } },
{ "type": "Feature", "properties": { "municipio": "Piñuécar-Gandullas", "clasificacion": "no-urbanizable-protegido", "calificacion": "sin-asignar", "version": "vigente", "fuente": "SIT-CAM WFS — UsoDelSuelo:VPLA_V_CLASIFICACION (https://idem.comunidad.madrid/geosrvg/ows)", "fecha_dato": "2026-05-12", "ambito": "329", "_raw_CD_SIGLAS": "SNUP", "_raw_DS_CLASIF_GEN": "Suelo No Urbanizable Protegido", "_raw_DS_CLASIF_DET": "Suelo No Urbanizable especialmente protegido por su interés ecológico", "_raw_DS_DOCU": "NORMAS SUBSIDIARIAS", "_raw_DS_LEY": "CM Ley 4/1984, E RDL 1/1992", "_raw_FC_AC": "1994-01-13", "_raw_NM_AREA_M2": 230998.54811973401, "_cam_code": "114" }, "geometry": { "type": "Polygon", "coordinates": [ [ [ -3.6151, 41.0527 ], [ -3.6148, 41.0541 ], [ -3.6159, 41.0542 ], [ -3.6167, 41.054 ], [ -3.6168, 41.0537 ], [ -3.6172, 41.0533 ], [ -3.6172, 41.053 ], [ -3.6175, 41.0525 ], [ -3.6186, 41.0514 ], [ -3.6196, 41.0507 ], [ -3.6199, 41.0511 ], [ -3.6221, 41.0496 ], [ -3.6222, 41.0491 ], [ -3.6217, 41.0486 ], [ -3.6208, 41.0483 ], [ -3.62, 41.0468 ], [ -3.6197, 41.0459 ], [ -3.6197, 41.0445 ], [ -3.618, 41.0468 ], [ -3.6176, 41.0478 ], [ -3.6176, 41.0489 ], [ -3.6175, 41.049 ], [ -3.6176, 41.0492 ], [ -3.6173, 41.0493 ], [ -3.6161, 41.0515 ], [ -3.6151, 41.0527 ] ] ] } },
{ "type": "Feature", "properties": { "municipio": "Piñuécar-Gandullas", "clasificacion": "no-urbanizable-protegido", "calificacion": "sin-asignar", "version": "vigente", "fuente": "SIT-CAM WFS — UsoDelSuelo:VPLA_V_CLASIFICACION (https://idem.comunidad.madrid/geosrvg/ows)", "fecha_dato": "2026-05-12", "ambito": "329", "_raw_CD_SIGLAS": "SNUP", "_raw_DS_CLASIF_GEN": "Suelo No Urbanizable Protegido", "_raw_DS_CLASIF_DET": "Suelo No Urbanizable especialmente protegido por su interés ecológico", "_raw_DS_DOCU": "NORMAS SUBSIDIARIAS", "_raw_DS_LEY": "CM Ley 4/1984, E RDL 1/1992", "_raw_FC_AC": "1994-01-13", "_raw_NM_AREA_M2": 171701.24681014699, "_cam_code": "114" }, "geometry": { "type": "Polygon", "coordinates": [ [ [ -3.6043, 41.0483 ], [ -3.6042, 41.049 ], [ -3.6041, 41.049 ], [ -3.6039, 41.0494 ], [ -3.604, 41.0497 ], [ -3.6038, 41.0497 ], [ -3.6028, 41.0508 ], [ -3.6024, 41.0516 ], [ -3.6023, 41.0521 ], [ -3.6024, 41.0526 ], [ -3.6031, 41.053 ], [ -3.6032, 41.0532 ], [ -3.6043, 41.054 ], [ -3.6051, 41.0534 ], [ -3.6064, 41.052 ], [ -3.6067, 41.0519 ], [ -3.607, 41.051 ], [ -3.6072, 41.051 ], [ -3.6073, 41.0494 ], [ -3.6067, 41.0482 ], [ -3.6062, 41.0477 ], [ -3.6061, 41.0477 ], [ -3.6061, 41.0482 ], [ -3.6057, 41.0483 ], [ -3.6053, 41.0486 ], [ -3.605, 41.0486 ], [ -3.6043, 41.0483 ] ] ] } },
{ "type": "Feature", "properties": { "municipio": "Piñuécar-Gandullas", "clasificacion": "no-urbanizable-protegido", "calificacion": "sin-asignar", "version": "vigente", "fuente": "SIT-CAM WFS — UsoDelSuelo:VPLA_V_CLASIFICACION (https://idem.comunidad.madrid/geosrvg/ows)", "fecha_dato": "2026-05-12", "ambito": "329", "_raw_CD_SIGLAS": "SNUP", "_raw_DS_CLASIF_GEN": "Suelo No Urbanizable Protegido", "_raw_DS_CLASIF_DET": "Suelo No Urbanizable especialmente protegido por su interés ecológico", "_raw_DS_DOCU": "NORMAS SUBSIDIARIAS", "_raw_DS_LEY": "CM Ley 4/1984, E RDL 1/1992", "_raw_FC_AC": "1994-01-13", "_raw_NM_AREA_M2": 2605.8341406132599, "_cam_code": "114" }, "geometry": { "type": "Polygon", "coordinates": [ [ [ -3.5961, 41.0495 ], [ -3.5961, 41.0491 ], [ -3.5949, 41.049 ], [ -3.5961, 41.0495 ] ] ] } },
{ "type": "Feature", "properties": { "municipio": "Piñuécar-Gandullas", "clasificacion": "no-urbanizable-protegido", "calificacion": "sin-asignar", "version": "vigente", "fuente": "SIT-CAM WFS — UsoDelSuelo:VPLA_V_CLASIFICACION (https://idem.comunidad.madrid/geosrvg/ows)", "fecha_dato": "2026-05-12", "ambito": "329", "_raw_CD_SIGLAS": "SNUP", "_raw_DS_CLASIF_GEN": "Suelo No Urbanizable Protegido", "_raw_DS_CLASIF_DET": "Suelo No Urbanizable especialmente protegido por su interés ecológico", "_raw_DS_DOCU": "NORMAS SUBSIDIARIAS", "_raw_DS_LEY": "CM Ley 4/1984, E RDL 1/1992", "_raw_FC_AC": "1994-01-13", "_raw_NM_AREA_M2": 260404.10854865599, "_cam_code": "114" }, "geometry": { "type": "Polygon", "coordinates": [ [ [ -3.6138, 41.0471 ], [ -3.6148, 41.0475 ], [ -3.6148, 41.0477 ], [ -3.6156, 41.046 ], [ -3.6156, 41.0456 ], [ -3.6154, 41.0453 ], [ -3.6153, 41.0448 ], [ -3.6153, 41.0436 ], [ -3.6148, 41.0431 ], [ -3.6134, 41.0427 ], [ -3.6132, 41.0429 ], [ -3.6129, 41.0429 ], [ -3.6119, 41.0422 ], [ -3.6109, 41.0421 ], [ -3.6106, 41.042 ], [ -3.6106, 41.0419 ], [ -3.6099, 41.0419 ], [ -3.6092, 41.0424 ], [ -3.6092, 41.0432 ], [ -3.6091, 41.0433 ], [ -3.6085, 41.0436 ], [ -3.6084, 41.0438 ], [ -3.6079, 41.0439 ], [ -3.6078, 41.045 ], [ -3.6076, 41.0453 ], [ -3.609, 41.0452 ], [ -3.6094, 41.0454 ], [ -3.6094, 41.0458 ], [ -3.6111, 41.0466 ], [ -3.612, 41.0466 ], [ -3.6124, 41.0468 ], [ -3.6135, 41.0468 ], [ -3.6138, 41.0471 ] ] ] } },
{ "type": "Feature", "properties": { "municipio": "Piñuécar-Gandullas", "clasificacion": "no-urbanizable-protegido", "calificacion": "sin-asignar", "version": "vigente", "fuente": "SIT-CAM WFS — UsoDelSuelo:VPLA_V_CLASIFICACION (https://idem.comunidad.madrid/geosrvg/ows)", "fecha_dato": "2026-05-12", "ambito": "329", "_raw_CD_SIGLAS": "SNUP", "_raw_DS_CLASIF_GEN": "Suelo No Urbanizable Protegido", "_raw_DS_CLASIF_DET": "Suelo No Urbanizable especialmente protegido por su interés ecológico", "_raw_DS_DOCU": "NORMAS SUBSIDIARIAS", "_raw_DS_LEY": "CM Ley 4/1984, E RDL 1/1992", "_raw_FC_AC": "1994-01-13", "_raw_NM_AREA_M2": 608228.42665613699, "_cam_code": "114" }, "geometry": { "type": "Polygon", "coordinates": [ [ [ -3.5827, 41.035 ], [ -3.5847, 41.0364 ], [ -3.5848, 41.0366 ], [ -3.5856, 41.037 ], [ -3.5857, 41.0372 ], [ -3.5865, 41.0378 ], [ -3.5868, 41.0391 ], [ -3.5873, 41.0398 ], [ -3.5873, 41.0396 ], [ -3.5877, 41.0395 ], [ -3.5884, 41.0389 ], [ -3.5885, 41.0387 ], [ -3.5884, 41.0386 ], [ -3.5884, 41.0379 ], [ -3.5877, 41.0373 ], [ -3.5871, 41.0348 ], [ -3.5871, 41.0343 ], [ -3.5874, 41.0334 ], [ -3.5874, 41.0329 ], [ -3.5873, 41.0328 ], [ -3.5874, 41.0325 ], [ -3.5871, 41.0323 ], [ -3.5869, 41.0305 ], [ -3.5861, 41.0295 ], [ -3.586, 41.0292 ], [ -3.5858, 41.0291 ], [ -3.5855, 41.0285 ], [ -3.5853, 41.0276 ], [ -3.5859, 41.0268 ], [ -3.5869, 41.0262 ], [ -3.5898, 41.0255 ], [ -3.5909, 41.0249 ], [ -3.5892, 41.0227 ], [ -3.5887, 41.0225 ], [ -3.587, 41.0229 ], [ -3.587, 41.0233 ], [ -3.5866, 41.024 ], [ -3.5863, 41.0241 ], [ -3.5859, 41.0245 ], [ -3.5851, 41.0246 ], [ -3.5847, 41.0243 ], [ -3.5843, 41.0244 ], [ -3.5836, 41.0257 ], [ -3.5831, 41.0263 ], [ -3.5827, 41.0264 ], [ -3.581, 41.0263 ], [ -3.5809, 41.0264 ], [ -3.5812, 41.0276 ], [ -3.5808, 41.0287 ], [ -3.5803, 41.0292 ], [ -3.5802, 41.0295 ], [ -3.5802, 41.0298 ], [ -3.5804, 41.0302 ], [ -3.5809, 41.0308 ], [ -3.5819, 41.0316 ], [ -3.5849, 41.0329 ], [ -3.5855, 41.0334 ], [ -3.5853, 41.0339 ], [ -3.5849, 41.0341 ], [ -3.584, 41.0349 ], [ -3.5834, 41.0348 ], [ -3.5825, 41.0342 ], [ -3.5822, 41.0343 ], [ -3.5822, 41.0345 ], [ -3.5827, 41.035 ] ] ] } },
{ "type": "Feature", "properties": { "municipio": "Piñuécar-Gandullas", "clasificacion": "no-urbanizable-protegido", "calificacion": "sin-asignar", "version": "vigente", "fuente": "SIT-CAM WFS — UsoDelSuelo:VPLA_V_CLASIFICACION (https://idem.comunidad.madrid/geosrvg/ows)", "fecha_dato": "2026-05-12", "ambito": "329", "_raw_CD_SIGLAS": "SNUP", "_raw_DS_CLASIF_GEN": "Suelo No Urbanizable Protegido", "_raw_DS_CLASIF_DET": "Suelo No Urbanizable especialmente protegido por su interés ecológico", "_raw_DS_DOCU": "NORMAS SUBSIDIARIAS", "_raw_DS_LEY": "CM Ley 4/1984, E RDL 1/1992", "_raw_FC_AC": "1994-01-13", "_raw_NM_AREA_M2": 11201.405298179399, "_cam_code": "114" }, "geometry": { "type": "Polygon", "coordinates": [ [ [ -3.591, 41.0248 ], [ -3.5915, 41.0241 ], [ -3.5913, 41.0238 ], [ -3.5909, 41.0235 ], [ -3.5904, 41.0234 ], [ -3.5893, 41.0226 ], [ -3.591, 41.0248 ] ] ] } },
{ "type": "Feature", "properties": { "municipio": "Piñuécar-Gandullas", "clasificacion": "no-urbanizable-protegido", "calificacion": "sin-asignar", "version": "vigente", "fuente": "SIT-CAM WFS — UsoDelSuelo:VPLA_V_CLASIFICACION (https://idem.comunidad.madrid/geosrvg/ows)", "fecha_dato": "2026-05-12", "ambito": "329", "_raw_CD_SIGLAS": "SNUP", "_raw_DS_CLASIF_GEN": "Suelo No Urbanizable Protegido", "_raw_DS_CLASIF_DET": "Suelo No Urbanizable especialmente protegido por su interés cultural", "_raw_DS_DOCU": "NORMAS SUBSIDIARIAS", "_raw_DS_LEY": "CM Ley 4/1984, E RDL 1/1992", "_raw_FC_AC": "1994-01-13", "_raw_NM_AREA_M2": 173428.88090397601, "_cam_code": "114" }, "geometry": { "type": "Polygon", "coordinates": [ [ [ -3.5949, 41.0446 ], [ -3.5955, 41.0448 ], [ -3.596, 41.0448 ], [ -3.5961, 41.0444 ], [ -3.5963, 41.0443 ], [ -3.5967, 41.0437 ], [ -3.5968, 41.0433 ], [ -3.5972, 41.0429 ], [ -3.5973, 41.0426 ], [ -3.5976, 41.0423 ], [ -3.5982, 41.0421 ], [ -3.595, 41.042 ], [ -3.593, 41.0423 ], [ -3.5894, 41.0431 ], [ -3.5872, 41.0431 ], [ -3.5879, 41.0441 ], [ -3.5881, 41.044 ], [ -3.589, 41.044 ], [ -3.5896, 41.0442 ], [ -3.59, 41.0445 ], [ -3.5913, 41.0448 ], [ -3.5928, 41.0448 ], [ -3.5949, 41.0446 ] ] ] } },
{ "type": "Feature", "properties": { "municipio": "Piñuécar-Gandullas", "clasificacion": "no-urbanizable-protegido", "calificacion": "sin-asignar", "version": "vigente", "fuente": "SIT-CAM WFS — UsoDelSuelo:VPLA_V_CLASIFICACION (https://idem.comunidad.madrid/geosrvg/ows)", "fecha_dato": "2026-05-12", "ambito": "329", "_raw_CD_SIGLAS": "SNUP", "_raw_DS_CLASIF_GEN": "Suelo No Urbanizable Protegido", "_raw_DS_CLASIF_DET": "Suelo No Urbanizable especialmente protegido por su interés cultural", "_raw_DS_DOCU": "NORMAS SUBSIDIARIAS", "_raw_DS_LEY": "CM Ley 4/1984, E RDL 1/1992", "_raw_FC_AC": "1994-01-13", "_raw_NM_AREA_M2": 2701.07845655048, "_cam_code": "114" }, "geometry": { "type": "Polygon", "coordinates": [ [ [ -3.5986, 41.0353 ], [ -3.5985, 41.0356 ], [ -3.5987, 41.0357 ], [ -3.5993, 41.0357 ], [ -3.5994, 41.0353 ], [ -3.5986, 41.0353 ] ] ] } },
{ "type": "Feature", "properties": { "municipio": "Piñuécar-Gandullas", "clasificacion": "no-urbanizable-protegido", "calificacion": "sin-asignar", "version": "vigente", "fuente": "SIT-CAM WFS — UsoDelSuelo:VPLA_V_CLASIFICACION (https://idem.comunidad.madrid/geosrvg/ows)", "fecha_dato": "2026-05-12", "ambito": "329", "_raw_CD_SIGLAS": "SNUP", "_raw_DS_CLASIF_GEN": "Suelo No Urbanizable Protegido", "_raw_DS_CLASIF_DET": "Suelo No Urbanizable especialmente protegido por su interés cultural", "_raw_DS_DOCU": "NORMAS SUBSIDIARIAS", "_raw_DS_LEY": "CM Ley 4/1984, E RDL 1/1992", "_raw_FC_AC": "1994-01-13", "_raw_NM_AREA_M2": 3436.5626828024301, "_cam_code": "114" }, "geometry": { "type": "Polygon", "coordinates": [ [ [ -3.5986, 41.0348 ], [ -3.5986, 41.035 ], [ -3.5989, 41.0351 ], [ -3.5996, 41.035 ], [ -3.5995, 41.0346 ], [ -3.5986, 41.0348 ] ] ] } },
{ "type": "Feature", "properties": { "municipio": "Piñuécar-Gandullas", "clasificacion": "no-urbanizable-protegido", "calificacion": "sin-asignar", "version": "vigente", "fuente": "SIT-CAM WFS — UsoDelSuelo:VPLA_V_CLASIFICACION (https://idem.comunidad.madrid/geosrvg/ows)", "fecha_dato": "2026-05-12", "ambito": "329", "_raw_CD_SIGLAS": "SNUP", "_raw_DS_CLASIF_GEN": "Suelo No Urbanizable Protegido", "_raw_DS_CLASIF_DET": "Suelo No Urbanizable especialmente protegido por su interés cultural", "_raw_DS_DOCU": "NORMAS SUBSIDIARIAS", "_raw_DS_LEY": "CM Ley 4/1984, E RDL 1/1992", "_raw_FC_AC": "1994-01-13", "_raw_NM_AREA_M2": 44743.940805466598, "_cam_code": "114" }, "geometry": { "type": "Polygon", "coordinates": [ [ [ -3.6069, 41.0097 ], [ -3.6077, 41.0106 ], [ -3.6083, 41.0107 ], [ -3.6083, 41.0108 ], [ -3.6091, 41.0108 ], [ -3.6103, 41.0104 ], [ -3.6108, 41.0098 ], [ -3.6093, 41.0099 ], [ -3.608, 41.0089 ], [ -3.6083, 41.0085 ], [ -3.6075, 41.008 ], [ -3.607, 41.0088 ], [ -3.6069, 41.0088 ], [ -3.6069, 41.0097 ] ] ] } },
{ "type": "Feature", "properties": { "municipio": "Piñuécar-Gandullas", "clasificacion": "no-urbanizable-protegido", "calificacion": "sin-asignar", "version": "vigente", "fuente": "SIT-CAM WFS — UsoDelSuelo:VPLA_V_CLASIFICACION (https://idem.comunidad.madrid/geosrvg/ows)", "fecha_dato": "2026-05-12", "ambito": "329", "_raw_CD_SIGLAS": "SNUP", "_raw_DS_CLASIF_GEN": "Suelo No Urbanizable Protegido", "_raw_DS_CLASIF_DET": "Suelo No Urbanizable especialmente protegido por su interés cultural", "_raw_DS_DOCU": "NORMAS SUBSIDIARIAS", "_raw_DS_LEY": "CM Ley 4/1984, E RDL 1/1992", "_raw_FC_AC": "1994-01-13", "_raw_NM_AREA_M2": 21748.302405844199, "_cam_code": "114" }, "geometry": { "type": "Polygon", "coordinates": [ [ [ -3.6139, 41.0796 ], [ -3.614, 41.0799 ], [ -3.6144, 41.0798 ], [ -3.6144, 41.0797 ], [ -3.6142, 41.0798 ], [ -3.6141, 41.0794 ], [ -3.6138, 41.0791 ], [ -3.6137, 41.0788 ], [ -3.6123, 41.0777 ], [ -3.6121, 41.0777 ], [ -3.6114, 41.0772 ], [ -3.6107, 41.0765 ], [ -3.6102, 41.0755 ], [ -3.6094, 41.0745 ], [ -3.6094, 41.0748 ], [ -3.6106, 41.0769 ], [ -3.6118, 41.0779 ], [ -3.6129, 41.0786 ], [ -3.6139, 41.0796 ] ] ] } },
{ "type": "Feature", "properties": { "municipio": "Piñuécar-Gandullas", "clasificacion": "no-urbanizable-protegido", "calificacion": "sin-asignar", "version": "vigente", "fuente": "SIT-CAM WFS — UsoDelSuelo:VPLA_V_CLASIFICACION (https://idem.comunidad.madrid/geosrvg/ows)", "fecha_dato": "2026-05-12", "ambito": "329", "_raw_CD_SIGLAS": "SNUP", "_raw_DS_CLASIF_GEN": "Suelo No Urbanizable Protegido", "_raw_DS_CLASIF_DET": "Suelo No Urbanizable especialmente protegido por su interés cultural", "_raw_DS_DOCU": "NORMAS SUBSIDIARIAS", "_raw_DS_LEY": "CM Ley 4/1984, E RDL 1/1992", "_raw_FC_AC": "1994-01-13", "_raw_NM_AREA_M2": 239714.04806127501, "_cam_code": "114" }, "geometry": { "type": "Polygon", "coordinates": [ [ [ -3.6095, 41.0716 ], [ -3.6095, 41.0724 ], [ -3.6095, 41.0728 ], [ -3.6099, 41.0723 ], [ -3.6101, 41.0718 ], [ -3.61, 41.0715 ], [ -3.61, 41.0705 ], [ -3.6102, 41.0701 ], [ -3.6102, 41.0697 ], [ -3.6101, 41.0697 ], [ -3.6107, 41.0673 ], [ -3.6108, 41.0673 ], [ -3.6112, 41.0666 ], [ -3.6116, 41.0649 ], [ -3.6119, 41.0645 ], [ -3.612, 41.0638 ], [ -3.6117, 41.0625 ], [ -3.6122, 41.0618 ], [ -3.6132, 41.0609 ], [ -3.6138, 41.06 ], [ -3.6144, 41.0586 ], [ -3.6143, 41.0549 ], [ -3.6145, 41.0545 ], [ -3.6144, 41.0544 ], [ -3.6146, 41.0536 ], [ -3.6149, 41.053 ], [ -3.6155, 41.0488 ], [ -3.6167, 41.0489 ], [ -3.6169, 41.0491 ], [ -3.6169, 41.0496 ], [ -3.6164, 41.0509 ], [ -3.6173, 41.0493 ], [ -3.6176, 41.0492 ], [ -3.6175, 41.049 ], [ -3.6176, 41.0489 ], [ -3.6177, 41.0475 ], [ -3.618, 41.0468 ], [ -3.6197, 41.0445 ], [ -3.6194, 41.0442 ], [ -3.6178, 41.0465 ], [ -3.6174, 41.0474 ], [ -3.6172, 41.0474 ], [ -3.6172, 41.0462 ], [ -3.6169, 41.0454 ], [ -3.6171, 41.0448 ], [ -3.6168, 41.0438 ], [ -3.6166, 41.0451 ], [ -3.6167, 41.048 ], [ -3.6165, 41.0482 ], [ -3.6153, 41.0483 ], [ -3.6145, 41.0528 ], [ -3.6143, 41.0528 ], [ -3.613, 41.0521 ], [ -3.6117, 41.0518 ], [ -3.6106, 41.0517 ], [ -3.6097, 41.0519 ], [ -3.6084, 41.0519 ], [ -3.6079, 41.0516 ], [ -3.6077, 41.051 ], [ -3.607, 41.051 ], [ -3.6067, 41.0519 ], [ -3.6064, 41.052 ], [ -3.6051, 41.0534 ], [ -3.6043, 41.054 ], [ -3.6047, 41.0543 ], [ -3.6054, 41.0534 ], [ -3.6064, 41.0527 ], [ -3.6089, 41.0521 ], [ -3.6102, 41.052 ], [ -3.6118, 41.0521 ], [ -3.6135, 41.0525 ], [ -3.6144, 41.0532 ], [ -3.6128, 41.057 ], [ -3.6122, 41.0578 ], [ -3.6099, 41.062 ], [ -3.6092, 41.0626 ], [ -3.608, 41.0649 ], [ -3.6083, 41.0653 ], [ -3.6095, 41.0632 ], [ -3.6096, 41.0632 ], [ -3.6099, 41.0624 ], [ -3.6105, 41.0614 ], [ -3.6119, 41.0603 ], [ -3.6138, 41.0567 ], [ -3.614, 41.056 ], [ -3.6141, 41.0585 ], [ -3.6135, 41.0599 ], [ -3.6129, 41.0608 ], [ -3.6122, 41.0615 ], [ -3.6119, 41.0616 ], [ -3.6114, 41.0625 ], [ -3.6117, 41.0638 ], [ -3.6111, 41.0654 ], [ -3.611, 41.0663 ], [ -3.6098, 41.069 ], [ -3.6097, 41.069 ], [ -3.6096, 41.0687 ], [ -3.6096, 41.0694 ], [ -3.6098, 41.07 ], [ -3.6095, 41.0711 ], [ -3.6095, 41.0716 ] ] ] } },
{ "type": "Feature", "properties": { "municipio": "Piñuécar-Gandullas", "clasificacion": "no-urbanizable-protegido", "calificacion": "sin-asignar", "version": "vigente", "fuente": "SIT-CAM WFS — UsoDelSuelo:VPLA_V_CLASIFICACION (https://idem.comunidad.madrid/geosrvg/ows)", "fecha_dato": "2026-05-12", "ambito": "329", "_raw_CD_SIGLAS": "SNUP", "_raw_DS_CLASIF_GEN": "Suelo No Urbanizable Protegido", "_raw_DS_CLASIF_DET": "Suelo No Urbanizable especialmente protegido por su interés cultural", "_raw_DS_DOCU": "NORMAS SUBSIDIARIAS", "_raw_DS_LEY": "CM Ley 4/1984, E RDL 1/1992", "_raw_FC_AC": "1994-01-13", "_raw_NM_AREA_M2": 16749.803618072099, "_cam_code": "114" }, "geometry": { "type": "Polygon", "coordinates": [ [ [ -3.5955, 41.0448 ], [ -3.5956, 41.0455 ], [ -3.5959, 41.046 ], [ -3.5962, 41.0462 ], [ -3.5964, 41.0475 ], [ -3.5973, 41.0487 ], [ -3.5973, 41.0491 ], [ -3.597, 41.0498 ], [ -3.5973, 41.0499 ], [ -3.5976, 41.0491 ], [ -3.5976, 41.0486 ], [ -3.5966, 41.0472 ], [ -3.5964, 41.0458 ], [ -3.5959, 41.0453 ], [ -3.596, 41.0448 ], [ -3.5955, 41.0448 ] ] ] } },
{ "type": "Feature", "properties": { "municipio": "Piñuécar-Gandullas", "clasificacion": "urbano-consolidado", "calificacion": "sin-asignar", "version": "vigente", "fuente": "SIT-CAM WFS — UsoDelSuelo:VPLA_V_CLASIFICACION (https://idem.comunidad.madrid/geosrvg/ows)", "fecha_dato": "2026-05-12", "ambito": "329", "_raw_CD_SIGLAS": "SU", "_raw_DS_CLASIF_GEN": "Suelo Urbano", "_raw_DS_CLASIF_DET": "Suelo Urbano", "_raw_DS_DOCU": "NORMAS SUBSIDIARIAS", "_raw_DS_LEY": "CM Ley 4/1984, E RDL 1/1992", "_raw_FC_AC": "1994-01-13", "_raw_NM_AREA_M2": 107780.90280811299, "_cam_code": "114" }, "geometry": { "type": "Polygon", "coordinates": [ [ [ -3.5992, 41.0343 ], [ -3.5992, 41.0345 ], [ -3.5995, 41.0343 ], [ -3.5995, 41.0344 ], [ -3.5998, 41.0344 ], [ -3.5998, 41.0342 ], [ -3.6007, 41.0343 ], [ -3.6007, 41.0342 ], [ -3.601, 41.0341 ], [ -3.6005, 41.0338 ], [ -3.5998, 41.0336 ], [ -3.5997, 41.0333 ], [ -3.5999, 41.0332 ], [ -3.6, 41.0333 ], [ -3.6003, 41.033 ], [ -3.6007, 41.033 ], [ -3.6011, 41.0332 ], [ -3.601, 41.033 ], [ -3.6013, 41.0327 ], [ -3.6021, 41.0326 ], [ -3.6034, 41.0329 ], [ -3.6051, 41.033 ], [ -3.6052, 41.0331 ], [ -3.6053, 41.033 ], [ -3.6053, 41.0325 ], [ -3.6046, 41.0324 ], [ -3.6042, 41.032 ], [ -3.6039, 41.032 ], [ -3.6037, 41.0318 ], [ -3.6032, 41.0317 ], [ -3.6032, 41.0316 ], [ -3.6029, 41.0316 ], [ -3.6028, 41.032 ], [ -3.6027, 41.032 ], [ -3.6025, 41.0317 ], [ -3.6022, 41.0316 ], [ -3.6022, 41.0314 ], [ -3.6014, 41.0309 ], [ -3.6012, 41.0303 ], [ -3.6001, 41.0305 ], [ -3.6003, 41.0311 ], [ -3.6001, 41.0311 ], [ -3.5999, 41.0314 ], [ -3.5997, 41.0314 ], [ -3.5991, 41.032 ], [ -3.5989, 41.032 ], [ -3.599, 41.0322 ], [ -3.5983, 41.0323 ], [ -3.5984, 41.0324 ], [ -3.5981, 41.0328 ], [ -3.5984, 41.0329 ], [ -3.5981, 41.0332 ], [ -3.5976, 41.0334 ], [ -3.5978, 41.0339 ], [ -3.5983, 41.0338 ], [ -3.5983, 41.0337 ], [ -3.5997, 41.0336 ], [ -3.5996, 41.034 ], [ -3.5994, 41.0342 ], [ -3.5992, 41.0342 ], [ -3.5992, 41.0343 ] ] ] } },
{ "type": "Feature", "properties": { "municipio": "Piñuécar-Gandullas", "clasificacion": "urbano-consolidado", "calificacion": "sin-asignar", "version": "vigente", "fuente": "SIT-CAM WFS — UsoDelSuelo:VPLA_V_CLASIFICACION (https://idem.comunidad.madrid/geosrvg/ows)", "fecha_dato": "2026-05-12", "ambito": "329", "_raw_CD_SIGLAS": "SU", "_raw_DS_CLASIF_GEN": "Suelo Urbano", "_raw_DS_CLASIF_DET": "Suelo Urbano", "_raw_DS_DOCU": "NORMAS SUBSIDIARIAS", "_raw_DS_LEY": "CM Ley 4/1984, E RDL 1/1992", "_raw_FC_AC": "1994-01-13", "_raw_NM_AREA_M2": 64390.3025172712, "_cam_code": "114" }, "geometry": { "type": "Polygon", "coordinates": [ [ [ -3.6026, 41.0134 ], [ -3.6027, 41.0137 ], [ -3.6027, 41.0136 ], [ -3.6033, 41.0136 ], [ -3.6031, 41.0129 ], [ -3.6034, 41.0127 ], [ -3.6033, 41.0126 ], [ -3.6035, 41.0124 ], [ -3.6034, 41.0123 ], [ -3.6038, 41.012 ], [ -3.6027, 41.011 ], [ -3.6022, 41.0108 ], [ -3.6017, 41.0108 ], [ -3.6018, 41.0109 ], [ -3.6012, 41.0109 ], [ -3.6006, 41.0112 ], [ -3.6005, 41.0115 ], [ -3.6003, 41.0116 ], [ -3.5999, 41.0115 ], [ -3.5997, 41.012 ], [ -3.5999, 41.0126 ], [ -3.6005, 41.0126 ], [ -3.6008, 41.013 ], [ -3.601, 41.0129 ], [ -3.6021, 41.013 ], [ -3.6024, 41.0135 ], [ -3.6026, 41.0134 ] ] ] } },
{ "type": "Feature", "properties": { "municipio": "Piñuécar-Gandullas", "clasificacion": "urbanizable-no-sectorizado", "calificacion": "sin-asignar", "version": "vigente", "fuente": "SIT-CAM WFS — UsoDelSuelo:VPLA_V_CLASIFICACION (https://idem.comunidad.madrid/geosrvg/ows)", "fecha_dato": "2026-05-12", "ambito": "329", "_raw_CD_SIGLAS": "SUBNS", "_raw_DS_CLASIF_GEN": "Suelo No Urbanizable Común", "_raw_DS_CLASIF_DET": "Suelo No Urbanizable Común", "_raw_DS_DOCU": "NORMAS SUBSIDIARIAS", "_raw_DS_LEY": "CM Ley 4/1984, E RDL 1/1992", "_raw_FC_AC": "1994-01-13", "_raw_NM_AREA_M2": 39777.3565600039, "_cam_code": "114" }, "geometry": { "type": "Polygon", "coordinates": [ [ [ -3.6149, 41.0528 ], [ -3.6147, 41.0533 ], [ -3.6149, 41.0534 ], [ -3.6151, 41.0527 ], [ -3.6161, 41.0515 ], [ -3.6167, 41.0502 ], [ -3.6169, 41.0496 ], [ -3.6169, 41.0491 ], [ -3.6167, 41.0489 ], [ -3.6155, 41.0488 ], [ -3.6149, 41.0528 ] ] ] } },
{ "type": "Feature", "properties": { "municipio": "Piñuécar-Gandullas", "clasificacion": "urbanizable-no-sectorizado", "calificacion": "sin-asignar", "version": "vigente", "fuente": "SIT-CAM WFS — UsoDelSuelo:VPLA_V_CLASIFICACION (https://idem.comunidad.madrid/geosrvg/ows)", "fecha_dato": "2026-05-12", "ambito": "329", "_raw_CD_SIGLAS": "SUBNS", "_raw_DS_CLASIF_GEN": "Suelo No Urbanizable Común", "_raw_DS_CLASIF_DET": "Suelo No Urbanizable Común", "_raw_DS_DOCU": "NORMAS SUBSIDIARIAS", "_raw_DS_LEY": "CM Ley 4/1984, E RDL 1/1992", "_raw_FC_AC": "1994-01-13", "_raw_NM_AREA_M2": 1816859.32359285, "_cam_code": "114" }, "geometry": { "type": "Polygon", "coordinates": [ [ [ -3.6148, 41.0477 ], [ -3.615, 41.0489 ], [ -3.6152, 41.0489 ], [ -3.6153, 41.0483 ], [ -3.6165, 41.0482 ], [ -3.6167, 41.048 ], [ -3.6166, 41.0451 ], [ -3.6168, 41.0438 ], [ -3.6171, 41.0448 ], [ -3.6169, 41.0454 ], [ -3.6172, 41.0462 ], [ -3.6172, 41.0474 ], [ -3.6174, 41.0474 ], [ -3.6178, 41.0465 ], [ -3.6194, 41.0442 ], [ -3.6191, 41.044 ], [ -3.6191, 41.0438 ], [ -3.6189, 41.0436 ], [ -3.6184, 41.0435 ], [ -3.6179, 41.0428 ], [ -3.6172, 41.0427 ], [ -3.6168, 41.0423 ], [ -3.6169, 41.0415 ], [ -3.6167, 41.0409 ], [ -3.6166, 41.0409 ], [ -3.6166, 41.0405 ], [ -3.6163, 41.0402 ], [ -3.6162, 41.0396 ], [ -3.6162, 41.0383 ], [ -3.6163, 41.038 ], [ -3.6162, 41.0358 ], [ -3.6164, 41.0347 ], [ -3.6151, 41.0336 ], [ -3.6136, 41.031 ], [ -3.6126, 41.0269 ], [ -3.6123, 41.0247 ], [ -3.6121, 41.0248 ], [ -3.6111, 41.0248 ], [ -3.6103, 41.0243 ], [ -3.6102, 41.0241 ], [ -3.6093, 41.0239 ], [ -3.6083, 41.0231 ], [ -3.6086, 41.0228 ], [ -3.6089, 41.0227 ], [ -3.6097, 41.0216 ], [ -3.6096, 41.0216 ], [ -3.6097, 41.0213 ], [ -3.6103, 41.0208 ], [ -3.6095, 41.0214 ], [ -3.6091, 41.0214 ], [ -3.6115, 41.0192 ], [ -3.6111, 41.0177 ], [ -3.6096, 41.016 ], [ -3.6087, 41.0146 ], [ -3.608, 41.0142 ], [ -3.6069, 41.014 ], [ -3.6067, 41.0141 ], [ -3.6062, 41.015 ], [ -3.6057, 41.0153 ], [ -3.6056, 41.0157 ], [ -3.604, 41.0177 ], [ -3.6037, 41.0186 ], [ -3.6035, 41.0188 ], [ -3.6027, 41.019 ], [ -3.6025, 41.0196 ], [ -3.6022, 41.0199 ], [ -3.6027, 41.0208 ], [ -3.6031, 41.0208 ], [ -3.6031, 41.0207 ], [ -3.6034, 41.0208 ], [ -3.6054, 41.0207 ], [ -3.6056, 41.0206 ], [ -3.6057, 41.0201 ], [ -3.6067, 41.0202 ], [ -3.6066, 41.0209 ], [ -3.6077, 41.021 ], [ -3.6078, 41.0213 ], [ -3.6077, 41.0215 ], [ -3.607, 41.0214 ], [ -3.6067, 41.0223 ], [ -3.6058, 41.0222 ], [ -3.6047, 41.0225 ], [ -3.6044, 41.0227 ], [ -3.6033, 41.0228 ], [ -3.6032, 41.0229 ], [ -3.6029, 41.0225 ], [ -3.6029, 41.0222 ], [ -3.6009, 41.0213 ], [ -3.6004, 41.0226 ], [ -3.6001, 41.0245 ], [ -3.5997, 41.0252 ], [ -3.5997, 41.0257 ], [ -3.5996, 41.0258 ], [ -3.6012, 41.0262 ], [ -3.6012, 41.0271 ], [ -3.601, 41.0273 ], [ -3.6012, 41.0282 ], [ -3.6001, 41.0293 ], [ -3.6, 41.03 ], [ -3.6001, 41.0302 ], [ -3.6011, 41.0301 ], [ -3.6014, 41.0309 ], [ -3.6022, 41.0314 ], [ -3.6022, 41.0316 ], [ -3.6025, 41.0317 ], [ -3.6027, 41.032 ], [ -3.6028, 41.032 ], [ -3.6029, 41.0316 ], [ -3.6032, 41.0316 ], [ -3.6032, 41.0317 ], [ -3.6037, 41.0318 ], [ -3.6039, 41.032 ], [ -3.604, 41.0315 ], [ -3.6036, 41.031 ], [ -3.6038, 41.0305 ], [ -3.6045, 41.0304 ], [ -3.6047, 41.0302 ], [ -3.6065, 41.0301 ], [ -3.6068, 41.0299 ], [ -3.6077, 41.0297 ], [ -3.6081, 41.0307 ], [ -3.6082, 41.0307 ], [ -3.608, 41.0309 ], [ -3.6076, 41.031 ], [ -3.6073, 41.0314 ], [ -3.6075, 41.0316 ], [ -3.6077, 41.0316 ], [ -3.6077, 41.0317 ], [ -3.6082, 41.0317 ], [ -3.6083, 41.0318 ], [ -3.608, 41.0329 ], [ -3.6085, 41.0328 ], [ -3.6085, 41.0338 ], [ -3.6098, 41.0334 ], [ -3.6117, 41.0337 ], [ -3.6117, 41.0338 ], [ -3.6123, 41.0341 ], [ -3.6131, 41.0349 ], [ -3.6134, 41.0354 ], [ -3.6138, 41.0378 ], [ -3.6137, 41.041 ], [ -3.6145, 41.0419 ], [ -3.6152, 41.0436 ], [ -3.6153, 41.0436 ], [ -3.6153, 41.0448 ], [ -3.6154, 41.0453 ], [ -3.6156, 41.0456 ], [ -3.6155, 41.0463 ], [ -3.6153, 41.0465 ], [ -3.6152, 41.047 ], [ -3.6148, 41.0477 ] ] ] } },
{ "type": "Feature", "properties": { "municipio": "Piñuécar-Gandullas", "clasificacion": "urbanizable-no-sectorizado", "calificacion": "sin-asignar", "version": "vigente", "fuente": "SIT-CAM WFS — UsoDelSuelo:VPLA_V_CLASIFICACION (https://idem.comunidad.madrid/geosrvg/ows)", "fecha_dato": "2026-05-12", "ambito": "329", "_raw_CD_SIGLAS": "SUBNS", "_raw_DS_CLASIF_GEN": "Suelo No Urbanizable Común", "_raw_DS_CLASIF_DET": "Suelo No Urbanizable Común", "_raw_DS_DOCU": "NORMAS SUBSIDIARIAS", "_raw_DS_LEY": "CM Ley 4/1984, E RDL 1/1992", "_raw_FC_AC": "1994-01-13", "_raw_NM_AREA_M2": 260393.79328976499, "_cam_code": "114" }, "geometry": { "type": "Polygon", "coordinates": [ [ [ -3.5888, 41.0419 ], [ -3.5876, 41.0431 ], [ -3.5894, 41.0431 ], [ -3.593, 41.0423 ], [ -3.595, 41.042 ], [ -3.5979, 41.0421 ], [ -3.5975, 41.0414 ], [ -3.5975, 41.0407 ], [ -3.5978, 41.0403 ], [ -3.5985, 41.0399 ], [ -3.5986, 41.0382 ], [ -3.5966, 41.0388 ], [ -3.5956, 41.0387 ], [ -3.5949, 41.0389 ], [ -3.5943, 41.0389 ], [ -3.5939, 41.0391 ], [ -3.5935, 41.0391 ], [ -3.5924, 41.0394 ], [ -3.5921, 41.0396 ], [ -3.5918, 41.0396 ], [ -3.5902, 41.0405 ], [ -3.5894, 41.0413 ], [ -3.5888, 41.0417 ], [ -3.5888, 41.0419 ] ] ] } },
{ "type": "Feature", "properties": { "municipio": "Piñuécar-Gandullas", "clasificacion": "urbanizable-no-sectorizado", "calificacion": "sin-asignar", "version": "vigente", "fuente": "SIT-CAM WFS — UsoDelSuelo:VPLA_V_CLASIFICACION (https://idem.comunidad.madrid/geosrvg/ows)", "fecha_dato": "2026-05-12", "ambito": "329", "_raw_CD_SIGLAS": "SUBNS", "_raw_DS_CLASIF_GEN": "Suelo No Urbanizable Común", "_raw_DS_CLASIF_DET": "Suelo No Urbanizable Común", "_raw_DS_DOCU": "NORMAS SUBSIDIARIAS", "_raw_DS_LEY": "CM Ley 4/1984, E RDL 1/1992", "_raw_FC_AC": "1994-01-13", "_raw_NM_AREA_M2": 17267.126030997901, "_cam_code": "114" }, "geometry": { "type": "Polygon", "coordinates": [ [ [ -3.6004, 41.0379 ], [ -3.5989, 41.0382 ], [ -3.5989, 41.0396 ], [ -3.5987, 41.04 ], [ -3.6002, 41.0388 ], [ -3.6003, 41.0385 ], [ -3.6004, 41.0385 ], [ -3.6004, 41.0379 ] ] ] } },
{ "type": "Feature", "properties": { "municipio": "Piñuécar-Gandullas", "clasificacion": "urbanizable-no-sectorizado", "calificacion": "sin-asignar", "version": "vigente", "fuente": "SIT-CAM WFS — UsoDelSuelo:VPLA_V_CLASIFICACION (https://idem.comunidad.madrid/geosrvg/ows)", "fecha_dato": "2026-05-12", "ambito": "329", "_raw_CD_SIGLAS": "SUBNS", "_raw_DS_CLASIF_GEN": "Suelo No Urbanizable Común", "_raw_DS_CLASIF_DET": "Suelo No Urbanizable Común", "_raw_DS_DOCU": "NORMAS SUBSIDIARIAS", "_raw_DS_LEY": "CM Ley 4/1984, E RDL 1/1992", "_raw_FC_AC": "1994-01-13", "_raw_NM_AREA_M2": 291606.29874043103, "_cam_code": "114" }, "geometry": { "type": "Polygon", "coordinates": [ [ [ -3.6144, 41.0117 ], [ -3.6134, 41.0118 ], [ -3.6126, 41.0125 ], [ -3.6094, 41.0136 ], [ -3.6084, 41.0141 ], [ -3.6092, 41.015 ], [ -3.6093, 41.0153 ], [ -3.6111, 41.0172 ], [ -3.6115, 41.0181 ], [ -3.6118, 41.0192 ], [ -3.6125, 41.0184 ], [ -3.615, 41.0143 ], [ -3.618, 41.013 ], [ -3.6181, 41.0127 ], [ -3.6177, 41.0117 ], [ -3.6173, 41.0115 ], [ -3.6172, 41.0116 ], [ -3.6167, 41.0116 ], [ -3.6166, 41.0115 ], [ -3.6148, 41.0113 ], [ -3.6144, 41.0117 ] ] ] } },
{ "type": "Feature", "properties": { "municipio": "Piñuécar-Gandullas", "clasificacion": "urbanizable-no-sectorizado", "calificacion": "sin-asignar", "version": "vigente", "fuente": "SIT-CAM WFS — UsoDelSuelo:VPLA_V_CLASIFICACION (https://idem.comunidad.madrid/geosrvg/ows)", "fecha_dato": "2026-05-12", "ambito": "329", "_raw_CD_SIGLAS": "SUBNS", "_raw_DS_CLASIF_GEN": "Suelo No Urbanizable Común", "_raw_DS_CLASIF_DET": "Suelo No Urbanizable Común", "_raw_DS_DOCU": "NORMAS SUBSIDIARIAS", "_raw_DS_LEY": "CM Ley 4/1984, E RDL 1/1992", "_raw_FC_AC": "1994-01-13", "_raw_NM_AREA_M2": 167424.83974416499, "_cam_code": "114" }, "geometry": { "type": "Polygon", "coordinates": [ [ [ -3.6066, 41.0141 ], [ -3.6068, 41.0139 ], [ -3.6085, 41.0139 ], [ -3.609, 41.0136 ], [ -3.6099, 41.0134 ], [ -3.6105, 41.0131 ], [ -3.6108, 41.0131 ], [ -3.6125, 41.0124 ], [ -3.6126, 41.0121 ], [ -3.613, 41.0117 ], [ -3.6141, 41.0116 ], [ -3.6143, 41.0115 ], [ -3.6143, 41.0113 ], [ -3.6139, 41.0111 ], [ -3.6133, 41.0111 ], [ -3.6132, 41.0109 ], [ -3.6112, 41.0102 ], [ -3.6104, 41.0102 ], [ -3.6103, 41.0104 ], [ -3.6091, 41.0108 ], [ -3.6083, 41.0108 ], [ -3.6083, 41.0107 ], [ -3.6062, 41.0124 ], [ -3.6054, 41.0134 ], [ -3.6061, 41.0136 ], [ -3.6066, 41.0141 ] ] ] } },
{ "type": "Feature", "properties": { "municipio": "Piñuécar-Gandullas", "clasificacion": "urbanizable-no-sectorizado", "calificacion": "sin-asignar", "version": "vigente", "fuente": "SIT-CAM WFS — UsoDelSuelo:VPLA_V_CLASIFICACION (https://idem.comunidad.madrid/geosrvg/ows)", "fecha_dato": "2026-05-12", "ambito": "329", "_raw_CD_SIGLAS": "SUBNS", "_raw_DS_CLASIF_GEN": "Suelo No Urbanizable Común", "_raw_DS_CLASIF_DET": "Suelo No Urbanizable Común", "_raw_DS_DOCU": "NORMAS SUBSIDIARIAS", "_raw_DS_LEY": "CM Ley 4/1984, E RDL 1/1992", "_raw_FC_AC": "1994-01-13", "_raw_NM_AREA_M2": 2135.1518866072101, "_cam_code": "114" }, "geometry": { "type": "Polygon", "coordinates": [ [ [ -3.6179, 41.0113 ], [ -3.6174, 41.0113 ], [ -3.6174, 41.0114 ], [ -3.6182, 41.012 ], [ -3.6183, 41.0113 ], [ -3.6179, 41.0113 ] ] ] } }
]
}
