{
"type": "FeatureCollection",
"name": "vigente.full",
"features": [
{ "type": "Feature", "properties": { "municipio": "Pinilla del Valle", "clasificacion": "no-urbanizable-protegido", "calificacion": "sin-asignar", "version": "vigente", "fuente": "SIT-CAM WFS — UsoDelSuelo:VPLA_V_CLASIFICACION (https://idem.comunidad.madrid/geosrvg/ows)", "fecha_dato": "2026-05-12", "ambito": "114", "_raw_CD_SIGLAS": "SNUP", "_raw_DS_CLASIF_GEN": "Suelo No Urbanizable Protegido", "_raw_DS_CLASIF_DET": null, "_raw_DS_DOCU": "NORMAS SUBSIDIARIAS", "_raw_DS_LEY": "CM Ley 4/1984, E RD 1346/1976", "_raw_FC_AC": "1985-04-11", "_raw_NM_AREA_M2": 198271.088906844, "_cam_code": "112" }, "geometry": { "type": "Polygon", "coordinates": [ [ [ -3.8219, 40.9328 ], [ -3.8224, 40.9333 ], [ -3.8241, 40.9328 ], [ -3.8252, 40.9328 ], [ -3.8265, 40.9325 ], [ -3.8273, 40.9326 ], [ -3.8285, 40.9324 ], [ -3.8298, 40.932 ], [ -3.83, 40.9318 ], [ -3.828, 40.9309 ], [ -3.826, 40.9303 ], [ -3.8244, 40.9293 ], [ -3.8239, 40.9293 ], [ -3.8238, 40.9292 ], [ -3.8227, 40.9299 ], [ -3.8216, 40.9303 ], [ -3.8201, 40.9314 ], [ -3.8207, 40.932 ], [ -3.8219, 40.9328 ] ] ] } },
{ "type": "Feature", "properties": { "municipio": "Pinilla del Valle", "clasificacion": "no-urbanizable-protegido", "calificacion": "sin-asignar", "version": "vigente", "fuente": "SIT-CAM WFS — UsoDelSuelo:VPLA_V_CLASIFICACION (https://idem.comunidad.madrid/geosrvg/ows)", "fecha_dato": "2026-05-12", "ambito": "114", "_raw_CD_SIGLAS": "SNUP", "_raw_DS_CLASIF_GEN": "Suelo No Urbanizable Protegido", "_raw_DS_CLASIF_DET": "Embalse", "_raw_DS_DOCU": "NORMAS SUBSIDIARIAS", "_raw_DS_LEY": "CM Ley 4/1984, E RD 1346/1976", "_raw_FC_AC": "1985-04-11", "_raw_NM_AREA_M2": 66887.319164208297, "_cam_code": "112" }, "geometry": { "type": "Polygon", "coordinates": [ [ [ -3.8188, 40.92 ], [ -3.8185, 40.9202 ], [ -3.82, 40.9219 ], [ -3.8211, 40.9215 ], [ -3.8211, 40.9208 ], [ -3.8217, 40.92 ], [ -3.8227, 40.9192 ], [ -3.8236, 40.9189 ], [ -3.8238, 40.9182 ], [ -3.8238, 40.9169 ], [ -3.8235, 40.917 ], [ -3.8233, 40.918 ], [ -3.8222, 40.9189 ], [ -3.8215, 40.9192 ], [ -3.8213, 40.9195 ], [ -3.8208, 40.9198 ], [ -3.8197, 40.9199 ], [ -3.8201, 40.9192 ], [ -3.8201, 40.9189 ], [ -3.8198, 40.9188 ], [ -3.8196, 40.9189 ], [ -3.8188, 40.92 ] ] ] } },
{ "type": "Feature", "properties": { "municipio": "Pinilla del Valle", "clasificacion": "no-urbanizable-protegido", "calificacion": "sin-asignar", "version": "vigente", "fuente": "SIT-CAM WFS — UsoDelSuelo:VPLA_V_CLASIFICACION (https://idem.comunidad.madrid/geosrvg/ows)", "fecha_dato": "2026-05-12", "ambito": "114", "_raw_CD_SIGLAS": "SNUP", "_raw_DS_CLASIF_GEN": "Suelo No Urbanizable Protegido", "_raw_DS_CLASIF_DET": "Embalse", "_raw_DS_DOCU": "NORMAS SUBSIDIARIAS", "_raw_DS_LEY": "CM Ley 4/1984, E RD 1346/1976", "_raw_FC_AC": "1985-04-11", "_raw_NM_AREA_M2": 709574.67530440295, "_cam_code": "112" }, "geometry": { "type": "Polygon", "coordinates": [ [ [ -3.8057, 40.9263 ], [ -3.8048, 40.9267 ], [ -3.8133, 40.9347 ], [ -3.8135, 40.9341 ], [ -3.8131, 40.9335 ], [ -3.8134, 40.9331 ], [ -3.8134, 40.9329 ], [ -3.813, 40.9326 ], [ -3.8131, 40.9319 ], [ -3.8127, 40.9315 ], [ -3.8127, 40.9307 ], [ -3.8125, 40.9304 ], [ -3.8126, 40.9298 ], [ -3.8131, 40.9295 ], [ -3.8131, 40.9292 ], [ -3.8134, 40.9288 ], [ -3.8141, 40.9284 ], [ -3.8161, 40.9264 ], [ -3.8161, 40.9263 ], [ -3.8151, 40.9263 ], [ -3.815, 40.9262 ], [ -3.8151, 40.926 ], [ -3.8156, 40.9259 ], [ -3.816, 40.9255 ], [ -3.8166, 40.9253 ], [ -3.8174, 40.9245 ], [ -3.8178, 40.9244 ], [ -3.8185, 40.9237 ], [ -3.8195, 40.9232 ], [ -3.8197, 40.9228 ], [ -3.8197, 40.9222 ], [ -3.8183, 40.9205 ], [ -3.8166, 40.9209 ], [ -3.8159, 40.9213 ], [ -3.8144, 40.9218 ], [ -3.8143, 40.9227 ], [ -3.8137, 40.9233 ], [ -3.8129, 40.9238 ], [ -3.8123, 40.9238 ], [ -3.8112, 40.9242 ], [ -3.8106, 40.9242 ], [ -3.8101, 40.9235 ], [ -3.8099, 40.9237 ], [ -3.8099, 40.924 ], [ -3.8093, 40.9248 ], [ -3.8088, 40.925 ], [ -3.8077, 40.9252 ], [ -3.807, 40.925 ], [ -3.8064, 40.9241 ], [ -3.8056, 40.9242 ], [ -3.8051, 40.9246 ], [ -3.8067, 40.9253 ], [ -3.807, 40.9259 ], [ -3.8067, 40.9261 ], [ -3.8057, 40.9263 ] ] ] } },
{ "type": "Feature", "properties": { "municipio": "Pinilla del Valle", "clasificacion": "no-urbanizable-protegido", "calificacion": "sin-asignar", "version": "vigente", "fuente": "SIT-CAM WFS — UsoDelSuelo:VPLA_V_CLASIFICACION (https://idem.comunidad.madrid/geosrvg/ows)", "fecha_dato": "2026-05-12", "ambito": "114", "_raw_CD_SIGLAS": "SNUP", "_raw_DS_CLASIF_GEN": "Suelo No Urbanizable Protegido", "_raw_DS_CLASIF_DET": "Espacios Libres", "_raw_DS_DOCU": "NORMAS SUBSIDIARIAS", "_raw_DS_LEY": "CM Ley 4/1984, E RD 1346/1976", "_raw_FC_AC": "1985-04-11", "_raw_NM_AREA_M2": 40546.532593807096, "_cam_code": "112" }, "geometry": { "type": "Polygon", "coordinates": [ [ [ -3.8161, 40.9263 ], [ -3.8152, 40.9274 ], [ -3.8148, 40.9277 ], [ -3.8156, 40.9285 ], [ -3.8167, 40.9276 ], [ -3.8166, 40.9276 ], [ -3.8167, 40.9268 ], [ -3.8172, 40.9263 ], [ -3.8168, 40.9259 ], [ -3.8167, 40.926 ], [ -3.8165, 40.9259 ], [ -3.8166, 40.9256 ], [ -3.8173, 40.9253 ], [ -3.8173, 40.9248 ], [ -3.8174, 40.9247 ], [ -3.8184, 40.9244 ], [ -3.8189, 40.9244 ], [ -3.8191, 40.9242 ], [ -3.8183, 40.924 ], [ -3.8182, 40.9243 ], [ -3.8174, 40.9245 ], [ -3.8169, 40.9251 ], [ -3.816, 40.9255 ], [ -3.8156, 40.9259 ], [ -3.8151, 40.926 ], [ -3.815, 40.9262 ], [ -3.8151, 40.9263 ], [ -3.8161, 40.9263 ] ] ] } },
{ "type": "Feature", "properties": { "municipio": "Pinilla del Valle", "clasificacion": "no-urbanizable-protegido", "calificacion": "sin-asignar", "version": "vigente", "fuente": "SIT-CAM WFS — UsoDelSuelo:VPLA_V_CLASIFICACION (https://idem.comunidad.madrid/geosrvg/ows)", "fecha_dato": "2026-05-12", "ambito": "114", "_raw_CD_SIGLAS": "SNUP", "_raw_DS_CLASIF_GEN": "Suelo No Urbanizable Protegido", "_raw_DS_CLASIF_DET": "Espacios Libres", "_raw_DS_DOCU": "NORMAS SUBSIDIARIAS", "_raw_DS_LEY": "CM Ley 4/1984, E RD 1346/1976", "_raw_FC_AC": "1985-04-11", "_raw_NM_AREA_M2": 5807.1454479782296, "_cam_code": "112" }, "geometry": { "type": "Polygon", "coordinates": [ [ [ -3.8251, 40.9291 ], [ -3.8253, 40.9291 ], [ -3.8255, 40.9293 ], [ -3.825, 40.9287 ], [ -3.8245, 40.9286 ], [ -3.8242, 40.9283 ], [ -3.8242, 40.928 ], [ -3.8238, 40.928 ], [ -3.8237, 40.9282 ], [ -3.8243, 40.9288 ], [ -3.8247, 40.9291 ], [ -3.8251, 40.9291 ] ] ] } },
{ "type": "Feature", "properties": { "municipio": "Pinilla del Valle", "clasificacion": "no-urbanizable-protegido", "calificacion": "sin-asignar", "version": "vigente", "fuente": "SIT-CAM WFS — UsoDelSuelo:VPLA_V_CLASIFICACION (https://idem.comunidad.madrid/geosrvg/ows)", "fecha_dato": "2026-05-12", "ambito": "114", "_raw_CD_SIGLAS": "SNUP", "_raw_DS_CLASIF_GEN": "Suelo No Urbanizable Protegido", "_raw_DS_CLASIF_DET": null, "_raw_DS_DOCU": "NORMAS SUBSIDIARIAS", "_raw_DS_LEY": "CM Ley 4/1984, E RD 1346/1976", "_raw_FC_AC": "1985-04-11", "_raw_NM_AREA_M2": 6288993.3550298596, "_cam_code": "112" }, "geometry": { "type": "Polygon", "coordinates": [ [ [ -3.787, 40.9133 ], [ -3.7894, 40.9138 ], [ -3.7925, 40.9159 ], [ -3.7968, 40.9194 ], [ -3.8008, 40.9234 ], [ -3.8015, 40.9239 ], [ -3.8027, 40.9232 ], [ -3.8033, 40.9227 ], [ -3.8045, 40.9221 ], [ -3.805, 40.9216 ], [ -3.8057, 40.9214 ], [ -3.8061, 40.9203 ], [ -3.8082, 40.9197 ], [ -3.8091, 40.919 ], [ -3.8093, 40.9184 ], [ -3.8101, 40.9185 ], [ -3.8116, 40.9179 ], [ -3.8125, 40.917 ], [ -3.8131, 40.9167 ], [ -3.8138, 40.916 ], [ -3.8149, 40.9155 ], [ -3.8159, 40.9155 ], [ -3.8164, 40.9153 ], [ -3.8182, 40.9108 ], [ -3.8186, 40.9102 ], [ -3.8198, 40.9106 ], [ -3.8196, 40.9129 ], [ -3.8203, 40.9133 ], [ -3.8236, 40.912 ], [ -3.8243, 40.9102 ], [ -3.8253, 40.9091 ], [ -3.8228, 40.9058 ], [ -3.8161, 40.899 ], [ -3.8143, 40.8975 ], [ -3.8132, 40.8963 ], [ -3.8124, 40.8957 ], [ -3.8101, 40.8932 ], [ -3.8086, 40.8921 ], [ -3.8087, 40.8882 ], [ -3.8085, 40.8884 ], [ -3.8069, 40.8891 ], [ -3.8061, 40.8898 ], [ -3.8042, 40.8908 ], [ -3.8035, 40.8914 ], [ -3.8027, 40.8932 ], [ -3.8023, 40.8949 ], [ -3.802, 40.8952 ], [ -3.8014, 40.8954 ], [ -3.801, 40.8964 ], [ -3.7999, 40.8969 ], [ -3.7994, 40.8976 ], [ -3.7986, 40.8993 ], [ -3.7985, 40.8998 ], [ -3.7986, 40.9012 ], [ -3.7985, 40.9014 ], [ -3.7954, 40.9025 ], [ -3.7939, 40.9037 ], [ -3.7924, 40.9046 ], [ -3.7918, 40.9052 ], [ -3.7907, 40.9056 ], [ -3.7894, 40.9063 ], [ -3.7886, 40.9064 ], [ -3.7886, 40.9066 ], [ -3.7879, 40.9078 ], [ -3.7879, 40.908 ], [ -3.7873, 40.9086 ], [ -3.7871, 40.909 ], [ -3.787, 40.9096 ], [ -3.7851, 40.9117 ], [ -3.7853, 40.9121 ], [ -3.7861, 40.9128 ], [ -3.787, 40.9133 ] ] ] } },
{ "type": "Feature", "properties": { "municipio": "Pinilla del Valle", "clasificacion": "no-urbanizable-protegido", "calificacion": "sin-asignar", "version": "vigente", "fuente": "SIT-CAM WFS — UsoDelSuelo:VPLA_V_CLASIFICACION (https://idem.comunidad.madrid/geosrvg/ows)", "fecha_dato": "2026-05-12", "ambito": "114", "_raw_CD_SIGLAS": "SNUP", "_raw_DS_CLASIF_GEN": "Suelo No Urbanizable Protegido", "_raw_DS_CLASIF_DET": null, "_raw_DS_DOCU": "NORMAS SUBSIDIARIAS", "_raw_DS_LEY": "CM Ley 4/1984, E RD 1346/1976", "_raw_FC_AC": "1985-04-11", "_raw_NM_AREA_M2": 12139560.9821948, "_cam_code": "112" }, "geometry": { "type": "Polygon", "coordinates": [ [ [ -3.8417, 40.9801 ], [ -3.8433, 40.9812 ], [ -3.8437, 40.9817 ], [ -3.8445, 40.9823 ], [ -3.846, 40.9811 ], [ -3.8474, 40.9794 ], [ -3.8487, 40.9794 ], [ -3.8498, 40.9792 ], [ -3.8562, 40.9794 ], [ -3.8593, 40.9792 ], [ -3.8617, 40.9774 ], [ -3.8639, 40.9746 ], [ -3.8648, 40.9742 ], [ -3.87, 40.9711 ], [ -3.8709, 40.9724 ], [ -3.8723, 40.9733 ], [ -3.874, 40.9748 ], [ -3.879, 40.9752 ], [ -3.8808, 40.9741 ], [ -3.8808, 40.9728 ], [ -3.8616, 40.9546 ], [ -3.8599, 40.9525 ], [ -3.8587, 40.9504 ], [ -3.8586, 40.9499 ], [ -3.8572, 40.9499 ], [ -3.8559, 40.9492 ], [ -3.8552, 40.9485 ], [ -3.8543, 40.9473 ], [ -3.8544, 40.9473 ], [ -3.8537, 40.9466 ], [ -3.8511, 40.9424 ], [ -3.85, 40.9411 ], [ -3.8498, 40.9402 ], [ -3.8493, 40.9393 ], [ -3.8485, 40.9384 ], [ -3.846, 40.9366 ], [ -3.8449, 40.9355 ], [ -3.8443, 40.9351 ], [ -3.8424, 40.9332 ], [ -3.8414, 40.9314 ], [ -3.8413, 40.9297 ], [ -3.8411, 40.9288 ], [ -3.8375, 40.931 ], [ -3.836, 40.9371 ], [ -3.8362, 40.9377 ], [ -3.8361, 40.9407 ], [ -3.8381, 40.9428 ], [ -3.8377, 40.9439 ], [ -3.8371, 40.9438 ], [ -3.8354, 40.9416 ], [ -3.8348, 40.9416 ], [ -3.8341, 40.9426 ], [ -3.8326, 40.9421 ], [ -3.8302, 40.9429 ], [ -3.8281, 40.9438 ], [ -3.8254, 40.9454 ], [ -3.8269, 40.946 ], [ -3.8279, 40.9471 ], [ -3.8286, 40.9484 ], [ -3.8305, 40.9503 ], [ -3.8332, 40.9574 ], [ -3.8338, 40.9611 ], [ -3.8336, 40.9648 ], [ -3.8329, 40.9673 ], [ -3.8356, 40.9714 ], [ -3.8366, 40.9734 ], [ -3.8374, 40.9744 ], [ -3.8388, 40.975 ], [ -3.8403, 40.9778 ], [ -3.8417, 40.9801 ] ] ] } },
{ "type": "Feature", "properties": { "municipio": "Pinilla del Valle", "clasificacion": "no-urbanizable-protegido", "calificacion": "sin-asignar", "version": "vigente", "fuente": "SIT-CAM WFS — UsoDelSuelo:VPLA_V_CLASIFICACION (https://idem.comunidad.madrid/geosrvg/ows)", "fecha_dato": "2026-05-12", "ambito": "114", "_raw_CD_SIGLAS": "SNUP", "_raw_DS_CLASIF_GEN": "Suelo No Urbanizable Protegido", "_raw_DS_CLASIF_DET": null, "_raw_DS_DOCU": "NORMAS SUBSIDIARIAS", "_raw_DS_LEY": "CM Ley 4/1984, E RD 1346/1976", "_raw_FC_AC": "1985-04-11", "_raw_NM_AREA_M2": 5789730.1364970496, "_cam_code": "112" }, "geometry": { "type": "GeometryCollection", "geometries": [ { "type": "Polygon", "coordinates": [ [ [ -3.8197, 40.9228 ], [ -3.8195, 40.9232 ], [ -3.8185, 40.9237 ], [ -3.8178, 40.9244 ], [ -3.8182, 40.9243 ], [ -3.8183, 40.924 ], [ -3.8185, 40.924 ], [ -3.8192, 40.9242 ], [ -3.8193, 40.9244 ], [ -3.8201, 40.9248 ], [ -3.8204, 40.9248 ], [ -3.8205, 40.925 ], [ -3.8214, 40.9255 ], [ -3.8221, 40.9261 ], [ -3.8221, 40.9263 ], [ -3.8228, 40.9267 ], [ -3.8227, 40.9268 ], [ -3.8237, 40.9278 ], [ -3.8242, 40.928 ], [ -3.8242, 40.9283 ], [ -3.8245, 40.9286 ], [ -3.825, 40.9287 ], [ -3.8255, 40.9293 ], [ -3.8253, 40.9291 ], [ -3.8247, 40.9291 ], [ -3.8243, 40.9288 ], [ -3.8246, 40.9292 ], [ -3.8243, 40.9292 ], [ -3.8219, 40.9283 ], [ -3.8217, 40.9285 ], [ -3.8211, 40.9281 ], [ -3.8202, 40.9283 ], [ -3.8192, 40.9288 ], [ -3.8187, 40.9289 ], [ -3.8185, 40.9288 ], [ -3.8186, 40.9281 ], [ -3.8176, 40.9277 ], [ -3.8175, 40.9279 ], [ -3.817, 40.9275 ], [ -3.8166, 40.9276 ], [ -3.8156, 40.9285 ], [ -3.8148, 40.9277 ], [ -3.8146, 40.9278 ], [ -3.8141, 40.9284 ], [ -3.8132, 40.929 ], [ -3.8131, 40.9295 ], [ -3.8126, 40.9298 ], [ -3.8125, 40.9304 ], [ -3.8127, 40.9307 ], [ -3.8127, 40.9315 ], [ -3.8131, 40.9319 ], [ -3.813, 40.9326 ], [ -3.8134, 40.9329 ], [ -3.8134, 40.9331 ], [ -3.8131, 40.9335 ], [ -3.8135, 40.9341 ], [ -3.8133, 40.9347 ], [ -3.8164, 40.9377 ], [ -3.8167, 40.9378 ], [ -3.8189, 40.94 ], [ -3.8191, 40.9405 ], [ -3.8194, 40.9407 ], [ -3.8198, 40.9413 ], [ -3.8235, 40.9438 ], [ -3.8242, 40.9446 ], [ -3.8254, 40.9454 ], [ -3.8281, 40.9438 ], [ -3.8302, 40.9429 ], [ -3.8326, 40.9421 ], [ -3.8341, 40.9426 ], [ -3.8348, 40.9416 ], [ -3.8354, 40.9416 ], [ -3.8371, 40.9438 ], [ -3.8377, 40.9439 ], [ -3.8381, 40.9428 ], [ -3.8361, 40.9407 ], [ -3.8362, 40.9377 ], [ -3.836, 40.9371 ], [ -3.8375, 40.931 ], [ -3.8411, 40.9288 ], [ -3.8409, 40.9272 ], [ -3.8406, 40.9263 ], [ -3.8398, 40.9255 ], [ -3.8395, 40.9248 ], [ -3.8383, 40.9243 ], [ -3.8375, 40.9238 ], [ -3.8373, 40.9238 ], [ -3.8372, 40.9237 ], [ -3.8374, 40.9235 ], [ -3.8369, 40.9234 ], [ -3.8367, 40.9231 ], [ -3.8359, 40.9225 ], [ -3.8356, 40.9225 ], [ -3.8347, 40.922 ], [ -3.8339, 40.922 ], [ -3.8333, 40.9218 ], [ -3.8328, 40.9214 ], [ -3.8328, 40.9212 ], [ -3.8325, 40.9209 ], [ -3.8316, 40.9206 ], [ -3.8313, 40.9201 ], [ -3.8303, 40.9195 ], [ -3.8303, 40.9193 ], [ -3.8299, 40.9189 ], [ -3.8295, 40.9189 ], [ -3.8294, 40.9184 ], [ -3.8287, 40.9176 ], [ -3.8285, 40.9171 ], [ -3.8293, 40.9169 ], [ -3.8301, 40.9169 ], [ -3.8301, 40.9167 ], [ -3.8297, 40.916 ], [ -3.8297, 40.9155 ], [ -3.8294, 40.9147 ], [ -3.8293, 40.9139 ], [ -3.828, 40.9115 ], [ -3.8271, 40.9112 ], [ -3.8253, 40.9091 ], [ -3.8243, 40.9102 ], [ -3.8236, 40.912 ], [ -3.8203, 40.9133 ], [ -3.8196, 40.9129 ], [ -3.8198, 40.9106 ], [ -3.8186, 40.9102 ], [ -3.8182, 40.9108 ], [ -3.8164, 40.9153 ], [ -3.8159, 40.9155 ], [ -3.8149, 40.9155 ], [ -3.8138, 40.916 ], [ -3.8131, 40.9167 ], [ -3.8125, 40.917 ], [ -3.8116, 40.9179 ], [ -3.8101, 40.9185 ], [ -3.8093, 40.9184 ], [ -3.8091, 40.919 ], [ -3.8082, 40.9197 ], [ -3.8061, 40.9203 ], [ -3.8057, 40.9214 ], [ -3.805, 40.9216 ], [ -3.8045, 40.9221 ], [ -3.8033, 40.9227 ], [ -3.8027, 40.9232 ], [ -3.8015, 40.9239 ], [ -3.8048, 40.9267 ], [ -3.8057, 40.9263 ], [ -3.8067, 40.9261 ], [ -3.807, 40.9259 ], [ -3.8067, 40.9253 ], [ -3.8051, 40.9246 ], [ -3.8056, 40.9242 ], [ -3.8064, 40.9241 ], [ -3.807, 40.925 ], [ -3.8077, 40.9252 ], [ -3.8088, 40.925 ], [ -3.8093, 40.9248 ], [ -3.8099, 40.924 ], [ -3.8099, 40.9237 ], [ -3.8101, 40.9235 ], [ -3.8106, 40.9242 ], [ -3.8112, 40.9242 ], [ -3.8123, 40.9238 ], [ -3.8129, 40.9238 ], [ -3.8137, 40.9233 ], [ -3.8143, 40.9227 ], [ -3.8144, 40.9218 ], [ -3.8159, 40.9213 ], [ -3.8166, 40.9209 ], [ -3.8183, 40.9205 ], [ -3.8197, 40.9222 ], [ -3.8197, 40.9228 ] ], [ [ -3.8233, 40.918 ], [ -3.8235, 40.917 ], [ -3.8238, 40.9169 ], [ -3.8238, 40.917 ], [ -3.8238, 40.9182 ], [ -3.8236, 40.9189 ], [ -3.8222, 40.9195 ], [ -3.8212, 40.9206 ], [ -3.8211, 40.9215 ], [ -3.82, 40.9219 ], [ -3.8185, 40.9202 ], [ -3.8188, 40.92 ], [ -3.8196, 40.9189 ], [ -3.8198, 40.9188 ], [ -3.8201, 40.9189 ], [ -3.8201, 40.9192 ], [ -3.8197, 40.9199 ], [ -3.8208, 40.9198 ], [ -3.8213, 40.9195 ], [ -3.8215, 40.9192 ], [ -3.8222, 40.9189 ], [ -3.8233, 40.918 ] ], [ [ -3.8273, 40.9326 ], [ -3.8265, 40.9325 ], [ -3.8252, 40.9328 ], [ -3.8241, 40.9328 ], [ -3.8224, 40.9333 ], [ -3.8219, 40.9328 ], [ -3.8207, 40.932 ], [ -3.8201, 40.9314 ], [ -3.8216, 40.9303 ], [ -3.8227, 40.9299 ], [ -3.8238, 40.9292 ], [ -3.8239, 40.9293 ], [ -3.8244, 40.9293 ], [ -3.826, 40.9303 ], [ -3.828, 40.9309 ], [ -3.83, 40.9318 ], [ -3.8298, 40.932 ], [ -3.8285, 40.9324 ], [ -3.8273, 40.9326 ] ] ] }, { "type": "LineString", "coordinates": [ [ -3.8174, 40.9245 ], [ -3.8178, 40.9244 ] ] } ] } },
{ "type": "Feature", "properties": { "municipio": "Pinilla del Valle", "clasificacion": "urbano-consolidado", "calificacion": "sin-asignar", "version": "vigente", "fuente": "SIT-CAM WFS — UsoDelSuelo:VPLA_V_CLASIFICACION (https://idem.comunidad.madrid/geosrvg/ows)", "fecha_dato": "2026-05-12", "ambito": "114", "_raw_CD_SIGLAS": "SU", "_raw_DS_CLASIF_GEN": "Suelo Urbano", "_raw_DS_CLASIF_DET": null, "_raw_DS_DOCU": "NORMAS SUBSIDIARIAS", "_raw_DS_LEY": "CM Ley 4/1984, E RD 1346/1976", "_raw_FC_AC": "1985-04-11", "_raw_NM_AREA_M2": 196247.86108097699, "_cam_code": "112" }, "geometry": { "type": "Polygon", "coordinates": [ [ [ -3.8243, 40.9292 ], [ -3.8246, 40.9292 ], [ -3.8246, 40.9291 ], [ -3.8237, 40.9282 ], [ -3.8238, 40.928 ], [ -3.824, 40.928 ], [ -3.8227, 40.9268 ], [ -3.8228, 40.9267 ], [ -3.8221, 40.9263 ], [ -3.8221, 40.9261 ], [ -3.8214, 40.9255 ], [ -3.8205, 40.925 ], [ -3.8204, 40.9248 ], [ -3.8201, 40.9248 ], [ -3.8193, 40.9244 ], [ -3.8192, 40.9242 ], [ -3.8189, 40.9244 ], [ -3.8184, 40.9244 ], [ -3.8174, 40.9247 ], [ -3.8173, 40.9248 ], [ -3.8173, 40.9253 ], [ -3.8166, 40.9256 ], [ -3.8165, 40.9258 ], [ -3.8166, 40.926 ], [ -3.8168, 40.9259 ], [ -3.8172, 40.9263 ], [ -3.8167, 40.9268 ], [ -3.8166, 40.9276 ], [ -3.817, 40.9275 ], [ -3.8175, 40.9279 ], [ -3.8176, 40.9277 ], [ -3.8186, 40.9281 ], [ -3.8185, 40.9288 ], [ -3.8187, 40.9289 ], [ -3.8192, 40.9288 ], [ -3.8202, 40.9283 ], [ -3.8211, 40.9281 ], [ -3.8217, 40.9285 ], [ -3.8219, 40.9283 ], [ -3.8243, 40.9292 ] ] ] } }
]
}
