{"type": "FeatureCollection", "features": [{"type": "Feature", "properties": {"municipio": "Guadarrama", "clasificacion": "urbanizable-sectorizado", "calificacion": "sin-asignar", "version": "vigente", "fuente": "SIT-CAM WFS — UsoDelSuelo:VPLA_V_CLASIFICACION (https://idem.comunidad.madrid/geosrvg/ows)", "fecha_dato": "2026-05-12", "ambito": "79", "_raw_CD_SIGLAS": "SUBS", "_raw_DS_CLASIF_GEN": "Suelo Apto Para Urbanizar", "_raw_DS_CLASIF_DET": "Suelo Urbanizable - a ordenar por Planes Parciales", "_raw_DS_DOCU": "NORMAS SUBSIDIARIAS", "_raw_DS_LEY": "CM Ley 4/1984, E RD 1346/1976", "_raw_FC_AC": "1985-03-14", "_raw_NM_AREA_M2": 124914.47558271, "_cam_code": "068", "derivado": "sectores-dormidos", "verificacion_gestion": "pendiente"}, "geometry": {"type": "Polygon", "coordinates": [[[-4.1148, 40.6802], [-4.117, 40.6801], [-4.1172, 40.68], [-4.117, 40.6792], [-4.1165, 40.6787], [-4.1163, 40.6781], [-4.1138, 40.6776], [-4.1136, 40.6772], [-4.1124, 40.6773], [-4.1118, 40.6776], [-4.1112, 40.6784], [-4.1113, 40.6788], [-4.1104, 40.6792], [-4.1113, 40.68], [-4.1121, 40.68], [-4.1131, 40.6797], [-4.1145, 40.68], [-4.1148, 40.6802]]]}}, {"type": "Feature", "properties": {"municipio": "Guadarrama", "clasificacion": "urbanizable-sectorizado", "calificacion": "sin-asignar", "version": "vigente", "fuente": "SIT-CAM WFS — UsoDelSuelo:VPLA_V_CLASIFICACION (https://idem.comunidad.madrid/geosrvg/ows)", "fecha_dato": "2026-05-12", "ambito": "79", "_raw_CD_SIGLAS": "SUBS", "_raw_DS_CLASIF_GEN": "Suelo Apto Para Urbanizar", "_raw_DS_CLASIF_DET": "Suelo Apto Para Urbanizar - a ordenar por Planes Parciales", "_raw_DS_DOCU": "NORMAS SUBSIDIARIAS", "_raw_DS_LEY": "CM Ley 4/1984, E RD 1346/1976", "_raw_FC_AC": "1985-03-14", "_raw_NM_AREA_M2": 527497.323007143, "_cam_code": "068", "derivado": "sectores-dormidos", "verificacion_gestion": "pendiente"}, "geometry": {"type": "Polygon", "coordinates": [[[-4.0925, 40.6733], [-4.0948, 40.6735], [-4.0957, 40.6737], [-4.0957, 40.6733], [-4.0969, 40.6718], [-4.0986, 40.672], [-4.0991, 40.6725], [-4.099, 40.6728], [-4.0992, 40.6728], [-4.0993, 40.6727], [-4.0993, 40.6719], [-4.0992, 40.6719], [-4.0993, 40.6713], [-4.0991, 40.6709], [-4.099, 40.6701], [-4.0981, 40.6701], [-4.098, 40.6695], [-4.0982, 40.6694], [-4.0977, 40.6687], [-4.0955, 40.6673], [-4.0952, 40.6673], [-4.0955, 40.6671], [-4.0951, 40.6668], [-4.0949, 40.6668], [-4.0948, 40.6666], [-4.095, 40.6649], [-4.0947, 40.6642], [-4.0941, 40.6646], [-4.094, 40.6643], [-4.093, 40.6633], [-4.0917, 40.6629], [-4.0914, 40.6633], [-4.0924, 40.6637], [-4.0918, 40.6641], [-4.092, 40.6642], [-4.0924, 40.6652], [-4.0923, 40.6653], [-4.0918, 40.6652], [-4.0918, 40.6651], [-4.0903, 40.6649], [-4.0886, 40.6675], [-4.0891, 40.6679], [-4.0896, 40.6681], [-4.0896, 40.6682], [-4.0903, 40.6684], [-4.0907, 40.6688], [-4.0922, 40.6684], [-4.0923, 40.6681], [-4.0935, 40.6678], [-4.0932, 40.668], [-4.0926, 40.6694], [-4.092, 40.67], [-4.0918, 40.6701], [-4.0915, 40.6699], [-4.0912, 40.6701], [-4.0914, 40.6703], [-4.0913, 40.6704], [-4.0899, 40.6714], [-4.0917, 40.6729], [-4.0918, 40.6731], [-4.0925, 40.6733]]]}}, {"type": "Feature", "properties": {"municipio": "Guadarrama", "clasificacion": "urbanizable-sectorizado", "calificacion": "sin-asignar", "version": "vigente", "fuente": "SIT-CAM WFS — UsoDelSuelo:VPLA_V_CLASIFICACION (https://idem.comunidad.madrid/geosrvg/ows)", "fecha_dato": "2026-05-12", "ambito": "79", "_raw_CD_SIGLAS": "SUBS", "_raw_DS_CLASIF_GEN": "Suelo Apto Para Urbanizar", "_raw_DS_CLASIF_DET": "Suelo Urbanizable - a ordenar por Planes Parciales", "_raw_DS_DOCU": "NORMAS SUBSIDIARIAS", "_raw_DS_LEY": "CM Ley 4/1984, E RD 1346/1976", "_raw_FC_AC": "1985-03-14", "_raw_NM_AREA_M2": 207477.224452522, "_cam_code": "068", "derivado": "sectores-dormidos", "verificacion_gestion": "pendiente"}, "geometry": {"type": "MultiPolygon", "coordinates": [[[[-4.1034, 40.6749], [-4.1038, 40.6749], [-4.1042, 40.6754], [-4.1044, 40.676], [-4.105, 40.6762], [-4.1052, 40.6766], [-4.1056, 40.6768], [-4.1065, 40.6766], [-4.1069, 40.6761], [-4.108, 40.6754], [-4.1068, 40.6739], [-4.1067, 40.6736], [-4.1064, 40.6735], [-4.1056, 40.6736], [-4.1047, 40.6734], [-4.1035, 40.6734], [-4.1011, 40.6737], [-4.0987, 40.6736], [-4.0984, 40.6742], [-4.0978, 40.6741], [-4.0971, 40.6752], [-4.0974, 40.6753], [-4.0975, 40.6752], [-4.0975, 40.6753], [-4.097, 40.6761], [-4.0993, 40.6768], [-4.1, 40.6755], [-4.1004, 40.6752], [-4.1009, 40.6751], [-4.1011, 40.6749], [-4.1014, 40.6752], [-4.102, 40.6752], [-4.1026, 40.6749], [-4.1034, 40.6749]]], [[[-4.1004, 40.6752], [-4.1004, 40.6752], [-4.1004, 40.6752], [-4.1004, 40.6752]]]]}}, {"type": "Feature", "properties": {"municipio": "Guadarrama", "clasificacion": "urbanizable-sectorizado", "calificacion": "sin-asignar", "version": "vigente", "fuente": "SIT-CAM WFS — UsoDelSuelo:VPLA_V_CLASIFICACION (https://idem.comunidad.madrid/geosrvg/ows)", "fecha_dato": "2026-05-12", "ambito": "79", "_raw_CD_SIGLAS": "SUBS", "_raw_DS_CLASIF_GEN": "Suelo Apto Para Urbanizar", "_raw_DS_CLASIF_DET": "Suelo Urbanizable - a ordenar por Planes Parciales", "_raw_DS_DOCU": "NORMAS SUBSIDIARIAS", "_raw_DS_LEY": "CM Ley 4/1984, E RD 1346/1976", "_raw_FC_AC": "1985-03-14", "_raw_NM_AREA_M2": 76651.2518313243, "_cam_code": "068", "derivado": "sectores-dormidos", "verificacion_gestion": "pendiente"}, "geometry": {"type": "Polygon", "coordinates": [[[-4.0947, 40.6757], [-4.0936, 40.678], [-4.0938, 40.678], [-4.0938, 40.6781], [-4.0949, 40.6786], [-4.0949, 40.6787], [-4.0973, 40.6789], [-4.098, 40.6776], [-4.0978, 40.6774], [-4.0976, 40.6774], [-4.0977, 40.6771], [-4.0955, 40.6765], [-4.0957, 40.676], [-4.0947, 40.6757]]]}}, {"type": "Feature", "properties": {"municipio": "Guadarrama", "clasificacion": "urbanizable-sectorizado", "calificacion": "sin-asignar", "version": "vigente", "fuente": "SIT-CAM WFS — UsoDelSuelo:VPLA_V_CLASIFICACION (https://idem.comunidad.madrid/geosrvg/ows)", "fecha_dato": "2026-05-12", "ambito": "79", "_raw_CD_SIGLAS": "SUBS", "_raw_DS_CLASIF_GEN": "Suelo Apto Para Urbanizar", "_raw_DS_CLASIF_DET": "Suelo Urbanizable - a ordenar por Planes Parciales", "_raw_DS_DOCU": "NORMAS SUBSIDIARIAS", "_raw_DS_LEY": "CM Ley 4/1984, E RD 1346/1976", "_raw_FC_AC": "1985-03-14", "_raw_NM_AREA_M2": 147923.596817084, "_cam_code": "068", "derivado": "sectores-dormidos", "verificacion_gestion": "pendiente"}, "geometry": {"type": "Polygon", "coordinates": [[[-4.0808, 40.6597], [-4.0761, 40.6614], [-4.076, 40.6615], [-4.0761, 40.6618], [-4.0766, 40.6628], [-4.077, 40.6632], [-4.0786, 40.664], [-4.0788, 40.664], [-4.0805, 40.6633], [-4.0809, 40.6631], [-4.0809, 40.663], [-4.0823, 40.6625], [-4.081, 40.6608], [-4.0808, 40.6597]]]}}, {"type": "Feature", "properties": {"municipio": "Guadarrama", "clasificacion": "urbanizable-sectorizado", "calificacion": "sin-asignar", "version": "vigente", "fuente": "SIT-CAM WFS — UsoDelSuelo:VPLA_V_CLASIFICACION (https://idem.comunidad.madrid/geosrvg/ows)", "fecha_dato": "2026-05-12", "ambito": "79", "_raw_CD_SIGLAS": "SUBS", "_raw_DS_CLASIF_GEN": "Suelo Apto Para Urbanizar", "_raw_DS_CLASIF_DET": "Suelo Urbanizable - a ordenar por Planes Parciales", "_raw_DS_DOCU": "NORMAS SUBSIDIARIAS", "_raw_DS_LEY": "CM Ley 4/1984, E RD 1346/1976", "_raw_FC_AC": "1985-03-14", "_raw_NM_AREA_M2": 33489.9830898849, "_cam_code": "068", "derivado": "sectores-dormidos", "verificacion_gestion": "pendiente"}, "geometry": {"type": "Polygon", "coordinates": [[[-4.1004, 40.6786], [-4.0997, 40.6793], [-4.1011, 40.6801], [-4.1029, 40.6798], [-4.1032, 40.6793], [-4.102, 40.6783], [-4.1015, 40.679], [-4.1004, 40.6786]]]}}]}