{
"type": "FeatureCollection",
"name": "vigente.full",
"features": [
{ "type": "Feature", "properties": { "municipio": "Mejorada del Campo", "clasificacion": "no-urbanizable-protegido", "calificacion": "sin-asignar", "version": "vigente", "fuente": "SIT-CAM WFS — UsoDelSuelo:VPLA_V_CLASIFICACION (https://idem.comunidad.madrid/geosrvg/ows)", "fecha_dato": "2026-05-12", "ambito": "33235", "_raw_CD_SIGLAS": "SNUP", "_raw_DS_CLASIF_GEN": "Suelo No Urbanizable Protegido", "_raw_DS_CLASIF_DET": "Suelo No Urbanizable. Especial Protección del Medio Ambiente. Uso Paisajístico. Intensidad de uso: Natural", "_raw_DS_DOCU": "PLAN GENERAL", "_raw_DS_LEY": "CM Ley 9/1995, E Ley 6/1998, E RDL 1/1992, E RD 1346/1976", "_raw_FC_AC": "1997-06-26", "_raw_NM_AREA_M2": 23009.2004866815, "_cam_code": "084" }, "geometry": { "type": "Polygon", "coordinates": [ [ [ -3.4789, 40.4053 ], [ -3.4779, 40.4068 ], [ -3.4784, 40.4071 ], [ -3.4789, 40.4078 ], [ -3.48, 40.4063 ], [ -3.4797, 40.4063 ], [ -3.4795, 40.4061 ], [ -3.4794, 40.4057 ], [ -3.4789, 40.4053 ] ] ] } },
{ "type": "Feature", "properties": { "municipio": "Mejorada del Campo", "clasificacion": "no-urbanizable-protegido", "calificacion": "sin-asignar", "version": "vigente", "fuente": "SIT-CAM WFS — UsoDelSuelo:VPLA_V_CLASIFICACION (https://idem.comunidad.madrid/geosrvg/ows)", "fecha_dato": "2026-05-12", "ambito": "33235", "_raw_CD_SIGLAS": "SNUP", "_raw_DS_CLASIF_GEN": "Suelo No Urbanizable Protegido", "_raw_DS_CLASIF_DET": "Suelo No Urbanizable. Especial Protección Parque Regional. Uso Ecológico. Intensidad de uso: Reserva Natural", "_raw_DS_DOCU": "PLAN GENERAL", "_raw_DS_LEY": "CM Ley 9/1995, E Ley 6/1998, E RDL 1/1992, E RD 1346/1976", "_raw_FC_AC": "1997-06-26", "_raw_NM_AREA_M2": 8866.4080299629004, "_cam_code": "084" }, "geometry": { "type": "Polygon", "coordinates": [ [ [ -3.5091, 40.3954 ], [ -3.5089, 40.3954 ], [ -3.5087, 40.397 ], [ -3.5083, 40.3977 ], [ -3.5088, 40.3978 ], [ -3.5091, 40.3971 ], [ -3.5092, 40.3966 ], [ -3.5092, 40.3956 ], [ -3.5091, 40.3954 ] ] ] } },
{ "type": "Feature", "properties": { "municipio": "Mejorada del Campo", "clasificacion": "no-urbanizable-protegido", "calificacion": "sin-asignar", "version": "vigente", "fuente": "SIT-CAM WFS — UsoDelSuelo:VPLA_V_CLASIFICACION (https://idem.comunidad.madrid/geosrvg/ows)", "fecha_dato": "2026-05-12", "ambito": "33235", "_raw_CD_SIGLAS": "SNUP", "_raw_DS_CLASIF_GEN": "Suelo No Urbanizable Protegido", "_raw_DS_CLASIF_DET": "Suelo No Urbanizable. Especial Protección Parque Regional. Uso Ecológico. Intensidad de uso: Reserva Natural", "_raw_DS_DOCU": "PLAN GENERAL", "_raw_DS_LEY": "CM Ley 9/1995, E Ley 6/1998, E RDL 1/1992, E RD 1346/1976", "_raw_FC_AC": "1997-06-26", "_raw_NM_AREA_M2": 379559.15127519402, "_cam_code": "084" }, "geometry": { "type": "Polygon", "coordinates": [ [ [ -3.5003, 40.4096 ], [ -3.5017, 40.4094 ], [ -3.502, 40.4092 ], [ -3.5028, 40.4083 ], [ -3.5032, 40.4075 ], [ -3.5032, 40.4073 ], [ -3.5019, 40.4072 ], [ -3.5013, 40.407 ], [ -3.5007, 40.4063 ], [ -3.5008, 40.4057 ], [ -3.5048, 40.4023 ], [ -3.507, 40.4001 ], [ -3.5087, 40.398 ], [ -3.5082, 40.3979 ], [ -3.508, 40.3983 ], [ -3.5078, 40.3984 ], [ -3.5064, 40.4002 ], [ -3.5045, 40.4021 ], [ -3.5034, 40.4028 ], [ -3.5034, 40.4029 ], [ -3.5029, 40.403 ], [ -3.5029, 40.4031 ], [ -3.4997, 40.4034 ], [ -3.4997, 40.4035 ], [ -3.4991, 40.4036 ], [ -3.4986, 40.404 ], [ -3.4984, 40.404 ], [ -3.4984, 40.4041 ], [ -3.498, 40.4041 ], [ -3.4978, 40.4043 ], [ -3.4973, 40.4042 ], [ -3.4968, 40.4047 ], [ -3.4962, 40.4047 ], [ -3.4957, 40.4049 ], [ -3.4954, 40.4058 ], [ -3.4954, 40.4062 ], [ -3.4951, 40.4064 ], [ -3.495, 40.407 ], [ -3.4943, 40.4078 ], [ -3.4946, 40.4081 ], [ -3.4951, 40.4083 ], [ -3.4952, 40.4085 ], [ -3.4954, 40.4085 ], [ -3.4954, 40.4086 ], [ -3.4959, 40.4085 ], [ -3.4963, 40.4087 ], [ -3.4963, 40.4089 ], [ -3.4964, 40.4089 ], [ -3.4963, 40.4092 ], [ -3.4966, 40.4092 ], [ -3.4967, 40.4095 ], [ -3.4968, 40.4094 ], [ -3.498, 40.4093 ], [ -3.5003, 40.4096 ] ] ] } },
{ "type": "Feature", "properties": { "municipio": "Mejorada del Campo", "clasificacion": "no-urbanizable-protegido", "calificacion": "sin-asignar", "version": "vigente", "fuente": "SIT-CAM WFS — UsoDelSuelo:VPLA_V_CLASIFICACION (https://idem.comunidad.madrid/geosrvg/ows)", "fecha_dato": "2026-05-12", "ambito": "33235", "_raw_CD_SIGLAS": "SNUP", "_raw_DS_CLASIF_GEN": "Suelo No Urbanizable Protegido", "_raw_DS_CLASIF_DET": "Suelo No Urbanizable. Especial Protección Parque Regional. Uso Ecológico. Intensidad de uso: Reserva Natural", "_raw_DS_DOCU": "PLAN GENERAL", "_raw_DS_LEY": "CM Ley 9/1995, E Ley 6/1998, E RDL 1/1992, E RD 1346/1976", "_raw_FC_AC": "1997-06-26", "_raw_NM_AREA_M2": 158392.080542941, "_cam_code": "084" }, "geometry": { "type": "Polygon", "coordinates": [ [ [ -3.4816, 40.4129 ], [ -3.4808, 40.4139 ], [ -3.4793, 40.4147 ], [ -3.4791, 40.415 ], [ -3.4786, 40.4153 ], [ -3.4832, 40.4143 ], [ -3.4836, 40.4134 ], [ -3.4845, 40.4131 ], [ -3.4857, 40.413 ], [ -3.4879, 40.4137 ], [ -3.4896, 40.4134 ], [ -3.4897, 40.4126 ], [ -3.4893, 40.4121 ], [ -3.4892, 40.4113 ], [ -3.4885, 40.4112 ], [ -3.4875, 40.4114 ], [ -3.4873, 40.4112 ], [ -3.4871, 40.4103 ], [ -3.487, 40.4105 ], [ -3.4857, 40.4111 ], [ -3.4849, 40.4119 ], [ -3.4842, 40.4124 ], [ -3.4834, 40.4125 ], [ -3.4823, 40.413 ], [ -3.4816, 40.4129 ] ] ] } },
{ "type": "Feature", "properties": { "municipio": "Mejorada del Campo", "clasificacion": "no-urbanizable-protegido", "calificacion": "sin-asignar", "version": "vigente", "fuente": "SIT-CAM WFS — UsoDelSuelo:VPLA_V_CLASIFICACION (https://idem.comunidad.madrid/geosrvg/ows)", "fecha_dato": "2026-05-12", "ambito": "33235", "_raw_CD_SIGLAS": "SNUP", "_raw_DS_CLASIF_GEN": "Suelo No Urbanizable Protegido", "_raw_DS_CLASIF_DET": "Suelo No Urbanizable. Especial Protección Parque Regional. Uso Ecológico. Intensidad de uso: Agrario, Forestal, Recreativo, Educativo, Equipamientos, Ambientales y usos especiales", "_raw_DS_DOCU": "PLAN GENERAL", "_raw_DS_LEY": "CM Ley 9/1995, E Ley 6/1998, E RDL 1/1992, E RD 1346/1976", "_raw_FC_AC": "1997-06-26", "_raw_NM_AREA_M2": 31684.150587244902, "_cam_code": "084" }, "geometry": { "type": "Polygon", "coordinates": [ [ [ -3.4942, 40.4 ], [ -3.493, 40.4014 ], [ -3.493, 40.4018 ], [ -3.4939, 40.4024 ], [ -3.4943, 40.4034 ], [ -3.4945, 40.4035 ], [ -3.4945, 40.4034 ], [ -3.4947, 40.4034 ], [ -3.4949, 40.4032 ], [ -3.4947, 40.4021 ], [ -3.4947, 40.4011 ], [ -3.4942, 40.4 ] ] ] } },
{ "type": "Feature", "properties": { "municipio": "Mejorada del Campo", "clasificacion": "no-urbanizable-protegido", "calificacion": "sin-asignar", "version": "vigente", "fuente": "SIT-CAM WFS — UsoDelSuelo:VPLA_V_CLASIFICACION (https://idem.comunidad.madrid/geosrvg/ows)", "fecha_dato": "2026-05-12", "ambito": "33235", "_raw_CD_SIGLAS": "SNUP", "_raw_DS_CLASIF_GEN": "Suelo No Urbanizable Protegido", "_raw_DS_CLASIF_DET": "Suelo No Urbanizable. Especial Protección Parque Regional. Uso Ecológico. Intensidad de uso: Agrario, Forestal, Recreativo, Educativo, Equipamientos, Ambientales y usos especiales", "_raw_DS_DOCU": "PLAN GENERAL", "_raw_DS_LEY": "CM Ley 9/1995, E Ley 6/1998, E RDL 1/1992, E RD 1346/1976", "_raw_FC_AC": "1997-06-26", "_raw_NM_AREA_M2": 392311.163466906, "_cam_code": "084" }, "geometry": { "type": "Polygon", "coordinates": [ [ [ -3.4896, 40.4134 ], [ -3.4901, 40.4133 ], [ -3.4907, 40.4129 ], [ -3.4917, 40.4125 ], [ -3.4917, 40.4124 ], [ -3.4927, 40.412 ], [ -3.4949, 40.4119 ], [ -3.4959, 40.411 ], [ -3.4965, 40.4096 ], [ -3.4967, 40.4095 ], [ -3.4967, 40.4093 ], [ -3.4963, 40.4092 ], [ -3.4964, 40.4091 ], [ -3.4963, 40.4087 ], [ -3.4959, 40.4085 ], [ -3.4954, 40.4086 ], [ -3.4954, 40.4085 ], [ -3.4952, 40.4085 ], [ -3.4951, 40.4083 ], [ -3.4946, 40.4081 ], [ -3.4943, 40.4078 ], [ -3.495, 40.407 ], [ -3.4951, 40.4064 ], [ -3.4954, 40.4062 ], [ -3.4954, 40.4058 ], [ -3.4958, 40.4048 ], [ -3.4957, 40.4044 ], [ -3.4952, 40.4038 ], [ -3.495, 40.4038 ], [ -3.495, 40.4039 ], [ -3.4946, 40.4041 ], [ -3.4946, 40.4046 ], [ -3.4944, 40.4051 ], [ -3.494, 40.4056 ], [ -3.4924, 40.4068 ], [ -3.4906, 40.4079 ], [ -3.4899, 40.4082 ], [ -3.4893, 40.4083 ], [ -3.4883, 40.4089 ], [ -3.4882, 40.4092 ], [ -3.4878, 40.4095 ], [ -3.4876, 40.4094 ], [ -3.4872, 40.4095 ], [ -3.4873, 40.4101 ], [ -3.4871, 40.4103 ], [ -3.4873, 40.4112 ], [ -3.4875, 40.4114 ], [ -3.4885, 40.4112 ], [ -3.4892, 40.4113 ], [ -3.4893, 40.4121 ], [ -3.4897, 40.4126 ], [ -3.4896, 40.4134 ] ] ] } },
{ "type": "Feature", "properties": { "municipio": "Mejorada del Campo", "clasificacion": "no-urbanizable-protegido", "calificacion": "sin-asignar", "version": "vigente", "fuente": "SIT-CAM WFS — UsoDelSuelo:VPLA_V_CLASIFICACION (https://idem.comunidad.madrid/geosrvg/ows)", "fecha_dato": "2026-05-12", "ambito": "33235", "_raw_CD_SIGLAS": "SNUP", "_raw_DS_CLASIF_GEN": "Suelo No Urbanizable Protegido", "_raw_DS_CLASIF_DET": "Suelo No Urbanizable. Especial Protección del Medio Ambiente. Uso Forestal. Intensidad de uso: Natural", "_raw_DS_DOCU": "PLAN GENERAL", "_raw_DS_LEY": "CM Ley 9/1995, E Ley 6/1998, E RDL 1/1992, E RD 1346/1976", "_raw_FC_AC": "1997-06-26", "_raw_NM_AREA_M2": 55409.183129565099, "_cam_code": "084" }, "geometry": { "type": "Polygon", "coordinates": [ [ [ -3.4833, 40.4024 ], [ -3.4823, 40.4034 ], [ -3.4818, 40.4043 ], [ -3.4828, 40.4033 ], [ -3.4838, 40.4029 ], [ -3.4844, 40.4024 ], [ -3.4849, 40.4024 ], [ -3.485, 40.4026 ], [ -3.4853, 40.4027 ], [ -3.4857, 40.4025 ], [ -3.4864, 40.4025 ], [ -3.4867, 40.4028 ], [ -3.487, 40.4029 ], [ -3.4876, 40.4028 ], [ -3.4888, 40.403 ], [ -3.4888, 40.4031 ], [ -3.4893, 40.4033 ], [ -3.4898, 40.4033 ], [ -3.4904, 40.4035 ], [ -3.4909, 40.4034 ], [ -3.4908, 40.4024 ], [ -3.4906, 40.4025 ], [ -3.4897, 40.4025 ], [ -3.4883, 40.402 ], [ -3.4883, 40.4019 ], [ -3.4875, 40.4019 ], [ -3.4859, 40.4023 ], [ -3.4852, 40.4021 ], [ -3.4845, 40.4021 ], [ -3.4837, 40.4022 ], [ -3.4837, 40.4023 ], [ -3.4833, 40.4024 ] ] ] } },
{ "type": "Feature", "properties": { "municipio": "Mejorada del Campo", "clasificacion": "no-urbanizable-protegido", "calificacion": "sin-asignar", "version": "vigente", "fuente": "SIT-CAM WFS — UsoDelSuelo:VPLA_V_CLASIFICACION (https://idem.comunidad.madrid/geosrvg/ows)", "fecha_dato": "2026-05-12", "ambito": "33235", "_raw_CD_SIGLAS": "SNUP", "_raw_DS_CLASIF_GEN": "Suelo No Urbanizable Protegido", "_raw_DS_CLASIF_DET": "Suelo No Urbanizable. Especial Protección del Medio Ambiente. Uso Paisajístico. Intensidad de uso: Natural", "_raw_DS_DOCU": "PLAN GENERAL", "_raw_DS_LEY": "CM Ley 9/1995, E Ley 6/1998, E RDL 1/1992, E RD 1346/1976", "_raw_FC_AC": "1997-06-26", "_raw_NM_AREA_M2": 46589.178473133499, "_cam_code": "084" }, "geometry": { "type": "Polygon", "coordinates": [ [ [ -3.4841, 40.4019 ], [ -3.4841, 40.4017 ], [ -3.4839, 40.4017 ], [ -3.4828, 40.4022 ], [ -3.4806, 40.4029 ], [ -3.4791, 40.405 ], [ -3.4799, 40.4057 ], [ -3.4804, 40.4058 ], [ -3.482, 40.4031 ], [ -3.4825, 40.4025 ], [ -3.4836, 40.4019 ], [ -3.4841, 40.4019 ] ] ] } },
{ "type": "Feature", "properties": { "municipio": "Mejorada del Campo", "clasificacion": "no-urbanizable-protegido", "calificacion": "sin-asignar", "version": "vigente", "fuente": "SIT-CAM WFS — UsoDelSuelo:VPLA_V_CLASIFICACION (https://idem.comunidad.madrid/geosrvg/ows)", "fecha_dato": "2026-05-12", "ambito": "33235", "_raw_CD_SIGLAS": "SNUP", "_raw_DS_CLASIF_GEN": "Suelo No Urbanizable Protegido", "_raw_DS_CLASIF_DET": "Suelo No Urbanizable. Especial Protección del Medio Ambiente. Uso Vía Pecuaria. Intensidad de uso: Natural", "_raw_DS_DOCU": "PLAN GENERAL", "_raw_DS_LEY": "CM Ley 9/1995, E Ley 6/1998, E RDL 1/1992, E RD 1346/1976", "_raw_FC_AC": "1997-06-26", "_raw_NM_AREA_M2": 63458.143373757899, "_cam_code": "084" }, "geometry": { "type": "Polygon", "coordinates": [ [ [ -3.48, 40.4063 ], [ -3.4788, 40.4078 ], [ -3.4786, 40.4083 ], [ -3.4781, 40.4088 ], [ -3.4777, 40.4095 ], [ -3.4775, 40.4096 ], [ -3.477, 40.4105 ], [ -3.4761, 40.4126 ], [ -3.476, 40.4126 ], [ -3.4761, 40.4143 ], [ -3.476, 40.4143 ], [ -3.4747, 40.4164 ], [ -3.4752, 40.4163 ], [ -3.4764, 40.4146 ], [ -3.4766, 40.414 ], [ -3.4765, 40.4126 ], [ -3.4778, 40.4096 ], [ -3.4805, 40.4063 ], [ -3.4823, 40.4034 ], [ -3.4831, 40.4025 ], [ -3.4834, 40.4024 ], [ -3.4834, 40.4023 ], [ -3.4837, 40.4023 ], [ -3.4837, 40.4022 ], [ -3.485, 40.4021 ], [ -3.4844, 40.4019 ], [ -3.4836, 40.4019 ], [ -3.4825, 40.4025 ], [ -3.482, 40.4031 ], [ -3.4805, 40.4056 ], [ -3.4804, 40.4058 ], [ -3.4805, 40.4061 ], [ -3.4803, 40.4063 ], [ -3.48, 40.4063 ] ] ] } },
{ "type": "Feature", "properties": { "municipio": "Mejorada del Campo", "clasificacion": "no-urbanizable-protegido", "calificacion": "sin-asignar", "version": "vigente", "fuente": "SIT-CAM WFS — UsoDelSuelo:VPLA_V_CLASIFICACION (https://idem.comunidad.madrid/geosrvg/ows)", "fecha_dato": "2026-05-12", "ambito": "33235", "_raw_CD_SIGLAS": "SNUP", "_raw_DS_CLASIF_GEN": "Suelo No Urbanizable Protegido", "_raw_DS_CLASIF_DET": "Suelo No Urbanizable. Especial Protección del Medio Ambiente. Uso Vía Pecuaria. Intensidad de uso: Natural", "_raw_DS_DOCU": "PLAN GENERAL", "_raw_DS_LEY": "CM Ley 9/1995, E Ley 6/1998, E RDL 1/1992, E RD 1346/1976", "_raw_FC_AC": "1997-06-26", "_raw_NM_AREA_M2": 4897.6694176659403, "_cam_code": "084" }, "geometry": { "type": "Polygon", "coordinates": [ [ [ -3.4936, 40.398 ], [ -3.4937, 40.3993 ], [ -3.4938, 40.3993 ], [ -3.4939, 40.4 ], [ -3.4939, 40.4004 ], [ -3.4941, 40.4001 ], [ -3.4939, 40.3986 ], [ -3.4938, 40.3982 ], [ -3.4936, 40.398 ] ] ] } },
{ "type": "Feature", "properties": { "municipio": "Mejorada del Campo", "clasificacion": "no-urbanizable-protegido", "calificacion": "sin-asignar", "version": "vigente", "fuente": "SIT-CAM WFS — UsoDelSuelo:VPLA_V_CLASIFICACION (https://idem.comunidad.madrid/geosrvg/ows)", "fecha_dato": "2026-05-12", "ambito": "33235", "_raw_CD_SIGLAS": "SNUP", "_raw_DS_CLASIF_GEN": "Suelo No Urbanizable Protegido", "_raw_DS_CLASIF_DET": "Suelo No Urbanizable. Especial Protección del Medio Ambiente. Uso Paisajístico. Intensidad de uso: Natural", "_raw_DS_DOCU": "PLAN GENERAL", "_raw_DS_LEY": "CM Ley 9/1995, E Ley 6/1998, E RDL 1/1992, E RD 1346/1976", "_raw_FC_AC": "1997-06-26", "_raw_NM_AREA_M2": 21771.293097654601, "_cam_code": "084" }, "geometry": { "type": "Polygon", "coordinates": [ [ [ -3.4779, 40.4068 ], [ -3.4774, 40.4076 ], [ -3.4764, 40.4081 ], [ -3.4781, 40.4088 ], [ -3.4789, 40.4078 ], [ -3.4784, 40.4071 ], [ -3.4779, 40.4068 ] ] ] } },
{ "type": "Feature", "properties": { "municipio": "Mejorada del Campo", "clasificacion": "no-urbanizable-protegido", "calificacion": "sin-asignar", "version": "vigente", "fuente": "SIT-CAM WFS — UsoDelSuelo:VPLA_V_CLASIFICACION (https://idem.comunidad.madrid/geosrvg/ows)", "fecha_dato": "2026-05-12", "ambito": "33235", "_raw_CD_SIGLAS": "SNUP_A", "_raw_DS_CLASIF_GEN": "Suelo No Urbanizable Protegido (APLAZADO)", "_raw_DS_CLASIF_DET": "Suelo No Urbanizable. Especial Protección del Medio Ambiente. Uso Paisajístico. Intensidad de uso: Natural", "_raw_DS_DOCU": "PLAN GENERAL", "_raw_DS_LEY": "CM Ley 9/1995, E Ley 6/1998, E RDL 1/1992, E RD 1346/1976", "_raw_FC_AC": "1997-06-26", "_raw_NM_AREA_M2": 114.592804877696, "_cam_code": "084" }, "geometry": { "type": "Polygon", "coordinates": [ [ [ -3.4783, 40.409 ], [ -3.4782, 40.4091 ], [ -3.4782, 40.4092 ], [ -3.4783, 40.4092 ], [ -3.4783, 40.409 ] ] ] } },
{ "type": "Feature", "properties": { "municipio": "Mejorada del Campo", "clasificacion": "no-urbanizable-protegido", "calificacion": "sin-asignar", "version": "vigente", "fuente": "SIT-CAM WFS — UsoDelSuelo:VPLA_V_CLASIFICACION (https://idem.comunidad.madrid/geosrvg/ows)", "fecha_dato": "2026-05-12", "ambito": "33235", "_raw_CD_SIGLAS": "SNUP_A", "_raw_DS_CLASIF_GEN": "Suelo No Urbanizable Protegido (APLAZADO)", "_raw_DS_CLASIF_DET": "Suelo No Urbanizable. Especial Protección Parque Regional. Uso Ecológico. Intensidad de uso: Periferia de Protección", "_raw_DS_DOCU": "PLAN GENERAL", "_raw_DS_LEY": "CM Ley 9/1995, E Ley 6/1998, E RDL 1/1992, E RD 1346/1976", "_raw_FC_AC": "1997-06-26", "_raw_NM_AREA_M2": 891606.09272816405, "_cam_code": "084" }, "geometry": { "type": "Polygon", "coordinates": [ [ [ -3.5011, 40.3928 ], [ -3.5023, 40.3933 ], [ -3.5033, 40.3935 ], [ -3.5055, 40.3935 ], [ -3.5053, 40.3921 ], [ -3.5063, 40.3903 ], [ -3.5068, 40.3891 ], [ -3.5067, 40.3886 ], [ -3.5048, 40.3892 ], [ -3.5038, 40.3919 ], [ -3.5024, 40.3929 ], [ -3.5017, 40.3904 ], [ -3.5029, 40.3899 ], [ -3.5028, 40.3883 ], [ -3.5026, 40.388 ], [ -3.5014, 40.3873 ], [ -3.5007, 40.3873 ], [ -3.5005, 40.3852 ], [ -3.5049, 40.3843 ], [ -3.5051, 40.3846 ], [ -3.506, 40.3826 ], [ -3.5051, 40.382 ], [ -3.5035, 40.3818 ], [ -3.5016, 40.3806 ], [ -3.5005, 40.3792 ], [ -3.5003, 40.378 ], [ -3.4981, 40.378 ], [ -3.4983, 40.3794 ], [ -3.4974, 40.3795 ], [ -3.4978, 40.3807 ], [ -3.4979, 40.3812 ], [ -3.4978, 40.3813 ], [ -3.4929, 40.3819 ], [ -3.4928, 40.382 ], [ -3.4912, 40.3818 ], [ -3.4901, 40.3818 ], [ -3.4901, 40.3824 ], [ -3.4922, 40.3832 ], [ -3.4934, 40.3838 ], [ -3.4946, 40.3847 ], [ -3.4956, 40.3857 ], [ -3.5001, 40.3919 ], [ -3.5011, 40.3928 ] ] ] } },
{ "type": "Feature", "properties": { "municipio": "Mejorada del Campo", "clasificacion": "no-urbanizable-protegido", "calificacion": "sin-asignar", "version": "vigente", "fuente": "SIT-CAM WFS — UsoDelSuelo:VPLA_V_CLASIFICACION (https://idem.comunidad.madrid/geosrvg/ows)", "fecha_dato": "2026-05-12", "ambito": "33235", "_raw_CD_SIGLAS": "SNUP_A", "_raw_DS_CLASIF_GEN": "Suelo No Urbanizable Protegido (APLAZADO)", "_raw_DS_CLASIF_DET": "Suelo No Urbanizable. Especial Protección Parque Regional. Uso Ecológico. Intensidad de uso: Periferia de Protección", "_raw_DS_DOCU": "PLAN GENERAL", "_raw_DS_LEY": "CM Ley 9/1995, E Ley 6/1998, E RDL 1/1992, E RD 1346/1976", "_raw_FC_AC": "1997-06-26", "_raw_NM_AREA_M2": 515429.62280561501, "_cam_code": "084" }, "geometry": { "type": "Polygon", "coordinates": [ [ [ -3.4957, 40.3962 ], [ -3.4955, 40.3975 ], [ -3.497, 40.3976 ], [ -3.498, 40.3975 ], [ -3.4982, 40.3972 ], [ -3.4985, 40.3971 ], [ -3.4992, 40.3971 ], [ -3.4996, 40.3974 ], [ -3.4999, 40.3974 ], [ -3.5006, 40.3967 ], [ -3.5034, 40.3951 ], [ -3.5036, 40.3951 ], [ -3.5043, 40.3946 ], [ -3.5065, 40.3941 ], [ -3.5064, 40.394 ], [ -3.5058, 40.3941 ], [ -3.503, 40.394 ], [ -3.5012, 40.3935 ], [ -3.5004, 40.393 ], [ -3.4996, 40.3923 ], [ -3.4947, 40.3862 ], [ -3.4929, 40.3849 ], [ -3.4932, 40.3858 ], [ -3.4933, 40.3858 ], [ -3.4937, 40.3867 ], [ -3.4944, 40.3878 ], [ -3.4947, 40.3889 ], [ -3.4948, 40.3895 ], [ -3.4945, 40.3901 ], [ -3.4944, 40.3913 ], [ -3.4944, 40.3922 ], [ -3.4945, 40.3924 ], [ -3.4944, 40.3931 ], [ -3.4946, 40.3943 ], [ -3.4946, 40.3959 ], [ -3.4945, 40.396 ], [ -3.4957, 40.3962 ] ] ] } },
{ "type": "Feature", "properties": { "municipio": "Mejorada del Campo", "clasificacion": "no-urbanizable-protegido", "calificacion": "sin-asignar", "version": "vigente", "fuente": "SIT-CAM WFS — UsoDelSuelo:VPLA_V_CLASIFICACION (https://idem.comunidad.madrid/geosrvg/ows)", "fecha_dato": "2026-05-12", "ambito": "33235", "_raw_CD_SIGLAS": "SNUP_A", "_raw_DS_CLASIF_GEN": "Suelo No Urbanizable Protegido (APLAZADO)", "_raw_DS_CLASIF_DET": "Suelo No Urbanizable. Especial Protección Parque Regional. Uso Ecológico. Intensidad de uso: Periferia de Protección", "_raw_DS_DOCU": "PLAN GENERAL", "_raw_DS_LEY": "CM Ley 9/1995, E Ley 6/1998, E RDL 1/1992, E RD 1346/1976", "_raw_FC_AC": "1997-06-26", "_raw_NM_AREA_M2": 169198.37436088201, "_cam_code": "084" }, "geometry": { "type": "Polygon", "coordinates": [ [ [ -3.5085, 40.3979 ], [ -3.5088, 40.3978 ], [ -3.5083, 40.3977 ], [ -3.5087, 40.397 ], [ -3.5089, 40.3954 ], [ -3.5086, 40.3954 ], [ -3.5073, 40.3946 ], [ -3.5065, 40.3946 ], [ -3.5048, 40.395 ], [ -3.5014, 40.3969 ], [ -3.5007, 40.3974 ], [ -3.5003, 40.3979 ], [ -3.5014, 40.3977 ], [ -3.5033, 40.3979 ], [ -3.504, 40.3977 ], [ -3.5049, 40.3977 ], [ -3.5051, 40.3976 ], [ -3.5085, 40.3979 ] ] ] } },
{ "type": "Feature", "properties": { "municipio": "Mejorada del Campo", "clasificacion": "no-urbanizable-protegido", "calificacion": "sin-asignar", "version": "vigente", "fuente": "SIT-CAM WFS — UsoDelSuelo:VPLA_V_CLASIFICACION (https://idem.comunidad.madrid/geosrvg/ows)", "fecha_dato": "2026-05-12", "ambito": "33235", "_raw_CD_SIGLAS": "SNUP_A", "_raw_DS_CLASIF_GEN": "Suelo No Urbanizable Protegido (APLAZADO)", "_raw_DS_CLASIF_DET": "Suelo No Urbanizable. Especial Protección Parque Regional. Uso Ecológico. Intensidad de uso: Periferia de Protección", "_raw_DS_DOCU": "PLAN GENERAL", "_raw_DS_LEY": "CM Ley 9/1995, E Ley 6/1998, E RDL 1/1992, E RD 1346/1976", "_raw_FC_AC": "1997-06-26", "_raw_NM_AREA_M2": 91958.371514574406, "_cam_code": "084" }, "geometry": { "type": "Polygon", "coordinates": [ [ [ -3.4993, 40.3976 ], [ -3.4991, 40.398 ], [ -3.4987, 40.3982 ], [ -3.4958, 40.399 ], [ -3.4948, 40.3995 ], [ -3.4942, 40.4 ], [ -3.4947, 40.4011 ], [ -3.4947, 40.4021 ], [ -3.4949, 40.4031 ], [ -3.4994, 40.398 ], [ -3.4993, 40.398 ], [ -3.4993, 40.3976 ] ] ] } },
{ "type": "Feature", "properties": { "municipio": "Mejorada del Campo", "clasificacion": "no-urbanizable-protegido", "calificacion": "sin-asignar", "version": "vigente", "fuente": "SIT-CAM WFS — UsoDelSuelo:VPLA_V_CLASIFICACION (https://idem.comunidad.madrid/geosrvg/ows)", "fecha_dato": "2026-05-12", "ambito": "33235", "_raw_CD_SIGLAS": "SNUP_A", "_raw_DS_CLASIF_GEN": "Suelo No Urbanizable Protegido (APLAZADO)", "_raw_DS_CLASIF_DET": "Suelo No Urbanizable. Especial Protección Parque Regional. Uso Ecológico. Intensidad de uso: Periferia de Protección", "_raw_DS_DOCU": "PLAN GENERAL", "_raw_DS_LEY": "CM Ley 9/1995, E Ley 6/1998, E RDL 1/1992, E RD 1346/1976", "_raw_FC_AC": "1997-06-26", "_raw_NM_AREA_M2": 437186.43004543602, "_cam_code": "084" }, "geometry": { "type": "Polygon", "coordinates": [ [ [ -3.4958, 40.4047 ], [ -3.4957, 40.4049 ], [ -3.4962, 40.4047 ], [ -3.4968, 40.4047 ], [ -3.4973, 40.4042 ], [ -3.4978, 40.4043 ], [ -3.498, 40.4041 ], [ -3.4984, 40.4041 ], [ -3.4984, 40.404 ], [ -3.4986, 40.404 ], [ -3.4991, 40.4036 ], [ -3.4997, 40.4035 ], [ -3.4997, 40.4034 ], [ -3.5029, 40.4031 ], [ -3.5029, 40.403 ], [ -3.5034, 40.4029 ], [ -3.5034, 40.4028 ], [ -3.5045, 40.4021 ], [ -3.5064, 40.4002 ], [ -3.5078, 40.3984 ], [ -3.508, 40.3983 ], [ -3.5082, 40.3979 ], [ -3.5052, 40.3977 ], [ -3.505, 40.3978 ], [ -3.504, 40.3978 ], [ -3.5033, 40.398 ], [ -3.5017, 40.3978 ], [ -3.5002, 40.398 ], [ -3.4955, 40.4035 ], [ -3.4952, 40.4037 ], [ -3.4952, 40.4039 ], [ -3.4955, 40.4041 ], [ -3.4958, 40.4047 ] ] ] } },
{ "type": "Feature", "properties": { "municipio": "Mejorada del Campo", "clasificacion": "no-urbanizable-protegido", "calificacion": "sin-asignar", "version": "vigente", "fuente": "SIT-CAM WFS — UsoDelSuelo:VPLA_V_CLASIFICACION (https://idem.comunidad.madrid/geosrvg/ows)", "fecha_dato": "2026-05-12", "ambito": "33235", "_raw_CD_SIGLAS": "SNUP_A", "_raw_DS_CLASIF_GEN": "Suelo No Urbanizable Protegido (APLAZADO)", "_raw_DS_CLASIF_DET": "Suelo No Urbanizable. Especial Protección Parque Regional. Uso Ecológico. Intensidad de uso: Periferia de Protección", "_raw_DS_DOCU": "PLAN GENERAL", "_raw_DS_LEY": "CM Ley 9/1995, E Ley 6/1998, E RDL 1/1992, E RD 1346/1976", "_raw_FC_AC": "1997-06-26", "_raw_NM_AREA_M2": 138814.71833106101, "_cam_code": "084" }, "geometry": { "type": "Polygon", "coordinates": [ [ [ -3.5015, 40.3936 ], [ -3.5025, 40.3939 ], [ -3.504, 40.3941 ], [ -3.5063, 40.394 ], [ -3.5055, 40.3935 ], [ -3.5033, 40.3935 ], [ -3.5023, 40.3933 ], [ -3.5011, 40.3928 ], [ -3.5001, 40.3919 ], [ -3.4956, 40.3857 ], [ -3.4946, 40.3847 ], [ -3.4934, 40.3838 ], [ -3.4922, 40.3832 ], [ -3.4901, 40.3824 ], [ -3.4902, 40.383 ], [ -3.491, 40.3833 ], [ -3.4918, 40.3838 ], [ -3.492, 40.3838 ], [ -3.4925, 40.3842 ], [ -3.4927, 40.3842 ], [ -3.4927, 40.3845 ], [ -3.4929, 40.3849 ], [ -3.4947, 40.3862 ], [ -3.4996, 40.3923 ], [ -3.5004, 40.393 ], [ -3.5015, 40.3936 ] ] ] } },
{ "type": "Feature", "properties": { "municipio": "Mejorada del Campo", "clasificacion": "no-urbanizable-protegido", "calificacion": "sin-asignar", "version": "vigente", "fuente": "SIT-CAM WFS — UsoDelSuelo:VPLA_V_CLASIFICACION (https://idem.comunidad.madrid/geosrvg/ows)", "fecha_dato": "2026-05-12", "ambito": "33235", "_raw_CD_SIGLAS": "SNUP_A", "_raw_DS_CLASIF_GEN": "Suelo No Urbanizable Protegido (APLAZADO)", "_raw_DS_CLASIF_DET": "Suelo No Urbanizable. Especial Protección Parque Regional. Uso Ecológico. Intensidad de uso: Periferia de Protección", "_raw_DS_DOCU": "PLAN GENERAL", "_raw_DS_LEY": "CM Ley 9/1995, E Ley 6/1998, E RDL 1/1992, E RD 1346/1976", "_raw_FC_AC": "1997-06-26", "_raw_NM_AREA_M2": 42881.988904765502, "_cam_code": "084" }, "geometry": { "type": "Polygon", "coordinates": [ [ [ -3.4949, 40.4031 ], [ -3.4952, 40.4038 ], [ -3.5002, 40.398 ], [ -3.5, 40.3981 ], [ -3.4993, 40.398 ], [ -3.4963, 40.4016 ], [ -3.4949, 40.4031 ] ] ] } },
{ "type": "Feature", "properties": { "municipio": "Mejorada del Campo", "clasificacion": "no-urbanizable-protegido", "calificacion": "sin-asignar", "version": "vigente", "fuente": "SIT-CAM WFS — UsoDelSuelo:VPLA_V_CLASIFICACION (https://idem.comunidad.madrid/geosrvg/ows)", "fecha_dato": "2026-05-12", "ambito": "33235", "_raw_CD_SIGLAS": "SNUP_A", "_raw_DS_CLASIF_GEN": "Suelo No Urbanizable Protegido (APLAZADO)", "_raw_DS_CLASIF_DET": "Suelo No Urbanizable. Especial Protección del Medio Ambiente. Uso Paisajístico. Intensidad de uso: Natural", "_raw_DS_DOCU": "PLAN GENERAL", "_raw_DS_LEY": "CM Ley 9/1995, E Ley 6/1998, E RDL 1/1992, E RD 1346/1976", "_raw_FC_AC": "1997-06-26", "_raw_NM_AREA_M2": 240157.03919827699, "_cam_code": "084" }, "geometry": { "type": "Polygon", "coordinates": [ [ [ -3.4645, 40.3911 ], [ -3.4688, 40.3892 ], [ -3.4679, 40.3879 ], [ -3.47, 40.387 ], [ -3.4719, 40.3858 ], [ -3.4719, 40.3856 ], [ -3.4717, 40.3855 ], [ -3.4706, 40.3841 ], [ -3.4703, 40.3844 ], [ -3.4696, 40.3847 ], [ -3.4664, 40.3871 ], [ -3.4659, 40.3866 ], [ -3.4651, 40.3869 ], [ -3.4651, 40.3871 ], [ -3.4658, 40.3885 ], [ -3.4642, 40.3893 ], [ -3.4624, 40.3887 ], [ -3.4613, 40.3887 ], [ -3.4606, 40.389 ], [ -3.4619, 40.3908 ], [ -3.4623, 40.3906 ], [ -3.4645, 40.3911 ] ] ] } },
{ "type": "Feature", "properties": { "municipio": "Mejorada del Campo", "clasificacion": "no-urbanizable-protegido", "calificacion": "sin-asignar", "version": "vigente", "fuente": "SIT-CAM WFS — UsoDelSuelo:VPLA_V_CLASIFICACION (https://idem.comunidad.madrid/geosrvg/ows)", "fecha_dato": "2026-05-12", "ambito": "33235", "_raw_CD_SIGLAS": "SNUP_A", "_raw_DS_CLASIF_GEN": "Suelo No Urbanizable Protegido (APLAZADO)", "_raw_DS_CLASIF_DET": "Suelo No Urbanizable. Especial Protección del Medio Ambiente. Uso Paisajístico. Intensidad de uso: Natural", "_raw_DS_DOCU": "PLAN GENERAL", "_raw_DS_LEY": "CM Ley 9/1995, E Ley 6/1998, E RDL 1/1992, E RD 1346/1976", "_raw_FC_AC": "1997-06-26", "_raw_NM_AREA_M2": 1318696.8357975499, "_cam_code": "084" }, "geometry": { "type": "Polygon", "coordinates": [ [ [ -3.4502, 40.4198 ], [ -3.4512, 40.4208 ], [ -3.4511, 40.4212 ], [ -3.4503, 40.4216 ], [ -3.4526, 40.4216 ], [ -3.4533, 40.4202 ], [ -3.457, 40.419 ], [ -3.4616, 40.4189 ], [ -3.4692, 40.418 ], [ -3.4723, 40.4163 ], [ -3.4747, 40.4164 ], [ -3.476, 40.4143 ], [ -3.4761, 40.4143 ], [ -3.476, 40.4126 ], [ -3.4761, 40.4126 ], [ -3.477, 40.4105 ], [ -3.4761, 40.411 ], [ -3.4753, 40.4118 ], [ -3.4742, 40.4125 ], [ -3.4719, 40.4145 ], [ -3.469, 40.4157 ], [ -3.4683, 40.4161 ], [ -3.4652, 40.4172 ], [ -3.4621, 40.4177 ], [ -3.4614, 40.4177 ], [ -3.4592, 40.4185 ], [ -3.4583, 40.4185 ], [ -3.4559, 40.4188 ], [ -3.4553, 40.4181 ], [ -3.4552, 40.4182 ], [ -3.4556, 40.4187 ], [ -3.4555, 40.4189 ], [ -3.4545, 40.4192 ], [ -3.4528, 40.4193 ], [ -3.4527, 40.4192 ], [ -3.4517, 40.4191 ], [ -3.4503, 40.4185 ], [ -3.4494, 40.4178 ], [ -3.449, 40.4171 ], [ -3.4468, 40.4177 ], [ -3.446, 40.4178 ], [ -3.4453, 40.4177 ], [ -3.4445, 40.4174 ], [ -3.4439, 40.4168 ], [ -3.4433, 40.4145 ], [ -3.4426, 40.4131 ], [ -3.4424, 40.4115 ], [ -3.4421, 40.4104 ], [ -3.4419, 40.4103 ], [ -3.4419, 40.4101 ], [ -3.4422, 40.41 ], [ -3.4431, 40.4089 ], [ -3.443, 40.4089 ], [ -3.443, 40.4086 ], [ -3.4436, 40.4088 ], [ -3.4436, 40.4089 ], [ -3.4436, 40.4088 ], [ -3.4435, 40.4084 ], [ -3.4436, 40.4074 ], [ -3.4434, 40.4069 ], [ -3.4427, 40.4064 ], [ -3.4432, 40.406 ], [ -3.4435, 40.405 ], [ -3.4445, 40.4043 ], [ -3.4447, 40.4039 ], [ -3.4452, 40.4038 ], [ -3.4461, 40.4029 ], [ -3.4466, 40.4029 ], [ -3.4476, 40.402 ], [ -3.4486, 40.4018 ], [ -3.449, 40.4005 ], [ -3.449, 40.4001 ], [ -3.4493, 40.3995 ], [ -3.4494, 40.3995 ], [ -3.4494, 40.3993 ], [ -3.4498, 40.3991 ], [ -3.4526, 40.3989 ], [ -3.4519, 40.3965 ], [ -3.4528, 40.3963 ], [ -3.4537, 40.3955 ], [ -3.4538, 40.3952 ], [ -3.4542, 40.395 ], [ -3.4552, 40.3954 ], [ -3.4559, 40.3955 ], [ -3.457, 40.3954 ], [ -3.4581, 40.3949 ], [ -3.4588, 40.394 ], [ -3.4589, 40.3932 ], [ -3.4595, 40.3929 ], [ -3.4603, 40.392 ], [ -3.4606, 40.3911 ], [ -3.4613, 40.391 ], [ -3.4601, 40.3893 ], [ -3.4593, 40.3896 ], [ -3.4586, 40.3902 ], [ -3.4585, 40.3911 ], [ -3.4558, 40.3939 ], [ -3.4552, 40.3935 ], [ -3.4543, 40.3932 ], [ -3.4511, 40.3951 ], [ -3.449, 40.395 ], [ -3.4497, 40.3974 ], [ -3.4473, 40.3985 ], [ -3.4461, 40.4003 ], [ -3.446, 40.4003 ], [ -3.4455, 40.4012 ], [ -3.4445, 40.4009 ], [ -3.4441, 40.402 ], [ -3.4437, 40.4025 ], [ -3.4427, 40.4031 ], [ -3.4415, 40.4041 ], [ -3.4412, 40.405 ], [ -3.4404, 40.4052 ], [ -3.4416, 40.4082 ], [ -3.4411, 40.4094 ], [ -3.4401, 40.4101 ], [ -3.4408, 40.4108 ], [ -3.4415, 40.4125 ], [ -3.4399, 40.4126 ], [ -3.4421, 40.4187 ], [ -3.4453, 40.42 ], [ -3.447, 40.4191 ], [ -3.4497, 40.4199 ], [ -3.4502, 40.4198 ] ] ] } },
{ "type": "Feature", "properties": { "municipio": "Mejorada del Campo", "clasificacion": "no-urbanizable-protegido", "calificacion": "sin-asignar", "version": "vigente", "fuente": "SIT-CAM WFS — UsoDelSuelo:VPLA_V_CLASIFICACION (https://idem.comunidad.madrid/geosrvg/ows)", "fecha_dato": "2026-05-12", "ambito": "33235", "_raw_CD_SIGLAS": "SNUP_A", "_raw_DS_CLASIF_GEN": "Suelo No Urbanizable Protegido (APLAZADO)", "_raw_DS_CLASIF_DET": "Suelo No Urbanizable. Especial Protección del Medio Ambiente. Uso Vía Pecuaria. Intensidad de uso: Natural", "_raw_DS_DOCU": "PLAN GENERAL", "_raw_DS_LEY": "CM Ley 9/1995, E Ley 6/1998, E RDL 1/1992, E RD 1346/1976", "_raw_FC_AC": "1997-06-26", "_raw_NM_AREA_M2": 13111.203893173801, "_cam_code": "084" }, "geometry": { "type": "Polygon", "coordinates": [ [ [ -3.4993, 40.398 ], [ -3.4996, 40.3981 ], [ -3.4997, 40.3981 ], [ -3.4998, 40.3981 ], [ -3.4998, 40.3981 ], [ -3.4999, 40.3981 ], [ -3.5, 40.3981 ], [ -3.5001, 40.398 ], [ -3.5006, 40.398 ], [ -3.5014, 40.3978 ], [ -3.5033, 40.398 ], [ -3.504, 40.3978 ], [ -3.505, 40.3978 ], [ -3.5052, 40.3977 ], [ -3.5052, 40.3977 ], [ -3.5054, 40.3977 ], [ -3.5055, 40.3977 ], [ -3.5055, 40.3977 ], [ -3.5055, 40.3977 ], [ -3.5056, 40.3977 ], [ -3.5057, 40.3977 ], [ -3.5058, 40.3977 ], [ -3.5059, 40.3977 ], [ -3.5059, 40.3977 ], [ -3.5061, 40.3977 ], [ -3.5062, 40.3977 ], [ -3.5063, 40.3978 ], [ -3.5087, 40.398 ], [ -3.5087, 40.3979 ], [ -3.5051, 40.3976 ], [ -3.5049, 40.3977 ], [ -3.504, 40.3977 ], [ -3.5033, 40.3979 ], [ -3.5014, 40.3977 ], [ -3.5001, 40.3979 ], [ -3.4999, 40.3981 ], [ -3.4999, 40.3981 ], [ -3.4998, 40.3981 ], [ -3.4998, 40.3981 ], [ -3.4997, 40.3981 ], [ -3.4996, 40.3981 ], [ -3.4994, 40.3979 ], [ -3.4994, 40.3974 ], [ -3.4992, 40.3972 ], [ -3.4992, 40.3972 ], [ -3.4991, 40.3972 ], [ -3.499, 40.3972 ], [ -3.4989, 40.3972 ], [ -3.4989, 40.3971 ], [ -3.4986, 40.3972 ], [ -3.4979, 40.3976 ], [ -3.4955, 40.3976 ], [ -3.4942, 40.3971 ], [ -3.4939, 40.3971 ], [ -3.4939, 40.3972 ], [ -3.4938, 40.3972 ], [ -3.4937, 40.3973 ], [ -3.4937, 40.3974 ], [ -3.4937, 40.3975 ], [ -3.4938, 40.3972 ], [ -3.4939, 40.3972 ], [ -3.4941, 40.3972 ], [ -3.4947, 40.3975 ], [ -3.495, 40.3975 ], [ -3.495, 40.3976 ], [ -3.4954, 40.3976 ], [ -3.4954, 40.3977 ], [ -3.4978, 40.3977 ], [ -3.4987, 40.3972 ], [ -3.4987, 40.3972 ], [ -3.4988, 40.3972 ], [ -3.4989, 40.3972 ], [ -3.499, 40.3972 ], [ -3.4993, 40.3975 ], [ -3.4993, 40.398 ] ] ] } },
{ "type": "Feature", "properties": { "municipio": "Mejorada del Campo", "clasificacion": "no-urbanizable-protegido", "calificacion": "sin-asignar", "version": "vigente", "fuente": "SIT-CAM WFS — UsoDelSuelo:VPLA_V_CLASIFICACION (https://idem.comunidad.madrid/geosrvg/ows)", "fecha_dato": "2026-05-12", "ambito": "33235", "_raw_CD_SIGLAS": "SNUP_A", "_raw_DS_CLASIF_GEN": "Suelo No Urbanizable Protegido (APLAZADO)", "_raw_DS_CLASIF_DET": "Suelo No Urbanizable. Especial Protección del Medio Ambiente. Uso Paisajístico. Intensidad de uso: Natural", "_raw_DS_DOCU": "PLAN GENERAL", "_raw_DS_LEY": "CM Ley 9/1995, E Ley 6/1998, E RDL 1/1992, E RD 1346/1976", "_raw_FC_AC": "1997-06-26", "_raw_NM_AREA_M2": 11619.4767129787, "_cam_code": "084" }, "geometry": { "type": "Polygon", "coordinates": [ [ [ -3.4606, 40.389 ], [ -3.4601, 40.3893 ], [ -3.4613, 40.391 ], [ -3.4619, 40.3908 ], [ -3.4606, 40.389 ] ] ] } },
{ "type": "Feature", "properties": { "municipio": "Mejorada del Campo", "clasificacion": "no-urbanizable-protegido", "calificacion": "sin-asignar", "version": "vigente", "fuente": "SIT-CAM WFS — UsoDelSuelo:VPLA_V_CLASIFICACION (https://idem.comunidad.madrid/geosrvg/ows)", "fecha_dato": "2026-05-12", "ambito": "33235", "_raw_CD_SIGLAS": "SNUP_A", "_raw_DS_CLASIF_GEN": "Suelo No Urbanizable Protegido (APLAZADO)", "_raw_DS_CLASIF_DET": "Suelo No Urbanizable. Especial Protección Parque Regional. Uso Ecológico. Intensidad de uso: Agrario, Forestal, Recreativo, Educativo, Equipamientos, Ambientales y usos especiales", "_raw_DS_DOCU": "PLAN GENERAL", "_raw_DS_LEY": "CM Ley 9/1995, E Ley 6/1998, E RDL 1/1992, E RD 1346/1976", "_raw_FC_AC": "1997-06-26", "_raw_NM_AREA_M2": 3435.8891651580202, "_cam_code": "084" }, "geometry": { "type": "Polygon", "coordinates": [ [ [ -3.4949, 40.4031 ], [ -3.4947, 40.4034 ], [ -3.4944, 40.4035 ], [ -3.4946, 40.4038 ], [ -3.4946, 40.4041 ], [ -3.495, 40.4039 ], [ -3.495, 40.4038 ], [ -3.4952, 40.4038 ], [ -3.4949, 40.4031 ] ] ] } },
{ "type": "Feature", "properties": { "municipio": "Mejorada del Campo", "clasificacion": "no-urbanizable-protegido", "calificacion": "sin-asignar", "version": "vigente", "fuente": "SIT-CAM WFS — UsoDelSuelo:VPLA_V_CLASIFICACION (https://idem.comunidad.madrid/geosrvg/ows)", "fecha_dato": "2026-05-12", "ambito": "33235", "_raw_CD_SIGLAS": "SNUP_A", "_raw_DS_CLASIF_GEN": "Suelo No Urbanizable Protegido (APLAZADO)", "_raw_DS_CLASIF_DET": "Suelo No Urbanizable. Especial Protección Parque Regional. Uso Ecológico. Intensidad de uso: Periferia de Protección", "_raw_DS_DOCU": "PLAN GENERAL", "_raw_DS_LEY": "CM Ley 9/1995, E Ley 6/1998, E RDL 1/1992, E RD 1346/1976", "_raw_FC_AC": "1997-06-26", "_raw_NM_AREA_M2": 49593.762484368199, "_cam_code": "084" }, "geometry": { "type": "Polygon", "coordinates": [ [ [ -3.4994, 40.3979 ], [ -3.4996, 40.3981 ], [ -3.4999, 40.3981 ], [ -3.5001, 40.3979 ], [ -3.5003, 40.3979 ], [ -3.5007, 40.3974 ], [ -3.5014, 40.3969 ], [ -3.5048, 40.395 ], [ -3.5065, 40.3946 ], [ -3.5073, 40.3946 ], [ -3.5065, 40.3941 ], [ -3.5043, 40.3946 ], [ -3.5036, 40.3951 ], [ -3.5034, 40.3951 ], [ -3.5006, 40.3967 ], [ -3.4999, 40.3974 ], [ -3.4996, 40.3974 ], [ -3.4992, 40.3971 ], [ -3.4991, 40.3971 ], [ -3.499, 40.3971 ], [ -3.499, 40.3971 ], [ -3.4988, 40.3971 ], [ -3.4985, 40.3971 ], [ -3.4977, 40.3976 ], [ -3.4953, 40.3975 ], [ -3.4955, 40.3976 ], [ -3.4956, 40.3976 ], [ -3.4957, 40.3976 ], [ -3.4959, 40.3976 ], [ -3.496, 40.3976 ], [ -3.496, 40.3976 ], [ -3.4963, 40.3976 ], [ -3.4964, 40.3976 ], [ -3.4966, 40.3976 ], [ -3.4967, 40.3976 ], [ -3.4971, 40.3976 ], [ -3.4973, 40.3976 ], [ -3.4975, 40.3976 ], [ -3.4976, 40.3976 ], [ -3.4976, 40.3976 ], [ -3.4977, 40.3976 ], [ -3.4979, 40.3976 ], [ -3.4986, 40.3972 ], [ -3.4988, 40.3971 ], [ -3.4989, 40.3971 ], [ -3.4989, 40.3972 ], [ -3.4992, 40.3972 ], [ -3.4994, 40.3974 ], [ -3.4994, 40.3979 ] ] ] } },
{ "type": "Feature", "properties": { "municipio": "Mejorada del Campo", "clasificacion": "no-urbanizable-protegido", "calificacion": "sin-asignar", "version": "vigente", "fuente": "SIT-CAM WFS — UsoDelSuelo:VPLA_V_CLASIFICACION (https://idem.comunidad.madrid/geosrvg/ows)", "fecha_dato": "2026-05-12", "ambito": "33235", "_raw_CD_SIGLAS": "SNUP_A", "_raw_DS_CLASIF_GEN": "Suelo No Urbanizable Protegido (APLAZADO)", "_raw_DS_CLASIF_DET": "Suelo No Urbanizable. Especial Protección del Medio Ambiente. Uso Paisajístico. Intensidad de uso: Natural", "_raw_DS_DOCU": "PLAN GENERAL", "_raw_DS_LEY": "CM Ley 9/1995, E Ley 6/1998, E RDL 1/1992, E RD 1346/1976", "_raw_FC_AC": "1997-06-26", "_raw_NM_AREA_M2": 14544.111026619101, "_cam_code": "084" }, "geometry": { "type": "Polygon", "coordinates": [ [ [ -3.4782, 40.4097 ], [ -3.4778, 40.4096 ], [ -3.4765, 40.4126 ], [ -3.4765, 40.4132 ], [ -3.4767, 40.4126 ], [ -3.478, 40.4108 ], [ -3.4782, 40.4103 ], [ -3.4782, 40.4097 ] ] ] } },
{ "type": "Feature", "properties": { "municipio": "Mejorada del Campo", "clasificacion": "urbano-consolidado", "calificacion": "sin-asignar", "version": "vigente", "fuente": "SIT-CAM WFS — UsoDelSuelo:VPLA_V_CLASIFICACION (https://idem.comunidad.madrid/geosrvg/ows)", "fecha_dato": "2026-05-12", "ambito": "33235", "_raw_CD_SIGLAS": "SU", "_raw_DS_CLASIF_GEN": "Suelo Urbano", "_raw_DS_CLASIF_DET": "Suelo Urbano", "_raw_DS_DOCU": "PLAN GENERAL", "_raw_DS_LEY": "CM Ley 9/1995, E Ley 6/1998, E RDL 1/1992, E RD 1346/1976", "_raw_FC_AC": "1997-06-26", "_raw_NM_AREA_M2": 289878.24869870598, "_cam_code": "084" }, "geometry": { "type": "Polygon", "coordinates": [ [ [ -3.4894, 40.381 ], [ -3.4898, 40.3829 ], [ -3.4902, 40.383 ], [ -3.4901, 40.3818 ], [ -3.4912, 40.3818 ], [ -3.4928, 40.382 ], [ -3.4929, 40.3819 ], [ -3.4978, 40.3813 ], [ -3.4979, 40.3812 ], [ -3.4978, 40.3807 ], [ -3.4974, 40.3795 ], [ -3.4983, 40.3794 ], [ -3.4981, 40.378 ], [ -3.4946, 40.3781 ], [ -3.4945, 40.3782 ], [ -3.4934, 40.3782 ], [ -3.4932, 40.3783 ], [ -3.4912, 40.3783 ], [ -3.4892, 40.3781 ], [ -3.4894, 40.381 ] ] ] } },
{ "type": "Feature", "properties": { "municipio": "Mejorada del Campo", "clasificacion": "urbano-consolidado", "calificacion": "sin-asignar", "version": "vigente", "fuente": "SIT-CAM WFS — UsoDelSuelo:VPLA_V_CLASIFICACION (https://idem.comunidad.madrid/geosrvg/ows)", "fecha_dato": "2026-05-12", "ambito": "33235", "_raw_CD_SIGLAS": "SU", "_raw_DS_CLASIF_GEN": "Suelo Urbano", "_raw_DS_CLASIF_DET": "Suelo Urbano", "_raw_DS_DOCU": "PLAN GENERAL", "_raw_DS_LEY": "CM Ley 9/1995, E Ley 6/1998, E RDL 1/1992, E RD 1346/1976", "_raw_FC_AC": "1997-06-26", "_raw_NM_AREA_M2": 42730.572529229401, "_cam_code": "084" }, "geometry": { "type": "Polygon", "coordinates": [ [ [ -3.4847, 40.3803 ], [ -3.4849, 40.3807 ], [ -3.4861, 40.3804 ], [ -3.4877, 40.3804 ], [ -3.4877, 40.3803 ], [ -3.4894, 40.3804 ], [ -3.4893, 40.3786 ], [ -3.4892, 40.3785 ], [ -3.4884, 40.3786 ], [ -3.4881, 40.3788 ], [ -3.4874, 40.3789 ], [ -3.4872, 40.3791 ], [ -3.4872, 40.3794 ], [ -3.4873, 40.3794 ], [ -3.4872, 40.3798 ], [ -3.4847, 40.3803 ] ] ] } },
{ "type": "Feature", "properties": { "municipio": "Mejorada del Campo", "clasificacion": "urbano-consolidado", "calificacion": "sin-asignar", "version": "vigente", "fuente": "SIT-CAM WFS — UsoDelSuelo:VPLA_V_CLASIFICACION (https://idem.comunidad.madrid/geosrvg/ows)", "fecha_dato": "2026-05-12", "ambito": "33235", "_raw_CD_SIGLAS": "SU", "_raw_DS_CLASIF_GEN": "Suelo Urbano", "_raw_DS_CLASIF_DET": "Suelo Urbano", "_raw_DS_DOCU": "PLAN GENERAL", "_raw_DS_LEY": "CM Ley 9/1995, E Ley 6/1998, E RDL 1/1992, E RD 1346/1976", "_raw_FC_AC": "1997-06-26", "_raw_NM_AREA_M2": 2410745.9745016498, "_cam_code": "084" }, "geometry": { "type": "Polygon", "coordinates": [ [ [ -3.4913, 40.4033 ], [ -3.493, 40.4026 ], [ -3.4932, 40.4027 ], [ -3.4933, 40.403 ], [ -3.4941, 40.4028 ], [ -3.4938, 40.4023 ], [ -3.493, 40.4018 ], [ -3.493, 40.4014 ], [ -3.4939, 40.4004 ], [ -3.4936, 40.398 ], [ -3.4938, 40.3982 ], [ -3.4939, 40.3986 ], [ -3.4941, 40.4001 ], [ -3.4946, 40.3997 ], [ -3.4944, 40.3982 ], [ -3.4952, 40.3981 ], [ -3.4953, 40.3976 ], [ -3.4947, 40.3975 ], [ -3.4941, 40.3972 ], [ -3.4941, 40.3972 ], [ -3.494, 40.3972 ], [ -3.4939, 40.3972 ], [ -3.4938, 40.3972 ], [ -3.4937, 40.3975 ], [ -3.4937, 40.3973 ], [ -3.4938, 40.3972 ], [ -3.4939, 40.3972 ], [ -3.4939, 40.3971 ], [ -3.4942, 40.3971 ], [ -3.4951, 40.3975 ], [ -3.4953, 40.3975 ], [ -3.4942, 40.3971 ], [ -3.4941, 40.3968 ], [ -3.4936, 40.3964 ], [ -3.4932, 40.3951 ], [ -3.4932, 40.3935 ], [ -3.4934, 40.393 ], [ -3.4934, 40.3924 ], [ -3.4931, 40.3916 ], [ -3.492, 40.3905 ], [ -3.4919, 40.3901 ], [ -3.4918, 40.3901 ], [ -3.4912, 40.3871 ], [ -3.4911, 40.3871 ], [ -3.4911, 40.3859 ], [ -3.4924, 40.3858 ], [ -3.4924, 40.3861 ], [ -3.4934, 40.3861 ], [ -3.4927, 40.3845 ], [ -3.4927, 40.3842 ], [ -3.4923, 40.3841 ], [ -3.492, 40.3838 ], [ -3.4914, 40.3836 ], [ -3.4914, 40.3835 ], [ -3.4912, 40.3835 ], [ -3.491, 40.3833 ], [ -3.4898, 40.3829 ], [ -3.4904, 40.384 ], [ -3.4761, 40.3835 ], [ -3.476, 40.3838 ], [ -3.4761, 40.3838 ], [ -3.4762, 40.385 ], [ -3.4762, 40.3884 ], [ -3.4763, 40.3889 ], [ -3.4759, 40.3889 ], [ -3.476, 40.389 ], [ -3.476, 40.3899 ], [ -3.4764, 40.3899 ], [ -3.4765, 40.3908 ], [ -3.4783, 40.3908 ], [ -3.4785, 40.3948 ], [ -3.4798, 40.3963 ], [ -3.4801, 40.3971 ], [ -3.48, 40.3971 ], [ -3.4801, 40.3976 ], [ -3.4809, 40.3983 ], [ -3.4845, 40.4004 ], [ -3.4846, 40.4011 ], [ -3.4841, 40.4016 ], [ -3.4841, 40.4019 ], [ -3.4857, 40.4023 ], [ -3.4866, 40.4022 ], [ -3.4875, 40.4019 ], [ -3.4883, 40.4019 ], [ -3.4883, 40.402 ], [ -3.4897, 40.4025 ], [ -3.4906, 40.4025 ], [ -3.4908, 40.4024 ], [ -3.4909, 40.403 ], [ -3.4911, 40.403 ], [ -3.4913, 40.4033 ] ], [ [ -3.4924, 40.3917 ], [ -3.4927, 40.392 ], [ -3.4929, 40.3926 ], [ -3.4927, 40.3933 ], [ -3.4924, 40.3935 ], [ -3.4926, 40.3943 ], [ -3.4921, 40.3943 ], [ -3.4922, 40.3948 ], [ -3.4916, 40.395 ], [ -3.4906, 40.3945 ], [ -3.4908, 40.3943 ], [ -3.4909, 40.3945 ], [ -3.4912, 40.3945 ], [ -3.4911, 40.3938 ], [ -3.491, 40.3938 ], [ -3.4915, 40.393 ], [ -3.4903, 40.3918 ], [ -3.4902, 40.3919 ], [ -3.4892, 40.3914 ], [ -3.4904, 40.3908 ], [ -3.4912, 40.3915 ], [ -3.4918, 40.3911 ], [ -3.4919, 40.3909 ], [ -3.492, 40.3912 ], [ -3.4919, 40.392 ], [ -3.4922, 40.3917 ], [ -3.4923, 40.3918 ], [ -3.4924, 40.3917 ] ], [ [ -3.4891, 40.3896 ], [ -3.4891, 40.3897 ], [ -3.488, 40.3896 ], [ -3.4875, 40.3892 ], [ -3.4882, 40.3889 ], [ -3.4893, 40.3896 ], [ -3.4891, 40.3896 ] ] ] } },
{ "type": "Feature", "properties": { "municipio": "Mejorada del Campo", "clasificacion": "urbano-consolidado", "calificacion": "sin-asignar", "version": "vigente", "fuente": "SIT-CAM WFS — UsoDelSuelo:VPLA_V_CLASIFICACION (https://idem.comunidad.madrid/geosrvg/ows)", "fecha_dato": "2026-05-12", "ambito": "33235", "_raw_CD_SIGLAS": "SU", "_raw_DS_CLASIF_GEN": "Suelo Urbano", "_raw_DS_CLASIF_DET": "Suelo Urbano dentro de la Zona Periférica de Protección del Parque Regional", "_raw_DS_DOCU": "PLAN GENERAL", "_raw_DS_LEY": "CM Ley 9/1995, E Ley 6/1998, E RDL 1/1992, E RD 1346/1976", "_raw_FC_AC": "1997-06-26", "_raw_NM_AREA_M2": 214107.172238439, "_cam_code": "084" }, "geometry": { "type": "Polygon", "coordinates": [ [ [ -3.4911, 40.3863 ], [ -3.4911, 40.3871 ], [ -3.4912, 40.3871 ], [ -3.4918, 40.3901 ], [ -3.4919, 40.3901 ], [ -3.492, 40.3905 ], [ -3.4931, 40.3916 ], [ -3.4934, 40.3924 ], [ -3.4934, 40.393 ], [ -3.4932, 40.3935 ], [ -3.4932, 40.3951 ], [ -3.4936, 40.3964 ], [ -3.4941, 40.3968 ], [ -3.4942, 40.3971 ], [ -3.4955, 40.3975 ], [ -3.4957, 40.3962 ], [ -3.4945, 40.396 ], [ -3.4946, 40.3959 ], [ -3.4946, 40.3943 ], [ -3.4944, 40.3931 ], [ -3.4945, 40.3924 ], [ -3.4944, 40.3922 ], [ -3.4944, 40.3913 ], [ -3.4945, 40.3901 ], [ -3.4948, 40.3895 ], [ -3.4944, 40.3878 ], [ -3.4934, 40.3861 ], [ -3.4924, 40.3861 ], [ -3.4924, 40.3858 ], [ -3.4922, 40.3858 ], [ -3.4911, 40.3859 ], [ -3.4911, 40.3863 ] ] ] } },
{ "type": "Feature", "properties": { "municipio": "Mejorada del Campo", "clasificacion": "urbanizable-no-sectorizado", "calificacion": "sin-asignar", "version": "vigente", "fuente": "SIT-CAM WFS — UsoDelSuelo:VPLA_V_CLASIFICACION (https://idem.comunidad.madrid/geosrvg/ows)", "fecha_dato": "2026-05-12", "ambito": "33235", "_raw_CD_SIGLAS": "SUBNS", "_raw_DS_CLASIF_GEN": "Suelo No Urbanizable Común", "_raw_DS_CLASIF_DET": "Suelo No Urbanizable. Rústico Reserva. Uso Agropecuario. Intensidad de uso: Cultivo Exclusivo", "_raw_DS_DOCU": "PLAN GENERAL", "_raw_DS_LEY": "CM Ley 9/1995, E Ley 6/1998, E RDL 1/1992, E RD 1346/1976", "_raw_FC_AC": "1997-06-26", "_raw_NM_AREA_M2": 130701.128755709, "_cam_code": "084" }, "geometry": { "type": "Polygon", "coordinates": [ [ [ -3.4553, 40.4181 ], [ -3.4559, 40.4188 ], [ -3.4583, 40.4185 ], [ -3.4592, 40.4185 ], [ -3.4614, 40.4177 ], [ -3.4621, 40.4177 ], [ -3.4652, 40.4172 ], [ -3.4683, 40.4161 ], [ -3.469, 40.4157 ], [ -3.4719, 40.4145 ], [ -3.4734, 40.4132 ], [ -3.4716, 40.4138 ], [ -3.4711, 40.4141 ], [ -3.4708, 40.4141 ], [ -3.4673, 40.4157 ], [ -3.4653, 40.4164 ], [ -3.4646, 40.4165 ], [ -3.4642, 40.4164 ], [ -3.4622, 40.4169 ], [ -3.4614, 40.4169 ], [ -3.4603, 40.4174 ], [ -3.4595, 40.4176 ], [ -3.4554, 40.418 ], [ -3.4553, 40.4181 ] ] ] } },
{ "type": "Feature", "properties": { "municipio": "Mejorada del Campo", "clasificacion": "urbanizable-no-sectorizado", "calificacion": "sin-asignar", "version": "vigente", "fuente": "SIT-CAM WFS — UsoDelSuelo:VPLA_V_CLASIFICACION (https://idem.comunidad.madrid/geosrvg/ows)", "fecha_dato": "2026-05-12", "ambito": "33235", "_raw_CD_SIGLAS": "SUBNS", "_raw_DS_CLASIF_GEN": "Suelo No Urbanizable Común", "_raw_DS_CLASIF_DET": "Suelo No Urbanizable. Rústico Reserva. Uso Agropecuario. Intensidad de uso: Cultivo Exclusivo", "_raw_DS_DOCU": "PLAN GENERAL", "_raw_DS_LEY": "CM Ley 9/1995, E Ley 6/1998, E RDL 1/1992, E RD 1346/1976", "_raw_FC_AC": "1997-06-26", "_raw_NM_AREA_M2": 572938.92147530499, "_cam_code": "084" }, "geometry": { "type": "Polygon", "coordinates": [ [ [ -3.472, 40.3858 ], [ -3.47, 40.387 ], [ -3.4679, 40.3879 ], [ -3.4688, 40.3892 ], [ -3.4665, 40.3902 ], [ -3.4682, 40.393 ], [ -3.4677, 40.3931 ], [ -3.4678, 40.3931 ], [ -3.4683, 40.396 ], [ -3.4688, 40.3979 ], [ -3.4673, 40.3981 ], [ -3.471, 40.4031 ], [ -3.4714, 40.402 ], [ -3.4713, 40.4006 ], [ -3.4714, 40.3997 ], [ -3.4721, 40.3989 ], [ -3.4731, 40.3982 ], [ -3.4731, 40.3978 ], [ -3.4727, 40.3972 ], [ -3.4727, 40.397 ], [ -3.4726, 40.397 ], [ -3.4723, 40.3957 ], [ -3.4722, 40.3919 ], [ -3.472, 40.3918 ], [ -3.472, 40.3914 ], [ -3.4722, 40.3913 ], [ -3.4721, 40.3871 ], [ -3.4718, 40.3868 ], [ -3.4721, 40.3865 ], [ -3.4721, 40.3861 ], [ -3.472, 40.3861 ], [ -3.472, 40.3858 ] ] ] } },
{ "type": "Feature", "properties": { "municipio": "Mejorada del Campo", "clasificacion": "urbanizable-no-sectorizado", "calificacion": "sin-asignar", "version": "vigente", "fuente": "SIT-CAM WFS — UsoDelSuelo:VPLA_V_CLASIFICACION (https://idem.comunidad.madrid/geosrvg/ows)", "fecha_dato": "2026-05-12", "ambito": "33235", "_raw_CD_SIGLAS": "SUBNS", "_raw_DS_CLASIF_GEN": "Suelo No Urbanizable Común", "_raw_DS_CLASIF_DET": "Suelo No Urbanizable. Rústico Reserva. Uso Agropecuario. Intensidad de uso: Cultivo Exclusivo", "_raw_DS_DOCU": "PLAN GENERAL", "_raw_DS_LEY": "CM Ley 9/1995, E Ley 6/1998, E RDL 1/1992, E RD 1346/1976", "_raw_FC_AC": "1997-06-26", "_raw_NM_AREA_M2": 16635.676832308902, "_cam_code": "084" }, "geometry": { "type": "Polygon", "coordinates": [ [ [ -3.4806, 40.4029 ], [ -3.4793, 40.4036 ], [ -3.4782, 40.4039 ], [ -3.4791, 40.405 ], [ -3.4806, 40.4029 ] ] ] } },
{ "type": "Feature", "properties": { "municipio": "Mejorada del Campo", "clasificacion": "urbanizable-no-sectorizado", "calificacion": "sin-asignar", "version": "vigente", "fuente": "SIT-CAM WFS — UsoDelSuelo:VPLA_V_CLASIFICACION (https://idem.comunidad.madrid/geosrvg/ows)", "fecha_dato": "2026-05-12", "ambito": "33235", "_raw_CD_SIGLAS": "SUBNS", "_raw_DS_CLASIF_GEN": "Suelo No Urbanizable Común", "_raw_DS_CLASIF_DET": "Suelo No Urbanizable. Rústico Reserva. Uso Agropecuario. Intensidad de uso: Cultivo Exclusivo", "_raw_DS_DOCU": "PLAN GENERAL", "_raw_DS_LEY": "CM Ley 9/1995, E Ley 6/1998, E RDL 1/1992, E RD 1346/1976", "_raw_FC_AC": "1997-06-26", "_raw_NM_AREA_M2": 83658.071426927694, "_cam_code": "084" }, "geometry": { "type": "Polygon", "coordinates": [ [ [ -3.4751, 40.4069 ], [ -3.4754, 40.4073 ], [ -3.4756, 40.4073 ], [ -3.4758, 40.4075 ], [ -3.4779, 40.4068 ], [ -3.4789, 40.4053 ], [ -3.4777, 40.4041 ], [ -3.4767, 40.4047 ], [ -3.4739, 40.4059 ], [ -3.4751, 40.4069 ] ] ] } },
{ "type": "Feature", "properties": { "municipio": "Mejorada del Campo", "clasificacion": "urbanizable-no-sectorizado", "calificacion": "sin-asignar", "version": "vigente", "fuente": "SIT-CAM WFS — UsoDelSuelo:VPLA_V_CLASIFICACION (https://idem.comunidad.madrid/geosrvg/ows)", "fecha_dato": "2026-05-12", "ambito": "33235", "_raw_CD_SIGLAS": "SUBNS", "_raw_DS_CLASIF_GEN": "Suelo No Urbanizable Común", "_raw_DS_CLASIF_DET": "Suelo No Urbanizable. Rústico Reserva. Uso Agropecuario. Intensidad de uso: Cultivo Exclusivo", "_raw_DS_DOCU": "PLAN GENERAL", "_raw_DS_LEY": "CM Ley 9/1995, E Ley 6/1998, E RDL 1/1992, E RD 1346/1976", "_raw_FC_AC": "1997-06-26", "_raw_NM_AREA_M2": 1708889.49755376, "_cam_code": "084" }, "geometry": { "type": "Polygon", "coordinates": [ [ [ -3.4436, 40.4088 ], [ -3.4458, 40.4094 ], [ -3.4477, 40.4103 ], [ -3.4488, 40.4105 ], [ -3.4536, 40.4102 ], [ -3.4555, 40.4103 ], [ -3.4565, 40.4102 ], [ -3.457, 40.41 ], [ -3.4576, 40.41 ], [ -3.4617, 40.408 ], [ -3.4635, 40.4068 ], [ -3.4658, 40.4058 ], [ -3.4669, 40.4055 ], [ -3.468, 40.4049 ], [ -3.4685, 40.4048 ], [ -3.4685, 40.4045 ], [ -3.4692, 40.4044 ], [ -3.4706, 40.4035 ], [ -3.4666, 40.3981 ], [ -3.4658, 40.3981 ], [ -3.4657, 40.3988 ], [ -3.4659, 40.3995 ], [ -3.4655, 40.3997 ], [ -3.4642, 40.3999 ], [ -3.463, 40.4003 ], [ -3.4617, 40.4003 ], [ -3.4591, 40.4013 ], [ -3.4586, 40.4013 ], [ -3.458, 40.4015 ], [ -3.4567, 40.4015 ], [ -3.4561, 40.4017 ], [ -3.4553, 40.4017 ], [ -3.4543, 40.4023 ], [ -3.4534, 40.4026 ], [ -3.4528, 40.4034 ], [ -3.452, 40.4037 ], [ -3.4494, 40.4035 ], [ -3.4488, 40.4031 ], [ -3.4479, 40.4028 ], [ -3.4475, 40.4028 ], [ -3.4458, 40.4033 ], [ -3.4452, 40.4038 ], [ -3.4447, 40.4039 ], [ -3.4445, 40.4043 ], [ -3.4435, 40.405 ], [ -3.4432, 40.406 ], [ -3.4427, 40.4064 ], [ -3.4434, 40.4069 ], [ -3.4436, 40.4074 ], [ -3.4435, 40.4078 ], [ -3.4436, 40.4088 ] ] ] } },
{ "type": "Feature", "properties": { "municipio": "Mejorada del Campo", "clasificacion": "urbanizable-no-sectorizado", "calificacion": "sin-asignar", "version": "vigente", "fuente": "SIT-CAM WFS — UsoDelSuelo:VPLA_V_CLASIFICACION (https://idem.comunidad.madrid/geosrvg/ows)", "fecha_dato": "2026-05-12", "ambito": "33235", "_raw_CD_SIGLAS": "SUBNS", "_raw_DS_CLASIF_GEN": "Suelo No Urbanizable Común", "_raw_DS_CLASIF_DET": "Suelo No Urbanizable. Rústico Reserva. Uso Agropecuario. Intensidad de uso: Cultivo Exclusivo", "_raw_DS_DOCU": "PLAN GENERAL", "_raw_DS_LEY": "CM Ley 9/1995, E Ley 6/1998, E RDL 1/1992, E RD 1346/1976", "_raw_FC_AC": "1997-06-26", "_raw_NM_AREA_M2": 540093.47276818904, "_cam_code": "084" }, "geometry": { "type": "Polygon", "coordinates": [ [ [ -3.4783, 40.4092 ], [ -3.4795, 40.4098 ], [ -3.4807, 40.4107 ], [ -3.4843, 40.4085 ], [ -3.4944, 40.4035 ], [ -3.494, 40.4028 ], [ -3.4933, 40.403 ], [ -3.4931, 40.4026 ], [ -3.4913, 40.4033 ], [ -3.4911, 40.403 ], [ -3.4909, 40.403 ], [ -3.4909, 40.4034 ], [ -3.4904, 40.4035 ], [ -3.4898, 40.4033 ], [ -3.4893, 40.4033 ], [ -3.4888, 40.4031 ], [ -3.4888, 40.403 ], [ -3.4876, 40.4028 ], [ -3.487, 40.4029 ], [ -3.4867, 40.4028 ], [ -3.4864, 40.4025 ], [ -3.4857, 40.4025 ], [ -3.4853, 40.4027 ], [ -3.485, 40.4026 ], [ -3.4849, 40.4024 ], [ -3.4844, 40.4024 ], [ -3.4838, 40.4029 ], [ -3.4828, 40.4033 ], [ -3.4818, 40.4043 ], [ -3.4805, 40.4063 ], [ -3.4784, 40.4088 ], [ -3.4783, 40.4092 ] ] ] } },
{ "type": "Feature", "properties": { "municipio": "Mejorada del Campo", "clasificacion": "urbanizable-no-sectorizado", "calificacion": "sin-asignar", "version": "vigente", "fuente": "SIT-CAM WFS — UsoDelSuelo:VPLA_V_CLASIFICACION (https://idem.comunidad.madrid/geosrvg/ows)", "fecha_dato": "2026-05-12", "ambito": "33235", "_raw_CD_SIGLAS": "SUBNS", "_raw_DS_CLASIF_GEN": "Suelo No Urbanizable Común", "_raw_DS_CLASIF_DET": "Suelo No Urbanizable. Rústico Reserva. Uso Agropecuario. Intensidad de uso: Cultivo Exclusivo", "_raw_DS_DOCU": "PLAN GENERAL", "_raw_DS_LEY": "CM Ley 9/1995, E Ley 6/1998, E RDL 1/1992, E RD 1346/1976", "_raw_FC_AC": "1997-06-26", "_raw_NM_AREA_M2": 57113.744325243802, "_cam_code": "084" }, "geometry": { "type": "Polygon", "coordinates": [ [ [ -3.4765, 40.4132 ], [ -3.4766, 40.4136 ], [ -3.4765, 40.4143 ], [ -3.4789, 40.412 ], [ -3.4802, 40.411 ], [ -3.4798, 40.4105 ], [ -3.4782, 40.4097 ], [ -3.4782, 40.4103 ], [ -3.478, 40.4108 ], [ -3.4767, 40.4126 ], [ -3.4765, 40.4132 ] ] ] } },
{ "type": "Feature", "properties": { "municipio": "Mejorada del Campo", "clasificacion": "urbanizable-no-sectorizado", "calificacion": "sin-asignar", "version": "vigente", "fuente": "SIT-CAM WFS — UsoDelSuelo:VPLA_V_CLASIFICACION (https://idem.comunidad.madrid/geosrvg/ows)", "fecha_dato": "2026-05-12", "ambito": "33235", "_raw_CD_SIGLAS": "SUBNS", "_raw_DS_CLASIF_GEN": "Suelo No Urbanizable Común", "_raw_DS_CLASIF_DET": "Suelo No Urbanizable. Rústico Reserva. Uso Agropecuario. Intensidad de uso: Cultivo Exclusivo", "_raw_DS_DOCU": "PLAN GENERAL", "_raw_DS_LEY": "CM Ley 9/1995, E Ley 6/1998, E RDL 1/1992, E RD 1346/1976", "_raw_FC_AC": "1997-06-26", "_raw_NM_AREA_M2": 313901.4735048, "_cam_code": "084" }, "geometry": { "type": "Polygon", "coordinates": [ [ [ -3.4796, 40.4134 ], [ -3.48, 40.4136 ], [ -3.4801, 40.4142 ], [ -3.4808, 40.4139 ], [ -3.4816, 40.4129 ], [ -3.4823, 40.413 ], [ -3.4834, 40.4125 ], [ -3.4842, 40.4124 ], [ -3.4849, 40.4119 ], [ -3.4857, 40.4111 ], [ -3.487, 40.4105 ], [ -3.4873, 40.4101 ], [ -3.4872, 40.4097 ], [ -3.4873, 40.4094 ], [ -3.4878, 40.4095 ], [ -3.4882, 40.4092 ], [ -3.4883, 40.4089 ], [ -3.4893, 40.4083 ], [ -3.4899, 40.4082 ], [ -3.4906, 40.4079 ], [ -3.4938, 40.4058 ], [ -3.4944, 40.4051 ], [ -3.4946, 40.4046 ], [ -3.4946, 40.4041 ], [ -3.4856, 40.4085 ], [ -3.4829, 40.41 ], [ -3.4794, 40.4124 ], [ -3.4779, 40.4139 ], [ -3.4781, 40.4139 ], [ -3.4783, 40.4142 ], [ -3.4787, 40.4142 ], [ -3.4787, 40.4141 ], [ -3.4792, 40.4139 ], [ -3.4793, 40.4135 ], [ -3.4796, 40.4134 ] ] ] } },
{ "type": "Feature", "properties": { "municipio": "Mejorada del Campo", "clasificacion": "urbanizable-no-sectorizado", "calificacion": "sin-asignar", "version": "vigente", "fuente": "SIT-CAM WFS — UsoDelSuelo:VPLA_V_CLASIFICACION (https://idem.comunidad.madrid/geosrvg/ows)", "fecha_dato": "2026-05-12", "ambito": "33235", "_raw_CD_SIGLAS": "SUBNS", "_raw_DS_CLASIF_GEN": "Suelo No Urbanizable Común", "_raw_DS_CLASIF_DET": "Suelo No Urbanizable. Rústico Reserva. Uso Agropecuario. Intensidad de uso: Cultivo Exclusivo", "_raw_DS_DOCU": "PLAN GENERAL", "_raw_DS_LEY": "CM Ley 9/1995, E Ley 6/1998, E RDL 1/1992, E RD 1346/1976", "_raw_FC_AC": "1997-06-26", "_raw_NM_AREA_M2": 195193.31045301, "_cam_code": "084" }, "geometry": { "type": "Polygon", "coordinates": [ [ [ -3.4443, 40.4172 ], [ -3.445, 40.4176 ], [ -3.446, 40.4178 ], [ -3.4468, 40.4177 ], [ -3.449, 40.4171 ], [ -3.4494, 40.4178 ], [ -3.45, 40.4175 ], [ -3.4495, 40.4168 ], [ -3.4492, 40.4169 ], [ -3.4491, 40.4168 ], [ -3.4487, 40.4156 ], [ -3.4492, 40.4154 ], [ -3.4492, 40.4149 ], [ -3.4496, 40.4145 ], [ -3.4496, 40.4143 ], [ -3.4492, 40.4142 ], [ -3.4481, 40.4143 ], [ -3.4484, 40.4137 ], [ -3.4482, 40.4131 ], [ -3.4433, 40.4145 ], [ -3.4438, 40.4166 ], [ -3.4443, 40.4172 ] ] ] } },
{ "type": "Feature", "properties": { "municipio": "Mejorada del Campo", "clasificacion": "urbanizable-no-sectorizado", "calificacion": "sin-asignar", "version": "vigente", "fuente": "SIT-CAM WFS — UsoDelSuelo:VPLA_V_CLASIFICACION (https://idem.comunidad.madrid/geosrvg/ows)", "fecha_dato": "2026-05-12", "ambito": "33235", "_raw_CD_SIGLAS": "SUBNS", "_raw_DS_CLASIF_GEN": "Suelo No Urbanizable Común", "_raw_DS_CLASIF_DET": "Suelo No Urbanizable. Rústico Reserva", "_raw_DS_DOCU": "PLAN GENERAL", "_raw_DS_LEY": "CM Ley 9/1995, E Ley 6/1998, E RDL 1/1992, E RD 1346/1976", "_raw_FC_AC": "1997-06-26", "_raw_NM_AREA_M2": 127090.9778023, "_cam_code": "084" }, "geometry": { "type": "Polygon", "coordinates": [ [ [ -3.4619, 40.3908 ], [ -3.4613, 40.391 ], [ -3.4734, 40.4071 ], [ -3.4751, 40.4083 ], [ -3.4777, 40.4095 ], [ -3.4779, 40.4091 ], [ -3.4752, 40.4078 ], [ -3.4738, 40.4067 ], [ -3.4715, 40.4038 ], [ -3.4619, 40.3908 ] ] ] } },
{ "type": "Feature", "properties": { "municipio": "Mejorada del Campo", "clasificacion": "urbanizable-no-sectorizado", "calificacion": "sin-asignar", "version": "vigente", "fuente": "SIT-CAM WFS — UsoDelSuelo:VPLA_V_CLASIFICACION (https://idem.comunidad.madrid/geosrvg/ows)", "fecha_dato": "2026-05-12", "ambito": "33235", "_raw_CD_SIGLAS": "SUBNS", "_raw_DS_CLASIF_GEN": "Suelo No Urbanizable Común", "_raw_DS_CLASIF_DET": "Suelo No Urbanizable. Rústico Reserva. Uso Agropecuario. Intensidad de uso: Instalaciones complementarias agropecuarias", "_raw_DS_DOCU": "PLAN GENERAL", "_raw_DS_LEY": "CM Ley 9/1995, E Ley 6/1998, E RDL 1/1992, E RD 1346/1976", "_raw_FC_AC": "1997-06-26", "_raw_NM_AREA_M2": 238062.86612821301, "_cam_code": "084" }, "geometry": { "type": "Polygon", "coordinates": [ [ [ -3.4673, 40.3981 ], [ -3.4688, 40.3979 ], [ -3.4677, 40.3931 ], [ -3.4682, 40.393 ], [ -3.4665, 40.3902 ], [ -3.4645, 40.3911 ], [ -3.4623, 40.3906 ], [ -3.4619, 40.3908 ], [ -3.4673, 40.3981 ] ] ] } },
{ "type": "Feature", "properties": { "municipio": "Mejorada del Campo", "clasificacion": "urbanizable-no-sectorizado", "calificacion": "sin-asignar", "version": "vigente", "fuente": "SIT-CAM WFS — UsoDelSuelo:VPLA_V_CLASIFICACION (https://idem.comunidad.madrid/geosrvg/ows)", "fecha_dato": "2026-05-12", "ambito": "33235", "_raw_CD_SIGLAS": "SUBNS", "_raw_DS_CLASIF_GEN": "Suelo No Urbanizable Común", "_raw_DS_CLASIF_DET": "Suelo No Urbanizable. Rústico Reserva. Uso Agropecuario. Intensidad de uso: Instalaciones complementarias agropecuarias", "_raw_DS_DOCU": "PLAN GENERAL", "_raw_DS_LEY": "CM Ley 9/1995, E Ley 6/1998, E RDL 1/1992, E RD 1346/1976", "_raw_FC_AC": "1997-06-26", "_raw_NM_AREA_M2": 1038987.23524652, "_cam_code": "084" }, "geometry": { "type": "Polygon", "coordinates": [ [ [ -3.4494, 40.4035 ], [ -3.452, 40.4037 ], [ -3.4528, 40.4034 ], [ -3.4534, 40.4026 ], [ -3.4543, 40.4023 ], [ -3.4553, 40.4017 ], [ -3.4561, 40.4017 ], [ -3.4567, 40.4015 ], [ -3.458, 40.4015 ], [ -3.4586, 40.4013 ], [ -3.4591, 40.4013 ], [ -3.4617, 40.4003 ], [ -3.463, 40.4003 ], [ -3.4642, 40.3999 ], [ -3.4655, 40.3997 ], [ -3.4659, 40.3995 ], [ -3.4657, 40.3988 ], [ -3.4658, 40.3981 ], [ -3.4666, 40.3981 ], [ -3.4614, 40.391 ], [ -3.4606, 40.3911 ], [ -3.4603, 40.392 ], [ -3.4595, 40.3929 ], [ -3.4589, 40.3932 ], [ -3.4588, 40.394 ], [ -3.4581, 40.3949 ], [ -3.457, 40.3954 ], [ -3.4559, 40.3955 ], [ -3.4552, 40.3954 ], [ -3.4542, 40.395 ], [ -3.4538, 40.3952 ], [ -3.4537, 40.3955 ], [ -3.4528, 40.3963 ], [ -3.4519, 40.3965 ], [ -3.4526, 40.3989 ], [ -3.4498, 40.3991 ], [ -3.4494, 40.3993 ], [ -3.4494, 40.3995 ], [ -3.4493, 40.3995 ], [ -3.449, 40.4001 ], [ -3.449, 40.4005 ], [ -3.4486, 40.4018 ], [ -3.4476, 40.402 ], [ -3.4466, 40.4029 ], [ -3.4461, 40.4029 ], [ -3.4458, 40.4033 ], [ -3.4475, 40.4028 ], [ -3.4479, 40.4028 ], [ -3.4488, 40.4031 ], [ -3.4494, 40.4035 ] ] ] } },
{ "type": "Feature", "properties": { "municipio": "Mejorada del Campo", "clasificacion": "urbanizable-no-sectorizado", "calificacion": "sin-asignar", "version": "vigente", "fuente": "SIT-CAM WFS — UsoDelSuelo:VPLA_V_CLASIFICACION (https://idem.comunidad.madrid/geosrvg/ows)", "fecha_dato": "2026-05-12", "ambito": "33235", "_raw_CD_SIGLAS": "SUBNS", "_raw_DS_CLASIF_GEN": "Suelo No Urbanizable Común", "_raw_DS_CLASIF_DET": "Suelo No Urbanizable. Sistema General. Servicios e Infraestructuras", "_raw_DS_DOCU": "PLAN GENERAL", "_raw_DS_LEY": "CM Ley 9/1995, E Ley 6/1998, E RDL 1/1992, E RD 1346/1976", "_raw_FC_AC": "1997-06-26", "_raw_NM_AREA_M2": 44303.884953963599, "_cam_code": "084" }, "geometry": { "type": "Polygon", "coordinates": [ [ [ -3.4773, 40.4144 ], [ -3.4771, 40.4146 ], [ -3.4752, 40.4163 ], [ -3.4786, 40.4153 ], [ -3.4801, 40.4142 ], [ -3.48, 40.4136 ], [ -3.4795, 40.4134 ], [ -3.4795, 40.4135 ], [ -3.4792, 40.4136 ], [ -3.4791, 40.414 ], [ -3.4787, 40.4141 ], [ -3.4787, 40.4142 ], [ -3.4783, 40.4142 ], [ -3.4779, 40.4138 ], [ -3.4773, 40.4144 ] ] ] } },
{ "type": "Feature", "properties": { "municipio": "Mejorada del Campo", "clasificacion": "urbanizable-no-sectorizado", "calificacion": "sin-asignar", "version": "vigente", "fuente": "SIT-CAM WFS — UsoDelSuelo:VPLA_V_CLASIFICACION (https://idem.comunidad.madrid/geosrvg/ows)", "fecha_dato": "2026-05-12", "ambito": "33235", "_raw_CD_SIGLAS": "SUBNS", "_raw_DS_CLASIF_GEN": "Suelo No Urbanizable Común", "_raw_DS_CLASIF_DET": "Suelo No Urbanizable. Sistema General. Servicios e Infraestructuras", "_raw_DS_DOCU": "PLAN GENERAL", "_raw_DS_LEY": "CM Ley 9/1995, E Ley 6/1998, E RDL 1/1992, E RD 1346/1976", "_raw_FC_AC": "1997-06-26", "_raw_NM_AREA_M2": 74180.5580027939, "_cam_code": "084" }, "geometry": { "type": "Polygon", "coordinates": [ [ [ -3.4453, 40.42 ], [ -3.4493, 40.4216 ], [ -3.4503, 40.4216 ], [ -3.4512, 40.4211 ], [ -3.4512, 40.4208 ], [ -3.4502, 40.4198 ], [ -3.4497, 40.4199 ], [ -3.447, 40.4191 ], [ -3.4453, 40.42 ] ] ] } },
{ "type": "Feature", "properties": { "municipio": "Mejorada del Campo", "clasificacion": "urbanizable-no-sectorizado", "calificacion": "sin-asignar", "version": "vigente", "fuente": "SIT-CAM WFS — UsoDelSuelo:VPLA_V_CLASIFICACION (https://idem.comunidad.madrid/geosrvg/ows)", "fecha_dato": "2026-05-12", "ambito": "33235", "_raw_CD_SIGLAS": "SUBNS", "_raw_DS_CLASIF_GEN": "Suelo No Urbanizable Común", "_raw_DS_CLASIF_DET": "Suelo No Urbanizable. Rústico Reserva", "_raw_DS_DOCU": "PLAN GENERAL", "_raw_DS_LEY": "CM Ley 9/1995, E Ley 6/1998, E RDL 1/1992, E RD 1346/1976", "_raw_FC_AC": "1997-06-26", "_raw_NM_AREA_M2": 60128.4497481211, "_cam_code": "084" }, "geometry": { "type": "Polygon", "coordinates": [ [ [ -3.4826, 40.3818 ], [ -3.4879, 40.3824 ], [ -3.4879, 40.3825 ], [ -3.4898, 40.3829 ], [ -3.4896, 40.3823 ], [ -3.4874, 40.3818 ], [ -3.4829, 40.3813 ], [ -3.4794, 40.3813 ], [ -3.4774, 40.3809 ], [ -3.4769, 40.3811 ], [ -3.4797, 40.3819 ], [ -3.4826, 40.3818 ] ] ] } },
{ "type": "Feature", "properties": { "municipio": "Mejorada del Campo", "clasificacion": "urbanizable-no-sectorizado", "calificacion": "sin-asignar", "version": "vigente", "fuente": "SIT-CAM WFS — UsoDelSuelo:VPLA_V_CLASIFICACION (https://idem.comunidad.madrid/geosrvg/ows)", "fecha_dato": "2026-05-12", "ambito": "33235", "_raw_CD_SIGLAS": "SUBNS", "_raw_DS_CLASIF_GEN": "Suelo No Urbanizable Común", "_raw_DS_CLASIF_DET": "Suelo No Urbanizable. Sistema General. Servicios e Infraestructuras", "_raw_DS_DOCU": "PLAN GENERAL", "_raw_DS_LEY": "CM Ley 9/1995, E Ley 6/1998, E RDL 1/1992, E RD 1346/1976", "_raw_FC_AC": "1997-06-26", "_raw_NM_AREA_M2": 136386.18143518499, "_cam_code": "084" }, "geometry": { "type": "Polygon", "coordinates": [ [ [ -3.4802, 40.411 ], [ -3.4789, 40.412 ], [ -3.4765, 40.4143 ], [ -3.4752, 40.4163 ], [ -3.4794, 40.4124 ], [ -3.4821, 40.4105 ], [ -3.4856, 40.4085 ], [ -3.4946, 40.4041 ], [ -3.4946, 40.4038 ], [ -3.4944, 40.4035 ], [ -3.4853, 40.408 ], [ -3.4834, 40.409 ], [ -3.4807, 40.4107 ], [ -3.4795, 40.4098 ], [ -3.4781, 40.4092 ], [ -3.4779, 40.4096 ], [ -3.4798, 40.4105 ], [ -3.4802, 40.411 ] ] ] } },
{ "type": "Feature", "properties": { "municipio": "Mejorada del Campo", "clasificacion": "urbanizable-no-sectorizado", "calificacion": "sin-asignar", "version": "vigente", "fuente": "SIT-CAM WFS — UsoDelSuelo:VPLA_V_CLASIFICACION (https://idem.comunidad.madrid/geosrvg/ows)", "fecha_dato": "2026-05-12", "ambito": "33235", "_raw_CD_SIGLAS": "SUBNS_A", "_raw_DS_CLASIF_GEN": "Suelo No Urbanizable Común (APLAZADO)", "_raw_DS_CLASIF_DET": "Suelo No Urbanizable. Reserva Municipal. Residencial Protegido.Cultivo Exclusivo", "_raw_DS_DOCU": "PLAN GENERAL", "_raw_DS_LEY": "CM Ley 9/1995, E Ley 6/1998, E RDL 1/1992, E RD 1346/1976", "_raw_FC_AC": "1997-06-26", "_raw_NM_AREA_M2": 116431.932358235, "_cam_code": "084" }, "geometry": { "type": "Polygon", "coordinates": [ [ [ -3.4731, 40.3982 ], [ -3.4716, 40.3994 ], [ -3.4714, 40.3997 ], [ -3.4713, 40.4002 ], [ -3.4714, 40.402 ], [ -3.471, 40.4031 ], [ -3.4715, 40.4038 ], [ -3.4718, 40.4035 ], [ -3.4718, 40.4033 ], [ -3.4721, 40.4032 ], [ -3.4725, 40.4028 ], [ -3.4727, 40.402 ], [ -3.4756, 40.401 ], [ -3.4738, 40.3984 ], [ -3.4732, 40.3984 ], [ -3.4731, 40.3982 ] ] ] } },
{ "type": "Feature", "properties": { "municipio": "Mejorada del Campo", "clasificacion": "urbanizable-no-sectorizado", "calificacion": "sin-asignar", "version": "vigente", "fuente": "SIT-CAM WFS — UsoDelSuelo:VPLA_V_CLASIFICACION (https://idem.comunidad.madrid/geosrvg/ows)", "fecha_dato": "2026-05-12", "ambito": "33235", "_raw_CD_SIGLAS": "SUBNS_A", "_raw_DS_CLASIF_GEN": "Suelo No Urbanizable Común (APLAZADO)", "_raw_DS_CLASIF_DET": "Suelo No Urbanizable. Reserva Municipal. Residencial Protegido.Cultivo Exclusivo", "_raw_DS_DOCU": "PLAN GENERAL", "_raw_DS_LEY": "CM Ley 9/1995, E Ley 6/1998, E RDL 1/1992, E RD 1346/1976", "_raw_FC_AC": "1997-06-26", "_raw_NM_AREA_M2": 48287.844816308803, "_cam_code": "084" }, "geometry": { "type": "Polygon", "coordinates": [ [ [ -3.4953, 40.3976 ], [ -3.4952, 40.3981 ], [ -3.4944, 40.3982 ], [ -3.4946, 40.3997 ], [ -3.4958, 40.399 ], [ -3.4987, 40.3982 ], [ -3.4991, 40.398 ], [ -3.4992, 40.3977 ], [ -3.4993, 40.3977 ], [ -3.4992, 40.3973 ], [ -3.499, 40.3973 ], [ -3.499, 40.3972 ], [ -3.4987, 40.3972 ], [ -3.4978, 40.3977 ], [ -3.4954, 40.3977 ], [ -3.4953, 40.3976 ] ] ] } },
{ "type": "Feature", "properties": { "municipio": "Mejorada del Campo", "clasificacion": "urbanizable-no-sectorizado", "calificacion": "sin-asignar", "version": "vigente", "fuente": "SIT-CAM WFS — UsoDelSuelo:VPLA_V_CLASIFICACION (https://idem.comunidad.madrid/geosrvg/ows)", "fecha_dato": "2026-05-12", "ambito": "33235", "_raw_CD_SIGLAS": "SUBNS_A", "_raw_DS_CLASIF_GEN": "Suelo No Urbanizable Común (APLAZADO)", "_raw_DS_CLASIF_DET": "Suelo No Urbanizable. Reserva Municipal. Residencial Protegido.Cultivo Exclusivo", "_raw_DS_DOCU": "PLAN GENERAL", "_raw_DS_LEY": "CM Ley 9/1995, E Ley 6/1998, E RDL 1/1992, E RD 1346/1976", "_raw_FC_AC": "1997-06-26", "_raw_NM_AREA_M2": 16700.0439684103, "_cam_code": "084" }, "geometry": { "type": "Polygon", "coordinates": [ [ [ -3.4691, 40.4048 ], [ -3.4695, 40.4052 ], [ -3.4711, 40.4041 ], [ -3.4706, 40.4035 ], [ -3.4692, 40.4044 ], [ -3.4685, 40.4045 ], [ -3.4685, 40.4048 ], [ -3.4689, 40.4047 ], [ -3.4689, 40.4046 ], [ -3.4691, 40.4048 ] ] ] } },
{ "type": "Feature", "properties": { "municipio": "Mejorada del Campo", "clasificacion": "urbanizable-sectorizado", "calificacion": "sin-asignar", "version": "vigente", "fuente": "SIT-CAM WFS — UsoDelSuelo:VPLA_V_CLASIFICACION (https://idem.comunidad.madrid/geosrvg/ows)", "fecha_dato": "2026-05-12", "ambito": "33235", "_raw_CD_SIGLAS": "SUBS", "_raw_DS_CLASIF_GEN": "Suelo Urbanizable Programado", "_raw_DS_CLASIF_DET": "Suelo Urbanizable Planemiento Incorporado", "_raw_DS_DOCU": "PLAN GENERAL", "_raw_DS_LEY": "CM Ley 9/1995, E Ley 6/1998, E RDL 1/1992, E RD 1346/1976", "_raw_FC_AC": "1997-06-26", "_raw_NM_AREA_M2": 59345.031033036903, "_cam_code": "084" }, "geometry": { "type": "Polygon", "coordinates": [ [ [ -3.4906, 40.3945 ], [ -3.4916, 40.395 ], [ -3.4922, 40.3948 ], [ -3.4921, 40.3943 ], [ -3.4926, 40.3943 ], [ -3.4924, 40.3935 ], [ -3.4927, 40.3933 ], [ -3.4929, 40.3926 ], [ -3.4927, 40.392 ], [ -3.4924, 40.3917 ], [ -3.4924, 40.3918 ], [ -3.4922, 40.3917 ], [ -3.4919, 40.392 ], [ -3.4919, 40.3914 ], [ -3.492, 40.3914 ], [ -3.4919, 40.3909 ], [ -3.4918, 40.3911 ], [ -3.4912, 40.3915 ], [ -3.4904, 40.3908 ], [ -3.4892, 40.3914 ], [ -3.4902, 40.3919 ], [ -3.4903, 40.3918 ], [ -3.4915, 40.393 ], [ -3.491, 40.3938 ], [ -3.4911, 40.3938 ], [ -3.4912, 40.3945 ], [ -3.4909, 40.3945 ], [ -3.4908, 40.3943 ], [ -3.4906, 40.3945 ] ] ] } },
{ "type": "Feature", "properties": { "municipio": "Mejorada del Campo", "clasificacion": "urbanizable-sectorizado", "calificacion": "sin-asignar", "version": "vigente", "fuente": "SIT-CAM WFS — UsoDelSuelo:VPLA_V_CLASIFICACION (https://idem.comunidad.madrid/geosrvg/ows)", "fecha_dato": "2026-05-12", "ambito": "33235", "_raw_CD_SIGLAS": "SUBS", "_raw_DS_CLASIF_GEN": "Suelo Urbanizable Programado", "_raw_DS_CLASIF_DET": "Suelo Urbanizable Programado", "_raw_DS_DOCU": "PLAN GENERAL", "_raw_DS_LEY": "CM Ley 9/1995, E Ley 6/1998, E RDL 1/1992, E RD 1346/1976", "_raw_FC_AC": "1997-06-26", "_raw_NM_AREA_M2": 13399.8720122255, "_cam_code": "084" }, "geometry": { "type": "Polygon", "coordinates": [ [ [ -3.4794, 40.4057 ], [ -3.4795, 40.4061 ], [ -3.4797, 40.4063 ], [ -3.4803, 40.4063 ], [ -3.4805, 40.4061 ], [ -3.4805, 40.4059 ], [ -3.4803, 40.4057 ], [ -3.4799, 40.4057 ], [ -3.4791, 40.405 ], [ -3.4782, 40.4039 ], [ -3.4779, 40.404 ], [ -3.4778, 40.4041 ], [ -3.4785, 40.4049 ], [ -3.4794, 40.4057 ] ] ] } },
{ "type": "Feature", "properties": { "municipio": "Mejorada del Campo", "clasificacion": "urbanizable-sectorizado", "calificacion": "sin-asignar", "version": "vigente", "fuente": "SIT-CAM WFS — UsoDelSuelo:VPLA_V_CLASIFICACION (https://idem.comunidad.madrid/geosrvg/ows)", "fecha_dato": "2026-05-12", "ambito": "33235", "_raw_CD_SIGLAS": "SUBS", "_raw_DS_CLASIF_GEN": "Suelo Urbanizable Programado", "_raw_DS_CLASIF_DET": "Suelo Urbanizable Planemiento Incorporado", "_raw_DS_DOCU": "PLAN GENERAL", "_raw_DS_LEY": "CM Ley 9/1995, E Ley 6/1998, E RDL 1/1992, E RD 1346/1976", "_raw_FC_AC": "1997-06-26", "_raw_NM_AREA_M2": 6791.9206359595601, "_cam_code": "084" }, "geometry": { "type": "Polygon", "coordinates": [ [ [ -3.4878, 40.3895 ], [ -3.4884, 40.3897 ], [ -3.4893, 40.3896 ], [ -3.4882, 40.3889 ], [ -3.4875, 40.3892 ], [ -3.4878, 40.3895 ] ] ] } },
{ "type": "Feature", "properties": { "municipio": "Mejorada del Campo", "clasificacion": "urbanizable-sectorizado", "calificacion": "sin-asignar", "version": "vigente", "fuente": "SIT-CAM WFS — UsoDelSuelo:VPLA_V_CLASIFICACION (https://idem.comunidad.madrid/geosrvg/ows)", "fecha_dato": "2026-05-12", "ambito": "33235", "_raw_CD_SIGLAS": "SUBS_A", "_raw_DS_CLASIF_GEN": "Suelo Urbanizable Programado (APLAZADO)", "_raw_DS_CLASIF_DET": "Suelo Urbanizable Planemiento Incorporado Aplazado", "_raw_DS_DOCU": "PLAN GENERAL", "_raw_DS_LEY": "CM Ley 9/1995, E Ley 6/1998, E RDL 1/1992, E RD 1346/1976", "_raw_FC_AC": "1997-06-26", "_raw_NM_AREA_M2": 2438068.8933737101, "_cam_code": "084" }, "geometry": { "type": "Polygon", "coordinates": [ [ [ -3.45, 40.4175 ], [ -3.4494, 40.4178 ], [ -3.4503, 40.4185 ], [ -3.4509, 40.4188 ], [ -3.4521, 40.4192 ], [ -3.4538, 40.4193 ], [ -3.4555, 40.4189 ], [ -3.4556, 40.4187 ], [ -3.4552, 40.4182 ], [ -3.4554, 40.418 ], [ -3.4595, 40.4176 ], [ -3.4603, 40.4174 ], [ -3.4614, 40.4169 ], [ -3.4622, 40.4169 ], [ -3.4642, 40.4164 ], [ -3.4646, 40.4165 ], [ -3.4653, 40.4164 ], [ -3.4673, 40.4157 ], [ -3.4708, 40.4141 ], [ -3.4711, 40.4141 ], [ -3.4716, 40.4138 ], [ -3.4734, 40.4132 ], [ -3.4742, 40.4125 ], [ -3.4753, 40.4118 ], [ -3.4761, 40.411 ], [ -3.477, 40.4105 ], [ -3.4775, 40.4096 ], [ -3.4777, 40.4095 ], [ -3.4751, 40.4083 ], [ -3.4734, 40.4071 ], [ -3.4711, 40.4041 ], [ -3.4695, 40.4052 ], [ -3.4689, 40.4046 ], [ -3.4689, 40.4047 ], [ -3.4686, 40.4048 ], [ -3.468, 40.4049 ], [ -3.4669, 40.4055 ], [ -3.4658, 40.4058 ], [ -3.4635, 40.4068 ], [ -3.4617, 40.408 ], [ -3.4591, 40.4092 ], [ -3.4579, 40.4099 ], [ -3.457, 40.41 ], [ -3.4565, 40.4102 ], [ -3.4555, 40.4103 ], [ -3.4536, 40.4102 ], [ -3.4488, 40.4105 ], [ -3.4477, 40.4103 ], [ -3.4458, 40.4094 ], [ -3.4436, 40.4088 ], [ -3.4436, 40.4089 ], [ -3.4436, 40.4088 ], [ -3.443, 40.4086 ], [ -3.443, 40.4089 ], [ -3.4431, 40.4089 ], [ -3.4422, 40.41 ], [ -3.4419, 40.4101 ], [ -3.4419, 40.4103 ], [ -3.4421, 40.4104 ], [ -3.4424, 40.4115 ], [ -3.4426, 40.4131 ], [ -3.4433, 40.4145 ], [ -3.4482, 40.4131 ], [ -3.4484, 40.4137 ], [ -3.4481, 40.4143 ], [ -3.4484, 40.4142 ], [ -3.4496, 40.4143 ], [ -3.4496, 40.4145 ], [ -3.4492, 40.4149 ], [ -3.4492, 40.4154 ], [ -3.4487, 40.4156 ], [ -3.4491, 40.4168 ], [ -3.4492, 40.4169 ], [ -3.4495, 40.4168 ], [ -3.45, 40.4175 ] ] ] } },
{ "type": "Feature", "properties": { "municipio": "Mejorada del Campo", "clasificacion": "urbanizable-sectorizado", "calificacion": "sin-asignar", "version": "vigente", "fuente": "SIT-CAM WFS — UsoDelSuelo:VPLA_V_CLASIFICACION (https://idem.comunidad.madrid/geosrvg/ows)", "fecha_dato": "2026-05-12", "ambito": "33235", "_raw_CD_SIGLAS": "SUBS_A", "_raw_DS_CLASIF_GEN": "Suelo Urbanizable Programado (APLAZADO)", "_raw_DS_CLASIF_DET": "Suelo Urbanizable Planemiento Aplazado", "_raw_DS_DOCU": "PLAN GENERAL", "_raw_DS_LEY": "CM Ley 9/1995, E Ley 6/1998, E RDL 1/1992, E RD 1346/1976", "_raw_FC_AC": "1997-06-26", "_raw_NM_AREA_M2": 1280360.27844952, "_cam_code": "084" }, "geometry": { "type": "Polygon", "coordinates": [ [ [ -3.4796, 40.3996 ], [ -3.4806, 40.4027 ], [ -3.4808, 40.4029 ], [ -3.4841, 40.4017 ], [ -3.4846, 40.4011 ], [ -3.4846, 40.4006 ], [ -3.4845, 40.4004 ], [ -3.4839, 40.4 ], [ -3.4825, 40.3993 ], [ -3.4822, 40.399 ], [ -3.4809, 40.3983 ], [ -3.4801, 40.3976 ], [ -3.48, 40.3971 ], [ -3.4801, 40.3971 ], [ -3.4798, 40.3963 ], [ -3.4785, 40.3948 ], [ -3.4783, 40.3908 ], [ -3.4765, 40.3908 ], [ -3.4764, 40.3899 ], [ -3.476, 40.3899 ], [ -3.476, 40.389 ], [ -3.4759, 40.3889 ], [ -3.4763, 40.3889 ], [ -3.4762, 40.3884 ], [ -3.4762, 40.385 ], [ -3.476, 40.3836 ], [ -3.4761, 40.3835 ], [ -3.4774, 40.3835 ], [ -3.4904, 40.384 ], [ -3.4898, 40.3829 ], [ -3.4879, 40.3825 ], [ -3.4879, 40.3824 ], [ -3.4826, 40.3818 ], [ -3.4797, 40.3819 ], [ -3.4768, 40.3811 ], [ -3.4762, 40.3814 ], [ -3.4742, 40.382 ], [ -3.4737, 40.3824 ], [ -3.4713, 40.3837 ], [ -3.471, 40.384 ], [ -3.4706, 40.3841 ], [ -3.4717, 40.3855 ], [ -3.4719, 40.3856 ], [ -3.472, 40.3861 ], [ -3.4721, 40.3861 ], [ -3.4721, 40.3865 ], [ -3.4718, 40.3868 ], [ -3.4721, 40.3871 ], [ -3.4722, 40.3913 ], [ -3.472, 40.3914 ], [ -3.472, 40.3918 ], [ -3.4722, 40.3919 ], [ -3.4724, 40.3963 ], [ -3.4726, 40.3967 ], [ -3.4726, 40.397 ], [ -3.4727, 40.397 ], [ -3.4727, 40.3972 ], [ -3.4731, 40.3978 ], [ -3.4731, 40.3983 ], [ -3.4732, 40.3984 ], [ -3.4738, 40.3984 ], [ -3.4756, 40.4009 ], [ -3.4771, 40.4004 ], [ -3.4782, 40.4002 ], [ -3.4796, 40.3996 ] ] ] } },
{ "type": "Feature", "properties": { "municipio": "Mejorada del Campo", "clasificacion": "urbanizable-sectorizado", "calificacion": "sin-asignar", "version": "vigente", "fuente": "SIT-CAM WFS — UsoDelSuelo:VPLA_V_CLASIFICACION (https://idem.comunidad.madrid/geosrvg/ows)", "fecha_dato": "2026-05-12", "ambito": "33235", "_raw_CD_SIGLAS": "SUBS_A", "_raw_DS_CLASIF_GEN": "Suelo Urbanizable Programado (APLAZADO)", "_raw_DS_CLASIF_DET": "Suelo Urbanizable Planemiento Aplazado", "_raw_DS_DOCU": "PLAN GENERAL", "_raw_DS_LEY": "CM Ley 9/1995, E Ley 6/1998, E RDL 1/1992, E RD 1346/1976", "_raw_FC_AC": "1997-06-26", "_raw_NM_AREA_M2": 201557.60600764601, "_cam_code": "084" }, "geometry": { "type": "Polygon", "coordinates": [ [ [ -3.48, 40.3813 ], [ -3.4829, 40.3813 ], [ -3.4881, 40.3819 ], [ -3.4896, 40.3823 ], [ -3.4894, 40.3804 ], [ -3.4888, 40.3803 ], [ -3.4861, 40.3804 ], [ -3.4851, 40.3807 ], [ -3.4849, 40.3807 ], [ -3.4848, 40.3804 ], [ -3.4847, 40.3804 ], [ -3.4847, 40.3803 ], [ -3.4872, 40.3798 ], [ -3.4873, 40.3794 ], [ -3.4872, 40.3794 ], [ -3.4872, 40.3791 ], [ -3.4874, 40.3789 ], [ -3.4892, 40.3785 ], [ -3.4892, 40.3781 ], [ -3.4846, 40.3789 ], [ -3.4774, 40.3809 ], [ -3.4794, 40.3813 ], [ -3.48, 40.3813 ] ] ] } },
{ "type": "Feature", "properties": { "municipio": "Mejorada del Campo", "clasificacion": "urbanizable-sectorizado", "calificacion": "sin-asignar", "version": "vigente", "fuente": "SIT-CAM WFS — UsoDelSuelo:VPLA_V_CLASIFICACION (https://idem.comunidad.madrid/geosrvg/ows)", "fecha_dato": "2026-05-12", "ambito": "33235", "_raw_CD_SIGLAS": "SUBS_A", "_raw_DS_CLASIF_GEN": "Suelo Urbanizable Programado (APLAZADO)", "_raw_DS_CLASIF_DET": "Suelo Urbanizable Planemiento Incorporado Aplazado", "_raw_DS_DOCU": "PLAN GENERAL", "_raw_DS_LEY": "CM Ley 9/1995, E Ley 6/1998, E RDL 1/1992, E RD 1346/1976", "_raw_FC_AC": "1997-06-26", "_raw_NM_AREA_M2": 333965.00509645202, "_cam_code": "084" }, "geometry": { "type": "Polygon", "coordinates": [ [ [ -3.4749, 40.4076 ], [ -3.4779, 40.4091 ], [ -3.4781, 40.4088 ], [ -3.4764, 40.4081 ], [ -3.4774, 40.4076 ], [ -3.4779, 40.4068 ], [ -3.4757, 40.4075 ], [ -3.4756, 40.4073 ], [ -3.4754, 40.4073 ], [ -3.4749, 40.4067 ], [ -3.4745, 40.4065 ], [ -3.4739, 40.4059 ], [ -3.4767, 40.4047 ], [ -3.4779, 40.404 ], [ -3.4793, 40.4036 ], [ -3.4807, 40.4029 ], [ -3.4796, 40.3996 ], [ -3.4785, 40.4001 ], [ -3.4771, 40.4004 ], [ -3.4727, 40.402 ], [ -3.4725, 40.4028 ], [ -3.4721, 40.4032 ], [ -3.4718, 40.4033 ], [ -3.4718, 40.4035 ], [ -3.4715, 40.4038 ], [ -3.4738, 40.4067 ], [ -3.4749, 40.4076 ] ] ] } }
]
}
