{
"type": "FeatureCollection",
"name": "vigente.full",
"features": [
{ "type": "Feature", "properties": { "municipio": "Belmonte de Tajo", "clasificacion": "no-urbanizable-protegido", "calificacion": "sin-asignar", "version": "vigente", "fuente": "SIT-CAM WFS — UsoDelSuelo:VPLA_V_CLASIFICACION (https://idem.comunidad.madrid/geosrvg/ows)", "fecha_dato": "2026-05-12", "ambito": "38426", "_raw_CD_SIGLAS": "SNUP", "_raw_DS_CLASIF_GEN": "Suelo No Urbanizable Protegido", "_raw_DS_CLASIF_DET": "Suelo No Urbanizable Especialmente Protegido Espacios de Interés Forestal y Paisajístico", "_raw_DS_DOCU": "NORMAS SUBSIDIARIAS", "_raw_DS_LEY": "CM Ley 9/1995, E RDL 1/1992", "_raw_FC_AC": "1999-02-04", "_raw_NM_AREA_M2": 2153302.8326635002, "_cam_code": "019" }, "geometry": { "type": "Polygon", "coordinates": [ [ [ -3.3513, 40.1443 ], [ -3.3521, 40.1444 ], [ -3.3526, 40.1447 ], [ -3.3532, 40.1442 ], [ -3.3551, 40.1433 ], [ -3.3541, 40.1422 ], [ -3.3541, 40.1416 ], [ -3.3535, 40.1412 ], [ -3.3535, 40.1407 ], [ -3.3532, 40.1399 ], [ -3.3526, 40.1399 ], [ -3.3512, 40.1396 ], [ -3.3488, 40.1386 ], [ -3.3479, 40.1385 ], [ -3.3482, 40.1378 ], [ -3.3472, 40.1372 ], [ -3.3469, 40.1365 ], [ -3.3473, 40.1363 ], [ -3.3475, 40.136 ], [ -3.3476, 40.1355 ], [ -3.3484, 40.1346 ], [ -3.3496, 40.1343 ], [ -3.3502, 40.1344 ], [ -3.3507, 40.1347 ], [ -3.3512, 40.1354 ], [ -3.3528, 40.1355 ], [ -3.356, 40.1362 ], [ -3.3568, 40.1363 ], [ -3.3591, 40.136 ], [ -3.3597, 40.1361 ], [ -3.3614, 40.1349 ], [ -3.3616, 40.1346 ], [ -3.3619, 40.1345 ], [ -3.3633, 40.1347 ], [ -3.3643, 40.135 ], [ -3.3648, 40.1349 ], [ -3.3655, 40.1341 ], [ -3.3655, 40.1334 ], [ -3.3657, 40.1333 ], [ -3.3656, 40.1328 ], [ -3.3659, 40.1325 ], [ -3.3662, 40.1314 ], [ -3.3671, 40.131 ], [ -3.3682, 40.1299 ], [ -3.3688, 40.1297 ], [ -3.3705, 40.1296 ], [ -3.3719, 40.1292 ], [ -3.373, 40.1292 ], [ -3.3734, 40.1295 ], [ -3.3734, 40.1299 ], [ -3.3745, 40.1299 ], [ -3.3746, 40.1296 ], [ -3.3745, 40.1288 ], [ -3.3742, 40.1285 ], [ -3.3741, 40.1287 ], [ -3.374, 40.1286 ], [ -3.374, 40.1282 ], [ -3.3735, 40.1274 ], [ -3.373, 40.1273 ], [ -3.3722, 40.1278 ], [ -3.3719, 40.1274 ], [ -3.3713, 40.1271 ], [ -3.3708, 40.1274 ], [ -3.3707, 40.1278 ], [ -3.3702, 40.1277 ], [ -3.3698, 40.1281 ], [ -3.3695, 40.1282 ], [ -3.3692, 40.1289 ], [ -3.3688, 40.1287 ], [ -3.3686, 40.1282 ], [ -3.3682, 40.1285 ], [ -3.368, 40.1285 ], [ -3.3682, 40.1281 ], [ -3.3682, 40.1276 ], [ -3.3675, 40.127 ], [ -3.3668, 40.1273 ], [ -3.3665, 40.1273 ], [ -3.3663, 40.1272 ], [ -3.3663, 40.127 ], [ -3.366, 40.127 ], [ -3.3655, 40.1274 ], [ -3.3652, 40.1274 ], [ -3.365, 40.1273 ], [ -3.3646, 40.1261 ], [ -3.3635, 40.1259 ], [ -3.3633, 40.1262 ], [ -3.3626, 40.1265 ], [ -3.3625, 40.1271 ], [ -3.3623, 40.1273 ], [ -3.3622, 40.1277 ], [ -3.3613, 40.1278 ], [ -3.361, 40.128 ], [ -3.3615, 40.1285 ], [ -3.3612, 40.1288 ], [ -3.3602, 40.1292 ], [ -3.3601, 40.129 ], [ -3.3603, 40.1286 ], [ -3.36, 40.1285 ], [ -3.3599, 40.1295 ], [ -3.3597, 40.1299 ], [ -3.3596, 40.1299 ], [ -3.3598, 40.1303 ], [ -3.3598, 40.1306 ], [ -3.3596, 40.1308 ], [ -3.3592, 40.1307 ], [ -3.359, 40.1304 ], [ -3.3587, 40.1304 ], [ -3.3584, 40.1302 ], [ -3.3584, 40.13 ], [ -3.358, 40.13 ], [ -3.3577, 40.1302 ], [ -3.3575, 40.1308 ], [ -3.3577, 40.1311 ], [ -3.3582, 40.1314 ], [ -3.3582, 40.1315 ], [ -3.3577, 40.1314 ], [ -3.3574, 40.1316 ], [ -3.3576, 40.132 ], [ -3.3576, 40.1323 ], [ -3.3578, 40.1324 ], [ -3.3577, 40.1329 ], [ -3.3579, 40.1331 ], [ -3.358, 40.133 ], [ -3.3581, 40.1331 ], [ -3.3589, 40.1331 ], [ -3.3593, 40.1326 ], [ -3.3591, 40.1324 ], [ -3.3591, 40.1322 ], [ -3.3597, 40.1322 ], [ -3.3603, 40.1327 ], [ -3.3604, 40.1332 ], [ -3.3597, 40.1333 ], [ -3.3595, 40.1334 ], [ -3.3594, 40.1337 ], [ -3.3578, 40.1336 ], [ -3.3566, 40.1339 ], [ -3.3555, 40.1339 ], [ -3.3548, 40.1341 ], [ -3.3543, 40.134 ], [ -3.3552, 40.1332 ], [ -3.3555, 40.1327 ], [ -3.3556, 40.1317 ], [ -3.3562, 40.1309 ], [ -3.3565, 40.1299 ], [ -3.3585, 40.1289 ], [ -3.3587, 40.1286 ], [ -3.3587, 40.1283 ], [ -3.3585, 40.128 ], [ -3.3579, 40.1277 ], [ -3.3578, 40.1275 ], [ -3.3579, 40.1265 ], [ -3.3584, 40.1265 ], [ -3.3588, 40.1268 ], [ -3.3589, 40.1272 ], [ -3.3592, 40.1275 ], [ -3.3601, 40.1272 ], [ -3.3605, 40.1263 ], [ -3.3608, 40.1261 ], [ -3.3622, 40.1258 ], [ -3.3628, 40.1254 ], [ -3.363, 40.125 ], [ -3.3633, 40.125 ], [ -3.3636, 40.1248 ], [ -3.3635, 40.1244 ], [ -3.3636, 40.1242 ], [ -3.3639, 40.1242 ], [ -3.3639, 40.1241 ], [ -3.3635, 40.1237 ], [ -3.3631, 40.1236 ], [ -3.3629, 40.1233 ], [ -3.3629, 40.1229 ], [ -3.3631, 40.1228 ], [ -3.3634, 40.1229 ], [ -3.364, 40.1235 ], [ -3.3646, 40.1236 ], [ -3.3647, 40.1231 ], [ -3.364, 40.1222 ], [ -3.3642, 40.1217 ], [ -3.3646, 40.1213 ], [ -3.3639, 40.1208 ], [ -3.3634, 40.1213 ], [ -3.3634, 40.1215 ], [ -3.3638, 40.1216 ], [ -3.3637, 40.1218 ], [ -3.3632, 40.1221 ], [ -3.3628, 40.1221 ], [ -3.3624, 40.1219 ], [ -3.3615, 40.1218 ], [ -3.361, 40.1216 ], [ -3.3604, 40.1217 ], [ -3.36, 40.122 ], [ -3.3597, 40.1219 ], [ -3.3593, 40.122 ], [ -3.3594, 40.1227 ], [ -3.359, 40.1231 ], [ -3.359, 40.1234 ], [ -3.3573, 40.124 ], [ -3.3565, 40.124 ], [ -3.3559, 40.1244 ], [ -3.355, 40.1244 ], [ -3.3548, 40.1252 ], [ -3.3545, 40.1253 ], [ -3.3535, 40.1252 ], [ -3.3533, 40.1254 ], [ -3.3533, 40.1258 ], [ -3.3531, 40.1261 ], [ -3.3527, 40.1261 ], [ -3.352, 40.1265 ], [ -3.3514, 40.1263 ], [ -3.3514, 40.1265 ], [ -3.3516, 40.1267 ], [ -3.3514, 40.1276 ], [ -3.3512, 40.1277 ], [ -3.3505, 40.1276 ], [ -3.3503, 40.1283 ], [ -3.3489, 40.1288 ], [ -3.349, 40.1294 ], [ -3.35, 40.1311 ], [ -3.3492, 40.1311 ], [ -3.3489, 40.1309 ], [ -3.3485, 40.131 ], [ -3.3475, 40.1308 ], [ -3.3471, 40.1309 ], [ -3.3471, 40.1349 ], [ -3.3468, 40.1351 ], [ -3.3463, 40.1359 ], [ -3.3444, 40.1363 ], [ -3.3434, 40.1361 ], [ -3.3442, 40.1376 ], [ -3.3455, 40.1385 ], [ -3.3456, 40.1388 ], [ -3.3464, 40.1387 ], [ -3.3477, 40.1443 ], [ -3.35, 40.1443 ], [ -3.3502, 40.1445 ], [ -3.3513, 40.1443 ] ] ] } },
{ "type": "Feature", "properties": { "municipio": "Belmonte de Tajo", "clasificacion": "no-urbanizable-protegido", "calificacion": "sin-asignar", "version": "vigente", "fuente": "SIT-CAM WFS — UsoDelSuelo:VPLA_V_CLASIFICACION (https://idem.comunidad.madrid/geosrvg/ows)", "fecha_dato": "2026-05-12", "ambito": "38426", "_raw_CD_SIGLAS": "SNUP", "_raw_DS_CLASIF_GEN": "Suelo No Urbanizable Protegido", "_raw_DS_CLASIF_DET": "Suelo No Urbanizable Especialmente Protegido Espacios de Interés Forestal y Paisajístico-Interés Arqueológico A", "_raw_DS_DOCU": "NORMAS SUBSIDIARIAS", "_raw_DS_LEY": "CM Ley 9/1995, E RDL 1/1992", "_raw_FC_AC": "1999-02-04", "_raw_NM_AREA_M2": 95046.010983717904, "_cam_code": "019" }, "geometry": { "type": "Polygon", "coordinates": [ [ [ -3.3444, 40.1363 ], [ -3.3463, 40.1359 ], [ -3.3468, 40.1351 ], [ -3.3471, 40.1349 ], [ -3.3471, 40.13 ], [ -3.3449, 40.1302 ], [ -3.345, 40.1309 ], [ -3.3452, 40.1313 ], [ -3.3459, 40.1316 ], [ -3.3462, 40.1322 ], [ -3.3458, 40.1331 ], [ -3.346, 40.1336 ], [ -3.3449, 40.1341 ], [ -3.3447, 40.1343 ], [ -3.3447, 40.1346 ], [ -3.3453, 40.1353 ], [ -3.3446, 40.1353 ], [ -3.3444, 40.1363 ] ] ] } },
{ "type": "Feature", "properties": { "municipio": "Belmonte de Tajo", "clasificacion": "no-urbanizable-protegido", "calificacion": "sin-asignar", "version": "vigente", "fuente": "SIT-CAM WFS — UsoDelSuelo:VPLA_V_CLASIFICACION (https://idem.comunidad.madrid/geosrvg/ows)", "fecha_dato": "2026-05-12", "ambito": "38426", "_raw_CD_SIGLAS": "SNUP", "_raw_DS_CLASIF_GEN": "Suelo No Urbanizable Protegido", "_raw_DS_CLASIF_DET": "Suelo No Urbanizable Especialmente Protegido Espacios Forestales de Régimen Especial-Interés Arqueológico A", "_raw_DS_DOCU": "NORMAS SUBSIDIARIAS", "_raw_DS_LEY": "CM Ley 9/1995, E RDL 1/1992", "_raw_FC_AC": "1999-02-04", "_raw_NM_AREA_M2": 175526.486273874, "_cam_code": "019" }, "geometry": { "type": "Polygon", "coordinates": [ [ [ -3.3352, 40.1516 ], [ -3.3379, 40.1528 ], [ -3.3397, 40.1507 ], [ -3.3403, 40.1508 ], [ -3.3393, 40.1501 ], [ -3.34, 40.1488 ], [ -3.3403, 40.1486 ], [ -3.3405, 40.1479 ], [ -3.3408, 40.1476 ], [ -3.3408, 40.1469 ], [ -3.3399, 40.1467 ], [ -3.3386, 40.1467 ], [ -3.338, 40.1465 ], [ -3.3374, 40.1466 ], [ -3.3374, 40.1484 ], [ -3.3352, 40.1516 ] ] ] } },
{ "type": "Feature", "properties": { "municipio": "Belmonte de Tajo", "clasificacion": "no-urbanizable-protegido", "calificacion": "sin-asignar", "version": "vigente", "fuente": "SIT-CAM WFS — UsoDelSuelo:VPLA_V_CLASIFICACION (https://idem.comunidad.madrid/geosrvg/ows)", "fecha_dato": "2026-05-12", "ambito": "38426", "_raw_CD_SIGLAS": "SNUP", "_raw_DS_CLASIF_GEN": "Suelo No Urbanizable Protegido", "_raw_DS_CLASIF_DET": "Suelo No Urbanizable Especialmente Protegido Espacios Forestales de Régimen Especial-Interés Arqueológico B", "_raw_DS_DOCU": "NORMAS SUBSIDIARIAS", "_raw_DS_LEY": "CM Ley 9/1995, E RDL 1/1992", "_raw_FC_AC": "1999-02-04", "_raw_NM_AREA_M2": 43501.297137229099, "_cam_code": "019" }, "geometry": { "type": "Polygon", "coordinates": [ [ [ -3.3373, 40.1429 ], [ -3.3378, 40.1445 ], [ -3.3416, 40.1421 ], [ -3.3413, 40.1416 ], [ -3.3409, 40.1414 ], [ -3.3405, 40.1416 ], [ -3.3402, 40.1423 ], [ -3.3396, 40.1424 ], [ -3.3396, 40.1427 ], [ -3.3388, 40.1428 ], [ -3.3386, 40.1423 ], [ -3.3384, 40.1427 ], [ -3.3383, 40.1427 ], [ -3.3377, 40.1423 ], [ -3.3374, 40.1425 ], [ -3.3373, 40.1429 ] ] ] } },
{ "type": "Feature", "properties": { "municipio": "Belmonte de Tajo", "clasificacion": "no-urbanizable-protegido", "calificacion": "sin-asignar", "version": "vigente", "fuente": "SIT-CAM WFS — UsoDelSuelo:VPLA_V_CLASIFICACION (https://idem.comunidad.madrid/geosrvg/ows)", "fecha_dato": "2026-05-12", "ambito": "38426", "_raw_CD_SIGLAS": "SNUP", "_raw_DS_CLASIF_GEN": "Suelo No Urbanizable Protegido", "_raw_DS_CLASIF_DET": "Suelo No Urbanizable Especialmente Protegido Espacios con Restricción de Uso-Interés Arqueológico B", "_raw_DS_DOCU": "NORMAS SUBSIDIARIAS", "_raw_DS_LEY": "CM Ley 9/1995, E RDL 1/1992", "_raw_FC_AC": "1999-02-04", "_raw_NM_AREA_M2": 99607.629807886202, "_cam_code": "019" }, "geometry": { "type": "Polygon", "coordinates": [ [ [ -3.337, 40.1409 ], [ -3.3373, 40.1429 ], [ -3.3374, 40.1425 ], [ -3.3377, 40.1423 ], [ -3.3383, 40.1427 ], [ -3.3384, 40.1427 ], [ -3.3386, 40.1423 ], [ -3.3388, 40.1428 ], [ -3.3396, 40.1427 ], [ -3.3396, 40.1424 ], [ -3.3402, 40.1423 ], [ -3.3405, 40.1416 ], [ -3.341, 40.1413 ], [ -3.3418, 40.1399 ], [ -3.3418, 40.1396 ], [ -3.3411, 40.1393 ], [ -3.3393, 40.1394 ], [ -3.339, 40.1396 ], [ -3.339, 40.1399 ], [ -3.3387, 40.14 ], [ -3.3386, 40.1403 ], [ -3.3384, 40.1399 ], [ -3.3383, 40.1403 ], [ -3.3381, 40.1402 ], [ -3.3379, 40.1403 ], [ -3.3379, 40.1405 ], [ -3.3375, 40.1406 ], [ -3.3373, 40.141 ], [ -3.337, 40.1409 ] ] ] } },
{ "type": "Feature", "properties": { "municipio": "Belmonte de Tajo", "clasificacion": "no-urbanizable-protegido", "calificacion": "sin-asignar", "version": "vigente", "fuente": "SIT-CAM WFS — UsoDelSuelo:VPLA_V_CLASIFICACION (https://idem.comunidad.madrid/geosrvg/ows)", "fecha_dato": "2026-05-12", "ambito": "38426", "_raw_CD_SIGLAS": "SNUP", "_raw_DS_CLASIF_GEN": "Suelo No Urbanizable Protegido", "_raw_DS_CLASIF_DET": "Suelo No Urbanizable Especialmente Protegido Espacios de Interés Forestal y Paisajístico", "_raw_DS_DOCU": "NORMAS SUBSIDIARIAS", "_raw_DS_LEY": "CM Ley 9/1995, E RDL 1/1992", "_raw_FC_AC": "1999-02-04", "_raw_NM_AREA_M2": 48628.009107040401, "_cam_code": "019" }, "geometry": { "type": "Polygon", "coordinates": [ [ [ -3.3369, 40.1463 ], [ -3.3374, 40.1466 ], [ -3.3375, 40.1452 ], [ -3.3367, 40.1453 ], [ -3.3356, 40.1452 ], [ -3.3351, 40.1451 ], [ -3.3349, 40.1449 ], [ -3.3343, 40.145 ], [ -3.3331, 40.1447 ], [ -3.333, 40.1452 ], [ -3.3328, 40.1454 ], [ -3.332, 40.1457 ], [ -3.332, 40.1459 ], [ -3.3324, 40.146 ], [ -3.3348, 40.1459 ], [ -3.3349, 40.146 ], [ -3.3359, 40.1461 ], [ -3.3361, 40.1464 ], [ -3.3369, 40.1463 ] ] ] } },
{ "type": "Feature", "properties": { "municipio": "Belmonte de Tajo", "clasificacion": "no-urbanizable-protegido", "calificacion": "sin-asignar", "version": "vigente", "fuente": "SIT-CAM WFS — UsoDelSuelo:VPLA_V_CLASIFICACION (https://idem.comunidad.madrid/geosrvg/ows)", "fecha_dato": "2026-05-12", "ambito": "38426", "_raw_CD_SIGLAS": "SNUP", "_raw_DS_CLASIF_GEN": "Suelo No Urbanizable Protegido", "_raw_DS_CLASIF_DET": "Suelo No Urbanizable Especialmente Protegido Espacios de Interés Forestal y Paisajístico", "_raw_DS_DOCU": "NORMAS SUBSIDIARIAS", "_raw_DS_LEY": "CM Ley 9/1995, E RDL 1/1992", "_raw_FC_AC": "1999-02-04", "_raw_NM_AREA_M2": 69603.994122737902, "_cam_code": "019" }, "geometry": { "type": "Polygon", "coordinates": [ [ [ -3.3477, 40.1481 ], [ -3.3487, 40.1477 ], [ -3.3517, 40.1454 ], [ -3.3511, 40.145 ], [ -3.3505, 40.145 ], [ -3.3499, 40.1448 ], [ -3.3494, 40.1448 ], [ -3.3488, 40.145 ], [ -3.3478, 40.145 ], [ -3.3477, 40.1481 ] ] ] } },
{ "type": "Feature", "properties": { "municipio": "Belmonte de Tajo", "clasificacion": "no-urbanizable-protegido", "calificacion": "sin-asignar", "version": "vigente", "fuente": "SIT-CAM WFS — UsoDelSuelo:VPLA_V_CLASIFICACION (https://idem.comunidad.madrid/geosrvg/ows)", "fecha_dato": "2026-05-12", "ambito": "38426", "_raw_CD_SIGLAS": "SNUP", "_raw_DS_CLASIF_GEN": "Suelo No Urbanizable Protegido", "_raw_DS_CLASIF_DET": "Suelo No Urbanizable Especialmente Protegido Espacios de Interés Forestal y Paisajístico", "_raw_DS_DOCU": "NORMAS SUBSIDIARIAS", "_raw_DS_LEY": "CM Ley 9/1995, E RDL 1/1992", "_raw_FC_AC": "1999-02-04", "_raw_NM_AREA_M2": 133825.11912138801, "_cam_code": "019" }, "geometry": { "type": "Polygon", "coordinates": [ [ [ -3.3264, 40.1395 ], [ -3.3268, 40.1397 ], [ -3.3266, 40.1401 ], [ -3.3267, 40.1404 ], [ -3.3273, 40.1404 ], [ -3.3275, 40.1406 ], [ -3.3278, 40.1404 ], [ -3.3276, 40.1401 ], [ -3.3277, 40.1398 ], [ -3.3276, 40.1395 ], [ -3.3281, 40.1397 ], [ -3.3286, 40.1397 ], [ -3.3292, 40.14 ], [ -3.3293, 40.14 ], [ -3.3292, 40.1396 ], [ -3.3297, 40.1391 ], [ -3.3299, 40.1391 ], [ -3.3305, 40.1395 ], [ -3.3302, 40.1384 ], [ -3.3304, 40.1382 ], [ -3.3308, 40.1383 ], [ -3.3307, 40.1377 ], [ -3.3314, 40.1377 ], [ -3.3317, 40.1376 ], [ -3.3325, 40.1378 ], [ -3.3332, 40.1378 ], [ -3.3337, 40.138 ], [ -3.3343, 40.1369 ], [ -3.3343, 40.1368 ], [ -3.3339, 40.1371 ], [ -3.3335, 40.137 ], [ -3.3334, 40.1368 ], [ -3.3338, 40.1362 ], [ -3.3339, 40.1358 ], [ -3.3333, 40.1352 ], [ -3.333, 40.1355 ], [ -3.3327, 40.1355 ], [ -3.332, 40.1365 ], [ -3.3319, 40.1369 ], [ -3.3317, 40.137 ], [ -3.3311, 40.137 ], [ -3.3302, 40.1366 ], [ -3.3293, 40.1367 ], [ -3.3279, 40.1363 ], [ -3.3275, 40.1366 ], [ -3.3278, 40.1368 ], [ -3.3289, 40.137 ], [ -3.3293, 40.1372 ], [ -3.3302, 40.1373 ], [ -3.3311, 40.1372 ], [ -3.3314, 40.1374 ], [ -3.3314, 40.1376 ], [ -3.3313, 40.1377 ], [ -3.331, 40.1377 ], [ -3.3307, 40.1377 ], [ -3.3301, 40.1383 ], [ -3.3299, 40.1383 ], [ -3.3295, 40.1378 ], [ -3.3281, 40.1377 ], [ -3.3275, 40.1373 ], [ -3.3272, 40.1373 ], [ -3.327, 40.1374 ], [ -3.327, 40.1384 ], [ -3.3272, 40.1386 ], [ -3.3265, 40.1384 ], [ -3.326, 40.1387 ], [ -3.3264, 40.1395 ] ] ] } },
{ "type": "Feature", "properties": { "municipio": "Belmonte de Tajo", "clasificacion": "no-urbanizable-protegido", "calificacion": "sin-asignar", "version": "vigente", "fuente": "SIT-CAM WFS — UsoDelSuelo:VPLA_V_CLASIFICACION (https://idem.comunidad.madrid/geosrvg/ows)", "fecha_dato": "2026-05-12", "ambito": "38426", "_raw_CD_SIGLAS": "SNUP", "_raw_DS_CLASIF_GEN": "Suelo No Urbanizable Protegido", "_raw_DS_CLASIF_DET": "Suelo No Urbanizable Especialmente Protegido Espacios de Interés Forestal y Paisajístico-Interés Arqueológico A", "_raw_DS_DOCU": "NORMAS SUBSIDIARIAS", "_raw_DS_LEY": "CM Ley 9/1995, E RDL 1/1992", "_raw_FC_AC": "1999-02-04", "_raw_NM_AREA_M2": 469401.40811076201, "_cam_code": "019" }, "geometry": { "type": "Polygon", "coordinates": [ [ [ -3.3399, 40.1467 ], [ -3.3408, 40.1469 ], [ -3.3408, 40.1476 ], [ -3.3405, 40.1479 ], [ -3.3403, 40.1486 ], [ -3.34, 40.1488 ], [ -3.3393, 40.1501 ], [ -3.3403, 40.1508 ], [ -3.3415, 40.1509 ], [ -3.3425, 40.1494 ], [ -3.3465, 40.1486 ], [ -3.3477, 40.1481 ], [ -3.3478, 40.145 ], [ -3.3465, 40.1446 ], [ -3.346, 40.1447 ], [ -3.3456, 40.1445 ], [ -3.3444, 40.1445 ], [ -3.3435, 40.1451 ], [ -3.3434, 40.1456 ], [ -3.3423, 40.1457 ], [ -3.3421, 40.1456 ], [ -3.3428, 40.1449 ], [ -3.3432, 40.1447 ], [ -3.3435, 40.1443 ], [ -3.3441, 40.1439 ], [ -3.344, 40.1438 ], [ -3.3446, 40.1426 ], [ -3.3447, 40.142 ], [ -3.3447, 40.14 ], [ -3.3416, 40.1421 ], [ -3.3418, 40.1423 ], [ -3.3424, 40.1424 ], [ -3.3425, 40.1426 ], [ -3.3414, 40.1434 ], [ -3.3403, 40.1439 ], [ -3.3398, 40.1446 ], [ -3.3398, 40.1449 ], [ -3.3391, 40.1454 ], [ -3.3387, 40.1455 ], [ -3.3375, 40.1452 ], [ -3.3374, 40.1466 ], [ -3.338, 40.1465 ], [ -3.3386, 40.1467 ], [ -3.3399, 40.1467 ] ] ] } },
{ "type": "Feature", "properties": { "municipio": "Belmonte de Tajo", "clasificacion": "no-urbanizable-protegido", "calificacion": "sin-asignar", "version": "vigente", "fuente": "SIT-CAM WFS — UsoDelSuelo:VPLA_V_CLASIFICACION (https://idem.comunidad.madrid/geosrvg/ows)", "fecha_dato": "2026-05-12", "ambito": "38426", "_raw_CD_SIGLAS": "SNUP", "_raw_DS_CLASIF_GEN": "Suelo No Urbanizable Protegido", "_raw_DS_CLASIF_DET": "Suelo No Urbanizable Especialmente Protegido Espacios de Interés Forestal y Paisajístico", "_raw_DS_DOCU": "NORMAS SUBSIDIARIAS", "_raw_DS_LEY": "CM Ley 9/1995, E RDL 1/1992", "_raw_FC_AC": "1999-02-04", "_raw_NM_AREA_M2": 229195.63612228999, "_cam_code": "019" }, "geometry": { "type": "Polygon", "coordinates": [ [ [ -3.335, 40.1373 ], [ -3.334, 40.1383 ], [ -3.3356, 40.1394 ], [ -3.3445, 40.1388 ], [ -3.3443, 40.138 ], [ -3.343, 40.1367 ], [ -3.3429, 40.1365 ], [ -3.3431, 40.1362 ], [ -3.343, 40.1358 ], [ -3.3428, 40.1358 ], [ -3.3428, 40.1357 ], [ -3.3428, 40.1357 ], [ -3.3428, 40.1357 ], [ -3.3428, 40.1358 ], [ -3.3428, 40.136 ], [ -3.3426, 40.1362 ], [ -3.3416, 40.1355 ], [ -3.3415, 40.1356 ], [ -3.3409, 40.1356 ], [ -3.3407, 40.136 ], [ -3.3408, 40.1362 ], [ -3.3407, 40.1364 ], [ -3.3403, 40.1365 ], [ -3.3399, 40.1362 ], [ -3.3397, 40.1366 ], [ -3.3395, 40.1365 ], [ -3.3393, 40.1366 ], [ -3.339, 40.1363 ], [ -3.3385, 40.1363 ], [ -3.3378, 40.1366 ], [ -3.3376, 40.1371 ], [ -3.3362, 40.1374 ], [ -3.335, 40.1373 ] ] ] } },
{ "type": "Feature", "properties": { "municipio": "Belmonte de Tajo", "clasificacion": "no-urbanizable-protegido", "calificacion": "sin-asignar", "version": "vigente", "fuente": "SIT-CAM WFS — UsoDelSuelo:VPLA_V_CLASIFICACION (https://idem.comunidad.madrid/geosrvg/ows)", "fecha_dato": "2026-05-12", "ambito": "38426", "_raw_CD_SIGLAS": "SNUP", "_raw_DS_CLASIF_GEN": "Suelo No Urbanizable Protegido", "_raw_DS_CLASIF_DET": "Suelo No Urbanizable Especialmente Protegido Espacios de Interés Forestal y Paisajístico", "_raw_DS_DOCU": "NORMAS SUBSIDIARIAS", "_raw_DS_LEY": "CM Ley 9/1995, E RDL 1/1992", "_raw_FC_AC": "1999-02-04", "_raw_NM_AREA_M2": 153192.92072393699, "_cam_code": "019" }, "geometry": { "type": "Polygon", "coordinates": [ [ [ -3.3659, 40.1266 ], [ -3.3664, 40.1264 ], [ -3.3673, 40.1265 ], [ -3.3677, 40.1263 ], [ -3.3678, 40.1257 ], [ -3.368, 40.1255 ], [ -3.3683, 40.126 ], [ -3.3687, 40.1258 ], [ -3.369, 40.126 ], [ -3.3693, 40.1259 ], [ -3.3696, 40.1256 ], [ -3.3699, 40.1256 ], [ -3.3702, 40.1253 ], [ -3.3709, 40.1255 ], [ -3.3712, 40.1253 ], [ -3.3705, 40.1248 ], [ -3.3683, 40.1238 ], [ -3.3651, 40.1216 ], [ -3.3648, 40.122 ], [ -3.3648, 40.1223 ], [ -3.3653, 40.1229 ], [ -3.3653, 40.1232 ], [ -3.365, 40.1234 ], [ -3.3649, 40.1237 ], [ -3.3645, 40.1239 ], [ -3.3644, 40.1249 ], [ -3.3637, 40.1252 ], [ -3.3636, 40.1256 ], [ -3.3641, 40.1257 ], [ -3.3648, 40.1252 ], [ -3.3655, 40.1253 ], [ -3.3655, 40.1255 ], [ -3.3653, 40.1257 ], [ -3.3658, 40.126 ], [ -3.3659, 40.1266 ] ] ] } },
{ "type": "Feature", "properties": { "municipio": "Belmonte de Tajo", "clasificacion": "no-urbanizable-protegido", "calificacion": "sin-asignar", "version": "vigente", "fuente": "SIT-CAM WFS — UsoDelSuelo:VPLA_V_CLASIFICACION (https://idem.comunidad.madrid/geosrvg/ows)", "fecha_dato": "2026-05-12", "ambito": "38426", "_raw_CD_SIGLAS": "SNUP", "_raw_DS_CLASIF_GEN": "Suelo No Urbanizable Protegido", "_raw_DS_CLASIF_DET": "Suelo No Urbanizable Especialmente Protegido Espacios Forestales de Régimen Especial-Interés Arqueológico A", "_raw_DS_DOCU": "NORMAS SUBSIDIARIAS", "_raw_DS_LEY": "CM Ley 9/1995, E RDL 1/1992", "_raw_FC_AC": "1999-02-04", "_raw_NM_AREA_M2": 53596.5666006955, "_cam_code": "019" }, "geometry": { "type": "Polygon", "coordinates": [ [ [ -3.3378, 40.1445 ], [ -3.3375, 40.1452 ], [ -3.3385, 40.1455 ], [ -3.3391, 40.1454 ], [ -3.3398, 40.1449 ], [ -3.3398, 40.1446 ], [ -3.3403, 40.1439 ], [ -3.3414, 40.1434 ], [ -3.3425, 40.1426 ], [ -3.3424, 40.1424 ], [ -3.3418, 40.1423 ], [ -3.3416, 40.1421 ], [ -3.3378, 40.1445 ] ] ] } },
{ "type": "Feature", "properties": { "municipio": "Belmonte de Tajo", "clasificacion": "no-urbanizable-protegido", "calificacion": "sin-asignar", "version": "vigente", "fuente": "SIT-CAM WFS — UsoDelSuelo:VPLA_V_CLASIFICACION (https://idem.comunidad.madrid/geosrvg/ows)", "fecha_dato": "2026-05-12", "ambito": "38426", "_raw_CD_SIGLAS": "SNUP", "_raw_DS_CLASIF_GEN": "Suelo No Urbanizable Protegido", "_raw_DS_CLASIF_DET": "Suelo No Urbanizable Especialmente Protegido Espacios de Interés Forestal y Paisajístico-Interés Arqueológico A", "_raw_DS_DOCU": "NORMAS SUBSIDIARIAS", "_raw_DS_LEY": "CM Ley 9/1995, E RDL 1/1992", "_raw_FC_AC": "1999-02-04", "_raw_NM_AREA_M2": 57586.637088490599, "_cam_code": "019" }, "geometry": { "type": "Polygon", "coordinates": [ [ [ -3.3456, 40.1388 ], [ -3.3459, 40.1398 ], [ -3.3457, 40.1404 ], [ -3.3457, 40.1423 ], [ -3.3471, 40.1444 ], [ -3.3478, 40.1448 ], [ -3.3464, 40.1387 ], [ -3.3456, 40.1388 ] ] ] } },
{ "type": "Feature", "properties": { "municipio": "Belmonte de Tajo", "clasificacion": "no-urbanizable-protegido", "calificacion": "sin-asignar", "version": "vigente", "fuente": "SIT-CAM WFS — UsoDelSuelo:VPLA_V_CLASIFICACION (https://idem.comunidad.madrid/geosrvg/ows)", "fecha_dato": "2026-05-12", "ambito": "38426", "_raw_CD_SIGLAS": "SNUP", "_raw_DS_CLASIF_GEN": "Suelo No Urbanizable Protegido", "_raw_DS_CLASIF_DET": "Suelo No Urbanizable Especialmente Protegido Espacios de Interés Forestal y Paisajístico-Interés Arqueológico A", "_raw_DS_DOCU": "NORMAS SUBSIDIARIAS", "_raw_DS_LEY": "CM Ley 9/1995, E RDL 1/1992", "_raw_FC_AC": "1999-02-04", "_raw_NM_AREA_M2": 61892.677138698004, "_cam_code": "019" }, "geometry": { "type": "Polygon", "coordinates": [ [ [ -3.3308, 40.1383 ], [ -3.3325, 40.1386 ], [ -3.3327, 40.1388 ], [ -3.3327, 40.1394 ], [ -3.333, 40.14 ], [ -3.333, 40.1403 ], [ -3.3337, 40.1409 ], [ -3.3344, 40.141 ], [ -3.335, 40.139 ], [ -3.3337, 40.138 ], [ -3.3332, 40.1378 ], [ -3.3325, 40.1378 ], [ -3.3317, 40.1376 ], [ -3.3307, 40.1377 ], [ -3.3308, 40.1383 ] ] ] } },
{ "type": "Feature", "properties": { "municipio": "Belmonte de Tajo", "clasificacion": "no-urbanizable-protegido", "calificacion": "sin-asignar", "version": "vigente", "fuente": "SIT-CAM WFS — UsoDelSuelo:VPLA_V_CLASIFICACION (https://idem.comunidad.madrid/geosrvg/ows)", "fecha_dato": "2026-05-12", "ambito": "38426", "_raw_CD_SIGLAS": "SNUP", "_raw_DS_CLASIF_GEN": "Suelo No Urbanizable Protegido", "_raw_DS_CLASIF_DET": "Suelo No Urbanizable Especialmente Protegido Espacios con Restricción de Uso-Interés Arqueológico A", "_raw_DS_DOCU": "NORMAS SUBSIDIARIAS", "_raw_DS_LEY": "CM Ley 9/1995, E RDL 1/1992", "_raw_FC_AC": "1999-02-04", "_raw_NM_AREA_M2": 35823.296177056298, "_cam_code": "019" }, "geometry": { "type": "Polygon", "coordinates": [ [ [ -3.3308, 40.1383 ], [ -3.3313, 40.1404 ], [ -3.3334, 40.1407 ], [ -3.3337, 40.1409 ], [ -3.333, 40.1403 ], [ -3.333, 40.14 ], [ -3.3327, 40.1394 ], [ -3.3327, 40.1388 ], [ -3.3325, 40.1386 ], [ -3.3308, 40.1383 ] ] ] } },
{ "type": "Feature", "properties": { "municipio": "Belmonte de Tajo", "clasificacion": "no-urbanizable-protegido", "calificacion": "sin-asignar", "version": "vigente", "fuente": "SIT-CAM WFS — UsoDelSuelo:VPLA_V_CLASIFICACION (https://idem.comunidad.madrid/geosrvg/ows)", "fecha_dato": "2026-05-12", "ambito": "38426", "_raw_CD_SIGLAS": "SNUP", "_raw_DS_CLASIF_GEN": "Suelo No Urbanizable Protegido", "_raw_DS_CLASIF_DET": "Suelo No Urbanizable Especialmente Protegido Espacios Forestales de Régimen Especial", "_raw_DS_DOCU": "NORMAS SUBSIDIARIAS", "_raw_DS_LEY": "CM Ley 9/1995, E RDL 1/1992", "_raw_FC_AC": "1999-02-04", "_raw_NM_AREA_M2": 92182.566506042, "_cam_code": "019" }, "geometry": { "type": "Polygon", "coordinates": [ [ [ -3.343, 40.1329 ], [ -3.3437, 40.1336 ], [ -3.344, 40.1338 ], [ -3.3442, 40.1341 ], [ -3.3445, 40.1344 ], [ -3.3449, 40.1348 ], [ -3.3447, 40.1346 ], [ -3.3447, 40.1343 ], [ -3.3449, 40.1341 ], [ -3.346, 40.1336 ], [ -3.3458, 40.1331 ], [ -3.3462, 40.1322 ], [ -3.3459, 40.1316 ], [ -3.3452, 40.1313 ], [ -3.345, 40.1309 ], [ -3.3449, 40.1302 ], [ -3.3431, 40.1305 ], [ -3.3424, 40.1312 ], [ -3.343, 40.1322 ], [ -3.343, 40.1325 ], [ -3.3426, 40.1329 ], [ -3.343, 40.1329 ] ] ] } },
{ "type": "Feature", "properties": { "municipio": "Belmonte de Tajo", "clasificacion": "no-urbanizable-protegido", "calificacion": "sin-asignar", "version": "vigente", "fuente": "SIT-CAM WFS — UsoDelSuelo:VPLA_V_CLASIFICACION (https://idem.comunidad.madrid/geosrvg/ows)", "fecha_dato": "2026-05-12", "ambito": "38426", "_raw_CD_SIGLAS": "SNUP", "_raw_DS_CLASIF_GEN": "Suelo No Urbanizable Protegido", "_raw_DS_CLASIF_DET": "Suelo No Urbanizable Especialmente Protegido Espacios Forestales de Régimen Especial", "_raw_DS_DOCU": "NORMAS SUBSIDIARIAS", "_raw_DS_LEY": "CM Ley 9/1995, E RDL 1/1992", "_raw_FC_AC": "1999-02-04", "_raw_NM_AREA_M2": 27355.826029746499, "_cam_code": "019" }, "geometry": { "type": "Polygon", "coordinates": [ [ [ -3.3255, 40.1678 ], [ -3.3251, 40.1682 ], [ -3.3247, 40.169 ], [ -3.3256, 40.1695 ], [ -3.3261, 40.1694 ], [ -3.3265, 40.1693 ], [ -3.3273, 40.1676 ], [ -3.3269, 40.1677 ], [ -3.3267, 40.1679 ], [ -3.3263, 40.1677 ], [ -3.3257, 40.1679 ], [ -3.3255, 40.1678 ] ] ] } },
{ "type": "Feature", "properties": { "municipio": "Belmonte de Tajo", "clasificacion": "no-urbanizable-protegido", "calificacion": "sin-asignar", "version": "vigente", "fuente": "SIT-CAM WFS — UsoDelSuelo:VPLA_V_CLASIFICACION (https://idem.comunidad.madrid/geosrvg/ows)", "fecha_dato": "2026-05-12", "ambito": "38426", "_raw_CD_SIGLAS": "SNUP", "_raw_DS_CLASIF_GEN": "Suelo No Urbanizable Protegido", "_raw_DS_CLASIF_DET": "Suelo No Urbanizable Especialmente Protegido Espacios Forestales de Régimen Especial", "_raw_DS_DOCU": "NORMAS SUBSIDIARIAS", "_raw_DS_LEY": "CM Ley 9/1995, E RDL 1/1992", "_raw_FC_AC": "1999-02-04", "_raw_NM_AREA_M2": 1031313.3130176, "_cam_code": "019" }, "geometry": { "type": "Polygon", "coordinates": [ [ [ -3.3347, 40.1556 ], [ -3.3349, 40.1557 ], [ -3.3348, 40.1556 ], [ -3.3349, 40.1555 ], [ -3.3354, 40.1556 ], [ -3.3363, 40.155 ], [ -3.3379, 40.1528 ], [ -3.3352, 40.1516 ], [ -3.3374, 40.1484 ], [ -3.3374, 40.1466 ], [ -3.3369, 40.1463 ], [ -3.3361, 40.1464 ], [ -3.3359, 40.1461 ], [ -3.3349, 40.146 ], [ -3.3348, 40.1459 ], [ -3.3324, 40.146 ], [ -3.332, 40.1459 ], [ -3.332, 40.1457 ], [ -3.3328, 40.1454 ], [ -3.333, 40.1452 ], [ -3.3331, 40.1447 ], [ -3.3343, 40.145 ], [ -3.3349, 40.1449 ], [ -3.3351, 40.1451 ], [ -3.3356, 40.1452 ], [ -3.3367, 40.1453 ], [ -3.3375, 40.1452 ], [ -3.3378, 40.1445 ], [ -3.3373, 40.1429 ], [ -3.3371, 40.143 ], [ -3.3366, 40.1427 ], [ -3.3366, 40.1428 ], [ -3.3359, 40.1429 ], [ -3.3358, 40.1432 ], [ -3.3334, 40.1431 ], [ -3.332, 40.1434 ], [ -3.331, 40.1433 ], [ -3.3305, 40.1434 ], [ -3.33, 40.1432 ], [ -3.3288, 40.1447 ], [ -3.3283, 40.1447 ], [ -3.3279, 40.145 ], [ -3.3278, 40.1453 ], [ -3.3254, 40.1451 ], [ -3.3243, 40.1455 ], [ -3.323, 40.1469 ], [ -3.3227, 40.147 ], [ -3.3227, 40.1478 ], [ -3.3224, 40.1481 ], [ -3.3225, 40.149 ], [ -3.3222, 40.1502 ], [ -3.3214, 40.1519 ], [ -3.3197, 40.1524 ], [ -3.3194, 40.1528 ], [ -3.3182, 40.1535 ], [ -3.318, 40.1538 ], [ -3.3192, 40.1537 ], [ -3.3196, 40.1535 ], [ -3.3204, 40.1534 ], [ -3.3205, 40.1535 ], [ -3.3203, 40.1538 ], [ -3.3209, 40.1543 ], [ -3.3216, 40.1543 ], [ -3.323, 40.1546 ], [ -3.3241, 40.1542 ], [ -3.3257, 40.1542 ], [ -3.3265, 40.1539 ], [ -3.3275, 40.1539 ], [ -3.3272, 40.1537 ], [ -3.3272, 40.1535 ], [ -3.327, 40.1536 ], [ -3.3268, 40.1535 ], [ -3.3268, 40.1533 ], [ -3.3271, 40.1532 ], [ -3.327, 40.1529 ], [ -3.3273, 40.1527 ], [ -3.3275, 40.1514 ], [ -3.3273, 40.1486 ], [ -3.3274, 40.1484 ], [ -3.3277, 40.1484 ], [ -3.3281, 40.1487 ], [ -3.3286, 40.1486 ], [ -3.329, 40.1488 ], [ -3.3299, 40.1483 ], [ -3.3315, 40.1485 ], [ -3.3319, 40.1484 ], [ -3.332, 40.1482 ], [ -3.3333, 40.1482 ], [ -3.3349, 40.149 ], [ -3.3351, 40.1493 ], [ -3.3349, 40.1496 ], [ -3.3349, 40.15 ], [ -3.3338, 40.1496 ], [ -3.3333, 40.1497 ], [ -3.3334, 40.1501 ], [ -3.3332, 40.1509 ], [ -3.3323, 40.1506 ], [ -3.3322, 40.1511 ], [ -3.3339, 40.1515 ], [ -3.3348, 40.1519 ], [ -3.3351, 40.1518 ], [ -3.3352, 40.1522 ], [ -3.3346, 40.1524 ], [ -3.3346, 40.1527 ], [ -3.3354, 40.1528 ], [ -3.3358, 40.1532 ], [ -3.3345, 40.1538 ], [ -3.3348, 40.1542 ], [ -3.3349, 40.1548 ], [ -3.3349, 40.1551 ], [ -3.3346, 40.1553 ], [ -3.3347, 40.1556 ] ] ] } },
{ "type": "Feature", "properties": { "municipio": "Belmonte de Tajo", "clasificacion": "no-urbanizable-protegido", "calificacion": "sin-asignar", "version": "vigente", "fuente": "SIT-CAM WFS — UsoDelSuelo:VPLA_V_CLASIFICACION (https://idem.comunidad.madrid/geosrvg/ows)", "fecha_dato": "2026-05-12", "ambito": "38426", "_raw_CD_SIGLAS": "SNUP", "_raw_DS_CLASIF_GEN": "Suelo No Urbanizable Protegido", "_raw_DS_CLASIF_DET": "Suelo No Urbanizable Especialmente Protegido Espacios Forestales de Régimen Especial", "_raw_DS_DOCU": "NORMAS SUBSIDIARIAS", "_raw_DS_LEY": "CM Ley 9/1995, E RDL 1/1992", "_raw_FC_AC": "1999-02-04", "_raw_NM_AREA_M2": 18916.761469772398, "_cam_code": "019" }, "geometry": { "type": "Polygon", "coordinates": [ [ [ -3.3431, 40.1362 ], [ -3.3429, 40.1365 ], [ -3.343, 40.1367 ], [ -3.3443, 40.138 ], [ -3.3446, 40.1391 ], [ -3.3447, 40.139 ], [ -3.3457, 40.139 ], [ -3.3455, 40.1385 ], [ -3.3442, 40.1376 ], [ -3.3434, 40.1361 ], [ -3.343, 40.1358 ], [ -3.3431, 40.1362 ] ] ] } },
{ "type": "Feature", "properties": { "municipio": "Belmonte de Tajo", "clasificacion": "no-urbanizable-protegido", "calificacion": "sin-asignar", "version": "vigente", "fuente": "SIT-CAM WFS — UsoDelSuelo:VPLA_V_CLASIFICACION (https://idem.comunidad.madrid/geosrvg/ows)", "fecha_dato": "2026-05-12", "ambito": "38426", "_raw_CD_SIGLAS": "SNUP", "_raw_DS_CLASIF_GEN": "Suelo No Urbanizable Protegido", "_raw_DS_CLASIF_DET": "Suelo No Urbanizable Especialmente Protegido Espacios de Interés Forestal y Paisajístico-Interés Arqueológico B", "_raw_DS_DOCU": "NORMAS SUBSIDIARIAS", "_raw_DS_LEY": "CM Ley 9/1995, E RDL 1/1992", "_raw_FC_AC": "1999-02-04", "_raw_NM_AREA_M2": 134124.320135635, "_cam_code": "019" }, "geometry": { "type": "Polygon", "coordinates": [ [ [ -3.3409, 40.1414 ], [ -3.3413, 40.1416 ], [ -3.3416, 40.1421 ], [ -3.3447, 40.14 ], [ -3.3447, 40.1391 ], [ -3.3446, 40.1391 ], [ -3.3445, 40.1388 ], [ -3.3356, 40.1394 ], [ -3.335, 40.139 ], [ -3.3344, 40.141 ], [ -3.337, 40.1411 ], [ -3.337, 40.1409 ], [ -3.3373, 40.141 ], [ -3.3375, 40.1406 ], [ -3.3379, 40.1405 ], [ -3.3379, 40.1403 ], [ -3.3381, 40.1402 ], [ -3.3383, 40.1403 ], [ -3.3384, 40.1399 ], [ -3.3386, 40.1403 ], [ -3.3387, 40.14 ], [ -3.339, 40.1399 ], [ -3.339, 40.1396 ], [ -3.3393, 40.1394 ], [ -3.3411, 40.1393 ], [ -3.3418, 40.1396 ], [ -3.3418, 40.1399 ], [ -3.3409, 40.1414 ] ] ] } },
{ "type": "Feature", "properties": { "municipio": "Belmonte de Tajo", "clasificacion": "no-urbanizable-protegido", "calificacion": "sin-asignar", "version": "vigente", "fuente": "SIT-CAM WFS — UsoDelSuelo:VPLA_V_CLASIFICACION (https://idem.comunidad.madrid/geosrvg/ows)", "fecha_dato": "2026-05-12", "ambito": "38426", "_raw_CD_SIGLAS": "SNUP", "_raw_DS_CLASIF_GEN": "Suelo No Urbanizable Protegido", "_raw_DS_CLASIF_DET": "Suelo No Urbanizable Especialmente Protegido de Interés Arqueológico A", "_raw_DS_DOCU": "NORMAS SUBSIDIARIAS", "_raw_DS_LEY": "CM Ley 9/1995, E RDL 1/1992", "_raw_FC_AC": "1999-02-04", "_raw_NM_AREA_M2": 98966.380732864796, "_cam_code": "019" }, "geometry": { "type": "Polygon", "coordinates": [ [ [ -3.3388, 40.1117 ], [ -3.3377, 40.1117 ], [ -3.337, 40.1119 ], [ -3.3363, 40.1125 ], [ -3.3361, 40.1133 ], [ -3.3363, 40.1139 ], [ -3.3373, 40.1147 ], [ -3.3387, 40.1148 ], [ -3.3396, 40.1145 ], [ -3.3403, 40.1136 ], [ -3.3403, 40.113 ], [ -3.3401, 40.1125 ], [ -3.3394, 40.1119 ], [ -3.3388, 40.1117 ] ] ] } },
{ "type": "Feature", "properties": { "municipio": "Belmonte de Tajo", "clasificacion": "no-urbanizable-protegido", "calificacion": "sin-asignar", "version": "vigente", "fuente": "SIT-CAM WFS — UsoDelSuelo:VPLA_V_CLASIFICACION (https://idem.comunidad.madrid/geosrvg/ows)", "fecha_dato": "2026-05-12", "ambito": "38426", "_raw_CD_SIGLAS": "SNUP", "_raw_DS_CLASIF_GEN": "Suelo No Urbanizable Protegido", "_raw_DS_CLASIF_DET": "Suelo No Urbanizable Especialmente Protegido Cauces y Riberas-Interés Arqueológico A", "_raw_DS_DOCU": "NORMAS SUBSIDIARIAS", "_raw_DS_LEY": "CM Ley 9/1995, E RDL 1/1992", "_raw_FC_AC": "1999-02-04", "_raw_NM_AREA_M2": 94834.453898938998, "_cam_code": "019" }, "geometry": { "type": "Polygon", "coordinates": [ [ [ -3.3434, 40.1445 ], [ -3.3428, 40.1449 ], [ -3.3421, 40.1456 ], [ -3.3422, 40.1457 ], [ -3.3434, 40.1456 ], [ -3.3435, 40.1451 ], [ -3.3444, 40.1445 ], [ -3.3456, 40.1445 ], [ -3.346, 40.1447 ], [ -3.3465, 40.1446 ], [ -3.3478, 40.145 ], [ -3.3478, 40.1448 ], [ -3.3471, 40.1444 ], [ -3.3457, 40.1423 ], [ -3.3457, 40.1404 ], [ -3.3459, 40.14 ], [ -3.3457, 40.139 ], [ -3.3447, 40.139 ], [ -3.3446, 40.1391 ], [ -3.3447, 40.1391 ], [ -3.3447, 40.1396 ], [ -3.3446, 40.1426 ], [ -3.344, 40.1438 ], [ -3.3441, 40.1439 ], [ -3.3435, 40.1443 ], [ -3.3434, 40.1445 ] ] ] } },
{ "type": "Feature", "properties": { "municipio": "Belmonte de Tajo", "clasificacion": "no-urbanizable-protegido", "calificacion": "sin-asignar", "version": "vigente", "fuente": "SIT-CAM WFS — UsoDelSuelo:VPLA_V_CLASIFICACION (https://idem.comunidad.madrid/geosrvg/ows)", "fecha_dato": "2026-05-12", "ambito": "38426", "_raw_CD_SIGLAS": "SNUP", "_raw_DS_CLASIF_GEN": "Suelo No Urbanizable Protegido", "_raw_DS_CLASIF_DET": "Suelo No Urbanizable Especialmente Protegido Cauces y Riberas", "_raw_DS_DOCU": "NORMAS SUBSIDIARIAS", "_raw_DS_LEY": "CM Ley 9/1995, E RDL 1/1992", "_raw_FC_AC": "1999-02-04", "_raw_NM_AREA_M2": 28874.133928149, "_cam_code": "019" }, "geometry": { "type": "Polygon", "coordinates": [ [ [ -3.3505, 40.145 ], [ -3.3511, 40.145 ], [ -3.3517, 40.1454 ], [ -3.3526, 40.1447 ], [ -3.3521, 40.1444 ], [ -3.3513, 40.1443 ], [ -3.3505, 40.1445 ], [ -3.3502, 40.1445 ], [ -3.35, 40.1443 ], [ -3.3477, 40.1443 ], [ -3.3478, 40.145 ], [ -3.3488, 40.145 ], [ -3.3494, 40.1448 ], [ -3.3499, 40.1448 ], [ -3.3505, 40.145 ] ] ] } },
{ "type": "Feature", "properties": { "municipio": "Belmonte de Tajo", "clasificacion": "no-urbanizable-protegido", "calificacion": "sin-asignar", "version": "vigente", "fuente": "SIT-CAM WFS — UsoDelSuelo:VPLA_V_CLASIFICACION (https://idem.comunidad.madrid/geosrvg/ows)", "fecha_dato": "2026-05-12", "ambito": "38426", "_raw_CD_SIGLAS": "SNUP", "_raw_DS_CLASIF_GEN": "Suelo No Urbanizable Protegido", "_raw_DS_CLASIF_DET": "Suelo No Urbanizable Especialmente Protegido Espacios con Restricción de Uso", "_raw_DS_DOCU": "NORMAS SUBSIDIARIAS", "_raw_DS_LEY": "CM Ley 9/1995, E RDL 1/1992", "_raw_FC_AC": "1999-02-04", "_raw_NM_AREA_M2": 14028164.4629802, "_cam_code": "019" }, "geometry": { "type": "Polygon", "coordinates": [ [ [ -3.3158, 40.1697 ], [ -3.3167, 40.1717 ], [ -3.3253, 40.1716 ], [ -3.3265, 40.1693 ], [ -3.3256, 40.1695 ], [ -3.3247, 40.169 ], [ -3.3251, 40.1682 ], [ -3.3255, 40.1678 ], [ -3.3257, 40.1679 ], [ -3.3263, 40.1677 ], [ -3.3267, 40.1679 ], [ -3.3269, 40.1677 ], [ -3.3273, 40.1676 ], [ -3.329, 40.1645 ], [ -3.3319, 40.1611 ], [ -3.3333, 40.1597 ], [ -3.3351, 40.1565 ], [ -3.3363, 40.155 ], [ -3.3354, 40.1556 ], [ -3.3349, 40.1555 ], [ -3.3348, 40.1556 ], [ -3.3349, 40.1557 ], [ -3.3347, 40.1556 ], [ -3.3346, 40.1553 ], [ -3.3349, 40.1551 ], [ -3.3349, 40.1548 ], [ -3.3348, 40.1542 ], [ -3.3345, 40.1538 ], [ -3.3358, 40.1532 ], [ -3.3354, 40.1528 ], [ -3.3346, 40.1527 ], [ -3.3346, 40.1524 ], [ -3.3352, 40.1522 ], [ -3.3351, 40.1518 ], [ -3.3348, 40.1519 ], [ -3.3339, 40.1515 ], [ -3.3322, 40.1511 ], [ -3.3323, 40.1506 ], [ -3.3332, 40.1509 ], [ -3.3334, 40.1501 ], [ -3.3333, 40.1497 ], [ -3.3338, 40.1496 ], [ -3.3349, 40.15 ], [ -3.3349, 40.1496 ], [ -3.3351, 40.1493 ], [ -3.3349, 40.149 ], [ -3.3333, 40.1482 ], [ -3.332, 40.1482 ], [ -3.3319, 40.1484 ], [ -3.3315, 40.1485 ], [ -3.3299, 40.1483 ], [ -3.329, 40.1488 ], [ -3.3286, 40.1486 ], [ -3.3281, 40.1487 ], [ -3.3277, 40.1484 ], [ -3.3274, 40.1484 ], [ -3.3273, 40.1486 ], [ -3.3275, 40.1514 ], [ -3.3273, 40.1527 ], [ -3.327, 40.1529 ], [ -3.3271, 40.1532 ], [ -3.3268, 40.1533 ], [ -3.3268, 40.1535 ], [ -3.327, 40.1536 ], [ -3.3272, 40.1535 ], [ -3.3272, 40.1537 ], [ -3.3275, 40.1539 ], [ -3.3265, 40.1539 ], [ -3.3257, 40.1542 ], [ -3.3241, 40.1542 ], [ -3.323, 40.1546 ], [ -3.3216, 40.1543 ], [ -3.3209, 40.1543 ], [ -3.3203, 40.1538 ], [ -3.3205, 40.1535 ], [ -3.3204, 40.1534 ], [ -3.3196, 40.1535 ], [ -3.3192, 40.1537 ], [ -3.318, 40.1538 ], [ -3.3182, 40.1535 ], [ -3.3194, 40.1528 ], [ -3.3197, 40.1524 ], [ -3.3214, 40.1519 ], [ -3.3222, 40.1502 ], [ -3.3225, 40.149 ], [ -3.3224, 40.1481 ], [ -3.3227, 40.1478 ], [ -3.3227, 40.147 ], [ -3.323, 40.1469 ], [ -3.3243, 40.1455 ], [ -3.3254, 40.1451 ], [ -3.3278, 40.1453 ], [ -3.3279, 40.145 ], [ -3.3283, 40.1447 ], [ -3.3288, 40.1447 ], [ -3.33, 40.1432 ], [ -3.3305, 40.1434 ], [ -3.331, 40.1433 ], [ -3.332, 40.1434 ], [ -3.3334, 40.1431 ], [ -3.3358, 40.1432 ], [ -3.3359, 40.1429 ], [ -3.3366, 40.1428 ], [ -3.3366, 40.1427 ], [ -3.3371, 40.143 ], [ -3.3373, 40.1429 ], [ -3.337, 40.1411 ], [ -3.3339, 40.141 ], [ -3.3334, 40.1407 ], [ -3.3313, 40.1404 ], [ -3.3308, 40.1383 ], [ -3.3304, 40.1382 ], [ -3.3302, 40.1384 ], [ -3.3305, 40.1395 ], [ -3.3299, 40.1391 ], [ -3.3297, 40.1391 ], [ -3.3292, 40.1396 ], [ -3.3293, 40.14 ], [ -3.3286, 40.1397 ], [ -3.3281, 40.1397 ], [ -3.3276, 40.1395 ], [ -3.3277, 40.1397 ], [ -3.3276, 40.1401 ], [ -3.3278, 40.1404 ], [ -3.3275, 40.1406 ], [ -3.3273, 40.1404 ], [ -3.3267, 40.1404 ], [ -3.3266, 40.1402 ], [ -3.3268, 40.1397 ], [ -3.3263, 40.1394 ], [ -3.326, 40.1387 ], [ -3.3265, 40.1384 ], [ -3.3272, 40.1386 ], [ -3.327, 40.1384 ], [ -3.327, 40.1374 ], [ -3.3275, 40.1373 ], [ -3.3281, 40.1377 ], [ -3.3295, 40.1378 ], [ -3.3299, 40.1383 ], [ -3.3301, 40.1383 ], [ -3.3307, 40.1377 ], [ -3.3313, 40.1377 ], [ -3.3314, 40.1376 ], [ -3.3314, 40.1374 ], [ -3.3311, 40.1372 ], [ -3.3302, 40.1373 ], [ -3.3293, 40.1372 ], [ -3.3289, 40.137 ], [ -3.3278, 40.1368 ], [ -3.3275, 40.1366 ], [ -3.33, 40.1351 ], [ -3.3297, 40.134 ], [ -3.3295, 40.1339 ], [ -3.3295, 40.1336 ], [ -3.3292, 40.133 ], [ -3.3287, 40.133 ], [ -3.3283, 40.1328 ], [ -3.3281, 40.1326 ], [ -3.328, 40.1322 ], [ -3.3283, 40.1312 ], [ -3.3282, 40.1311 ], [ -3.3284, 40.1309 ], [ -3.3286, 40.13 ], [ -3.3291, 40.1294 ], [ -3.3291, 40.129 ], [ -3.3303, 40.1276 ], [ -3.3305, 40.1276 ], [ -3.3307, 40.1273 ], [ -3.3311, 40.1273 ], [ -3.3314, 40.1269 ], [ -3.3319, 40.127 ], [ -3.3324, 40.1273 ], [ -3.3325, 40.1275 ], [ -3.3332, 40.1277 ], [ -3.3335, 40.1276 ], [ -3.3334, 40.1272 ], [ -3.3337, 40.1274 ], [ -3.3341, 40.127 ], [ -3.3343, 40.1271 ], [ -3.3347, 40.127 ], [ -3.3348, 40.1271 ], [ -3.3346, 40.1276 ], [ -3.3348, 40.1279 ], [ -3.3349, 40.1284 ], [ -3.336, 40.1284 ], [ -3.337, 40.1287 ], [ -3.3374, 40.1284 ], [ -3.3374, 40.1282 ], [ -3.3381, 40.1275 ], [ -3.3376, 40.127 ], [ -3.3378, 40.1265 ], [ -3.3381, 40.1264 ], [ -3.339, 40.1265 ], [ -3.3392, 40.1263 ], [ -3.3398, 40.1263 ], [ -3.3399, 40.1265 ], [ -3.3398, 40.1268 ], [ -3.34, 40.1268 ], [ -3.3406, 40.1266 ], [ -3.3409, 40.1262 ], [ -3.3409, 40.1263 ], [ -3.3413, 40.1262 ], [ -3.3415, 40.1266 ], [ -3.3417, 40.1267 ], [ -3.3418, 40.1272 ], [ -3.3421, 40.1273 ], [ -3.343, 40.1272 ], [ -3.3433, 40.1273 ], [ -3.3434, 40.1275 ], [ -3.3431, 40.128 ], [ -3.3429, 40.1281 ], [ -3.3426, 40.1281 ], [ -3.3424, 40.1283 ], [ -3.341, 40.1285 ], [ -3.3408, 40.1288 ], [ -3.3401, 40.1291 ], [ -3.34, 40.1294 ], [ -3.3402, 40.1298 ], [ -3.3405, 40.1299 ], [ -3.3405, 40.13 ], [ -3.3411, 40.1301 ], [ -3.3415, 40.1305 ], [ -3.3422, 40.1302 ], [ -3.3425, 40.1303 ], [ -3.3429, 40.1301 ], [ -3.3429, 40.1299 ], [ -3.3431, 40.1298 ], [ -3.3433, 40.1299 ], [ -3.3436, 40.1298 ], [ -3.3437, 40.1295 ], [ -3.3443, 40.129 ], [ -3.3445, 40.129 ], [ -3.3446, 40.1291 ], [ -3.3444, 40.1292 ], [ -3.344, 40.1298 ], [ -3.3433, 40.1303 ], [ -3.3432, 40.1305 ], [ -3.3449, 40.1302 ], [ -3.3471, 40.13 ], [ -3.3471, 40.1309 ], [ -3.3475, 40.1308 ], [ -3.3485, 40.131 ], [ -3.3489, 40.1309 ], [ -3.3492, 40.1311 ], [ -3.35, 40.1311 ], [ -3.349, 40.1294 ], [ -3.3489, 40.1288 ], [ -3.3503, 40.1283 ], [ -3.3505, 40.1276 ], [ -3.3508, 40.1277 ], [ -3.3514, 40.1276 ], [ -3.3516, 40.1269 ], [ -3.3514, 40.1263 ], [ -3.352, 40.1265 ], [ -3.3527, 40.1261 ], [ -3.3531, 40.1261 ], [ -3.3533, 40.1258 ], [ -3.3533, 40.1254 ], [ -3.3535, 40.1252 ], [ -3.3545, 40.1253 ], [ -3.3548, 40.1252 ], [ -3.355, 40.1244 ], [ -3.3559, 40.1244 ], [ -3.3565, 40.124 ], [ -3.3573, 40.124 ], [ -3.359, 40.1234 ], [ -3.359, 40.1231 ], [ -3.3594, 40.1227 ], [ -3.3593, 40.122 ], [ -3.3597, 40.1219 ], [ -3.36, 40.122 ], [ -3.3604, 40.1217 ], [ -3.361, 40.1216 ], [ -3.3615, 40.1218 ], [ -3.3624, 40.1219 ], [ -3.3628, 40.1221 ], [ -3.3632, 40.1221 ], [ -3.3637, 40.1218 ], [ -3.3638, 40.1216 ], [ -3.3634, 40.1215 ], [ -3.3634, 40.1213 ], [ -3.3639, 40.1208 ], [ -3.3627, 40.1205 ], [ -3.3608, 40.119 ], [ -3.3553, 40.1178 ], [ -3.3521, 40.1175 ], [ -3.3482, 40.1141 ], [ -3.347, 40.1128 ], [ -3.3456, 40.1118 ], [ -3.3402, 40.1169 ], [ -3.3317, 40.1136 ], [ -3.3313, 40.1133 ], [ -3.3306, 40.1141 ], [ -3.3286, 40.1151 ], [ -3.3274, 40.1159 ], [ -3.326, 40.1163 ], [ -3.3235, 40.1198 ], [ -3.3218, 40.1213 ], [ -3.3194, 40.1238 ], [ -3.3146, 40.1279 ], [ -3.3113, 40.1299 ], [ -3.3099, 40.1312 ], [ -3.3076, 40.1318 ], [ -3.3037, 40.1318 ], [ -3.2966, 40.1313 ], [ -3.2992, 40.1388 ], [ -3.3017, 40.1448 ], [ -3.303, 40.1487 ], [ -3.3038, 40.1506 ], [ -3.3043, 40.1515 ], [ -3.3116, 40.1615 ], [ -3.3138, 40.166 ], [ -3.3158, 40.1697 ] ] ] } },
{ "type": "Feature", "properties": { "municipio": "Belmonte de Tajo", "clasificacion": "no-urbanizable-protegido", "calificacion": "sin-asignar", "version": "vigente", "fuente": "SIT-CAM WFS — UsoDelSuelo:VPLA_V_CLASIFICACION (https://idem.comunidad.madrid/geosrvg/ows)", "fecha_dato": "2026-05-12", "ambito": "38426", "_raw_CD_SIGLAS": "SNUP", "_raw_DS_CLASIF_GEN": "Suelo No Urbanizable Protegido", "_raw_DS_CLASIF_DET": "Suelo No Urbanizable Especialmente Protegido Espacios con Restricción de Uso", "_raw_DS_DOCU": "NORMAS SUBSIDIARIAS", "_raw_DS_LEY": "CM Ley 9/1995, E RDL 1/1992", "_raw_FC_AC": "1999-02-04", "_raw_NM_AREA_M2": 1759515.4452617399, "_cam_code": "019" }, "geometry": { "type": "Polygon", "coordinates": [ [ [ -3.3469, 40.1365 ], [ -3.3472, 40.1372 ], [ -3.3482, 40.1378 ], [ -3.3479, 40.1385 ], [ -3.3488, 40.1386 ], [ -3.3512, 40.1396 ], [ -3.3526, 40.1399 ], [ -3.3532, 40.1399 ], [ -3.3535, 40.1407 ], [ -3.3535, 40.1412 ], [ -3.3541, 40.1416 ], [ -3.3541, 40.1422 ], [ -3.3551, 40.1433 ], [ -3.3584, 40.1418 ], [ -3.3608, 40.1416 ], [ -3.3662, 40.1402 ], [ -3.3697, 40.1382 ], [ -3.3764, 40.1352 ], [ -3.3777, 40.1336 ], [ -3.3762, 40.1313 ], [ -3.3746, 40.1296 ], [ -3.3745, 40.1299 ], [ -3.3734, 40.1299 ], [ -3.3734, 40.1295 ], [ -3.373, 40.1292 ], [ -3.3719, 40.1292 ], [ -3.3705, 40.1296 ], [ -3.3688, 40.1297 ], [ -3.3682, 40.1299 ], [ -3.3671, 40.131 ], [ -3.3662, 40.1314 ], [ -3.3659, 40.1325 ], [ -3.3656, 40.1328 ], [ -3.3657, 40.1333 ], [ -3.3655, 40.1334 ], [ -3.3655, 40.1341 ], [ -3.3648, 40.1349 ], [ -3.3645, 40.135 ], [ -3.3619, 40.1345 ], [ -3.3616, 40.1346 ], [ -3.3614, 40.1349 ], [ -3.3597, 40.1361 ], [ -3.3591, 40.136 ], [ -3.3568, 40.1363 ], [ -3.3528, 40.1355 ], [ -3.3512, 40.1354 ], [ -3.3507, 40.1347 ], [ -3.3502, 40.1344 ], [ -3.3496, 40.1343 ], [ -3.3484, 40.1346 ], [ -3.3476, 40.1355 ], [ -3.3475, 40.136 ], [ -3.3473, 40.1363 ], [ -3.3469, 40.1365 ] ] ] } },
{ "type": "Feature", "properties": { "municipio": "Belmonte de Tajo", "clasificacion": "no-urbanizable-protegido", "calificacion": "sin-asignar", "version": "vigente", "fuente": "SIT-CAM WFS — UsoDelSuelo:VPLA_V_CLASIFICACION (https://idem.comunidad.madrid/geosrvg/ows)", "fecha_dato": "2026-05-12", "ambito": "38426", "_raw_CD_SIGLAS": "SNUP", "_raw_DS_CLASIF_GEN": "Suelo No Urbanizable Protegido", "_raw_DS_CLASIF_DET": "Suelo No Urbanizable Especialmente Protegido Espacios con Restricción de Uso", "_raw_DS_DOCU": "NORMAS SUBSIDIARIAS", "_raw_DS_LEY": "CM Ley 9/1995, E RDL 1/1992", "_raw_FC_AC": "1999-02-04", "_raw_NM_AREA_M2": 387480.95095922501, "_cam_code": "019" }, "geometry": { "type": "Polygon", "coordinates": [ [ [ -3.3543, 40.134 ], [ -3.3548, 40.1341 ], [ -3.3555, 40.1339 ], [ -3.3566, 40.1339 ], [ -3.3578, 40.1336 ], [ -3.3594, 40.1337 ], [ -3.3595, 40.1334 ], [ -3.3597, 40.1333 ], [ -3.3604, 40.1332 ], [ -3.3603, 40.1327 ], [ -3.3597, 40.1322 ], [ -3.3591, 40.1322 ], [ -3.3591, 40.1324 ], [ -3.3593, 40.1326 ], [ -3.3589, 40.1331 ], [ -3.3581, 40.1331 ], [ -3.358, 40.133 ], [ -3.3579, 40.1331 ], [ -3.3577, 40.1329 ], [ -3.3578, 40.1324 ], [ -3.3576, 40.1323 ], [ -3.3576, 40.132 ], [ -3.3574, 40.1316 ], [ -3.3577, 40.1314 ], [ -3.3582, 40.1315 ], [ -3.3575, 40.1308 ], [ -3.3577, 40.1302 ], [ -3.358, 40.13 ], [ -3.3584, 40.13 ], [ -3.3584, 40.1302 ], [ -3.3587, 40.1304 ], [ -3.359, 40.1304 ], [ -3.3592, 40.1307 ], [ -3.3596, 40.1308 ], [ -3.3598, 40.1306 ], [ -3.3598, 40.1303 ], [ -3.3596, 40.1299 ], [ -3.3597, 40.1299 ], [ -3.3599, 40.1295 ], [ -3.36, 40.1285 ], [ -3.3603, 40.1286 ], [ -3.3601, 40.129 ], [ -3.3602, 40.1292 ], [ -3.3612, 40.1288 ], [ -3.3615, 40.1285 ], [ -3.361, 40.128 ], [ -3.3613, 40.1278 ], [ -3.3622, 40.1277 ], [ -3.3623, 40.1273 ], [ -3.3625, 40.1271 ], [ -3.3626, 40.1265 ], [ -3.3633, 40.1262 ], [ -3.3635, 40.1259 ], [ -3.3646, 40.1261 ], [ -3.365, 40.1273 ], [ -3.3652, 40.1274 ], [ -3.3655, 40.1274 ], [ -3.366, 40.127 ], [ -3.3663, 40.127 ], [ -3.3663, 40.1272 ], [ -3.3665, 40.1273 ], [ -3.3668, 40.1273 ], [ -3.3675, 40.127 ], [ -3.3682, 40.1276 ], [ -3.3682, 40.1281 ], [ -3.368, 40.1285 ], [ -3.3682, 40.1285 ], [ -3.3686, 40.1282 ], [ -3.3688, 40.1287 ], [ -3.3692, 40.1289 ], [ -3.3695, 40.1282 ], [ -3.3698, 40.1281 ], [ -3.3702, 40.1277 ], [ -3.3707, 40.1278 ], [ -3.3708, 40.1274 ], [ -3.3713, 40.1271 ], [ -3.3719, 40.1274 ], [ -3.3722, 40.1278 ], [ -3.373, 40.1273 ], [ -3.3733, 40.1273 ], [ -3.373, 40.1269 ], [ -3.3712, 40.1253 ], [ -3.3709, 40.1255 ], [ -3.3702, 40.1253 ], [ -3.3699, 40.1256 ], [ -3.3696, 40.1256 ], [ -3.3693, 40.1259 ], [ -3.369, 40.126 ], [ -3.3687, 40.1258 ], [ -3.3683, 40.126 ], [ -3.368, 40.1255 ], [ -3.3678, 40.1257 ], [ -3.3677, 40.1263 ], [ -3.3673, 40.1265 ], [ -3.3664, 40.1264 ], [ -3.3659, 40.1266 ], [ -3.3658, 40.126 ], [ -3.3653, 40.1257 ], [ -3.3655, 40.1255 ], [ -3.3655, 40.1253 ], [ -3.3648, 40.1252 ], [ -3.3641, 40.1257 ], [ -3.3636, 40.1256 ], [ -3.3637, 40.1252 ], [ -3.3644, 40.1249 ], [ -3.3645, 40.1239 ], [ -3.3649, 40.1237 ], [ -3.365, 40.1234 ], [ -3.3653, 40.1232 ], [ -3.3653, 40.1229 ], [ -3.3648, 40.1223 ], [ -3.3648, 40.122 ], [ -3.3651, 40.1216 ], [ -3.3646, 40.1213 ], [ -3.3642, 40.1217 ], [ -3.364, 40.1222 ], [ -3.3647, 40.1231 ], [ -3.3646, 40.1236 ], [ -3.364, 40.1235 ], [ -3.3634, 40.1229 ], [ -3.3631, 40.1228 ], [ -3.3629, 40.1229 ], [ -3.3629, 40.1233 ], [ -3.3631, 40.1236 ], [ -3.3635, 40.1237 ], [ -3.3639, 40.1241 ], [ -3.3639, 40.1242 ], [ -3.3636, 40.1242 ], [ -3.3635, 40.1244 ], [ -3.3636, 40.1248 ], [ -3.3633, 40.125 ], [ -3.363, 40.125 ], [ -3.3628, 40.1254 ], [ -3.3622, 40.1258 ], [ -3.3608, 40.1261 ], [ -3.3605, 40.1263 ], [ -3.3601, 40.1272 ], [ -3.3592, 40.1275 ], [ -3.3589, 40.1272 ], [ -3.3588, 40.1268 ], [ -3.3584, 40.1265 ], [ -3.3579, 40.1265 ], [ -3.3578, 40.1275 ], [ -3.3579, 40.1277 ], [ -3.3585, 40.128 ], [ -3.3587, 40.1283 ], [ -3.3587, 40.1286 ], [ -3.3585, 40.1289 ], [ -3.3565, 40.1299 ], [ -3.3562, 40.1309 ], [ -3.3556, 40.1317 ], [ -3.3555, 40.1327 ], [ -3.3552, 40.1332 ], [ -3.3543, 40.134 ] ] ] } },
{ "type": "Feature", "properties": { "municipio": "Belmonte de Tajo", "clasificacion": "no-urbanizable-protegido", "calificacion": "sin-asignar", "version": "vigente", "fuente": "SIT-CAM WFS — UsoDelSuelo:VPLA_V_CLASIFICACION (https://idem.comunidad.madrid/geosrvg/ows)", "fecha_dato": "2026-05-12", "ambito": "38426", "_raw_CD_SIGLAS": "SNUP", "_raw_DS_CLASIF_GEN": "Suelo No Urbanizable Protegido", "_raw_DS_CLASIF_DET": "Suelo No Urbanizable Especialmente Protegido Espacios con Restricción de Uso", "_raw_DS_DOCU": "NORMAS SUBSIDIARIAS", "_raw_DS_LEY": "CM Ley 9/1995, E RDL 1/1992", "_raw_FC_AC": "1999-02-04", "_raw_NM_AREA_M2": 436004.452099043, "_cam_code": "019" }, "geometry": { "type": "Polygon", "coordinates": [ [ [ -3.3484, 40.098 ], [ -3.3458, 40.0997 ], [ -3.3416, 40.1035 ], [ -3.341, 40.1045 ], [ -3.3375, 40.1064 ], [ -3.3362, 40.1075 ], [ -3.337, 40.1082 ], [ -3.345, 40.1113 ], [ -3.3438, 40.11 ], [ -3.3441, 40.1058 ], [ -3.3446, 40.1043 ], [ -3.3449, 40.1024 ], [ -3.3476, 40.1001 ], [ -3.3484, 40.098 ] ] ] } },
{ "type": "Feature", "properties": { "municipio": "Belmonte de Tajo", "clasificacion": "no-urbanizable-protegido", "calificacion": "sin-asignar", "version": "vigente", "fuente": "SIT-CAM WFS — UsoDelSuelo:VPLA_V_CLASIFICACION (https://idem.comunidad.madrid/geosrvg/ows)", "fecha_dato": "2026-05-12", "ambito": "38426", "_raw_CD_SIGLAS": "SNUP", "_raw_DS_CLASIF_GEN": "Suelo No Urbanizable Protegido", "_raw_DS_CLASIF_DET": "Suelo No Urbanizable Especialmente Protegido de Interés Arqueológico C", "_raw_DS_DOCU": "NORMAS SUBSIDIARIAS", "_raw_DS_LEY": "CM Ley 9/1995, E RDL 1/1992", "_raw_FC_AC": "1999-02-04", "_raw_NM_AREA_M2": 177343.509161939, "_cam_code": "019" }, "geometry": { "type": "Polygon", "coordinates": [ [ [ -3.3214, 40.1741 ], [ -3.3223, 40.1744 ], [ -3.3227, 40.1747 ], [ -3.3229, 40.1751 ], [ -3.3253, 40.1716 ], [ -3.3167, 40.1717 ], [ -3.3186, 40.175 ], [ -3.3188, 40.1747 ], [ -3.3198, 40.1741 ], [ -3.3203, 40.174 ], [ -3.3214, 40.1741 ] ] ] } },
{ "type": "Feature", "properties": { "municipio": "Belmonte de Tajo", "clasificacion": "no-urbanizable-protegido", "calificacion": "sin-asignar", "version": "vigente", "fuente": "SIT-CAM WFS — UsoDelSuelo:VPLA_V_CLASIFICACION (https://idem.comunidad.madrid/geosrvg/ows)", "fecha_dato": "2026-05-12", "ambito": "38426", "_raw_CD_SIGLAS": "SNUP", "_raw_DS_CLASIF_GEN": "Suelo No Urbanizable Protegido", "_raw_DS_CLASIF_DET": "Suelo No Urbanizable Especialmente Protegido de Interés Arqueológico C", "_raw_DS_DOCU": "NORMAS SUBSIDIARIAS", "_raw_DS_LEY": "CM Ley 9/1995, E RDL 1/1992", "_raw_FC_AC": "1999-02-04", "_raw_NM_AREA_M2": 564087.60145967, "_cam_code": "019" }, "geometry": { "type": "Polygon", "coordinates": [ [ [ -3.3402, 40.1169 ], [ -3.3456, 40.1118 ], [ -3.345, 40.1113 ], [ -3.337, 40.1082 ], [ -3.3362, 40.1075 ], [ -3.3337, 40.1108 ], [ -3.3324, 40.1112 ], [ -3.3319, 40.1127 ], [ -3.3313, 40.1133 ], [ -3.3317, 40.1136 ], [ -3.3402, 40.1169 ] ], [ [ -3.3384, 40.1117 ], [ -3.3394, 40.1119 ], [ -3.3401, 40.1125 ], [ -3.3403, 40.113 ], [ -3.3403, 40.1136 ], [ -3.3396, 40.1145 ], [ -3.3387, 40.1148 ], [ -3.3376, 40.1148 ], [ -3.3367, 40.1143 ], [ -3.3363, 40.1139 ], [ -3.3361, 40.1133 ], [ -3.3362, 40.1128 ], [ -3.3363, 40.1125 ], [ -3.337, 40.1119 ], [ -3.3377, 40.1117 ], [ -3.3384, 40.1117 ] ] ] } },
{ "type": "Feature", "properties": { "municipio": "Belmonte de Tajo", "clasificacion": "no-urbanizable-protegido", "calificacion": "sin-asignar", "version": "vigente", "fuente": "SIT-CAM WFS — UsoDelSuelo:VPLA_V_CLASIFICACION (https://idem.comunidad.madrid/geosrvg/ows)", "fecha_dato": "2026-05-12", "ambito": "38426", "_raw_CD_SIGLAS": "SNUP", "_raw_DS_CLASIF_GEN": "Suelo No Urbanizable Protegido", "_raw_DS_CLASIF_DET": "Suelo No Urbanizable Especialmente Protegido de Interés Arqueológico B", "_raw_DS_DOCU": "NORMAS SUBSIDIARIAS", "_raw_DS_LEY": "CM Ley 9/1995, E RDL 1/1992", "_raw_FC_AC": "1999-02-04", "_raw_NM_AREA_M2": 89470.257211778997, "_cam_code": "019" }, "geometry": { "type": "Polygon", "coordinates": [ [ [ -3.3186, 40.175 ], [ -3.3204, 40.178 ], [ -3.3229, 40.1751 ], [ -3.3227, 40.1747 ], [ -3.3223, 40.1744 ], [ -3.3214, 40.1741 ], [ -3.3203, 40.174 ], [ -3.3198, 40.1741 ], [ -3.3188, 40.1747 ], [ -3.3186, 40.175 ] ] ] } },
{ "type": "Feature", "properties": { "municipio": "Belmonte de Tajo", "clasificacion": "urbano-consolidado", "calificacion": "sin-asignar", "version": "vigente", "fuente": "SIT-CAM WFS — UsoDelSuelo:VPLA_V_CLASIFICACION (https://idem.comunidad.madrid/geosrvg/ows)", "fecha_dato": "2026-05-12", "ambito": "38426", "_raw_CD_SIGLAS": "SU", "_raw_DS_CLASIF_GEN": "Suelo Urbano", "_raw_DS_CLASIF_DET": "Suelo Urbano", "_raw_DS_DOCU": "NORMAS SUBSIDIARIAS", "_raw_DS_LEY": "CM Ley 9/1995, E RDL 1/1992", "_raw_FC_AC": "1999-02-04", "_raw_NM_AREA_M2": 518034.73143212998, "_cam_code": "019" }, "geometry": { "type": "Polygon", "coordinates": [ [ [ -3.3396, 40.136 ], [ -3.3403, 40.1365 ], [ -3.3408, 40.1363 ], [ -3.3407, 40.136 ], [ -3.3409, 40.1356 ], [ -3.3415, 40.1356 ], [ -3.3416, 40.1355 ], [ -3.3426, 40.1362 ], [ -3.3428, 40.136 ], [ -3.3428, 40.1358 ], [ -3.3428, 40.1357 ], [ -3.3428, 40.1358 ], [ -3.3432, 40.1359 ], [ -3.343, 40.1357 ], [ -3.343, 40.1348 ], [ -3.3439, 40.1342 ], [ -3.3434, 40.1333 ], [ -3.3431, 40.1331 ], [ -3.3425, 40.1331 ], [ -3.3424, 40.1329 ], [ -3.3422, 40.1329 ], [ -3.3422, 40.1327 ], [ -3.3421, 40.1327 ], [ -3.3422, 40.1325 ], [ -3.3421, 40.1325 ], [ -3.3423, 40.1324 ], [ -3.3421, 40.1322 ], [ -3.3419, 40.1322 ], [ -3.3423, 40.1314 ], [ -3.3422, 40.131 ], [ -3.3421, 40.1312 ], [ -3.3416, 40.1313 ], [ -3.3414, 40.1312 ], [ -3.3411, 40.1314 ], [ -3.3405, 40.1313 ], [ -3.3408, 40.1307 ], [ -3.3406, 40.1304 ], [ -3.3406, 40.1306 ], [ -3.3404, 40.1306 ], [ -3.3402, 40.131 ], [ -3.34, 40.131 ], [ -3.34, 40.1311 ], [ -3.339, 40.1309 ], [ -3.3393, 40.1302 ], [ -3.3391, 40.1299 ], [ -3.3394, 40.1298 ], [ -3.3392, 40.1296 ], [ -3.3395, 40.1293 ], [ -3.3395, 40.129 ], [ -3.3394, 40.129 ], [ -3.3392, 40.1286 ], [ -3.339, 40.1287 ], [ -3.3381, 40.1278 ], [ -3.3373, 40.1287 ], [ -3.3376, 40.129 ], [ -3.3373, 40.1299 ], [ -3.3348, 40.1302 ], [ -3.3337, 40.1287 ], [ -3.3328, 40.1294 ], [ -3.3329, 40.1295 ], [ -3.3328, 40.1302 ], [ -3.3331, 40.1309 ], [ -3.3331, 40.1321 ], [ -3.3329, 40.1323 ], [ -3.3328, 40.1327 ], [ -3.3336, 40.1328 ], [ -3.3336, 40.1329 ], [ -3.3326, 40.1335 ], [ -3.3327, 40.1337 ], [ -3.333, 40.1338 ], [ -3.3332, 40.1341 ], [ -3.3339, 40.1346 ], [ -3.3341, 40.1346 ], [ -3.3342, 40.1344 ], [ -3.3349, 40.1352 ], [ -3.3361, 40.1353 ], [ -3.3362, 40.1356 ], [ -3.3367, 40.1354 ], [ -3.337, 40.1357 ], [ -3.3373, 40.1356 ], [ -3.3373, 40.1357 ], [ -3.3376, 40.1357 ], [ -3.3386, 40.1361 ], [ -3.3386, 40.136 ], [ -3.3388, 40.136 ], [ -3.3388, 40.1361 ], [ -3.3396, 40.136 ] ] ] } },
{ "type": "Feature", "properties": { "municipio": "Belmonte de Tajo", "clasificacion": "urbanizable-no-sectorizado", "calificacion": "sin-asignar", "version": "vigente", "fuente": "SIT-CAM WFS — UsoDelSuelo:VPLA_V_CLASIFICACION (https://idem.comunidad.madrid/geosrvg/ows)", "fecha_dato": "2026-05-12", "ambito": "38426", "_raw_CD_SIGLAS": "SUBNS", "_raw_DS_CLASIF_GEN": "Suelo No Urbanizable Común", "_raw_DS_CLASIF_DET": "Suelo No Urbanizable Común Interés Arqueológico A", "_raw_DS_DOCU": "NORMAS SUBSIDIARIAS", "_raw_DS_LEY": "CM Ley 9/1995, E RDL 1/1992", "_raw_FC_AC": "1999-02-04", "_raw_NM_AREA_M2": 46537.874399227498, "_cam_code": "019" }, "geometry": { "type": "Polygon", "coordinates": [ [ [ -3.343, 40.1353 ], [ -3.343, 40.1357 ], [ -3.3434, 40.1361 ], [ -3.3441, 40.1363 ], [ -3.3444, 40.1363 ], [ -3.3446, 40.1353 ], [ -3.3453, 40.1353 ], [ -3.3434, 40.1332 ], [ -3.343, 40.1329 ], [ -3.3426, 40.1329 ], [ -3.343, 40.1325 ], [ -3.343, 40.1322 ], [ -3.3424, 40.1312 ], [ -3.3431, 40.1305 ], [ -3.3417, 40.1307 ], [ -3.3422, 40.1308 ], [ -3.3423, 40.1314 ], [ -3.3419, 40.1321 ], [ -3.3423, 40.1324 ], [ -3.3421, 40.1325 ], [ -3.3422, 40.1325 ], [ -3.3421, 40.1326 ], [ -3.3422, 40.1329 ], [ -3.3424, 40.1329 ], [ -3.3425, 40.1331 ], [ -3.3431, 40.1331 ], [ -3.3434, 40.1333 ], [ -3.3439, 40.1342 ], [ -3.343, 40.1348 ], [ -3.343, 40.1353 ] ] ] } },
{ "type": "Feature", "properties": { "municipio": "Belmonte de Tajo", "clasificacion": "urbanizable-no-sectorizado", "calificacion": "sin-asignar", "version": "vigente", "fuente": "SIT-CAM WFS — UsoDelSuelo:VPLA_V_CLASIFICACION (https://idem.comunidad.madrid/geosrvg/ows)", "fecha_dato": "2026-05-12", "ambito": "38426", "_raw_CD_SIGLAS": "SUBNS", "_raw_DS_CLASIF_GEN": "Suelo No Urbanizable Común", "_raw_DS_CLASIF_DET": "Suelo No Urbanizable Común", "_raw_DS_DOCU": "NORMAS SUBSIDIARIAS", "_raw_DS_LEY": "CM Ley 9/1995, E RDL 1/1992", "_raw_FC_AC": "1999-02-04", "_raw_NM_AREA_M2": 408262.415155572, "_cam_code": "019" }, "geometry": { "type": "Polygon", "coordinates": [ [ [ -3.3297, 40.134 ], [ -3.33, 40.1351 ], [ -3.3301, 40.1351 ], [ -3.3314, 40.1344 ], [ -3.3314, 40.1343 ], [ -3.3317, 40.1344 ], [ -3.3317, 40.1341 ], [ -3.332, 40.1339 ], [ -3.3316, 40.1334 ], [ -3.3309, 40.133 ], [ -3.3317, 40.1322 ], [ -3.3316, 40.1322 ], [ -3.3316, 40.132 ], [ -3.3319, 40.1313 ], [ -3.332, 40.1305 ], [ -3.3318, 40.1303 ], [ -3.3329, 40.1303 ], [ -3.3328, 40.1302 ], [ -3.3329, 40.1297 ], [ -3.3328, 40.1294 ], [ -3.3337, 40.1287 ], [ -3.3348, 40.1302 ], [ -3.3373, 40.1299 ], [ -3.3376, 40.129 ], [ -3.3373, 40.1287 ], [ -3.3381, 40.1278 ], [ -3.339, 40.1287 ], [ -3.3392, 40.1286 ], [ -3.3394, 40.129 ], [ -3.3395, 40.129 ], [ -3.3396, 40.13 ], [ -3.3397, 40.1301 ], [ -3.3407, 40.1302 ], [ -3.3412, 40.1306 ], [ -3.3417, 40.1307 ], [ -3.3432, 40.1305 ], [ -3.3446, 40.1291 ], [ -3.3443, 40.129 ], [ -3.3437, 40.1295 ], [ -3.3436, 40.1298 ], [ -3.3433, 40.1299 ], [ -3.3431, 40.1298 ], [ -3.3429, 40.1299 ], [ -3.3429, 40.1301 ], [ -3.3425, 40.1303 ], [ -3.3422, 40.1302 ], [ -3.3415, 40.1305 ], [ -3.3411, 40.1301 ], [ -3.3407, 40.1301 ], [ -3.3402, 40.1298 ], [ -3.34, 40.1294 ], [ -3.3401, 40.1291 ], [ -3.3408, 40.1288 ], [ -3.341, 40.1285 ], [ -3.3424, 40.1283 ], [ -3.3426, 40.1281 ], [ -3.3429, 40.1281 ], [ -3.3431, 40.128 ], [ -3.3434, 40.1275 ], [ -3.3433, 40.1273 ], [ -3.343, 40.1272 ], [ -3.3421, 40.1273 ], [ -3.3418, 40.1272 ], [ -3.3417, 40.1267 ], [ -3.3415, 40.1266 ], [ -3.3413, 40.1262 ], [ -3.3409, 40.1263 ], [ -3.3409, 40.1262 ], [ -3.3406, 40.1266 ], [ -3.34, 40.1268 ], [ -3.3398, 40.1268 ], [ -3.3399, 40.1265 ], [ -3.3398, 40.1263 ], [ -3.3392, 40.1263 ], [ -3.339, 40.1265 ], [ -3.3384, 40.1265 ], [ -3.3383, 40.1264 ], [ -3.3378, 40.1265 ], [ -3.3376, 40.127 ], [ -3.3381, 40.1275 ], [ -3.3374, 40.1282 ], [ -3.3374, 40.1284 ], [ -3.337, 40.1287 ], [ -3.336, 40.1284 ], [ -3.3349, 40.1284 ], [ -3.3348, 40.1279 ], [ -3.3346, 40.1276 ], [ -3.3348, 40.1271 ], [ -3.3347, 40.127 ], [ -3.3343, 40.1271 ], [ -3.3341, 40.127 ], [ -3.3337, 40.1274 ], [ -3.3334, 40.1272 ], [ -3.3335, 40.1276 ], [ -3.3332, 40.1277 ], [ -3.3325, 40.1275 ], [ -3.3324, 40.1273 ], [ -3.3319, 40.127 ], [ -3.3314, 40.1269 ], [ -3.3311, 40.1273 ], [ -3.3307, 40.1273 ], [ -3.3305, 40.1276 ], [ -3.3303, 40.1276 ], [ -3.3291, 40.129 ], [ -3.3291, 40.1294 ], [ -3.3286, 40.13 ], [ -3.3284, 40.1309 ], [ -3.3282, 40.1311 ], [ -3.3283, 40.1312 ], [ -3.328, 40.1322 ], [ -3.3281, 40.1326 ], [ -3.3287, 40.133 ], [ -3.3292, 40.133 ], [ -3.3295, 40.1336 ], [ -3.3295, 40.1339 ], [ -3.3297, 40.134 ] ] ] } },
{ "type": "Feature", "properties": { "municipio": "Belmonte de Tajo", "clasificacion": "urbanizable-no-sectorizado", "calificacion": "sin-asignar", "version": "vigente", "fuente": "SIT-CAM WFS — UsoDelSuelo:VPLA_V_CLASIFICACION (https://idem.comunidad.madrid/geosrvg/ows)", "fecha_dato": "2026-05-12", "ambito": "38426", "_raw_CD_SIGLAS": "SUBNS", "_raw_DS_CLASIF_GEN": "Suelo No Urbanizable Común", "_raw_DS_CLASIF_DET": "Suelo No Urbanizable Común", "_raw_DS_DOCU": "NORMAS SUBSIDIARIAS", "_raw_DS_LEY": "CM Ley 9/1995, E RDL 1/1992", "_raw_FC_AC": "1999-02-04", "_raw_NM_AREA_M2": 77240.975226315699, "_cam_code": "019" }, "geometry": { "type": "Polygon", "coordinates": [ [ [ -3.3341, 40.1374 ], [ -3.3337, 40.138 ], [ -3.334, 40.1383 ], [ -3.335, 40.1373 ], [ -3.3362, 40.1374 ], [ -3.3368, 40.1373 ], [ -3.3376, 40.1371 ], [ -3.3378, 40.1366 ], [ -3.3377, 40.1363 ], [ -3.3374, 40.1364 ], [ -3.3371, 40.136 ], [ -3.337, 40.1361 ], [ -3.3367, 40.136 ], [ -3.336, 40.1355 ], [ -3.3357, 40.1361 ], [ -3.3356, 40.1361 ], [ -3.3359, 40.1363 ], [ -3.3357, 40.1364 ], [ -3.3353, 40.136 ], [ -3.3353, 40.1358 ], [ -3.3343, 40.1355 ], [ -3.3341, 40.135 ], [ -3.3337, 40.1349 ], [ -3.3338, 40.1348 ], [ -3.3334, 40.1347 ], [ -3.3327, 40.1342 ], [ -3.3318, 40.1346 ], [ -3.3325, 40.1357 ], [ -3.3327, 40.1355 ], [ -3.333, 40.1355 ], [ -3.3333, 40.1352 ], [ -3.3339, 40.1358 ], [ -3.3338, 40.1362 ], [ -3.3334, 40.1368 ], [ -3.3335, 40.137 ], [ -3.3339, 40.1371 ], [ -3.3343, 40.1368 ], [ -3.3341, 40.1374 ] ] ] } },
{ "type": "Feature", "properties": { "municipio": "Belmonte de Tajo", "clasificacion": "urbanizable-sectorizado", "calificacion": "sin-asignar", "version": "vigente", "fuente": "SIT-CAM WFS — UsoDelSuelo:VPLA_V_CLASIFICACION (https://idem.comunidad.madrid/geosrvg/ows)", "fecha_dato": "2026-05-12", "ambito": "38426", "_raw_CD_SIGLAS": "SUBS", "_raw_DS_CLASIF_GEN": "Suelo Apto Para Urbanizar", "_raw_DS_CLASIF_DET": "Suelo Apto para Urbanizar", "_raw_DS_DOCU": "NORMAS SUBSIDIARIAS", "_raw_DS_LEY": "CM Ley 9/1995, E RDL 1/1992", "_raw_FC_AC": "1999-02-04", "_raw_NM_AREA_M2": 131033.712978831, "_cam_code": "019" }, "geometry": { "type": "Polygon", "coordinates": [ [ [ -3.3313, 40.137 ], [ -3.3319, 40.1369 ], [ -3.332, 40.1365 ], [ -3.3325, 40.1358 ], [ -3.3318, 40.1346 ], [ -3.3326, 40.1342 ], [ -3.3334, 40.1347 ], [ -3.3338, 40.1348 ], [ -3.3337, 40.1349 ], [ -3.3341, 40.135 ], [ -3.3343, 40.1355 ], [ -3.3353, 40.1358 ], [ -3.3353, 40.136 ], [ -3.3357, 40.1364 ], [ -3.3359, 40.1363 ], [ -3.3356, 40.1361 ], [ -3.3357, 40.1361 ], [ -3.336, 40.1355 ], [ -3.3362, 40.1356 ], [ -3.3361, 40.1353 ], [ -3.3349, 40.1352 ], [ -3.3342, 40.1344 ], [ -3.3341, 40.1346 ], [ -3.3339, 40.1346 ], [ -3.3332, 40.1341 ], [ -3.333, 40.1338 ], [ -3.3326, 40.1336 ], [ -3.3326, 40.1335 ], [ -3.3336, 40.1329 ], [ -3.3336, 40.1328 ], [ -3.3328, 40.1327 ], [ -3.3329, 40.1323 ], [ -3.3331, 40.1321 ], [ -3.3331, 40.1309 ], [ -3.3329, 40.1303 ], [ -3.3318, 40.1303 ], [ -3.332, 40.1305 ], [ -3.3319, 40.1313 ], [ -3.3316, 40.132 ], [ -3.3316, 40.1322 ], [ -3.3317, 40.1322 ], [ -3.3309, 40.133 ], [ -3.3316, 40.1334 ], [ -3.332, 40.1339 ], [ -3.3317, 40.1341 ], [ -3.3317, 40.1344 ], [ -3.3314, 40.1343 ], [ -3.3314, 40.1344 ], [ -3.3307, 40.1347 ], [ -3.3307, 40.1348 ], [ -3.3279, 40.1363 ], [ -3.3293, 40.1367 ], [ -3.3302, 40.1366 ], [ -3.3313, 40.137 ] ] ] } },
{ "type": "Feature", "properties": { "municipio": "Belmonte de Tajo", "clasificacion": "urbanizable-sectorizado", "calificacion": "sin-asignar", "version": "vigente", "fuente": "SIT-CAM WFS — UsoDelSuelo:VPLA_V_CLASIFICACION (https://idem.comunidad.madrid/geosrvg/ows)", "fecha_dato": "2026-05-12", "ambito": "38426", "_raw_CD_SIGLAS": "SUBS", "_raw_DS_CLASIF_GEN": "Suelo Apto Para Urbanizar", "_raw_DS_CLASIF_DET": "Suelo Apto para Urbanizar", "_raw_DS_DOCU": "NORMAS SUBSIDIARIAS", "_raw_DS_LEY": "CM Ley 9/1995, E RDL 1/1992", "_raw_FC_AC": "1999-02-04", "_raw_NM_AREA_M2": 16142.9473663483, "_cam_code": "019" }, "geometry": { "type": "Polygon", "coordinates": [ [ [ -3.3362, 40.1356 ], [ -3.3367, 40.136 ], [ -3.337, 40.1361 ], [ -3.3371, 40.136 ], [ -3.3374, 40.1364 ], [ -3.3377, 40.1363 ], [ -3.3378, 40.1366 ], [ -3.3385, 40.1363 ], [ -3.339, 40.1363 ], [ -3.3393, 40.1366 ], [ -3.3395, 40.1365 ], [ -3.3397, 40.1366 ], [ -3.3399, 40.1363 ], [ -3.3396, 40.136 ], [ -3.3389, 40.1361 ], [ -3.3386, 40.136 ], [ -3.3386, 40.1361 ], [ -3.3376, 40.1357 ], [ -3.3373, 40.1357 ], [ -3.3373, 40.1356 ], [ -3.337, 40.1357 ], [ -3.3367, 40.1354 ], [ -3.3362, 40.1356 ] ] ] } },
{ "type": "Feature", "properties": { "municipio": "Belmonte de Tajo", "clasificacion": "urbanizable-sectorizado", "calificacion": "sin-asignar", "version": "vigente", "fuente": "SIT-CAM WFS — UsoDelSuelo:VPLA_V_CLASIFICACION (https://idem.comunidad.madrid/geosrvg/ows)", "fecha_dato": "2026-05-12", "ambito": "38426", "_raw_CD_SIGLAS": "SUBS", "_raw_DS_CLASIF_GEN": "Suelo Apto Para Urbanizar", "_raw_DS_CLASIF_DET": "Suelo Apto para Urbanizar", "_raw_DS_DOCU": "NORMAS SUBSIDIARIAS", "_raw_DS_LEY": "CM Ley 9/1995, E RDL 1/1992", "_raw_FC_AC": "1999-02-04", "_raw_NM_AREA_M2": 22602.316612214301, "_cam_code": "019" }, "geometry": { "type": "Polygon", "coordinates": [ [ [ -3.3411, 40.1314 ], [ -3.3414, 40.1312 ], [ -3.3416, 40.1313 ], [ -3.3421, 40.1312 ], [ -3.3422, 40.1308 ], [ -3.3412, 40.1306 ], [ -3.3407, 40.1302 ], [ -3.3397, 40.1301 ], [ -3.3395, 40.1293 ], [ -3.3392, 40.1296 ], [ -3.3394, 40.1298 ], [ -3.3391, 40.1299 ], [ -3.3393, 40.1302 ], [ -3.339, 40.1309 ], [ -3.34, 40.1311 ], [ -3.34, 40.131 ], [ -3.3402, 40.131 ], [ -3.3404, 40.1306 ], [ -3.3406, 40.1306 ], [ -3.3406, 40.1304 ], [ -3.3408, 40.1307 ], [ -3.3405, 40.1313 ], [ -3.3411, 40.1314 ] ] ] } }
]
}
