{"type": "FeatureCollection", "features": [{"type": "Feature", "properties": {"municipio": "Madrid", "clasificacion": "urbano-consolidado", "calificacion": "terciario", "version": "vigente", "fuente": "Geoportal Madrid — PGOUM97_ORDENACION.zip (AMBITOS), normalizado por data-pipeline/ingest/madrid.py", "fecha_dato": "2026-05-12", "ambito": "APE.15.01", "_raw_TIPOAMBITO": "APE", "_raw_USO_CARACT": "TE", "_raw_NOMBRE": "CONDESA DE VENADITO.", "derivado": "reconvertible"}, "geometry": {"type": "Polygon", "coordinates": [[[-3.6548334, 40.4442037], [-3.6549586, 40.4445526], [-3.6557047, 40.4443852], [-3.6554121, 40.4440396], [-3.6548334, 40.4442037]]]}}, {"type": "Feature", "properties": {"municipio": "Madrid", "clasificacion": "urbano-consolidado", "calificacion": "terciario", "version": "vigente", "fuente": "Geoportal Madrid — PGOUM97_ORDENACION.zip (AMBITOS), normalizado por data-pipeline/ingest/madrid.py", "fecha_dato": "2026-05-12", "ambito": "APE.09.22", "_raw_TIPOAMBITO": "APE", "_raw_USO_CARACT": "TE", "_raw_NOMBRE": "VALDEMARIN-NUDO DEL BARRIAL", "derivado": "reconvertible"}, "geometry": {"type": "Polygon", "coordinates": [[[-3.7910057, 40.4654109], [-3.7900374, 40.4653088], [-3.789761, 40.4645404], [-3.7873323, 40.4642471], [-3.7866395, 40.4654378], [-3.7882209, 40.466187], [-3.7894099, 40.4658387], [-3.789661, 40.4662304], [-3.7911084, 40.4656587], [-3.7910057, 40.4654109]]]}}, {"type": "Feature", "properties": {"municipio": "Madrid", "clasificacion": "urbano-consolidado", "calificacion": "terciario", "version": "vigente", "fuente": "Geoportal Madrid — PGOUM97_ORDENACION.zip (AMBITOS), normalizado por data-pipeline/ingest/madrid.py", "fecha_dato": "2026-05-12", "ambito": "APE.09.25", "_raw_TIPOAMBITO": "APE", "_raw_USO_CARACT": "TE", "_raw_NOMBRE": "KM 10 A.6", "derivado": "reconvertible"}, "geometry": {"type": "Polygon", "coordinates": [[[-3.7836158, 40.4648964], [-3.783859, 40.4644407], [-3.7828357, 40.4637562], [-3.7789174, 40.4632938], [-3.778838, 40.4640239], [-3.7817521, 40.4643556], [-3.7816426, 40.4646001], [-3.7823536, 40.4646844], [-3.7824661, 40.464484], [-3.7836158, 40.4648964]]]}}, {"type": "Feature", "properties": {"municipio": "Madrid", "clasificacion": "urbano-consolidado", "calificacion": "terciario", "version": "vigente", "fuente": "Geoportal Madrid — PGOUM97_ORDENACION.zip (AMBITOS), normalizado por data-pipeline/ingest/madrid.py", "fecha_dato": "2026-05-12", "ambito": "APE.02.18", "_raw_TIPOAMBITO": "APE", "_raw_USO_CARACT": "TE", "_raw_NOMBRE": "IBERDROLA", "derivado": "reconvertible"}, "geometry": {"type": "Polygon", "coordinates": [[[-3.7203075, 40.4069956], [-3.7209503, 40.4071601], [-3.7208108, 40.4074787], [-3.7201225, 40.407295], [-3.7196428, 40.4083435], [-3.7210837, 40.4084568], [-3.7219474, 40.4061238], [-3.7220476, 40.4054386], [-3.7207364, 40.4055187], [-3.7203075, 40.4069956]]]}}, {"type": "Feature", "properties": {"municipio": "Madrid", "clasificacion": "urbano-consolidado", "calificacion": "terciario", "version": "vigente", "fuente": "Geoportal Madrid — PGOUM97_ORDENACION.zip (AMBITOS), normalizado por data-pipeline/ingest/madrid.py", "fecha_dato": "2026-05-12", "ambito": "APE.15.13", "_raw_TIPOAMBITO": "APE", "_raw_USO_CARACT": "TE", "_raw_NOMBRE": "C/M§ TERESA SAENZ DE HEREDIA", "derivado": "reconvertible"}, "geometry": {"type": "Polygon", "coordinates": [[[-3.6532611, 40.4225135], [-3.6532924, 40.4228182], [-3.6536571, 40.4228625], [-3.6537829, 40.4225943], [-3.6532611, 40.4225135]]]}}, {"type": "Feature", "properties": {"municipio": "Madrid", "clasificacion": "urbano-consolidado", "calificacion": "terciario", "version": "vigente", "fuente": "Geoportal Madrid — PGOUM97_ORDENACION.zip (AMBITOS), normalizado por data-pipeline/ingest/madrid.py", "fecha_dato": "2026-05-12", "ambito": "APE.04.15", "_raw_TIPOAMBITO": "APE", "_raw_USO_CARACT": "TE", "_raw_NOMBRE": "HOTEL NH", "derivado": "reconvertible"}, "geometry": {"type": "Polygon", "coordinates": [[[-3.6632144, 40.4360844], [-3.6640602, 40.4360739], [-3.6640237, 40.435339], [-3.6633078, 40.4353023], [-3.6633113, 40.4354084], [-3.6631565, 40.4354208], [-3.6632144, 40.4360844]]]}}, {"type": "Feature", "properties": {"municipio": "Madrid", "clasificacion": "urbano-consolidado", "calificacion": "terciario", "version": "vigente", "fuente": "Geoportal Madrid — PGOUM97_ORDENACION.zip (AMBITOS), normalizado por data-pipeline/ingest/madrid.py", "fecha_dato": "2026-05-12", "ambito": "APE.07.02", "_raw_TIPOAMBITO": "APE", "_raw_USO_CARACT": "TE", "_raw_NOMBRE": "SANTA ENGRACIA, 69", "derivado": "reconvertible"}, "geometry": {"type": "Polygon", "coordinates": [[[-3.6990063, 40.4343243], [-3.6986987, 40.4343984], [-3.6987495, 40.434523], [-3.6990573, 40.4344462], [-3.6990063, 40.4343243]]]}}, {"type": "Feature", "properties": {"municipio": "Madrid", "clasificacion": "urbano-consolidado", "calificacion": "terciario", "version": "vigente", "fuente": "Geoportal Madrid — PGOUM97_ORDENACION.zip (AMBITOS), normalizado por data-pipeline/ingest/madrid.py", "fecha_dato": "2026-05-12", "ambito": "APE.09.21", "_raw_TIPOAMBITO": "APE", "_raw_USO_CARACT": "TE", "_raw_NOMBRE": "FUENTE DEL REY", "derivado": "reconvertible"}, "geometry": {"type": "Polygon", "coordinates": [[[-3.7687624, 40.4590772], [-3.7697113, 40.4590266], [-3.7676091, 40.4561395], [-3.7672185, 40.4563884], [-3.7674471, 40.456754], [-3.7671033, 40.457162], [-3.7666747, 40.456984], [-3.7664584, 40.4569958], [-3.7664606, 40.4570921], [-3.7671015, 40.4572574], [-3.7673385, 40.4578279], [-3.7676257, 40.4577294], [-3.7686471, 40.4585547], [-3.7687624, 40.4590772]]]}}, {"type": "Feature", "properties": {"municipio": "Madrid", "clasificacion": "urbano-consolidado", "calificacion": "terciario", "version": "vigente", "fuente": "Geoportal Madrid — PGOUM97_ORDENACION.zip (AMBITOS), normalizado por data-pipeline/ingest/madrid.py", "fecha_dato": "2026-05-12", "ambito": "APE.04.12", "_raw_TIPOAMBITO": "APE", "_raw_USO_CARACT": "TE", "_raw_NOMBRE": "ABN, SERRANO 55", "derivado": "reconvertible"}, "geometry": {"type": "Polygon", "coordinates": [[[-3.6873676, 40.4316438], [-3.6874213, 40.4314177], [-3.687007, 40.4313999], [-3.686985, 40.4316204], [-3.6873676, 40.4316438]]]}}]}