{"type": "FeatureCollection", "features": [{"type": "Feature", "properties": {"municipio": "Madrid", "clasificacion": "urbanizable-sectorizado", "calificacion": "residencial", "version": "vigente", "fuente": "Geoportal Madrid — PGOUM97_ORDENACION.zip (AMBITOS), normalizado por data-pipeline/ingest/madrid.py", "fecha_dato": "2026-05-12", "ambito": "UZP.1.01", "_raw_TIPOAMBITO": "UZP", "_raw_USO_CARACT": "RE", "_raw_NOMBRE": "ENSANCHE DE BARAJAS", "derivado": "sectores-dormidos", "verificacion_gestion": "pendiente"}, "geometry": {"type": "Polygon", "coordinates": [[[-3.5984901, 40.4759149], [-3.5990604, 40.4746341], [-3.5991327, 40.4734315], [-3.5990453, 40.4729338], [-3.598348, 40.4716118], [-3.5969775, 40.4702566], [-3.5954415, 40.4694789], [-3.5942229, 40.4691649], [-3.5932084, 40.4691207], [-3.592856, 40.4688111], [-3.5888723, 40.4687975], [-3.5888222, 40.4724829], [-3.5852034, 40.4757424], [-3.5824948, 40.4756812], [-3.5824619, 40.4759015], [-3.5984901, 40.4759149]], [[-3.5988406, 40.4742679], [-3.5978917, 40.4754384], [-3.5975494, 40.475377], [-3.595859, 40.4745459], [-3.5953575, 40.4750638], [-3.5946414, 40.4754327], [-3.5933273, 40.4747541], [-3.5934851, 40.4745083], [-3.5944082, 40.4739555], [-3.5956856, 40.4745923], [-3.5963654, 40.4737693], [-3.596342, 40.4735586], [-3.5964999, 40.4734267], [-3.5963439, 40.4729555], [-3.5959009, 40.4731022], [-3.5956879, 40.473457], [-3.5949885, 40.4729714], [-3.5914491, 40.4714989], [-3.5914091, 40.4713416], [-3.5929821, 40.4710335], [-3.5907555, 40.4700135], [-3.5911385, 40.4698987], [-3.5913967, 40.4695574], [-3.5923223, 40.469596], [-3.594548, 40.4708352], [-3.5942757, 40.4708936], [-3.5949698, 40.4713068], [-3.5970395, 40.4721644], [-3.5964354, 40.4727178], [-3.5967633, 40.4737023], [-3.5971232, 40.4735236], [-3.5988406, 40.4742679]]]}}, {"type": "Feature", "properties": {"municipio": "Madrid", "clasificacion": "urbanizable-sectorizado", "calificacion": "sin-asignar", "version": "vigente", "fuente": "Geoportal Madrid — PGOUM97_ORDENACION.zip (AMBITOS), normalizado por data-pipeline/ingest/madrid.py", "fecha_dato": "2026-05-12", "ambito": "UZI.0.05", "_raw_TIPOAMBITO": "UZI", "_raw_USO_CARACT": "99", "_raw_NOMBRE": "OLIVAR DE LA HINOJOSA (PP 2 PAU 1)", "derivado": "sectores-dormidos", "verificacion_gestion": "pendiente"}, "geometry": {"type": "Polygon", "coordinates": [[[-3.6313757, 40.4778411], [-3.6323323, 40.4772891], [-3.6304306, 40.475464], [-3.6292787, 40.4745833], [-3.6266942, 40.4733254], [-3.6253113, 40.4729081], [-3.6251121, 40.4730591], [-3.6256458, 40.474524], [-3.6263124, 40.4750638], [-3.6293418, 40.4748624], [-3.6287244, 40.4768502], [-3.6300368, 40.4774053], [-3.6300302, 40.4775391], [-3.6309864, 40.4780784], [-3.6311431, 40.4777152], [-3.6313757, 40.4778411]]]}}, {"type": "Feature", "properties": {"municipio": "Madrid", "clasificacion": "urbanizable-sectorizado", "calificacion": "residencial", "version": "vigente", "fuente": "Geoportal Madrid — PGOUM97_ORDENACION.zip (AMBITOS), normalizado por data-pipeline/ingest/madrid.py", "fecha_dato": "2026-05-12", "ambito": "UZP.3.04", "_raw_TIPOAMBITO": "UZP", "_raw_USO_CARACT": "RE", "_raw_NOMBRE": "VILLAVERDE- LOS AG¿ADOS", "derivado": "sectores-dormidos", "verificacion_gestion": "pendiente"}, "geometry": {"type": "Polygon", "coordinates": [[[-3.7006133, 40.3318317], [-3.7006068, 40.331595], [-3.7014834, 40.3315733], [-3.7134605, 40.3315369], [-3.7140698, 40.3313856], [-3.7150513, 40.3301734], [-3.715286, 40.328952], [-3.7161658, 40.3289684], [-3.7161014, 40.3291901], [-3.716627, 40.3287589], [-3.7144788, 40.3276814], [-3.7142087, 40.3273332], [-3.7105618, 40.3265727], [-3.7082612, 40.32629], [-3.7071207, 40.3277375], [-3.7048901, 40.3294835], [-3.7028319, 40.3306959], [-3.699874, 40.3318398], [-3.7006133, 40.3318317]]]}}, {"type": "Feature", "properties": {"municipio": "Madrid", "clasificacion": "urbanizable-sectorizado", "calificacion": "residencial", "version": "vigente", "fuente": "Geoportal Madrid — PGOUM97_ORDENACION.zip (AMBITOS), normalizado por data-pipeline/ingest/madrid.py", "fecha_dato": "2026-05-12", "ambito": "UZP.2.04", "_raw_TIPOAMBITO": "UZP", "_raw_USO_CARACT": "RE", "_raw_NOMBRE": "DESARROLLO DEL ESTE - LOS BERROCALES", "derivado": "sectores-dormidos", "verificacion_gestion": "pendiente"}, "geometry": {"type": "Polygon", "coordinates": [[[-3.6038013, 40.3949348], [-3.6067741, 40.3894216], [-3.6079954, 40.3878031], [-3.6077618, 40.387691], [-3.607266, 40.3881659], [-3.6057103, 40.3907925], [-3.6028831, 40.3897832], [-3.6020255, 40.3897255], [-3.6023493, 40.3891896], [-3.6028704, 40.3888081], [-3.6037911, 40.3876713], [-3.6035247, 40.3873086], [-3.6035378, 40.3869141], [-3.6010822, 40.3858733], [-3.5976346, 40.3868537], [-3.5972249, 40.3860091], [-3.5967391, 40.3858018], [-3.5965075, 40.3861638], [-3.5965217, 40.3866693], [-3.5959932, 40.3868481], [-3.5901905, 40.3838817], [-3.5889632, 40.3838308], [-3.5889407, 40.3834133], [-3.5906801, 40.3829825], [-3.593252, 40.3821068], [-3.595747, 40.3809193], [-3.5980768, 40.3835253], [-3.5987673, 40.38341], [-3.599062, 40.382702], [-3.5996718, 40.3824076], [-3.5979384, 40.3797551], [-3.5991871, 40.3788872], [-3.5999559, 40.3792963], [-3.6011919, 40.3789354], [-3.600786, 40.3783861], [-3.5999567, 40.3779398], [-3.5995547, 40.3774374], [-3.5995653, 40.376911], [-3.6001982, 40.3765037], [-3.6002364, 40.376328], [-3.5995251, 40.3751612], [-3.5986239, 40.3744626], [-3.5927282, 40.3716547], [-3.5924072, 40.3716753], [-3.5920143, 40.3714807], [-3.5918105, 40.3712159], [-3.5851089, 40.3677482], [-3.5835602, 40.3673859], [-3.579374, 40.3671998], [-3.5778861, 40.3669907], [-3.5766563, 40.3663779], [-3.5711442, 40.3626486], [-3.5703051, 40.3622038], [-3.5694958, 40.3619883], [-3.5681449, 40.3618739], [-3.5662886, 40.361984], [-3.5649638, 40.3623165], [-3.5635402, 40.3629053], [-3.5624192, 40.363595], [-3.5616742, 40.3643054], [-3.5572141, 40.3692257], [-3.5561289, 40.3708983], [-3.5547571, 40.3734757], [-3.5556047, 40.3739188], [-3.5586151, 40.3745744], [-3.5594106, 40.3748528], [-3.5619748, 40.377363], [-3.5640661, 40.3806726], [-3.5644502, 40.3810583], [-3.5651017, 40.3813332], [-3.5669057, 40.3814971], [-3.5674934, 40.381704], [-3.5700496, 40.38363], [-3.5746522, 40.3867822], [-3.57586, 40.3874296], [-3.5881769, 40.3909801], [-3.5907094, 40.3912667], [-3.595721, 40.3926011], [-3.6020704, 40.3933056], [-3.603189, 40.3939027], [-3.6038013, 40.3949348]]]}}, {"type": "Feature", "properties": {"municipio": "Madrid", "clasificacion": "urbanizable-sectorizado", "calificacion": "sin-asignar", "version": "vigente", "fuente": "Geoportal Madrid — PGOUM97_ORDENACION.zip (AMBITOS), normalizado por data-pipeline/ingest/madrid.py", "fecha_dato": "2026-05-12", "ambito": "UZI.0.03", "_raw_TIPOAMBITO": "UZI", "_raw_USO_CARACT": "99", "_raw_NOMBRE": "GLORIETA DE EISENHOWER (PP II.3)", "derivado": "sectores-dormidos", "verificacion_gestion": "pendiente"}, "geometry": {"type": "Polygon", "coordinates": [[[-3.5891185, 40.4469085], [-3.5910977, 40.4430161], [-3.5883137, 40.4428256], [-3.5880899, 40.4426571], [-3.5862248, 40.442279], [-3.5861962, 40.4428884], [-3.586303, 40.442896], [-3.5860441, 40.4494569], [-3.5866444, 40.4494651], [-3.5869626, 40.4491879], [-3.5874613, 40.4489874], [-3.5876508, 40.4490294], [-3.5877865, 40.4488744], [-3.5891185, 40.4469085]]]}}, {"type": "Feature", "properties": {"municipio": "Madrid", "clasificacion": "urbanizable-sectorizado", "calificacion": "residencial", "version": "vigente", "fuente": "Geoportal Madrid — PGOUM97_ORDENACION.zip (AMBITOS), normalizado por data-pipeline/ingest/madrid.py", "fecha_dato": "2026-05-12", "ambito": "UZP.3.02", "_raw_TIPOAMBITO": "UZP", "_raw_USO_CARACT": "RE", "_raw_NOMBRE": "VILLAVERDE- VEREDA DEL SALOBRAL", "derivado": "sectores-dormidos", "verificacion_gestion": "pendiente"}, "geometry": {"type": "Polygon", "coordinates": [[[-3.6779783, 40.3347266], [-3.6798372, 40.3343959], [-3.6817415, 40.3336988], [-3.6832153, 40.3336371], [-3.6863812, 40.333115], [-3.6890513, 40.3330918], [-3.6900859, 40.3329078], [-3.6896749, 40.3328943], [-3.6896248, 40.3325344], [-3.6891991, 40.3324149], [-3.6892442, 40.3304556], [-3.6901213, 40.3305825], [-3.6901654, 40.3291403], [-3.6903966, 40.3274457], [-3.6908364, 40.3270937], [-3.6920041, 40.3270982], [-3.6919858, 40.3269151], [-3.6912398, 40.3268669], [-3.6908316, 40.3264262], [-3.6885923, 40.3286698], [-3.6865064, 40.3302332], [-3.6848561, 40.3311277], [-3.6804625, 40.3330345], [-3.6790777, 40.333855], [-3.6779783, 40.3347266]]]}}, {"type": "Feature", "properties": {"municipio": "Madrid", "clasificacion": "urbanizable-sectorizado", "calificacion": "residencial", "version": "vigente", "fuente": "Geoportal Madrid — PGOUM97_ORDENACION.zip (AMBITOS), normalizado por data-pipeline/ingest/madrid.py", "fecha_dato": "2026-05-12", "ambito": "UZP.1.03", "_raw_TIPOAMBITO": "UZP", "_raw_USO_CARACT": "RE", "_raw_NOMBRE": "ENSANCHE DE VALLECAS", "derivado": "sectores-dormidos", "verificacion_gestion": "pendiente"}, "geometry": {"type": "Polygon", "coordinates": [[[-3.6164653, 40.3794728], [-3.6164735, 40.3786618], [-3.6177176, 40.378446], [-3.6166159, 40.3777379], [-3.6150936, 40.3762854], [-3.6158066, 40.3757554], [-3.6165882, 40.3764797], [-3.6173676, 40.3768716], [-3.6177288, 40.3764486], [-3.6180262, 40.3758113], [-3.6168765, 40.375512], [-3.6166817, 40.3752696], [-3.6171515, 40.3738695], [-3.6171131, 40.3735948], [-3.6173756, 40.3734945], [-3.6161247, 40.3720435], [-3.6169489, 40.3716791], [-3.6167531, 40.3713995], [-3.6161203, 40.3716843], [-3.6157261, 40.3711332], [-3.6164559, 40.3704911], [-3.6160857, 40.370115], [-3.6175023, 40.3695925], [-3.6238152, 40.3687066], [-3.6248706, 40.3708934], [-3.625413, 40.3713714], [-3.6263254, 40.3718542], [-3.6241648, 40.3734835], [-3.6255697, 40.3746312], [-3.6249387, 40.3753478], [-3.6245754, 40.3761102], [-3.6249136, 40.3761923], [-3.6246453, 40.3768682], [-3.625452, 40.3772878], [-3.6256601, 40.377575], [-3.626832, 40.377324], [-3.6300427, 40.3771847], [-3.6308485, 40.3764908], [-3.6323686, 40.3754757], [-3.6353902, 40.3741676], [-3.6336976, 40.3716206], [-3.6340515, 40.3713631], [-3.6334318, 40.3706871], [-3.6326387, 40.3701535], [-3.6315246, 40.3689908], [-3.6309667, 40.3682085], [-3.6305129, 40.3669762], [-3.630115, 40.3646427], [-3.6307487, 40.3637363], [-3.6317525, 40.3632941], [-3.6319443, 40.3630561], [-3.6301205, 40.3630427], [-3.6287595, 40.3627693], [-3.6271453, 40.3620568], [-3.6266083, 40.3620165], [-3.6255585, 40.3622205], [-3.6249652, 40.3626942], [-3.6244652, 40.3628907], [-3.6230671, 40.363132], [-3.6223347, 40.3630563], [-3.6199902, 40.362332], [-3.6191441, 40.3622831], [-3.6174345, 40.3626272], [-3.6134934, 40.3631303], [-3.6105241, 40.363077], [-3.6063452, 40.361603], [-3.604628, 40.3608473], [-3.6033226, 40.358616], [-3.6032797, 40.3579883], [-3.603072, 40.3577254], [-3.6011527, 40.3566331], [-3.5981146, 40.355557], [-3.5960438, 40.3544164], [-3.5947691, 40.3540219], [-3.5898308, 40.3530396], [-3.5884496, 40.3524817], [-3.5873565, 40.3522168], [-3.5864661, 40.3517874], [-3.5837045, 40.3519973], [-3.580955, 40.358917], [-3.5811036, 40.3590976], [-3.580392, 40.3607375], [-3.5800336, 40.3622415], [-3.5804525, 40.3626443], [-3.580562, 40.3629941], [-3.5786727, 40.3637376], [-3.5762674, 40.3653807], [-3.5775713, 40.366191], [-3.578872, 40.3666336], [-3.5837626, 40.3668821], [-3.5857548, 40.367461], [-3.5907353, 40.3702377], [-3.5919471, 40.3708074], [-3.5920363, 40.3707337], [-3.5929286, 40.3710755], [-3.5935396, 40.371684], [-3.5989127, 40.3742972], [-3.5999369, 40.3751614], [-3.6007749, 40.3765569], [-3.6025919, 40.3760725], [-3.6030988, 40.376109], [-3.6103991, 40.3787987], [-3.6134043, 40.3793518], [-3.6164653, 40.3794728]]]}}, {"type": "Feature", "properties": {"municipio": "Madrid", "clasificacion": "urbanizable-sectorizado", "calificacion": "industrial", "version": "vigente", "fuente": "Geoportal Madrid — PGOUM97_ORDENACION.zip (AMBITOS), normalizado por data-pipeline/ingest/madrid.py", "fecha_dato": "2026-05-12", "ambito": "UZI.0.01", "_raw_TIPOAMBITO": "UZI", "_raw_USO_CARACT": "IN", "_raw_NOMBRE": "LA RESINA (PP I.12)", "derivado": "sectores-dormidos", "verificacion_gestion": "pendiente"}, "geometry": {"type": "Polygon", "coordinates": [[[-3.7007406, 40.3359075], [-3.7115824, 40.3357761], [-3.7126627, 40.3334943], [-3.7140698, 40.3313856], [-3.7132999, 40.3315569], [-3.7006068, 40.331595], [-3.7007406, 40.3359075]]]}}, {"type": "Feature", "properties": {"municipio": "Madrid", "clasificacion": "urbanizable-sectorizado", "calificacion": "residencial", "version": "vigente", "fuente": "Geoportal Madrid — PGOUM97_ORDENACION.zip (AMBITOS), normalizado por data-pipeline/ingest/madrid.py", "fecha_dato": "2026-05-12", "ambito": "UZP.1.05", "_raw_TIPOAMBITO": "UZP", "_raw_USO_CARACT": "RE", "_raw_NOMBRE": "VILLAVERDE - BARRIO DE BUTARQUE", "derivado": "sectores-dormidos", "verificacion_gestion": "pendiente"}, "geometry": {"type": "Polygon", "coordinates": [[[-3.6777928, 40.341798], [-3.678263, 40.3414104], [-3.677891, 40.3409693], [-3.6779972, 40.3408604], [-3.679117, 40.3413933], [-3.6797478, 40.3407906], [-3.6807972, 40.3408905], [-3.6819503, 40.340805], [-3.6843521, 40.3398979], [-3.6841147, 40.3396265], [-3.6828879, 40.3401857], [-3.6826182, 40.3400774], [-3.6820761, 40.3396736], [-3.6812404, 40.3386376], [-3.678981, 40.3372668], [-3.6783877, 40.3363324], [-3.6787291, 40.3362387], [-3.6779234, 40.3346917], [-3.6764117, 40.3361019], [-3.6757659, 40.3356975], [-3.6737022, 40.3372428], [-3.6722816, 40.3380004], [-3.6689538, 40.3382928], [-3.6686882, 40.3383837], [-3.668481, 40.3386317], [-3.6685075, 40.3389058], [-3.6694069, 40.3403309], [-3.6704981, 40.3394909], [-3.6705565, 40.3389768], [-3.6708213, 40.3388893], [-3.6757933, 40.3403283], [-3.6777928, 40.341798]]]}}, {"type": "Feature", "properties": {"municipio": "Madrid", "clasificacion": "urbanizable-sectorizado", "calificacion": "residencial", "version": "vigente", "fuente": "Geoportal Madrid — PGOUM97_ORDENACION.zip (AMBITOS), normalizado por data-pipeline/ingest/madrid.py", "fecha_dato": "2026-05-12", "ambito": "UZP.1.06", "_raw_TIPOAMBITO": "UZP", "_raw_USO_CARACT": "RE", "_raw_NOMBRE": "VILLAVERDE - POLIGONO EL GATO", "derivado": "sectores-dormidos", "verificacion_gestion": "pendiente"}, "geometry": {"type": "Polygon", "coordinates": [[[-3.7147227, 40.3410075], [-3.7167619, 40.3409972], [-3.7177823, 40.3406756], [-3.7182838, 40.3412411], [-3.7186294, 40.3410662], [-3.7181201, 40.340495], [-3.7189696, 40.3397601], [-3.7196064, 40.3388116], [-3.7227039, 40.3324872], [-3.7201195, 40.3306413], [-3.716971, 40.3289491], [-3.7160612, 40.3297011], [-3.7159277, 40.3305966], [-3.7152129, 40.3305338], [-3.714743, 40.3310406], [-3.7148096, 40.3312984], [-3.7154229, 40.3317555], [-3.7155601, 40.3321127], [-3.7154178, 40.3406869], [-3.7151826, 40.3409215], [-3.7147227, 40.3410075]]]}}, {"type": "Feature", "properties": {"municipio": "Madrid", "clasificacion": "urbanizable-sectorizado", "calificacion": "sin-asignar", "version": "vigente", "fuente": "Geoportal Madrid — PGOUM97_ORDENACION.zip (AMBITOS), normalizado por data-pipeline/ingest/madrid.py", "fecha_dato": "2026-05-12", "ambito": "UZI.0.06", "_raw_TIPOAMBITO": "UZI", "_raw_USO_CARACT": null, "_raw_NOMBRE": "ARROYO DEL FRESNO (PP.II.1)", "derivado": "sectores-dormidos", "verificacion_gestion": "pendiente"}, "geometry": {"type": "Polygon", "coordinates": [[[-3.7190469, 40.4967818], [-3.7194461, 40.4978826], [-3.7193787, 40.4980362], [-3.7207667, 40.4981528], [-3.7223182, 40.4978561], [-3.7232349, 40.4974511], [-3.7241249, 40.4968357], [-3.724787, 40.4961254], [-3.7251404, 40.4955119], [-3.7262299, 40.4946911], [-3.7265775, 40.4949407], [-3.729125, 40.4932185], [-3.7309987, 40.492666], [-3.7322426, 40.4926266], [-3.73843, 40.4930998], [-3.739425, 40.4911428], [-3.7419177, 40.4887891], [-3.7424318, 40.4885304], [-3.7425841, 40.4878977], [-3.7437477, 40.4861417], [-3.7444972, 40.4853804], [-3.7455183, 40.4835883], [-3.745445, 40.4834392], [-3.7449863, 40.4827092], [-3.7418173, 40.481076], [-3.7414214, 40.4812512], [-3.740941, 40.4818567], [-3.7394355, 40.4812279], [-3.7394278, 40.4820981], [-3.7381126, 40.482138], [-3.7377744, 40.4831293], [-3.7367142, 40.4837504], [-3.7363538, 40.4841336], [-3.7358532, 40.4850389], [-3.7353139, 40.4854595], [-3.7357758, 40.4856152], [-3.7357202, 40.4860247], [-3.7337399, 40.4865476], [-3.7326477, 40.4865577], [-3.7317564, 40.4863946], [-3.7306409, 40.4867569], [-3.7299074, 40.4871628], [-3.7288323, 40.4880086], [-3.7278716, 40.489045], [-3.7254065, 40.4904451], [-3.7241279, 40.4915231], [-3.723836, 40.4920542], [-3.7231747, 40.4923509], [-3.722076, 40.4933205], [-3.7209628, 40.4944024], [-3.7190469, 40.4967818]]]}}, {"type": "Feature", "properties": {"municipio": "Madrid", "clasificacion": "urbanizable-sectorizado", "calificacion": "residencial", "version": "vigente", "fuente": "Geoportal Madrid — PGOUM97_ORDENACION.zip (AMBITOS), normalizado por data-pipeline/ingest/madrid.py", "fecha_dato": "2026-05-12", "ambito": "UZI.0.09", "_raw_TIPOAMBITO": "UZI", "_raw_USO_CARACT": "RE", "_raw_NOMBRE": "SANCHINARRO (PP II.4)", "derivado": "sectores-dormidos", "verificacion_gestion": "pendiente"}, "geometry": {"type": "Polygon", "coordinates": [[[-3.6575632, 40.5087652], [-3.6574988, 40.5056775], [-3.6577524, 40.5045542], [-3.6582814, 40.503423], [-3.6589106, 40.502567], [-3.6625404, 40.498561], [-3.6706792, 40.4916308], [-3.6719034, 40.4902256], [-3.6715324, 40.4905986], [-3.6710857, 40.490475], [-3.6701463, 40.4907244], [-3.6693003, 40.4911743], [-3.6683484, 40.4914788], [-3.6679463, 40.4913979], [-3.6673175, 40.4915022], [-3.6672116, 40.4908723], [-3.6662982, 40.4892232], [-3.6630944, 40.4896629], [-3.6619105, 40.4895956], [-3.6606203, 40.4897525], [-3.6602712, 40.4890515], [-3.6603052, 40.4886516], [-3.6601164, 40.4885817], [-3.6588559, 40.4871567], [-3.6589606, 40.4870306], [-3.6588557, 40.4868672], [-3.6585855, 40.486944], [-3.6579666, 40.4874329], [-3.6577421, 40.4871465], [-3.6573107, 40.4869232], [-3.65616, 40.48756], [-3.6556092, 40.4876975], [-3.6550563, 40.4871348], [-3.6543491, 40.4874906], [-3.6540672, 40.4880927], [-3.6531065, 40.4886837], [-3.6529218, 40.4886788], [-3.6531887, 40.4881321], [-3.6535479, 40.4880299], [-3.6540439, 40.4875096], [-3.6539704, 40.4871065], [-3.6543066, 40.4862741], [-3.6536705, 40.4859643], [-3.6539485, 40.485093], [-3.6544166, 40.4842931], [-3.6543208, 40.4837498], [-3.6421443, 40.4814891], [-3.6428857, 40.4829606], [-3.6431616, 40.484097], [-3.6431696, 40.4851592], [-3.6428282, 40.487769], [-3.6428959, 40.4890923], [-3.6431175, 40.4902357], [-3.6435684, 40.4915754], [-3.6449363, 40.4945887], [-3.6459209, 40.4972887], [-3.6467078, 40.5001631], [-3.647364, 40.5037187], [-3.6476116, 40.5045406], [-3.6481167, 40.5055533], [-3.6493717, 40.5071051], [-3.6509041, 40.5082945], [-3.6530839, 40.5093421], [-3.6554219, 40.5099324], [-3.6573525, 40.5101298], [-3.6575632, 40.5087652]]]}}, {"type": "Feature", "properties": {"municipio": "Madrid", "clasificacion": "urbanizable-sectorizado", "calificacion": "residencial", "version": "vigente", "fuente": "Geoportal Madrid — PGOUM97_ORDENACION.zip (AMBITOS), normalizado por data-pipeline/ingest/madrid.py", "fecha_dato": "2026-05-12", "ambito": "UZP.3.01", "_raw_TIPOAMBITO": "UZP", "_raw_USO_CARACT": "RE", "_raw_NOMBRE": "DESARROLLO DEL ESTE- VALDECARROS", "derivado": "sectores-dormidos", "verificacion_gestion": "pendiente"}, "geometry": {"type": "Polygon", "coordinates": [[[-3.5762674, 40.3653807], [-3.5786727, 40.3637376], [-3.5805697, 40.36298], [-3.5804525, 40.3626443], [-3.5800336, 40.3622415], [-3.580392, 40.3607375], [-3.5811036, 40.3590976], [-3.580955, 40.358917], [-3.5837045, 40.3519973], [-3.5864661, 40.3517874], [-3.5873565, 40.3522168], [-3.5884496, 40.3524817], [-3.5898308, 40.3530396], [-3.5947691, 40.3540219], [-3.5960438, 40.3544164], [-3.5981146, 40.355557], [-3.6011527, 40.3566331], [-3.603072, 40.3577254], [-3.6032797, 40.3579883], [-3.6033226, 40.358616], [-3.604628, 40.3608473], [-3.6063452, 40.361603], [-3.6105241, 40.363077], [-3.6115435, 40.363163], [-3.6139886, 40.3630816], [-3.6191441, 40.3622831], [-3.6199902, 40.362332], [-3.6223347, 40.3630563], [-3.6230671, 40.363132], [-3.6244652, 40.3628907], [-3.6249652, 40.3626942], [-3.6255585, 40.3622205], [-3.6267892, 40.3620182], [-3.6271453, 40.3620568], [-3.6287595, 40.3627693], [-3.6301205, 40.3630427], [-3.6319443, 40.3630561], [-3.6317525, 40.3632941], [-3.6326236, 40.3631744], [-3.636701, 40.3635662], [-3.6368128, 40.3634152], [-3.6376781, 40.3631303], [-3.638966, 40.3614573], [-3.6396516, 40.3608515], [-3.6422667, 40.3596131], [-3.6439939, 40.3578401], [-3.6457208, 40.3573684], [-3.6472055, 40.3583657], [-3.6478757, 40.3591931], [-3.6481515, 40.3598563], [-3.6481717, 40.3607139], [-3.6485808, 40.3613742], [-3.6487533, 40.3626813], [-3.6494445, 40.3614697], [-3.6502017, 40.3607395], [-3.6508852, 40.359847], [-3.6518924, 40.3589466], [-3.6528873, 40.3583413], [-3.6538031, 40.3579134], [-3.6555834, 40.3573416], [-3.6574757, 40.357009], [-3.6646749, 40.3548213], [-3.6606481, 40.3526049], [-3.6605188, 40.3511757], [-3.6598144, 40.3509146], [-3.6595188, 40.3509187], [-3.656391, 40.3520416], [-3.6547621, 40.351909], [-3.6541361, 40.3514696], [-3.6551091, 40.3508507], [-3.6585034, 40.3497842], [-3.6592694, 40.3494111], [-3.6611303, 40.3469577], [-3.6614113, 40.3467469], [-3.6571089, 40.3426114], [-3.6556856, 40.3410543], [-3.6552705, 40.3416428], [-3.6544939, 40.3423368], [-3.6528517, 40.3430498], [-3.6509935, 40.3432554], [-3.6487875, 40.3429779], [-3.6479559, 40.3427068], [-3.6467995, 40.3420047], [-3.6461127, 40.3412082], [-3.6449145, 40.3390771], [-3.6430989, 40.3375037], [-3.6408125, 40.3364541], [-3.6377151, 40.3357893], [-3.635684, 40.3356892], [-3.6316739, 40.3359639], [-3.625076, 40.3360191], [-3.6142152, 40.3358134], [-3.6113573, 40.3359905], [-3.6082165, 40.336551], [-3.6037567, 40.3381551], [-3.5961473, 40.3401227], [-3.5946845, 40.3405946], [-3.5916186, 40.3418718], [-3.585525, 40.3454915], [-3.5725048, 40.3544561], [-3.5697982, 40.3565449], [-3.5691648, 40.3573705], [-3.5689443, 40.3583176], [-3.5691071, 40.3595251], [-3.5696253, 40.3605051], [-3.5702421, 40.3611709], [-3.5723202, 40.3627694], [-3.5762674, 40.3653807]]]}}, {"type": "Feature", "properties": {"municipio": "Madrid", "clasificacion": "urbanizable-sectorizado", "calificacion": "residencial", "version": "vigente", "fuente": "Geoportal Madrid — PGOUM97_ORDENACION.zip (AMBITOS), normalizado por data-pipeline/ingest/madrid.py", "fecha_dato": "2026-05-12", "ambito": "UZP.2.03", "_raw_TIPOAMBITO": "UZP", "_raw_USO_CARACT": "RE", "_raw_NOMBRE": "DESARROLLO DEL ESTE - LOS AHIJONES", "derivado": "sectores-dormidos", "verificacion_gestion": "pendiente"}, "geometry": {"type": "Polygon", "coordinates": [[[-3.5856019, 40.4068433], [-3.5811095, 40.4034516], [-3.5803142, 40.39694], [-3.580144, 40.3938025], [-3.5799367, 40.3934538], [-3.5791854, 40.3933161], [-3.5805467, 40.392086], [-3.5837576, 40.3897001], [-3.5764775, 40.387626], [-3.57526, 40.3871715], [-3.5700496, 40.38363], [-3.5674934, 40.381704], [-3.5669057, 40.3814971], [-3.5651017, 40.3813332], [-3.5644502, 40.3810583], [-3.5640661, 40.3806726], [-3.5619748, 40.377363], [-3.5598995, 40.3752765], [-3.5594106, 40.3748528], [-3.5589371, 40.3746624], [-3.5556047, 40.3739188], [-3.5547571, 40.3734757], [-3.5539453, 40.3750502], [-3.5522021, 40.3771244], [-3.5509377, 40.3780807], [-3.5494629, 40.3789014], [-3.5495183, 40.3805333], [-3.5493502, 40.3811659], [-3.5484755, 40.3821009], [-3.5460765, 40.3853097], [-3.5458047, 40.3864275], [-3.5455198, 40.386922], [-3.5448007, 40.3867118], [-3.5446905, 40.3869061], [-3.5451545, 40.3870442], [-3.5441966, 40.3886705], [-3.5431037, 40.3917746], [-3.5429847, 40.3924821], [-3.5430299, 40.3933959], [-3.5468981, 40.3928171], [-3.5507444, 40.3925803], [-3.5539962, 40.3927864], [-3.5559471, 40.3932582], [-3.5722003, 40.4007788], [-3.580773, 40.4051501], [-3.5856019, 40.4068433]]]}}, {"type": "Feature", "properties": {"municipio": "Madrid", "clasificacion": "urbanizable-sectorizado", "calificacion": "residencial", "version": "vigente", "fuente": "Geoportal Madrid — PGOUM97_ORDENACION.zip (AMBITOS), normalizado por data-pipeline/ingest/madrid.py", "fecha_dato": "2026-05-12", "ambito": "UZP.2.02", "_raw_TIPOAMBITO": "UZP", "_raw_USO_CARACT": "RE", "_raw_NOMBRE": "DESARROLLO DEL ESTE - LOS CERROS", "derivado": "sectores-dormidos", "verificacion_gestion": "pendiente"}, "geometry": {"type": "Polygon", "coordinates": [[[-3.5336256, 40.4138482], [-3.5351438, 40.4143948], [-3.5355521, 40.413428], [-3.5359761, 40.4134314], [-3.5362356, 40.4132849], [-3.5361056, 40.4127876], [-3.5372663, 40.4125927], [-3.5377648, 40.4123845], [-3.5378915, 40.4117538], [-3.5382684, 40.4114575], [-3.5396363, 40.4116177], [-3.5397504, 40.4114234], [-3.5397444, 40.4104945], [-3.5437997, 40.4113419], [-3.5445623, 40.4113774], [-3.5441991, 40.4109389], [-3.5455519, 40.4109636], [-3.5453915, 40.410333], [-3.543819, 40.4102958], [-3.5437814, 40.4102086], [-3.5437628, 40.4098825], [-3.5439964, 40.4091443], [-3.5438804, 40.4079877], [-3.5439466, 40.4071706], [-3.5441067, 40.406235], [-3.5445373, 40.4053519], [-3.5445315, 40.4051331], [-3.5438811, 40.4034891], [-3.5433471, 40.4025024], [-3.5420514, 40.3972271], [-3.5419891, 40.3939943], [-3.5421011, 40.3929932], [-3.5373148, 40.3913083], [-3.532818, 40.3916953], [-3.532085, 40.3914239], [-3.5291311, 40.3893683], [-3.5268792, 40.3898035], [-3.5247887, 40.390674], [-3.5247874, 40.3920157], [-3.5256718, 40.3935065], [-3.5225606, 40.3950813], [-3.5204581, 40.3967021], [-3.5196834, 40.3975718], [-3.5185692, 40.3999717], [-3.5181005, 40.4019444], [-3.5181173, 40.4023974], [-3.5182206, 40.4033021], [-3.5189438, 40.4045342], [-3.5191074, 40.405136], [-3.5193405, 40.4067647], [-3.5191696, 40.4088785], [-3.5199022, 40.4099175], [-3.5197452, 40.4100116], [-3.5203177, 40.4107478], [-3.5206375, 40.4116338], [-3.5216382, 40.4130864], [-3.5229829, 40.4132767], [-3.5246357, 40.4139969], [-3.5254778, 40.4141678], [-3.5263199, 40.4141204], [-3.5279119, 40.413794], [-3.5301982, 40.4140486], [-3.5325718, 40.4137487], [-3.5336256, 40.4138482]]]}}, {"type": "Feature", "properties": {"municipio": "Madrid", "clasificacion": "urbanizable-sectorizado", "calificacion": "residencial", "version": "vigente", "fuente": "Geoportal Madrid — PGOUM97_ORDENACION.zip (AMBITOS), normalizado por data-pipeline/ingest/madrid.py", "fecha_dato": "2026-05-12", "ambito": "UZI.0.08", "_raw_TIPOAMBITO": "UZI", "_raw_USO_CARACT": "RE", "_raw_NOMBRE": "LAS TABLAS (PP.II.3)", "derivado": "sectores-dormidos", "verificacion_gestion": "pendiente"}, "geometry": {"type": "Polygon", "coordinates": [[[-3.6875271, 40.5223489], [-3.6862532, 40.5181343], [-3.68412, 40.5178215], [-3.6834635, 40.5154401], [-3.680785, 40.5160763], [-3.6793578, 40.515212], [-3.6786357, 40.5135212], [-3.6754189, 40.5143911], [-3.6720512, 40.51589], [-3.671335, 40.5156398], [-3.6715296, 40.5129498], [-3.6716887, 40.5127046], [-3.6813016, 40.5089532], [-3.6804574, 40.5071541], [-3.6794431, 40.5035221], [-3.6765696, 40.4972847], [-3.6760209, 40.4955676], [-3.6737028, 40.4960021], [-3.6735827, 40.496008], [-3.6738563, 40.4957521], [-3.673556, 40.4957823], [-3.6694211, 40.4993413], [-3.669728, 40.5002226], [-3.6636932, 40.5025502], [-3.6619655, 40.5001293], [-3.6593582, 40.5033873], [-3.6587783, 40.5046359], [-3.6585211, 40.5058182], [-3.658758, 40.5097518], [-3.6586634, 40.5105586], [-3.6583909, 40.5112882], [-3.6589566, 40.5134301], [-3.6614391, 40.5173054], [-3.6625942, 40.5199363], [-3.6658655, 40.5188479], [-3.6668246, 40.5183229], [-3.6686337, 40.5170572], [-3.6703764, 40.5162537], [-3.6739078, 40.5180449], [-3.6774779, 40.519239], [-3.6797621, 40.5196927], [-3.6833292, 40.5200776], [-3.6852139, 40.5205221], [-3.6856329, 40.5213377], [-3.6862497, 40.522106], [-3.6874327, 40.52302], [-3.6875271, 40.5223489]]]}}, {"type": "Feature", "properties": {"municipio": "Madrid", "clasificacion": "urbanizable-sectorizado", "calificacion": "residencial", "version": "vigente", "fuente": "Geoportal Madrid — PGOUM97_ORDENACION.zip (AMBITOS), normalizado por data-pipeline/ingest/madrid.py", "fecha_dato": "2026-05-12", "ambito": "UZP.3.03", "_raw_TIPOAMBITO": "UZP", "_raw_USO_CARACT": "RE", "_raw_NOMBRE": "VILLAVERDE- LOS LLANOS", "derivado": "sectores-dormidos", "verificacion_gestion": "pendiente"}, "geometry": {"type": "Polygon", "coordinates": [[[-3.6946533, 40.3265496], [-3.6953423, 40.3264559], [-3.695436, 40.3260305], [-3.6938625, 40.3261925], [-3.6932906, 40.3264582], [-3.6927787, 40.3270803], [-3.6927607, 40.3274956], [-3.6943953, 40.327495], [-3.6946533, 40.3265496]]]}}, {"type": "Feature", "properties": {"municipio": "Madrid", "clasificacion": "urbanizable-sectorizado", "calificacion": "residencial", "version": "vigente", "fuente": "Geoportal Madrid — PGOUM97_ORDENACION.zip (AMBITOS), normalizado por data-pipeline/ingest/madrid.py", "fecha_dato": "2026-05-12", "ambito": "UZI.0.02", "_raw_TIPOAMBITO": "UZI", "_raw_USO_CARACT": "RE", "_raw_NOMBRE": "LOS CORONALES (PP.II.1)", "derivado": "sectores-dormidos", "verificacion_gestion": "pendiente"}, "geometry": {"type": "Polygon", "coordinates": [[[-3.5932084, 40.4691207], [-3.5988348, 40.4688619], [-3.5965799, 40.4648994], [-3.5959777, 40.4635202], [-3.593728, 40.460269], [-3.589711, 40.4620518], [-3.590695, 40.4633524], [-3.5891, 40.464237], [-3.5902018, 40.4652116], [-3.5893409, 40.4657932], [-3.5932084, 40.4691207]]]}}, {"type": "Feature", "properties": {"municipio": "Madrid", "clasificacion": "urbanizable-sectorizado", "calificacion": "residencial", "version": "vigente", "fuente": "Geoportal Madrid — PGOUM97_ORDENACION.zip (AMBITOS), normalizado por data-pipeline/ingest/madrid.py", "fecha_dato": "2026-05-12", "ambito": "UZI.0.10", "_raw_TIPOAMBITO": "UZI", "_raw_USO_CARACT": "RE", "_raw_NOMBRE": "ENSANCHE DE CARABANCHEL (PP II.6)", "derivado": "sectores-dormidos", "verificacion_gestion": "pendiente"}, "geometry": {"type": "Polygon", "coordinates": [[[-3.7384037, 40.3721608], [-3.7387029, 40.3734732], [-3.7402427, 40.373343], [-3.7419498, 40.3728909], [-3.7421676, 40.3719016], [-3.743193, 40.3707801], [-3.7407776, 40.3692561], [-3.7428292, 40.3675499], [-3.7434607, 40.3673528], [-3.7449941, 40.3674626], [-3.7455768, 40.3672955], [-3.7461752, 40.3668308], [-3.746375, 40.3654752], [-3.7468605, 40.3651022], [-3.7488244, 40.365229], [-3.7487884, 40.3654337], [-3.7501462, 40.3655218], [-3.7502695, 40.3652363], [-3.7510075, 40.3648618], [-3.7526495, 40.3648968], [-3.753746, 40.3646466], [-3.7538624, 40.3635384], [-3.7551848, 40.3636193], [-3.7550324, 40.3651026], [-3.754131, 40.365195], [-3.7540296, 40.3663218], [-3.7556134, 40.3663185], [-3.7559611, 40.3659176], [-3.7572239, 40.3665138], [-3.7575824, 40.3659187], [-3.7616792, 40.3667925], [-3.7621367, 40.3675466], [-3.7603615, 40.3693304], [-3.761569, 40.369985], [-3.7618593, 40.3699809], [-3.7603873, 40.372285], [-3.7706339, 40.373911], [-3.7711896, 40.3718582], [-3.7717569, 40.3719575], [-3.7719202, 40.3715856], [-3.7719787, 40.3708004], [-3.7700597, 40.3706308], [-3.7672864, 40.3700939], [-3.7670846, 40.3704597], [-3.7666452, 40.3699744], [-3.7665183, 40.3695093], [-3.7668624, 40.3669386], [-3.7670798, 40.3663891], [-3.7678369, 40.3659746], [-3.771445, 40.3654066], [-3.7715961, 40.3628134], [-3.7727913, 40.3621398], [-3.7728997, 40.3622237], [-3.7743542, 40.3614671], [-3.7756741, 40.3629502], [-3.7747754, 40.3634183], [-3.7761692, 40.3650719], [-3.7766658, 40.3649767], [-3.7803473, 40.3616029], [-3.778488, 40.3615443], [-3.7767765, 40.3612725], [-3.7738505, 40.3604672], [-3.7722316, 40.359786], [-3.7713863, 40.359908], [-3.7630412, 40.358038], [-3.7584338, 40.3568593], [-3.75704, 40.3573612], [-3.7512331, 40.3587523], [-3.7380125, 40.3616553], [-3.7292619, 40.3637333], [-3.7284124, 40.3637566], [-3.7251415, 40.3644591], [-3.7228996, 40.3648007], [-3.7215317, 40.3653125], [-3.7210753, 40.3657145], [-3.7207815, 40.3661972], [-3.7201901, 40.3710094], [-3.7216566, 40.3712794], [-3.7215585, 40.3726998], [-3.721847, 40.3734855], [-3.7286724, 40.3730829], [-3.7339449, 40.3735468], [-3.7355884, 40.3722209], [-3.7384037, 40.3721608]], [[-3.7397175, 40.3682173], [-3.7392526, 40.3691115], [-3.7373075, 40.370716], [-3.7216411, 40.3704694], [-3.7217728, 40.366312], [-3.7229591, 40.3663335], [-3.7337339, 40.3635402], [-3.7404782, 40.3672819], [-3.7397175, 40.3682173]]]}}, {"type": "Feature", "properties": {"municipio": "Madrid", "clasificacion": "urbanizable-sectorizado", "calificacion": "residencial", "version": "vigente", "fuente": "Geoportal Madrid — PGOUM97_ORDENACION.zip (AMBITOS), normalizado por data-pipeline/ingest/madrid.py", "fecha_dato": "2026-05-12", "ambito": "UZP.1.04", "_raw_TIPOAMBITO": "UZP", "_raw_USO_CARACT": "RE", "_raw_NOMBRE": "VALLECAS - LA ATALAYUELA", "derivado": "sectores-dormidos", "verificacion_gestion": "pendiente"}, "geometry": {"type": "Polygon", "coordinates": [[[-3.6373414, 40.3733407], [-3.6454477, 40.369824], [-3.6482514, 40.3684196], [-3.6499952, 40.3673501], [-3.6490842, 40.3660872], [-3.6486319, 40.3649996], [-3.648528, 40.3636496], [-3.6487448, 40.3625382], [-3.6485808, 40.3613742], [-3.6481717, 40.3607139], [-3.6481515, 40.3598563], [-3.647976, 40.359378], [-3.6472055, 40.3583657], [-3.6458661, 40.3573941], [-3.6439939, 40.3578401], [-3.6422667, 40.3596131], [-3.6396516, 40.3608515], [-3.6391284, 40.361271], [-3.6374938, 40.3632494], [-3.6368128, 40.3634152], [-3.636701, 40.3635662], [-3.6326236, 40.3631744], [-3.6318871, 40.3632615], [-3.6307487, 40.3637363], [-3.630115, 40.3646427], [-3.6305129, 40.3669762], [-3.6309667, 40.3682085], [-3.6315246, 40.3689908], [-3.6326387, 40.3701535], [-3.6334318, 40.3706871], [-3.6340515, 40.3713631], [-3.6368487, 40.3729434], [-3.6373414, 40.3733407]]]}}, {"type": "Feature", "properties": {"municipio": "Madrid", "clasificacion": "urbanizable-sectorizado", "calificacion": "residencial", "version": "vigente", "fuente": "Geoportal Madrid — PGOUM97_ORDENACION.zip (AMBITOS), normalizado por data-pipeline/ingest/madrid.py", "fecha_dato": "2026-05-12", "ambito": "UZI.0.07", "_raw_TIPOAMBITO": "UZI", "_raw_USO_CARACT": "RE", "_raw_NOMBRE": "MONTECARMELO (PP II.2)", "derivado": "sectores-dormidos", "verificacion_gestion": "pendiente"}, "geometry": {"type": "Polygon", "coordinates": [[[-3.6862024, 40.5168736], [-3.6878994, 40.5165179], [-3.6882142, 40.5148841], [-3.696992, 40.5126492], [-3.7118196, 40.5053154], [-3.7129115, 40.5046949], [-3.7139373, 40.5038189], [-3.7146162, 40.5028893], [-3.715793, 40.5008337], [-3.7162361, 40.500319], [-3.7170662, 40.4996838], [-3.7184425, 40.499112], [-3.721127, 40.4986503], [-3.7224927, 40.4981278], [-3.7206038, 40.4984638], [-3.7151286, 40.4980717], [-3.7140346, 40.4983292], [-3.7085181, 40.5003927], [-3.7068484, 40.500678], [-3.7053461, 40.5005426], [-3.7041831, 40.5001633], [-3.7006972, 40.4978441], [-3.6999124, 40.4987587], [-3.6978723, 40.5001633], [-3.697248, 40.5014643], [-3.6973108, 40.5019671], [-3.6975518, 40.5022896], [-3.6955214, 40.5028481], [-3.6951817, 40.5031219], [-3.6912894, 40.5076022], [-3.6896844, 40.5077873], [-3.6887989, 40.5076091], [-3.6871059, 40.5062644], [-3.6859251, 40.504978], [-3.6855929, 40.5049014], [-3.6848931, 40.5143063], [-3.685295, 40.5153613], [-3.6862024, 40.5168736]], [[-3.7007833, 40.5009049], [-3.7016727, 40.5002151], [-3.7032376, 40.5008688], [-3.7026535, 40.5012265], [-3.7033855, 40.5019281], [-3.702835, 40.5022883], [-3.7022438, 40.5016176], [-3.7016186, 40.5020139], [-3.7007833, 40.5009049]]]}}, {"type": "Feature", "properties": {"municipio": "Madrid", "clasificacion": "urbanizable-sectorizado", "calificacion": "residencial", "version": "vigente", "fuente": "Geoportal Madrid — PGOUM97_ORDENACION.zip (AMBITOS), normalizado por data-pipeline/ingest/madrid.py", "fecha_dato": "2026-05-12", "ambito": "UZP.3.01", "_raw_TIPOAMBITO": "UZP", "_raw_USO_CARACT": "RE", "_raw_NOMBRE": "DESARROLLO DEL ESTE- VALDECARROS", "derivado": "sectores-dormidos", "verificacion_gestion": "pendiente"}, "geometry": {"type": "Polygon", "coordinates": [[[-3.6320347, 40.3355327], [-3.6456795, 40.3341032], [-3.6472566, 40.3334923], [-3.6481244, 40.3327242], [-3.6446182, 40.3308029], [-3.6430303, 40.3291624], [-3.6403893, 40.3278678], [-3.6359803, 40.3249574], [-3.6343491, 40.3234579], [-3.6325442, 40.3220759], [-3.628783, 40.3201359], [-3.6260248, 40.3192148], [-3.6247507, 40.3205011], [-3.623578, 40.3198323], [-3.6209824, 40.3193372], [-3.6200858, 40.3207129], [-3.6190011, 40.3233856], [-3.6180413, 40.3249291], [-3.6171069, 40.3259534], [-3.6125759, 40.3301663], [-3.6113177, 40.3317818], [-3.6098449, 40.3342195], [-3.6081985, 40.3359118], [-3.6113075, 40.3355672], [-3.6146431, 40.3354156], [-3.6247392, 40.335603], [-3.6320347, 40.3355327]]]}}, {"type": "Feature", "properties": {"municipio": "Madrid", "clasificacion": "urbanizable-sectorizado", "calificacion": "residencial", "version": "vigente", "fuente": "Geoportal Madrid — PGOUM97_ORDENACION.zip (AMBITOS), normalizado por data-pipeline/ingest/madrid.py", "fecha_dato": "2026-05-12", "ambito": "UZP.2.01", "_raw_TIPOAMBITO": "UZP", "_raw_USO_CARACT": "RE", "_raw_NOMBRE": "DESARROLLO DEL ESTE - EL CAÑAVERAL", "derivado": "sectores-dormidos", "verificacion_gestion": "pendiente"}, "geometry": {"type": "Polygon", "coordinates": [[[-3.5728715, 40.4118139], [-3.5767477, 40.4125799], [-3.5808455, 40.4100509], [-3.5810267, 40.4098368], [-3.5858873, 40.4070458], [-3.5856019, 40.4068433], [-3.580773, 40.4051501], [-3.5722003, 40.4007788], [-3.5559471, 40.3932582], [-3.5534232, 40.3927156], [-3.5500994, 40.3925911], [-3.5459427, 40.3929351], [-3.5420014, 40.3936102], [-3.5419891, 40.3939943], [-3.5430392, 40.393776], [-3.5429119, 40.3967856], [-3.5439103, 40.4009192], [-3.5429282, 40.4009241], [-3.5430552, 40.4014444], [-3.5431652, 40.4018086], [-3.5441805, 40.4018034], [-3.5454884, 40.4053032], [-3.545017, 40.4065201], [-3.5448383, 40.4077674], [-3.5455723, 40.4110531], [-3.5455336, 40.4115914], [-3.5492642, 40.4123081], [-3.5502397, 40.4119092], [-3.552872, 40.4117107], [-3.5555633, 40.4120618], [-3.5588033, 40.4131094], [-3.5641462, 40.4135159], [-3.5658785, 40.4133859], [-3.5678096, 40.4130517], [-3.568799, 40.41283], [-3.5706676, 40.4120454], [-3.5728715, 40.4118139]]]}}, {"type": "Feature", "properties": {"municipio": "Madrid", "clasificacion": "urbanizable-sectorizado", "calificacion": "residencial", "version": "vigente", "fuente": "Geoportal Madrid — PGOUM97_ORDENACION.zip (AMBITOS), normalizado por data-pipeline/ingest/madrid.py", "fecha_dato": "2026-05-12", "ambito": "UZP.3.03", "_raw_TIPOAMBITO": "UZP", "_raw_USO_CARACT": "RE", "_raw_NOMBRE": "VILLAVERDE- LOS LLANOS", "derivado": "sectores-dormidos", "verificacion_gestion": "pendiente"}, "geometry": {"type": "Polygon", "coordinates": [[[-3.7014835, 40.3306956], [-3.7036125, 40.3296305], [-3.70589, 40.328087], [-3.7065778, 40.3274762], [-3.7075659, 40.3262136], [-3.7052217, 40.3260027], [-3.7019548, 40.3259087], [-3.695436, 40.3260305], [-3.6964648, 40.3262252], [-3.6974638, 40.3273934], [-3.69754, 40.331403], [-3.6992589, 40.3312649], [-3.7014835, 40.3306956]]]}}, {"type": "Feature", "properties": {"municipio": "Madrid", "clasificacion": "urbanizable-sectorizado", "calificacion": "residencial", "version": "vigente", "fuente": "Geoportal Madrid — PGOUM97_ORDENACION.zip (AMBITOS), normalizado por data-pipeline/ingest/madrid.py", "fecha_dato": "2026-05-12", "ambito": "UZP.1.02", "_raw_TIPOAMBITO": "UZP", "_raw_USO_CARACT": "RE", "_raw_NOMBRE": "VICALVARO -LA CATALANA", "derivado": "sectores-dormidos", "verificacion_gestion": "pendiente"}, "geometry": {"type": "Polygon", "coordinates": [[[-3.5922499, 40.409212], [-3.5924752, 40.4086879], [-3.5912571, 40.4084075], [-3.5945089, 40.4039087], [-3.5944035, 40.4033634], [-3.5941747, 40.4031452], [-3.5923414, 40.403833], [-3.591939, 40.4041092], [-3.5900345, 40.4058667], [-3.5884366, 40.4079306], [-3.5912058, 40.4091017], [-3.5918924, 40.4092934], [-3.5922499, 40.409212]]]}}]}