{
"type": "FeatureCollection",
"name": "vigente.full",
"features": [
{ "type": "Feature", "properties": { "municipio": "Prádena del Rincón", "clasificacion": "no-urbanizable-protegido", "calificacion": "sin-asignar", "version": "vigente", "fuente": "SIT-CAM WFS — UsoDelSuelo:VPLA_V_CLASIFICACION (https://idem.comunidad.madrid/geosrvg/ows)", "fecha_dato": "2026-05-12", "ambito": "23265", "_raw_CD_SIGLAS": "SNUP", "_raw_DS_CLASIF_GEN": "Suelo No Urbanizable Protegido", "_raw_DS_CLASIF_DET": "Suelo No Urbanizable Interés Ganadero y Paisajístico", "_raw_DS_DOCU": "NORMAS SUBSIDIARIAS", "_raw_DS_LEY": "CM Ley 4/1984, E RDL 1/1992", "_raw_FC_AC": "1994-01-13", "_raw_NM_AREA_M2": 1525883.6077644699, "_cam_code": "117" }, "geometry": { "type": "Polygon", "coordinates": [ [ [ -3.5136, 41.0457 ], [ -3.5125, 41.047 ], [ -3.5127, 41.047 ], [ -3.5127, 41.0475 ], [ -3.5124, 41.0477 ], [ -3.5118, 41.0478 ], [ -3.5116, 41.0485 ], [ -3.512, 41.0485 ], [ -3.5126, 41.0482 ], [ -3.5139, 41.0479 ], [ -3.5139, 41.0478 ], [ -3.5142, 41.0477 ], [ -3.5153, 41.0476 ], [ -3.5156, 41.0472 ], [ -3.5162, 41.0471 ], [ -3.5165, 41.0468 ], [ -3.5194, 41.0467 ], [ -3.5202, 41.0471 ], [ -3.5202, 41.0463 ], [ -3.5236, 41.0445 ], [ -3.5242, 41.0446 ], [ -3.5246, 41.0444 ], [ -3.526, 41.0443 ], [ -3.5265, 41.0446 ], [ -3.5278, 41.0438 ], [ -3.5283, 41.0438 ], [ -3.5284, 41.0437 ], [ -3.5289, 41.0437 ], [ -3.5296, 41.044 ], [ -3.5296, 41.0441 ], [ -3.53, 41.0441 ], [ -3.5303, 41.0434 ], [ -3.5309, 41.043 ], [ -3.532, 41.0429 ], [ -3.5325, 41.0421 ], [ -3.5332, 41.0417 ], [ -3.534, 41.0415 ], [ -3.5359, 41.04 ], [ -3.5366, 41.0393 ], [ -3.5361, 41.0382 ], [ -3.5368, 41.0375 ], [ -3.5377, 41.037 ], [ -3.5383, 41.0369 ], [ -3.5389, 41.0366 ], [ -3.5394, 41.0365 ], [ -3.5395, 41.0366 ], [ -3.5392, 41.0361 ], [ -3.5392, 41.0357 ], [ -3.5382, 41.0355 ], [ -3.5375, 41.0351 ], [ -3.5361, 41.0346 ], [ -3.5348, 41.0337 ], [ -3.5341, 41.0336 ], [ -3.5335, 41.0331 ], [ -3.5329, 41.0328 ], [ -3.5313, 41.0327 ], [ -3.5304, 41.0329 ], [ -3.5289, 41.0327 ], [ -3.5276, 41.0323 ], [ -3.5265, 41.0324 ], [ -3.5264, 41.0325 ], [ -3.5264, 41.0331 ], [ -3.5261, 41.0335 ], [ -3.5259, 41.0335 ], [ -3.525, 41.0344 ], [ -3.5246, 41.035 ], [ -3.5243, 41.0352 ], [ -3.5238, 41.036 ], [ -3.5237, 41.0368 ], [ -3.5239, 41.0371 ], [ -3.5246, 41.0375 ], [ -3.5246, 41.0377 ], [ -3.5248, 41.0379 ], [ -3.5248, 41.0382 ], [ -3.525, 41.0383 ], [ -3.5256, 41.0397 ], [ -3.5261, 41.0404 ], [ -3.5264, 41.0406 ], [ -3.5266, 41.041 ], [ -3.5263, 41.0413 ], [ -3.5254, 41.0408 ], [ -3.5245, 41.0407 ], [ -3.5238, 41.0405 ], [ -3.5238, 41.0404 ], [ -3.523, 41.0406 ], [ -3.5228, 41.0408 ], [ -3.5228, 41.0418 ], [ -3.5213, 41.0429 ], [ -3.5212, 41.0428 ], [ -3.521, 41.0429 ], [ -3.5206, 41.0427 ], [ -3.5202, 41.0429 ], [ -3.5197, 41.0429 ], [ -3.5177, 41.0424 ], [ -3.5157, 41.0422 ], [ -3.5154, 41.0425 ], [ -3.5136, 41.0434 ], [ -3.5136, 41.0437 ], [ -3.514, 41.044 ], [ -3.5141, 41.0443 ], [ -3.5147, 41.0442 ], [ -3.5148, 41.0445 ], [ -3.5144, 41.0451 ], [ -3.5136, 41.0457 ] ] ] } },
{ "type": "Feature", "properties": { "municipio": "Prádena del Rincón", "clasificacion": "no-urbanizable-protegido", "calificacion": "sin-asignar", "version": "vigente", "fuente": "SIT-CAM WFS — UsoDelSuelo:VPLA_V_CLASIFICACION (https://idem.comunidad.madrid/geosrvg/ows)", "fecha_dato": "2026-05-12", "ambito": "23265", "_raw_CD_SIGLAS": "SNUP", "_raw_DS_CLASIF_GEN": "Suelo No Urbanizable Protegido", "_raw_DS_CLASIF_DET": "Suelo No Urbanizable Interés Paisajístico y Vía Pecuaria", "_raw_DS_DOCU": "NORMAS SUBSIDIARIAS", "_raw_DS_LEY": "CM Ley 4/1984, E RDL 1/1992", "_raw_FC_AC": "1994-01-13", "_raw_NM_AREA_M2": 116693.224456094, "_cam_code": "117" }, "geometry": { "type": "Polygon", "coordinates": [ [ [ -3.5374, 41.0351 ], [ -3.5386, 41.0355 ], [ -3.5408, 41.0353 ], [ -3.5415, 41.0352 ], [ -3.5424, 41.0347 ], [ -3.5435, 41.035 ], [ -3.5454, 41.0345 ], [ -3.547, 41.0338 ], [ -3.5485, 41.0341 ], [ -3.5496, 41.0341 ], [ -3.5504, 41.034 ], [ -3.551, 41.0339 ], [ -3.5515, 41.0338 ], [ -3.5527, 41.0329 ], [ -3.5529, 41.0326 ], [ -3.5537, 41.0321 ], [ -3.554, 41.0316 ], [ -3.5557, 41.0301 ], [ -3.5562, 41.03 ], [ -3.5574, 41.0291 ], [ -3.557, 41.0289 ], [ -3.5566, 41.0292 ], [ -3.5564, 41.0292 ], [ -3.556, 41.0297 ], [ -3.5556, 41.0299 ], [ -3.5541, 41.0312 ], [ -3.5538, 41.0313 ], [ -3.5532, 41.032 ], [ -3.5529, 41.032 ], [ -3.5517, 41.0334 ], [ -3.5511, 41.0336 ], [ -3.5509, 41.0339 ], [ -3.5508, 41.0339 ], [ -3.5508, 41.0339 ], [ -3.5507, 41.034 ], [ -3.5506, 41.034 ], [ -3.5504, 41.034 ], [ -3.5496, 41.034 ], [ -3.5486, 41.0336 ], [ -3.5484, 41.0334 ], [ -3.5483, 41.0328 ], [ -3.548, 41.0325 ], [ -3.548, 41.0319 ], [ -3.5475, 41.0325 ], [ -3.5482, 41.0337 ], [ -3.5474, 41.0335 ], [ -3.5466, 41.0335 ], [ -3.5452, 41.0342 ], [ -3.5436, 41.0346 ], [ -3.5434, 41.0346 ], [ -3.5434, 41.0345 ], [ -3.5444, 41.0341 ], [ -3.5446, 41.0339 ], [ -3.5446, 41.0336 ], [ -3.5428, 41.034 ], [ -3.5403, 41.0341 ], [ -3.5373, 41.0346 ], [ -3.5362, 41.0343 ], [ -3.5364, 41.0346 ], [ -3.5369, 41.0347 ], [ -3.5374, 41.0351 ] ] ] } },
{ "type": "Feature", "properties": { "municipio": "Prádena del Rincón", "clasificacion": "no-urbanizable-protegido", "calificacion": "sin-asignar", "version": "vigente", "fuente": "SIT-CAM WFS — UsoDelSuelo:VPLA_V_CLASIFICACION (https://idem.comunidad.madrid/geosrvg/ows)", "fecha_dato": "2026-05-12", "ambito": "23265", "_raw_CD_SIGLAS": "SNUP", "_raw_DS_CLASIF_GEN": "Suelo No Urbanizable Protegido", "_raw_DS_CLASIF_DET": "Suelo No Urbanizable Interés Ganadero y Paisajístico", "_raw_DS_DOCU": "NORMAS SUBSIDIARIAS", "_raw_DS_LEY": "CM Ley 4/1984, E RDL 1/1992", "_raw_FC_AC": "1994-01-13", "_raw_NM_AREA_M2": 1515.7608994243101, "_cam_code": "117" }, "geometry": { "type": "Polygon", "coordinates": [ [ [ -3.5126, 41.0462 ], [ -3.5118, 41.0466 ], [ -3.5118, 41.0467 ], [ -3.5119, 41.0468 ], [ -3.5122, 41.0467 ], [ -3.5126, 41.0462 ] ] ] } },
{ "type": "Feature", "properties": { "municipio": "Prádena del Rincón", "clasificacion": "no-urbanizable-protegido", "calificacion": "sin-asignar", "version": "vigente", "fuente": "SIT-CAM WFS — UsoDelSuelo:VPLA_V_CLASIFICACION (https://idem.comunidad.madrid/geosrvg/ows)", "fecha_dato": "2026-05-12", "ambito": "23265", "_raw_CD_SIGLAS": "SNUP", "_raw_DS_CLASIF_GEN": "Suelo No Urbanizable Protegido", "_raw_DS_CLASIF_DET": "Suelo No Urbanizable Interés Forestal, Paisajístico, Ecológico y Vía Pecuaria", "_raw_DS_DOCU": "NORMAS SUBSIDIARIAS", "_raw_DS_LEY": "CM Ley 4/1984, E RDL 1/1992", "_raw_FC_AC": "1994-01-13", "_raw_NM_AREA_M2": 4246.6647254608697, "_cam_code": "117" }, "geometry": { "type": "Polygon", "coordinates": [ [ [ -3.5084, 41.02 ], [ -3.5091, 41.0208 ], [ -3.5096, 41.021 ], [ -3.5099, 41.0207 ], [ -3.5084, 41.02 ] ] ] } },
{ "type": "Feature", "properties": { "municipio": "Prádena del Rincón", "clasificacion": "no-urbanizable-protegido", "calificacion": "sin-asignar", "version": "vigente", "fuente": "SIT-CAM WFS — UsoDelSuelo:VPLA_V_CLASIFICACION (https://idem.comunidad.madrid/geosrvg/ows)", "fecha_dato": "2026-05-12", "ambito": "23265", "_raw_CD_SIGLAS": "SNUP", "_raw_DS_CLASIF_GEN": "Suelo No Urbanizable Protegido", "_raw_DS_CLASIF_DET": "Suelo No Urbanizable Interés Forestal, Paisajístico y Ecológico", "_raw_DS_DOCU": "NORMAS SUBSIDIARIAS", "_raw_DS_LEY": "CM Ley 4/1984, E RDL 1/1992", "_raw_FC_AC": "1994-01-13", "_raw_NM_AREA_M2": 6541617.9755083797, "_cam_code": "117" }, "geometry": { "type": "Polygon", "coordinates": [ [ [ -3.4672, 41.0566 ], [ -3.4673, 41.0559 ], [ -3.4674, 41.0559 ], [ -3.4676, 41.0564 ], [ -3.4682, 41.0569 ], [ -3.4684, 41.0569 ], [ -3.4684, 41.057 ], [ -3.4688, 41.0571 ], [ -3.4709, 41.0571 ], [ -3.471, 41.0572 ], [ -3.4714, 41.0571 ], [ -3.4717, 41.0572 ], [ -3.4717, 41.0573 ], [ -3.4721, 41.0573 ], [ -3.4721, 41.0574 ], [ -3.473, 41.0576 ], [ -3.4731, 41.0578 ], [ -3.4734, 41.0579 ], [ -3.4738, 41.0577 ], [ -3.4752, 41.0576 ], [ -3.476, 41.0573 ], [ -3.4773, 41.0574 ], [ -3.4783, 41.0573 ], [ -3.4788, 41.0575 ], [ -3.4796, 41.0575 ], [ -3.48, 41.0577 ], [ -3.4804, 41.0582 ], [ -3.4816, 41.0586 ], [ -3.4842, 41.0588 ], [ -3.485, 41.0586 ], [ -3.4856, 41.0579 ], [ -3.4856, 41.0575 ], [ -3.4853, 41.0571 ], [ -3.4844, 41.0564 ], [ -3.4843, 41.0562 ], [ -3.4844, 41.0552 ], [ -3.4846, 41.055 ], [ -3.4856, 41.0549 ], [ -3.4858, 41.0545 ], [ -3.4859, 41.0546 ], [ -3.4861, 41.0545 ], [ -3.486, 41.0545 ], [ -3.4859, 41.0542 ], [ -3.4859, 41.053 ], [ -3.4863, 41.0525 ], [ -3.4863, 41.0522 ], [ -3.4865, 41.0518 ], [ -3.4865, 41.0513 ], [ -3.4861, 41.0508 ], [ -3.4867, 41.0502 ], [ -3.4873, 41.0501 ], [ -3.4878, 41.0497 ], [ -3.4889, 41.0481 ], [ -3.4902, 41.048 ], [ -3.4906, 41.0476 ], [ -3.4901, 41.047 ], [ -3.4905, 41.0456 ], [ -3.4905, 41.0453 ], [ -3.4903, 41.0451 ], [ -3.4903, 41.0449 ], [ -3.4912, 41.0446 ], [ -3.4914, 41.0441 ], [ -3.4915, 41.0441 ], [ -3.4915, 41.0439 ], [ -3.4913, 41.0437 ], [ -3.4913, 41.0431 ], [ -3.491, 41.042 ], [ -3.4914, 41.0409 ], [ -3.4924, 41.0401 ], [ -3.4928, 41.0401 ], [ -3.4934, 41.0398 ], [ -3.4934, 41.0397 ], [ -3.4938, 41.0396 ], [ -3.4948, 41.0388 ], [ -3.4957, 41.0384 ], [ -3.4967, 41.0371 ], [ -3.497, 41.0359 ], [ -3.4975, 41.0357 ], [ -3.498, 41.0352 ], [ -3.4987, 41.0332 ], [ -3.4987, 41.0324 ], [ -3.4989, 41.0322 ], [ -3.4997, 41.0321 ], [ -3.5005, 41.0316 ], [ -3.5011, 41.0307 ], [ -3.5017, 41.0307 ], [ -3.5022, 41.0305 ], [ -3.5028, 41.0296 ], [ -3.503, 41.0288 ], [ -3.5045, 41.0273 ], [ -3.5053, 41.027 ], [ -3.5059, 41.0266 ], [ -3.5064, 41.0257 ], [ -3.5076, 41.0244 ], [ -3.509, 41.0239 ], [ -3.5097, 41.0234 ], [ -3.5097, 41.0225 ], [ -3.5092, 41.0214 ], [ -3.5096, 41.021 ], [ -3.5091, 41.0208 ], [ -3.5084, 41.02 ], [ -3.5024, 41.0173 ], [ -3.5022, 41.0171 ], [ -3.4919, 41.0126 ], [ -3.4914, 41.0256 ], [ -3.4897, 41.0258 ], [ -3.4867, 41.0264 ], [ -3.4858, 41.0302 ], [ -3.4825, 41.0334 ], [ -3.4796, 41.0428 ], [ -3.4742, 41.0455 ], [ -3.4672, 41.0481 ], [ -3.4653, 41.0557 ], [ -3.4664, 41.0561 ], [ -3.4672, 41.0566 ] ] ] } },
{ "type": "Feature", "properties": { "municipio": "Prádena del Rincón", "clasificacion": "no-urbanizable-protegido", "calificacion": "sin-asignar", "version": "vigente", "fuente": "SIT-CAM WFS — UsoDelSuelo:VPLA_V_CLASIFICACION (https://idem.comunidad.madrid/geosrvg/ows)", "fecha_dato": "2026-05-12", "ambito": "23265", "_raw_CD_SIGLAS": "SNUP", "_raw_DS_CLASIF_GEN": "Suelo No Urbanizable Protegido", "_raw_DS_CLASIF_DET": "Suelo No Urbanizable Afección Vías Pecuarias y Caminos Tradicionales", "_raw_DS_DOCU": "NORMAS SUBSIDIARIAS", "_raw_DS_LEY": "CM Ley 4/1984, E RDL 1/1992", "_raw_FC_AC": "1994-01-13", "_raw_NM_AREA_M2": 82982.618162711296, "_cam_code": "117" }, "geometry": { "type": "Polygon", "coordinates": [ [ [ -3.4852, 41.0605 ], [ -3.4838, 41.0609 ], [ -3.4813, 41.0631 ], [ -3.4807, 41.0634 ], [ -3.477, 41.0642 ], [ -3.4783, 41.0646 ], [ -3.4813, 41.064 ], [ -3.4827, 41.0631 ], [ -3.4836, 41.0622 ], [ -3.4848, 41.0614 ], [ -3.488, 41.0611 ], [ -3.4886, 41.0604 ], [ -3.4852, 41.0605 ] ] ] } },
{ "type": "Feature", "properties": { "municipio": "Prádena del Rincón", "clasificacion": "no-urbanizable-protegido", "calificacion": "sin-asignar", "version": "vigente", "fuente": "SIT-CAM WFS — UsoDelSuelo:VPLA_V_CLASIFICACION (https://idem.comunidad.madrid/geosrvg/ows)", "fecha_dato": "2026-05-12", "ambito": "23265", "_raw_CD_SIGLAS": "SNUP", "_raw_DS_CLASIF_GEN": "Suelo No Urbanizable Protegido", "_raw_DS_CLASIF_DET": "Suelo No Urbanizable Afección Vías Pecuarias y Caminos Tradicionales", "_raw_DS_DOCU": "NORMAS SUBSIDIARIAS", "_raw_DS_LEY": "CM Ley 4/1984, E RDL 1/1992", "_raw_FC_AC": "1994-01-13", "_raw_NM_AREA_M2": 47626.4124904825, "_cam_code": "117" }, "geometry": { "type": "Polygon", "coordinates": [ [ [ -3.5299, 41.0513 ], [ -3.5304, 41.0516 ], [ -3.5317, 41.0519 ], [ -3.5315, 41.0513 ], [ -3.5312, 41.0513 ], [ -3.5306, 41.0502 ], [ -3.53, 41.0496 ], [ -3.5303, 41.0466 ], [ -3.5294, 41.0451 ], [ -3.5292, 41.045 ], [ -3.5288, 41.0451 ], [ -3.5296, 41.0461 ], [ -3.5298, 41.0466 ], [ -3.5298, 41.047 ], [ -3.5296, 41.0475 ], [ -3.5294, 41.0476 ], [ -3.5294, 41.0483 ], [ -3.529, 41.0488 ], [ -3.5294, 41.0492 ], [ -3.5299, 41.0513 ] ] ] } },
{ "type": "Feature", "properties": { "municipio": "Prádena del Rincón", "clasificacion": "no-urbanizable-protegido", "calificacion": "sin-asignar", "version": "vigente", "fuente": "SIT-CAM WFS — UsoDelSuelo:VPLA_V_CLASIFICACION (https://idem.comunidad.madrid/geosrvg/ows)", "fecha_dato": "2026-05-12", "ambito": "23265", "_raw_CD_SIGLAS": "SNUP", "_raw_DS_CLASIF_GEN": "Suelo No Urbanizable Protegido", "_raw_DS_CLASIF_DET": "Suelo No Urbanizable Afección Vías Pecuarias y Caminos Tradicionales", "_raw_DS_DOCU": "NORMAS SUBSIDIARIAS", "_raw_DS_LEY": "CM Ley 4/1984, E RDL 1/1992", "_raw_FC_AC": "1994-01-13", "_raw_NM_AREA_M2": 1277.1772285131501, "_cam_code": "117" }, "geometry": { "type": "Polygon", "coordinates": [ [ [ -3.5112, 41.0502 ], [ -3.5111, 41.0509 ], [ -3.5108, 41.0512 ], [ -3.5111, 41.0512 ], [ -3.5112, 41.051 ], [ -3.5113, 41.0504 ], [ -3.5112, 41.0504 ], [ -3.5112, 41.0502 ] ] ] } },
{ "type": "Feature", "properties": { "municipio": "Prádena del Rincón", "clasificacion": "no-urbanizable-protegido", "calificacion": "sin-asignar", "version": "vigente", "fuente": "SIT-CAM WFS — UsoDelSuelo:VPLA_V_CLASIFICACION (https://idem.comunidad.madrid/geosrvg/ows)", "fecha_dato": "2026-05-12", "ambito": "23265", "_raw_CD_SIGLAS": "SNUP", "_raw_DS_CLASIF_GEN": "Suelo No Urbanizable Protegido", "_raw_DS_CLASIF_DET": "Suelo No Urbanizable Afección Vías Pecuarias y Caminos Tradicionales", "_raw_DS_DOCU": "NORMAS SUBSIDIARIAS", "_raw_DS_LEY": "CM Ley 4/1984, E RDL 1/1992", "_raw_FC_AC": "1994-01-13", "_raw_NM_AREA_M2": 4828.5890174592696, "_cam_code": "117" }, "geometry": { "type": "Polygon", "coordinates": [ [ [ -3.512, 41.0468 ], [ -3.5118, 41.047 ], [ -3.5114, 41.0476 ], [ -3.5114, 41.0478 ], [ -3.5117, 41.0478 ], [ -3.5118, 41.048 ], [ -3.5118, 41.0478 ], [ -3.5125, 41.047 ], [ -3.512, 41.0468 ] ] ] } },
{ "type": "Feature", "properties": { "municipio": "Prádena del Rincón", "clasificacion": "no-urbanizable-protegido", "calificacion": "sin-asignar", "version": "vigente", "fuente": "SIT-CAM WFS — UsoDelSuelo:VPLA_V_CLASIFICACION (https://idem.comunidad.madrid/geosrvg/ows)", "fecha_dato": "2026-05-12", "ambito": "23265", "_raw_CD_SIGLAS": "SNUP", "_raw_DS_CLASIF_GEN": "Suelo No Urbanizable Protegido", "_raw_DS_CLASIF_DET": "Suelo No Urbanizable Afección Vías Pecuarias y Caminos Tradicionales", "_raw_DS_DOCU": "NORMAS SUBSIDIARIAS", "_raw_DS_LEY": "CM Ley 4/1984, E RDL 1/1992", "_raw_FC_AC": "1994-01-13", "_raw_NM_AREA_M2": 245618.90824091699, "_cam_code": "117" }, "geometry": { "type": "Polygon", "coordinates": [ [ [ -3.5153, 41.042 ], [ -3.5132, 41.0434 ], [ -3.5132, 41.0438 ], [ -3.5136, 41.0445 ], [ -3.5129, 41.0459 ], [ -3.5126, 41.0462 ], [ -3.5135, 41.0458 ], [ -3.5139, 41.0449 ], [ -3.5141, 41.0442 ], [ -3.5136, 41.0437 ], [ -3.5136, 41.0434 ], [ -3.5154, 41.0425 ], [ -3.5157, 41.0422 ], [ -3.5177, 41.0424 ], [ -3.5197, 41.0429 ], [ -3.5202, 41.0429 ], [ -3.5208, 41.0426 ], [ -3.5208, 41.04 ], [ -3.5206, 41.0389 ], [ -3.5201, 41.0378 ], [ -3.5204, 41.0369 ], [ -3.5204, 41.0366 ], [ -3.5203, 41.0366 ], [ -3.5205, 41.0362 ], [ -3.5207, 41.0361 ], [ -3.5214, 41.0352 ], [ -3.5212, 41.0352 ], [ -3.5211, 41.035 ], [ -3.5211, 41.0345 ], [ -3.5217, 41.0335 ], [ -3.5222, 41.0331 ], [ -3.5231, 41.0328 ], [ -3.5241, 41.032 ], [ -3.5251, 41.0316 ], [ -3.526, 41.032 ], [ -3.5273, 41.032 ], [ -3.5284, 41.0324 ], [ -3.5295, 41.0326 ], [ -3.5315, 41.0325 ], [ -3.5328, 41.0328 ], [ -3.5334, 41.0328 ], [ -3.5343, 41.0331 ], [ -3.5349, 41.0331 ], [ -3.535, 41.0333 ], [ -3.5352, 41.0333 ], [ -3.5353, 41.0331 ], [ -3.5342, 41.0321 ], [ -3.5332, 41.0314 ], [ -3.532, 41.0309 ], [ -3.5303, 41.0297 ], [ -3.5299, 41.029 ], [ -3.5299, 41.0282 ], [ -3.5305, 41.0277 ], [ -3.5305, 41.0273 ], [ -3.5302, 41.0271 ], [ -3.5296, 41.027 ], [ -3.5283, 41.0265 ], [ -3.5254, 41.025 ], [ -3.5213, 41.0238 ], [ -3.5193, 41.0234 ], [ -3.5162, 41.0233 ], [ -3.5149, 41.0229 ], [ -3.5136, 41.0223 ], [ -3.5133, 41.022 ], [ -3.5124, 41.0219 ], [ -3.5099, 41.0207 ], [ -3.5096, 41.021 ], [ -3.5106, 41.0215 ], [ -3.5127, 41.0222 ], [ -3.5134, 41.0228 ], [ -3.5148, 41.0234 ], [ -3.5161, 41.0238 ], [ -3.5176, 41.0239 ], [ -3.5189, 41.0238 ], [ -3.5208, 41.024 ], [ -3.5217, 41.0244 ], [ -3.5248, 41.0252 ], [ -3.5255, 41.0255 ], [ -3.5255, 41.0254 ], [ -3.527, 41.0261 ], [ -3.528, 41.0268 ], [ -3.5298, 41.0274 ], [ -3.5299, 41.0276 ], [ -3.5294, 41.0284 ], [ -3.5295, 41.0291 ], [ -3.5298, 41.0297 ], [ -3.5309, 41.0307 ], [ -3.5326, 41.0319 ], [ -3.5325, 41.0322 ], [ -3.5297, 41.0322 ], [ -3.5251, 41.0314 ], [ -3.524, 41.0315 ], [ -3.5228, 41.0326 ], [ -3.522, 41.0327 ], [ -3.5215, 41.0332 ], [ -3.5208, 41.0345 ], [ -3.5207, 41.0355 ], [ -3.5201, 41.0361 ], [ -3.5199, 41.0365 ], [ -3.5197, 41.0378 ], [ -3.5204, 41.0398 ], [ -3.5204, 41.0423 ], [ -3.5203, 41.0425 ], [ -3.5199, 41.0426 ], [ -3.5186, 41.0422 ], [ -3.5171, 41.0421 ], [ -3.5163, 41.0419 ], [ -3.5153, 41.042 ] ] ] } },
{ "type": "Feature", "properties": { "municipio": "Prádena del Rincón", "clasificacion": "no-urbanizable-protegido", "calificacion": "sin-asignar", "version": "vigente", "fuente": "SIT-CAM WFS — UsoDelSuelo:VPLA_V_CLASIFICACION (https://idem.comunidad.madrid/geosrvg/ows)", "fecha_dato": "2026-05-12", "ambito": "23265", "_raw_CD_SIGLAS": "SNUP", "_raw_DS_CLASIF_GEN": "Suelo No Urbanizable Protegido", "_raw_DS_CLASIF_DET": "Suelo No Urbanizable Afección Vías Pecuarias y Caminos Tradicionales", "_raw_DS_DOCU": "NORMAS SUBSIDIARIAS", "_raw_DS_LEY": "CM Ley 4/1984, E RDL 1/1992", "_raw_FC_AC": "1994-01-13", "_raw_NM_AREA_M2": 11493.312687690101, "_cam_code": "117" }, "geometry": { "type": "Polygon", "coordinates": [ [ [ -3.555, 41.0345 ], [ -3.5543, 41.0352 ], [ -3.5544, 41.0353 ], [ -3.554, 41.0361 ], [ -3.5532, 41.0364 ], [ -3.5528, 41.0373 ], [ -3.5529, 41.0373 ], [ -3.5533, 41.0366 ], [ -3.5537, 41.0364 ], [ -3.554, 41.0364 ], [ -3.5545, 41.036 ], [ -3.5547, 41.0355 ], [ -3.5553, 41.0348 ], [ -3.5555, 41.0343 ], [ -3.555, 41.0345 ] ] ] } },
{ "type": "Feature", "properties": { "municipio": "Prádena del Rincón", "clasificacion": "no-urbanizable-protegido", "calificacion": "sin-asignar", "version": "vigente", "fuente": "SIT-CAM WFS — UsoDelSuelo:VPLA_V_CLASIFICACION (https://idem.comunidad.madrid/geosrvg/ows)", "fecha_dato": "2026-05-12", "ambito": "23265", "_raw_CD_SIGLAS": "SNUP", "_raw_DS_CLASIF_GEN": "Suelo No Urbanizable Protegido", "_raw_DS_CLASIF_DET": "Suelo No Urbanizable Interés Paisajístico", "_raw_DS_DOCU": "NORMAS SUBSIDIARIAS", "_raw_DS_LEY": "CM Ley 4/1984, E RDL 1/1992", "_raw_FC_AC": "1994-01-13", "_raw_NM_AREA_M2": 15584.188944764899, "_cam_code": "117" }, "geometry": { "type": "Polygon", "coordinates": [ [ [ -3.5563, 41.0288 ], [ -3.5556, 41.0297 ], [ -3.5543, 41.0308 ], [ -3.5539, 41.031 ], [ -3.5533, 41.0316 ], [ -3.5525, 41.0318 ], [ -3.5521, 41.0324 ], [ -3.5519, 41.0331 ], [ -3.5524, 41.0327 ], [ -3.5529, 41.032 ], [ -3.5532, 41.032 ], [ -3.5538, 41.0313 ], [ -3.5541, 41.0312 ], [ -3.5556, 41.0299 ], [ -3.556, 41.0297 ], [ -3.5564, 41.0292 ], [ -3.5566, 41.0292 ], [ -3.557, 41.0289 ], [ -3.5563, 41.0288 ] ] ] } },
{ "type": "Feature", "properties": { "municipio": "Prádena del Rincón", "clasificacion": "no-urbanizable-protegido", "calificacion": "sin-asignar", "version": "vigente", "fuente": "SIT-CAM WFS — UsoDelSuelo:VPLA_V_CLASIFICACION (https://idem.comunidad.madrid/geosrvg/ows)", "fecha_dato": "2026-05-12", "ambito": "23265", "_raw_CD_SIGLAS": "SNUP", "_raw_DS_CLASIF_GEN": "Suelo No Urbanizable Protegido", "_raw_DS_CLASIF_DET": "Suelo No Urbanizable Interés Ganadero, Paisajístico y Vía Pecuaria", "_raw_DS_DOCU": "NORMAS SUBSIDIARIAS", "_raw_DS_LEY": "CM Ley 4/1984, E RDL 1/1992", "_raw_FC_AC": "1994-01-13", "_raw_NM_AREA_M2": 5043.8398903725401, "_cam_code": "117" }, "geometry": { "type": "Polygon", "coordinates": [ [ [ -3.5135, 41.0458 ], [ -3.5126, 41.0462 ], [ -3.512, 41.0468 ], [ -3.5125, 41.047 ], [ -3.5135, 41.0458 ] ] ] } },
{ "type": "Feature", "properties": { "municipio": "Prádena del Rincón", "clasificacion": "no-urbanizable-protegido", "calificacion": "sin-asignar", "version": "vigente", "fuente": "SIT-CAM WFS — UsoDelSuelo:VPLA_V_CLASIFICACION (https://idem.comunidad.madrid/geosrvg/ows)", "fecha_dato": "2026-05-12", "ambito": "23265", "_raw_CD_SIGLAS": "SNUP", "_raw_DS_CLASIF_GEN": "Suelo No Urbanizable Protegido", "_raw_DS_CLASIF_DET": "Suelo No Urbanizable Interés Ganadero, Paisajístico y Vía Pecuaria", "_raw_DS_DOCU": "NORMAS SUBSIDIARIAS", "_raw_DS_LEY": "CM Ley 4/1984, E RDL 1/1992", "_raw_FC_AC": "1994-01-13", "_raw_NM_AREA_M2": 15261.004393761201, "_cam_code": "117" }, "geometry": { "type": "Polygon", "coordinates": [ [ [ -3.534, 41.0335 ], [ -3.5348, 41.0337 ], [ -3.5357, 41.0344 ], [ -3.5374, 41.0351 ], [ -3.5369, 41.0347 ], [ -3.5364, 41.0346 ], [ -3.5361, 41.0342 ], [ -3.5354, 41.0338 ], [ -3.5353, 41.0332 ], [ -3.535, 41.0333 ], [ -3.5349, 41.0331 ], [ -3.5343, 41.0331 ], [ -3.5334, 41.0328 ], [ -3.5332, 41.0328 ], [ -3.5331, 41.0328 ], [ -3.533, 41.0328 ], [ -3.5329, 41.0328 ], [ -3.5328, 41.0328 ], [ -3.5332, 41.0329 ], [ -3.534, 41.0335 ] ] ] } },
{ "type": "Feature", "properties": { "municipio": "Prádena del Rincón", "clasificacion": "no-urbanizable-protegido", "calificacion": "sin-asignar", "version": "vigente", "fuente": "SIT-CAM WFS — UsoDelSuelo:VPLA_V_CLASIFICACION (https://idem.comunidad.madrid/geosrvg/ows)", "fecha_dato": "2026-05-12", "ambito": "23265", "_raw_CD_SIGLAS": "SNUP", "_raw_DS_CLASIF_GEN": "Suelo No Urbanizable Protegido", "_raw_DS_CLASIF_DET": "Suelo No Urbanizable Interés Ganadero, Forestal, Paisajístico y Vía Pecuaria", "_raw_DS_DOCU": "NORMAS SUBSIDIARIAS", "_raw_DS_LEY": "CM Ley 4/1984, E RDL 1/1992", "_raw_FC_AC": "1994-01-13", "_raw_NM_AREA_M2": 14148.010247927399, "_cam_code": "117" }, "geometry": { "type": "Polygon", "coordinates": [ [ [ -3.5114, 41.0478 ], [ -3.5113, 41.0478 ], [ -3.511, 41.0486 ], [ -3.511, 41.0497 ], [ -3.5106, 41.0508 ], [ -3.5106, 41.051 ], [ -3.5107, 41.051 ], [ -3.5103, 41.0514 ], [ -3.511, 41.0511 ], [ -3.5111, 41.0509 ], [ -3.5111, 41.0504 ], [ -3.5118, 41.048 ], [ -3.5117, 41.0478 ], [ -3.5114, 41.0478 ] ] ] } },
{ "type": "Feature", "properties": { "municipio": "Prádena del Rincón", "clasificacion": "no-urbanizable-protegido", "calificacion": "sin-asignar", "version": "vigente", "fuente": "SIT-CAM WFS — UsoDelSuelo:VPLA_V_CLASIFICACION (https://idem.comunidad.madrid/geosrvg/ows)", "fecha_dato": "2026-05-12", "ambito": "23265", "_raw_CD_SIGLAS": "SNUP", "_raw_DS_CLASIF_GEN": "Suelo No Urbanizable Protegido", "_raw_DS_CLASIF_DET": "Suelo No Urbanizable Interés Ganadero, Forestal y Paisajístico", "_raw_DS_DOCU": "NORMAS SUBSIDIARIAS", "_raw_DS_LEY": "CM Ley 4/1984, E RDL 1/1992", "_raw_FC_AC": "1994-01-13", "_raw_NM_AREA_M2": 2561525.4969243398, "_cam_code": "117" }, "geometry": { "type": "Polygon", "coordinates": [ [ [ -3.4999, 41.0557 ], [ -3.5014, 41.0565 ], [ -3.502, 41.0565 ], [ -3.5026, 41.0567 ], [ -3.5038, 41.0567 ], [ -3.5043, 41.0565 ], [ -3.5045, 41.0563 ], [ -3.5043, 41.0555 ], [ -3.5049, 41.0546 ], [ -3.5046, 41.0534 ], [ -3.5046, 41.0529 ], [ -3.5047, 41.0528 ], [ -3.5055, 41.0528 ], [ -3.5058, 41.053 ], [ -3.5062, 41.053 ], [ -3.5074, 41.0535 ], [ -3.5074, 41.0537 ], [ -3.5076, 41.0538 ], [ -3.5083, 41.0535 ], [ -3.5085, 41.0533 ], [ -3.5085, 41.0531 ], [ -3.5107, 41.051 ], [ -3.5106, 41.051 ], [ -3.5106, 41.0508 ], [ -3.511, 41.0497 ], [ -3.511, 41.0486 ], [ -3.5113, 41.0478 ], [ -3.5114, 41.0478 ], [ -3.5104, 41.0471 ], [ -3.5078, 41.0466 ], [ -3.5062, 41.0461 ], [ -3.5052, 41.0451 ], [ -3.5047, 41.0449 ], [ -3.5034, 41.0447 ], [ -3.5024, 41.0437 ], [ -3.5022, 41.0432 ], [ -3.5023, 41.0428 ], [ -3.5027, 41.0422 ], [ -3.5027, 41.0418 ], [ -3.5021, 41.0415 ], [ -3.5005, 41.041 ], [ -3.4994, 41.0408 ], [ -3.4973, 41.0409 ], [ -3.4948, 41.0404 ], [ -3.4934, 41.0398 ], [ -3.4928, 41.0401 ], [ -3.4924, 41.0401 ], [ -3.4914, 41.0409 ], [ -3.4913, 41.0413 ], [ -3.4911, 41.0415 ], [ -3.491, 41.042 ], [ -3.4913, 41.0431 ], [ -3.4913, 41.0437 ], [ -3.4915, 41.0439 ], [ -3.4915, 41.0441 ], [ -3.4914, 41.0441 ], [ -3.4912, 41.0446 ], [ -3.4903, 41.0449 ], [ -3.4903, 41.0451 ], [ -3.4905, 41.0453 ], [ -3.4905, 41.0456 ], [ -3.4901, 41.047 ], [ -3.4906, 41.0476 ], [ -3.4902, 41.048 ], [ -3.4889, 41.0481 ], [ -3.4878, 41.0497 ], [ -3.4873, 41.0501 ], [ -3.4867, 41.0502 ], [ -3.4861, 41.0508 ], [ -3.4865, 41.0513 ], [ -3.4865, 41.0518 ], [ -3.4863, 41.0522 ], [ -3.4863, 41.0525 ], [ -3.4859, 41.053 ], [ -3.486, 41.0545 ], [ -3.4867, 41.0548 ], [ -3.4873, 41.0548 ], [ -3.4873, 41.0549 ], [ -3.4882, 41.0551 ], [ -3.4903, 41.055 ], [ -3.491, 41.0553 ], [ -3.4914, 41.0553 ], [ -3.4931, 41.0565 ], [ -3.4939, 41.0564 ], [ -3.4955, 41.0565 ], [ -3.496, 41.0563 ], [ -3.4979, 41.0564 ], [ -3.4999, 41.0557 ] ] ] } },
{ "type": "Feature", "properties": { "municipio": "Prádena del Rincón", "clasificacion": "no-urbanizable-protegido", "calificacion": "sin-asignar", "version": "vigente", "fuente": "SIT-CAM WFS — UsoDelSuelo:VPLA_V_CLASIFICACION (https://idem.comunidad.madrid/geosrvg/ows)", "fecha_dato": "2026-05-12", "ambito": "23265", "_raw_CD_SIGLAS": "SNUP", "_raw_DS_CLASIF_GEN": "Suelo No Urbanizable Protegido", "_raw_DS_CLASIF_DET": "Suelo No Urbanizable Interés Ganadero, Forestal y Paisajístico", "_raw_DS_DOCU": "NORMAS SUBSIDIARIAS", "_raw_DS_LEY": "CM Ley 4/1984, E RDL 1/1992", "_raw_FC_AC": "1994-01-13", "_raw_NM_AREA_M2": 2520.9624654944, "_cam_code": "117" }, "geometry": { "type": "Polygon", "coordinates": [ [ [ -3.5115, 41.0489 ], [ -3.5112, 41.0502 ], [ -3.5116, 41.0497 ], [ -3.5118, 41.0491 ], [ -3.5115, 41.0489 ] ] ] } },
{ "type": "Feature", "properties": { "municipio": "Prádena del Rincón", "clasificacion": "no-urbanizable-protegido", "calificacion": "sin-asignar", "version": "vigente", "fuente": "SIT-CAM WFS — UsoDelSuelo:VPLA_V_CLASIFICACION (https://idem.comunidad.madrid/geosrvg/ows)", "fecha_dato": "2026-05-12", "ambito": "23265", "_raw_CD_SIGLAS": "SNUP", "_raw_DS_CLASIF_GEN": "Suelo No Urbanizable Protegido", "_raw_DS_CLASIF_DET": "Suelo No Urbanizable Interés Ganadero, Forestal y Paisajístico", "_raw_DS_DOCU": "NORMAS SUBSIDIARIAS", "_raw_DS_LEY": "CM Ley 4/1984, E RDL 1/1992", "_raw_FC_AC": "1994-01-13", "_raw_NM_AREA_M2": 905564.09454097797, "_cam_code": "117" }, "geometry": { "type": "Polygon", "coordinates": [ [ [ -3.5353, 41.0332 ], [ -3.5354, 41.0338 ], [ -3.5362, 41.0343 ], [ -3.5373, 41.0346 ], [ -3.5403, 41.0341 ], [ -3.5428, 41.034 ], [ -3.5446, 41.0336 ], [ -3.5447, 41.0332 ], [ -3.5449, 41.0331 ], [ -3.5455, 41.0332 ], [ -3.5455, 41.0333 ], [ -3.5462, 41.0332 ], [ -3.5466, 41.0327 ], [ -3.5469, 41.0326 ], [ -3.5478, 41.0314 ], [ -3.5477, 41.0309 ], [ -3.5473, 41.0302 ], [ -3.5463, 41.0291 ], [ -3.5427, 41.0272 ], [ -3.5409, 41.0268 ], [ -3.5385, 41.0266 ], [ -3.5362, 41.0273 ], [ -3.5332, 41.0273 ], [ -3.5328, 41.0272 ], [ -3.531, 41.0274 ], [ -3.5304, 41.028 ], [ -3.5299, 41.0288 ], [ -3.5299, 41.029 ], [ -3.5303, 41.0297 ], [ -3.532, 41.0309 ], [ -3.5332, 41.0314 ], [ -3.5342, 41.0321 ], [ -3.5353, 41.0332 ] ] ] } },
{ "type": "Feature", "properties": { "municipio": "Prádena del Rincón", "clasificacion": "no-urbanizable-protegido", "calificacion": "sin-asignar", "version": "vigente", "fuente": "SIT-CAM WFS — UsoDelSuelo:VPLA_V_CLASIFICACION (https://idem.comunidad.madrid/geosrvg/ows)", "fecha_dato": "2026-05-12", "ambito": "23265", "_raw_CD_SIGLAS": "SNUP", "_raw_DS_CLASIF_GEN": "Suelo No Urbanizable Protegido", "_raw_DS_CLASIF_DET": "Suelo No Urbanizable Interés Paisajístico", "_raw_DS_DOCU": "NORMAS SUBSIDIARIAS", "_raw_DS_LEY": "CM Ley 4/1984, E RDL 1/1992", "_raw_FC_AC": "1994-01-13", "_raw_NM_AREA_M2": 990118.429393964, "_cam_code": "117" }, "geometry": { "type": "Polygon", "coordinates": [ [ [ -3.5317, 41.0519 ], [ -3.5345, 41.0521 ], [ -3.5355, 41.052 ], [ -3.5365, 41.0517 ], [ -3.5369, 41.0514 ], [ -3.5376, 41.0514 ], [ -3.5393, 41.0511 ], [ -3.5405, 41.0507 ], [ -3.5422, 41.0504 ], [ -3.5437, 41.0487 ], [ -3.5451, 41.0483 ], [ -3.5449, 41.0474 ], [ -3.545, 41.0473 ], [ -3.5451, 41.0474 ], [ -3.5452, 41.0472 ], [ -3.5461, 41.0471 ], [ -3.547, 41.0468 ], [ -3.5471, 41.0463 ], [ -3.5474, 41.0462 ], [ -3.5474, 41.046 ], [ -3.5467, 41.0455 ], [ -3.5465, 41.0447 ], [ -3.5466, 41.0442 ], [ -3.5473, 41.0435 ], [ -3.5473, 41.0437 ], [ -3.5479, 41.0442 ], [ -3.5492, 41.0441 ], [ -3.5491, 41.0438 ], [ -3.5493, 41.0434 ], [ -3.5478, 41.0429 ], [ -3.5478, 41.0427 ], [ -3.5484, 41.0417 ], [ -3.5484, 41.0415 ], [ -3.5485, 41.0415 ], [ -3.5486, 41.0408 ], [ -3.5491, 41.0402 ], [ -3.5501, 41.0398 ], [ -3.5506, 41.0398 ], [ -3.5514, 41.0392 ], [ -3.5514, 41.0388 ], [ -3.5515, 41.0388 ], [ -3.5516, 41.0385 ], [ -3.551, 41.0382 ], [ -3.5509, 41.0367 ], [ -3.551, 41.0364 ], [ -3.5519, 41.0356 ], [ -3.5522, 41.0348 ], [ -3.5524, 41.0336 ], [ -3.5526, 41.0332 ], [ -3.5531, 41.0326 ], [ -3.5535, 41.0325 ], [ -3.5539, 41.0321 ], [ -3.5559, 41.0313 ], [ -3.5561, 41.0311 ], [ -3.5571, 41.0308 ], [ -3.5574, 41.0304 ], [ -3.5576, 41.0291 ], [ -3.5573, 41.0291 ], [ -3.5562, 41.03 ], [ -3.5557, 41.0301 ], [ -3.554, 41.0316 ], [ -3.5537, 41.0321 ], [ -3.5529, 41.0326 ], [ -3.5527, 41.0329 ], [ -3.5515, 41.0338 ], [ -3.5496, 41.0341 ], [ -3.5485, 41.0341 ], [ -3.547, 41.0338 ], [ -3.5454, 41.0345 ], [ -3.5435, 41.035 ], [ -3.5424, 41.0347 ], [ -3.5415, 41.0352 ], [ -3.5408, 41.0353 ], [ -3.5386, 41.0355 ], [ -3.5382, 41.0354 ], [ -3.5381, 41.0353 ], [ -3.538, 41.0353 ], [ -3.5374, 41.0351 ], [ -3.5382, 41.0355 ], [ -3.5391, 41.0356 ], [ -3.5394, 41.0365 ], [ -3.5398, 41.0367 ], [ -3.54, 41.0365 ], [ -3.5405, 41.0364 ], [ -3.5414, 41.0365 ], [ -3.5418, 41.0367 ], [ -3.543, 41.0361 ], [ -3.5438, 41.0361 ], [ -3.5445, 41.0357 ], [ -3.5446, 41.0358 ], [ -3.5445, 41.0366 ], [ -3.5443, 41.0371 ], [ -3.5445, 41.0374 ], [ -3.5449, 41.0375 ], [ -3.5453, 41.038 ], [ -3.5453, 41.0388 ], [ -3.5456, 41.0395 ], [ -3.5457, 41.0401 ], [ -3.5459, 41.0402 ], [ -3.5458, 41.0405 ], [ -3.5462, 41.041 ], [ -3.546, 41.042 ], [ -3.5458, 41.042 ], [ -3.5459, 41.0423 ], [ -3.5455, 41.0428 ], [ -3.5456, 41.0432 ], [ -3.5453, 41.0433 ], [ -3.5451, 41.0436 ], [ -3.5447, 41.0438 ], [ -3.545, 41.0444 ], [ -3.545, 41.045 ], [ -3.5451, 41.045 ], [ -3.5451, 41.0455 ], [ -3.5452, 41.0456 ], [ -3.5451, 41.0458 ], [ -3.544, 41.0459 ], [ -3.5435, 41.0462 ], [ -3.5433, 41.0465 ], [ -3.5422, 41.0468 ], [ -3.542, 41.047 ], [ -3.5422, 41.0474 ], [ -3.5419, 41.0474 ], [ -3.5416, 41.0476 ], [ -3.541, 41.0476 ], [ -3.5401, 41.048 ], [ -3.5394, 41.0481 ], [ -3.5391, 41.0485 ], [ -3.5396, 41.0493 ], [ -3.5393, 41.0493 ], [ -3.5393, 41.0492 ], [ -3.5389, 41.0491 ], [ -3.5387, 41.0489 ], [ -3.5382, 41.0489 ], [ -3.5381, 41.0488 ], [ -3.5378, 41.0492 ], [ -3.5367, 41.0493 ], [ -3.536, 41.0499 ], [ -3.5345, 41.05 ], [ -3.5341, 41.0502 ], [ -3.5339, 41.0505 ], [ -3.5336, 41.0505 ], [ -3.5331, 41.0508 ], [ -3.5326, 41.0507 ], [ -3.533, 41.0501 ], [ -3.533, 41.0499 ], [ -3.5326, 41.0498 ], [ -3.5325, 41.0496 ], [ -3.5327, 41.0492 ], [ -3.5331, 41.0491 ], [ -3.5331, 41.0489 ], [ -3.533, 41.0487 ], [ -3.5325, 41.0484 ], [ -3.5325, 41.0474 ], [ -3.5324, 41.0473 ], [ -3.532, 41.0474 ], [ -3.5305, 41.0473 ], [ -3.5302, 41.0474 ], [ -3.53, 41.0496 ], [ -3.5306, 41.0502 ], [ -3.5312, 41.0513 ], [ -3.5315, 41.0513 ], [ -3.5317, 41.0519 ] ] ] } },
{ "type": "Feature", "properties": { "municipio": "Prádena del Rincón", "clasificacion": "no-urbanizable-protegido", "calificacion": "sin-asignar", "version": "vigente", "fuente": "SIT-CAM WFS — UsoDelSuelo:VPLA_V_CLASIFICACION (https://idem.comunidad.madrid/geosrvg/ows)", "fecha_dato": "2026-05-12", "ambito": "23265", "_raw_CD_SIGLAS": "SNUP", "_raw_DS_CLASIF_GEN": "Suelo No Urbanizable Protegido", "_raw_DS_CLASIF_DET": "Suelo No Urbanizable Interés Paisajístico", "_raw_DS_DOCU": "NORMAS SUBSIDIARIAS", "_raw_DS_LEY": "CM Ley 4/1984, E RDL 1/1992", "_raw_FC_AC": "1994-01-13", "_raw_NM_AREA_M2": 23758.658098067299, "_cam_code": "117" }, "geometry": { "type": "Polygon", "coordinates": [ [ [ -3.5447, 41.0332 ], [ -3.5446, 41.0339 ], [ -3.5444, 41.0341 ], [ -3.5438, 41.0343 ], [ -3.5434, 41.0346 ], [ -3.5452, 41.0342 ], [ -3.5466, 41.0335 ], [ -3.5474, 41.0335 ], [ -3.5482, 41.0337 ], [ -3.5477, 41.0328 ], [ -3.5472, 41.033 ], [ -3.5472, 41.0331 ], [ -3.5457, 41.0333 ], [ -3.5449, 41.0331 ], [ -3.5447, 41.0332 ] ] ] } },
{ "type": "Feature", "properties": { "municipio": "Prádena del Rincón", "clasificacion": "urbanizable-no-sectorizado", "calificacion": "sin-asignar", "version": "vigente", "fuente": "SIT-CAM WFS — UsoDelSuelo:VPLA_V_CLASIFICACION (https://idem.comunidad.madrid/geosrvg/ows)", "fecha_dato": "2026-05-12", "ambito": "23265", "_raw_CD_SIGLAS": "SUBNS", "_raw_DS_CLASIF_GEN": "Suelo No Urbanizable Común", "_raw_DS_CLASIF_DET": "Suelo No Urbanizable Común", "_raw_DS_DOCU": "NORMAS SUBSIDIARIAS", "_raw_DS_LEY": "CM Ley 4/1984, E RDL 1/1992", "_raw_FC_AC": "1994-01-13", "_raw_NM_AREA_M2": 374662.60493129003, "_cam_code": "117" }, "geometry": { "type": "Polygon", "coordinates": [ [ [ -3.5212, 41.0428 ], [ -3.5212, 41.0429 ], [ -3.5215, 41.0428 ], [ -3.5228, 41.0418 ], [ -3.5228, 41.0408 ], [ -3.523, 41.0406 ], [ -3.5238, 41.0404 ], [ -3.5238, 41.0405 ], [ -3.5245, 41.0407 ], [ -3.5254, 41.0408 ], [ -3.5263, 41.0413 ], [ -3.5266, 41.041 ], [ -3.5264, 41.0406 ], [ -3.5261, 41.0404 ], [ -3.5256, 41.0397 ], [ -3.525, 41.0383 ], [ -3.5248, 41.0382 ], [ -3.5248, 41.0379 ], [ -3.5246, 41.0377 ], [ -3.5246, 41.0375 ], [ -3.5239, 41.0371 ], [ -3.5237, 41.0368 ], [ -3.5238, 41.036 ], [ -3.5243, 41.0352 ], [ -3.5246, 41.035 ], [ -3.525, 41.0344 ], [ -3.5259, 41.0335 ], [ -3.5261, 41.0335 ], [ -3.5264, 41.0331 ], [ -3.5264, 41.0325 ], [ -3.5265, 41.0324 ], [ -3.5276, 41.0323 ], [ -3.5289, 41.0327 ], [ -3.5304, 41.0329 ], [ -3.5313, 41.0327 ], [ -3.5328, 41.0328 ], [ -3.5315, 41.0325 ], [ -3.5295, 41.0326 ], [ -3.5284, 41.0324 ], [ -3.5273, 41.032 ], [ -3.526, 41.032 ], [ -3.525, 41.0316 ], [ -3.5241, 41.032 ], [ -3.5231, 41.0328 ], [ -3.522, 41.0332 ], [ -3.5211, 41.0345 ], [ -3.5211, 41.035 ], [ -3.5212, 41.0352 ], [ -3.5214, 41.0352 ], [ -3.5204, 41.0364 ], [ -3.5203, 41.0366 ], [ -3.5204, 41.0366 ], [ -3.5204, 41.0369 ], [ -3.5201, 41.0378 ], [ -3.5206, 41.0389 ], [ -3.5208, 41.04 ], [ -3.5208, 41.0426 ], [ -3.5206, 41.0427 ], [ -3.521, 41.0429 ], [ -3.5212, 41.0428 ] ] ] } },
{ "type": "Feature", "properties": { "municipio": "Prádena del Rincón", "clasificacion": "urbanizable-no-sectorizado", "calificacion": "sin-asignar", "version": "vigente", "fuente": "SIT-CAM WFS — UsoDelSuelo:VPLA_V_CLASIFICACION (https://idem.comunidad.madrid/geosrvg/ows)", "fecha_dato": "2026-05-12", "ambito": "23265", "_raw_CD_SIGLAS": "SUBNS", "_raw_DS_CLASIF_GEN": "Suelo No Urbanizable Común", "_raw_DS_CLASIF_DET": "Suelo No Urbanizable Común", "_raw_DS_DOCU": "NORMAS SUBSIDIARIAS", "_raw_DS_LEY": "CM Ley 4/1984, E RDL 1/1992", "_raw_FC_AC": "1994-01-13", "_raw_NM_AREA_M2": 939957.88329115498, "_cam_code": "117" }, "geometry": { "type": "Polygon", "coordinates": [ [ [ -3.4722, 41.0599 ], [ -3.4752, 41.0636 ], [ -3.477, 41.0642 ], [ -3.4776, 41.0641 ], [ -3.4807, 41.0634 ], [ -3.4813, 41.0631 ], [ -3.4838, 41.0609 ], [ -3.4852, 41.0605 ], [ -3.4886, 41.0604 ], [ -3.4926, 41.0566 ], [ -3.4931, 41.0565 ], [ -3.4914, 41.0553 ], [ -3.491, 41.0553 ], [ -3.4903, 41.055 ], [ -3.4882, 41.0551 ], [ -3.4858, 41.0545 ], [ -3.4856, 41.0549 ], [ -3.4846, 41.055 ], [ -3.4844, 41.0552 ], [ -3.4843, 41.0562 ], [ -3.4855, 41.0573 ], [ -3.4856, 41.0579 ], [ -3.485, 41.0586 ], [ -3.4842, 41.0588 ], [ -3.4816, 41.0586 ], [ -3.4804, 41.0582 ], [ -3.48, 41.0577 ], [ -3.4796, 41.0575 ], [ -3.4788, 41.0575 ], [ -3.4783, 41.0573 ], [ -3.4773, 41.0574 ], [ -3.476, 41.0573 ], [ -3.4752, 41.0576 ], [ -3.4738, 41.0577 ], [ -3.4734, 41.0579 ], [ -3.4731, 41.0578 ], [ -3.473, 41.0576 ], [ -3.4721, 41.0574 ], [ -3.4721, 41.0573 ], [ -3.4717, 41.0573 ], [ -3.4717, 41.0572 ], [ -3.4714, 41.0571 ], [ -3.471, 41.0572 ], [ -3.4709, 41.0571 ], [ -3.4688, 41.0571 ], [ -3.4684, 41.057 ], [ -3.4684, 41.0569 ], [ -3.4682, 41.0569 ], [ -3.4678, 41.0566 ], [ -3.4674, 41.0559 ], [ -3.4673, 41.0559 ], [ -3.4672, 41.0566 ], [ -3.4722, 41.0599 ] ] ] } },
{ "type": "Feature", "properties": { "municipio": "Prádena del Rincón", "clasificacion": "urbanizable-no-sectorizado", "calificacion": "sin-asignar", "version": "vigente", "fuente": "SIT-CAM WFS — UsoDelSuelo:VPLA_V_CLASIFICACION (https://idem.comunidad.madrid/geosrvg/ows)", "fecha_dato": "2026-05-12", "ambito": "23265", "_raw_CD_SIGLAS": "SUBNS", "_raw_DS_CLASIF_GEN": "Suelo No Urbanizable Común", "_raw_DS_CLASIF_DET": "Suelo No Urbanizable Común", "_raw_DS_DOCU": "NORMAS SUBSIDIARIAS", "_raw_DS_LEY": "CM Ley 4/1984, E RDL 1/1992", "_raw_FC_AC": "1994-01-13", "_raw_NM_AREA_M2": 136696.62849263099, "_cam_code": "117" }, "geometry": { "type": "Polygon", "coordinates": [ [ [ -3.488, 41.0611 ], [ -3.4848, 41.0614 ], [ -3.4836, 41.0622 ], [ -3.4827, 41.0631 ], [ -3.4813, 41.064 ], [ -3.4783, 41.0646 ], [ -3.4787, 41.0647 ], [ -3.481, 41.0659 ], [ -3.4826, 41.0652 ], [ -3.4834, 41.0644 ], [ -3.4852, 41.0638 ], [ -3.488, 41.0611 ] ] ] } },
{ "type": "Feature", "properties": { "municipio": "Prádena del Rincón", "clasificacion": "urbanizable-no-sectorizado", "calificacion": "sin-asignar", "version": "vigente", "fuente": "SIT-CAM WFS — UsoDelSuelo:VPLA_V_CLASIFICACION (https://idem.comunidad.madrid/geosrvg/ows)", "fecha_dato": "2026-05-12", "ambito": "23265", "_raw_CD_SIGLAS": "SUBNS", "_raw_DS_CLASIF_GEN": "Suelo No Urbanizable Común", "_raw_DS_CLASIF_DET": "Suelo No Urbanizable Común", "_raw_DS_DOCU": "NORMAS SUBSIDIARIAS", "_raw_DS_LEY": "CM Ley 4/1984, E RDL 1/1992", "_raw_FC_AC": "1994-01-13", "_raw_NM_AREA_M2": 161891.04968800201, "_cam_code": "117" }, "geometry": { "type": "Polygon", "coordinates": [ [ [ -3.5513, 41.0383 ], [ -3.5516, 41.0386 ], [ -3.5518, 41.0384 ], [ -3.552, 41.0378 ], [ -3.5526, 41.0373 ], [ -3.5528, 41.0373 ], [ -3.5532, 41.0364 ], [ -3.554, 41.0361 ], [ -3.5544, 41.0353 ], [ -3.5543, 41.0352 ], [ -3.5546, 41.0348 ], [ -3.5555, 41.0343 ], [ -3.5572, 41.0307 ], [ -3.5541, 41.032 ], [ -3.5535, 41.0325 ], [ -3.5533, 41.0325 ], [ -3.5533, 41.0326 ], [ -3.5531, 41.0326 ], [ -3.5529, 41.0328 ], [ -3.5524, 41.0336 ], [ -3.5522, 41.0348 ], [ -3.5519, 41.0356 ], [ -3.551, 41.0364 ], [ -3.5509, 41.0367 ], [ -3.551, 41.0382 ], [ -3.5513, 41.0383 ] ] ] } },
{ "type": "Feature", "properties": { "municipio": "Prádena del Rincón", "clasificacion": "urbanizable-no-sectorizado", "calificacion": "sin-asignar", "version": "vigente", "fuente": "SIT-CAM WFS — UsoDelSuelo:VPLA_V_CLASIFICACION (https://idem.comunidad.madrid/geosrvg/ows)", "fecha_dato": "2026-05-12", "ambito": "23265", "_raw_CD_SIGLAS": "SUBNS", "_raw_DS_CLASIF_GEN": "Suelo No Urbanizable Común", "_raw_DS_CLASIF_DET": "Suelo No Urbanizable Común", "_raw_DS_DOCU": "NORMAS SUBSIDIARIAS", "_raw_DS_LEY": "CM Ley 4/1984, E RDL 1/1992", "_raw_FC_AC": "1994-01-13", "_raw_NM_AREA_M2": 622684.16796708398, "_cam_code": "117" }, "geometry": { "type": "Polygon", "coordinates": [ [ [ -3.5388, 41.0266 ], [ -3.5409, 41.0268 ], [ -3.543, 41.0273 ], [ -3.5463, 41.0291 ], [ -3.5473, 41.0302 ], [ -3.5477, 41.0309 ], [ -3.5478, 41.0315 ], [ -3.5475, 41.0317 ], [ -3.5474, 41.032 ], [ -3.5469, 41.0326 ], [ -3.5466, 41.0327 ], [ -3.5462, 41.0332 ], [ -3.5472, 41.0331 ], [ -3.5472, 41.033 ], [ -3.5477, 41.0328 ], [ -3.5475, 41.0325 ], [ -3.548, 41.0319 ], [ -3.548, 41.0301 ], [ -3.5475, 41.0285 ], [ -3.5394, 41.0249 ], [ -3.5351, 41.0244 ], [ -3.5278, 41.0226 ], [ -3.5236, 41.0229 ], [ -3.5201, 41.0229 ], [ -3.5133, 41.022 ], [ -3.5136, 41.0223 ], [ -3.5149, 41.0229 ], [ -3.5162, 41.0233 ], [ -3.5193, 41.0234 ], [ -3.5213, 41.0238 ], [ -3.5254, 41.025 ], [ -3.5283, 41.0265 ], [ -3.5304, 41.0272 ], [ -3.5305, 41.0277 ], [ -3.5299, 41.0282 ], [ -3.5299, 41.0288 ], [ -3.5304, 41.028 ], [ -3.531, 41.0274 ], [ -3.5328, 41.0272 ], [ -3.5332, 41.0273 ], [ -3.5362, 41.0273 ], [ -3.538, 41.0267 ], [ -3.5388, 41.0266 ] ] ] } },
{ "type": "Feature", "properties": { "municipio": "Prádena del Rincón", "clasificacion": "urbanizable-no-sectorizado", "calificacion": "sin-asignar", "version": "vigente", "fuente": "SIT-CAM WFS — UsoDelSuelo:VPLA_V_CLASIFICACION (https://idem.comunidad.madrid/geosrvg/ows)", "fecha_dato": "2026-05-12", "ambito": "23265", "_raw_CD_SIGLAS": "SUBNS", "_raw_DS_CLASIF_GEN": "Suelo No Urbanizable Común", "_raw_DS_CLASIF_DET": "Suelo No Urbanizable Común", "_raw_DS_DOCU": "NORMAS SUBSIDIARIAS", "_raw_DS_LEY": "CM Ley 4/1984, E RDL 1/1992", "_raw_FC_AC": "1994-01-13", "_raw_NM_AREA_M2": 3573.47512953043, "_cam_code": "117" }, "geometry": { "type": "Polygon", "coordinates": [ [ [ -3.5125, 41.047 ], [ -3.5121, 41.0474 ], [ -3.5118, 41.0478 ], [ -3.5124, 41.0477 ], [ -3.5127, 41.0475 ], [ -3.5127, 41.047 ], [ -3.5125, 41.047 ] ] ] } },
{ "type": "Feature", "properties": { "municipio": "Prádena del Rincón", "clasificacion": "urbanizable-no-sectorizado", "calificacion": "sin-asignar", "version": "vigente", "fuente": "SIT-CAM WFS — UsoDelSuelo:VPLA_V_CLASIFICACION (https://idem.comunidad.madrid/geosrvg/ows)", "fecha_dato": "2026-05-12", "ambito": "23265", "_raw_CD_SIGLAS": "SUBNS", "_raw_DS_CLASIF_GEN": "Suelo No Urbanizable Común", "_raw_DS_CLASIF_DET": "Suelo No Urbanizable Común", "_raw_DS_DOCU": "NORMAS SUBSIDIARIAS", "_raw_DS_LEY": "CM Ley 4/1984, E RDL 1/1992", "_raw_FC_AC": "1994-01-13", "_raw_NM_AREA_M2": 1994310.4639812601, "_cam_code": "117" }, "geometry": { "type": "Polygon", "coordinates": [ [ [ -3.5231, 41.0492 ], [ -3.5248, 41.0493 ], [ -3.5267, 41.0499 ], [ -3.5287, 41.0511 ], [ -3.5299, 41.0516 ], [ -3.5308, 41.0517 ], [ -3.5299, 41.0513 ], [ -3.5294, 41.0492 ], [ -3.529, 41.0488 ], [ -3.5294, 41.0483 ], [ -3.5294, 41.0476 ], [ -3.5297, 41.0473 ], [ -3.5298, 41.0466 ], [ -3.5293, 41.0456 ], [ -3.5288, 41.0451 ], [ -3.5293, 41.045 ], [ -3.5296, 41.0454 ], [ -3.5303, 41.0466 ], [ -3.5302, 41.0474 ], [ -3.5305, 41.0473 ], [ -3.5313, 41.0474 ], [ -3.5324, 41.0473 ], [ -3.5325, 41.0474 ], [ -3.5325, 41.0484 ], [ -3.533, 41.0487 ], [ -3.5331, 41.0489 ], [ -3.5331, 41.0491 ], [ -3.5327, 41.0492 ], [ -3.5325, 41.0496 ], [ -3.5326, 41.0498 ], [ -3.533, 41.0499 ], [ -3.533, 41.0501 ], [ -3.5326, 41.0507 ], [ -3.5327, 41.0508 ], [ -3.5331, 41.0508 ], [ -3.5336, 41.0505 ], [ -3.5339, 41.0505 ], [ -3.5341, 41.0502 ], [ -3.5345, 41.05 ], [ -3.536, 41.0499 ], [ -3.5367, 41.0493 ], [ -3.5378, 41.0492 ], [ -3.5381, 41.0488 ], [ -3.5382, 41.0489 ], [ -3.5387, 41.0489 ], [ -3.5389, 41.0491 ], [ -3.5393, 41.0492 ], [ -3.5393, 41.0493 ], [ -3.5396, 41.0493 ], [ -3.5391, 41.0485 ], [ -3.5394, 41.0481 ], [ -3.5401, 41.048 ], [ -3.541, 41.0476 ], [ -3.5416, 41.0476 ], [ -3.5419, 41.0474 ], [ -3.5422, 41.0474 ], [ -3.542, 41.047 ], [ -3.5422, 41.0468 ], [ -3.5433, 41.0465 ], [ -3.5435, 41.0462 ], [ -3.544, 41.0459 ], [ -3.5451, 41.0458 ], [ -3.5452, 41.0455 ], [ -3.5451, 41.0455 ], [ -3.5451, 41.045 ], [ -3.545, 41.045 ], [ -3.545, 41.0444 ], [ -3.5447, 41.0438 ], [ -3.5451, 41.0436 ], [ -3.5453, 41.0433 ], [ -3.5456, 41.0432 ], [ -3.5455, 41.0428 ], [ -3.5459, 41.0423 ], [ -3.5458, 41.042 ], [ -3.546, 41.042 ], [ -3.5462, 41.041 ], [ -3.5458, 41.0405 ], [ -3.5459, 41.0402 ], [ -3.5457, 41.0401 ], [ -3.5456, 41.0395 ], [ -3.5453, 41.0388 ], [ -3.5453, 41.038 ], [ -3.5449, 41.0375 ], [ -3.5445, 41.0374 ], [ -3.5443, 41.0371 ], [ -3.5445, 41.0366 ], [ -3.5446, 41.0358 ], [ -3.5445, 41.0357 ], [ -3.5438, 41.0361 ], [ -3.543, 41.0361 ], [ -3.5418, 41.0367 ], [ -3.5414, 41.0365 ], [ -3.5405, 41.0364 ], [ -3.54, 41.0365 ], [ -3.5398, 41.0367 ], [ -3.5394, 41.0365 ], [ -3.5377, 41.037 ], [ -3.5375, 41.0372 ], [ -3.5371, 41.0373 ], [ -3.5361, 41.0382 ], [ -3.5366, 41.0393 ], [ -3.5359, 41.04 ], [ -3.534, 41.0415 ], [ -3.5332, 41.0417 ], [ -3.5325, 41.0421 ], [ -3.532, 41.0429 ], [ -3.5309, 41.043 ], [ -3.5303, 41.0434 ], [ -3.53, 41.0441 ], [ -3.5296, 41.0441 ], [ -3.5296, 41.044 ], [ -3.5289, 41.0437 ], [ -3.5284, 41.0437 ], [ -3.5283, 41.0438 ], [ -3.5278, 41.0438 ], [ -3.5265, 41.0446 ], [ -3.526, 41.0443 ], [ -3.5246, 41.0444 ], [ -3.5242, 41.0446 ], [ -3.5236, 41.0445 ], [ -3.5202, 41.0463 ], [ -3.5202, 41.0471 ], [ -3.5194, 41.0467 ], [ -3.5165, 41.0468 ], [ -3.5162, 41.0471 ], [ -3.5156, 41.0472 ], [ -3.5153, 41.0476 ], [ -3.5142, 41.0477 ], [ -3.5133, 41.0481 ], [ -3.5126, 41.0482 ], [ -3.512, 41.0485 ], [ -3.5116, 41.0485 ], [ -3.5115, 41.0489 ], [ -3.5118, 41.0491 ], [ -3.5118, 41.0493 ], [ -3.5112, 41.0502 ], [ -3.5112, 41.0504 ], [ -3.5113, 41.0504 ], [ -3.5111, 41.0512 ], [ -3.5138, 41.0508 ], [ -3.5148, 41.0509 ], [ -3.5183, 41.0508 ], [ -3.5209, 41.05 ], [ -3.5217, 41.0496 ], [ -3.522, 41.0496 ], [ -3.5231, 41.0492 ] ], [ [ -3.5383, 41.0447 ], [ -3.538, 41.0448 ], [ -3.5379, 41.0445 ], [ -3.5381, 41.0445 ], [ -3.538, 41.0443 ], [ -3.538, 41.0443 ], [ -3.538, 41.0443 ], [ -3.5376, 41.0443 ], [ -3.5377, 41.0443 ], [ -3.5377, 41.0442 ], [ -3.5378, 41.044 ], [ -3.5381, 41.044 ], [ -3.5372, 41.0439 ], [ -3.5372, 41.0432 ], [ -3.5377, 41.0431 ], [ -3.5379, 41.0424 ], [ -3.5381, 41.0423 ], [ -3.5382, 41.0426 ], [ -3.5388, 41.0424 ], [ -3.5392, 41.0434 ], [ -3.5395, 41.0432 ], [ -3.54, 41.0432 ], [ -3.5404, 41.043 ], [ -3.541, 41.043 ], [ -3.5411, 41.0434 ], [ -3.542, 41.0435 ], [ -3.542, 41.0434 ], [ -3.5422, 41.0434 ], [ -3.5422, 41.0436 ], [ -3.5424, 41.0436 ], [ -3.5424, 41.0438 ], [ -3.542, 41.0443 ], [ -3.5423, 41.0444 ], [ -3.5422, 41.0448 ], [ -3.5425, 41.0448 ], [ -3.5424, 41.0449 ], [ -3.5426, 41.0454 ], [ -3.5425, 41.0455 ], [ -3.5427, 41.0457 ], [ -3.542, 41.0458 ], [ -3.5419, 41.0455 ], [ -3.5417, 41.0455 ], [ -3.5414, 41.045 ], [ -3.5411, 41.0451 ], [ -3.5411, 41.045 ], [ -3.541, 41.0453 ], [ -3.5408, 41.0453 ], [ -3.5406, 41.0458 ], [ -3.5401, 41.0456 ], [ -3.5401, 41.0457 ], [ -3.5393, 41.0461 ], [ -3.5391, 41.0458 ], [ -3.539, 41.0453 ], [ -3.5387, 41.0452 ], [ -3.5387, 41.0451 ], [ -3.5385, 41.0452 ], [ -3.5383, 41.0447 ] ] ] } },
{ "type": "Feature", "properties": { "municipio": "Prádena del Rincón", "clasificacion": "urbanizable-no-sectorizado", "calificacion": "sin-asignar", "version": "vigente", "fuente": "SIT-CAM WFS — UsoDelSuelo:VPLA_V_CLASIFICACION (https://idem.comunidad.madrid/geosrvg/ows)", "fecha_dato": "2026-05-12", "ambito": "23265", "_raw_CD_SIGLAS": "SUBNS", "_raw_DS_CLASIF_GEN": "Suelo No Urbanizable Común", "_raw_DS_CLASIF_DET": "Suelo No Urbanizable Común", "_raw_DS_DOCU": "NORMAS SUBSIDIARIAS", "_raw_DS_LEY": "CM Ley 4/1984, E RDL 1/1992", "_raw_FC_AC": "1994-01-13", "_raw_NM_AREA_M2": 533797.26042128901, "_cam_code": "117" }, "geometry": { "type": "Polygon", "coordinates": [ [ [ -3.5581, 41.048 ], [ -3.559, 41.0483 ], [ -3.5594, 41.0481 ], [ -3.5592, 41.0475 ], [ -3.5589, 41.0474 ], [ -3.5586, 41.047 ], [ -3.5586, 41.0458 ], [ -3.5588, 41.0452 ], [ -3.5588, 41.0446 ], [ -3.5583, 41.044 ], [ -3.5583, 41.0438 ], [ -3.5547, 41.036 ], [ -3.5553, 41.0348 ], [ -3.5542, 41.0363 ], [ -3.5533, 41.0366 ], [ -3.5525, 41.0381 ], [ -3.5525, 41.039 ], [ -3.5527, 41.0397 ], [ -3.5524, 41.0407 ], [ -3.5521, 41.0436 ], [ -3.5513, 41.0444 ], [ -3.5511, 41.0452 ], [ -3.5511, 41.0464 ], [ -3.5517, 41.0463 ], [ -3.5521, 41.046 ], [ -3.5552, 41.0476 ], [ -3.5556, 41.048 ], [ -3.5566, 41.0482 ], [ -3.5581, 41.048 ] ] ] } },
{ "type": "Feature", "properties": { "municipio": "Prádena del Rincón", "clasificacion": "urbanizable-no-sectorizado", "calificacion": "sin-asignar", "version": "vigente", "fuente": "SIT-CAM WFS — UsoDelSuelo:VPLA_V_CLASIFICACION (https://idem.comunidad.madrid/geosrvg/ows)", "fecha_dato": "2026-05-12", "ambito": "23265", "_raw_CD_SIGLAS": "SUBNS", "_raw_DS_CLASIF_GEN": "Suelo No Urbanizable Común", "_raw_DS_CLASIF_DET": "Suelo No Urbanizable Común", "_raw_DS_DOCU": "NORMAS SUBSIDIARIAS", "_raw_DS_LEY": "CM Ley 4/1984, E RDL 1/1992", "_raw_FC_AC": "1994-01-13", "_raw_NM_AREA_M2": 4504061.8665232798, "_cam_code": "117" }, "geometry": { "type": "Polygon", "coordinates": [ [ [ -3.5027, 41.0421 ], [ -3.5022, 41.0432 ], [ -3.5024, 41.0437 ], [ -3.5034, 41.0447 ], [ -3.5047, 41.0449 ], [ -3.5052, 41.0451 ], [ -3.5062, 41.0461 ], [ -3.5078, 41.0466 ], [ -3.5104, 41.0471 ], [ -3.5114, 41.0478 ], [ -3.5114, 41.0476 ], [ -3.5118, 41.047 ], [ -3.512, 41.0469 ], [ -3.5118, 41.0466 ], [ -3.5126, 41.0462 ], [ -3.5129, 41.0459 ], [ -3.5135, 41.0448 ], [ -3.5136, 41.0444 ], [ -3.5132, 41.0438 ], [ -3.5132, 41.0434 ], [ -3.5153, 41.042 ], [ -3.5163, 41.0419 ], [ -3.5171, 41.0421 ], [ -3.5186, 41.0422 ], [ -3.5199, 41.0426 ], [ -3.5203, 41.0425 ], [ -3.5204, 41.0423 ], [ -3.5204, 41.0398 ], [ -3.5197, 41.0376 ], [ -3.5199, 41.037 ], [ -3.5199, 41.0365 ], [ -3.5201, 41.0361 ], [ -3.5207, 41.0355 ], [ -3.5208, 41.0345 ], [ -3.5213, 41.0335 ], [ -3.522, 41.0327 ], [ -3.5228, 41.0326 ], [ -3.5237, 41.0317 ], [ -3.5243, 41.0314 ], [ -3.5251, 41.0314 ], [ -3.5272, 41.0317 ], [ -3.5297, 41.0322 ], [ -3.5325, 41.0322 ], [ -3.5326, 41.0319 ], [ -3.5309, 41.0307 ], [ -3.5298, 41.0297 ], [ -3.5294, 41.0287 ], [ -3.5294, 41.0284 ], [ -3.5299, 41.0276 ], [ -3.5298, 41.0274 ], [ -3.528, 41.0268 ], [ -3.527, 41.0261 ], [ -3.5255, 41.0254 ], [ -3.5255, 41.0255 ], [ -3.5248, 41.0252 ], [ -3.5217, 41.0244 ], [ -3.5208, 41.024 ], [ -3.5189, 41.0238 ], [ -3.5176, 41.0239 ], [ -3.5161, 41.0238 ], [ -3.5148, 41.0234 ], [ -3.5134, 41.0228 ], [ -3.5127, 41.0222 ], [ -3.5106, 41.0215 ], [ -3.5096, 41.021 ], [ -3.5092, 41.0214 ], [ -3.5097, 41.0225 ], [ -3.5097, 41.0234 ], [ -3.509, 41.0239 ], [ -3.5076, 41.0244 ], [ -3.5064, 41.0257 ], [ -3.5059, 41.0266 ], [ -3.5053, 41.027 ], [ -3.5045, 41.0273 ], [ -3.503, 41.0288 ], [ -3.5028, 41.0296 ], [ -3.5022, 41.0305 ], [ -3.5017, 41.0307 ], [ -3.5011, 41.0307 ], [ -3.5005, 41.0316 ], [ -3.4997, 41.0321 ], [ -3.4989, 41.0322 ], [ -3.4987, 41.0324 ], [ -3.4987, 41.0332 ], [ -3.498, 41.0352 ], [ -3.4975, 41.0357 ], [ -3.497, 41.0359 ], [ -3.4967, 41.0371 ], [ -3.4962, 41.0378 ], [ -3.496, 41.0379 ], [ -3.4957, 41.0384 ], [ -3.4948, 41.0388 ], [ -3.4938, 41.0396 ], [ -3.4934, 41.0397 ], [ -3.4934, 41.0398 ], [ -3.4948, 41.0404 ], [ -3.4973, 41.0409 ], [ -3.4994, 41.0408 ], [ -3.5005, 41.041 ], [ -3.5021, 41.0415 ], [ -3.5027, 41.0418 ], [ -3.5027, 41.0421 ] ] ] } },
{ "type": "Feature", "properties": { "municipio": "Prádena del Rincón", "clasificacion": "urbanizable-no-sectorizado", "calificacion": "sin-asignar", "version": "vigente", "fuente": "SIT-CAM WFS — UsoDelSuelo:VPLA_V_CLASIFICACION (https://idem.comunidad.madrid/geosrvg/ows)", "fecha_dato": "2026-05-12", "ambito": "23265", "_raw_CD_SIGLAS": "SUBNS", "_raw_DS_CLASIF_GEN": "Suelo No Urbanizable Común", "_raw_DS_CLASIF_DET": "Suelo No Urbanizable Común", "_raw_DS_DOCU": "NORMAS SUBSIDIARIAS", "_raw_DS_LEY": "CM Ley 4/1984, E RDL 1/1992", "_raw_FC_AC": "1994-01-13", "_raw_NM_AREA_M2": 6761.2416438357004, "_cam_code": "117" }, "geometry": { "type": "Polygon", "coordinates": [ [ [ -3.5141, 41.0443 ], [ -3.5135, 41.0457 ], [ -3.5135, 41.0458 ], [ -3.5144, 41.0451 ], [ -3.5148, 41.0445 ], [ -3.5147, 41.0442 ], [ -3.5141, 41.0443 ] ] ] } },
{ "type": "Feature", "properties": { "municipio": "Prádena del Rincón", "clasificacion": "urbano-consolidado", "calificacion": "sin-asignar", "version": "vigente", "fuente": "SIT-CAM WFS — UsoDelSuelo:VPLA_V_CLASIFICACION (https://idem.comunidad.madrid/geosrvg/ows)", "fecha_dato": "2026-05-12", "ambito": "23265", "_raw_CD_SIGLAS": "SUC", "_raw_DS_CLASIF_GEN": "Suelo Urbano Consolidado", "_raw_DS_CLASIF_DET": "Suelo Urbano Consolidado", "_raw_DS_DOCU": "NORMAS SUBSIDIARIAS", "_raw_DS_LEY": "CM Ley 4/1984, E RDL 1/1992", "_raw_FC_AC": "1994-01-13", "_raw_NM_AREA_M2": 82710.849272890104, "_cam_code": "117" }, "geometry": { "type": "Polygon", "coordinates": [ [ [ -3.5401, 41.0456 ], [ -3.5406, 41.0458 ], [ -3.5408, 41.0453 ], [ -3.541, 41.0453 ], [ -3.5411, 41.045 ], [ -3.5411, 41.0451 ], [ -3.5414, 41.045 ], [ -3.5417, 41.0455 ], [ -3.5419, 41.0455 ], [ -3.542, 41.0458 ], [ -3.5427, 41.0457 ], [ -3.5425, 41.0455 ], [ -3.5426, 41.0454 ], [ -3.5424, 41.0449 ], [ -3.5425, 41.0448 ], [ -3.5422, 41.0448 ], [ -3.5423, 41.0444 ], [ -3.542, 41.0443 ], [ -3.5424, 41.0438 ], [ -3.5424, 41.0436 ], [ -3.5422, 41.0436 ], [ -3.5422, 41.0434 ], [ -3.542, 41.0434 ], [ -3.542, 41.0435 ], [ -3.5411, 41.0434 ], [ -3.541, 41.043 ], [ -3.5404, 41.043 ], [ -3.54, 41.0432 ], [ -3.5395, 41.0432 ], [ -3.5391, 41.0435 ], [ -3.5388, 41.0435 ], [ -3.5388, 41.0436 ], [ -3.5382, 41.0438 ], [ -3.5378, 41.0432 ], [ -3.5378, 41.043 ], [ -3.5372, 41.0432 ], [ -3.5372, 41.0439 ], [ -3.5381, 41.044 ], [ -3.5378, 41.044 ], [ -3.5376, 41.0443 ], [ -3.538, 41.0443 ], [ -3.5381, 41.0445 ], [ -3.5379, 41.0445 ], [ -3.538, 41.0448 ], [ -3.5383, 41.0447 ], [ -3.5385, 41.0452 ], [ -3.5394, 41.0451 ], [ -3.5395, 41.0454 ], [ -3.54, 41.0453 ], [ -3.5401, 41.0456 ] ], [ [ -3.5399, 41.0448 ], [ -3.5401, 41.0444 ], [ -3.54, 41.0444 ], [ -3.5401, 41.0443 ], [ -3.54, 41.0442 ], [ -3.5402, 41.044 ], [ -3.5405, 41.0441 ], [ -3.5405, 41.044 ], [ -3.5406, 41.0441 ], [ -3.5404, 41.0442 ], [ -3.5406, 41.0442 ], [ -3.5405, 41.0447 ], [ -3.5404, 41.0448 ], [ -3.5399, 41.0448 ] ] ] } },
{ "type": "Feature", "properties": { "municipio": "Prádena del Rincón", "clasificacion": "urbano-no-consolidado", "calificacion": "sin-asignar", "version": "vigente", "fuente": "SIT-CAM WFS — UsoDelSuelo:VPLA_V_CLASIFICACION (https://idem.comunidad.madrid/geosrvg/ows)", "fecha_dato": "2026-05-12", "ambito": "23265", "_raw_CD_SIGLAS": "SUNC", "_raw_DS_CLASIF_GEN": "Suelo Urbano No Consolidado", "_raw_DS_CLASIF_DET": "Suelo Urbano No Consolidado", "_raw_DS_DOCU": "NORMAS SUBSIDIARIAS", "_raw_DS_LEY": "CM Ley 4/1984, E RDL 1/1992", "_raw_FC_AC": "1994-01-13", "_raw_NM_AREA_M2": 6130.91922678009, "_cam_code": "117" }, "geometry": { "type": "Polygon", "coordinates": [ [ [ -3.5389, 41.0452 ], [ -3.5393, 41.0461 ], [ -3.5401, 41.0457 ], [ -3.54, 41.0453 ], [ -3.5395, 41.0454 ], [ -3.5394, 41.0451 ], [ -3.5389, 41.0452 ] ] ] } },
{ "type": "Feature", "properties": { "municipio": "Prádena del Rincón", "clasificacion": "urbano-no-consolidado", "calificacion": "sin-asignar", "version": "vigente", "fuente": "SIT-CAM WFS — UsoDelSuelo:VPLA_V_CLASIFICACION (https://idem.comunidad.madrid/geosrvg/ows)", "fecha_dato": "2026-05-12", "ambito": "23265", "_raw_CD_SIGLAS": "SUNC", "_raw_DS_CLASIF_GEN": "Suelo Urbano No Consolidado", "_raw_DS_CLASIF_DET": "Suelo Urbano No Consolidado", "_raw_DS_DOCU": "NORMAS SUBSIDIARIAS", "_raw_DS_LEY": "CM Ley 4/1984, E RDL 1/1992", "_raw_FC_AC": "1994-01-13", "_raw_NM_AREA_M2": 3692.9949456079098, "_cam_code": "117" }, "geometry": { "type": "Polygon", "coordinates": [ [ [ -3.5401, 41.0444 ], [ -3.5399, 41.0448 ], [ -3.5404, 41.0448 ], [ -3.5405, 41.0447 ], [ -3.5406, 41.0442 ], [ -3.5404, 41.0442 ], [ -3.5406, 41.0441 ], [ -3.5405, 41.044 ], [ -3.5405, 41.0441 ], [ -3.5402, 41.044 ], [ -3.54, 41.0442 ], [ -3.5401, 41.0443 ], [ -3.54, 41.0444 ], [ -3.5401, 41.0444 ] ] ] } },
{ "type": "Feature", "properties": { "municipio": "Prádena del Rincón", "clasificacion": "urbano-no-consolidado", "calificacion": "sin-asignar", "version": "vigente", "fuente": "SIT-CAM WFS — UsoDelSuelo:VPLA_V_CLASIFICACION (https://idem.comunidad.madrid/geosrvg/ows)", "fecha_dato": "2026-05-12", "ambito": "23265", "_raw_CD_SIGLAS": "SUNC", "_raw_DS_CLASIF_GEN": "Suelo Urbano No Consolidado", "_raw_DS_CLASIF_DET": "Suelo Urbano No Consolidado", "_raw_DS_DOCU": "NORMAS SUBSIDIARIAS", "_raw_DS_LEY": "CM Ley 4/1984, E RDL 1/1992", "_raw_FC_AC": "1994-01-13", "_raw_NM_AREA_M2": 12947.8640011347, "_cam_code": "117" }, "geometry": { "type": "Polygon", "coordinates": [ [ [ -3.5379, 41.0424 ], [ -3.5378, 41.0432 ], [ -3.5382, 41.0438 ], [ -3.5392, 41.0434 ], [ -3.5388, 41.0424 ], [ -3.5382, 41.0426 ], [ -3.5381, 41.0423 ], [ -3.5379, 41.0424 ] ] ] } }
]
}
