{
"type": "FeatureCollection",
"name": "vigente.full",
"features": [
{ "type": "Feature", "properties": { "municipio": "Villamantilla", "clasificacion": "no-urbanizable-protegido", "calificacion": "sin-asignar", "version": "vigente", "fuente": "SIT-CAM WFS — UsoDelSuelo:VPLA_V_CLASIFICACION (https://idem.comunidad.madrid/geosrvg/ows)", "fecha_dato": "2026-05-12", "ambito": "32427", "_raw_CD_SIGLAS": "SNUP", "_raw_DS_CLASIF_GEN": "Suelo No Urbanizable Protegido", "_raw_DS_CLASIF_DET": "Suelo No Urbanizable Protegido Clase II Espacios Forestales en Régimen Especial y Clase I.1 ZEPA", "_raw_DS_DOCU": "NORMAS SUBSIDIARIAS", "_raw_DS_LEY": "CM Ley 9/1995, E RDL 1/1992", "_raw_FC_AC": "1997-04-01", "_raw_NM_AREA_M2": 1920606.2556219499, "_cam_code": "175" }, "geometry": { "type": "Polygon", "coordinates": [ [ [ -4.1644, 40.3289 ], [ -4.1642, 40.3298 ], [ -4.1642, 40.3312 ], [ -4.1645, 40.3321 ], [ -4.1652, 40.3327 ], [ -4.167, 40.3338 ], [ -4.1673, 40.3341 ], [ -4.1675, 40.3355 ], [ -4.1692, 40.335 ], [ -4.172, 40.3349 ], [ -4.1754, 40.3361 ], [ -4.1758, 40.3352 ], [ -4.1768, 40.3348 ], [ -4.1789, 40.3347 ], [ -4.1801, 40.3349 ], [ -4.1822, 40.336 ], [ -4.1832, 40.3367 ], [ -4.1849, 40.3365 ], [ -4.1873, 40.3366 ], [ -4.186, 40.334 ], [ -4.1843, 40.3313 ], [ -4.1821, 40.329 ], [ -4.1769, 40.3268 ], [ -4.1761, 40.3253 ], [ -4.1744, 40.3233 ], [ -4.1718, 40.3206 ], [ -4.1714, 40.3196 ], [ -4.1706, 40.3193 ], [ -4.1697, 40.3184 ], [ -4.1689, 40.3192 ], [ -4.1686, 40.3199 ], [ -4.1686, 40.3206 ], [ -4.169, 40.3216 ], [ -4.1688, 40.3226 ], [ -4.1679, 40.3234 ], [ -4.1674, 40.3245 ], [ -4.1665, 40.326 ], [ -4.1655, 40.3272 ], [ -4.165, 40.3285 ], [ -4.1648, 40.3288 ], [ -4.1644, 40.3289 ] ] ] } },
{ "type": "Feature", "properties": { "municipio": "Villamantilla", "clasificacion": "no-urbanizable-protegido", "calificacion": "sin-asignar", "version": "vigente", "fuente": "SIT-CAM WFS — UsoDelSuelo:VPLA_V_CLASIFICACION (https://idem.comunidad.madrid/geosrvg/ows)", "fecha_dato": "2026-05-12", "ambito": "32427", "_raw_CD_SIGLAS": "SNUP", "_raw_DS_CLASIF_GEN": "Suelo No Urbanizable Protegido", "_raw_DS_CLASIF_DET": "Suelo No Urbanizable Protegido Clase I.1 ZEPA", "_raw_DS_DOCU": "NORMAS SUBSIDIARIAS", "_raw_DS_LEY": "CM Ley 9/1995, E RDL 1/1992", "_raw_FC_AC": "1997-04-01", "_raw_NM_AREA_M2": 44421.044881593501, "_cam_code": "175" }, "geometry": { "type": "Polygon", "coordinates": [ [ [ -4.134, 40.3383 ], [ -4.1348, 40.3393 ], [ -4.1349, 40.3397 ], [ -4.1361, 40.3409 ], [ -4.1363, 40.3414 ], [ -4.1362, 40.3429 ], [ -4.1363, 40.3437 ], [ -4.1372, 40.3429 ], [ -4.1377, 40.342 ], [ -4.1375, 40.3415 ], [ -4.1372, 40.3409 ], [ -4.1357, 40.3397 ], [ -4.1356, 40.3392 ], [ -4.1345, 40.3383 ], [ -4.1345, 40.3384 ], [ -4.134, 40.3383 ] ] ] } },
{ "type": "Feature", "properties": { "municipio": "Villamantilla", "clasificacion": "no-urbanizable-protegido", "calificacion": "sin-asignar", "version": "vigente", "fuente": "SIT-CAM WFS — UsoDelSuelo:VPLA_V_CLASIFICACION (https://idem.comunidad.madrid/geosrvg/ows)", "fecha_dato": "2026-05-12", "ambito": "32427", "_raw_CD_SIGLAS": "SNUP", "_raw_DS_CLASIF_GEN": "Suelo No Urbanizable Protegido", "_raw_DS_CLASIF_DET": "Suelo No Urbanizable Protegido Clase I.1 ZEPA", "_raw_DS_DOCU": "NORMAS SUBSIDIARIAS", "_raw_DS_LEY": "CM Ley 9/1995, E RDL 1/1992", "_raw_FC_AC": "1997-04-01", "_raw_NM_AREA_M2": 407064.79665325797, "_cam_code": "175" }, "geometry": { "type": "Polygon", "coordinates": [ [ [ -4.1288, 40.3386 ], [ -4.129, 40.3384 ], [ -4.1288, 40.3382 ], [ -4.1288, 40.3379 ], [ -4.129, 40.3378 ], [ -4.129, 40.3376 ], [ -4.1292, 40.3374 ], [ -4.1298, 40.3374 ], [ -4.129, 40.337 ], [ -4.1288, 40.3367 ], [ -4.1287, 40.3364 ], [ -4.1294, 40.336 ], [ -4.1292, 40.3359 ], [ -4.1293, 40.3359 ], [ -4.1289, 40.3347 ], [ -4.1292, 40.3347 ], [ -4.1297, 40.335 ], [ -4.131, 40.3353 ], [ -4.132, 40.3351 ], [ -4.1332, 40.3354 ], [ -4.1339, 40.336 ], [ -4.1359, 40.3346 ], [ -4.1359, 40.3338 ], [ -4.1356, 40.3329 ], [ -4.135, 40.3323 ], [ -4.1338, 40.3319 ], [ -4.133, 40.3321 ], [ -4.1328, 40.3325 ], [ -4.1327, 40.3332 ], [ -4.1321, 40.3337 ], [ -4.1315, 40.3337 ], [ -4.1303, 40.3332 ], [ -4.1296, 40.3333 ], [ -4.129, 40.333 ], [ -4.1285, 40.3325 ], [ -4.1282, 40.3321 ], [ -4.1282, 40.3318 ], [ -4.1275, 40.3318 ], [ -4.1278, 40.3332 ], [ -4.1282, 40.3341 ], [ -4.1275, 40.3345 ], [ -4.1268, 40.3346 ], [ -4.1247, 40.334 ], [ -4.124, 40.3336 ], [ -4.1219, 40.3329 ], [ -4.1199, 40.333 ], [ -4.1185, 40.3329 ], [ -4.1178, 40.3325 ], [ -4.1177, 40.3326 ], [ -4.1177, 40.3329 ], [ -4.1185, 40.3332 ], [ -4.1185, 40.3335 ], [ -4.1182, 40.3337 ], [ -4.1186, 40.334 ], [ -4.1193, 40.3337 ], [ -4.1197, 40.334 ], [ -4.1222, 40.3341 ], [ -4.1244, 40.335 ], [ -4.1262, 40.3359 ], [ -4.1273, 40.3362 ], [ -4.1277, 40.3365 ], [ -4.1276, 40.3367 ], [ -4.1273, 40.3368 ], [ -4.1261, 40.3366 ], [ -4.1258, 40.3365 ], [ -4.125, 40.3358 ], [ -4.1247, 40.3358 ], [ -4.124, 40.3363 ], [ -4.1218, 40.3362 ], [ -4.1216, 40.3365 ], [ -4.1209, 40.3363 ], [ -4.1203, 40.3366 ], [ -4.1197, 40.3375 ], [ -4.1198, 40.338 ], [ -4.1201, 40.3383 ], [ -4.1219, 40.338 ], [ -4.1225, 40.3376 ], [ -4.1244, 40.3372 ], [ -4.1252, 40.3368 ], [ -4.1263, 40.3372 ], [ -4.1267, 40.3372 ], [ -4.1275, 40.3369 ], [ -4.1281, 40.3371 ], [ -4.1288, 40.3386 ] ] ] } },
{ "type": "Feature", "properties": { "municipio": "Villamantilla", "clasificacion": "no-urbanizable-protegido", "calificacion": "sin-asignar", "version": "vigente", "fuente": "SIT-CAM WFS — UsoDelSuelo:VPLA_V_CLASIFICACION (https://idem.comunidad.madrid/geosrvg/ows)", "fecha_dato": "2026-05-12", "ambito": "32427", "_raw_CD_SIGLAS": "SNUP", "_raw_DS_CLASIF_GEN": "Suelo No Urbanizable Protegido", "_raw_DS_CLASIF_DET": "Suelo No Urbanizable Protegido Clase II Espacios Forestales en Régimen Especial y Clase I.1 ZEPA", "_raw_DS_DOCU": "NORMAS SUBSIDIARIAS", "_raw_DS_LEY": "CM Ley 9/1995, E RDL 1/1992", "_raw_FC_AC": "1997-04-01", "_raw_NM_AREA_M2": 32665.736341490501, "_cam_code": "175" }, "geometry": { "type": "Polygon", "coordinates": [ [ [ -4.121, 40.3644 ], [ -4.1226, 40.3645 ], [ -4.1227, 40.3641 ], [ -4.1225, 40.3639 ], [ -4.1223, 40.3633 ], [ -4.1221, 40.3631 ], [ -4.1216, 40.363 ], [ -4.1204, 40.3632 ], [ -4.1195, 40.3641 ], [ -4.1203, 40.3645 ], [ -4.121, 40.3644 ] ] ] } },
{ "type": "Feature", "properties": { "municipio": "Villamantilla", "clasificacion": "no-urbanizable-protegido", "calificacion": "sin-asignar", "version": "vigente", "fuente": "SIT-CAM WFS — UsoDelSuelo:VPLA_V_CLASIFICACION (https://idem.comunidad.madrid/geosrvg/ows)", "fecha_dato": "2026-05-12", "ambito": "32427", "_raw_CD_SIGLAS": "SNUP", "_raw_DS_CLASIF_GEN": "Suelo No Urbanizable Protegido", "_raw_DS_CLASIF_DET": "Suelo No Urbanizable Protegido Clase II Espacios Forestales en Régimen Especial y Clase I.1 ZEPA", "_raw_DS_DOCU": "NORMAS SUBSIDIARIAS", "_raw_DS_LEY": "CM Ley 9/1995, E RDL 1/1992", "_raw_FC_AC": "1997-04-01", "_raw_NM_AREA_M2": 312449.74180586101, "_cam_code": "175" }, "geometry": { "type": "Polygon", "coordinates": [ [ [ -4.1131, 40.354 ], [ -4.1167, 40.3557 ], [ -4.1167, 40.3553 ], [ -4.1164, 40.3549 ], [ -4.1164, 40.3546 ], [ -4.1171, 40.3542 ], [ -4.1173, 40.3539 ], [ -4.1173, 40.3535 ], [ -4.118, 40.3522 ], [ -4.1176, 40.3509 ], [ -4.1179, 40.3506 ], [ -4.1179, 40.35 ], [ -4.1185, 40.3492 ], [ -4.1185, 40.3487 ], [ -4.1184, 40.3486 ], [ -4.117, 40.3487 ], [ -4.1152, 40.3484 ], [ -4.1116, 40.3489 ], [ -4.1121, 40.3502 ], [ -4.1122, 40.3516 ], [ -4.1131, 40.354 ] ] ] } },
{ "type": "Feature", "properties": { "municipio": "Villamantilla", "clasificacion": "no-urbanizable-protegido", "calificacion": "sin-asignar", "version": "vigente", "fuente": "SIT-CAM WFS — UsoDelSuelo:VPLA_V_CLASIFICACION (https://idem.comunidad.madrid/geosrvg/ows)", "fecha_dato": "2026-05-12", "ambito": "32427", "_raw_CD_SIGLAS": "SNUP", "_raw_DS_CLASIF_GEN": "Suelo No Urbanizable Protegido", "_raw_DS_CLASIF_DET": "Suelo No Urbanizable Protegido Clase III Espacios de Interés Agropecuario Extensivo y Clase I.1 ZEPA", "_raw_DS_DOCU": "NORMAS SUBSIDIARIAS", "_raw_DS_LEY": "CM Ley 9/1995, E RDL 1/1992", "_raw_FC_AC": "1997-04-01", "_raw_NM_AREA_M2": 128809.433704683, "_cam_code": "175" }, "geometry": { "type": "Polygon", "coordinates": [ [ [ -4.1831, 40.3379 ], [ -4.1816, 40.337 ], [ -4.1799, 40.3357 ], [ -4.1789, 40.3355 ], [ -4.1781, 40.3356 ], [ -4.177, 40.336 ], [ -4.1766, 40.3363 ], [ -4.1766, 40.3368 ], [ -4.1763, 40.3373 ], [ -4.1766, 40.3376 ], [ -4.1772, 40.3379 ], [ -4.1784, 40.3381 ], [ -4.1796, 40.338 ], [ -4.1808, 40.3384 ], [ -4.1818, 40.3396 ], [ -4.1826, 40.3412 ], [ -4.1826, 40.3408 ], [ -4.1821, 40.3397 ], [ -4.1826, 40.3384 ], [ -4.1831, 40.3379 ] ] ] } },
{ "type": "Feature", "properties": { "municipio": "Villamantilla", "clasificacion": "no-urbanizable-protegido", "calificacion": "sin-asignar", "version": "vigente", "fuente": "SIT-CAM WFS — UsoDelSuelo:VPLA_V_CLASIFICACION (https://idem.comunidad.madrid/geosrvg/ows)", "fecha_dato": "2026-05-12", "ambito": "32427", "_raw_CD_SIGLAS": "SNUP", "_raw_DS_CLASIF_GEN": "Suelo No Urbanizable Protegido", "_raw_DS_CLASIF_DET": "Suelo No Urbanizable Protegido Clase I Cauces, riberas y zonas húmedas y Clase I.1 ZEPA", "_raw_DS_DOCU": "NORMAS SUBSIDIARIAS", "_raw_DS_LEY": "CM Ley 9/1995, E RDL 1/1992", "_raw_FC_AC": "1997-04-01", "_raw_NM_AREA_M2": 95610.845898496205, "_cam_code": "175" }, "geometry": { "type": "Polygon", "coordinates": [ [ [ -4.1835, 40.3376 ], [ -4.1821, 40.3365 ], [ -4.1811, 40.3359 ], [ -4.1801, 40.3354 ], [ -4.179, 40.3352 ], [ -4.1768, 40.3354 ], [ -4.1763, 40.3357 ], [ -4.1758, 40.3373 ], [ -4.1758, 40.3375 ], [ -4.1768, 40.3382 ], [ -4.1801, 40.3383 ], [ -4.1809, 40.339 ], [ -4.1816, 40.3408 ], [ -4.182, 40.3436 ], [ -4.1822, 40.3442 ], [ -4.1828, 40.3448 ], [ -4.1826, 40.3412 ], [ -4.1814, 40.339 ], [ -4.1808, 40.3384 ], [ -4.1796, 40.338 ], [ -4.1784, 40.3381 ], [ -4.1772, 40.3379 ], [ -4.1766, 40.3376 ], [ -4.1763, 40.3373 ], [ -4.1766, 40.3368 ], [ -4.1766, 40.3363 ], [ -4.177, 40.336 ], [ -4.1781, 40.3356 ], [ -4.1789, 40.3355 ], [ -4.1799, 40.3357 ], [ -4.1816, 40.337 ], [ -4.1831, 40.3379 ], [ -4.1835, 40.3376 ] ] ] } },
{ "type": "Feature", "properties": { "municipio": "Villamantilla", "clasificacion": "no-urbanizable-protegido", "calificacion": "sin-asignar", "version": "vigente", "fuente": "SIT-CAM WFS — UsoDelSuelo:VPLA_V_CLASIFICACION (https://idem.comunidad.madrid/geosrvg/ows)", "fecha_dato": "2026-05-12", "ambito": "32427", "_raw_CD_SIGLAS": "SNUP", "_raw_DS_CLASIF_GEN": "Suelo No Urbanizable Protegido", "_raw_DS_CLASIF_DET": "Suelo No Urbanizable Protegido Clase III Espacios de Interés Agropecuario Extensivo y Clase I.1 ZEPA", "_raw_DS_DOCU": "NORMAS SUBSIDIARIAS", "_raw_DS_LEY": "CM Ley 9/1995, E RDL 1/1992", "_raw_FC_AC": "1997-04-01", "_raw_NM_AREA_M2": 934928.285116232, "_cam_code": "175" }, "geometry": { "type": "Polygon", "coordinates": [ [ [ -4.1593, 40.3269 ], [ -4.159, 40.3277 ], [ -4.1585, 40.3284 ], [ -4.1576, 40.3291 ], [ -4.1576, 40.3295 ], [ -4.158, 40.3307 ], [ -4.1582, 40.3323 ], [ -4.1591, 40.3334 ], [ -4.1591, 40.3338 ], [ -4.1589, 40.3342 ], [ -4.1591, 40.3346 ], [ -4.1592, 40.3358 ], [ -4.1589, 40.3362 ], [ -4.1587, 40.337 ], [ -4.1587, 40.3376 ], [ -4.1591, 40.3379 ], [ -4.1596, 40.338 ], [ -4.1656, 40.3373 ], [ -4.168, 40.3365 ], [ -4.1684, 40.3359 ], [ -4.1715, 40.3375 ], [ -4.1726, 40.3375 ], [ -4.1736, 40.3372 ], [ -4.1747, 40.3374 ], [ -4.1754, 40.3372 ], [ -4.1753, 40.3375 ], [ -4.1754, 40.3379 ], [ -4.1765, 40.3385 ], [ -4.1782, 40.3387 ], [ -4.1791, 40.3385 ], [ -4.18, 40.3386 ], [ -4.1808, 40.3392 ], [ -4.1812, 40.3407 ], [ -4.1813, 40.3426 ], [ -4.1816, 40.3439 ], [ -4.1823, 40.345 ], [ -4.1828, 40.3448 ], [ -4.1822, 40.3442 ], [ -4.182, 40.3436 ], [ -4.1816, 40.3408 ], [ -4.1809, 40.339 ], [ -4.1801, 40.3383 ], [ -4.1768, 40.3382 ], [ -4.1758, 40.3375 ], [ -4.1761, 40.3366 ], [ -4.1761, 40.3361 ], [ -4.1763, 40.3357 ], [ -4.1768, 40.3354 ], [ -4.1774, 40.3354 ], [ -4.1782, 40.3352 ], [ -4.179, 40.3352 ], [ -4.1801, 40.3354 ], [ -4.1821, 40.3365 ], [ -4.1835, 40.3376 ], [ -4.1855, 40.3387 ], [ -4.1864, 40.3387 ], [ -4.1868, 40.3383 ], [ -4.188, 40.3379 ], [ -4.1873, 40.3366 ], [ -4.1849, 40.3365 ], [ -4.1832, 40.3367 ], [ -4.1822, 40.336 ], [ -4.1801, 40.3349 ], [ -4.1789, 40.3347 ], [ -4.1768, 40.3348 ], [ -4.1758, 40.3352 ], [ -4.1754, 40.3361 ], [ -4.172, 40.3349 ], [ -4.1692, 40.335 ], [ -4.1675, 40.3355 ], [ -4.1673, 40.3341 ], [ -4.167, 40.3338 ], [ -4.1652, 40.3327 ], [ -4.1645, 40.3321 ], [ -4.1642, 40.3312 ], [ -4.1642, 40.3298 ], [ -4.1644, 40.3289 ], [ -4.1638, 40.3288 ], [ -4.1632, 40.3283 ], [ -4.1622, 40.3285 ], [ -4.1612, 40.3284 ], [ -4.1597, 40.3271 ], [ -4.1593, 40.3269 ] ] ] } },
{ "type": "Feature", "properties": { "municipio": "Villamantilla", "clasificacion": "no-urbanizable-protegido", "calificacion": "sin-asignar", "version": "vigente", "fuente": "SIT-CAM WFS — UsoDelSuelo:VPLA_V_CLASIFICACION (https://idem.comunidad.madrid/geosrvg/ows)", "fecha_dato": "2026-05-12", "ambito": "32427", "_raw_CD_SIGLAS": "SNUP", "_raw_DS_CLASIF_GEN": "Suelo No Urbanizable Protegido", "_raw_DS_CLASIF_DET": "Suelo No Urbanizable Protegido Clase IV Espacios de Interés Edafológico y Clase I.1 ZEPA", "_raw_DS_DOCU": "NORMAS SUBSIDIARIAS", "_raw_DS_LEY": "CM Ley 9/1995, E RDL 1/1992", "_raw_FC_AC": "1997-04-01", "_raw_NM_AREA_M2": 1317237.8500810801, "_cam_code": "175" }, "geometry": { "type": "Polygon", "coordinates": [ [ [ -4.1354, 40.3686 ], [ -4.1357, 40.3698 ], [ -4.1366, 40.3698 ], [ -4.1366, 40.3699 ], [ -4.1372, 40.3687 ], [ -4.1379, 40.3681 ], [ -4.1385, 40.368 ], [ -4.1413, 40.3669 ], [ -4.1419, 40.3664 ], [ -4.143, 40.3658 ], [ -4.1453, 40.365 ], [ -4.1457, 40.3647 ], [ -4.1464, 40.3645 ], [ -4.1469, 40.3647 ], [ -4.148, 40.3645 ], [ -4.1485, 40.3641 ], [ -4.1512, 40.3626 ], [ -4.1514, 40.3624 ], [ -4.1514, 40.3616 ], [ -4.152, 40.3591 ], [ -4.1519, 40.3581 ], [ -4.1512, 40.3573 ], [ -4.1509, 40.3567 ], [ -4.1509, 40.3565 ], [ -4.1511, 40.3564 ], [ -4.1513, 40.356 ], [ -4.1528, 40.3555 ], [ -4.1539, 40.3554 ], [ -4.1561, 40.3542 ], [ -4.157, 40.354 ], [ -4.1584, 40.3539 ], [ -4.1631, 40.3546 ], [ -4.1646, 40.3546 ], [ -4.1664, 40.3543 ], [ -4.1675, 40.3543 ], [ -4.1675, 40.3542 ], [ -4.1684, 40.354 ], [ -4.172, 40.3535 ], [ -4.174, 40.3527 ], [ -4.1733, 40.3517 ], [ -4.1726, 40.3513 ], [ -4.1695, 40.3513 ], [ -4.1692, 40.351 ], [ -4.1693, 40.3507 ], [ -4.1689, 40.3503 ], [ -4.1686, 40.3513 ], [ -4.1663, 40.3515 ], [ -4.1645, 40.3521 ], [ -4.1605, 40.353 ], [ -4.158, 40.3532 ], [ -4.1577, 40.353 ], [ -4.1573, 40.3534 ], [ -4.1566, 40.3536 ], [ -4.1562, 40.3534 ], [ -4.1559, 40.353 ], [ -4.1559, 40.3526 ], [ -4.1551, 40.3529 ], [ -4.1558, 40.3536 ], [ -4.1506, 40.3547 ], [ -4.1504, 40.3549 ], [ -4.1495, 40.3547 ], [ -4.1499, 40.3556 ], [ -4.1492, 40.3561 ], [ -4.148, 40.3573 ], [ -4.1468, 40.3574 ], [ -4.1467, 40.358 ], [ -4.1458, 40.3588 ], [ -4.1461, 40.3597 ], [ -4.1461, 40.3603 ], [ -4.1456, 40.3604 ], [ -4.1446, 40.3601 ], [ -4.1442, 40.3603 ], [ -4.1437, 40.3603 ], [ -4.1432, 40.3598 ], [ -4.1428, 40.36 ], [ -4.1423, 40.3597 ], [ -4.1421, 40.359 ], [ -4.1419, 40.3588 ], [ -4.1413, 40.3591 ], [ -4.1412, 40.3588 ], [ -4.1405, 40.3585 ], [ -4.1403, 40.359 ], [ -4.1405, 40.3597 ], [ -4.1408, 40.3601 ], [ -4.1409, 40.3611 ], [ -4.1416, 40.3623 ], [ -4.1426, 40.363 ], [ -4.1425, 40.3631 ], [ -4.1408, 40.3628 ], [ -4.1385, 40.3618 ], [ -4.1387, 40.3623 ], [ -4.1385, 40.3628 ], [ -4.1382, 40.3628 ], [ -4.1371, 40.3624 ], [ -4.1368, 40.3618 ], [ -4.1362, 40.3615 ], [ -4.1364, 40.3624 ], [ -4.1375, 40.3635 ], [ -4.1379, 40.3641 ], [ -4.1379, 40.3646 ], [ -4.1371, 40.3649 ], [ -4.1367, 40.3654 ], [ -4.136, 40.3658 ], [ -4.1351, 40.3661 ], [ -4.1346, 40.3661 ], [ -4.1349, 40.3677 ], [ -4.1354, 40.3686 ] ] ] } },
{ "type": "Feature", "properties": { "municipio": "Villamantilla", "clasificacion": "no-urbanizable-protegido", "calificacion": "sin-asignar", "version": "vigente", "fuente": "SIT-CAM WFS — UsoDelSuelo:VPLA_V_CLASIFICACION (https://idem.comunidad.madrid/geosrvg/ows)", "fecha_dato": "2026-05-12", "ambito": "32427", "_raw_CD_SIGLAS": "SNUP", "_raw_DS_CLASIF_GEN": "Suelo No Urbanizable Protegido", "_raw_DS_CLASIF_DET": "Suelo No Urbanizable Protegido Clase III Espacios de Interés Agropecuario Extensivo y Clase I.1 ZEPA", "_raw_DS_DOCU": "NORMAS SUBSIDIARIAS", "_raw_DS_LEY": "CM Ley 9/1995, E RDL 1/1992", "_raw_FC_AC": "1997-04-01", "_raw_NM_AREA_M2": 5031472.5677640699, "_cam_code": "175" }, "geometry": { "type": "Polygon", "coordinates": [ [ [ -4.1338, 40.3674 ], [ -4.1344, 40.368 ], [ -4.1344, 40.3686 ], [ -4.1349, 40.3689 ], [ -4.1352, 40.3692 ], [ -4.1353, 40.3695 ], [ -4.1356, 40.3697 ], [ -4.1354, 40.3686 ], [ -4.1349, 40.3677 ], [ -4.1346, 40.3661 ], [ -4.1351, 40.3661 ], [ -4.136, 40.3658 ], [ -4.1367, 40.3654 ], [ -4.1371, 40.3649 ], [ -4.1379, 40.3646 ], [ -4.1379, 40.3641 ], [ -4.1375, 40.3635 ], [ -4.1364, 40.3624 ], [ -4.1362, 40.3615 ], [ -4.1368, 40.3618 ], [ -4.1371, 40.3624 ], [ -4.1382, 40.3628 ], [ -4.1385, 40.3628 ], [ -4.1387, 40.3623 ], [ -4.1385, 40.3618 ], [ -4.1408, 40.3628 ], [ -4.1425, 40.3631 ], [ -4.1426, 40.363 ], [ -4.1423, 40.3627 ], [ -4.1416, 40.3623 ], [ -4.1409, 40.3611 ], [ -4.1408, 40.3601 ], [ -4.1405, 40.3597 ], [ -4.1403, 40.359 ], [ -4.1405, 40.3585 ], [ -4.1412, 40.3588 ], [ -4.1413, 40.3591 ], [ -4.1419, 40.3588 ], [ -4.1421, 40.359 ], [ -4.1423, 40.3597 ], [ -4.1428, 40.36 ], [ -4.1432, 40.3598 ], [ -4.1437, 40.3603 ], [ -4.1442, 40.3603 ], [ -4.1446, 40.3601 ], [ -4.1456, 40.3604 ], [ -4.1461, 40.3603 ], [ -4.1461, 40.3597 ], [ -4.1458, 40.3588 ], [ -4.1467, 40.358 ], [ -4.1468, 40.3574 ], [ -4.1472, 40.3574 ], [ -4.1473, 40.3566 ], [ -4.1448, 40.3542 ], [ -4.1428, 40.3532 ], [ -4.1427, 40.3528 ], [ -4.1423, 40.3524 ], [ -4.1414, 40.3521 ], [ -4.1412, 40.3517 ], [ -4.1412, 40.3514 ], [ -4.1402, 40.3514 ], [ -4.14, 40.3503 ], [ -4.1396, 40.3499 ], [ -4.1402, 40.3492 ], [ -4.141, 40.3495 ], [ -4.1416, 40.3485 ], [ -4.1416, 40.3479 ], [ -4.1402, 40.347 ], [ -4.1394, 40.3458 ], [ -4.1387, 40.3463 ], [ -4.1379, 40.3462 ], [ -4.1361, 40.3471 ], [ -4.1344, 40.3472 ], [ -4.1349, 40.3469 ], [ -4.1354, 40.3468 ], [ -4.1356, 40.3465 ], [ -4.1366, 40.3464 ], [ -4.1366, 40.346 ], [ -4.1371, 40.346 ], [ -4.1378, 40.3456 ], [ -4.1383, 40.3448 ], [ -4.139, 40.3447 ], [ -4.1391, 40.3444 ], [ -4.1389, 40.3441 ], [ -4.1391, 40.3439 ], [ -4.1398, 40.344 ], [ -4.1402, 40.3438 ], [ -4.1397, 40.3433 ], [ -4.1388, 40.3431 ], [ -4.1387, 40.3426 ], [ -4.1392, 40.3424 ], [ -4.1409, 40.3426 ], [ -4.1413, 40.3415 ], [ -4.1412, 40.3403 ], [ -4.1405, 40.3398 ], [ -4.1397, 40.3399 ], [ -4.1391, 40.3398 ], [ -4.1388, 40.3395 ], [ -4.1391, 40.3394 ], [ -4.1393, 40.339 ], [ -4.1416, 40.3394 ], [ -4.1432, 40.3408 ], [ -4.1439, 40.3412 ], [ -4.1467, 40.3412 ], [ -4.1472, 40.3407 ], [ -4.145, 40.3371 ], [ -4.1446, 40.3358 ], [ -4.1445, 40.3345 ], [ -4.1446, 40.3335 ], [ -4.1444, 40.3323 ], [ -4.1447, 40.3317 ], [ -4.1448, 40.3307 ], [ -4.1438, 40.3313 ], [ -4.1421, 40.3312 ], [ -4.1422, 40.3305 ], [ -4.1413, 40.3309 ], [ -4.1396, 40.3313 ], [ -4.1385, 40.3331 ], [ -4.1374, 40.3339 ], [ -4.1359, 40.3346 ], [ -4.1339, 40.336 ], [ -4.1332, 40.3354 ], [ -4.132, 40.3351 ], [ -4.131, 40.3353 ], [ -4.1297, 40.335 ], [ -4.1292, 40.3347 ], [ -4.1289, 40.3347 ], [ -4.1293, 40.3359 ], [ -4.1292, 40.3359 ], [ -4.1296, 40.3362 ], [ -4.1298, 40.336 ], [ -4.1309, 40.3366 ], [ -4.1314, 40.3363 ], [ -4.1324, 40.3373 ], [ -4.1327, 40.3373 ], [ -4.133, 40.3371 ], [ -4.1339, 40.3371 ], [ -4.1338, 40.3373 ], [ -4.1346, 40.3381 ], [ -4.1345, 40.3383 ], [ -4.1356, 40.3392 ], [ -4.1357, 40.3397 ], [ -4.1372, 40.3409 ], [ -4.1377, 40.342 ], [ -4.1372, 40.3429 ], [ -4.1362, 40.3437 ], [ -4.1358, 40.345 ], [ -4.1347, 40.3458 ], [ -4.1345, 40.3462 ], [ -4.1336, 40.3469 ], [ -4.1329, 40.3473 ], [ -4.1323, 40.347 ], [ -4.1311, 40.3467 ], [ -4.1306, 40.3461 ], [ -4.1305, 40.3458 ], [ -4.1299, 40.3472 ], [ -4.1294, 40.3477 ], [ -4.1293, 40.3482 ], [ -4.1286, 40.3489 ], [ -4.1279, 40.3491 ], [ -4.1272, 40.3491 ], [ -4.1263, 40.3489 ], [ -4.1253, 40.3484 ], [ -4.1237, 40.348 ], [ -4.1221, 40.3483 ], [ -4.1217, 40.3491 ], [ -4.1195, 40.3487 ], [ -4.1197, 40.3485 ], [ -4.1205, 40.3484 ], [ -4.1206, 40.3482 ], [ -4.1201, 40.3478 ], [ -4.12, 40.3472 ], [ -4.1187, 40.3462 ], [ -4.1186, 40.3458 ], [ -4.1175, 40.3456 ], [ -4.1152, 40.3484 ], [ -4.117, 40.3487 ], [ -4.1184, 40.3486 ], [ -4.1185, 40.3487 ], [ -4.1185, 40.3492 ], [ -4.1179, 40.35 ], [ -4.1179, 40.3506 ], [ -4.1176, 40.3509 ], [ -4.118, 40.3522 ], [ -4.1173, 40.3535 ], [ -4.1173, 40.3539 ], [ -4.1171, 40.3542 ], [ -4.1164, 40.3546 ], [ -4.1164, 40.3549 ], [ -4.1167, 40.3553 ], [ -4.1167, 40.3557 ], [ -4.1189, 40.3567 ], [ -4.119, 40.3577 ], [ -4.1192, 40.3579 ], [ -4.1195, 40.3588 ], [ -4.1193, 40.3593 ], [ -4.1193, 40.3597 ], [ -4.1191, 40.36 ], [ -4.1192, 40.3601 ], [ -4.1191, 40.3605 ], [ -4.1186, 40.3615 ], [ -4.1186, 40.3618 ], [ -4.1189, 40.3623 ], [ -4.1189, 40.3638 ], [ -4.1191, 40.364 ], [ -4.1195, 40.3641 ], [ -4.1204, 40.3632 ], [ -4.1216, 40.363 ], [ -4.1221, 40.3631 ], [ -4.1227, 40.3641 ], [ -4.1226, 40.3645 ], [ -4.1241, 40.3648 ], [ -4.1245, 40.365 ], [ -4.1254, 40.3651 ], [ -4.126, 40.3656 ], [ -4.128, 40.3661 ], [ -4.129, 40.3666 ], [ -4.1323, 40.3668 ], [ -4.1333, 40.3671 ], [ -4.1338, 40.3674 ] ], [ [ -4.1367, 40.3565 ], [ -4.1366, 40.355 ], [ -4.134, 40.354 ], [ -4.1321, 40.353 ], [ -4.1315, 40.3525 ], [ -4.1304, 40.3522 ], [ -4.1296, 40.3523 ], [ -4.1289, 40.352 ], [ -4.1286, 40.352 ], [ -4.1287, 40.3512 ], [ -4.1285, 40.3507 ], [ -4.1301, 40.3516 ], [ -4.1314, 40.3518 ], [ -4.1327, 40.3515 ], [ -4.1335, 40.3517 ], [ -4.135, 40.3524 ], [ -4.1352, 40.3528 ], [ -4.1361, 40.3534 ], [ -4.1359, 40.3536 ], [ -4.136, 40.3537 ], [ -4.1367, 40.3538 ], [ -4.1373, 40.3541 ], [ -4.1375, 40.3544 ], [ -4.1379, 40.3545 ], [ -4.138, 40.3548 ], [ -4.1379, 40.3553 ], [ -4.1387, 40.3562 ], [ -4.138, 40.3566 ], [ -4.1376, 40.3563 ], [ -4.1369, 40.3567 ], [ -4.1367, 40.3565 ] ] ] } },
{ "type": "Feature", "properties": { "municipio": "Villamantilla", "clasificacion": "no-urbanizable-protegido", "calificacion": "sin-asignar", "version": "vigente", "fuente": "SIT-CAM WFS — UsoDelSuelo:VPLA_V_CLASIFICACION (https://idem.comunidad.madrid/geosrvg/ows)", "fecha_dato": "2026-05-12", "ambito": "32427", "_raw_CD_SIGLAS": "SNUP", "_raw_DS_CLASIF_GEN": "Suelo No Urbanizable Protegido", "_raw_DS_CLASIF_DET": "Suelo No Urbanizable Protegido Clase II Espacios Forestales en Régimen Especial y Clase I.1 ZEPA", "_raw_DS_DOCU": "NORMAS SUBSIDIARIAS", "_raw_DS_LEY": "CM Ley 9/1995, E RDL 1/1992", "_raw_FC_AC": "1997-04-01", "_raw_NM_AREA_M2": 134984.95965678699, "_cam_code": "175" }, "geometry": { "type": "Polygon", "coordinates": [ [ [ -4.1367, 40.3565 ], [ -4.1369, 40.3567 ], [ -4.1376, 40.3563 ], [ -4.138, 40.3566 ], [ -4.1387, 40.3562 ], [ -4.1379, 40.3553 ], [ -4.138, 40.3548 ], [ -4.1379, 40.3545 ], [ -4.1375, 40.3544 ], [ -4.1373, 40.3541 ], [ -4.1367, 40.3538 ], [ -4.136, 40.3537 ], [ -4.1359, 40.3536 ], [ -4.1361, 40.3534 ], [ -4.1352, 40.3528 ], [ -4.135, 40.3524 ], [ -4.1335, 40.3517 ], [ -4.1327, 40.3515 ], [ -4.1314, 40.3518 ], [ -4.1301, 40.3516 ], [ -4.1285, 40.3507 ], [ -4.1287, 40.3512 ], [ -4.1286, 40.352 ], [ -4.1289, 40.352 ], [ -4.1296, 40.3523 ], [ -4.1304, 40.3522 ], [ -4.1315, 40.3525 ], [ -4.1321, 40.353 ], [ -4.134, 40.354 ], [ -4.1366, 40.355 ], [ -4.1367, 40.3565 ] ] ] } },
{ "type": "Feature", "properties": { "municipio": "Villamantilla", "clasificacion": "no-urbanizable-protegido", "calificacion": "sin-asignar", "version": "vigente", "fuente": "SIT-CAM WFS — UsoDelSuelo:VPLA_V_CLASIFICACION (https://idem.comunidad.madrid/geosrvg/ows)", "fecha_dato": "2026-05-12", "ambito": "32427", "_raw_CD_SIGLAS": "SNUP", "_raw_DS_CLASIF_GEN": "Suelo No Urbanizable Protegido", "_raw_DS_CLASIF_DET": "Suelo No Urbanizable Protegido Clase II Espacios Forestales en Régimen Especial y Clase I.1 ZEPA", "_raw_DS_DOCU": "NORMAS SUBSIDIARIAS", "_raw_DS_LEY": "CM Ley 9/1995, E RDL 1/1992", "_raw_FC_AC": "1997-04-01", "_raw_NM_AREA_M2": 6892161.5839752797, "_cam_code": "175" }, "geometry": { "type": "Polygon", "coordinates": [ [ [ -4.1448, 40.3307 ], [ -4.1447, 40.3317 ], [ -4.1444, 40.3323 ], [ -4.1446, 40.3335 ], [ -4.1445, 40.3345 ], [ -4.1446, 40.3358 ], [ -4.145, 40.3371 ], [ -4.1472, 40.3407 ], [ -4.1467, 40.3412 ], [ -4.1439, 40.3412 ], [ -4.1432, 40.3408 ], [ -4.1416, 40.3394 ], [ -4.1393, 40.339 ], [ -4.1391, 40.3394 ], [ -4.1388, 40.3395 ], [ -4.1391, 40.3398 ], [ -4.1397, 40.3399 ], [ -4.1405, 40.3398 ], [ -4.1412, 40.3403 ], [ -4.1413, 40.3415 ], [ -4.1409, 40.3426 ], [ -4.1404, 40.3426 ], [ -4.1398, 40.3424 ], [ -4.1392, 40.3424 ], [ -4.1387, 40.3426 ], [ -4.1388, 40.3431 ], [ -4.1397, 40.3433 ], [ -4.1402, 40.3438 ], [ -4.1398, 40.344 ], [ -4.1391, 40.3439 ], [ -4.1389, 40.3441 ], [ -4.1391, 40.3444 ], [ -4.139, 40.3447 ], [ -4.1383, 40.3448 ], [ -4.1378, 40.3456 ], [ -4.1371, 40.346 ], [ -4.1366, 40.346 ], [ -4.1366, 40.3464 ], [ -4.1356, 40.3465 ], [ -4.1354, 40.3468 ], [ -4.1349, 40.3469 ], [ -4.1344, 40.3472 ], [ -4.1361, 40.3471 ], [ -4.1379, 40.3462 ], [ -4.1387, 40.3463 ], [ -4.1394, 40.3458 ], [ -4.1402, 40.347 ], [ -4.1416, 40.3479 ], [ -4.1416, 40.3485 ], [ -4.141, 40.3495 ], [ -4.1402, 40.3492 ], [ -4.1396, 40.3499 ], [ -4.14, 40.3503 ], [ -4.1402, 40.3514 ], [ -4.1412, 40.3514 ], [ -4.1412, 40.3517 ], [ -4.1414, 40.3521 ], [ -4.1423, 40.3524 ], [ -4.1427, 40.3528 ], [ -4.1428, 40.3532 ], [ -4.1448, 40.3542 ], [ -4.1473, 40.3566 ], [ -4.1472, 40.3574 ], [ -4.148, 40.3573 ], [ -4.1492, 40.3561 ], [ -4.1499, 40.3556 ], [ -4.1495, 40.3547 ], [ -4.1504, 40.3549 ], [ -4.1506, 40.3547 ], [ -4.1558, 40.3536 ], [ -4.1551, 40.3529 ], [ -4.1559, 40.3526 ], [ -4.1559, 40.353 ], [ -4.1562, 40.3534 ], [ -4.1566, 40.3536 ], [ -4.1573, 40.3534 ], [ -4.1577, 40.353 ], [ -4.158, 40.3532 ], [ -4.1605, 40.353 ], [ -4.1645, 40.3521 ], [ -4.1663, 40.3515 ], [ -4.1686, 40.3513 ], [ -4.1689, 40.3503 ], [ -4.1693, 40.3507 ], [ -4.1692, 40.351 ], [ -4.1695, 40.3513 ], [ -4.1726, 40.3513 ], [ -4.1733, 40.3517 ], [ -4.174, 40.3527 ], [ -4.1754, 40.352 ], [ -4.1771, 40.3515 ], [ -4.1779, 40.3514 ], [ -4.179, 40.3515 ], [ -4.1812, 40.3512 ], [ -4.1823, 40.3486 ], [ -4.1825, 40.3453 ], [ -4.1816, 40.3439 ], [ -4.1813, 40.3426 ], [ -4.1812, 40.3407 ], [ -4.1808, 40.3392 ], [ -4.18, 40.3386 ], [ -4.1791, 40.3385 ], [ -4.1782, 40.3387 ], [ -4.1765, 40.3385 ], [ -4.1754, 40.3379 ], [ -4.1753, 40.3375 ], [ -4.1754, 40.3372 ], [ -4.1747, 40.3374 ], [ -4.1736, 40.3372 ], [ -4.1726, 40.3375 ], [ -4.1715, 40.3375 ], [ -4.1684, 40.3359 ], [ -4.168, 40.3365 ], [ -4.1656, 40.3373 ], [ -4.1596, 40.338 ], [ -4.1591, 40.3379 ], [ -4.1587, 40.3376 ], [ -4.1587, 40.337 ], [ -4.1589, 40.3362 ], [ -4.1592, 40.3358 ], [ -4.1591, 40.3346 ], [ -4.1589, 40.3342 ], [ -4.1591, 40.3338 ], [ -4.1591, 40.3334 ], [ -4.1582, 40.3323 ], [ -4.158, 40.3307 ], [ -4.1576, 40.3295 ], [ -4.1576, 40.3291 ], [ -4.1585, 40.3284 ], [ -4.159, 40.3277 ], [ -4.1593, 40.3269 ], [ -4.1588, 40.3267 ], [ -4.1578, 40.3267 ], [ -4.1563, 40.3274 ], [ -4.1547, 40.3273 ], [ -4.1534, 40.3275 ], [ -4.1537, 40.3284 ], [ -4.1534, 40.3286 ], [ -4.1532, 40.329 ], [ -4.1533, 40.3293 ], [ -4.1528, 40.33 ], [ -4.1531, 40.3312 ], [ -4.1524, 40.3332 ], [ -4.1504, 40.3336 ], [ -4.1477, 40.3336 ], [ -4.1483, 40.3318 ], [ -4.1478, 40.3305 ], [ -4.1479, 40.3298 ], [ -4.1478, 40.329 ], [ -4.148, 40.3284 ], [ -4.1485, 40.3281 ], [ -4.1484, 40.328 ], [ -4.1479, 40.328 ], [ -4.1473, 40.3274 ], [ -4.1474, 40.326 ], [ -4.1464, 40.3256 ], [ -4.1455, 40.3285 ], [ -4.1462, 40.3297 ], [ -4.1464, 40.3298 ], [ -4.1448, 40.3307 ] ] ] } },
{ "type": "Feature", "properties": { "municipio": "Villamantilla", "clasificacion": "no-urbanizable-protegido", "calificacion": "sin-asignar", "version": "vigente", "fuente": "SIT-CAM WFS — UsoDelSuelo:VPLA_V_CLASIFICACION (https://idem.comunidad.madrid/geosrvg/ows)", "fecha_dato": "2026-05-12", "ambito": "32427", "_raw_CD_SIGLAS": "SNUP", "_raw_DS_CLASIF_GEN": "Suelo No Urbanizable Protegido", "_raw_DS_CLASIF_DET": "Suelo No Urbanizable Protegido Clase III Espacios de Interés Agropecuario Extensivo y Clase I.1 ZEPA", "_raw_DS_DOCU": "NORMAS SUBSIDIARIAS", "_raw_DS_LEY": "CM Ley 9/1995, E RDL 1/1992", "_raw_FC_AC": "1997-04-01", "_raw_NM_AREA_M2": 314518.80411191197, "_cam_code": "175" }, "geometry": { "type": "Polygon", "coordinates": [ [ [ -4.1474, 40.326 ], [ -4.1473, 40.3274 ], [ -4.1479, 40.328 ], [ -4.1484, 40.328 ], [ -4.1485, 40.3281 ], [ -4.148, 40.3284 ], [ -4.1478, 40.329 ], [ -4.1479, 40.3298 ], [ -4.1478, 40.3305 ], [ -4.1483, 40.3318 ], [ -4.1477, 40.3336 ], [ -4.1504, 40.3336 ], [ -4.1524, 40.3332 ], [ -4.1531, 40.3312 ], [ -4.1528, 40.33 ], [ -4.1533, 40.3293 ], [ -4.1532, 40.329 ], [ -4.1534, 40.3286 ], [ -4.1537, 40.3284 ], [ -4.1534, 40.3275 ], [ -4.1527, 40.3276 ], [ -4.1499, 40.3272 ], [ -4.149, 40.3269 ], [ -4.1481, 40.3262 ], [ -4.1474, 40.326 ] ] ] } },
{ "type": "Feature", "properties": { "municipio": "Villamantilla", "clasificacion": "no-urbanizable-protegido", "calificacion": "sin-asignar", "version": "vigente", "fuente": "SIT-CAM WFS — UsoDelSuelo:VPLA_V_CLASIFICACION (https://idem.comunidad.madrid/geosrvg/ows)", "fecha_dato": "2026-05-12", "ambito": "32427", "_raw_CD_SIGLAS": "SNUP", "_raw_DS_CLASIF_GEN": "Suelo No Urbanizable Protegido", "_raw_DS_CLASIF_DET": "Suelo No Urbanizable Protegido Clase II Espacios Forestales en Régimen Especial y Clase I.1 ZEPA", "_raw_DS_DOCU": "NORMAS SUBSIDIARIAS", "_raw_DS_LEY": "CM Ley 9/1995, E RDL 1/1992", "_raw_FC_AC": "1997-04-01", "_raw_NM_AREA_M2": 3654677.15345961, "_cam_code": "175" }, "geometry": { "type": "Polygon", "coordinates": [ [ [ -4.1187, 40.3415 ], [ -4.119, 40.3425 ], [ -4.1196, 40.3425 ], [ -4.1198, 40.3424 ], [ -4.1199, 40.342 ], [ -4.1208, 40.3415 ], [ -4.1225, 40.3409 ], [ -4.123, 40.3404 ], [ -4.1231, 40.3397 ], [ -4.1239, 40.3394 ], [ -4.1241, 40.3391 ], [ -4.1239, 40.3387 ], [ -4.1234, 40.3383 ], [ -4.1235, 40.3378 ], [ -4.1243, 40.3378 ], [ -4.1247, 40.338 ], [ -4.1251, 40.338 ], [ -4.1251, 40.3377 ], [ -4.1249, 40.3375 ], [ -4.125, 40.3372 ], [ -4.1253, 40.3372 ], [ -4.1256, 40.337 ], [ -4.1252, 40.3368 ], [ -4.1244, 40.3372 ], [ -4.1225, 40.3376 ], [ -4.1219, 40.338 ], [ -4.1201, 40.3383 ], [ -4.1198, 40.338 ], [ -4.1197, 40.3375 ], [ -4.1203, 40.3366 ], [ -4.1206, 40.3364 ], [ -4.1211, 40.3363 ], [ -4.1216, 40.3365 ], [ -4.1218, 40.3362 ], [ -4.124, 40.3363 ], [ -4.1247, 40.3358 ], [ -4.125, 40.3358 ], [ -4.1258, 40.3365 ], [ -4.1261, 40.3366 ], [ -4.1273, 40.3368 ], [ -4.1276, 40.3367 ], [ -4.1277, 40.3365 ], [ -4.1273, 40.3362 ], [ -4.1262, 40.3359 ], [ -4.1244, 40.335 ], [ -4.1222, 40.3341 ], [ -4.1197, 40.334 ], [ -4.1193, 40.3337 ], [ -4.1186, 40.334 ], [ -4.1182, 40.3337 ], [ -4.1185, 40.3335 ], [ -4.1185, 40.3332 ], [ -4.1177, 40.3329 ], [ -4.1178, 40.3325 ], [ -4.1185, 40.3329 ], [ -4.1199, 40.333 ], [ -4.1219, 40.3329 ], [ -4.124, 40.3336 ], [ -4.1247, 40.334 ], [ -4.1268, 40.3346 ], [ -4.1275, 40.3345 ], [ -4.1282, 40.3341 ], [ -4.1278, 40.3332 ], [ -4.1275, 40.3318 ], [ -4.1282, 40.3318 ], [ -4.1282, 40.3321 ], [ -4.1285, 40.3325 ], [ -4.129, 40.333 ], [ -4.1296, 40.3333 ], [ -4.1303, 40.3332 ], [ -4.1315, 40.3337 ], [ -4.1321, 40.3337 ], [ -4.1327, 40.3332 ], [ -4.1328, 40.3325 ], [ -4.133, 40.3321 ], [ -4.1338, 40.3319 ], [ -4.135, 40.3323 ], [ -4.1356, 40.3329 ], [ -4.1359, 40.3338 ], [ -4.1359, 40.3346 ], [ -4.1374, 40.3339 ], [ -4.1385, 40.3331 ], [ -4.1396, 40.3313 ], [ -4.1413, 40.3309 ], [ -4.1422, 40.3305 ], [ -4.1421, 40.3312 ], [ -4.1438, 40.3313 ], [ -4.1464, 40.3298 ], [ -4.1462, 40.3297 ], [ -4.1455, 40.3285 ], [ -4.1464, 40.3256 ], [ -4.1461, 40.3254 ], [ -4.146, 40.3239 ], [ -4.1457, 40.324 ], [ -4.1457, 40.3239 ], [ -4.1454, 40.3239 ], [ -4.145, 40.3237 ], [ -4.1441, 40.3237 ], [ -4.1435, 40.3228 ], [ -4.1428, 40.3226 ], [ -4.1414, 40.3232 ], [ -4.1407, 40.3232 ], [ -4.1392, 40.3222 ], [ -4.1387, 40.3221 ], [ -4.1365, 40.3226 ], [ -4.1355, 40.3235 ], [ -4.1347, 40.324 ], [ -4.1324, 40.3248 ], [ -4.1312, 40.3248 ], [ -4.1298, 40.3242 ], [ -4.1287, 40.3241 ], [ -4.1287, 40.324 ], [ -4.1283, 40.3239 ], [ -4.128, 40.3236 ], [ -4.128, 40.3233 ], [ -4.1277, 40.3229 ], [ -4.1276, 40.322 ], [ -4.1273, 40.3217 ], [ -4.1265, 40.3216 ], [ -4.1252, 40.3221 ], [ -4.1242, 40.322 ], [ -4.1235, 40.3217 ], [ -4.1228, 40.3217 ], [ -4.1223, 40.3221 ], [ -4.1221, 40.323 ], [ -4.1219, 40.3231 ], [ -4.1217, 40.3239 ], [ -4.1214, 40.3244 ], [ -4.1207, 40.3244 ], [ -4.1206, 40.3243 ], [ -4.12, 40.3245 ], [ -4.1195, 40.3249 ], [ -4.1193, 40.3254 ], [ -4.119, 40.3257 ], [ -4.118, 40.3264 ], [ -4.1169, 40.3265 ], [ -4.1163, 40.3267 ], [ -4.1149, 40.328 ], [ -4.1131, 40.3279 ], [ -4.1125, 40.3283 ], [ -4.1115, 40.3284 ], [ -4.1112, 40.3287 ], [ -4.1112, 40.329 ], [ -4.1116, 40.33 ], [ -4.1116, 40.3303 ], [ -4.1112, 40.3308 ], [ -4.1107, 40.3312 ], [ -4.1096, 40.3316 ], [ -4.1091, 40.3316 ], [ -4.1089, 40.3314 ], [ -4.108, 40.3314 ], [ -4.1076, 40.3316 ], [ -4.1076, 40.3338 ], [ -4.1085, 40.3352 ], [ -4.1107, 40.337 ], [ -4.1118, 40.3382 ], [ -4.1125, 40.3384 ], [ -4.1131, 40.3384 ], [ -4.1137, 40.3381 ], [ -4.1164, 40.3386 ], [ -4.1191, 40.3376 ], [ -4.1187, 40.3382 ], [ -4.1187, 40.3385 ], [ -4.119, 40.3392 ], [ -4.119, 40.3396 ], [ -4.1183, 40.3409 ], [ -4.1187, 40.3415 ] ] ] } },
{ "type": "Feature", "properties": { "municipio": "Villamantilla", "clasificacion": "no-urbanizable-protegido", "calificacion": "sin-asignar", "version": "vigente", "fuente": "SIT-CAM WFS — UsoDelSuelo:VPLA_V_CLASIFICACION (https://idem.comunidad.madrid/geosrvg/ows)", "fecha_dato": "2026-05-12", "ambito": "32427", "_raw_CD_SIGLAS": "SNUP", "_raw_DS_CLASIF_GEN": "Suelo No Urbanizable Protegido", "_raw_DS_CLASIF_DET": "Suelo No Urbanizable Protegido Clase III Espacios de Interés Agropecuario Extensivo y Clase I.1 ZEPA", "_raw_DS_DOCU": "NORMAS SUBSIDIARIAS", "_raw_DS_LEY": "CM Ley 9/1995, E RDL 1/1992", "_raw_FC_AC": "1997-04-01", "_raw_NM_AREA_M2": 857471.29045334202, "_cam_code": "175" }, "geometry": { "type": "Polygon", "coordinates": [ [ [ -4.1099, 40.3445 ], [ -4.1112, 40.3443 ], [ -4.1121, 40.3439 ], [ -4.1175, 40.3425 ], [ -4.1188, 40.3419 ], [ -4.1187, 40.3415 ], [ -4.1183, 40.3409 ], [ -4.119, 40.3396 ], [ -4.119, 40.3392 ], [ -4.1187, 40.3385 ], [ -4.1187, 40.3382 ], [ -4.1191, 40.3376 ], [ -4.1164, 40.3386 ], [ -4.1137, 40.3381 ], [ -4.1131, 40.3384 ], [ -4.1125, 40.3384 ], [ -4.1118, 40.3382 ], [ -4.1107, 40.337 ], [ -4.1085, 40.3352 ], [ -4.1076, 40.3338 ], [ -4.1067, 40.3343 ], [ -4.1047, 40.3344 ], [ -4.1047, 40.3345 ], [ -4.104, 40.3347 ], [ -4.1034, 40.3355 ], [ -4.1029, 40.3359 ], [ -4.1059, 40.3386 ], [ -4.1053, 40.3411 ], [ -4.1081, 40.3445 ], [ -4.1099, 40.3445 ] ] ] } },
{ "type": "Feature", "properties": { "municipio": "Villamantilla", "clasificacion": "no-urbanizable-protegido", "calificacion": "sin-asignar", "version": "vigente", "fuente": "SIT-CAM WFS — UsoDelSuelo:VPLA_V_CLASIFICACION (https://idem.comunidad.madrid/geosrvg/ows)", "fecha_dato": "2026-05-12", "ambito": "32427", "_raw_CD_SIGLAS": "SNUP", "_raw_DS_CLASIF_GEN": "Suelo No Urbanizable Protegido", "_raw_DS_CLASIF_DET": "Suelo No Urbanizable Protegido Clase I.1 ZEPA", "_raw_DS_DOCU": "NORMAS SUBSIDIARIAS", "_raw_DS_LEY": "CM Ley 9/1995, E RDL 1/1992", "_raw_FC_AC": "1997-04-01", "_raw_NM_AREA_M2": 1027640.45012143, "_cam_code": "175" }, "geometry": { "type": "Polygon", "coordinates": [ [ [ -4.1206, 40.3482 ], [ -4.1205, 40.3484 ], [ -4.1197, 40.3485 ], [ -4.1195, 40.3487 ], [ -4.1217, 40.3491 ], [ -4.1221, 40.3483 ], [ -4.1237, 40.348 ], [ -4.1253, 40.3484 ], [ -4.1261, 40.3488 ], [ -4.1264, 40.3471 ], [ -4.1268, 40.3466 ], [ -4.1268, 40.3461 ], [ -4.1269, 40.346 ], [ -4.1269, 40.3452 ], [ -4.1267, 40.3451 ], [ -4.1265, 40.3445 ], [ -4.1262, 40.3444 ], [ -4.1274, 40.3429 ], [ -4.1277, 40.3427 ], [ -4.1276, 40.3424 ], [ -4.1277, 40.3416 ], [ -4.1279, 40.3413 ], [ -4.1279, 40.3407 ], [ -4.128, 40.3406 ], [ -4.1269, 40.3408 ], [ -4.1265, 40.3406 ], [ -4.1257, 40.3396 ], [ -4.1267, 40.3392 ], [ -4.1279, 40.339 ], [ -4.128, 40.3388 ], [ -4.1284, 40.3388 ], [ -4.1284, 40.3389 ], [ -4.1287, 40.3388 ], [ -4.1288, 40.3386 ], [ -4.1281, 40.3371 ], [ -4.1275, 40.3369 ], [ -4.1267, 40.3372 ], [ -4.1256, 40.337 ], [ -4.1253, 40.3372 ], [ -4.125, 40.3372 ], [ -4.1249, 40.3375 ], [ -4.1251, 40.3377 ], [ -4.1251, 40.338 ], [ -4.1247, 40.338 ], [ -4.1243, 40.3378 ], [ -4.1235, 40.3378 ], [ -4.1234, 40.3383 ], [ -4.1239, 40.3387 ], [ -4.1241, 40.3391 ], [ -4.124, 40.3393 ], [ -4.1231, 40.3397 ], [ -4.123, 40.3404 ], [ -4.1225, 40.3409 ], [ -4.1208, 40.3415 ], [ -4.1199, 40.342 ], [ -4.1198, 40.3424 ], [ -4.1196, 40.3425 ], [ -4.119, 40.3425 ], [ -4.1188, 40.3419 ], [ -4.1175, 40.3425 ], [ -4.1102, 40.3445 ], [ -4.1095, 40.347 ], [ -4.1095, 40.3471 ], [ -4.1104, 40.3475 ], [ -4.1116, 40.3489 ], [ -4.1152, 40.3484 ], [ -4.1175, 40.3456 ], [ -4.1186, 40.3458 ], [ -4.1187, 40.3462 ], [ -4.12, 40.3472 ], [ -4.1201, 40.3478 ], [ -4.1206, 40.3482 ] ] ] } },
{ "type": "Feature", "properties": { "municipio": "Villamantilla", "clasificacion": "urbanizable-sectorizado", "calificacion": "sin-asignar", "version": "vigente", "fuente": "SIT-CAM WFS — UsoDelSuelo:VPLA_V_CLASIFICACION (https://idem.comunidad.madrid/geosrvg/ows)", "fecha_dato": "2026-05-12", "ambito": "32427", "_raw_CD_SIGLAS": "SUBS", "_raw_DS_CLASIF_GEN": "Suelo Apto Para Urbanizar", "_raw_DS_CLASIF_DET": "Suelo Apto para Urbanizar y Suelo No Urbanizable Protegido Clase I.1 ZEPA", "_raw_DS_DOCU": "NORMAS SUBSIDIARIAS", "_raw_DS_LEY": "CM Ley 9/1995, E RDL 1/1992", "_raw_FC_AC": "1997-04-01", "_raw_NM_AREA_M2": 101153.743175294, "_cam_code": "175" }, "geometry": { "type": "Polygon", "coordinates": [ [ [ -4.1261, 40.3488 ], [ -4.1272, 40.3491 ], [ -4.1279, 40.3491 ], [ -4.1286, 40.3489 ], [ -4.1293, 40.3482 ], [ -4.1294, 40.3477 ], [ -4.1299, 40.3472 ], [ -4.13, 40.3468 ], [ -4.1283, 40.3466 ], [ -4.1291, 40.3456 ], [ -4.1277, 40.3449 ], [ -4.1277, 40.3448 ], [ -4.1265, 40.3443 ], [ -4.1265, 40.3442 ], [ -4.1262, 40.3444 ], [ -4.1265, 40.3445 ], [ -4.1267, 40.3451 ], [ -4.1269, 40.3452 ], [ -4.1269, 40.346 ], [ -4.1268, 40.3461 ], [ -4.1268, 40.3466 ], [ -4.1264, 40.3471 ], [ -4.1261, 40.3488 ] ] ] } },
{ "type": "Feature", "properties": { "municipio": "Villamantilla", "clasificacion": "urbanizable-sectorizado", "calificacion": "sin-asignar", "version": "vigente", "fuente": "SIT-CAM WFS — UsoDelSuelo:VPLA_V_CLASIFICACION (https://idem.comunidad.madrid/geosrvg/ows)", "fecha_dato": "2026-05-12", "ambito": "32427", "_raw_CD_SIGLAS": "SUBS", "_raw_DS_CLASIF_GEN": "Suelo Apto Para Urbanizar", "_raw_DS_CLASIF_DET": "Suelo Apto para Urbanizar y Suelo No Urbanizable Protegido Clase I.1 ZEPA", "_raw_DS_DOCU": "NORMAS SUBSIDIARIAS", "_raw_DS_LEY": "CM Ley 9/1995, E RDL 1/1992", "_raw_FC_AC": "1997-04-01", "_raw_NM_AREA_M2": 285339.02742853097, "_cam_code": "175" }, "geometry": { "type": "Polygon", "coordinates": [ [ [ -4.1304, 40.3452 ], [ -4.1305, 40.3452 ], [ -4.1305, 40.3454 ], [ -4.1304, 40.3458 ], [ -4.1303, 40.3458 ], [ -4.1306, 40.3459 ], [ -4.1306, 40.3461 ], [ -4.1311, 40.3467 ], [ -4.1323, 40.347 ], [ -4.1329, 40.3473 ], [ -4.1342, 40.3465 ], [ -4.1347, 40.3458 ], [ -4.1358, 40.345 ], [ -4.136, 40.3441 ], [ -4.1362, 40.3439 ], [ -4.1362, 40.3437 ], [ -4.1363, 40.3437 ], [ -4.1362, 40.3432 ], [ -4.1363, 40.3414 ], [ -4.136, 40.3407 ], [ -4.1349, 40.3397 ], [ -4.1348, 40.3393 ], [ -4.134, 40.3384 ], [ -4.1339, 40.338 ], [ -4.1338, 40.3398 ], [ -4.1336, 40.34 ], [ -4.1336, 40.3403 ], [ -4.1333, 40.3404 ], [ -4.1329, 40.3401 ], [ -4.1326, 40.3404 ], [ -4.1325, 40.3403 ], [ -4.1322, 40.3404 ], [ -4.1323, 40.3406 ], [ -4.1316, 40.3408 ], [ -4.1316, 40.3423 ], [ -4.1321, 40.3426 ], [ -4.1319, 40.343 ], [ -4.1326, 40.3431 ], [ -4.1326, 40.3432 ], [ -4.1325, 40.3434 ], [ -4.1319, 40.3433 ], [ -4.1318, 40.3434 ], [ -4.1317, 40.3446 ], [ -4.1314, 40.3447 ], [ -4.1312, 40.3452 ], [ -4.131, 40.3452 ], [ -4.1308, 40.3449 ], [ -4.1305, 40.345 ], [ -4.1304, 40.3452 ] ] ] } },
{ "type": "Feature", "properties": { "municipio": "Villamantilla", "clasificacion": "urbano-consolidado", "calificacion": "sin-asignar", "version": "vigente", "fuente": "SIT-CAM WFS — UsoDelSuelo:VPLA_V_CLASIFICACION (https://idem.comunidad.madrid/geosrvg/ows)", "fecha_dato": "2026-05-12", "ambito": "32427", "_raw_CD_SIGLAS": "SUC", "_raw_DS_CLASIF_GEN": "Suelo Urbano Consolidado", "_raw_DS_CLASIF_DET": "Suelo Urbano y Suelo No Urbanizable Protegido Clase I.1 ZEPA", "_raw_DS_DOCU": "NORMAS SUBSIDIARIAS", "_raw_DS_LEY": "CM Ley 9/1995, E RDL 1/1992", "_raw_FC_AC": "1997-04-01", "_raw_NM_AREA_M2": 322298.85913209501, "_cam_code": "175" }, "geometry": { "type": "Polygon", "coordinates": [ [ [ -4.1277, 40.3427 ], [ -4.1264, 40.3442 ], [ -4.1291, 40.3456 ], [ -4.1283, 40.3466 ], [ -4.13, 40.3468 ], [ -4.1305, 40.3458 ], [ -4.1304, 40.3458 ], [ -4.1303, 40.3458 ], [ -4.1304, 40.3458 ], [ -4.1305, 40.3454 ], [ -4.1304, 40.3451 ], [ -4.1308, 40.3449 ], [ -4.1312, 40.3432 ], [ -4.1325, 40.3434 ], [ -4.1326, 40.3432 ], [ -4.1326, 40.3431 ], [ -4.1319, 40.343 ], [ -4.1321, 40.3426 ], [ -4.1316, 40.3423 ], [ -4.1313, 40.3425 ], [ -4.1312, 40.3418 ], [ -4.1309, 40.341 ], [ -4.1311, 40.3399 ], [ -4.1313, 40.3397 ], [ -4.132, 40.3399 ], [ -4.1321, 40.3401 ], [ -4.1318, 40.3403 ], [ -4.1317, 40.3407 ], [ -4.1323, 40.3406 ], [ -4.1322, 40.3404 ], [ -4.1325, 40.3403 ], [ -4.1326, 40.3404 ], [ -4.1329, 40.3401 ], [ -4.1324, 40.34 ], [ -4.1325, 40.3398 ], [ -4.1324, 40.3398 ], [ -4.1322, 40.3394 ], [ -4.1327, 40.3393 ], [ -4.1326, 40.3388 ], [ -4.1331, 40.3386 ], [ -4.1333, 40.3388 ], [ -4.1335, 40.3386 ], [ -4.1339, 40.3386 ], [ -4.1339, 40.338 ], [ -4.134, 40.3383 ], [ -4.1343, 40.3384 ], [ -4.1345, 40.3384 ], [ -4.1346, 40.3382 ], [ -4.1341, 40.3381 ], [ -4.1341, 40.338 ], [ -4.1338, 40.3379 ], [ -4.133, 40.3378 ], [ -4.1331, 40.3371 ], [ -4.1327, 40.3373 ], [ -4.1324, 40.3373 ], [ -4.1314, 40.3363 ], [ -4.1309, 40.3366 ], [ -4.1298, 40.336 ], [ -4.1296, 40.3362 ], [ -4.1293, 40.336 ], [ -4.1292, 40.3362 ], [ -4.1287, 40.3364 ], [ -4.129, 40.337 ], [ -4.1298, 40.3374 ], [ -4.1292, 40.3374 ], [ -4.129, 40.3376 ], [ -4.129, 40.3378 ], [ -4.1288, 40.3379 ], [ -4.1288, 40.3382 ], [ -4.129, 40.3384 ], [ -4.1287, 40.3388 ], [ -4.1286, 40.3389 ], [ -4.128, 40.3388 ], [ -4.1279, 40.339 ], [ -4.1286, 40.3389 ], [ -4.1284, 40.3394 ], [ -4.1287, 40.3395 ], [ -4.1296, 40.3391 ], [ -4.1299, 40.3397 ], [ -4.1304, 40.3402 ], [ -4.1304, 40.3402 ], [ -4.1304, 40.3402 ], [ -4.1304, 40.3402 ], [ -4.1304, 40.3403 ], [ -4.1304, 40.3404 ], [ -4.1304, 40.3405 ], [ -4.1301, 40.3402 ], [ -4.1299, 40.3404 ], [ -4.1297, 40.3402 ], [ -4.1289, 40.3407 ], [ -4.1289, 40.3408 ], [ -4.1282, 40.3404 ], [ -4.1282, 40.341 ], [ -4.1279, 40.341 ], [ -4.1279, 40.3413 ], [ -4.1277, 40.3416 ], [ -4.1277, 40.3422 ], [ -4.1276, 40.3423 ], [ -4.1277, 40.3427 ] ], [ [ -4.1315, 40.3387 ], [ -4.1314, 40.3387 ], [ -4.1318, 40.3388 ], [ -4.1318, 40.3389 ], [ -4.1317, 40.3388 ], [ -4.1312, 40.3388 ], [ -4.1311, 40.3384 ], [ -4.1312, 40.3383 ], [ -4.1313, 40.3384 ], [ -4.1314, 40.3382 ], [ -4.1317, 40.3382 ], [ -4.1317, 40.3384 ], [ -4.1315, 40.3384 ], [ -4.1315, 40.3387 ] ] ] } },
{ "type": "Feature", "properties": { "municipio": "Villamantilla", "clasificacion": "urbano-no-consolidado", "calificacion": "sin-asignar", "version": "vigente", "fuente": "SIT-CAM WFS — UsoDelSuelo:VPLA_V_CLASIFICACION (https://idem.comunidad.madrid/geosrvg/ows)", "fecha_dato": "2026-05-12", "ambito": "32427", "_raw_CD_SIGLAS": "SUNC", "_raw_DS_CLASIF_GEN": "Suelo Urbano No Consolidado", "_raw_DS_CLASIF_DET": "Suelo Urbano y Suelo No Urbanizable Protegido Clase I.1 ZEPA", "_raw_DS_DOCU": "NORMAS SUBSIDIARIAS", "_raw_DS_LEY": "CM Ley 9/1995, E RDL 1/1992", "_raw_FC_AC": "1997-04-01", "_raw_NM_AREA_M2": 12066.7796647589, "_cam_code": "175" }, "geometry": { "type": "Polygon", "coordinates": [ [ [ -4.1308, 40.3449 ], [ -4.131, 40.3452 ], [ -4.1312, 40.3452 ], [ -4.1314, 40.3447 ], [ -4.1317, 40.3446 ], [ -4.1317, 40.3438 ], [ -4.1319, 40.3433 ], [ -4.1312, 40.3432 ], [ -4.1308, 40.3449 ] ] ] } },
{ "type": "Feature", "properties": { "municipio": "Villamantilla", "clasificacion": "urbano-no-consolidado", "calificacion": "sin-asignar", "version": "vigente", "fuente": "SIT-CAM WFS — UsoDelSuelo:VPLA_V_CLASIFICACION (https://idem.comunidad.madrid/geosrvg/ows)", "fecha_dato": "2026-05-12", "ambito": "32427", "_raw_CD_SIGLAS": "SUNC", "_raw_DS_CLASIF_GEN": "Suelo Urbano No Consolidado", "_raw_DS_CLASIF_DET": "Suelo Urbano y Suelo No Urbanizable Protegido Clase I.1 ZEPA", "_raw_DS_DOCU": "NORMAS SUBSIDIARIAS", "_raw_DS_LEY": "CM Ley 9/1995, E RDL 1/1992", "_raw_FC_AC": "1997-04-01", "_raw_NM_AREA_M2": 15751.8277810009, "_cam_code": "175" }, "geometry": { "type": "Polygon", "coordinates": [ [ [ -4.1311, 40.3399 ], [ -4.1309, 40.341 ], [ -4.1312, 40.3418 ], [ -4.1313, 40.3425 ], [ -4.1316, 40.3423 ], [ -4.1316, 40.3408 ], [ -4.1317, 40.3405 ], [ -4.1321, 40.3401 ], [ -4.132, 40.3399 ], [ -4.1315, 40.3398 ], [ -4.1315, 40.3397 ], [ -4.1313, 40.3397 ], [ -4.1311, 40.3399 ] ] ] } },
{ "type": "Feature", "properties": { "municipio": "Villamantilla", "clasificacion": "urbano-no-consolidado", "calificacion": "sin-asignar", "version": "vigente", "fuente": "SIT-CAM WFS — UsoDelSuelo:VPLA_V_CLASIFICACION (https://idem.comunidad.madrid/geosrvg/ows)", "fecha_dato": "2026-05-12", "ambito": "32427", "_raw_CD_SIGLAS": "SUNC", "_raw_DS_CLASIF_GEN": "Suelo Urbano No Consolidado", "_raw_DS_CLASIF_DET": "Suelo Urbano y Suelo No Urbanizable Protegido Clase I.1 ZEPA", "_raw_DS_DOCU": "NORMAS SUBSIDIARIAS", "_raw_DS_LEY": "CM Ley 9/1995, E RDL 1/1992", "_raw_FC_AC": "1997-04-01", "_raw_NM_AREA_M2": 52765.558755425896, "_cam_code": "175" }, "geometry": { "type": "Polygon", "coordinates": [ [ [ -4.128, 40.3406 ], [ -4.1279, 40.341 ], [ -4.1282, 40.341 ], [ -4.1282, 40.3404 ], [ -4.1289, 40.3408 ], [ -4.1289, 40.3407 ], [ -4.1297, 40.3402 ], [ -4.1298, 40.3404 ], [ -4.1301, 40.3402 ], [ -4.1304, 40.3405 ], [ -4.1304, 40.3402 ], [ -4.1299, 40.3397 ], [ -4.1296, 40.3391 ], [ -4.1287, 40.3395 ], [ -4.1284, 40.3394 ], [ -4.1286, 40.3389 ], [ -4.1267, 40.3392 ], [ -4.1257, 40.3396 ], [ -4.1265, 40.3406 ], [ -4.1269, 40.3408 ], [ -4.128, 40.3406 ] ] ] } },
{ "type": "Feature", "properties": { "municipio": "Villamantilla", "clasificacion": "urbano-no-consolidado", "calificacion": "sin-asignar", "version": "vigente", "fuente": "SIT-CAM WFS — UsoDelSuelo:VPLA_V_CLASIFICACION (https://idem.comunidad.madrid/geosrvg/ows)", "fecha_dato": "2026-05-12", "ambito": "32427", "_raw_CD_SIGLAS": "SUNC", "_raw_DS_CLASIF_GEN": "Suelo Urbano No Consolidado", "_raw_DS_CLASIF_DET": "Suelo Urbano y Suelo No Urbanizable Protegido Clase I.1 ZEPA", "_raw_DS_DOCU": "NORMAS SUBSIDIARIAS", "_raw_DS_LEY": "CM Ley 9/1995, E RDL 1/1992", "_raw_FC_AC": "1997-04-01", "_raw_NM_AREA_M2": 18218.116085359299, "_cam_code": "175" }, "geometry": { "type": "Polygon", "coordinates": [ [ [ -4.1329, 40.3401 ], [ -4.1333, 40.3404 ], [ -4.1336, 40.3403 ], [ -4.1336, 40.34 ], [ -4.1338, 40.3398 ], [ -4.1338, 40.3387 ], [ -4.1339, 40.3386 ], [ -4.1335, 40.3386 ], [ -4.1333, 40.3388 ], [ -4.1331, 40.3386 ], [ -4.1326, 40.3388 ], [ -4.1327, 40.3393 ], [ -4.1322, 40.3394 ], [ -4.1324, 40.3398 ], [ -4.1325, 40.3398 ], [ -4.1324, 40.34 ], [ -4.1329, 40.3401 ] ] ] } },
{ "type": "Feature", "properties": { "municipio": "Villamantilla", "clasificacion": "urbano-no-consolidado", "calificacion": "sin-asignar", "version": "vigente", "fuente": "SIT-CAM WFS — UsoDelSuelo:VPLA_V_CLASIFICACION (https://idem.comunidad.madrid/geosrvg/ows)", "fecha_dato": "2026-05-12", "ambito": "32427", "_raw_CD_SIGLAS": "SUNC", "_raw_DS_CLASIF_GEN": "Suelo Urbano No Consolidado", "_raw_DS_CLASIF_DET": "Suelo Urbano y Suelo No Urbanizable Protegido Clase I.1 ZEPA", "_raw_DS_DOCU": "NORMAS SUBSIDIARIAS", "_raw_DS_LEY": "CM Ley 9/1995, E RDL 1/1992", "_raw_FC_AC": "1997-04-01", "_raw_NM_AREA_M2": 2326.1938794316202, "_cam_code": "175" }, "geometry": { "type": "Polygon", "coordinates": [ [ [ -4.1311, 40.3387 ], [ -4.1318, 40.3389 ], [ -4.1318, 40.3388 ], [ -4.1314, 40.3387 ], [ -4.1315, 40.3387 ], [ -4.1315, 40.3384 ], [ -4.1317, 40.3384 ], [ -4.1317, 40.3382 ], [ -4.1314, 40.3382 ], [ -4.1313, 40.3384 ], [ -4.1312, 40.3383 ], [ -4.1311, 40.3384 ], [ -4.1311, 40.3387 ] ] ] } },
{ "type": "Feature", "properties": { "municipio": "Villamantilla", "clasificacion": "urbano-no-consolidado", "calificacion": "sin-asignar", "version": "vigente", "fuente": "SIT-CAM WFS — UsoDelSuelo:VPLA_V_CLASIFICACION (https://idem.comunidad.madrid/geosrvg/ows)", "fecha_dato": "2026-05-12", "ambito": "32427", "_raw_CD_SIGLAS": "SUNC", "_raw_DS_CLASIF_GEN": "Suelo Urbano No Consolidado", "_raw_DS_CLASIF_DET": "Suelo Urbano y Suelo No Urbanizable Protegido Clase I.1 ZEPA", "_raw_DS_DOCU": "NORMAS SUBSIDIARIAS", "_raw_DS_LEY": "CM Ley 9/1995, E RDL 1/1992", "_raw_FC_AC": "1997-04-01", "_raw_NM_AREA_M2": 8143.2654979465096, "_cam_code": "175" }, "geometry": { "type": "Polygon", "coordinates": [ [ [ -4.1331, 40.3371 ], [ -4.133, 40.3378 ], [ -4.1338, 40.3379 ], [ -4.1341, 40.338 ], [ -4.1341, 40.3381 ], [ -4.1346, 40.3382 ], [ -4.1338, 40.3373 ], [ -4.1339, 40.3371 ], [ -4.1331, 40.3371 ] ] ] } }
]
}
