{
"type": "FeatureCollection",
"name": "vigente.full",
"features": [
{ "type": "Feature", "properties": { "municipio": "Anchuelo", "clasificacion": "no-urbanizable-protegido", "calificacion": "sin-asignar", "version": "vigente", "fuente": "SIT-CAM WFS — UsoDelSuelo:VPLA_V_CLASIFICACION (https://idem.comunidad.madrid/geosrvg/ows)", "fecha_dato": "2026-05-12", "ambito": "10736", "_raw_CD_SIGLAS": "SNUP", "_raw_DS_CLASIF_GEN": "Suelo No Urbanizable Protegido", "_raw_DS_CLASIF_DET": "Suelo No Urbanizable Protegido interés paisajístico o de vistas", "_raw_DS_DOCU": "NORMAS SUBSIDIARIAS", "_raw_DS_LEY": "E RD 1346/1976", "_raw_FC_AC": "1990-04-05", "_raw_NM_AREA_M2": 705328.69436973904, "_cam_code": "012" }, "geometry": { "type": "Polygon", "coordinates": [ [ [ -3.2714, 40.4656 ], [ -3.2719, 40.4657 ], [ -3.2729, 40.4654 ], [ -3.2744, 40.4637 ], [ -3.275, 40.4633 ], [ -3.2752, 40.4626 ], [ -3.2759, 40.4624 ], [ -3.276, 40.462 ], [ -3.2767, 40.4609 ], [ -3.2767, 40.4605 ], [ -3.2765, 40.46 ], [ -3.2761, 40.4595 ], [ -3.2762, 40.4592 ], [ -3.276, 40.4588 ], [ -3.2745, 40.458 ], [ -3.273, 40.4579 ], [ -3.2692, 40.4587 ], [ -3.267, 40.4588 ], [ -3.2646, 40.4593 ], [ -3.2619, 40.4601 ], [ -3.2612, 40.4608 ], [ -3.261, 40.4623 ], [ -3.2618, 40.4627 ], [ -3.2627, 40.4629 ], [ -3.2624, 40.4638 ], [ -3.2638, 40.4655 ], [ -3.2656, 40.4654 ], [ -3.2657, 40.4649 ], [ -3.2664, 40.4647 ], [ -3.2666, 40.465 ], [ -3.2669, 40.465 ], [ -3.2674, 40.4646 ], [ -3.2674, 40.4642 ], [ -3.2669, 40.4637 ], [ -3.2657, 40.4629 ], [ -3.2656, 40.4626 ], [ -3.266, 40.4621 ], [ -3.2662, 40.4616 ], [ -3.2662, 40.4611 ], [ -3.266, 40.4606 ], [ -3.2673, 40.4611 ], [ -3.2685, 40.4622 ], [ -3.2688, 40.4624 ], [ -3.2689, 40.4623 ], [ -3.2693, 40.4627 ], [ -3.2693, 40.463 ], [ -3.2695, 40.4633 ], [ -3.27, 40.4638 ], [ -3.2713, 40.4642 ], [ -3.2716, 40.4645 ], [ -3.2715, 40.4645 ], [ -3.2714, 40.465 ], [ -3.2712, 40.465 ], [ -3.2714, 40.4656 ] ] ] } },
{ "type": "Feature", "properties": { "municipio": "Anchuelo", "clasificacion": "no-urbanizable-protegido", "calificacion": "sin-asignar", "version": "vigente", "fuente": "SIT-CAM WFS — UsoDelSuelo:VPLA_V_CLASIFICACION (https://idem.comunidad.madrid/geosrvg/ows)", "fecha_dato": "2026-05-12", "ambito": "10736", "_raw_CD_SIGLAS": "SNUP", "_raw_DS_CLASIF_GEN": "Suelo No Urbanizable Protegido", "_raw_DS_CLASIF_DET": "Suelo No Urbanizable interés agrario o forestal", "_raw_DS_DOCU": "NORMAS SUBSIDIARIAS", "_raw_DS_LEY": "E RD 1346/1976", "_raw_FC_AC": "1990-04-05", "_raw_NM_AREA_M2": 40209.811864449402, "_cam_code": "012" }, "geometry": { "type": "Polygon", "coordinates": [ [ [ -3.2658, 40.463 ], [ -3.2667, 40.4634 ], [ -3.267, 40.463 ], [ -3.2675, 40.4632 ], [ -3.2679, 40.4625 ], [ -3.2683, 40.4622 ], [ -3.2688, 40.4624 ], [ -3.2681, 40.4619 ], [ -3.2673, 40.4611 ], [ -3.266, 40.4606 ], [ -3.2662, 40.4611 ], [ -3.2662, 40.4616 ], [ -3.266, 40.4621 ], [ -3.2656, 40.4626 ], [ -3.2658, 40.463 ] ] ] } },
{ "type": "Feature", "properties": { "municipio": "Anchuelo", "clasificacion": "no-urbanizable-protegido", "calificacion": "sin-asignar", "version": "vigente", "fuente": "SIT-CAM WFS — UsoDelSuelo:VPLA_V_CLASIFICACION (https://idem.comunidad.madrid/geosrvg/ows)", "fecha_dato": "2026-05-12", "ambito": "10736", "_raw_CD_SIGLAS": "SNUP", "_raw_DS_CLASIF_GEN": "Suelo No Urbanizable Protegido", "_raw_DS_CLASIF_DET": "Suelo No Urbanizable interés agrario o forestal", "_raw_DS_DOCU": "NORMAS SUBSIDIARIAS", "_raw_DS_LEY": "E RD 1346/1976", "_raw_FC_AC": "1990-04-05", "_raw_NM_AREA_M2": 2399617.9212631099, "_cam_code": "012" }, "geometry": { "type": "Polygon", "coordinates": [ [ [ -3.2814, 40.4738 ], [ -3.2822, 40.4746 ], [ -3.2837, 40.4744 ], [ -3.2839, 40.4736 ], [ -3.2841, 40.4735 ], [ -3.2844, 40.4736 ], [ -3.2847, 40.4739 ], [ -3.2851, 40.474 ], [ -3.2852, 40.4737 ], [ -3.285, 40.4736 ], [ -3.285, 40.4733 ], [ -3.2853, 40.4728 ], [ -3.2855, 40.4721 ], [ -3.2864, 40.4715 ], [ -3.2871, 40.4715 ], [ -3.2872, 40.4726 ], [ -3.2875, 40.4729 ], [ -3.2887, 40.473 ], [ -3.2901, 40.4724 ], [ -3.2907, 40.4717 ], [ -3.2927, 40.4712 ], [ -3.2934, 40.4713 ], [ -3.2935, 40.4711 ], [ -3.2946, 40.471 ], [ -3.2961, 40.4702 ], [ -3.2964, 40.4699 ], [ -3.2966, 40.4695 ], [ -3.2966, 40.4689 ], [ -3.2969, 40.4687 ], [ -3.2972, 40.468 ], [ -3.2975, 40.4678 ], [ -3.2976, 40.4683 ], [ -3.2979, 40.4685 ], [ -3.2987, 40.4678 ], [ -3.2993, 40.4677 ], [ -3.2995, 40.4675 ], [ -3.2994, 40.4673 ], [ -3.2999, 40.4668 ], [ -3.3002, 40.4668 ], [ -3.3009, 40.4675 ], [ -3.3004, 40.468 ], [ -3.2994, 40.4685 ], [ -3.2991, 40.469 ], [ -3.2994, 40.4693 ], [ -3.2996, 40.4693 ], [ -3.3, 40.469 ], [ -3.3008, 40.4693 ], [ -3.3008, 40.4694 ], [ -3.3002, 40.4699 ], [ -3.3001, 40.4704 ], [ -3.2997, 40.4704 ], [ -3.299, 40.4723 ], [ -3.2994, 40.4739 ], [ -3.3, 40.474 ], [ -3.3006, 40.4737 ], [ -3.3015, 40.4726 ], [ -3.3023, 40.4713 ], [ -3.3036, 40.4709 ], [ -3.3052, 40.4714 ], [ -3.306, 40.4724 ], [ -3.3077, 40.4736 ], [ -3.3087, 40.4736 ], [ -3.3093, 40.4719 ], [ -3.3094, 40.4696 ], [ -3.3083, 40.4674 ], [ -3.3071, 40.4655 ], [ -3.3069, 40.4649 ], [ -3.3072, 40.4645 ], [ -3.3013, 40.4609 ], [ -3.2986, 40.4594 ], [ -3.2953, 40.4578 ], [ -3.2953, 40.4585 ], [ -3.2966, 40.459 ], [ -3.298, 40.4602 ], [ -3.2989, 40.4608 ], [ -3.2991, 40.461 ], [ -3.299, 40.4615 ], [ -3.2979, 40.4622 ], [ -3.2965, 40.4634 ], [ -3.2949, 40.4641 ], [ -3.2929, 40.466 ], [ -3.2892, 40.4673 ], [ -3.2857, 40.4682 ], [ -3.2836, 40.4694 ], [ -3.2774, 40.4708 ], [ -3.2749, 40.4706 ], [ -3.2732, 40.4703 ], [ -3.2722, 40.4705 ], [ -3.2651, 40.4693 ], [ -3.2618, 40.47 ], [ -3.2616, 40.4699 ], [ -3.2615, 40.4707 ], [ -3.2605, 40.4708 ], [ -3.2591, 40.4714 ], [ -3.2576, 40.4715 ], [ -3.2575, 40.4713 ], [ -3.2578, 40.4712 ], [ -3.2576, 40.471 ], [ -3.2611, 40.4699 ], [ -3.2615, 40.4699 ], [ -3.2607, 40.4694 ], [ -3.2605, 40.4682 ], [ -3.26, 40.4681 ], [ -3.2592, 40.4683 ], [ -3.2589, 40.468 ], [ -3.2586, 40.468 ], [ -3.2585, 40.4684 ], [ -3.2582, 40.4685 ], [ -3.258, 40.4688 ], [ -3.2575, 40.469 ], [ -3.2563, 40.4691 ], [ -3.2557, 40.4693 ], [ -3.2555, 40.4695 ], [ -3.2546, 40.4696 ], [ -3.2554, 40.4703 ], [ -3.256, 40.4714 ], [ -3.2542, 40.4724 ], [ -3.2546, 40.4735 ], [ -3.2554, 40.4734 ], [ -3.2601, 40.472 ], [ -3.266, 40.4714 ], [ -3.269, 40.4714 ], [ -3.2712, 40.4719 ], [ -3.2741, 40.473 ], [ -3.2771, 40.4736 ], [ -3.279, 40.4737 ], [ -3.2808, 40.4735 ], [ -3.2814, 40.4738 ] ] ] } },
{ "type": "Feature", "properties": { "municipio": "Anchuelo", "clasificacion": "urbano-consolidado", "calificacion": "sin-asignar", "version": "vigente", "fuente": "SIT-CAM WFS — UsoDelSuelo:VPLA_V_CLASIFICACION (https://idem.comunidad.madrid/geosrvg/ows)", "fecha_dato": "2026-05-12", "ambito": "10736", "_raw_CD_SIGLAS": "SU", "_raw_DS_CLASIF_GEN": "Suelo Urbano", "_raw_DS_CLASIF_DET": "Suelo Urbano", "_raw_DS_DOCU": "NORMAS SUBSIDIARIAS", "_raw_DS_LEY": "E RD 1346/1976", "_raw_FC_AC": "1990-04-05", "_raw_NM_AREA_M2": 385251.352261547, "_cam_code": "012" }, "geometry": { "type": "Polygon", "coordinates": [ [ [ -3.2722, 40.4705 ], [ -3.2732, 40.4703 ], [ -3.2732, 40.4701 ], [ -3.2729, 40.4698 ], [ -3.2729, 40.4696 ], [ -3.2727, 40.4695 ], [ -3.2728, 40.4694 ], [ -3.2727, 40.4692 ], [ -3.2726, 40.4691 ], [ -3.2724, 40.4692 ], [ -3.2722, 40.4685 ], [ -3.2723, 40.4685 ], [ -3.2722, 40.4683 ], [ -3.2724, 40.4677 ], [ -3.2718, 40.4674 ], [ -3.2709, 40.4665 ], [ -3.2712, 40.4662 ], [ -3.2711, 40.4657 ], [ -3.2714, 40.4656 ], [ -3.2712, 40.465 ], [ -3.2714, 40.465 ], [ -3.2715, 40.4645 ], [ -3.2716, 40.4645 ], [ -3.2713, 40.4642 ], [ -3.27, 40.4638 ], [ -3.2695, 40.4633 ], [ -3.2693, 40.463 ], [ -3.2693, 40.4627 ], [ -3.2689, 40.4623 ], [ -3.2688, 40.4624 ], [ -3.2683, 40.4622 ], [ -3.2681, 40.4623 ], [ -3.2675, 40.4632 ], [ -3.267, 40.463 ], [ -3.2667, 40.4634 ], [ -3.2662, 40.4633 ], [ -3.2669, 40.4637 ], [ -3.2674, 40.4642 ], [ -3.2674, 40.4646 ], [ -3.2671, 40.4649 ], [ -3.2666, 40.465 ], [ -3.2664, 40.4647 ], [ -3.2657, 40.4649 ], [ -3.2656, 40.4654 ], [ -3.265, 40.4655 ], [ -3.2635, 40.4654 ], [ -3.2634, 40.4655 ], [ -3.2633, 40.4658 ], [ -3.2635, 40.466 ], [ -3.2635, 40.4665 ], [ -3.2637, 40.4665 ], [ -3.2635, 40.4669 ], [ -3.2632, 40.4669 ], [ -3.2629, 40.4673 ], [ -3.2629, 40.4676 ], [ -3.2643, 40.4682 ], [ -3.2644, 40.4683 ], [ -3.2643, 40.4686 ], [ -3.2645, 40.4684 ], [ -3.2645, 40.4685 ], [ -3.2652, 40.4687 ], [ -3.2653, 40.4693 ], [ -3.266, 40.4695 ], [ -3.2666, 40.4694 ], [ -3.2666, 40.4693 ], [ -3.2676, 40.4694 ], [ -3.2677, 40.4693 ], [ -3.2675, 40.4689 ], [ -3.2712, 40.4688 ], [ -3.2722, 40.4705 ] ] ] } },
{ "type": "Feature", "properties": { "municipio": "Anchuelo", "clasificacion": "urbanizable-no-sectorizado", "calificacion": "sin-asignar", "version": "vigente", "fuente": "SIT-CAM WFS — UsoDelSuelo:VPLA_V_CLASIFICACION (https://idem.comunidad.madrid/geosrvg/ows)", "fecha_dato": "2026-05-12", "ambito": "10736", "_raw_CD_SIGLAS": "SUBNS", "_raw_DS_CLASIF_GEN": "Suelo No Urbanizable Común", "_raw_DS_CLASIF_DET": "Suelo No Urbanizable Común", "_raw_DS_DOCU": "NORMAS SUBSIDIARIAS", "_raw_DS_LEY": "E RD 1346/1976", "_raw_FC_AC": "1990-04-05", "_raw_NM_AREA_M2": 8323824.7508740304, "_cam_code": "012" }, "geometry": { "type": "Polygon", "coordinates": [ [ [ -3.2863, 40.4947 ], [ -3.2881, 40.4951 ], [ -3.289, 40.4949 ], [ -3.2892, 40.4944 ], [ -3.2922, 40.4941 ], [ -3.2956, 40.4946 ], [ -3.2988, 40.4944 ], [ -3.2976, 40.4925 ], [ -3.2965, 40.4911 ], [ -3.2945, 40.4897 ], [ -3.2929, 40.4906 ], [ -3.2901, 40.4909 ], [ -3.2869, 40.4899 ], [ -3.2866, 40.4886 ], [ -3.2881, 40.4868 ], [ -3.2897, 40.4861 ], [ -3.2971, 40.4837 ], [ -3.2981, 40.4823 ], [ -3.2998, 40.4803 ], [ -3.3011, 40.4796 ], [ -3.3039, 40.4814 ], [ -3.3071, 40.4821 ], [ -3.3093, 40.4824 ], [ -3.3094, 40.4827 ], [ -3.3115, 40.4814 ], [ -3.3124, 40.4801 ], [ -3.3153, 40.4788 ], [ -3.3155, 40.4786 ], [ -3.3156, 40.4782 ], [ -3.3165, 40.4774 ], [ -3.3197, 40.4751 ], [ -3.3209, 40.4739 ], [ -3.3211, 40.4733 ], [ -3.3214, 40.4729 ], [ -3.3214, 40.472 ], [ -3.3196, 40.4714 ], [ -3.3181, 40.4692 ], [ -3.3175, 40.4689 ], [ -3.3164, 40.469 ], [ -3.3126, 40.4675 ], [ -3.3084, 40.4653 ], [ -3.3072, 40.4645 ], [ -3.3069, 40.4649 ], [ -3.3071, 40.4655 ], [ -3.3083, 40.4674 ], [ -3.3094, 40.4696 ], [ -3.3093, 40.4719 ], [ -3.3087, 40.4736 ], [ -3.3077, 40.4736 ], [ -3.306, 40.4724 ], [ -3.3052, 40.4714 ], [ -3.3036, 40.4709 ], [ -3.3023, 40.4713 ], [ -3.3015, 40.4726 ], [ -3.3006, 40.4737 ], [ -3.3, 40.474 ], [ -3.2994, 40.4739 ], [ -3.299, 40.4723 ], [ -3.2997, 40.4704 ], [ -3.3001, 40.4704 ], [ -3.3002, 40.4699 ], [ -3.3008, 40.4694 ], [ -3.3008, 40.4693 ], [ -3.3, 40.469 ], [ -3.2996, 40.4693 ], [ -3.2994, 40.4693 ], [ -3.2991, 40.469 ], [ -3.2994, 40.4685 ], [ -3.3004, 40.468 ], [ -3.3009, 40.4675 ], [ -3.3002, 40.4668 ], [ -3.2999, 40.4668 ], [ -3.2994, 40.4673 ], [ -3.2995, 40.4675 ], [ -3.2993, 40.4677 ], [ -3.2987, 40.4678 ], [ -3.2979, 40.4685 ], [ -3.2976, 40.4683 ], [ -3.2975, 40.4678 ], [ -3.2972, 40.468 ], [ -3.2969, 40.4687 ], [ -3.2966, 40.4689 ], [ -3.2966, 40.4695 ], [ -3.2964, 40.4699 ], [ -3.2951, 40.4708 ], [ -3.2946, 40.471 ], [ -3.2935, 40.4711 ], [ -3.2934, 40.4713 ], [ -3.2927, 40.4712 ], [ -3.2907, 40.4717 ], [ -3.2901, 40.4724 ], [ -3.2887, 40.473 ], [ -3.2875, 40.4729 ], [ -3.2872, 40.4726 ], [ -3.2871, 40.4715 ], [ -3.2864, 40.4715 ], [ -3.2855, 40.4721 ], [ -3.2853, 40.4728 ], [ -3.285, 40.4733 ], [ -3.285, 40.4736 ], [ -3.2852, 40.4737 ], [ -3.2851, 40.474 ], [ -3.2847, 40.4739 ], [ -3.2844, 40.4736 ], [ -3.2841, 40.4735 ], [ -3.2839, 40.4736 ], [ -3.2837, 40.4744 ], [ -3.2833, 40.4745 ], [ -3.2822, 40.4746 ], [ -3.2814, 40.4738 ], [ -3.2808, 40.4735 ], [ -3.279, 40.4737 ], [ -3.2771, 40.4736 ], [ -3.2741, 40.473 ], [ -3.2712, 40.4719 ], [ -3.269, 40.4714 ], [ -3.266, 40.4714 ], [ -3.2601, 40.472 ], [ -3.2554, 40.4734 ], [ -3.2546, 40.4735 ], [ -3.2551, 40.4747 ], [ -3.2564, 40.4771 ], [ -3.2577, 40.4809 ], [ -3.2581, 40.4817 ], [ -3.2587, 40.4814 ], [ -3.2593, 40.4822 ], [ -3.2588, 40.4824 ], [ -3.2585, 40.4828 ], [ -3.2583, 40.484 ], [ -3.2598, 40.4847 ], [ -3.2639, 40.4848 ], [ -3.2648, 40.4856 ], [ -3.2682, 40.4855 ], [ -3.2733, 40.4862 ], [ -3.2758, 40.4884 ], [ -3.2765, 40.4886 ], [ -3.2792, 40.4902 ], [ -3.2808, 40.4907 ], [ -3.2813, 40.4924 ], [ -3.283, 40.4937 ], [ -3.2863, 40.4947 ] ] ] } },
{ "type": "Feature", "properties": { "municipio": "Anchuelo", "clasificacion": "urbanizable-no-sectorizado", "calificacion": "sin-asignar", "version": "vigente", "fuente": "SIT-CAM WFS — UsoDelSuelo:VPLA_V_CLASIFICACION (https://idem.comunidad.madrid/geosrvg/ows)", "fecha_dato": "2026-05-12", "ambito": "10736", "_raw_CD_SIGLAS": "SUBNS", "_raw_DS_CLASIF_GEN": "Suelo No Urbanizable Común", "_raw_DS_CLASIF_DET": "Suelo No Urbanizable Común", "_raw_DS_DOCU": "NORMAS SUBSIDIARIAS", "_raw_DS_LEY": "E RD 1346/1976", "_raw_FC_AC": "1990-04-05", "_raw_NM_AREA_M2": 9684317.9670858402, "_cam_code": "012" }, "geometry": { "type": "Polygon", "coordinates": [ [ [ -3.2536, 40.4689 ], [ -3.2539, 40.4719 ], [ -3.2542, 40.4724 ], [ -3.256, 40.4714 ], [ -3.2554, 40.4703 ], [ -3.2546, 40.4696 ], [ -3.2555, 40.4695 ], [ -3.2557, 40.4693 ], [ -3.2563, 40.4691 ], [ -3.2575, 40.469 ], [ -3.258, 40.4688 ], [ -3.2582, 40.4685 ], [ -3.2585, 40.4684 ], [ -3.2586, 40.468 ], [ -3.2589, 40.468 ], [ -3.2592, 40.4683 ], [ -3.26, 40.4681 ], [ -3.2605, 40.4682 ], [ -3.2607, 40.4694 ], [ -3.2615, 40.4699 ], [ -3.2611, 40.4699 ], [ -3.2576, 40.471 ], [ -3.2578, 40.4712 ], [ -3.2575, 40.4713 ], [ -3.2576, 40.4715 ], [ -3.2591, 40.4714 ], [ -3.2605, 40.4708 ], [ -3.2615, 40.4707 ], [ -3.2616, 40.4699 ], [ -3.2618, 40.47 ], [ -3.2653, 40.4693 ], [ -3.2652, 40.4687 ], [ -3.2645, 40.4685 ], [ -3.2645, 40.4684 ], [ -3.2643, 40.4686 ], [ -3.2644, 40.4683 ], [ -3.2643, 40.4682 ], [ -3.2629, 40.4676 ], [ -3.2629, 40.4673 ], [ -3.2632, 40.4669 ], [ -3.2635, 40.4669 ], [ -3.2637, 40.4665 ], [ -3.2635, 40.4665 ], [ -3.2635, 40.466 ], [ -3.2634, 40.466 ], [ -3.2633, 40.4657 ], [ -3.2635, 40.4654 ], [ -3.2635, 40.4654 ], [ -3.2636, 40.4654 ], [ -3.2638, 40.4654 ], [ -3.2638, 40.4655 ], [ -3.2637, 40.4653 ], [ -3.2624, 40.4638 ], [ -3.2627, 40.4629 ], [ -3.2618, 40.4627 ], [ -3.261, 40.4623 ], [ -3.2612, 40.4608 ], [ -3.2619, 40.4601 ], [ -3.2646, 40.4593 ], [ -3.267, 40.4588 ], [ -3.2692, 40.4587 ], [ -3.273, 40.4579 ], [ -3.2745, 40.458 ], [ -3.276, 40.4588 ], [ -3.2762, 40.4592 ], [ -3.2761, 40.4595 ], [ -3.2765, 40.46 ], [ -3.2767, 40.4605 ], [ -3.2767, 40.4609 ], [ -3.276, 40.462 ], [ -3.2759, 40.4624 ], [ -3.2752, 40.4626 ], [ -3.275, 40.4633 ], [ -3.2744, 40.4637 ], [ -3.2729, 40.4654 ], [ -3.2719, 40.4657 ], [ -3.2714, 40.4656 ], [ -3.2711, 40.4657 ], [ -3.2712, 40.4662 ], [ -3.2709, 40.4665 ], [ -3.2718, 40.4674 ], [ -3.2724, 40.4677 ], [ -3.2722, 40.4683 ], [ -3.2724, 40.4692 ], [ -3.2726, 40.4691 ], [ -3.2727, 40.4692 ], [ -3.2728, 40.4694 ], [ -3.2727, 40.4695 ], [ -3.2731, 40.4699 ], [ -3.2732, 40.4703 ], [ -3.2749, 40.4706 ], [ -3.2774, 40.4708 ], [ -3.2836, 40.4694 ], [ -3.2857, 40.4682 ], [ -3.2892, 40.4673 ], [ -3.2929, 40.466 ], [ -3.2949, 40.4641 ], [ -3.2965, 40.4634 ], [ -3.2979, 40.4622 ], [ -3.299, 40.4615 ], [ -3.2991, 40.461 ], [ -3.2966, 40.459 ], [ -3.2953, 40.4585 ], [ -3.2953, 40.4578 ], [ -3.2937, 40.457 ], [ -3.2922, 40.4559 ], [ -3.2911, 40.4548 ], [ -3.2898, 40.4532 ], [ -3.2876, 40.4515 ], [ -3.2846, 40.4519 ], [ -3.2831, 40.4519 ], [ -3.2804, 40.4513 ], [ -3.2782, 40.4504 ], [ -3.2767, 40.4505 ], [ -3.2743, 40.4496 ], [ -3.2733, 40.449 ], [ -3.2709, 40.4473 ], [ -3.271, 40.447 ], [ -3.2702, 40.4456 ], [ -3.2689, 40.4441 ], [ -3.2679, 40.444 ], [ -3.2684, 40.4426 ], [ -3.2682, 40.4415 ], [ -3.2672, 40.4407 ], [ -3.2674, 40.4393 ], [ -3.2651, 40.4387 ], [ -3.2625, 40.4381 ], [ -3.2604, 40.4383 ], [ -3.2571, 40.4409 ], [ -3.2533, 40.4416 ], [ -3.2526, 40.4414 ], [ -3.2489, 40.442 ], [ -3.245, 40.4435 ], [ -3.242, 40.444 ], [ -3.2402, 40.4441 ], [ -3.2395, 40.4439 ], [ -3.2379, 40.4439 ], [ -3.2352, 40.4444 ], [ -3.2343, 40.4455 ], [ -3.2349, 40.4491 ], [ -3.2374, 40.4503 ], [ -3.2401, 40.4513 ], [ -3.2426, 40.4515 ], [ -3.2445, 40.4518 ], [ -3.246, 40.454 ], [ -3.2488, 40.4566 ], [ -3.25, 40.4588 ], [ -3.2495, 40.4603 ], [ -3.2501, 40.4619 ], [ -3.2506, 40.464 ], [ -3.2526, 40.4681 ], [ -3.2536, 40.4689 ] ] ] } },
{ "type": "Feature", "properties": { "municipio": "Anchuelo", "clasificacion": "urbanizable-no-sectorizado", "calificacion": "sin-asignar", "version": "vigente", "fuente": "SIT-CAM WFS — UsoDelSuelo:VPLA_V_CLASIFICACION (https://idem.comunidad.madrid/geosrvg/ows)", "fecha_dato": "2026-05-12", "ambito": "10736", "_raw_CD_SIGLAS": "SUBNS", "_raw_DS_CLASIF_GEN": "Suelo No Urbanizable Común", "_raw_DS_CLASIF_DET": "Suelo No Urbanizable Común", "_raw_DS_DOCU": "NORMAS SUBSIDIARIAS", "_raw_DS_LEY": "E RD 1346/1976", "_raw_FC_AC": "1990-04-05", "_raw_NM_AREA_M2": 50069.905009181399, "_cam_code": "012" }, "geometry": { "type": "Polygon", "coordinates": [ [ [ -3.2666, 40.4694 ], [ -3.2661, 40.4695 ], [ -3.2722, 40.4705 ], [ -3.2712, 40.4688 ], [ -3.2675, 40.4689 ], [ -3.2677, 40.4693 ], [ -3.2676, 40.4694 ], [ -3.2666, 40.4693 ], [ -3.2666, 40.4694 ] ] ] } }
]
}
