{
"type": "FeatureCollection",
"name": "vigente.full",
"features": [
{ "type": "Feature", "properties": { "municipio": "Pezuela de las Torres", "clasificacion": "urbano-consolidado", "calificacion": "equipamiento", "version": "vigente", "fuente": "SIT-CAM WFS — UsoDelSuelo:VPLA_V_CLASIFICACION (https://idem.comunidad.madrid/geosrvg/ows)", "fecha_dato": "2026-05-12", "ambito": "113", "_raw_CD_SIGLAS": "SG", "_raw_DS_CLASIF_GEN": "Sistemas Generales", "_raw_DS_CLASIF_DET": "Equipamiento de sistema general", "_raw_DS_DOCU": "NORMAS SUBSIDIARIAS", "_raw_DS_LEY": "CM Ley 4/1984, E RDL 1/1992", "_raw_FC_AC": "1988-03-03", "_raw_NM_AREA_M2": 18637.538381791899, "_cam_code": "111" }, "geometry": { "type": "Polygon", "coordinates": [ [ [ -3.1675, 40.4225 ], [ -3.1689, 40.4225 ], [ -3.1695, 40.4221 ], [ -3.1696, 40.4218 ], [ -3.1693, 40.4214 ], [ -3.1687, 40.4213 ], [ -3.1674, 40.422 ], [ -3.1675, 40.4225 ] ] ] } },
{ "type": "Feature", "properties": { "municipio": "Pezuela de las Torres", "clasificacion": "urbano-consolidado", "calificacion": "equipamiento", "version": "vigente", "fuente": "SIT-CAM WFS — UsoDelSuelo:VPLA_V_CLASIFICACION (https://idem.comunidad.madrid/geosrvg/ows)", "fecha_dato": "2026-05-12", "ambito": "113", "_raw_CD_SIGLAS": "SG", "_raw_DS_CLASIF_GEN": "Sistemas Generales", "_raw_DS_CLASIF_DET": "Equipamiento de sistema general", "_raw_DS_DOCU": "NORMAS SUBSIDIARIAS", "_raw_DS_LEY": "CM Ley 4/1984, E RDL 1/1992", "_raw_FC_AC": "1988-03-03", "_raw_NM_AREA_M2": 34957.828294040199, "_cam_code": "111" }, "geometry": { "type": "Polygon", "coordinates": [ [ [ -3.1887, 40.4198 ], [ -3.1879, 40.4203 ], [ -3.1876, 40.4207 ], [ -3.1888, 40.4211 ], [ -3.1893, 40.4206 ], [ -3.1905, 40.4204 ], [ -3.1916, 40.42 ], [ -3.1922, 40.4191 ], [ -3.191, 40.4192 ], [ -3.1901, 40.4197 ], [ -3.1896, 40.4198 ], [ -3.1894, 40.4197 ], [ -3.1887, 40.4198 ] ] ] } },
{ "type": "Feature", "properties": { "municipio": "Pezuela de las Torres", "clasificacion": "no-urbanizable-protegido", "calificacion": "sin-asignar", "version": "vigente", "fuente": "SIT-CAM WFS — UsoDelSuelo:VPLA_V_CLASIFICACION (https://idem.comunidad.madrid/geosrvg/ows)", "fecha_dato": "2026-05-12", "ambito": "113", "_raw_CD_SIGLAS": "SNUP", "_raw_DS_CLASIF_GEN": "Suelo No Urbanizable Protegido", "_raw_DS_CLASIF_DET": "Suelo No Urbanizable Especialmente Protegido Ecológico", "_raw_DS_DOCU": "NORMAS SUBSIDIARIAS", "_raw_DS_LEY": "CM Ley 4/1984, E RDL 1/1992", "_raw_FC_AC": "1988-03-03", "_raw_NM_AREA_M2": 1710916.55005444, "_cam_code": "111" }, "geometry": { "type": "Polygon", "coordinates": [ [ [ -3.1597, 40.4386 ], [ -3.1599, 40.439 ], [ -3.1626, 40.4385 ], [ -3.169, 40.4388 ], [ -3.1696, 40.4386 ], [ -3.1704, 40.4377 ], [ -3.172, 40.4367 ], [ -3.171, 40.4359 ], [ -3.1705, 40.4352 ], [ -3.1701, 40.4341 ], [ -3.1687, 40.4337 ], [ -3.1663, 40.434 ], [ -3.1658, 40.4338 ], [ -3.1656, 40.4331 ], [ -3.1652, 40.4326 ], [ -3.1649, 40.4327 ], [ -3.1648, 40.4331 ], [ -3.164, 40.433 ], [ -3.1635, 40.4327 ], [ -3.162, 40.4324 ], [ -3.1621, 40.4309 ], [ -3.1618, 40.4305 ], [ -3.1604, 40.43 ], [ -3.1604, 40.4294 ], [ -3.16, 40.429 ], [ -3.1605, 40.4287 ], [ -3.1606, 40.4279 ], [ -3.1605, 40.4262 ], [ -3.1608, 40.4254 ], [ -3.1606, 40.4245 ], [ -3.1606, 40.424 ], [ -3.1607, 40.4239 ], [ -3.1604, 40.4241 ], [ -3.1601, 40.4247 ], [ -3.1594, 40.4255 ], [ -3.1594, 40.4257 ], [ -3.1592, 40.4259 ], [ -3.1583, 40.4278 ], [ -3.157, 40.4288 ], [ -3.1565, 40.4295 ], [ -3.1564, 40.4294 ], [ -3.1567, 40.4289 ], [ -3.1575, 40.4281 ], [ -3.1581, 40.4277 ], [ -3.1584, 40.4269 ], [ -3.1587, 40.4266 ], [ -3.1591, 40.4258 ], [ -3.1593, 40.4251 ], [ -3.1604, 40.4238 ], [ -3.1614, 40.4234 ], [ -3.1617, 40.4231 ], [ -3.162, 40.423 ], [ -3.162, 40.4226 ], [ -3.1623, 40.4218 ], [ -3.1623, 40.4215 ], [ -3.1621, 40.4211 ], [ -3.1622, 40.4208 ], [ -3.1627, 40.4204 ], [ -3.1632, 40.4203 ], [ -3.1639, 40.4204 ], [ -3.164, 40.4203 ], [ -3.1639, 40.4198 ], [ -3.1646, 40.4195 ], [ -3.1651, 40.419 ], [ -3.1653, 40.4186 ], [ -3.166, 40.4183 ], [ -3.1662, 40.4179 ], [ -3.1667, 40.4176 ], [ -3.1671, 40.4174 ], [ -3.1679, 40.4176 ], [ -3.1683, 40.4175 ], [ -3.1687, 40.4164 ], [ -3.1693, 40.4155 ], [ -3.1689, 40.4145 ], [ -3.168, 40.415 ], [ -3.1663, 40.4155 ], [ -3.1644, 40.4155 ], [ -3.1626, 40.4151 ], [ -3.1607, 40.4152 ], [ -3.1577, 40.415 ], [ -3.1568, 40.4147 ], [ -3.1566, 40.4145 ], [ -3.157, 40.4152 ], [ -3.157, 40.4156 ], [ -3.1556, 40.4173 ], [ -3.1557, 40.4178 ], [ -3.157, 40.4191 ], [ -3.156, 40.4249 ], [ -3.1555, 40.4263 ], [ -3.1549, 40.4275 ], [ -3.1548, 40.4289 ], [ -3.1549, 40.4293 ], [ -3.1556, 40.4301 ], [ -3.1567, 40.4302 ], [ -3.1573, 40.4309 ], [ -3.1576, 40.4315 ], [ -3.1577, 40.4322 ], [ -3.1577, 40.434 ], [ -3.158, 40.4345 ], [ -3.1584, 40.4346 ], [ -3.1587, 40.4349 ], [ -3.1589, 40.4353 ], [ -3.1588, 40.436 ], [ -3.159, 40.4373 ], [ -3.1588, 40.4381 ], [ -3.1597, 40.4386 ] ] ] } },
{ "type": "Feature", "properties": { "municipio": "Pezuela de las Torres", "clasificacion": "no-urbanizable-protegido", "calificacion": "sin-asignar", "version": "vigente", "fuente": "SIT-CAM WFS — UsoDelSuelo:VPLA_V_CLASIFICACION (https://idem.comunidad.madrid/geosrvg/ows)", "fecha_dato": "2026-05-12", "ambito": "113", "_raw_CD_SIGLAS": "SNUP", "_raw_DS_CLASIF_GEN": "Suelo No Urbanizable Protegido", "_raw_DS_CLASIF_DET": "Suelo No Urbanizable Especialmente Protegido Ecológico", "_raw_DS_DOCU": "NORMAS SUBSIDIARIAS", "_raw_DS_LEY": "CM Ley 4/1984, E RDL 1/1992", "_raw_FC_AC": "1988-03-03", "_raw_NM_AREA_M2": 2084415.8825485101, "_cam_code": "111" }, "geometry": { "type": "Polygon", "coordinates": [ [ [ -3.1509, 40.431 ], [ -3.1513, 40.4316 ], [ -3.1514, 40.432 ], [ -3.1521, 40.4327 ], [ -3.1523, 40.4332 ], [ -3.1528, 40.4338 ], [ -3.1534, 40.4342 ], [ -3.1539, 40.435 ], [ -3.1539, 40.4357 ], [ -3.1548, 40.4367 ], [ -3.1542, 40.4371 ], [ -3.1545, 40.4378 ], [ -3.1555, 40.4394 ], [ -3.1581, 40.4395 ], [ -3.1592, 40.439 ], [ -3.1597, 40.439 ], [ -3.1595, 40.4387 ], [ -3.1584, 40.4382 ], [ -3.1584, 40.4378 ], [ -3.1587, 40.4374 ], [ -3.1587, 40.437 ], [ -3.1585, 40.4366 ], [ -3.1585, 40.4352 ], [ -3.1575, 40.4344 ], [ -3.1573, 40.4338 ], [ -3.1574, 40.4321 ], [ -3.1571, 40.4312 ], [ -3.1566, 40.4304 ], [ -3.1555, 40.4303 ], [ -3.1546, 40.4294 ], [ -3.1547, 40.4272 ], [ -3.1557, 40.4251 ], [ -3.1566, 40.4197 ], [ -3.1566, 40.4191 ], [ -3.1556, 40.4183 ], [ -3.1553, 40.4179 ], [ -3.1552, 40.4174 ], [ -3.1561, 40.4161 ], [ -3.1566, 40.4156 ], [ -3.1566, 40.4152 ], [ -3.1561, 40.4142 ], [ -3.156, 40.4136 ], [ -3.156, 40.4118 ], [ -3.1551, 40.4113 ], [ -3.1543, 40.4112 ], [ -3.1531, 40.4105 ], [ -3.1529, 40.4105 ], [ -3.1526, 40.4102 ], [ -3.1495, 40.4084 ], [ -3.1482, 40.4088 ], [ -3.1477, 40.4093 ], [ -3.1472, 40.4101 ], [ -3.1468, 40.4102 ], [ -3.1466, 40.4106 ], [ -3.146, 40.4107 ], [ -3.1456, 40.4112 ], [ -3.1445, 40.4111 ], [ -3.1437, 40.4114 ], [ -3.1429, 40.4127 ], [ -3.1422, 40.4128 ], [ -3.1426, 40.4142 ], [ -3.1443, 40.4167 ], [ -3.146, 40.4181 ], [ -3.1474, 40.4196 ], [ -3.1473, 40.4197 ], [ -3.1476, 40.4227 ], [ -3.1478, 40.4236 ], [ -3.1501, 40.4252 ], [ -3.151, 40.4264 ], [ -3.1513, 40.4271 ], [ -3.1511, 40.4282 ], [ -3.1511, 40.4303 ], [ -3.1509, 40.431 ] ] ] } },
{ "type": "Feature", "properties": { "municipio": "Pezuela de las Torres", "clasificacion": "no-urbanizable-protegido", "calificacion": "sin-asignar", "version": "vigente", "fuente": "SIT-CAM WFS — UsoDelSuelo:VPLA_V_CLASIFICACION (https://idem.comunidad.madrid/geosrvg/ows)", "fecha_dato": "2026-05-12", "ambito": "113", "_raw_CD_SIGLAS": "SNUP", "_raw_DS_CLASIF_GEN": "Suelo No Urbanizable Protegido", "_raw_DS_CLASIF_DET": "Vías Pecuarias", "_raw_DS_DOCU": "NORMAS SUBSIDIARIAS", "_raw_DS_LEY": "CM Ley 4/1984, E RDL 1/1992", "_raw_FC_AC": "1988-03-03", "_raw_NM_AREA_M2": 183242.77501046599, "_cam_code": "111" }, "geometry": { "type": "Polygon", "coordinates": [ [ [ -3.1762, 40.4124 ], [ -3.1786, 40.4136 ], [ -3.178, 40.4146 ], [ -3.178, 40.4148 ], [ -3.1793, 40.4126 ], [ -3.1816, 40.41 ], [ -3.1824, 40.4089 ], [ -3.1841, 40.4053 ], [ -3.1836, 40.404 ], [ -3.1814, 40.3999 ], [ -3.181, 40.3986 ], [ -3.181, 40.3977 ], [ -3.1815, 40.3959 ], [ -3.1823, 40.3945 ], [ -3.1824, 40.3936 ], [ -3.1819, 40.3898 ], [ -3.182, 40.3881 ], [ -3.183, 40.3856 ], [ -3.1831, 40.3829 ], [ -3.1845, 40.3789 ], [ -3.1845, 40.3787 ], [ -3.1842, 40.3784 ], [ -3.1843, 40.379 ], [ -3.1841, 40.3792 ], [ -3.1835, 40.3811 ], [ -3.1829, 40.3824 ], [ -3.1827, 40.3856 ], [ -3.1817, 40.3881 ], [ -3.1816, 40.3891 ], [ -3.1819, 40.3922 ], [ -3.1821, 40.393 ], [ -3.182, 40.3948 ], [ -3.1811, 40.3963 ], [ -3.1808, 40.3972 ], [ -3.1807, 40.398 ], [ -3.1812, 40.4002 ], [ -3.1836, 40.4043 ], [ -3.1839, 40.4054 ], [ -3.1822, 40.4089 ], [ -3.1788, 40.4132 ], [ -3.1782, 40.4131 ], [ -3.1764, 40.4123 ], [ -3.1761, 40.4109 ], [ -3.1752, 40.4095 ], [ -3.1719, 40.4083 ], [ -3.1693, 40.4079 ], [ -3.1688, 40.4076 ], [ -3.1648, 40.406 ], [ -3.1648, 40.4047 ], [ -3.1646, 40.4041 ], [ -3.1639, 40.4033 ], [ -3.1634, 40.4025 ], [ -3.1609, 40.4009 ], [ -3.1604, 40.4004 ], [ -3.1603, 40.4001 ], [ -3.1584, 40.3991 ], [ -3.158, 40.3987 ], [ -3.1578, 40.3988 ], [ -3.158, 40.399 ], [ -3.16, 40.4001 ], [ -3.1605, 40.4009 ], [ -3.1614, 40.4013 ], [ -3.1632, 40.4026 ], [ -3.1639, 40.4037 ], [ -3.1644, 40.4042 ], [ -3.1645, 40.4058 ], [ -3.1612, 40.4043 ], [ -3.16, 40.4039 ], [ -3.1588, 40.4032 ], [ -3.152, 40.4017 ], [ -3.1498, 40.4014 ], [ -3.1458, 40.4013 ], [ -3.143, 40.4022 ], [ -3.142, 40.4023 ], [ -3.142, 40.4024 ], [ -3.1425, 40.4025 ], [ -3.1432, 40.4024 ], [ -3.1458, 40.4015 ], [ -3.148, 40.4015 ], [ -3.151, 40.4017 ], [ -3.1557, 40.4027 ], [ -3.1573, 40.4032 ], [ -3.1589, 40.4034 ], [ -3.16, 40.4042 ], [ -3.1609, 40.4043 ], [ -3.1614, 40.4045 ], [ -3.1637, 40.4058 ], [ -3.164, 40.4058 ], [ -3.1664, 40.4069 ], [ -3.1669, 40.407 ], [ -3.169, 40.408 ], [ -3.172, 40.4085 ], [ -3.1727, 40.4087 ], [ -3.1734, 40.4091 ], [ -3.175, 40.4096 ], [ -3.1758, 40.4109 ], [ -3.1762, 40.4124 ] ] ] } },
{ "type": "Feature", "properties": { "municipio": "Pezuela de las Torres", "clasificacion": "no-urbanizable-protegido", "calificacion": "sin-asignar", "version": "vigente", "fuente": "SIT-CAM WFS — UsoDelSuelo:VPLA_V_CLASIFICACION (https://idem.comunidad.madrid/geosrvg/ows)", "fecha_dato": "2026-05-12", "ambito": "113", "_raw_CD_SIGLAS": "SNUP", "_raw_DS_CLASIF_GEN": "Suelo No Urbanizable Protegido", "_raw_DS_CLASIF_DET": "Vías Pecuarias", "_raw_DS_DOCU": "NORMAS SUBSIDIARIAS", "_raw_DS_LEY": "CM Ley 4/1984, E RDL 1/1992", "_raw_FC_AC": "1988-03-03", "_raw_NM_AREA_M2": 94969.110899017498, "_cam_code": "111" }, "geometry": { "type": "Polygon", "coordinates": [ [ [ -3.1926, 40.4072 ], [ -3.1895, 40.4107 ], [ -3.1882, 40.4113 ], [ -3.1871, 40.4121 ], [ -3.1865, 40.4134 ], [ -3.1858, 40.414 ], [ -3.185, 40.4155 ], [ -3.184, 40.4167 ], [ -3.183, 40.4173 ], [ -3.1821, 40.4181 ], [ -3.1813, 40.4184 ], [ -3.1811, 40.4186 ], [ -3.1827, 40.418 ], [ -3.1831, 40.4175 ], [ -3.1845, 40.4166 ], [ -3.1859, 40.4142 ], [ -3.187, 40.413 ], [ -3.1871, 40.4123 ], [ -3.1876, 40.4118 ], [ -3.1878, 40.4118 ], [ -3.1882, 40.4115 ], [ -3.189, 40.4113 ], [ -3.1895, 40.411 ], [ -3.1905, 40.41 ], [ -3.1927, 40.4074 ], [ -3.1953, 40.4076 ], [ -3.1978, 40.4065 ], [ -3.2018, 40.4066 ], [ -3.2042, 40.4061 ], [ -3.2048, 40.4057 ], [ -3.2054, 40.4057 ], [ -3.2059, 40.4059 ], [ -3.2078, 40.4058 ], [ -3.2107, 40.4061 ], [ -3.2128, 40.405 ], [ -3.2139, 40.404 ], [ -3.2142, 40.4036 ], [ -3.2143, 40.403 ], [ -3.2156, 40.4022 ], [ -3.2163, 40.4022 ], [ -3.219, 40.4014 ], [ -3.2195, 40.4008 ], [ -3.2194, 40.3993 ], [ -3.2193, 40.3993 ], [ -3.2193, 40.4006 ], [ -3.219, 40.4011 ], [ -3.2184, 40.4014 ], [ -3.2151, 40.4021 ], [ -3.2142, 40.4028 ], [ -3.2141, 40.4034 ], [ -3.2133, 40.4044 ], [ -3.2108, 40.4059 ], [ -3.2077, 40.4056 ], [ -3.2063, 40.4057 ], [ -3.2046, 40.4055 ], [ -3.2039, 40.406 ], [ -3.2032, 40.4062 ], [ -3.2017, 40.4064 ], [ -3.2, 40.4062 ], [ -3.198, 40.4063 ], [ -3.1974, 40.4064 ], [ -3.1954, 40.4073 ], [ -3.1948, 40.4074 ], [ -3.1931, 40.4071 ], [ -3.1926, 40.4072 ] ] ] } },
{ "type": "Feature", "properties": { "municipio": "Pezuela de las Torres", "clasificacion": "no-urbanizable-protegido", "calificacion": "sin-asignar", "version": "vigente", "fuente": "SIT-CAM WFS — UsoDelSuelo:VPLA_V_CLASIFICACION (https://idem.comunidad.madrid/geosrvg/ows)", "fecha_dato": "2026-05-12", "ambito": "113", "_raw_CD_SIGLAS": "SNUP", "_raw_DS_CLASIF_GEN": "Suelo No Urbanizable Protegido", "_raw_DS_CLASIF_DET": "Vías Pecuarias", "_raw_DS_DOCU": "NORMAS SUBSIDIARIAS", "_raw_DS_LEY": "CM Ley 4/1984, E RDL 1/1992", "_raw_FC_AC": "1988-03-03", "_raw_NM_AREA_M2": 33788.576713276503, "_cam_code": "111" }, "geometry": { "type": "Polygon", "coordinates": [ [ [ -3.1436, 40.3826 ], [ -3.1438, 40.385 ], [ -3.145, 40.388 ], [ -3.1452, 40.3877 ], [ -3.1443, 40.3855 ], [ -3.144, 40.3844 ], [ -3.144, 40.3836 ], [ -3.1437, 40.3819 ], [ -3.143, 40.3807 ], [ -3.1428, 40.3801 ], [ -3.1429, 40.3796 ], [ -3.1424, 40.378 ], [ -3.1414, 40.3777 ], [ -3.1393, 40.3757 ], [ -3.1393, 40.3753 ], [ -3.139, 40.3753 ], [ -3.1392, 40.3759 ], [ -3.1409, 40.3775 ], [ -3.1422, 40.3782 ], [ -3.1426, 40.3797 ], [ -3.1427, 40.3808 ], [ -3.1431, 40.3813 ], [ -3.1434, 40.382 ], [ -3.1436, 40.3826 ] ] ] } },
{ "type": "Feature", "properties": { "municipio": "Pezuela de las Torres", "clasificacion": "no-urbanizable-protegido", "calificacion": "sin-asignar", "version": "vigente", "fuente": "SIT-CAM WFS — UsoDelSuelo:VPLA_V_CLASIFICACION (https://idem.comunidad.madrid/geosrvg/ows)", "fecha_dato": "2026-05-12", "ambito": "113", "_raw_CD_SIGLAS": "SNUP", "_raw_DS_CLASIF_GEN": "Suelo No Urbanizable Protegido", "_raw_DS_CLASIF_DET": "Vías Pecuarias", "_raw_DS_DOCU": "NORMAS SUBSIDIARIAS", "_raw_DS_LEY": "CM Ley 4/1984, E RDL 1/1992", "_raw_FC_AC": "1988-03-03", "_raw_NM_AREA_M2": 98711.416832338495, "_cam_code": "111" }, "geometry": { "type": "Polygon", "coordinates": [ [ [ -3.1617, 40.4232 ], [ -3.1604, 40.4238 ], [ -3.1593, 40.4251 ], [ -3.1591, 40.4258 ], [ -3.1587, 40.4266 ], [ -3.1584, 40.4269 ], [ -3.1581, 40.4277 ], [ -3.1575, 40.4281 ], [ -3.1566, 40.429 ], [ -3.1564, 40.4294 ], [ -3.1565, 40.4295 ], [ -3.157, 40.4288 ], [ -3.1583, 40.4278 ], [ -3.1592, 40.4259 ], [ -3.1594, 40.4257 ], [ -3.1594, 40.4255 ], [ -3.1606, 40.4239 ], [ -3.1616, 40.4234 ], [ -3.1646, 40.4231 ], [ -3.1668, 40.4221 ], [ -3.1674, 40.422 ], [ -3.1687, 40.4212 ], [ -3.1697, 40.4209 ], [ -3.1702, 40.4206 ], [ -3.1704, 40.4203 ], [ -3.1704, 40.42 ], [ -3.1711, 40.4193 ], [ -3.1733, 40.4196 ], [ -3.1733, 40.4195 ], [ -3.1713, 40.4192 ], [ -3.1709, 40.4189 ], [ -3.1705, 40.4181 ], [ -3.1702, 40.4168 ], [ -3.1699, 40.4165 ], [ -3.1692, 40.4147 ], [ -3.1692, 40.4144 ], [ -3.169, 40.4143 ], [ -3.1668, 40.4153 ], [ -3.1658, 40.4154 ], [ -3.1655, 40.4153 ], [ -3.1642, 40.4154 ], [ -3.1636, 40.4152 ], [ -3.1634, 40.415 ], [ -3.1611, 40.4151 ], [ -3.1574, 40.4148 ], [ -3.1564, 40.4142 ], [ -3.1563, 40.414 ], [ -3.1562, 40.4122 ], [ -3.1563, 40.4119 ], [ -3.1561, 40.4116 ], [ -3.1537, 40.4107 ], [ -3.1493, 40.4081 ], [ -3.1488, 40.4079 ], [ -3.1469, 40.408 ], [ -3.1462, 40.4082 ], [ -3.1426, 40.4086 ], [ -3.1432, 40.4088 ], [ -3.1482, 40.4081 ], [ -3.1488, 40.4081 ], [ -3.1494, 40.4083 ], [ -3.1526, 40.4102 ], [ -3.1529, 40.4105 ], [ -3.1531, 40.4105 ], [ -3.1543, 40.4112 ], [ -3.1551, 40.4113 ], [ -3.1559, 40.4117 ], [ -3.156, 40.4118 ], [ -3.1561, 40.4142 ], [ -3.1567, 40.4145 ], [ -3.1568, 40.4147 ], [ -3.1577, 40.415 ], [ -3.1607, 40.4152 ], [ -3.1626, 40.4151 ], [ -3.1644, 40.4155 ], [ -3.1663, 40.4155 ], [ -3.168, 40.415 ], [ -3.1689, 40.4145 ], [ -3.1697, 40.4166 ], [ -3.17, 40.417 ], [ -3.1702, 40.4181 ], [ -3.1708, 40.4191 ], [ -3.1701, 40.4204 ], [ -3.1695, 40.4208 ], [ -3.1688, 40.4209 ], [ -3.1669, 40.422 ], [ -3.1654, 40.4226 ], [ -3.1654, 40.4227 ], [ -3.1637, 40.4231 ], [ -3.1617, 40.4232 ] ] ] } },
{ "type": "Feature", "properties": { "municipio": "Pezuela de las Torres", "clasificacion": "no-urbanizable-protegido", "calificacion": "sin-asignar", "version": "vigente", "fuente": "SIT-CAM WFS — UsoDelSuelo:VPLA_V_CLASIFICACION (https://idem.comunidad.madrid/geosrvg/ows)", "fecha_dato": "2026-05-12", "ambito": "113", "_raw_CD_SIGLAS": "SNUP", "_raw_DS_CLASIF_GEN": "Suelo No Urbanizable Protegido", "_raw_DS_CLASIF_DET": "Vías Pecuarias", "_raw_DS_DOCU": "NORMAS SUBSIDIARIAS", "_raw_DS_LEY": "CM Ley 4/1984, E RDL 1/1992", "_raw_FC_AC": "1988-03-03", "_raw_NM_AREA_M2": 4994.7816762263301, "_cam_code": "111" }, "geometry": { "type": "Polygon", "coordinates": [ [ [ -3.1721, 40.4141 ], [ -3.173, 40.415 ], [ -3.1735, 40.416 ], [ -3.1736, 40.4165 ], [ -3.1738, 40.4165 ], [ -3.1736, 40.4158 ], [ -3.1731, 40.4148 ], [ -3.1727, 40.4143 ], [ -3.1724, 40.4141 ], [ -3.1721, 40.4141 ] ] ] } },
{ "type": "Feature", "properties": { "municipio": "Pezuela de las Torres", "clasificacion": "no-urbanizable-protegido", "calificacion": "sin-asignar", "version": "vigente", "fuente": "SIT-CAM WFS — UsoDelSuelo:VPLA_V_CLASIFICACION (https://idem.comunidad.madrid/geosrvg/ows)", "fecha_dato": "2026-05-12", "ambito": "113", "_raw_CD_SIGLAS": "SNUP", "_raw_DS_CLASIF_GEN": "Suelo No Urbanizable Protegido", "_raw_DS_CLASIF_DET": "Suelo No Urbanizable Especialmente Protegido Ecológico", "_raw_DS_DOCU": "NORMAS SUBSIDIARIAS", "_raw_DS_LEY": "CM Ley 4/1984, E RDL 1/1992", "_raw_FC_AC": "1988-03-03", "_raw_NM_AREA_M2": 1637834.82035465, "_cam_code": "111" }, "geometry": { "type": "Polygon", "coordinates": [ [ [ -3.1692, 40.4144 ], [ -3.1695, 40.4156 ], [ -3.1699, 40.4165 ], [ -3.1702, 40.4168 ], [ -3.1706, 40.4183 ], [ -3.1709, 40.4183 ], [ -3.1713, 40.418 ], [ -3.172, 40.4178 ], [ -3.1726, 40.417 ], [ -3.1726, 40.4167 ], [ -3.1723, 40.416 ], [ -3.173, 40.415 ], [ -3.1721, 40.4141 ], [ -3.1724, 40.4141 ], [ -3.1727, 40.4143 ], [ -3.1731, 40.4148 ], [ -3.1732, 40.4143 ], [ -3.1745, 40.4135 ], [ -3.1736, 40.413 ], [ -3.1731, 40.4129 ], [ -3.1721, 40.4129 ], [ -3.1718, 40.413 ], [ -3.1717, 40.4132 ], [ -3.1713, 40.4131 ], [ -3.1705, 40.4119 ], [ -3.1705, 40.4115 ], [ -3.1714, 40.4111 ], [ -3.1728, 40.4101 ], [ -3.1729, 40.4099 ], [ -3.1717, 40.4097 ], [ -3.1704, 40.4099 ], [ -3.1692, 40.4098 ], [ -3.1685, 40.4104 ], [ -3.1678, 40.4108 ], [ -3.1671, 40.411 ], [ -3.1657, 40.4104 ], [ -3.1645, 40.409 ], [ -3.164, 40.4086 ], [ -3.1633, 40.4071 ], [ -3.1618, 40.406 ], [ -3.161, 40.405 ], [ -3.1598, 40.4049 ], [ -3.1599, 40.4048 ], [ -3.1593, 40.4044 ], [ -3.1593, 40.404 ], [ -3.1595, 40.4038 ], [ -3.1589, 40.4034 ], [ -3.1573, 40.4032 ], [ -3.1557, 40.4027 ], [ -3.151, 40.4017 ], [ -3.1463, 40.4015 ], [ -3.1473, 40.4023 ], [ -3.1478, 40.4033 ], [ -3.1479, 40.4046 ], [ -3.1482, 40.4052 ], [ -3.1484, 40.4064 ], [ -3.149, 40.4073 ], [ -3.1493, 40.4081 ], [ -3.1537, 40.4107 ], [ -3.1559, 40.4115 ], [ -3.1562, 40.4117 ], [ -3.1563, 40.412 ], [ -3.1581, 40.4126 ], [ -3.158, 40.4136 ], [ -3.1581, 40.4136 ], [ -3.1582, 40.4139 ], [ -3.16, 40.4142 ], [ -3.1605, 40.4141 ], [ -3.1612, 40.4142 ], [ -3.162, 40.414 ], [ -3.1631, 40.414 ], [ -3.1637, 40.4138 ], [ -3.1646, 40.4141 ], [ -3.1653, 40.4141 ], [ -3.1671, 40.4133 ], [ -3.1675, 40.414 ], [ -3.1692, 40.4144 ] ] ] } },
{ "type": "Feature", "properties": { "municipio": "Pezuela de las Torres", "clasificacion": "no-urbanizable-protegido", "calificacion": "sin-asignar", "version": "vigente", "fuente": "SIT-CAM WFS — UsoDelSuelo:VPLA_V_CLASIFICACION (https://idem.comunidad.madrid/geosrvg/ows)", "fecha_dato": "2026-05-12", "ambito": "113", "_raw_CD_SIGLAS": "SNUP", "_raw_DS_CLASIF_GEN": "Suelo No Urbanizable Protegido", "_raw_DS_CLASIF_DET": "Suelo No Urbanizable Especialmente Protegido Ecológico", "_raw_DS_DOCU": "NORMAS SUBSIDIARIAS", "_raw_DS_LEY": "CM Ley 4/1984, E RDL 1/1992", "_raw_FC_AC": "1988-03-03", "_raw_NM_AREA_M2": 5096055.0036157798, "_cam_code": "111" }, "geometry": { "type": "MultiPolygon", "coordinates": [ [ [ [ -3.1462, 40.4013 ], [ -3.1498, 40.4014 ], [ -3.152, 40.4017 ], [ -3.1588, 40.4032 ], [ -3.16, 40.4039 ], [ -3.1612, 40.4043 ], [ -3.1645, 40.4058 ], [ -3.1644, 40.4042 ], [ -3.1639, 40.4037 ], [ -3.1632, 40.4026 ], [ -3.1614, 40.4013 ], [ -3.1605, 40.4009 ], [ -3.16, 40.4001 ], [ -3.1586, 40.3994 ], [ -3.1578, 40.3988 ], [ -3.158, 40.3987 ], [ -3.1584, 40.3991 ], [ -3.1603, 40.4001 ], [ -3.1603, 40.3985 ], [ -3.1601, 40.3983 ], [ -3.1602, 40.3978 ], [ -3.1596, 40.3976 ], [ -3.1594, 40.3974 ], [ -3.1596, 40.3968 ], [ -3.1591, 40.3958 ], [ -3.1593, 40.3954 ], [ -3.1615, 40.3948 ], [ -3.162, 40.3941 ], [ -3.1629, 40.3938 ], [ -3.1636, 40.3933 ], [ -3.1641, 40.3925 ], [ -3.164, 40.3921 ], [ -3.1644, 40.3915 ], [ -3.1645, 40.3906 ], [ -3.1649, 40.3907 ], [ -3.1654, 40.3916 ], [ -3.1659, 40.3918 ], [ -3.1664, 40.3915 ], [ -3.167, 40.3914 ], [ -3.167, 40.3911 ], [ -3.1666, 40.3906 ], [ -3.1666, 40.3901 ], [ -3.1669, 40.3894 ], [ -3.1669, 40.3877 ], [ -3.1664, 40.3872 ], [ -3.1664, 40.3861 ], [ -3.166, 40.3865 ], [ -3.1638, 40.3875 ], [ -3.1608, 40.3864 ], [ -3.1594, 40.3868 ], [ -3.1586, 40.3867 ], [ -3.1557, 40.3859 ], [ -3.155, 40.3847 ], [ -3.1563, 40.3839 ], [ -3.1567, 40.384 ], [ -3.1567, 40.3842 ], [ -3.157, 40.3844 ], [ -3.1589, 40.3841 ], [ -3.1593, 40.3839 ], [ -3.159, 40.3837 ], [ -3.1599, 40.3835 ], [ -3.1621, 40.3838 ], [ -3.1626, 40.3837 ], [ -3.163, 40.384 ], [ -3.1635, 40.3837 ], [ -3.164, 40.3837 ], [ -3.1641, 40.3835 ], [ -3.1633, 40.383 ], [ -3.1632, 40.3817 ], [ -3.1621, 40.3812 ], [ -3.1623, 40.3808 ], [ -3.1641, 40.3801 ], [ -3.1643, 40.3798 ], [ -3.1646, 40.3797 ], [ -3.1655, 40.3804 ], [ -3.1657, 40.3817 ], [ -3.1654, 40.3824 ], [ -3.1664, 40.3829 ], [ -3.1674, 40.3838 ], [ -3.1698, 40.3836 ], [ -3.1701, 40.3848 ], [ -3.1712, 40.3847 ], [ -3.1723, 40.3842 ], [ -3.1729, 40.3839 ], [ -3.1736, 40.3831 ], [ -3.1735, 40.3814 ], [ -3.1738, 40.381 ], [ -3.1735, 40.3795 ], [ -3.1738, 40.3788 ], [ -3.1738, 40.3783 ], [ -3.1744, 40.3772 ], [ -3.1752, 40.3768 ], [ -3.1757, 40.3767 ], [ -3.176, 40.3764 ], [ -3.1769, 40.3763 ], [ -3.1773, 40.3759 ], [ -3.1776, 40.375 ], [ -3.1774, 40.3741 ], [ -3.1768, 40.3742 ], [ -3.1738, 40.3761 ], [ -3.1685, 40.3777 ], [ -3.1667, 40.3781 ], [ -3.1605, 40.3787 ], [ -3.155, 40.3777 ], [ -3.1527, 40.3767 ], [ -3.1508, 40.3763 ], [ -3.1501, 40.3731 ], [ -3.1485, 40.3734 ], [ -3.1454, 40.3737 ], [ -3.1395, 40.3752 ], [ -3.1401, 40.3761 ], [ -3.1409, 40.3767 ], [ -3.1417, 40.3778 ], [ -3.1424, 40.378 ], [ -3.1429, 40.3796 ], [ -3.1428, 40.3801 ], [ -3.143, 40.3807 ], [ -3.1437, 40.3819 ], [ -3.144, 40.3836 ], [ -3.144, 40.3844 ], [ -3.1443, 40.3855 ], [ -3.1452, 40.3877 ], [ -3.145, 40.388 ], [ -3.1449, 40.3885 ], [ -3.1452, 40.3898 ], [ -3.1451, 40.3928 ], [ -3.1455, 40.3933 ], [ -3.1458, 40.3942 ], [ -3.1452, 40.3954 ], [ -3.1451, 40.3965 ], [ -3.1445, 40.3972 ], [ -3.1444, 40.3984 ], [ -3.1446, 40.3993 ], [ -3.1449, 40.3999 ], [ -3.1457, 40.4006 ], [ -3.1462, 40.4013 ] ] ], [ [ [ -3.1423, 40.3786 ], [ -3.1419, 40.38 ], [ -3.1421, 40.3802 ], [ -3.1424, 40.3819 ], [ -3.1436, 40.3831 ], [ -3.1436, 40.3826 ], [ -3.1434, 40.382 ], [ -3.1431, 40.3813 ], [ -3.1427, 40.3808 ], [ -3.1426, 40.3797 ], [ -3.1422, 40.3782 ], [ -3.1418, 40.378 ], [ -3.1423, 40.3786 ] ] ] ] } },
{ "type": "Feature", "properties": { "municipio": "Pezuela de las Torres", "clasificacion": "no-urbanizable-protegido", "calificacion": "sin-asignar", "version": "vigente", "fuente": "SIT-CAM WFS — UsoDelSuelo:VPLA_V_CLASIFICACION (https://idem.comunidad.madrid/geosrvg/ows)", "fecha_dato": "2026-05-12", "ambito": "113", "_raw_CD_SIGLAS": "SNUP", "_raw_DS_CLASIF_GEN": "Suelo No Urbanizable Protegido", "_raw_DS_CLASIF_DET": "Suelo No Urbanizable Especialmente Protegido Ecológico", "_raw_DS_DOCU": "NORMAS SUBSIDIARIAS", "_raw_DS_LEY": "CM Ley 4/1984, E RDL 1/1992", "_raw_FC_AC": "1988-03-03", "_raw_NM_AREA_M2": 81919.298668272095, "_cam_code": "111" }, "geometry": { "type": "Polygon", "coordinates": [ [ [ -3.1566, 40.4304 ], [ -3.1571, 40.4312 ], [ -3.1574, 40.4321 ], [ -3.1573, 40.4338 ], [ -3.1575, 40.4344 ], [ -3.1585, 40.4352 ], [ -3.1585, 40.4366 ], [ -3.1587, 40.437 ], [ -3.1587, 40.4374 ], [ -3.1584, 40.4378 ], [ -3.1584, 40.4382 ], [ -3.1595, 40.4387 ], [ -3.1597, 40.439 ], [ -3.1599, 40.439 ], [ -3.1597, 40.4386 ], [ -3.1588, 40.4381 ], [ -3.159, 40.4373 ], [ -3.1588, 40.436 ], [ -3.1589, 40.4353 ], [ -3.1587, 40.4349 ], [ -3.1584, 40.4346 ], [ -3.158, 40.4345 ], [ -3.1577, 40.434 ], [ -3.1577, 40.4322 ], [ -3.1576, 40.4315 ], [ -3.1573, 40.4309 ], [ -3.1567, 40.4302 ], [ -3.1556, 40.4301 ], [ -3.1549, 40.4293 ], [ -3.1548, 40.4289 ], [ -3.1549, 40.4275 ], [ -3.1555, 40.4263 ], [ -3.156, 40.4249 ], [ -3.157, 40.4191 ], [ -3.1557, 40.4178 ], [ -3.1556, 40.4173 ], [ -3.157, 40.4156 ], [ -3.157, 40.4152 ], [ -3.1566, 40.4145 ], [ -3.1561, 40.4142 ], [ -3.1566, 40.4152 ], [ -3.1566, 40.4156 ], [ -3.1561, 40.4161 ], [ -3.1552, 40.4174 ], [ -3.1553, 40.4179 ], [ -3.1556, 40.4183 ], [ -3.1566, 40.4191 ], [ -3.1566, 40.4197 ], [ -3.1557, 40.4251 ], [ -3.1547, 40.4272 ], [ -3.1546, 40.4294 ], [ -3.1555, 40.4303 ], [ -3.1566, 40.4304 ] ] ] } },
{ "type": "Feature", "properties": { "municipio": "Pezuela de las Torres", "clasificacion": "no-urbanizable-protegido", "calificacion": "sin-asignar", "version": "vigente", "fuente": "SIT-CAM WFS — UsoDelSuelo:VPLA_V_CLASIFICACION (https://idem.comunidad.madrid/geosrvg/ows)", "fecha_dato": "2026-05-12", "ambito": "113", "_raw_CD_SIGLAS": "SNUP", "_raw_DS_CLASIF_GEN": "Suelo No Urbanizable Protegido", "_raw_DS_CLASIF_DET": "Suelo No Urbanizable Especialmente Protegido Cauces", "_raw_DS_DOCU": "NORMAS SUBSIDIARIAS", "_raw_DS_LEY": "CM Ley 4/1984, E RDL 1/1992", "_raw_FC_AC": "1988-03-03", "_raw_NM_AREA_M2": 1265640.12987096, "_cam_code": "111" }, "geometry": { "type": "MultiPolygon", "coordinates": [ [ [ [ -3.1382, 40.4096 ], [ -3.1421, 40.4125 ], [ -3.1422, 40.4128 ], [ -3.1429, 40.4127 ], [ -3.1437, 40.4114 ], [ -3.1445, 40.4111 ], [ -3.1456, 40.4112 ], [ -3.146, 40.4107 ], [ -3.1466, 40.4106 ], [ -3.1468, 40.4102 ], [ -3.1472, 40.4101 ], [ -3.1477, 40.4093 ], [ -3.1482, 40.4088 ], [ -3.1495, 40.4084 ], [ -3.1488, 40.4081 ], [ -3.1482, 40.4081 ], [ -3.1432, 40.4088 ], [ -3.1426, 40.4086 ], [ -3.1462, 40.4082 ], [ -3.1469, 40.408 ], [ -3.1488, 40.4079 ], [ -3.1493, 40.4081 ], [ -3.149, 40.4073 ], [ -3.1484, 40.4064 ], [ -3.1482, 40.4052 ], [ -3.1479, 40.4046 ], [ -3.1478, 40.4033 ], [ -3.1473, 40.4023 ], [ -3.1463, 40.4015 ], [ -3.1458, 40.4015 ], [ -3.1432, 40.4024 ], [ -3.1425, 40.4025 ], [ -3.142, 40.4024 ], [ -3.142, 40.4023 ], [ -3.143, 40.4022 ], [ -3.1454, 40.4014 ], [ -3.1462, 40.4013 ], [ -3.1457, 40.4006 ], [ -3.1449, 40.3999 ], [ -3.1446, 40.3993 ], [ -3.1444, 40.3984 ], [ -3.1445, 40.3972 ], [ -3.1451, 40.3965 ], [ -3.1452, 40.3954 ], [ -3.1458, 40.3942 ], [ -3.1455, 40.3933 ], [ -3.1451, 40.3928 ], [ -3.1452, 40.3898 ], [ -3.1449, 40.3885 ], [ -3.145, 40.388 ], [ -3.1438, 40.385 ], [ -3.1436, 40.3831 ], [ -3.1424, 40.3819 ], [ -3.1421, 40.3802 ], [ -3.1419, 40.38 ], [ -3.1423, 40.3786 ], [ -3.1417, 40.3779 ], [ -3.1413, 40.3778 ], [ -3.1409, 40.3775 ], [ -3.1392, 40.3759 ], [ -3.139, 40.3753 ], [ -3.1383, 40.3755 ], [ -3.139, 40.3763 ], [ -3.1396, 40.3766 ], [ -3.1398, 40.3769 ], [ -3.1396, 40.3773 ], [ -3.1398, 40.3776 ], [ -3.1404, 40.3775 ], [ -3.1407, 40.3777 ], [ -3.1407, 40.379 ], [ -3.1403, 40.3795 ], [ -3.1404, 40.38 ], [ -3.141, 40.3805 ], [ -3.1415, 40.3816 ], [ -3.1415, 40.3822 ], [ -3.1417, 40.3825 ], [ -3.1416, 40.3833 ], [ -3.1426, 40.3836 ], [ -3.1431, 40.3836 ], [ -3.1433, 40.3838 ], [ -3.143, 40.385 ], [ -3.1432, 40.3855 ], [ -3.1436, 40.3858 ], [ -3.1433, 40.3865 ], [ -3.1433, 40.3872 ], [ -3.1434, 40.3873 ], [ -3.1433, 40.3875 ], [ -3.1418, 40.3879 ], [ -3.1419, 40.3883 ], [ -3.1418, 40.398 ], [ -3.1417, 40.3995 ], [ -3.1409, 40.4026 ], [ -3.1409, 40.4066 ], [ -3.1405, 40.4079 ], [ -3.1399, 40.4086 ], [ -3.1382, 40.4096 ] ] ], [ [ [ -3.1393, 40.3753 ], [ -3.1393, 40.3757 ], [ -3.1414, 40.3777 ], [ -3.1417, 40.3778 ], [ -3.1409, 40.3767 ], [ -3.1401, 40.3761 ], [ -3.1395, 40.3752 ], [ -3.1393, 40.3753 ] ] ] ] } },
{ "type": "Feature", "properties": { "municipio": "Pezuela de las Torres", "clasificacion": "no-urbanizable-protegido", "calificacion": "sin-asignar", "version": "vigente", "fuente": "SIT-CAM WFS — UsoDelSuelo:VPLA_V_CLASIFICACION (https://idem.comunidad.madrid/geosrvg/ows)", "fecha_dato": "2026-05-12", "ambito": "113", "_raw_CD_SIGLAS": "SNUP", "_raw_DS_CLASIF_GEN": "Suelo No Urbanizable Protegido", "_raw_DS_CLASIF_DET": "Suelo No Urbanizable Especialmente Protegido Ecológico", "_raw_DS_DOCU": "NORMAS SUBSIDIARIAS", "_raw_DS_LEY": "CM Ley 4/1984, E RDL 1/1992", "_raw_FC_AC": "1988-03-03", "_raw_NM_AREA_M2": 1422449.7615610501, "_cam_code": "111" }, "geometry": { "type": "Polygon", "coordinates": [ [ [ -3.1418, 40.3879 ], [ -3.1394, 40.3883 ], [ -3.1377, 40.3888 ], [ -3.1354, 40.3901 ], [ -3.1354, 40.3905 ], [ -3.1345, 40.3935 ], [ -3.1348, 40.3956 ], [ -3.135, 40.3961 ], [ -3.1341, 40.3982 ], [ -3.1341, 40.3997 ], [ -3.1323, 40.4021 ], [ -3.1306, 40.4052 ], [ -3.1355, 40.4079 ], [ -3.1373, 40.4087 ], [ -3.1382, 40.4096 ], [ -3.1399, 40.4086 ], [ -3.1405, 40.4079 ], [ -3.1409, 40.4066 ], [ -3.1409, 40.4026 ], [ -3.1417, 40.3995 ], [ -3.1418, 40.398 ], [ -3.1419, 40.3883 ], [ -3.1418, 40.3879 ] ] ] } },
{ "type": "Feature", "properties": { "municipio": "Pezuela de las Torres", "clasificacion": "no-urbanizable-protegido", "calificacion": "sin-asignar", "version": "vigente", "fuente": "SIT-CAM WFS — UsoDelSuelo:VPLA_V_CLASIFICACION (https://idem.comunidad.madrid/geosrvg/ows)", "fecha_dato": "2026-05-12", "ambito": "113", "_raw_CD_SIGLAS": "SNUP", "_raw_DS_CLASIF_GEN": "Suelo No Urbanizable Protegido", "_raw_DS_CLASIF_DET": "Suelo No Urbanizable Especialmente Protegido Ecológico", "_raw_DS_DOCU": "NORMAS SUBSIDIARIAS", "_raw_DS_LEY": "CM Ley 4/1984, E RDL 1/1992", "_raw_FC_AC": "1988-03-03", "_raw_NM_AREA_M2": 1246988.89767088, "_cam_code": "111" }, "geometry": { "type": "Polygon", "coordinates": [ [ [ -3.2183, 40.4021 ], [ -3.2196, 40.4027 ], [ -3.22, 40.4022 ], [ -3.2209, 40.4004 ], [ -3.2224, 40.3995 ], [ -3.2235, 40.3984 ], [ -3.2238, 40.3973 ], [ -3.2235, 40.3969 ], [ -3.2234, 40.3957 ], [ -3.2249, 40.3955 ], [ -3.2263, 40.3951 ], [ -3.2274, 40.3945 ], [ -3.228, 40.394 ], [ -3.2286, 40.3934 ], [ -3.2289, 40.3929 ], [ -3.2292, 40.3921 ], [ -3.2292, 40.3885 ], [ -3.2291, 40.3881 ], [ -3.2277, 40.3862 ], [ -3.2273, 40.3854 ], [ -3.2248, 40.3851 ], [ -3.223, 40.3853 ], [ -3.2209, 40.3861 ], [ -3.2191, 40.3865 ], [ -3.2199, 40.388 ], [ -3.2183, 40.3891 ], [ -3.2181, 40.3893 ], [ -3.2182, 40.3896 ], [ -3.2187, 40.3897 ], [ -3.2195, 40.3896 ], [ -3.2218, 40.3888 ], [ -3.223, 40.3889 ], [ -3.2234, 40.3922 ], [ -3.2236, 40.3929 ], [ -3.2204, 40.3939 ], [ -3.2192, 40.3953 ], [ -3.2182, 40.3962 ], [ -3.2172, 40.3968 ], [ -3.2165, 40.3975 ], [ -3.2141, 40.3984 ], [ -3.2137, 40.3984 ], [ -3.212, 40.3974 ], [ -3.21, 40.3976 ], [ -3.2094, 40.3981 ], [ -3.2092, 40.3988 ], [ -3.2089, 40.399 ], [ -3.2089, 40.3995 ], [ -3.2094, 40.4 ], [ -3.2106, 40.3994 ], [ -3.2114, 40.3994 ], [ -3.2119, 40.3998 ], [ -3.2122, 40.4003 ], [ -3.2122, 40.401 ], [ -3.2124, 40.4013 ], [ -3.2129, 40.4017 ], [ -3.2139, 40.4019 ], [ -3.2141, 40.4026 ], [ -3.2144, 40.4027 ], [ -3.2151, 40.4021 ], [ -3.2184, 40.4014 ], [ -3.219, 40.4011 ], [ -3.2193, 40.4006 ], [ -3.2193, 40.3993 ], [ -3.2194, 40.3993 ], [ -3.2195, 40.4008 ], [ -3.2193, 40.4011 ], [ -3.219, 40.4014 ], [ -3.2167, 40.4021 ], [ -3.2177, 40.402 ], [ -3.2183, 40.4021 ] ] ] } },
{ "type": "Feature", "properties": { "municipio": "Pezuela de las Torres", "clasificacion": "no-urbanizable-protegido", "calificacion": "sin-asignar", "version": "vigente", "fuente": "SIT-CAM WFS — UsoDelSuelo:VPLA_V_CLASIFICACION (https://idem.comunidad.madrid/geosrvg/ows)", "fecha_dato": "2026-05-12", "ambito": "113", "_raw_CD_SIGLAS": "SNUP", "_raw_DS_CLASIF_GEN": "Suelo No Urbanizable Protegido", "_raw_DS_CLASIF_DET": "Vías Pecuarias", "_raw_DS_DOCU": "NORMAS SUBSIDIARIAS", "_raw_DS_LEY": "CM Ley 4/1984, E RDL 1/1992", "_raw_FC_AC": "1988-03-03", "_raw_NM_AREA_M2": 33577.031398122097, "_cam_code": "111" }, "geometry": { "type": "Polygon", "coordinates": [ [ [ -3.2107, 40.4263 ], [ -3.211, 40.4263 ], [ -3.2113, 40.4263 ], [ -3.2119, 40.4263 ], [ -3.2125, 40.4262 ], [ -3.2127, 40.4261 ], [ -3.2129, 40.4261 ], [ -3.2133, 40.4262 ], [ -3.2143, 40.4262 ], [ -3.2148, 40.4263 ], [ -3.2149, 40.4262 ], [ -3.2145, 40.4261 ], [ -3.2139, 40.4261 ], [ -3.2131, 40.4261 ], [ -3.2128, 40.4261 ], [ -3.2126, 40.4261 ], [ -3.2122, 40.4261 ], [ -3.2114, 40.4262 ], [ -3.2112, 40.4263 ], [ -3.2109, 40.4263 ], [ -3.2106, 40.4262 ], [ -3.2103, 40.4261 ], [ -3.2078, 40.4256 ], [ -3.2059, 40.4257 ], [ -3.2034, 40.4253 ], [ -3.2007, 40.4251 ], [ -3.198, 40.4241 ], [ -3.1915, 40.423 ], [ -3.1908, 40.4227 ], [ -3.1896, 40.4218 ], [ -3.1888, 40.4215 ], [ -3.1886, 40.4213 ], [ -3.1887, 40.4211 ], [ -3.1875, 40.4206 ], [ -3.1849, 40.4198 ], [ -3.181, 40.4191 ], [ -3.1815, 40.4192 ], [ -3.1815, 40.4193 ], [ -3.1835, 40.4196 ], [ -3.1854, 40.4201 ], [ -3.1885, 40.4212 ], [ -3.1888, 40.4216 ], [ -3.1901, 40.4222 ], [ -3.1908, 40.4228 ], [ -3.1914, 40.4231 ], [ -3.1919, 40.4231 ], [ -3.193, 40.4234 ], [ -3.1979, 40.4242 ], [ -3.2006, 40.4252 ], [ -3.2044, 40.4255 ], [ -3.2056, 40.4258 ], [ -3.2075, 40.4257 ], [ -3.2107, 40.4263 ] ] ] } },
{ "type": "Feature", "properties": { "municipio": "Pezuela de las Torres", "clasificacion": "no-urbanizable-protegido", "calificacion": "sin-asignar", "version": "vigente", "fuente": "SIT-CAM WFS — UsoDelSuelo:VPLA_V_CLASIFICACION (https://idem.comunidad.madrid/geosrvg/ows)", "fecha_dato": "2026-05-12", "ambito": "113", "_raw_CD_SIGLAS": "SNUP", "_raw_DS_CLASIF_GEN": "Suelo No Urbanizable Protegido", "_raw_DS_CLASIF_DET": "Vías Pecuarias", "_raw_DS_DOCU": "NORMAS SUBSIDIARIAS", "_raw_DS_LEY": "CM Ley 4/1984, E RDL 1/1992", "_raw_FC_AC": "1988-03-03", "_raw_NM_AREA_M2": 227468.872272557, "_cam_code": "111" }, "geometry": { "type": "Polygon", "coordinates": [ [ [ -3.1779, 40.4348 ], [ -3.1776, 40.4375 ], [ -3.1773, 40.4379 ], [ -3.1769, 40.4391 ], [ -3.1772, 40.4392 ], [ -3.178, 40.4373 ], [ -3.1781, 40.4362 ], [ -3.179, 40.4372 ], [ -3.1827, 40.4385 ], [ -3.1838, 40.4373 ], [ -3.1836, 40.4369 ], [ -3.1828, 40.437 ], [ -3.1831, 40.4368 ], [ -3.1829, 40.4365 ], [ -3.1829, 40.4362 ], [ -3.1826, 40.4355 ], [ -3.1818, 40.4345 ], [ -3.1811, 40.4352 ], [ -3.1809, 40.4352 ], [ -3.1802, 40.4345 ], [ -3.1805, 40.4341 ], [ -3.1805, 40.4339 ], [ -3.1791, 40.4333 ], [ -3.1785, 40.4327 ], [ -3.1782, 40.4329 ], [ -3.1783, 40.4333 ], [ -3.1779, 40.4335 ], [ -3.1776, 40.4335 ], [ -3.177, 40.4323 ], [ -3.1769, 40.4318 ], [ -3.1762, 40.4312 ], [ -3.1757, 40.431 ], [ -3.1754, 40.4305 ], [ -3.1756, 40.4297 ], [ -3.1756, 40.4286 ], [ -3.1758, 40.4278 ], [ -3.1764, 40.427 ], [ -3.1773, 40.4264 ], [ -3.1781, 40.4255 ], [ -3.179, 40.424 ], [ -3.1786, 40.4222 ], [ -3.1786, 40.4213 ], [ -3.1785, 40.4212 ], [ -3.1783, 40.4215 ], [ -3.1782, 40.4221 ], [ -3.1786, 40.4238 ], [ -3.1775, 40.4256 ], [ -3.1761, 40.4269 ], [ -3.1754, 40.4278 ], [ -3.1751, 40.4305 ], [ -3.1752, 40.4309 ], [ -3.1755, 40.4312 ], [ -3.1763, 40.4315 ], [ -3.1767, 40.4321 ], [ -3.1777, 40.4346 ], [ -3.1779, 40.4348 ] ] ] } },
{ "type": "Feature", "properties": { "municipio": "Pezuela de las Torres", "clasificacion": "urbano-consolidado", "calificacion": "sin-asignar", "version": "vigente", "fuente": "SIT-CAM WFS — UsoDelSuelo:VPLA_V_CLASIFICACION (https://idem.comunidad.madrid/geosrvg/ows)", "fecha_dato": "2026-05-12", "ambito": "113", "_raw_CD_SIGLAS": "SU", "_raw_DS_CLASIF_GEN": "Suelo Urbano", "_raw_DS_CLASIF_DET": "Suelo Urbano", "_raw_DS_DOCU": "NORMAS SUBSIDIARIAS", "_raw_DS_LEY": "CM Ley 4/1984, E RDL 1/1992", "_raw_FC_AC": "1988-03-03", "_raw_NM_AREA_M2": 154012.87376678101, "_cam_code": "111" }, "geometry": { "type": "Polygon", "coordinates": [ [ [ -3.1687, 40.4275 ], [ -3.1706, 40.4277 ], [ -3.1706, 40.4278 ], [ -3.1707, 40.4277 ], [ -3.1715, 40.4253 ], [ -3.1714, 40.4251 ], [ -3.1712, 40.4251 ], [ -3.171, 40.4249 ], [ -3.1713, 40.4246 ], [ -3.1713, 40.4244 ], [ -3.1711, 40.4243 ], [ -3.1712, 40.4241 ], [ -3.1705, 40.4234 ], [ -3.1707, 40.4231 ], [ -3.1711, 40.4229 ], [ -3.1704, 40.4225 ], [ -3.1699, 40.4226 ], [ -3.1675, 40.4225 ], [ -3.1674, 40.422 ], [ -3.1668, 40.4221 ], [ -3.1655, 40.4227 ], [ -3.1654, 40.4228 ], [ -3.1656, 40.4229 ], [ -3.1663, 40.4239 ], [ -3.1669, 40.4244 ], [ -3.1686, 40.4241 ], [ -3.169, 40.426 ], [ -3.1691, 40.426 ], [ -3.1687, 40.4275 ] ] ] } },
{ "type": "Feature", "properties": { "municipio": "Pezuela de las Torres", "clasificacion": "urbano-consolidado", "calificacion": "sin-asignar", "version": "vigente", "fuente": "SIT-CAM WFS — UsoDelSuelo:VPLA_V_CLASIFICACION (https://idem.comunidad.madrid/geosrvg/ows)", "fecha_dato": "2026-05-12", "ambito": "113", "_raw_CD_SIGLAS": "SU", "_raw_DS_CLASIF_GEN": "Suelo Urbano", "_raw_DS_CLASIF_DET": "Suelo Urbano", "_raw_DS_DOCU": "NORMAS SUBSIDIARIAS", "_raw_DS_LEY": "CM Ley 4/1984, E RDL 1/1992", "_raw_FC_AC": "1988-03-03", "_raw_NM_AREA_M2": 3058.2357240321699, "_cam_code": "111" }, "geometry": { "type": "Polygon", "coordinates": [ [ [ -3.1667, 40.422 ], [ -3.1651, 40.4223 ], [ -3.1651, 40.4224 ], [ -3.1654, 40.4227 ], [ -3.1654, 40.4226 ], [ -3.1666, 40.4221 ], [ -3.1667, 40.422 ] ] ] } },
{ "type": "Feature", "properties": { "municipio": "Pezuela de las Torres", "clasificacion": "urbano-consolidado", "calificacion": "sin-asignar", "version": "vigente", "fuente": "SIT-CAM WFS — UsoDelSuelo:VPLA_V_CLASIFICACION (https://idem.comunidad.madrid/geosrvg/ows)", "fecha_dato": "2026-05-12", "ambito": "113", "_raw_CD_SIGLAS": "SU", "_raw_DS_CLASIF_GEN": "Suelo Urbano", "_raw_DS_CLASIF_DET": "Suelo Urbano", "_raw_DS_DOCU": "NORMAS SUBSIDIARIAS", "_raw_DS_LEY": "CM Ley 4/1984, E RDL 1/1992", "_raw_FC_AC": "1988-03-03", "_raw_NM_AREA_M2": 434329.879594978, "_cam_code": "111" }, "geometry": { "type": "Polygon", "coordinates": [ [ [ -3.1829, 40.4214 ], [ -3.1833, 40.4219 ], [ -3.1838, 40.4215 ], [ -3.1842, 40.4214 ], [ -3.1845, 40.4211 ], [ -3.1842, 40.4206 ], [ -3.1846, 40.4204 ], [ -3.1845, 40.4201 ], [ -3.1835, 40.4196 ], [ -3.1811, 40.4192 ], [ -3.1808, 40.4188 ], [ -3.1811, 40.4186 ], [ -3.181, 40.4183 ], [ -3.1808, 40.4184 ], [ -3.1807, 40.4182 ], [ -3.1804, 40.4183 ], [ -3.1803, 40.418 ], [ -3.1803, 40.4181 ], [ -3.1793, 40.4171 ], [ -3.1788, 40.4161 ], [ -3.1787, 40.4156 ], [ -3.1786, 40.4156 ], [ -3.1782, 40.4149 ], [ -3.178, 40.4148 ], [ -3.1783, 40.4141 ], [ -3.1761, 40.4142 ], [ -3.176, 40.4143 ], [ -3.1758, 40.4142 ], [ -3.1756, 40.4151 ], [ -3.1754, 40.4154 ], [ -3.1755, 40.4156 ], [ -3.1751, 40.4158 ], [ -3.1747, 40.4165 ], [ -3.1743, 40.4167 ], [ -3.174, 40.4165 ], [ -3.1735, 40.4165 ], [ -3.1735, 40.4171 ], [ -3.1732, 40.4174 ], [ -3.1725, 40.4178 ], [ -3.1719, 40.4178 ], [ -3.1716, 40.418 ], [ -3.1714, 40.4184 ], [ -3.1714, 40.4189 ], [ -3.1717, 40.4191 ], [ -3.1729, 40.4194 ], [ -3.1734, 40.4194 ], [ -3.1735, 40.4201 ], [ -3.1753, 40.4202 ], [ -3.1778, 40.4216 ], [ -3.1782, 40.4216 ], [ -3.1786, 40.4212 ], [ -3.1787, 40.4209 ], [ -3.18, 40.4211 ], [ -3.1818, 40.4205 ], [ -3.1825, 40.4215 ], [ -3.1829, 40.4214 ] ] ] } },
{ "type": "Feature", "properties": { "municipio": "Pezuela de las Torres", "clasificacion": "urbanizable-no-sectorizado", "calificacion": "sin-asignar", "version": "vigente", "fuente": "SIT-CAM WFS — UsoDelSuelo:VPLA_V_CLASIFICACION (https://idem.comunidad.madrid/geosrvg/ows)", "fecha_dato": "2026-05-12", "ambito": "113", "_raw_CD_SIGLAS": "SUBNS", "_raw_DS_CLASIF_GEN": "Suelo No Urbanizable Común", "_raw_DS_CLASIF_DET": "Suelo No Urbanizable Común", "_raw_DS_DOCU": "NORMAS SUBSIDIARIAS", "_raw_DS_LEY": "CM Ley 4/1984, E RDL 1/1992", "_raw_FC_AC": "1988-03-03", "_raw_NM_AREA_M2": 522490.37852908199, "_cam_code": "111" }, "geometry": { "type": "MultiPolygon", "coordinates": [ [ [ [ -3.1742, 40.4167 ], [ -3.1747, 40.4165 ], [ -3.1751, 40.4158 ], [ -3.1755, 40.4156 ], [ -3.1754, 40.4154 ], [ -3.1756, 40.4151 ], [ -3.1758, 40.4142 ], [ -3.176, 40.4143 ], [ -3.1761, 40.4142 ], [ -3.1783, 40.4141 ], [ -3.1786, 40.4136 ], [ -3.1784, 40.4134 ], [ -3.1775, 40.4131 ], [ -3.1762, 40.4124 ], [ -3.1758, 40.4109 ], [ -3.175, 40.4096 ], [ -3.1734, 40.4091 ], [ -3.1727, 40.4087 ], [ -3.172, 40.4085 ], [ -3.169, 40.408 ], [ -3.1669, 40.407 ], [ -3.1664, 40.4069 ], [ -3.164, 40.4058 ], [ -3.1637, 40.4058 ], [ -3.1614, 40.4045 ], [ -3.1609, 40.4043 ], [ -3.16, 40.4042 ], [ -3.1595, 40.4038 ], [ -3.1593, 40.404 ], [ -3.1593, 40.4044 ], [ -3.1599, 40.4048 ], [ -3.1598, 40.4049 ], [ -3.161, 40.405 ], [ -3.1618, 40.406 ], [ -3.1633, 40.4071 ], [ -3.164, 40.4086 ], [ -3.1645, 40.409 ], [ -3.1657, 40.4104 ], [ -3.1665, 40.4108 ], [ -3.1671, 40.411 ], [ -3.1678, 40.4108 ], [ -3.1685, 40.4104 ], [ -3.1692, 40.4098 ], [ -3.1704, 40.4099 ], [ -3.1717, 40.4097 ], [ -3.1729, 40.4099 ], [ -3.1728, 40.4101 ], [ -3.1714, 40.4111 ], [ -3.1705, 40.4115 ], [ -3.1705, 40.4119 ], [ -3.1713, 40.4131 ], [ -3.1717, 40.4132 ], [ -3.1718, 40.413 ], [ -3.1721, 40.4129 ], [ -3.1731, 40.4129 ], [ -3.1736, 40.413 ], [ -3.1745, 40.4135 ], [ -3.1732, 40.4143 ], [ -3.1731, 40.4145 ], [ -3.1731, 40.4148 ], [ -3.1736, 40.4158 ], [ -3.1737, 40.4163 ], [ -3.1738, 40.4165 ], [ -3.174, 40.4165 ], [ -3.1742, 40.4167 ] ] ], [ [ [ -3.1726, 40.4167 ], [ -3.1726, 40.417 ], [ -3.1719, 40.4178 ], [ -3.1725, 40.4178 ], [ -3.1735, 40.4171 ], [ -3.1735, 40.4165 ], [ -3.1736, 40.4165 ], [ -3.1737, 40.4165 ], [ -3.1736, 40.4165 ], [ -3.1735, 40.416 ], [ -3.173, 40.415 ], [ -3.1723, 40.416 ], [ -3.1726, 40.4167 ] ] ] ] } },
{ "type": "Feature", "properties": { "municipio": "Pezuela de las Torres", "clasificacion": "urbanizable-no-sectorizado", "calificacion": "sin-asignar", "version": "vigente", "fuente": "SIT-CAM WFS — UsoDelSuelo:VPLA_V_CLASIFICACION (https://idem.comunidad.madrid/geosrvg/ows)", "fecha_dato": "2026-05-12", "ambito": "113", "_raw_CD_SIGLAS": "SUBNS", "_raw_DS_CLASIF_GEN": "Suelo No Urbanizable Común", "_raw_DS_CLASIF_DET": "Suelo No Urbanizable Común", "_raw_DS_DOCU": "NORMAS SUBSIDIARIAS", "_raw_DS_LEY": "CM Ley 4/1984, E RDL 1/1992", "_raw_FC_AC": "1988-03-03", "_raw_NM_AREA_M2": 5615083.968905, "_cam_code": "111" }, "geometry": { "type": "MultiPolygon", "coordinates": [ [ [ [ -3.164, 40.3921 ], [ -3.1641, 40.3925 ], [ -3.1636, 40.3933 ], [ -3.1629, 40.3938 ], [ -3.162, 40.3941 ], [ -3.1615, 40.3948 ], [ -3.1593, 40.3954 ], [ -3.1591, 40.3958 ], [ -3.1596, 40.3968 ], [ -3.1594, 40.3974 ], [ -3.1596, 40.3976 ], [ -3.1602, 40.3978 ], [ -3.1601, 40.3983 ], [ -3.1603, 40.3985 ], [ -3.1603, 40.4001 ], [ -3.1604, 40.4004 ], [ -3.1609, 40.4009 ], [ -3.1634, 40.4025 ], [ -3.1639, 40.4033 ], [ -3.1646, 40.4041 ], [ -3.1648, 40.4047 ], [ -3.1648, 40.406 ], [ -3.1688, 40.4076 ], [ -3.1693, 40.4079 ], [ -3.1719, 40.4083 ], [ -3.1752, 40.4095 ], [ -3.1761, 40.4109 ], [ -3.1764, 40.4123 ], [ -3.1782, 40.4131 ], [ -3.1788, 40.4132 ], [ -3.1822, 40.4089 ], [ -3.1839, 40.4054 ], [ -3.1836, 40.4043 ], [ -3.1812, 40.4002 ], [ -3.1807, 40.398 ], [ -3.1808, 40.3972 ], [ -3.1811, 40.3963 ], [ -3.182, 40.3948 ], [ -3.1821, 40.393 ], [ -3.1819, 40.3922 ], [ -3.1816, 40.3891 ], [ -3.1817, 40.3881 ], [ -3.1827, 40.3856 ], [ -3.1829, 40.3824 ], [ -3.1835, 40.3811 ], [ -3.1841, 40.3792 ], [ -3.1843, 40.379 ], [ -3.1839, 40.3757 ], [ -3.1836, 40.3745 ], [ -3.1823, 40.3741 ], [ -3.1812, 40.374 ], [ -3.1774, 40.3741 ], [ -3.1776, 40.375 ], [ -3.1773, 40.3759 ], [ -3.1769, 40.3763 ], [ -3.176, 40.3764 ], [ -3.1757, 40.3767 ], [ -3.1752, 40.3768 ], [ -3.1744, 40.3772 ], [ -3.1738, 40.3783 ], [ -3.1738, 40.3788 ], [ -3.1735, 40.3795 ], [ -3.1738, 40.381 ], [ -3.1735, 40.3814 ], [ -3.1736, 40.3831 ], [ -3.1729, 40.3839 ], [ -3.1712, 40.3847 ], [ -3.1701, 40.3848 ], [ -3.1698, 40.3836 ], [ -3.1674, 40.3838 ], [ -3.1664, 40.3829 ], [ -3.1654, 40.3824 ], [ -3.1657, 40.3817 ], [ -3.1655, 40.3804 ], [ -3.1646, 40.3797 ], [ -3.1643, 40.3798 ], [ -3.1641, 40.3801 ], [ -3.1623, 40.3808 ], [ -3.1621, 40.3812 ], [ -3.1632, 40.3817 ], [ -3.1633, 40.383 ], [ -3.1641, 40.3835 ], [ -3.164, 40.3837 ], [ -3.1635, 40.3837 ], [ -3.163, 40.384 ], [ -3.1626, 40.3837 ], [ -3.1621, 40.3838 ], [ -3.1599, 40.3835 ], [ -3.159, 40.3837 ], [ -3.1593, 40.3839 ], [ -3.1589, 40.3841 ], [ -3.157, 40.3844 ], [ -3.1567, 40.3842 ], [ -3.1567, 40.384 ], [ -3.1563, 40.3839 ], [ -3.155, 40.3847 ], [ -3.1557, 40.3859 ], [ -3.1586, 40.3867 ], [ -3.1594, 40.3868 ], [ -3.1608, 40.3864 ], [ -3.1638, 40.3875 ], [ -3.166, 40.3865 ], [ -3.1664, 40.3861 ], [ -3.1664, 40.3872 ], [ -3.1669, 40.3877 ], [ -3.1669, 40.3894 ], [ -3.1666, 40.3901 ], [ -3.1666, 40.3906 ], [ -3.167, 40.3911 ], [ -3.167, 40.3914 ], [ -3.1664, 40.3915 ], [ -3.1659, 40.3918 ], [ -3.1654, 40.3916 ], [ -3.1649, 40.3907 ], [ -3.1645, 40.3906 ], [ -3.1644, 40.3915 ], [ -3.164, 40.3921 ] ] ], [ [ [ -3.1845, 40.3789 ], [ -3.1855, 40.3795 ], [ -3.1845, 40.3787 ], [ -3.1845, 40.3789 ] ] ] ] } },
{ "type": "Feature", "properties": { "municipio": "Pezuela de las Torres", "clasificacion": "urbanizable-no-sectorizado", "calificacion": "sin-asignar", "version": "vigente", "fuente": "SIT-CAM WFS — UsoDelSuelo:VPLA_V_CLASIFICACION (https://idem.comunidad.madrid/geosrvg/ows)", "fecha_dato": "2026-05-12", "ambito": "113", "_raw_CD_SIGLAS": "SUBNS", "_raw_DS_CLASIF_GEN": "Suelo No Urbanizable Común", "_raw_DS_CLASIF_DET": "Suelo No Urbanizable Común", "_raw_DS_DOCU": "NORMAS SUBSIDIARIAS", "_raw_DS_LEY": "CM Ley 4/1984, E RDL 1/1992", "_raw_FC_AC": "1988-03-03", "_raw_NM_AREA_M2": 7133911.3590076901, "_cam_code": "111" }, "geometry": { "type": "Polygon", "coordinates": [ [ [ -3.1811, 40.4185 ], [ -3.1821, 40.4181 ], [ -3.183, 40.4173 ], [ -3.184, 40.4167 ], [ -3.185, 40.4155 ], [ -3.1858, 40.414 ], [ -3.1865, 40.4134 ], [ -3.1871, 40.4121 ], [ -3.1882, 40.4113 ], [ -3.1895, 40.4107 ], [ -3.1926, 40.4072 ], [ -3.1931, 40.4071 ], [ -3.1948, 40.4074 ], [ -3.1954, 40.4073 ], [ -3.1974, 40.4064 ], [ -3.198, 40.4063 ], [ -3.2, 40.4062 ], [ -3.2012, 40.4064 ], [ -3.2026, 40.4063 ], [ -3.2039, 40.406 ], [ -3.2046, 40.4055 ], [ -3.2063, 40.4057 ], [ -3.2077, 40.4056 ], [ -3.2108, 40.4059 ], [ -3.2133, 40.4044 ], [ -3.2141, 40.4034 ], [ -3.2141, 40.403 ], [ -3.2144, 40.4027 ], [ -3.2141, 40.4026 ], [ -3.2139, 40.4019 ], [ -3.2129, 40.4017 ], [ -3.2124, 40.4013 ], [ -3.2122, 40.401 ], [ -3.2122, 40.4003 ], [ -3.2119, 40.3998 ], [ -3.2114, 40.3994 ], [ -3.2106, 40.3994 ], [ -3.2094, 40.4 ], [ -3.2089, 40.3995 ], [ -3.2089, 40.399 ], [ -3.2092, 40.3988 ], [ -3.2094, 40.3981 ], [ -3.21, 40.3976 ], [ -3.212, 40.3974 ], [ -3.2137, 40.3984 ], [ -3.2148, 40.3982 ], [ -3.2153, 40.3979 ], [ -3.2165, 40.3975 ], [ -3.2172, 40.3968 ], [ -3.2182, 40.3962 ], [ -3.2192, 40.3953 ], [ -3.2204, 40.3939 ], [ -3.2236, 40.3929 ], [ -3.2234, 40.3922 ], [ -3.223, 40.3889 ], [ -3.2218, 40.3888 ], [ -3.2195, 40.3896 ], [ -3.2187, 40.3897 ], [ -3.2182, 40.3896 ], [ -3.2181, 40.3893 ], [ -3.2183, 40.3891 ], [ -3.2199, 40.388 ], [ -3.2191, 40.3865 ], [ -3.2181, 40.3866 ], [ -3.2186, 40.3872 ], [ -3.2179, 40.3874 ], [ -3.214, 40.3893 ], [ -3.2122, 40.3896 ], [ -3.2063, 40.3911 ], [ -3.2044, 40.3913 ], [ -3.2019, 40.3912 ], [ -3.1991, 40.3889 ], [ -3.1984, 40.3885 ], [ -3.1984, 40.3883 ], [ -3.1975, 40.3876 ], [ -3.1949, 40.386 ], [ -3.1914, 40.3829 ], [ -3.1889, 40.3809 ], [ -3.1875, 40.3802 ], [ -3.1855, 40.3796 ], [ -3.1855, 40.3795 ], [ -3.1845, 40.3789 ], [ -3.1831, 40.3829 ], [ -3.183, 40.3856 ], [ -3.182, 40.3881 ], [ -3.1819, 40.3898 ], [ -3.1824, 40.3936 ], [ -3.1823, 40.3945 ], [ -3.1815, 40.3959 ], [ -3.181, 40.3977 ], [ -3.181, 40.3986 ], [ -3.1814, 40.3999 ], [ -3.1836, 40.404 ], [ -3.1841, 40.4053 ], [ -3.1824, 40.4089 ], [ -3.1816, 40.41 ], [ -3.1793, 40.4126 ], [ -3.178, 40.4148 ], [ -3.1782, 40.4149 ], [ -3.1786, 40.4156 ], [ -3.1787, 40.4156 ], [ -3.1788, 40.4161 ], [ -3.1793, 40.4171 ], [ -3.1803, 40.4181 ], [ -3.1803, 40.418 ], [ -3.1804, 40.4183 ], [ -3.1807, 40.4182 ], [ -3.1808, 40.4184 ], [ -3.181, 40.4183 ], [ -3.1811, 40.4185 ] ] ] } },
{ "type": "Feature", "properties": { "municipio": "Pezuela de las Torres", "clasificacion": "urbanizable-no-sectorizado", "calificacion": "sin-asignar", "version": "vigente", "fuente": "SIT-CAM WFS — UsoDelSuelo:VPLA_V_CLASIFICACION (https://idem.comunidad.madrid/geosrvg/ows)", "fecha_dato": "2026-05-12", "ambito": "113", "_raw_CD_SIGLAS": "SUBNS", "_raw_DS_CLASIF_GEN": "Suelo No Urbanizable Común", "_raw_DS_CLASIF_DET": "Suelo No Urbanizable Común", "_raw_DS_DOCU": "NORMAS SUBSIDIARIAS", "_raw_DS_LEY": "CM Ley 4/1984, E RDL 1/1992", "_raw_FC_AC": "1988-03-03", "_raw_NM_AREA_M2": 2330556.7673283201, "_cam_code": "111" }, "geometry": { "type": "MultiPolygon", "coordinates": [ [ [ [ -3.1731, 40.4371 ], [ -3.1741, 40.4379 ], [ -3.1769, 40.4391 ], [ -3.1773, 40.4379 ], [ -3.1776, 40.4375 ], [ -3.1779, 40.4348 ], [ -3.1777, 40.4346 ], [ -3.1767, 40.4321 ], [ -3.1763, 40.4315 ], [ -3.1755, 40.4312 ], [ -3.1752, 40.4309 ], [ -3.1751, 40.4305 ], [ -3.1754, 40.4278 ], [ -3.1761, 40.4269 ], [ -3.1775, 40.4256 ], [ -3.1786, 40.4237 ], [ -3.1782, 40.4221 ], [ -3.1784, 40.4214 ], [ -3.1782, 40.4216 ], [ -3.1778, 40.4216 ], [ -3.1753, 40.4202 ], [ -3.1735, 40.4201 ], [ -3.1734, 40.4194 ], [ -3.1719, 40.4192 ], [ -3.1719, 40.4191 ], [ -3.1715, 40.419 ], [ -3.1714, 40.4189 ], [ -3.1714, 40.4184 ], [ -3.1716, 40.418 ], [ -3.1717, 40.418 ], [ -3.1718, 40.4179 ], [ -3.1719, 40.4178 ], [ -3.1713, 40.418 ], [ -3.1709, 40.4183 ], [ -3.1706, 40.4183 ], [ -3.1709, 40.4189 ], [ -3.1713, 40.4192 ], [ -3.1733, 40.4195 ], [ -3.1733, 40.4196 ], [ -3.1711, 40.4193 ], [ -3.1704, 40.42 ], [ -3.1704, 40.4203 ], [ -3.1702, 40.4206 ], [ -3.1697, 40.4209 ], [ -3.1687, 40.4212 ], [ -3.1679, 40.4217 ], [ -3.1687, 40.4213 ], [ -3.1691, 40.4213 ], [ -3.1694, 40.4215 ], [ -3.1696, 40.4219 ], [ -3.1695, 40.4221 ], [ -3.1689, 40.4225 ], [ -3.1692, 40.4226 ], [ -3.1704, 40.4225 ], [ -3.1711, 40.4229 ], [ -3.1707, 40.4231 ], [ -3.1705, 40.4234 ], [ -3.1712, 40.4241 ], [ -3.1711, 40.4243 ], [ -3.1713, 40.4244 ], [ -3.1713, 40.4246 ], [ -3.171, 40.4249 ], [ -3.1712, 40.4251 ], [ -3.1714, 40.4251 ], [ -3.1715, 40.4253 ], [ -3.1706, 40.4278 ], [ -3.1706, 40.4277 ], [ -3.1687, 40.4275 ], [ -3.1691, 40.426 ], [ -3.169, 40.426 ], [ -3.1686, 40.4241 ], [ -3.1669, 40.4244 ], [ -3.1663, 40.4239 ], [ -3.1656, 40.4229 ], [ -3.1653, 40.4228 ], [ -3.1641, 40.4232 ], [ -3.1616, 40.4234 ], [ -3.1606, 40.424 ], [ -3.1608, 40.4254 ], [ -3.1605, 40.4262 ], [ -3.1606, 40.4279 ], [ -3.1605, 40.4287 ], [ -3.16, 40.429 ], [ -3.1604, 40.4294 ], [ -3.1604, 40.43 ], [ -3.1618, 40.4305 ], [ -3.1621, 40.4309 ], [ -3.162, 40.4324 ], [ -3.1635, 40.4327 ], [ -3.164, 40.433 ], [ -3.1648, 40.4331 ], [ -3.1649, 40.4327 ], [ -3.1652, 40.4326 ], [ -3.1656, 40.4331 ], [ -3.1658, 40.4338 ], [ -3.1663, 40.434 ], [ -3.1687, 40.4337 ], [ -3.1701, 40.4341 ], [ -3.1705, 40.4352 ], [ -3.171, 40.4359 ], [ -3.172, 40.4367 ], [ -3.1726, 40.4363 ], [ -3.1731, 40.4371 ] ] ], [ [ [ -3.1646, 40.4154 ], [ -3.1668, 40.4153 ], [ -3.1689, 40.4143 ], [ -3.1675, 40.414 ], [ -3.1671, 40.4133 ], [ -3.1653, 40.4141 ], [ -3.1645, 40.4141 ], [ -3.1637, 40.4138 ], [ -3.1631, 40.414 ], [ -3.162, 40.414 ], [ -3.1612, 40.4142 ], [ -3.1591, 40.4141 ], [ -3.1581, 40.4138 ], [ -3.1581, 40.4136 ], [ -3.158, 40.4136 ], [ -3.1581, 40.4126 ], [ -3.1563, 40.412 ], [ -3.1562, 40.4122 ], [ -3.1563, 40.414 ], [ -3.1564, 40.4142 ], [ -3.1574, 40.4148 ], [ -3.1611, 40.4151 ], [ -3.1634, 40.415 ], [ -3.1636, 40.4152 ], [ -3.1646, 40.4154 ] ] ], [ [ [ -3.1617, 40.4231 ], [ -3.1617, 40.4232 ], [ -3.1637, 40.4231 ], [ -3.1654, 40.4227 ], [ -3.1651, 40.4223 ], [ -3.1669, 40.422 ], [ -3.1686, 40.421 ], [ -3.1695, 40.4208 ], [ -3.1701, 40.4204 ], [ -3.1708, 40.4191 ], [ -3.1702, 40.4181 ], [ -3.17, 40.417 ], [ -3.1697, 40.4166 ], [ -3.1693, 40.4155 ], [ -3.169, 40.4161 ], [ -3.1687, 40.4164 ], [ -3.1682, 40.4176 ], [ -3.1676, 40.4175 ], [ -3.1667, 40.4176 ], [ -3.1662, 40.4179 ], [ -3.166, 40.4183 ], [ -3.1653, 40.4186 ], [ -3.1651, 40.419 ], [ -3.1646, 40.4195 ], [ -3.1639, 40.4198 ], [ -3.164, 40.4203 ], [ -3.1639, 40.4204 ], [ -3.1632, 40.4203 ], [ -3.1627, 40.4204 ], [ -3.1622, 40.4208 ], [ -3.1621, 40.4211 ], [ -3.1623, 40.4215 ], [ -3.1623, 40.4218 ], [ -3.162, 40.4226 ], [ -3.162, 40.423 ], [ -3.1617, 40.4231 ] ] ] ] } },
{ "type": "Feature", "properties": { "municipio": "Pezuela de las Torres", "clasificacion": "urbanizable-no-sectorizado", "calificacion": "sin-asignar", "version": "vigente", "fuente": "SIT-CAM WFS — UsoDelSuelo:VPLA_V_CLASIFICACION (https://idem.comunidad.madrid/geosrvg/ows)", "fecha_dato": "2026-05-12", "ambito": "113", "_raw_CD_SIGLAS": "SUBNS", "_raw_DS_CLASIF_GEN": "Suelo No Urbanizable Común", "_raw_DS_CLASIF_DET": "Suelo No Urbanizable Común", "_raw_DS_DOCU": "NORMAS SUBSIDIARIAS", "_raw_DS_LEY": "CM Ley 4/1984, E RDL 1/1992", "_raw_FC_AC": "1988-03-03", "_raw_NM_AREA_M2": 10212501.8779868, "_cam_code": "111" }, "geometry": { "type": "MultiPolygon", "coordinates": [ [ [ [ -3.1854, 40.4399 ], [ -3.1869, 40.4403 ], [ -3.188, 40.4409 ], [ -3.1901, 40.4413 ], [ -3.1928, 40.4414 ], [ -3.1986, 40.4423 ], [ -3.2, 40.4405 ], [ -3.202, 40.4402 ], [ -3.2033, 40.4391 ], [ -3.2062, 40.4379 ], [ -3.2077, 40.4371 ], [ -3.2101, 40.4346 ], [ -3.2112, 40.4344 ], [ -3.212, 40.4334 ], [ -3.2122, 40.4304 ], [ -3.2136, 40.4286 ], [ -3.2139, 40.4278 ], [ -3.2148, 40.4263 ], [ -3.2133, 40.4262 ], [ -3.2129, 40.4261 ], [ -3.2127, 40.4261 ], [ -3.2125, 40.4262 ], [ -3.2119, 40.4263 ], [ -3.2116, 40.4263 ], [ -3.2113, 40.4263 ], [ -3.211, 40.4263 ], [ -3.2107, 40.4263 ], [ -3.2075, 40.4257 ], [ -3.2056, 40.4258 ], [ -3.2044, 40.4255 ], [ -3.2006, 40.4252 ], [ -3.1979, 40.4242 ], [ -3.193, 40.4234 ], [ -3.1919, 40.4231 ], [ -3.1914, 40.4231 ], [ -3.1908, 40.4228 ], [ -3.1901, 40.4222 ], [ -3.1888, 40.4216 ], [ -3.1885, 40.4212 ], [ -3.1854, 40.4201 ], [ -3.1837, 40.4197 ], [ -3.1836, 40.4197 ], [ -3.1845, 40.4201 ], [ -3.1846, 40.4204 ], [ -3.1842, 40.4206 ], [ -3.1845, 40.4211 ], [ -3.1842, 40.4214 ], [ -3.1838, 40.4215 ], [ -3.1833, 40.4219 ], [ -3.1829, 40.4216 ], [ -3.1829, 40.4214 ], [ -3.1825, 40.4215 ], [ -3.1818, 40.4205 ], [ -3.18, 40.4211 ], [ -3.1787, 40.4209 ], [ -3.1786, 40.4212 ], [ -3.1785, 40.4212 ], [ -3.1786, 40.4213 ], [ -3.1786, 40.4222 ], [ -3.179, 40.424 ], [ -3.1781, 40.4255 ], [ -3.1773, 40.4264 ], [ -3.1764, 40.427 ], [ -3.1758, 40.4278 ], [ -3.1756, 40.4286 ], [ -3.1756, 40.4297 ], [ -3.1754, 40.4305 ], [ -3.1757, 40.431 ], [ -3.1762, 40.4312 ], [ -3.1769, 40.4318 ], [ -3.177, 40.4323 ], [ -3.1776, 40.4335 ], [ -3.1779, 40.4335 ], [ -3.1783, 40.4333 ], [ -3.1782, 40.4329 ], [ -3.1785, 40.4327 ], [ -3.1791, 40.4333 ], [ -3.1805, 40.4339 ], [ -3.1805, 40.4341 ], [ -3.1802, 40.4345 ], [ -3.1809, 40.4352 ], [ -3.1811, 40.4352 ], [ -3.1818, 40.4345 ], [ -3.1826, 40.4355 ], [ -3.1829, 40.4362 ], [ -3.1829, 40.4365 ], [ -3.1831, 40.4368 ], [ -3.1828, 40.437 ], [ -3.1836, 40.4369 ], [ -3.1838, 40.4373 ], [ -3.1827, 40.4385 ], [ -3.179, 40.4372 ], [ -3.1781, 40.4362 ], [ -3.178, 40.4373 ], [ -3.1772, 40.4392 ], [ -3.1825, 40.44 ], [ -3.1854, 40.4399 ] ] ], [ [ [ -3.2078, 40.4256 ], [ -3.2106, 40.4262 ], [ -3.2109, 40.4263 ], [ -3.2112, 40.4263 ], [ -3.2114, 40.4262 ], [ -3.2122, 40.4261 ], [ -3.2125, 40.4261 ], [ -3.2126, 40.4261 ], [ -3.2128, 40.4261 ], [ -3.2131, 40.4261 ], [ -3.2145, 40.4261 ], [ -3.2148, 40.4262 ], [ -3.2146, 40.4208 ], [ -3.2149, 40.4195 ], [ -3.216, 40.4179 ], [ -3.2161, 40.4164 ], [ -3.2159, 40.4122 ], [ -3.2152, 40.4094 ], [ -3.217, 40.4077 ], [ -3.2188, 40.4044 ], [ -3.2193, 40.403 ], [ -3.2196, 40.4027 ], [ -3.2186, 40.4022 ], [ -3.2177, 40.402 ], [ -3.2156, 40.4022 ], [ -3.2143, 40.403 ], [ -3.2142, 40.4036 ], [ -3.2139, 40.404 ], [ -3.2128, 40.405 ], [ -3.2107, 40.4061 ], [ -3.2078, 40.4058 ], [ -3.2059, 40.4059 ], [ -3.2054, 40.4057 ], [ -3.2048, 40.4057 ], [ -3.2042, 40.4061 ], [ -3.2018, 40.4066 ], [ -3.1978, 40.4065 ], [ -3.1953, 40.4076 ], [ -3.1927, 40.4074 ], [ -3.1905, 40.41 ], [ -3.1895, 40.411 ], [ -3.189, 40.4113 ], [ -3.1882, 40.4115 ], [ -3.1878, 40.4118 ], [ -3.1876, 40.4118 ], [ -3.1871, 40.4123 ], [ -3.187, 40.413 ], [ -3.1859, 40.4142 ], [ -3.1845, 40.4166 ], [ -3.1831, 40.4175 ], [ -3.1827, 40.418 ], [ -3.1808, 40.4188 ], [ -3.181, 40.4191 ], [ -3.1849, 40.4198 ], [ -3.1876, 40.4207 ], [ -3.1884, 40.4199 ], [ -3.189, 40.4197 ], [ -3.1895, 40.4198 ], [ -3.1901, 40.4197 ], [ -3.191, 40.4192 ], [ -3.1922, 40.4191 ], [ -3.1916, 40.42 ], [ -3.1905, 40.4204 ], [ -3.1893, 40.4206 ], [ -3.1886, 40.4213 ], [ -3.1888, 40.4215 ], [ -3.1896, 40.4218 ], [ -3.1908, 40.4227 ], [ -3.1915, 40.423 ], [ -3.198, 40.4241 ], [ -3.2007, 40.4251 ], [ -3.2034, 40.4253 ], [ -3.2059, 40.4257 ], [ -3.2078, 40.4256 ] ] ] ] } }
]
}
