{
"type": "FeatureCollection",
"name": "vigente.full",
"features": [
{ "type": "Feature", "properties": { "municipio": "Valverde de Alcalá", "clasificacion": "no-urbanizable-protegido", "calificacion": "sin-asignar", "version": "vigente", "fuente": "SIT-CAM WFS — UsoDelSuelo:VPLA_V_CLASIFICACION (https://idem.comunidad.madrid/geosrvg/ows)", "fecha_dato": "2026-05-12", "ambito": "24510", "_raw_CD_SIGLAS": "SNUP", "_raw_DS_CLASIF_GEN": "Suelo No Urbanizable Protegido", "_raw_DS_CLASIF_DET": "Suelo No Urbanizable Especialmente Protegido por su interés agrario", "_raw_DS_DOCU": "NORMAS SUBSIDIARIAS", "_raw_DS_LEY": "CM Ley 4/1984, E RDL 1/1992", "_raw_FC_AC": "1994-04-21", "_raw_NM_AREA_M2": 35880.533809202898, "_cam_code": "166" }, "geometry": { "type": "Polygon", "coordinates": [ [ [ -3.3001, 40.414 ], [ -3.2998, 40.4143 ], [ -3.2998, 40.415 ], [ -3.3003, 40.4151 ], [ -3.301, 40.4151 ], [ -3.301, 40.4152 ], [ -3.3031, 40.4155 ], [ -3.3034, 40.4148 ], [ -3.3035, 40.4148 ], [ -3.303, 40.4144 ], [ -3.3016, 40.414 ], [ -3.3001, 40.414 ] ] ] } },
{ "type": "Feature", "properties": { "municipio": "Valverde de Alcalá", "clasificacion": "no-urbanizable-protegido", "calificacion": "sin-asignar", "version": "vigente", "fuente": "SIT-CAM WFS — UsoDelSuelo:VPLA_V_CLASIFICACION (https://idem.comunidad.madrid/geosrvg/ows)", "fecha_dato": "2026-05-12", "ambito": "24510", "_raw_CD_SIGLAS": "SNUP", "_raw_DS_CLASIF_GEN": "Suelo No Urbanizable Protegido", "_raw_DS_CLASIF_DET": "Suelo No Urbanizable Especialmente Protegido por su interés agrario", "_raw_DS_DOCU": "NORMAS SUBSIDIARIAS", "_raw_DS_LEY": "CM Ley 4/1984, E RDL 1/1992", "_raw_FC_AC": "1994-04-21", "_raw_NM_AREA_M2": 298308.16443770402, "_cam_code": "166" }, "geometry": { "type": "Polygon", "coordinates": [ [ [ -3.2893, 40.4153 ], [ -3.2918, 40.4158 ], [ -3.2934, 40.4158 ], [ -3.296, 40.4155 ], [ -3.2966, 40.4153 ], [ -3.2968, 40.4144 ], [ -3.2954, 40.4142 ], [ -3.2953, 40.4138 ], [ -3.2951, 40.4136 ], [ -3.2945, 40.4136 ], [ -3.2945, 40.4134 ], [ -3.2939, 40.4132 ], [ -3.2935, 40.4128 ], [ -3.2933, 40.4129 ], [ -3.2926, 40.4125 ], [ -3.2924, 40.413 ], [ -3.2921, 40.4131 ], [ -3.2917, 40.413 ], [ -3.2918, 40.4125 ], [ -3.292, 40.4122 ], [ -3.2918, 40.4116 ], [ -3.2916, 40.4116 ], [ -3.2907, 40.4122 ], [ -3.2906, 40.4134 ], [ -3.2902, 40.4134 ], [ -3.2899, 40.413 ], [ -3.2882, 40.4119 ], [ -3.2871, 40.4107 ], [ -3.2856, 40.4097 ], [ -3.284, 40.4089 ], [ -3.2817, 40.408 ], [ -3.2833, 40.4097 ], [ -3.2837, 40.4098 ], [ -3.2849, 40.4105 ], [ -3.2855, 40.4114 ], [ -3.2857, 40.4114 ], [ -3.2859, 40.4119 ], [ -3.2864, 40.4121 ], [ -3.2867, 40.4125 ], [ -3.2876, 40.413 ], [ -3.2877, 40.4136 ], [ -3.2876, 40.4137 ], [ -3.2869, 40.4137 ], [ -3.288, 40.4153 ], [ -3.2893, 40.4153 ] ] ] } },
{ "type": "Feature", "properties": { "municipio": "Valverde de Alcalá", "clasificacion": "no-urbanizable-protegido", "calificacion": "sin-asignar", "version": "vigente", "fuente": "SIT-CAM WFS — UsoDelSuelo:VPLA_V_CLASIFICACION (https://idem.comunidad.madrid/geosrvg/ows)", "fecha_dato": "2026-05-12", "ambito": "24510", "_raw_CD_SIGLAS": "SNUP", "_raw_DS_CLASIF_GEN": "Suelo No Urbanizable Protegido", "_raw_DS_CLASIF_DET": "Suelo No Urbanizable Especialmente Protegido por su interés agrario", "_raw_DS_DOCU": "NORMAS SUBSIDIARIAS", "_raw_DS_LEY": "CM Ley 4/1984, E RDL 1/1992", "_raw_FC_AC": "1994-04-21", "_raw_NM_AREA_M2": 871232.21006434702, "_cam_code": "166" }, "geometry": { "type": "Polygon", "coordinates": [ [ [ -3.3033, 40.4172 ], [ -3.3053, 40.418 ], [ -3.3065, 40.418 ], [ -3.3075, 40.4176 ], [ -3.3081, 40.4175 ], [ -3.3083, 40.4176 ], [ -3.3104, 40.4177 ], [ -3.3136, 40.4176 ], [ -3.3164, 40.4172 ], [ -3.319, 40.4173 ], [ -3.3216, 40.417 ], [ -3.3244, 40.4172 ], [ -3.3262, 40.4171 ], [ -3.3281, 40.4162 ], [ -3.3284, 40.4162 ], [ -3.3281, 40.4129 ], [ -3.3276, 40.4113 ], [ -3.3272, 40.4116 ], [ -3.3271, 40.4115 ], [ -3.3257, 40.4116 ], [ -3.3253, 40.4117 ], [ -3.3253, 40.4121 ], [ -3.3254, 40.4121 ], [ -3.3253, 40.4126 ], [ -3.3247, 40.4128 ], [ -3.324, 40.4126 ], [ -3.324, 40.4131 ], [ -3.3237, 40.4133 ], [ -3.3234, 40.4132 ], [ -3.3232, 40.4128 ], [ -3.3229, 40.4127 ], [ -3.3226, 40.4134 ], [ -3.3229, 40.4141 ], [ -3.3229, 40.4144 ], [ -3.3226, 40.4146 ], [ -3.3223, 40.4146 ], [ -3.3223, 40.4145 ], [ -3.3219, 40.4144 ], [ -3.3218, 40.4148 ], [ -3.3215, 40.4148 ], [ -3.3212, 40.4145 ], [ -3.3213, 40.4141 ], [ -3.3211, 40.4138 ], [ -3.3211, 40.4135 ], [ -3.321, 40.4135 ], [ -3.321, 40.4131 ], [ -3.3209, 40.4131 ], [ -3.3208, 40.4133 ], [ -3.3204, 40.4133 ], [ -3.3203, 40.4136 ], [ -3.3206, 40.414 ], [ -3.3206, 40.4147 ], [ -3.3205, 40.4148 ], [ -3.3202, 40.4149 ], [ -3.3197, 40.4148 ], [ -3.3191, 40.4142 ], [ -3.3187, 40.4142 ], [ -3.319, 40.4149 ], [ -3.3182, 40.415 ], [ -3.3177, 40.4149 ], [ -3.3175, 40.415 ], [ -3.3173, 40.4146 ], [ -3.317, 40.4144 ], [ -3.3169, 40.4137 ], [ -3.317, 40.4137 ], [ -3.3171, 40.4134 ], [ -3.3176, 40.4131 ], [ -3.3176, 40.413 ], [ -3.317, 40.413 ], [ -3.316, 40.4134 ], [ -3.3156, 40.4133 ], [ -3.3156, 40.4134 ], [ -3.316, 40.4136 ], [ -3.3164, 40.4144 ], [ -3.3164, 40.4148 ], [ -3.316, 40.4149 ], [ -3.3157, 40.4148 ], [ -3.3151, 40.4139 ], [ -3.3148, 40.4137 ], [ -3.3149, 40.4134 ], [ -3.3145, 40.4131 ], [ -3.3145, 40.4125 ], [ -3.3149, 40.4119 ], [ -3.3149, 40.4117 ], [ -3.315, 40.4117 ], [ -3.3153, 40.4105 ], [ -3.3155, 40.4101 ], [ -3.3157, 40.41 ], [ -3.3152, 40.4102 ], [ -3.3148, 40.4106 ], [ -3.3134, 40.4112 ], [ -3.3121, 40.4112 ], [ -3.3115, 40.4108 ], [ -3.3113, 40.4109 ], [ -3.3123, 40.4119 ], [ -3.3124, 40.4123 ], [ -3.3131, 40.4129 ], [ -3.3132, 40.4132 ], [ -3.3132, 40.4146 ], [ -3.3131, 40.4148 ], [ -3.3126, 40.4145 ], [ -3.312, 40.4144 ], [ -3.3117, 40.4145 ], [ -3.3118, 40.415 ], [ -3.3113, 40.4153 ], [ -3.3109, 40.4152 ], [ -3.3107, 40.4149 ], [ -3.3104, 40.415 ], [ -3.31, 40.4154 ], [ -3.3078, 40.4153 ], [ -3.307, 40.4155 ], [ -3.3069, 40.4154 ], [ -3.3074, 40.4144 ], [ -3.3073, 40.4139 ], [ -3.3061, 40.4125 ], [ -3.3057, 40.413 ], [ -3.3049, 40.4134 ], [ -3.3045, 40.4138 ], [ -3.3034, 40.415 ], [ -3.303, 40.4158 ], [ -3.3019, 40.4169 ], [ -3.3017, 40.417 ], [ -3.3016, 40.4171 ], [ -3.3015, 40.4172 ], [ -3.3014, 40.4172 ], [ -3.3013, 40.4172 ], [ -3.3014, 40.4172 ], [ -3.3014, 40.4172 ], [ -3.3019, 40.4172 ], [ -3.3033, 40.4172 ] ], [ [ -3.306, 40.4133 ], [ -3.3064, 40.4135 ], [ -3.3067, 40.4143 ], [ -3.306, 40.4149 ], [ -3.3056, 40.4149 ], [ -3.3053, 40.4147 ], [ -3.3055, 40.4144 ], [ -3.3054, 40.414 ], [ -3.3056, 40.4136 ], [ -3.3058, 40.4137 ], [ -3.306, 40.4133 ] ] ] } },
{ "type": "Feature", "properties": { "municipio": "Valverde de Alcalá", "clasificacion": "no-urbanizable-protegido", "calificacion": "sin-asignar", "version": "vigente", "fuente": "SIT-CAM WFS — UsoDelSuelo:VPLA_V_CLASIFICACION (https://idem.comunidad.madrid/geosrvg/ows)", "fecha_dato": "2026-05-12", "ambito": "24510", "_raw_CD_SIGLAS": "SNUP", "_raw_DS_CLASIF_GEN": "Suelo No Urbanizable Protegido", "_raw_DS_CLASIF_DET": "Suelo No Urbanizable Especialmente Protegido por su interés agrario", "_raw_DS_DOCU": "NORMAS SUBSIDIARIAS", "_raw_DS_LEY": "CM Ley 4/1984, E RDL 1/1992", "_raw_FC_AC": "1994-04-21", "_raw_NM_AREA_M2": 88934.104306578607, "_cam_code": "166" }, "geometry": { "type": "Polygon", "coordinates": [ [ [ -3.29, 40.416 ], [ -3.2909, 40.4161 ], [ -3.291, 40.4164 ], [ -3.2906, 40.4169 ], [ -3.2903, 40.4176 ], [ -3.2903, 40.4181 ], [ -3.2901, 40.4182 ], [ -3.2902, 40.4185 ], [ -3.2899, 40.419 ], [ -3.2913, 40.4196 ], [ -3.2914, 40.4193 ], [ -3.2916, 40.4192 ], [ -3.2916, 40.4189 ], [ -3.2922, 40.4187 ], [ -3.2924, 40.4182 ], [ -3.2926, 40.4182 ], [ -3.2929, 40.4179 ], [ -3.2933, 40.4178 ], [ -3.2936, 40.4164 ], [ -3.2939, 40.4158 ], [ -3.2937, 40.4159 ], [ -3.2917, 40.4159 ], [ -3.2893, 40.4154 ], [ -3.2887, 40.4154 ], [ -3.289, 40.4157 ], [ -3.29, 40.416 ] ] ] } },
{ "type": "Feature", "properties": { "municipio": "Valverde de Alcalá", "clasificacion": "no-urbanizable-protegido", "calificacion": "sin-asignar", "version": "vigente", "fuente": "SIT-CAM WFS — UsoDelSuelo:VPLA_V_CLASIFICACION (https://idem.comunidad.madrid/geosrvg/ows)", "fecha_dato": "2026-05-12", "ambito": "24510", "_raw_CD_SIGLAS": "SNUP", "_raw_DS_CLASIF_GEN": "Suelo No Urbanizable Protegido", "_raw_DS_CLASIF_DET": "Suelo No Urbanizable Especialmente Protegido por su interés agrario", "_raw_DS_DOCU": "NORMAS SUBSIDIARIAS", "_raw_DS_LEY": "CM Ley 4/1984, E RDL 1/1992", "_raw_FC_AC": "1994-04-21", "_raw_NM_AREA_M2": 42345.422762665497, "_cam_code": "166" }, "geometry": { "type": "Polygon", "coordinates": [ [ [ -3.3058, 40.4204 ], [ -3.3056, 40.4206 ], [ -3.3057, 40.4207 ], [ -3.3066, 40.4205 ], [ -3.3069, 40.4206 ], [ -3.3067, 40.42 ], [ -3.3071, 40.4195 ], [ -3.306, 40.4195 ], [ -3.3057, 40.4181 ], [ -3.3048, 40.418 ], [ -3.3033, 40.4173 ], [ -3.3012, 40.4173 ], [ -3.3009, 40.4175 ], [ -3.3013, 40.4176 ], [ -3.3025, 40.4175 ], [ -3.3029, 40.4176 ], [ -3.3037, 40.4182 ], [ -3.304, 40.4181 ], [ -3.304, 40.4185 ], [ -3.3044, 40.4185 ], [ -3.3043, 40.419 ], [ -3.3046, 40.4191 ], [ -3.3048, 40.4189 ], [ -3.305, 40.4189 ], [ -3.3051, 40.4191 ], [ -3.305, 40.4192 ], [ -3.3053, 40.4194 ], [ -3.3054, 40.4197 ], [ -3.3058, 40.4198 ], [ -3.3057, 40.4201 ], [ -3.3058, 40.4204 ] ] ] } },
{ "type": "Feature", "properties": { "municipio": "Valverde de Alcalá", "clasificacion": "no-urbanizable-protegido", "calificacion": "sin-asignar", "version": "vigente", "fuente": "SIT-CAM WFS — UsoDelSuelo:VPLA_V_CLASIFICACION (https://idem.comunidad.madrid/geosrvg/ows)", "fecha_dato": "2026-05-12", "ambito": "24510", "_raw_CD_SIGLAS": "SNUP", "_raw_DS_CLASIF_GEN": "Suelo No Urbanizable Protegido", "_raw_DS_CLASIF_DET": "Suelo No Urbanizable Especialmente Protegido por su interés agrario", "_raw_DS_DOCU": "NORMAS SUBSIDIARIAS", "_raw_DS_LEY": "CM Ley 4/1984, E RDL 1/1992", "_raw_FC_AC": "1994-04-21", "_raw_NM_AREA_M2": 171720.184905626, "_cam_code": "166" }, "geometry": { "type": "Polygon", "coordinates": [ [ [ -3.3265, 40.4212 ], [ -3.3267, 40.4212 ], [ -3.3267, 40.4211 ], [ -3.3264, 40.4207 ], [ -3.3264, 40.4205 ], [ -3.3268, 40.4204 ], [ -3.3276, 40.4199 ], [ -3.328, 40.4199 ], [ -3.3282, 40.4197 ], [ -3.3285, 40.4198 ], [ -3.3284, 40.4195 ], [ -3.3288, 40.4186 ], [ -3.3283, 40.4181 ], [ -3.3283, 40.4176 ], [ -3.3286, 40.4172 ], [ -3.3284, 40.4168 ], [ -3.3284, 40.4163 ], [ -3.3279, 40.4164 ], [ -3.3268, 40.417 ], [ -3.3257, 40.4173 ], [ -3.3239, 40.4173 ], [ -3.3216, 40.4171 ], [ -3.319, 40.4174 ], [ -3.3164, 40.4173 ], [ -3.3136, 40.4177 ], [ -3.3115, 40.4178 ], [ -3.3076, 40.4177 ], [ -3.3073, 40.4178 ], [ -3.3075, 40.418 ], [ -3.309, 40.418 ], [ -3.3101, 40.4182 ], [ -3.3113, 40.418 ], [ -3.3125, 40.418 ], [ -3.3137, 40.4181 ], [ -3.314, 40.4183 ], [ -3.3143, 40.4179 ], [ -3.3156, 40.4178 ], [ -3.3164, 40.4176 ], [ -3.3175, 40.4176 ], [ -3.3185, 40.4179 ], [ -3.3188, 40.4177 ], [ -3.3197, 40.4177 ], [ -3.32, 40.4179 ], [ -3.3204, 40.4176 ], [ -3.3233, 40.4176 ], [ -3.3239, 40.418 ], [ -3.3245, 40.4179 ], [ -3.3254, 40.4181 ], [ -3.3254, 40.4182 ], [ -3.325, 40.4183 ], [ -3.3251, 40.4189 ], [ -3.3248, 40.4189 ], [ -3.3246, 40.4191 ], [ -3.3246, 40.4198 ], [ -3.3256, 40.42 ], [ -3.3262, 40.4198 ], [ -3.3261, 40.4212 ], [ -3.3263, 40.421 ], [ -3.3265, 40.4212 ] ] ] } },
{ "type": "Feature", "properties": { "municipio": "Valverde de Alcalá", "clasificacion": "no-urbanizable-protegido", "calificacion": "sin-asignar", "version": "vigente", "fuente": "SIT-CAM WFS — UsoDelSuelo:VPLA_V_CLASIFICACION (https://idem.comunidad.madrid/geosrvg/ows)", "fecha_dato": "2026-05-12", "ambito": "24510", "_raw_CD_SIGLAS": "SNUP", "_raw_DS_CLASIF_GEN": "Suelo No Urbanizable Protegido", "_raw_DS_CLASIF_DET": "Suelo No Urbanizable Especialmente Protegido por su interés ecológico - paisajístico", "_raw_DS_DOCU": "NORMAS SUBSIDIARIAS", "_raw_DS_LEY": "CM Ley 4/1984, E RDL 1/1992", "_raw_FC_AC": "1994-04-21", "_raw_NM_AREA_M2": 16593.866550951101, "_cam_code": "166" }, "geometry": { "type": "Polygon", "coordinates": [ [ [ -3.2861, 40.4124 ], [ -3.2863, 40.4129 ], [ -3.2869, 40.4137 ], [ -3.2876, 40.4137 ], [ -3.2877, 40.4136 ], [ -3.2876, 40.413 ], [ -3.2867, 40.4125 ], [ -3.2864, 40.4121 ], [ -3.2859, 40.4119 ], [ -3.2857, 40.4114 ], [ -3.2855, 40.4114 ], [ -3.2849, 40.4105 ], [ -3.2837, 40.4098 ], [ -3.2833, 40.4097 ], [ -3.2849, 40.4106 ], [ -3.2861, 40.4124 ] ] ] } },
{ "type": "Feature", "properties": { "municipio": "Valverde de Alcalá", "clasificacion": "no-urbanizable-protegido", "calificacion": "sin-asignar", "version": "vigente", "fuente": "SIT-CAM WFS — UsoDelSuelo:VPLA_V_CLASIFICACION (https://idem.comunidad.madrid/geosrvg/ows)", "fecha_dato": "2026-05-12", "ambito": "24510", "_raw_CD_SIGLAS": "SNUP", "_raw_DS_CLASIF_GEN": "Suelo No Urbanizable Protegido", "_raw_DS_CLASIF_DET": "Suelo No Urbanizable Especialmente Protegido por su interés ecológico - paisajístico", "_raw_DS_DOCU": "NORMAS SUBSIDIARIAS", "_raw_DS_LEY": "CM Ley 4/1984, E RDL 1/1992", "_raw_FC_AC": "1994-04-21", "_raw_NM_AREA_M2": 5868401.7774959598, "_cam_code": "166" }, "geometry": { "type": "Polygon", "coordinates": [ [ [ -3.3019, 40.4132 ], [ -3.3019, 40.4141 ], [ -3.303, 40.4144 ], [ -3.3035, 40.4148 ], [ -3.3049, 40.4134 ], [ -3.3049, 40.4129 ], [ -3.3045, 40.4119 ], [ -3.3045, 40.4115 ], [ -3.3044, 40.4115 ], [ -3.3043, 40.411 ], [ -3.3033, 40.4101 ], [ -3.3029, 40.4094 ], [ -3.3047, 40.4104 ], [ -3.3053, 40.4104 ], [ -3.3057, 40.4102 ], [ -3.3059, 40.4106 ], [ -3.3057, 40.4113 ], [ -3.306, 40.4124 ], [ -3.3064, 40.4121 ], [ -3.3067, 40.4114 ], [ -3.3069, 40.4093 ], [ -3.3072, 40.4082 ], [ -3.308, 40.4073 ], [ -3.3089, 40.4069 ], [ -3.3094, 40.4065 ], [ -3.3104, 40.4041 ], [ -3.3115, 40.4033 ], [ -3.312, 40.4006 ], [ -3.3098, 40.3985 ], [ -3.3112, 40.394 ], [ -3.3098, 40.3912 ], [ -3.3072, 40.3875 ], [ -3.3054, 40.3859 ], [ -3.3047, 40.3865 ], [ -3.3043, 40.3872 ], [ -3.3039, 40.3875 ], [ -3.3038, 40.3883 ], [ -3.3035, 40.3887 ], [ -3.3036, 40.389 ], [ -3.3026, 40.3898 ], [ -3.3023, 40.3902 ], [ -3.3014, 40.3899 ], [ -3.3009, 40.3899 ], [ -3.3004, 40.3901 ], [ -3.2994, 40.3901 ], [ -3.2993, 40.3899 ], [ -3.2981, 40.3895 ], [ -3.2979, 40.3893 ], [ -3.2973, 40.3893 ], [ -3.2961, 40.3897 ], [ -3.2962, 40.3902 ], [ -3.296, 40.3909 ], [ -3.2953, 40.3912 ], [ -3.295, 40.391 ], [ -3.2949, 40.3907 ], [ -3.2944, 40.391 ], [ -3.2939, 40.391 ], [ -3.2927, 40.3905 ], [ -3.291, 40.3903 ], [ -3.2896, 40.391 ], [ -3.2879, 40.3912 ], [ -3.2873, 40.392 ], [ -3.2865, 40.3922 ], [ -3.2859, 40.392 ], [ -3.2849, 40.3923 ], [ -3.2847, 40.3925 ], [ -3.2837, 40.3929 ], [ -3.2837, 40.3931 ], [ -3.2844, 40.394 ], [ -3.2849, 40.3943 ], [ -3.2849, 40.3945 ], [ -3.2845, 40.3958 ], [ -3.2842, 40.3961 ], [ -3.2841, 40.3964 ], [ -3.2829, 40.3972 ], [ -3.2828, 40.3974 ], [ -3.2815, 40.3972 ], [ -3.2808, 40.3977 ], [ -3.2802, 40.3967 ], [ -3.2801, 40.3956 ], [ -3.2798, 40.3949 ], [ -3.2793, 40.3949 ], [ -3.279, 40.3946 ], [ -3.279, 40.3942 ], [ -3.2796, 40.3927 ], [ -3.2789, 40.3931 ], [ -3.2784, 40.3932 ], [ -3.2786, 40.3944 ], [ -3.2792, 40.3962 ], [ -3.2796, 40.3988 ], [ -3.28, 40.4036 ], [ -3.2798, 40.4051 ], [ -3.2817, 40.408 ], [ -3.284, 40.4089 ], [ -3.2856, 40.4097 ], [ -3.2871, 40.4107 ], [ -3.2882, 40.4119 ], [ -3.2899, 40.413 ], [ -3.2902, 40.4134 ], [ -3.2906, 40.4134 ], [ -3.2907, 40.4122 ], [ -3.2916, 40.4116 ], [ -3.2918, 40.4116 ], [ -3.292, 40.4122 ], [ -3.2918, 40.4125 ], [ -3.2917, 40.413 ], [ -3.2921, 40.4131 ], [ -3.2924, 40.413 ], [ -3.2926, 40.4125 ], [ -3.2933, 40.4129 ], [ -3.2935, 40.4128 ], [ -3.2939, 40.4132 ], [ -3.2945, 40.4134 ], [ -3.2945, 40.4136 ], [ -3.2951, 40.4136 ], [ -3.2953, 40.4139 ], [ -3.2955, 40.4137 ], [ -3.2956, 40.4132 ], [ -3.2971, 40.4134 ], [ -3.2971, 40.4135 ], [ -3.2986, 40.4138 ], [ -3.2986, 40.4137 ], [ -3.299, 40.4137 ], [ -3.2989, 40.4139 ], [ -3.2997, 40.4139 ], [ -3.2995, 40.4133 ], [ -3.2992, 40.4131 ], [ -3.2991, 40.4131 ], [ -3.2991, 40.4136 ], [ -3.2987, 40.4135 ], [ -3.2988, 40.413 ], [ -3.2986, 40.4129 ], [ -3.2985, 40.4126 ], [ -3.2995, 40.4127 ], [ -3.2996, 40.4129 ], [ -3.3009, 40.4132 ], [ -3.3009, 40.413 ], [ -3.3017, 40.413 ], [ -3.3017, 40.4132 ], [ -3.3019, 40.4131 ], [ -3.3019, 40.4132 ] ] ] } },
{ "type": "Feature", "properties": { "municipio": "Valverde de Alcalá", "clasificacion": "no-urbanizable-protegido", "calificacion": "sin-asignar", "version": "vigente", "fuente": "SIT-CAM WFS — UsoDelSuelo:VPLA_V_CLASIFICACION (https://idem.comunidad.madrid/geosrvg/ows)", "fecha_dato": "2026-05-12", "ambito": "24510", "_raw_CD_SIGLAS": "SNUP", "_raw_DS_CLASIF_GEN": "Suelo No Urbanizable Protegido", "_raw_DS_CLASIF_DET": "Suelo No Urbanizable Especialmente Protegido por su interés ecológico - paisajístico", "_raw_DS_DOCU": "NORMAS SUBSIDIARIAS", "_raw_DS_LEY": "CM Ley 4/1984, E RDL 1/1992", "_raw_FC_AC": "1994-04-21", "_raw_NM_AREA_M2": 1054262.73621479, "_cam_code": "166" }, "geometry": { "type": "Polygon", "coordinates": [ [ [ -3.3069, 40.4154 ], [ -3.307, 40.4155 ], [ -3.3078, 40.4153 ], [ -3.31, 40.4154 ], [ -3.3104, 40.415 ], [ -3.3107, 40.4149 ], [ -3.3109, 40.4152 ], [ -3.3113, 40.4153 ], [ -3.3118, 40.415 ], [ -3.3117, 40.4145 ], [ -3.312, 40.4144 ], [ -3.3126, 40.4145 ], [ -3.3131, 40.4148 ], [ -3.3132, 40.4146 ], [ -3.3132, 40.4132 ], [ -3.3131, 40.4129 ], [ -3.3124, 40.4123 ], [ -3.3123, 40.4119 ], [ -3.3113, 40.4109 ], [ -3.3115, 40.4108 ], [ -3.3121, 40.4112 ], [ -3.3134, 40.4112 ], [ -3.3148, 40.4106 ], [ -3.316, 40.4097 ], [ -3.3159, 40.4094 ], [ -3.3161, 40.4092 ], [ -3.3159, 40.4091 ], [ -3.3162, 40.4089 ], [ -3.316, 40.4077 ], [ -3.3161, 40.4068 ], [ -3.3159, 40.4065 ], [ -3.3158, 40.4059 ], [ -3.3161, 40.4056 ], [ -3.3162, 40.4059 ], [ -3.3164, 40.406 ], [ -3.3173, 40.406 ], [ -3.3175, 40.4061 ], [ -3.3172, 40.4065 ], [ -3.3173, 40.4067 ], [ -3.3178, 40.4067 ], [ -3.3176, 40.4073 ], [ -3.3181, 40.4078 ], [ -3.3182, 40.4087 ], [ -3.3175, 40.4092 ], [ -3.3176, 40.4094 ], [ -3.318, 40.4096 ], [ -3.319, 40.4096 ], [ -3.3193, 40.409 ], [ -3.3195, 40.409 ], [ -3.3198, 40.4092 ], [ -3.3198, 40.4098 ], [ -3.3202, 40.4099 ], [ -3.3202, 40.4104 ], [ -3.3203, 40.4105 ], [ -3.3207, 40.4104 ], [ -3.3209, 40.4102 ], [ -3.321, 40.4103 ], [ -3.3225, 40.4104 ], [ -3.3233, 40.4102 ], [ -3.3234, 40.4101 ], [ -3.3232, 40.4099 ], [ -3.3225, 40.4096 ], [ -3.3222, 40.4093 ], [ -3.3212, 40.409 ], [ -3.3208, 40.4081 ], [ -3.3205, 40.408 ], [ -3.3205, 40.4076 ], [ -3.3207, 40.4074 ], [ -3.3207, 40.4071 ], [ -3.3202, 40.4069 ], [ -3.3203, 40.4063 ], [ -3.3226, 40.4065 ], [ -3.3231, 40.4049 ], [ -3.3228, 40.4043 ], [ -3.3227, 40.4044 ], [ -3.3199, 40.4044 ], [ -3.319, 40.4042 ], [ -3.3176, 40.4042 ], [ -3.317, 40.404 ], [ -3.3121, 40.4006 ], [ -3.3115, 40.4034 ], [ -3.3105, 40.4041 ], [ -3.3096, 40.4064 ], [ -3.3091, 40.4069 ], [ -3.3078, 40.4076 ], [ -3.3075, 40.4079 ], [ -3.3072, 40.4085 ], [ -3.3068, 40.4103 ], [ -3.3068, 40.4113 ], [ -3.3061, 40.4125 ], [ -3.3073, 40.4139 ], [ -3.3074, 40.4144 ], [ -3.3069, 40.4154 ] ] ] } },
{ "type": "Feature", "properties": { "municipio": "Valverde de Alcalá", "clasificacion": "no-urbanizable-protegido", "calificacion": "sin-asignar", "version": "vigente", "fuente": "SIT-CAM WFS — UsoDelSuelo:VPLA_V_CLASIFICACION (https://idem.comunidad.madrid/geosrvg/ows)", "fecha_dato": "2026-05-12", "ambito": "24510", "_raw_CD_SIGLAS": "SNUP", "_raw_DS_CLASIF_GEN": "Suelo No Urbanizable Protegido", "_raw_DS_CLASIF_DET": "Suelo No Urbanizable Especialmente Protegido por su interés ecológico - paisajístico", "_raw_DS_DOCU": "NORMAS SUBSIDIARIAS", "_raw_DS_LEY": "CM Ley 4/1984, E RDL 1/1992", "_raw_FC_AC": "1994-04-21", "_raw_NM_AREA_M2": 69829.377909552204, "_cam_code": "166" }, "geometry": { "type": "Polygon", "coordinates": [ [ [ -3.2881, 40.4154 ], [ -3.2879, 40.4181 ], [ -3.2882, 40.4184 ], [ -3.2899, 40.419 ], [ -3.2902, 40.4185 ], [ -3.2901, 40.4182 ], [ -3.2903, 40.4181 ], [ -3.2903, 40.4176 ], [ -3.2906, 40.4169 ], [ -3.291, 40.4164 ], [ -3.2909, 40.4161 ], [ -3.29, 40.416 ], [ -3.289, 40.4157 ], [ -3.2887, 40.4154 ], [ -3.2881, 40.4154 ] ] ] } },
{ "type": "Feature", "properties": { "municipio": "Valverde de Alcalá", "clasificacion": "no-urbanizable-protegido", "calificacion": "sin-asignar", "version": "vigente", "fuente": "SIT-CAM WFS — UsoDelSuelo:VPLA_V_CLASIFICACION (https://idem.comunidad.madrid/geosrvg/ows)", "fecha_dato": "2026-05-12", "ambito": "24510", "_raw_CD_SIGLAS": "SNUP", "_raw_DS_CLASIF_GEN": "Suelo No Urbanizable Protegido", "_raw_DS_CLASIF_DET": "Suelo No Urbanizable Especialmente Protegido por su interés ecológico - paisajístico", "_raw_DS_DOCU": "NORMAS SUBSIDIARIAS", "_raw_DS_LEY": "CM Ley 4/1984, E RDL 1/1992", "_raw_FC_AC": "1994-04-21", "_raw_NM_AREA_M2": 591001.00066422997, "_cam_code": "166" }, "geometry": { "type": "Polygon", "coordinates": [ [ [ -3.292, 40.4223 ], [ -3.2933, 40.4231 ], [ -3.2936, 40.4237 ], [ -3.2941, 40.4241 ], [ -3.2978, 40.4248 ], [ -3.3001, 40.4247 ], [ -3.3015, 40.4242 ], [ -3.3025, 40.4241 ], [ -3.3022, 40.4234 ], [ -3.302, 40.4224 ], [ -3.3014, 40.422 ], [ -3.3008, 40.4211 ], [ -3.3003, 40.42 ], [ -3.3002, 40.4201 ], [ -3.2989, 40.42 ], [ -3.2989, 40.4201 ], [ -3.2984, 40.4201 ], [ -3.2984, 40.4202 ], [ -3.2977, 40.4203 ], [ -3.2976, 40.4202 ], [ -3.2975, 40.4206 ], [ -3.2971, 40.421 ], [ -3.297, 40.4214 ], [ -3.296, 40.4215 ], [ -3.2961, 40.4208 ], [ -3.2965, 40.4204 ], [ -3.2967, 40.4204 ], [ -3.2969, 40.4198 ], [ -3.2974, 40.4193 ], [ -3.298, 40.4191 ], [ -3.2983, 40.4184 ], [ -3.2988, 40.4181 ], [ -3.2991, 40.4172 ], [ -3.2994, 40.4171 ], [ -3.2994, 40.4169 ], [ -3.2992, 40.4168 ], [ -3.2991, 40.4164 ], [ -3.2989, 40.4162 ], [ -3.2983, 40.4159 ], [ -3.2968, 40.4155 ], [ -3.2939, 40.4158 ], [ -3.2936, 40.4164 ], [ -3.2933, 40.4178 ], [ -3.2929, 40.4179 ], [ -3.2926, 40.4182 ], [ -3.2924, 40.4182 ], [ -3.2922, 40.4187 ], [ -3.2916, 40.4189 ], [ -3.2916, 40.4192 ], [ -3.2914, 40.4193 ], [ -3.2913, 40.4196 ], [ -3.2917, 40.4198 ], [ -3.2921, 40.421 ], [ -3.292, 40.4223 ] ] ] } },
{ "type": "Feature", "properties": { "municipio": "Valverde de Alcalá", "clasificacion": "no-urbanizable-protegido", "calificacion": "sin-asignar", "version": "vigente", "fuente": "SIT-CAM WFS — UsoDelSuelo:VPLA_V_CLASIFICACION (https://idem.comunidad.madrid/geosrvg/ows)", "fecha_dato": "2026-05-12", "ambito": "24510", "_raw_CD_SIGLAS": "SNUP", "_raw_DS_CLASIF_GEN": "Suelo No Urbanizable Protegido", "_raw_DS_CLASIF_DET": "Suelo No Urbanizable Especialmente Protegido por su interés ecológico - paisajístico", "_raw_DS_DOCU": "NORMAS SUBSIDIARIAS", "_raw_DS_LEY": "CM Ley 4/1984, E RDL 1/1992", "_raw_FC_AC": "1994-04-21", "_raw_NM_AREA_M2": 1413350.1913792, "_cam_code": "166" }, "geometry": { "type": "Polygon", "coordinates": [ [ [ -3.3235, 40.4227 ], [ -3.3279, 40.4237 ], [ -3.3293, 40.426 ], [ -3.3318, 40.4234 ], [ -3.3324, 40.4226 ], [ -3.3324, 40.422 ], [ -3.3323, 40.4217 ], [ -3.3315, 40.4209 ], [ -3.3302, 40.42 ], [ -3.3286, 40.4172 ], [ -3.3283, 40.4176 ], [ -3.3283, 40.4181 ], [ -3.3288, 40.4186 ], [ -3.3284, 40.4195 ], [ -3.3285, 40.4198 ], [ -3.3282, 40.4197 ], [ -3.328, 40.4199 ], [ -3.3276, 40.4199 ], [ -3.3272, 40.4202 ], [ -3.3264, 40.4205 ], [ -3.3267, 40.4212 ], [ -3.3265, 40.4212 ], [ -3.3263, 40.421 ], [ -3.3261, 40.4212 ], [ -3.3262, 40.4198 ], [ -3.3256, 40.42 ], [ -3.3246, 40.4198 ], [ -3.3246, 40.4191 ], [ -3.3248, 40.4189 ], [ -3.3251, 40.4189 ], [ -3.325, 40.4183 ], [ -3.3254, 40.4182 ], [ -3.3254, 40.4181 ], [ -3.3245, 40.4179 ], [ -3.3239, 40.418 ], [ -3.3233, 40.4176 ], [ -3.3204, 40.4176 ], [ -3.32, 40.4179 ], [ -3.3197, 40.4177 ], [ -3.3188, 40.4177 ], [ -3.3185, 40.4179 ], [ -3.3175, 40.4176 ], [ -3.3164, 40.4176 ], [ -3.3156, 40.4178 ], [ -3.3143, 40.4179 ], [ -3.314, 40.4183 ], [ -3.3137, 40.4181 ], [ -3.3125, 40.418 ], [ -3.3113, 40.418 ], [ -3.3101, 40.4182 ], [ -3.309, 40.418 ], [ -3.3075, 40.418 ], [ -3.3076, 40.4182 ], [ -3.3073, 40.4183 ], [ -3.307, 40.4186 ], [ -3.3071, 40.4195 ], [ -3.3067, 40.42 ], [ -3.3069, 40.4206 ], [ -3.3066, 40.4205 ], [ -3.3059, 40.4207 ], [ -3.3056, 40.4206 ], [ -3.3058, 40.4204 ], [ -3.3057, 40.4202 ], [ -3.3058, 40.4198 ], [ -3.3054, 40.4197 ], [ -3.3053, 40.4194 ], [ -3.305, 40.4192 ], [ -3.3051, 40.4191 ], [ -3.305, 40.4189 ], [ -3.3048, 40.4189 ], [ -3.3046, 40.4191 ], [ -3.3043, 40.419 ], [ -3.3044, 40.4185 ], [ -3.304, 40.4185 ], [ -3.304, 40.4181 ], [ -3.3037, 40.4182 ], [ -3.3029, 40.4176 ], [ -3.3009, 40.4175 ], [ -3.3008, 40.4177 ], [ -3.3011, 40.4178 ], [ -3.3011, 40.4179 ], [ -3.3008, 40.4181 ], [ -3.3009, 40.4182 ], [ -3.3008, 40.4184 ], [ -3.3004, 40.4187 ], [ -3.3, 40.4187 ], [ -3.3001, 40.4188 ], [ -3.2998, 40.419 ], [ -3.2998, 40.4192 ], [ -3.3003, 40.4197 ], [ -3.3004, 40.42 ], [ -3.3003, 40.42 ], [ -3.3008, 40.4207 ], [ -3.3014, 40.4219 ], [ -3.3021, 40.4224 ], [ -3.3023, 40.4234 ], [ -3.3026, 40.4241 ], [ -3.308, 40.4234 ], [ -3.3096, 40.4234 ], [ -3.3147, 40.4229 ], [ -3.3178, 40.4222 ], [ -3.3192, 40.4222 ], [ -3.3215, 40.4227 ], [ -3.3235, 40.4227 ] ] ] } },
{ "type": "Feature", "properties": { "municipio": "Valverde de Alcalá", "clasificacion": "no-urbanizable-protegido", "calificacion": "sin-asignar", "version": "vigente", "fuente": "SIT-CAM WFS — UsoDelSuelo:VPLA_V_CLASIFICACION (https://idem.comunidad.madrid/geosrvg/ows)", "fecha_dato": "2026-05-12", "ambito": "24510", "_raw_CD_SIGLAS": "SNUP", "_raw_DS_CLASIF_GEN": "Suelo No Urbanizable Protegido", "_raw_DS_CLASIF_DET": "Suelo No Urbanizable Especialmente Protegido por su interés forestal", "_raw_DS_DOCU": "NORMAS SUBSIDIARIAS", "_raw_DS_LEY": "CM Ley 4/1984, E RDL 1/1992", "_raw_FC_AC": "1994-04-21", "_raw_NM_AREA_M2": 681931.05483093695, "_cam_code": "166" }, "geometry": { "type": "Polygon", "coordinates": [ [ [ -3.316, 40.4097 ], [ -3.3155, 40.4101 ], [ -3.3153, 40.4105 ], [ -3.315, 40.4117 ], [ -3.3149, 40.4117 ], [ -3.3149, 40.4119 ], [ -3.3145, 40.4125 ], [ -3.3145, 40.4131 ], [ -3.3149, 40.4134 ], [ -3.3148, 40.4137 ], [ -3.3151, 40.4139 ], [ -3.3157, 40.4148 ], [ -3.316, 40.4149 ], [ -3.3164, 40.4148 ], [ -3.3164, 40.4144 ], [ -3.316, 40.4136 ], [ -3.3156, 40.4134 ], [ -3.3156, 40.4133 ], [ -3.316, 40.4134 ], [ -3.317, 40.413 ], [ -3.3176, 40.413 ], [ -3.3169, 40.4137 ], [ -3.3169, 40.4142 ], [ -3.3175, 40.415 ], [ -3.3177, 40.4149 ], [ -3.3182, 40.415 ], [ -3.319, 40.4149 ], [ -3.3187, 40.4142 ], [ -3.3191, 40.4142 ], [ -3.3197, 40.4148 ], [ -3.3202, 40.4149 ], [ -3.3205, 40.4148 ], [ -3.3206, 40.4147 ], [ -3.3206, 40.414 ], [ -3.3203, 40.4136 ], [ -3.3204, 40.4133 ], [ -3.3208, 40.4133 ], [ -3.3209, 40.4131 ], [ -3.321, 40.4131 ], [ -3.321, 40.4135 ], [ -3.3211, 40.4135 ], [ -3.3211, 40.4138 ], [ -3.3213, 40.4141 ], [ -3.3212, 40.4145 ], [ -3.3215, 40.4148 ], [ -3.3218, 40.4148 ], [ -3.3219, 40.4144 ], [ -3.3223, 40.4145 ], [ -3.3223, 40.4146 ], [ -3.3226, 40.4146 ], [ -3.3229, 40.4144 ], [ -3.3228, 40.4138 ], [ -3.3226, 40.4136 ], [ -3.3229, 40.4127 ], [ -3.3232, 40.4128 ], [ -3.3234, 40.4132 ], [ -3.3237, 40.4133 ], [ -3.324, 40.4131 ], [ -3.324, 40.4126 ], [ -3.3247, 40.4128 ], [ -3.3254, 40.4125 ], [ -3.3253, 40.4117 ], [ -3.3265, 40.4115 ], [ -3.3271, 40.4115 ], [ -3.3272, 40.4116 ], [ -3.3276, 40.4113 ], [ -3.3269, 40.4085 ], [ -3.3266, 40.4083 ], [ -3.3261, 40.4075 ], [ -3.3259, 40.4075 ], [ -3.325, 40.407 ], [ -3.324, 40.406 ], [ -3.3231, 40.4048 ], [ -3.3226, 40.4065 ], [ -3.3203, 40.4063 ], [ -3.3202, 40.4069 ], [ -3.3207, 40.4071 ], [ -3.3207, 40.4074 ], [ -3.3205, 40.4076 ], [ -3.3205, 40.408 ], [ -3.3208, 40.4081 ], [ -3.3212, 40.409 ], [ -3.3222, 40.4093 ], [ -3.3225, 40.4096 ], [ -3.3232, 40.4099 ], [ -3.3234, 40.4101 ], [ -3.3233, 40.4102 ], [ -3.3227, 40.4104 ], [ -3.321, 40.4103 ], [ -3.3209, 40.4102 ], [ -3.3207, 40.4104 ], [ -3.3203, 40.4105 ], [ -3.3202, 40.4104 ], [ -3.3202, 40.4099 ], [ -3.3198, 40.4098 ], [ -3.3198, 40.4092 ], [ -3.3195, 40.409 ], [ -3.3193, 40.409 ], [ -3.319, 40.4096 ], [ -3.318, 40.4096 ], [ -3.3176, 40.4094 ], [ -3.3175, 40.4092 ], [ -3.3182, 40.4087 ], [ -3.3181, 40.4078 ], [ -3.3176, 40.4073 ], [ -3.3178, 40.4067 ], [ -3.3173, 40.4067 ], [ -3.3172, 40.4065 ], [ -3.3175, 40.4061 ], [ -3.3173, 40.406 ], [ -3.3164, 40.406 ], [ -3.3162, 40.4059 ], [ -3.3161, 40.4056 ], [ -3.3158, 40.4059 ], [ -3.3159, 40.4065 ], [ -3.3161, 40.4068 ], [ -3.316, 40.4077 ], [ -3.3162, 40.4089 ], [ -3.3159, 40.4091 ], [ -3.3161, 40.4093 ], [ -3.3159, 40.4094 ], [ -3.316, 40.4097 ] ] ] } },
{ "type": "Feature", "properties": { "municipio": "Valverde de Alcalá", "clasificacion": "no-urbanizable-protegido", "calificacion": "sin-asignar", "version": "vigente", "fuente": "SIT-CAM WFS — UsoDelSuelo:VPLA_V_CLASIFICACION (https://idem.comunidad.madrid/geosrvg/ows)", "fecha_dato": "2026-05-12", "ambito": "24510", "_raw_CD_SIGLAS": "SNUP", "_raw_DS_CLASIF_GEN": "Suelo No Urbanizable Protegido", "_raw_DS_CLASIF_DET": "Suelo No Urbanizable Especialmente Protegido por su interés agrario", "_raw_DS_DOCU": "NORMAS SUBSIDIARIAS", "_raw_DS_LEY": "CM Ley 4/1984, E RDL 1/1992", "_raw_FC_AC": "1994-04-21", "_raw_NM_AREA_M2": 40956.437154990403, "_cam_code": "166" }, "geometry": { "type": "Polygon", "coordinates": [ [ [ -3.3043, 40.411 ], [ -3.3049, 40.4134 ], [ -3.3054, 40.4131 ], [ -3.3061, 40.4124 ], [ -3.306, 40.4124 ], [ -3.3057, 40.4113 ], [ -3.3059, 40.4106 ], [ -3.3057, 40.4102 ], [ -3.3053, 40.4104 ], [ -3.3047, 40.4104 ], [ -3.3029, 40.4094 ], [ -3.3033, 40.4101 ], [ -3.3043, 40.411 ] ] ] } },
{ "type": "Feature", "properties": { "municipio": "Valverde de Alcalá", "clasificacion": "no-urbanizable-protegido", "calificacion": "sin-asignar", "version": "vigente", "fuente": "SIT-CAM WFS — UsoDelSuelo:VPLA_V_CLASIFICACION (https://idem.comunidad.madrid/geosrvg/ows)", "fecha_dato": "2026-05-12", "ambito": "24510", "_raw_CD_SIGLAS": "SNUP", "_raw_DS_CLASIF_GEN": "Suelo No Urbanizable Protegido", "_raw_DS_CLASIF_DET": "Cañada / Vía Pecuaria", "_raw_DS_DOCU": "NORMAS SUBSIDIARIAS", "_raw_DS_LEY": "CM Ley 4/1984, E RDL 1/1992", "_raw_FC_AC": "1994-04-21", "_raw_NM_AREA_M2": 3405.6605532047602, "_cam_code": "166" }, "geometry": { "type": "Polygon", "coordinates": [ [ [ -3.3003, 40.42 ], [ -3.3008, 40.4211 ], [ -3.3014, 40.422 ], [ -3.302, 40.4224 ], [ -3.3022, 40.4234 ], [ -3.3025, 40.4241 ], [ -3.3026, 40.4241 ], [ -3.3023, 40.4234 ], [ -3.3021, 40.4224 ], [ -3.3014, 40.4219 ], [ -3.3008, 40.4207 ], [ -3.3003, 40.42 ] ] ] } },
{ "type": "Feature", "properties": { "municipio": "Valverde de Alcalá", "clasificacion": "no-urbanizable-protegido", "calificacion": "sin-asignar", "version": "vigente", "fuente": "SIT-CAM WFS — UsoDelSuelo:VPLA_V_CLASIFICACION (https://idem.comunidad.madrid/geosrvg/ows)", "fecha_dato": "2026-05-12", "ambito": "24510", "_raw_CD_SIGLAS": "SNUP", "_raw_DS_CLASIF_GEN": "Suelo No Urbanizable Protegido", "_raw_DS_CLASIF_DET": "Cañada / Vía Pecuaria", "_raw_DS_DOCU": "NORMAS SUBSIDIARIAS", "_raw_DS_LEY": "CM Ley 4/1984, E RDL 1/1992", "_raw_FC_AC": "1994-04-21", "_raw_NM_AREA_M2": 28772.708924667499, "_cam_code": "166" }, "geometry": { "type": "Polygon", "coordinates": [ [ [ -3.3033, 40.4173 ], [ -3.3052, 40.4181 ], [ -3.3065, 40.4181 ], [ -3.3076, 40.4177 ], [ -3.3115, 40.4178 ], [ -3.3136, 40.4177 ], [ -3.3164, 40.4173 ], [ -3.319, 40.4174 ], [ -3.3216, 40.4171 ], [ -3.3239, 40.4173 ], [ -3.3257, 40.4173 ], [ -3.3268, 40.417 ], [ -3.3279, 40.4164 ], [ -3.3284, 40.4163 ], [ -3.3284, 40.4162 ], [ -3.3281, 40.4162 ], [ -3.3268, 40.4169 ], [ -3.3257, 40.4172 ], [ -3.3216, 40.417 ], [ -3.319, 40.4173 ], [ -3.3164, 40.4172 ], [ -3.3136, 40.4176 ], [ -3.3097, 40.4177 ], [ -3.3081, 40.4175 ], [ -3.3075, 40.4176 ], [ -3.3065, 40.418 ], [ -3.3048, 40.4179 ], [ -3.3033, 40.4172 ], [ -3.3012, 40.4172 ], [ -3.3012, 40.4173 ], [ -3.3008, 40.4174 ], [ -3.3009, 40.4175 ], [ -3.3012, 40.4173 ], [ -3.3033, 40.4173 ] ] ] } },
{ "type": "Feature", "properties": { "municipio": "Valverde de Alcalá", "clasificacion": "no-urbanizable-protegido", "calificacion": "sin-asignar", "version": "vigente", "fuente": "SIT-CAM WFS — UsoDelSuelo:VPLA_V_CLASIFICACION (https://idem.comunidad.madrid/geosrvg/ows)", "fecha_dato": "2026-05-12", "ambito": "24510", "_raw_CD_SIGLAS": "SNUP", "_raw_DS_CLASIF_GEN": "Suelo No Urbanizable Protegido", "_raw_DS_CLASIF_DET": "Cañada / Vía Pecuaria", "_raw_DS_DOCU": "NORMAS SUBSIDIARIAS", "_raw_DS_LEY": "CM Ley 4/1984, E RDL 1/1992", "_raw_FC_AC": "1994-04-21", "_raw_NM_AREA_M2": 10617.429733978899, "_cam_code": "166" }, "geometry": { "type": "Polygon", "coordinates": [ [ [ -3.2967, 40.4155 ], [ -3.2985, 40.416 ], [ -3.299, 40.4163 ], [ -3.2992, 40.4168 ], [ -3.2993, 40.4168 ], [ -3.2992, 40.4163 ], [ -3.2988, 40.416 ], [ -3.2966, 40.4153 ], [ -3.296, 40.4155 ], [ -3.2934, 40.4158 ], [ -3.2918, 40.4158 ], [ -3.2893, 40.4153 ], [ -3.289, 40.4153 ], [ -3.2886, 40.4153 ], [ -3.2883, 40.4153 ], [ -3.288, 40.4153 ], [ -3.2881, 40.4154 ], [ -3.2893, 40.4154 ], [ -3.2917, 40.4159 ], [ -3.2937, 40.4159 ], [ -3.2967, 40.4155 ] ] ] } },
{ "type": "Feature", "properties": { "municipio": "Valverde de Alcalá", "clasificacion": "no-urbanizable-protegido", "calificacion": "sin-asignar", "version": "vigente", "fuente": "SIT-CAM WFS — UsoDelSuelo:VPLA_V_CLASIFICACION (https://idem.comunidad.madrid/geosrvg/ows)", "fecha_dato": "2026-05-12", "ambito": "24510", "_raw_CD_SIGLAS": "SNUP", "_raw_DS_CLASIF_GEN": "Suelo No Urbanizable Protegido", "_raw_DS_CLASIF_DET": "Cañada / Vía Pecuaria", "_raw_DS_DOCU": "NORMAS SUBSIDIARIAS", "_raw_DS_LEY": "CM Ley 4/1984, E RDL 1/1992", "_raw_FC_AC": "1994-04-21", "_raw_NM_AREA_M2": 15677.569999623, "_cam_code": "166" }, "geometry": { "type": "Polygon", "coordinates": [ [ [ -3.312, 40.4005 ], [ -3.3115, 40.4033 ], [ -3.3104, 40.4041 ], [ -3.3094, 40.4065 ], [ -3.3089, 40.4069 ], [ -3.308, 40.4073 ], [ -3.3072, 40.4082 ], [ -3.3069, 40.4093 ], [ -3.3067, 40.4108 ], [ -3.3067, 40.4114 ], [ -3.3064, 40.4121 ], [ -3.306, 40.4126 ], [ -3.3047, 40.4135 ], [ -3.3034, 40.4148 ], [ -3.3031, 40.4155 ], [ -3.3034, 40.415 ], [ -3.3049, 40.4134 ], [ -3.3054, 40.4132 ], [ -3.3061, 40.4126 ], [ -3.3066, 40.4118 ], [ -3.3068, 40.4113 ], [ -3.3068, 40.4103 ], [ -3.3072, 40.4085 ], [ -3.3075, 40.4079 ], [ -3.3078, 40.4076 ], [ -3.3091, 40.4069 ], [ -3.3096, 40.4064 ], [ -3.3105, 40.4041 ], [ -3.3115, 40.4034 ], [ -3.3119, 40.4019 ], [ -3.3119, 40.4013 ], [ -3.3121, 40.4006 ], [ -3.312, 40.4005 ] ] ] } },
{ "type": "Feature", "properties": { "municipio": "Valverde de Alcalá", "clasificacion": "urbano-consolidado", "calificacion": "sin-asignar", "version": "vigente", "fuente": "SIT-CAM WFS — UsoDelSuelo:VPLA_V_CLASIFICACION (https://idem.comunidad.madrid/geosrvg/ows)", "fecha_dato": "2026-05-12", "ambito": "24510", "_raw_CD_SIGLAS": "SU", "_raw_DS_CLASIF_GEN": "Suelo Urbano", "_raw_DS_CLASIF_DET": "Suelo Urbano", "_raw_DS_DOCU": "NORMAS SUBSIDIARIAS", "_raw_DS_LEY": "CM Ley 4/1984, E RDL 1/1992", "_raw_FC_AC": "1994-04-21", "_raw_NM_AREA_M2": 6321.2805488204103, "_cam_code": "166" }, "geometry": { "type": "Polygon", "coordinates": [ [ [ -3.2963, 40.4214 ], [ -3.2963, 40.4215 ], [ -3.297, 40.4214 ], [ -3.2972, 40.4208 ], [ -3.2974, 40.4207 ], [ -3.2969, 40.4207 ], [ -3.297, 40.4206 ], [ -3.2968, 40.4204 ], [ -3.2963, 40.4209 ], [ -3.2963, 40.4214 ] ] ] } },
{ "type": "Feature", "properties": { "municipio": "Valverde de Alcalá", "clasificacion": "urbano-consolidado", "calificacion": "sin-asignar", "version": "vigente", "fuente": "SIT-CAM WFS — UsoDelSuelo:VPLA_V_CLASIFICACION (https://idem.comunidad.madrid/geosrvg/ows)", "fecha_dato": "2026-05-12", "ambito": "24510", "_raw_CD_SIGLAS": "SU", "_raw_DS_CLASIF_GEN": "Suelo Urbano", "_raw_DS_CLASIF_DET": "Suelo Urbano", "_raw_DS_DOCU": "NORMAS SUBSIDIARIAS", "_raw_DS_LEY": "CM Ley 4/1984, E RDL 1/1992", "_raw_FC_AC": "1994-04-21", "_raw_NM_AREA_M2": 17821.288393922699, "_cam_code": "166" }, "geometry": { "type": "Polygon", "coordinates": [ [ [ -3.2994, 40.4132 ], [ -3.2999, 40.4142 ], [ -3.3001, 40.414 ], [ -3.3016, 40.414 ], [ -3.3019, 40.4141 ], [ -3.3019, 40.4131 ], [ -3.3013, 40.4133 ], [ -3.3013, 40.4136 ], [ -3.3003, 40.4136 ], [ -3.3002, 40.4137 ], [ -3.2998, 40.4132 ], [ -3.2995, 40.4133 ], [ -3.2994, 40.4132 ], [ -3.2996, 40.4129 ], [ -3.2995, 40.4127 ], [ -3.2985, 40.4126 ], [ -3.2986, 40.4129 ], [ -3.2988, 40.413 ], [ -3.2987, 40.4135 ], [ -3.2991, 40.4136 ], [ -3.2991, 40.4131 ], [ -3.2994, 40.4132 ] ] ] } },
{ "type": "Feature", "properties": { "municipio": "Valverde de Alcalá", "clasificacion": "urbano-consolidado", "calificacion": "sin-asignar", "version": "vigente", "fuente": "SIT-CAM WFS — UsoDelSuelo:VPLA_V_CLASIFICACION (https://idem.comunidad.madrid/geosrvg/ows)", "fecha_dato": "2026-05-12", "ambito": "24510", "_raw_CD_SIGLAS": "SU", "_raw_DS_CLASIF_GEN": "Suelo Urbano", "_raw_DS_CLASIF_DET": "Suelo Urbano", "_raw_DS_DOCU": "NORMAS SUBSIDIARIAS", "_raw_DS_LEY": "CM Ley 4/1984, E RDL 1/1992", "_raw_FC_AC": "1994-04-21", "_raw_NM_AREA_M2": 20995.587083269402, "_cam_code": "166" }, "geometry": { "type": "Polygon", "coordinates": [ [ [ -3.2996, 40.4165 ], [ -3.3, 40.4166 ], [ -3.3, 40.4167 ], [ -3.3008, 40.4168 ], [ -3.301, 40.416 ], [ -3.3012, 40.416 ], [ -3.3015, 40.4163 ], [ -3.3016, 40.4155 ], [ -3.3014, 40.4154 ], [ -3.3014, 40.4152 ], [ -3.2998, 40.415 ], [ -3.3001, 40.4162 ], [ -3.2997, 40.4162 ], [ -3.2996, 40.4165 ] ] ] } },
{ "type": "Feature", "properties": { "municipio": "Valverde de Alcalá", "clasificacion": "urbano-consolidado", "calificacion": "sin-asignar", "version": "vigente", "fuente": "SIT-CAM WFS — UsoDelSuelo:VPLA_V_CLASIFICACION (https://idem.comunidad.madrid/geosrvg/ows)", "fecha_dato": "2026-05-12", "ambito": "24510", "_raw_CD_SIGLAS": "SU", "_raw_DS_CLASIF_GEN": "Suelo Urbano", "_raw_DS_CLASIF_DET": "Suelo Urbano", "_raw_DS_DOCU": "NORMAS SUBSIDIARIAS", "_raw_DS_LEY": "CM Ley 4/1984, E RDL 1/1992", "_raw_FC_AC": "1994-04-21", "_raw_NM_AREA_M2": 4144.2689022227196, "_cam_code": "166" }, "geometry": { "type": "Polygon", "coordinates": [ [ [ -3.3027, 40.4157 ], [ -3.3021, 40.4163 ], [ -3.3015, 40.4171 ], [ -3.3019, 40.4169 ], [ -3.303, 40.4158 ], [ -3.3027, 40.4157 ] ] ] } },
{ "type": "Feature", "properties": { "municipio": "Valverde de Alcalá", "clasificacion": "urbano-consolidado", "calificacion": "sin-asignar", "version": "vigente", "fuente": "SIT-CAM WFS — UsoDelSuelo:VPLA_V_CLASIFICACION (https://idem.comunidad.madrid/geosrvg/ows)", "fecha_dato": "2026-05-12", "ambito": "24510", "_raw_CD_SIGLAS": "SU", "_raw_DS_CLASIF_GEN": "Suelo Urbano", "_raw_DS_CLASIF_DET": "Suelo Urbano", "_raw_DS_DOCU": "NORMAS SUBSIDIARIAS", "_raw_DS_LEY": "CM Ley 4/1984, E RDL 1/1992", "_raw_FC_AC": "1994-04-21", "_raw_NM_AREA_M2": 6996.2529491714304, "_cam_code": "166" }, "geometry": { "type": "Polygon", "coordinates": [ [ [ -3.2999, 40.4181 ], [ -3.3003, 40.4183 ], [ -3.3008, 40.4176 ], [ -3.3005, 40.4176 ], [ -3.2999, 40.4173 ], [ -3.2996, 40.4178 ], [ -3.2996, 40.4183 ], [ -3.2998, 40.4183 ], [ -3.2999, 40.4181 ] ] ] } },
{ "type": "Feature", "properties": { "municipio": "Valverde de Alcalá", "clasificacion": "urbano-consolidado", "calificacion": "sin-asignar", "version": "vigente", "fuente": "SIT-CAM WFS — UsoDelSuelo:VPLA_V_CLASIFICACION (https://idem.comunidad.madrid/geosrvg/ows)", "fecha_dato": "2026-05-12", "ambito": "24510", "_raw_CD_SIGLAS": "SU", "_raw_DS_CLASIF_GEN": "Suelo Urbano", "_raw_DS_CLASIF_DET": "Suelo Urbano", "_raw_DS_DOCU": "NORMAS SUBSIDIARIAS", "_raw_DS_LEY": "CM Ley 4/1984, E RDL 1/1992", "_raw_FC_AC": "1994-04-21", "_raw_NM_AREA_M2": 7160.12917370176, "_cam_code": "166" }, "geometry": { "type": "Polygon", "coordinates": [ [ [ -3.297, 40.4207 ], [ -3.2974, 40.4207 ], [ -3.2975, 40.4203 ], [ -3.2982, 40.4199 ], [ -3.2975, 40.4195 ], [ -3.2971, 40.4199 ], [ -3.297, 40.4203 ], [ -3.2968, 40.4204 ], [ -3.297, 40.4206 ], [ -3.2969, 40.4207 ], [ -3.297, 40.4207 ] ] ] } },
{ "type": "Feature", "properties": { "municipio": "Valverde de Alcalá", "clasificacion": "urbano-consolidado", "calificacion": "sin-asignar", "version": "vigente", "fuente": "SIT-CAM WFS — UsoDelSuelo:VPLA_V_CLASIFICACION (https://idem.comunidad.madrid/geosrvg/ows)", "fecha_dato": "2026-05-12", "ambito": "24510", "_raw_CD_SIGLAS": "SU", "_raw_DS_CLASIF_GEN": "Suelo Urbano", "_raw_DS_CLASIF_DET": "Suelo Urbano", "_raw_DS_DOCU": "NORMAS SUBSIDIARIAS", "_raw_DS_LEY": "CM Ley 4/1984, E RDL 1/1992", "_raw_FC_AC": "1994-04-21", "_raw_NM_AREA_M2": 10849.1573492473, "_cam_code": "166" }, "geometry": { "type": "Polygon", "coordinates": [ [ [ -3.2994, 40.4169 ], [ -3.2995, 40.4176 ], [ -3.2998, 40.4173 ], [ -3.3006, 40.4176 ], [ -3.3008, 40.4168 ], [ -3.2992, 40.4165 ], [ -3.2994, 40.4169 ] ] ] } },
{ "type": "Feature", "properties": { "municipio": "Valverde de Alcalá", "clasificacion": "urbano-consolidado", "calificacion": "sin-asignar", "version": "vigente", "fuente": "SIT-CAM WFS — UsoDelSuelo:VPLA_V_CLASIFICACION (https://idem.comunidad.madrid/geosrvg/ows)", "fecha_dato": "2026-05-12", "ambito": "24510", "_raw_CD_SIGLAS": "SU", "_raw_DS_CLASIF_GEN": "Suelo Urbano", "_raw_DS_CLASIF_DET": "Suelo Urbano", "_raw_DS_DOCU": "NORMAS SUBSIDIARIAS", "_raw_DS_LEY": "CM Ley 4/1984, E RDL 1/1992", "_raw_FC_AC": "1994-04-21", "_raw_NM_AREA_M2": 13201.562279053, "_cam_code": "166" }, "geometry": { "type": "Polygon", "coordinates": [ [ [ -3.3016, 40.4155 ], [ -3.3014, 40.4165 ], [ -3.3015, 40.4166 ], [ -3.3013, 40.4171 ], [ -3.3015, 40.4171 ], [ -3.3027, 40.4157 ], [ -3.303, 40.4158 ], [ -3.3031, 40.4155 ], [ -3.3014, 40.4152 ], [ -3.3014, 40.4154 ], [ -3.3016, 40.4155 ] ] ] } },
{ "type": "Feature", "properties": { "municipio": "Valverde de Alcalá", "clasificacion": "urbano-consolidado", "calificacion": "sin-asignar", "version": "vigente", "fuente": "SIT-CAM WFS — UsoDelSuelo:VPLA_V_CLASIFICACION (https://idem.comunidad.madrid/geosrvg/ows)", "fecha_dato": "2026-05-12", "ambito": "24510", "_raw_CD_SIGLAS": "SU", "_raw_DS_CLASIF_GEN": "Suelo Urbano", "_raw_DS_CLASIF_DET": "Suelo Urbano", "_raw_DS_DOCU": "NORMAS SUBSIDIARIAS", "_raw_DS_LEY": "CM Ley 4/1984, E RDL 1/1992", "_raw_FC_AC": "1994-04-21", "_raw_NM_AREA_M2": 9654.8532779583002, "_cam_code": "166" }, "geometry": { "type": "Polygon", "coordinates": [ [ [ -3.2998, 40.4132 ], [ -3.3002, 40.4137 ], [ -3.3003, 40.4136 ], [ -3.3013, 40.4136 ], [ -3.3013, 40.4133 ], [ -3.3017, 40.4132 ], [ -3.3017, 40.413 ], [ -3.3009, 40.413 ], [ -3.3009, 40.4132 ], [ -3.2996, 40.4129 ], [ -3.2994, 40.4132 ], [ -3.2995, 40.4133 ], [ -3.2998, 40.4132 ] ] ] } },
{ "type": "Feature", "properties": { "municipio": "Valverde de Alcalá", "clasificacion": "urbano-consolidado", "calificacion": "sin-asignar", "version": "vigente", "fuente": "SIT-CAM WFS — UsoDelSuelo:VPLA_V_CLASIFICACION (https://idem.comunidad.madrid/geosrvg/ows)", "fecha_dato": "2026-05-12", "ambito": "24510", "_raw_CD_SIGLAS": "SU", "_raw_DS_CLASIF_GEN": "Suelo Urbano", "_raw_DS_CLASIF_DET": "Suelo Urbano", "_raw_DS_DOCU": "NORMAS SUBSIDIARIAS", "_raw_DS_LEY": "CM Ley 4/1984, E RDL 1/1992", "_raw_FC_AC": "1994-04-21", "_raw_NM_AREA_M2": 53733.0762163201, "_cam_code": "166" }, "geometry": { "type": "Polygon", "coordinates": [ [ [ -3.3008, 40.4177 ], [ -3.3003, 40.4183 ], [ -3.2999, 40.4181 ], [ -3.2998, 40.4183 ], [ -3.2996, 40.4183 ], [ -3.2996, 40.4178 ], [ -3.2999, 40.4173 ], [ -3.2995, 40.4176 ], [ -3.2994, 40.4171 ], [ -3.2992, 40.4171 ], [ -3.2988, 40.4181 ], [ -3.2983, 40.4184 ], [ -3.298, 40.4191 ], [ -3.2974, 40.4193 ], [ -3.2969, 40.4198 ], [ -3.2967, 40.4204 ], [ -3.2965, 40.4204 ], [ -3.2961, 40.4208 ], [ -3.296, 40.4215 ], [ -3.2963, 40.4215 ], [ -3.2963, 40.4209 ], [ -3.2965, 40.4206 ], [ -3.297, 40.4203 ], [ -3.2971, 40.4199 ], [ -3.2975, 40.4195 ], [ -3.2982, 40.4199 ], [ -3.2977, 40.4201 ], [ -3.2976, 40.4202 ], [ -3.2977, 40.4203 ], [ -3.2984, 40.4202 ], [ -3.2984, 40.4201 ], [ -3.2989, 40.4201 ], [ -3.2989, 40.42 ], [ -3.2993, 40.4201 ], [ -3.3002, 40.4201 ], [ -3.3004, 40.42 ], [ -3.3003, 40.4197 ], [ -3.2998, 40.4192 ], [ -3.2998, 40.419 ], [ -3.3001, 40.4188 ], [ -3.3, 40.4187 ], [ -3.3004, 40.4187 ], [ -3.3008, 40.4184 ], [ -3.3009, 40.4182 ], [ -3.3008, 40.4181 ], [ -3.3011, 40.4179 ], [ -3.3011, 40.4178 ], [ -3.3008, 40.4177 ] ] ] } },
{ "type": "Feature", "properties": { "municipio": "Valverde de Alcalá", "clasificacion": "urbano-consolidado", "calificacion": "sin-asignar", "version": "vigente", "fuente": "SIT-CAM WFS — UsoDelSuelo:VPLA_V_CLASIFICACION (https://idem.comunidad.madrid/geosrvg/ows)", "fecha_dato": "2026-05-12", "ambito": "24510", "_raw_CD_SIGLAS": "SU", "_raw_DS_CLASIF_GEN": "Suelo Urbano", "_raw_DS_CLASIF_DET": "Suelo Urbano", "_raw_DS_DOCU": "NORMAS SUBSIDIARIAS", "_raw_DS_LEY": "CM Ley 4/1984, E RDL 1/1992", "_raw_FC_AC": "1994-04-21", "_raw_NM_AREA_M2": 5155.8722319521603, "_cam_code": "166" }, "geometry": { "type": "Polygon", "coordinates": [ [ [ -3.2956, 40.4132 ], [ -3.2955, 40.4136 ], [ -3.2969, 40.4138 ], [ -3.2971, 40.4134 ], [ -3.2956, 40.4132 ] ] ] } },
{ "type": "Feature", "properties": { "municipio": "Valverde de Alcalá", "clasificacion": "urbano-consolidado", "calificacion": "sin-asignar", "version": "vigente", "fuente": "SIT-CAM WFS — UsoDelSuelo:VPLA_V_CLASIFICACION (https://idem.comunidad.madrid/geosrvg/ows)", "fecha_dato": "2026-05-12", "ambito": "24510", "_raw_CD_SIGLAS": "SU", "_raw_DS_CLASIF_GEN": "Suelo Urbano", "_raw_DS_CLASIF_DET": "Suelo Urbano", "_raw_DS_DOCU": "NORMAS SUBSIDIARIAS", "_raw_DS_LEY": "CM Ley 4/1984, E RDL 1/1992", "_raw_FC_AC": "1994-04-21", "_raw_NM_AREA_M2": 7183.4488779806497, "_cam_code": "166" }, "geometry": { "type": "Polygon", "coordinates": [ [ [ -3.3008, 40.4177 ], [ -3.3009, 40.4176 ], [ -3.3008, 40.4174 ], [ -3.3016, 40.4171 ], [ -3.3013, 40.4171 ], [ -3.3015, 40.4163 ], [ -3.3012, 40.416 ], [ -3.3009, 40.4161 ], [ -3.3008, 40.4171 ], [ -3.3006, 40.4176 ], [ -3.3008, 40.4176 ], [ -3.3008, 40.4177 ] ] ] } },
{ "type": "Feature", "properties": { "municipio": "Valverde de Alcalá", "clasificacion": "urbano-consolidado", "calificacion": "sin-asignar", "version": "vigente", "fuente": "SIT-CAM WFS — UsoDelSuelo:VPLA_V_CLASIFICACION (https://idem.comunidad.madrid/geosrvg/ows)", "fecha_dato": "2026-05-12", "ambito": "24510", "_raw_CD_SIGLAS": "SU", "_raw_DS_CLASIF_GEN": "Suelo Urbano", "_raw_DS_CLASIF_DET": "Suelo Urbano", "_raw_DS_DOCU": "NORMAS SUBSIDIARIAS", "_raw_DS_LEY": "CM Ley 4/1984, E RDL 1/1992", "_raw_FC_AC": "1994-04-21", "_raw_NM_AREA_M2": 10179.9568928551, "_cam_code": "166" }, "geometry": { "type": "Polygon", "coordinates": [ [ [ -3.2966, 40.4153 ], [ -3.2988, 40.416 ], [ -3.2989, 40.4156 ], [ -3.2985, 40.4155 ], [ -3.2986, 40.4152 ], [ -3.2983, 40.4151 ], [ -3.2977, 40.4151 ], [ -3.2977, 40.4152 ], [ -3.2966, 40.415 ], [ -3.2966, 40.4153 ] ] ] } },
{ "type": "Feature", "properties": { "municipio": "Valverde de Alcalá", "clasificacion": "urbano-consolidado", "calificacion": "sin-asignar", "version": "vigente", "fuente": "SIT-CAM WFS — UsoDelSuelo:VPLA_V_CLASIFICACION (https://idem.comunidad.madrid/geosrvg/ows)", "fecha_dato": "2026-05-12", "ambito": "24510", "_raw_CD_SIGLAS": "SU", "_raw_DS_CLASIF_GEN": "Suelo Urbano", "_raw_DS_CLASIF_DET": "Suelo Urbano", "_raw_DS_DOCU": "NORMAS SUBSIDIARIAS", "_raw_DS_LEY": "CM Ley 4/1984, E RDL 1/1992", "_raw_FC_AC": "1994-04-21", "_raw_NM_AREA_M2": 6398.2023247726302, "_cam_code": "166" }, "geometry": { "type": "Polygon", "coordinates": [ [ [ -3.2983, 40.4138 ], [ -3.2982, 40.4142 ], [ -3.2998, 40.4143 ], [ -3.2999, 40.4142 ], [ -3.2997, 40.4139 ], [ -3.2989, 40.4139 ], [ -3.299, 40.4137 ], [ -3.2983, 40.4138 ] ] ] } },
{ "type": "Feature", "properties": { "municipio": "Valverde de Alcalá", "clasificacion": "urbanizable-no-sectorizado", "calificacion": "sin-asignar", "version": "vigente", "fuente": "SIT-CAM WFS — UsoDelSuelo:VPLA_V_CLASIFICACION (https://idem.comunidad.madrid/geosrvg/ows)", "fecha_dato": "2026-05-12", "ambito": "24510", "_raw_CD_SIGLAS": "SUBNS", "_raw_DS_CLASIF_GEN": "Suelo No Urbanizable Común", "_raw_DS_CLASIF_DET": "Suelo No Urbanizable Común", "_raw_DS_DOCU": "NORMAS SUBSIDIARIAS", "_raw_DS_LEY": "CM Ley 4/1984, E RDL 1/1992", "_raw_FC_AC": "1994-04-21", "_raw_NM_AREA_M2": 13806.738871289999, "_cam_code": "166" }, "geometry": { "type": "Polygon", "coordinates": [ [ [ -3.3056, 40.4136 ], [ -3.3054, 40.414 ], [ -3.3055, 40.4144 ], [ -3.3053, 40.4147 ], [ -3.3056, 40.4149 ], [ -3.306, 40.4149 ], [ -3.3067, 40.4143 ], [ -3.3064, 40.4135 ], [ -3.306, 40.4133 ], [ -3.3058, 40.4137 ], [ -3.3056, 40.4136 ] ] ] } },
{ "type": "Feature", "properties": { "municipio": "Valverde de Alcalá", "clasificacion": "urbanizable-no-sectorizado", "calificacion": "sin-asignar", "version": "vigente", "fuente": "SIT-CAM WFS — UsoDelSuelo:VPLA_V_CLASIFICACION (https://idem.comunidad.madrid/geosrvg/ows)", "fecha_dato": "2026-05-12", "ambito": "24510", "_raw_CD_SIGLAS": "SUBNS", "_raw_DS_CLASIF_GEN": "Suelo No Urbanizable Común", "_raw_DS_CLASIF_DET": "Suelo No Urbanizable Común", "_raw_DS_DOCU": "NORMAS SUBSIDIARIAS", "_raw_DS_LEY": "CM Ley 4/1984, E RDL 1/1992", "_raw_FC_AC": "1994-04-21", "_raw_NM_AREA_M2": 2169862.0099623702, "_cam_code": "166" }, "geometry": { "type": "Polygon", "coordinates": [ [ [ -3.2808, 40.3977 ], [ -3.2815, 40.3972 ], [ -3.2828, 40.3974 ], [ -3.2829, 40.3972 ], [ -3.2841, 40.3964 ], [ -3.2842, 40.3961 ], [ -3.2845, 40.3958 ], [ -3.2849, 40.3943 ], [ -3.2844, 40.394 ], [ -3.2837, 40.3931 ], [ -3.2837, 40.3929 ], [ -3.2847, 40.3925 ], [ -3.2849, 40.3923 ], [ -3.2859, 40.392 ], [ -3.2863, 40.3922 ], [ -3.287, 40.3921 ], [ -3.2873, 40.392 ], [ -3.2879, 40.3912 ], [ -3.2896, 40.391 ], [ -3.291, 40.3903 ], [ -3.2927, 40.3905 ], [ -3.2939, 40.391 ], [ -3.2944, 40.391 ], [ -3.2949, 40.3907 ], [ -3.295, 40.391 ], [ -3.2953, 40.3912 ], [ -3.296, 40.3909 ], [ -3.2962, 40.3902 ], [ -3.2961, 40.3897 ], [ -3.2973, 40.3893 ], [ -3.2979, 40.3893 ], [ -3.2981, 40.3895 ], [ -3.2993, 40.3899 ], [ -3.2994, 40.3901 ], [ -3.3004, 40.3901 ], [ -3.3009, 40.3899 ], [ -3.3014, 40.3899 ], [ -3.3023, 40.3902 ], [ -3.3026, 40.3898 ], [ -3.3036, 40.389 ], [ -3.3035, 40.3887 ], [ -3.3038, 40.3883 ], [ -3.3039, 40.3875 ], [ -3.3043, 40.3872 ], [ -3.3047, 40.3865 ], [ -3.3054, 40.3859 ], [ -3.3002, 40.3858 ], [ -3.2927, 40.3841 ], [ -3.2915, 40.384 ], [ -3.2869, 40.3824 ], [ -3.2819, 40.3817 ], [ -3.28, 40.3813 ], [ -3.2761, 40.3809 ], [ -3.2737, 40.3805 ], [ -3.2762, 40.3845 ], [ -3.2778, 40.3886 ], [ -3.2784, 40.3932 ], [ -3.2789, 40.3931 ], [ -3.2796, 40.3927 ], [ -3.279, 40.3942 ], [ -3.279, 40.3946 ], [ -3.2793, 40.3949 ], [ -3.2798, 40.3949 ], [ -3.2801, 40.3956 ], [ -3.2802, 40.3967 ], [ -3.2808, 40.3977 ] ] ] } },
{ "type": "Feature", "properties": { "municipio": "Valverde de Alcalá", "clasificacion": "urbanizable-sectorizado", "calificacion": "sin-asignar", "version": "vigente", "fuente": "SIT-CAM WFS — UsoDelSuelo:VPLA_V_CLASIFICACION (https://idem.comunidad.madrid/geosrvg/ows)", "fecha_dato": "2026-05-12", "ambito": "24510", "_raw_CD_SIGLAS": "SUBS", "_raw_DS_CLASIF_GEN": "Suelo Apto Para Urbanizar", "_raw_DS_CLASIF_DET": "Suelo Apto para Urbanizar", "_raw_DS_DOCU": "NORMAS SUBSIDIARIAS", "_raw_DS_LEY": "CM Ley 4/1984, E RDL 1/1992", "_raw_FC_AC": "1994-04-21", "_raw_NM_AREA_M2": 17758.318982181601, "_cam_code": "166" }, "geometry": { "type": "Polygon", "coordinates": [ [ [ -3.3057, 40.4181 ], [ -3.306, 40.4195 ], [ -3.3071, 40.4195 ], [ -3.307, 40.4186 ], [ -3.3073, 40.4183 ], [ -3.3076, 40.4182 ], [ -3.3073, 40.4178 ], [ -3.3065, 40.4181 ], [ -3.3057, 40.4181 ] ] ] } },
{ "type": "Feature", "properties": { "municipio": "Valverde de Alcalá", "clasificacion": "urbanizable-sectorizado", "calificacion": "sin-asignar", "version": "vigente", "fuente": "SIT-CAM WFS — UsoDelSuelo:VPLA_V_CLASIFICACION (https://idem.comunidad.madrid/geosrvg/ows)", "fecha_dato": "2026-05-12", "ambito": "24510", "_raw_CD_SIGLAS": "SUBS", "_raw_DS_CLASIF_GEN": "Suelo Apto Para Urbanizar", "_raw_DS_CLASIF_DET": "Suelo Apto para Urbanizar", "_raw_DS_DOCU": "NORMAS SUBSIDIARIAS", "_raw_DS_LEY": "CM Ley 4/1984, E RDL 1/1992", "_raw_FC_AC": "1994-04-21", "_raw_NM_AREA_M2": 57322.592130923003, "_cam_code": "166" }, "geometry": { "type": "Polygon", "coordinates": [ [ [ -3.2994, 40.4165 ], [ -3.2996, 40.4165 ], [ -3.2997, 40.4162 ], [ -3.3001, 40.4162 ], [ -3.2998, 40.415 ], [ -3.2998, 40.4143 ], [ -3.2982, 40.4142 ], [ -3.2983, 40.4138 ], [ -3.2985, 40.4137 ], [ -3.2971, 40.4135 ], [ -3.2971, 40.4134 ], [ -3.2969, 40.4138 ], [ -3.2955, 40.4136 ], [ -3.2954, 40.4137 ], [ -3.2953, 40.4139 ], [ -3.2954, 40.4142 ], [ -3.2968, 40.4144 ], [ -3.2966, 40.415 ], [ -3.2977, 40.4152 ], [ -3.2977, 40.4151 ], [ -3.2986, 40.4152 ], [ -3.2985, 40.4155 ], [ -3.2989, 40.4156 ], [ -3.2988, 40.416 ], [ -3.2992, 40.4163 ], [ -3.2992, 40.4165 ], [ -3.2994, 40.4165 ] ] ] } }
]
}
